{"version": 0.6, "generator": "Overpass API 0.7.60 f4c14d41", "osm3s": {"timestamp_osm_base": "2023-05-02T21:16:21Z", "copyright": "The data included in this document is from www.openstreetmap.org. The data is made available under ODbL."}, "elements": [{"type": "node", "id": 4786672225, "lat": 41.0719356, "lon": 28.9492065, "tags": {"amenity": "bar", "name": "tayfun", "name:en": "teyfun", "name:tr": "tetja rafet"}}, {"type": "node", "id": 4788050823, "lat": 41.0744636, "lon": 28.9436618, "tags": {"amenity": "bar", "name": "Tetja Rafet", "name:tr": "Tetja Rafet"}}, {"type": "node", "id": 7424883589, "lat": 41.078009, "lon": 28.8879692, "tags": {"amenity": "bar", "brewery": "various", "min_age": "18", "name": "Ufuk Tekel", "opening_hours": "24/7"}}, {"type": "node", "id": 8957915819, "lat": 41.2587127, "lon": 28.7481226, "tags": {"amenity": "bar", "name:en": "IGA Lounge Domestic"}}, {"type": "node", "id": 8957915918, "lat": 41.2588315, "lon": 28.748621, "tags": {"air_conditioning": "yes", "amenity": "bar", "check_date": "2023-01-15", "internet_access": "wlan", "internet_access:fee": "customers", "name:en": "Turkish Airlines CIP Lounge Domestic", "operator": "Turkish Airlines", "wheelchair": "yes"}}]}