{"version": 0.6, "generator": "Overpass API 0.7.60 f4c14d41", "osm3s": {"timestamp_osm_base": "2023-05-02T21:16:21Z", "copyright": "The data included in this document is from www.openstreetmap.org. The data is made available under ODbL."}, "elements": [{"type": "node", "id": 288789422, "lat": 41.1137326, "lon": 29.060203}, {"type": "node", "id": 288789424, "lat": 41.113523, "lon": 29.0606478}, {"type": "node", "id": 288789428, "lat": 41.1134327, "lon": 29.0605728}, {"type": "node", "id": 288789431, "lat": 41.1136424, "lon": 29.0601281}, {"type": "node", "id": 538394067, "lat": 41.0858449, "lon": 29.0447576, "tags": {"amenity": "cafe", "wheelchair": "yes"}}, {"type": "node", "id": 621411998, "lat": 41.050052, "lon": 29.0129935, "tags": {"amenity": "cafe", "name": "K\u0131r Kahvesi", "name:ar": "\u0645\u0642\u0647\u0649 \u0643\u064a\u0631"}}, {"type": "node", "id": 1788450263, "lat": 41.0895679, "lon": 29.0502539}, {"type": "node", "id": 1788450308, "lat": 41.0894222, "lon": 29.0506043}, {"type": "node", "id": 1788450310, "lat": 41.0895216, "lon": 29.0506261}, {"type": "node", "id": 1788450339, "lat": 41.0894685, "lon": 29.0502322}, {"type": "node", "id": 1863206661, "lat": 41.0634749, "lon": 28.9915546, "tags": {"amenity": "cafe", "brand": "Starbucks", "brand:wikidata": "Q37158", "brand:wikipedia": "en:Starbucks", "cuisine": "coffee_shop", "internet_access": "wlan", "name": "Starbucks", "official_name": "Starbucks Coffee", "takeaway": "yes"}}, {"type": "node", "id": 1863224851, "lat": 41.076676, "lon": 29.026445, "tags": {"addr:housename": "Akmerkez", "amenity": "cafe", "brand": "Starbucks", "brand:wikidata": "Q37158", "brand:wikipedia": "en:Starbucks", "cuisine": "coffee_shop", "internet_access": "wlan", "internet_access:fee": "no", "name": "Starbucks", "official_name": "Starbucks Coffee", "takeaway": "yes"}}, {"type": "node", "id": 2193688113, "lat": 41.0863967, "lon": 29.0060289, "tags": {"addr:city": "Istanbul", "amenity": "cafe", "name": "T\u00fcrkmen Cafe"}}, {"type": "node", "id": 2201702996, "lat": 41.1689798, "lon": 29.0586933, "tags": {"amenity": "cafe", "name": "Sar\u0131yer Spor Kul\u00fcb\u00fc Kafeteryas\u0131"}}, {"type": "node", "id": 2201704997, "lat": 41.1688849, "lon": 29.0576874, "tags": {"amenity": "cafe", "cuisine": "regional", "name": "Me\u015fhur Sar\u0131yer B\u00f6rek\u00e7isi"}}, {"type": "node", "id": 2201709410, "lat": 41.1675805, "lon": 29.0573066, "tags": {"amenity": "cafe", "cuisine": "regional", "name": "Sar\u0131yer H\u00fcnkar B\u00f6rek\u00e7isi"}}, {"type": "node", "id": 2201709413, "lat": 41.1684831, "lon": 29.057159, "tags": {"amenity": "cafe", "cuisine": "regional", "name": "Tarihi Sar\u0131yer Muhallebicisi"}}, {"type": "node", "id": 2245028847, "lat": 41.0833743, "lon": 29.0531835, "tags": {"amenity": "cafe", "wheelchair": "yes"}}, {"type": "node", "id": 2261194415, "lat": 41.0698156, "lon": 29.0017659, "tags": {"amenity": "cafe", "brand": "Starbucks", "brand:wikidata": "Q37158", "brand:wikipedia": "en:Starbucks", "cuisine": "coffee_shop", "name": "Starbucks", "official_name": "Starbucks Coffee", "takeaway": "yes"}}, {"type": "node", "id": 2261194419, "lat": 41.0675022, "lon": 29.0014307, "tags": {"amenity": "cafe", "name": "Y\u00fccel Simit"}}, {"type": "node", "id": 2261194420, "lat": 41.0680826, "lon": 29.0014065, "tags": {"amenity": "cafe", "cuisine": "sandwich", "name": "Melita Pastanesi"}}, {"type": "node", "id": 2261194423, "lat": 41.0677024, "lon": 29.0010337, "tags": {"amenity": "cafe", "brand": "Kahve D\u00fcnyas\u0131", "brand:wikidata": "Q28008050", "cuisine": "coffee_shop", "name": "Kahve D\u00fcnyas\u0131", "takeaway": "yes"}}, {"type": "node", "id": 2337918458, "lat": 41.0867661, "lon": 29.0141186}, {"type": "node", "id": 2337918461, "lat": 41.0867739, "lon": 29.0139455}, {"type": "node", "id": 2337918463, "lat": 41.0867236, "lon": 29.0138131}, {"type": "node", "id": 2337918465, "lat": 41.086653, "lon": 29.0138129}, {"type": "node", "id": 2337918467, "lat": 41.0866987, "lon": 29.0139207}, {"type": "node", "id": 2337918469, "lat": 41.0866999, "lon": 29.0139675}, {"type": "node", "id": 2337918471, "lat": 41.0866811, "lon": 29.0139659}, {"type": "node", "id": 2337918473, "lat": 41.086674, "lon": 29.0140595}, {"type": "node", "id": 2337918475, "lat": 41.0866952, "lon": 29.0140611}, {"type": "node", "id": 2337918477, "lat": 41.0866929, "lon": 29.0141126}, {"type": "node", "id": 2341079700, "lat": 41.0505868, "lon": 28.9907403}, {"type": "node", "id": 2341079714, "lat": 41.0506655, "lon": 28.9908644}, {"type": "node", "id": 2341079737, "lat": 41.0507749, "lon": 28.9905304}, {"type": "node", "id": 2341079751, "lat": 41.0508561, "lon": 28.9906435}, {"type": "node", "id": 2384256934, "lat": 41.0560168, "lon": 29.0739787, "tags": {"amenity": "cafe", "internet_access": "yes", "name": "Asl\u0131 B\u00f6rek"}}, {"type": "node", "id": 2530861317, "lat": 41.105481, "lon": 29.0195741}, {"type": "node", "id": 2545224215, "lat": 41.1173184, "lon": 29.0655624, "tags": {"amenity": "cafe", "cuisine": "burger", "name": "Yenik\u00f6y Spor Kul\u00fcb\u00fc \u00c7ay bah\u00e7esi"}}, {"type": "node", "id": 2773226212, "lat": 41.1098892, "lon": 29.0316943, "tags": {"amenity": "cafe", "name": "Laduree"}}, {"type": "node", "id": 2789440665, "lat": 41.1157884, "lon": 29.0500256}, {"type": "node", "id": 2789440666, "lat": 41.115721, "lon": 29.0500777}, {"type": "node", "id": 2789440667, "lat": 41.1156253, "lon": 29.049866}, {"type": "node", "id": 2789440668, "lat": 41.115694, "lon": 29.0498155}, {"type": "node", "id": 2847354566, "lat": 41.2058238, "lon": 29.0744085, "tags": {"amenity": "cafe", "brand": "Caff\u00e8 Nero", "brand:wikidata": "Q675808", "brand:wikipedia": "en:Caff\u00e8 Nero", "cuisine": "coffee_shop", "name": "Caff\u00e8 Nero", "opening_hours": "Mo-Fr 08:30-20:00; Sa-Su 09:00-17:00", "takeaway": "yes"}}, {"type": "node", "id": 2847384011, "lat": 41.2049819, "lon": 29.0736738, "tags": {"amenity": "cafe", "brand": "Caff\u00e8 Nero", "brand:wikidata": "Q675808", "cuisine": "coffee_shop", "name": "Caff\u00e8 Nero", "takeaway": "yes"}}, {"type": "node", "id": 2847384012, "lat": 41.2048823, "lon": 29.0733634, "tags": {"amenity": "cafe", "name": "Mezunlar Derne\u011fi"}}, {"type": "node", "id": 2847384016, "lat": 41.2066539, "lon": 29.0726002, "tags": {"amenity": "cafe", "name": "Pi\u015fti"}}, {"type": "node", "id": 2847384021, "lat": 41.2059949, "lon": 29.0748739, "tags": {"amenity": "cafe", "name": "Planet"}}, {"type": "node", "id": 2938605884, "lat": 41.0787229, "lon": 29.0453103, "tags": {"amenity": "cafe", "name": "Osmanli Nargile"}}, {"type": "node", "id": 3137366273, "lat": 41.1221294, "lon": 29.0710207, "tags": {"amenity": "cafe", "name": "Emek Cafe"}}, {"type": "node", "id": 3163134912, "lat": 41.0851043, "lon": 29.0465541}, {"type": "node", "id": 3163134913, "lat": 41.0850134, "lon": 29.0464195}, {"type": "node", "id": 3163134914, "lat": 41.0849669, "lon": 29.0464747}, {"type": "node", "id": 3163134915, "lat": 41.0850077, "lon": 29.0466478}, {"type": "node", "id": 3163134916, "lat": 41.0850235, "lon": 29.0466501}, {"type": "node", "id": 3166541161, "lat": 41.0943413, "lon": 29.0926401, "tags": {"amenity": "cafe", "name": "Lagash Cig Kofte"}}, {"type": "node", "id": 3241340677, "lat": 41.0791344, "lon": 29.0651059, "tags": {"amenity": "cafe", "internet_access": "no", "name": "K\u00fc\u00e7\u00fcksu Kasr\u0131 Kafe", "website": "https://www.zomato.com/tr/istanbul/k%C3%BC%C3%A7%C3%BCksu-kasr%C4%B1-restaurant-cafe-g%C3%B6ksu-istanbul"}}, {"type": "node", "id": 3325434364, "lat": 41.0811325, "lon": 29.0129646, "tags": {"addr:postcode": "34330", "amenity": "cafe", "name": "Elvish Inn", "smoking": "outside"}}, {"type": "node", "id": 3459457493, "lat": 41.0871846, "lon": 29.0754079}, {"type": "node", "id": 3459457494, "lat": 41.0873544, "lon": 29.0756654}, {"type": "node", "id": 3459457495, "lat": 41.0872493, "lon": 29.0759229}, {"type": "node", "id": 3459457496, "lat": 41.0870309, "lon": 29.0759229}, {"type": "node", "id": 3459457497, "lat": 41.0869096, "lon": 29.0754722}, {"type": "node", "id": 3473367183, "lat": 41.0850434, "lon": 29.0726639, "tags": {"amenity": "cafe", "name": "G\u00fczelcehisar Cafe"}}, {"type": "node", "id": 3473377790, "lat": 41.069238, "lon": 29.0569025, "tags": {"amenity": "cafe", "name": "Alperenler"}}, {"type": "node", "id": 3473426246, "lat": 41.0999542, "lon": 29.0654235, "tags": {"amenity": "cafe", "name": "Kanl\u0131ca Yo\u011furt\u00e7usu"}}, {"type": "node", "id": 3494113476, "lat": 41.1071428, "lon": 29.0241022, "tags": {"addr:city": "Istanbul", "addr:postcode": "34469", "addr:street": "Ar\u0131 Yolu", "amenity": "cafe", "cuisine": "b\u00f6rek", "internet_access": "wlan", "name": "Asl\u0131 B\u00f6rek"}}, {"type": "node", "id": 3500963270, "lat": 41.0793009, "lon": 29.0061807, "tags": {"amenity": "cafe", "name": "\u00e7ardak cafe"}}, {"type": "node", "id": 3523902584, "lat": 41.0773493, "lon": 29.075682, "tags": {"amenity": "cafe", "name": "Beyta\u015f De\u011firmen Cafe"}}, {"type": "node", "id": 3575137719, "lat": 41.1053764, "lon": 29.0196108}, {"type": "node", "id": 3597084435, "lat": 41.0794127, "lon": 29.0756688, "tags": {"amenity": "cafe", "name": "Pe\u00e7ko Unlu Mamulleri"}}, {"type": "node", "id": 3600177364, "lat": 41.2063134, "lon": 29.0234019}, {"type": "node", "id": 3600177365, "lat": 41.2062549, "lon": 29.0233362}, {"type": "node", "id": 3600177366, "lat": 41.2061793, "lon": 29.0234569}, {"type": "node", "id": 3600177367, "lat": 41.2062358, "lon": 29.0235253}, {"type": "node", "id": 3657223973, "lat": 41.0513988, "lon": 28.9913203}, {"type": "node", "id": 3657223974, "lat": 41.0512623, "lon": 28.9914775}, {"type": "node", "id": 3657223978, "lat": 41.0513272, "lon": 28.9912323}, {"type": "node", "id": 3657223979, "lat": 41.0511923, "lon": 28.9913957}, {"type": "node", "id": 3657223980, "lat": 41.0512557, "lon": 28.991149}, {"type": "node", "id": 3657223981, "lat": 41.0511222, "lon": 28.9913153}, {"type": "node", "id": 3661532350, "lat": 41.1111823, "lon": 29.0005489, "tags": {"addr:city": "\u0130stanbul", "addr:street": "Maslak Ayaza\u011fa Cd.", "amenity": "cafe", "cuisine": "b\u00f6rek", "internet_access": "no", "name": "Bilice B\u00f6rek\u00e7isi"}}, {"type": "node", "id": 3701773166, "lat": 41.0518256, "lon": 29.0107931}, {"type": "node", "id": 3701773167, "lat": 41.0518278, "lon": 29.0107736}, {"type": "node", "id": 3701773168, "lat": 41.0518616, "lon": 29.0108004}, {"type": "node", "id": 3701773169, "lat": 41.051872, "lon": 29.0107103}, {"type": "node", "id": 3701773170, "lat": 41.0518618, "lon": 29.0106874}, {"type": "node", "id": 3701773171, "lat": 41.0517708, "lon": 29.010762}, {"type": "node", "id": 3701773172, "lat": 41.0518594, "lon": 29.0107078}, {"type": "node", "id": 3701773173, "lat": 41.0517813, "lon": 29.0106711}, {"type": "node", "id": 3713402852, "lat": 41.1877989, "lon": 29.0394948, "tags": {"amenity": "cafe", "name": "pa\u015fab\u00f6rek", "smoking": "isolated"}}, {"type": "node", "id": 3818242612, "lat": 41.0937959, "lon": 29.0921927, "tags": {"amenity": "cafe", "name": "Asu B\u00f6rek"}}, {"type": "node", "id": 4005932132, "lat": 41.0849725, "lon": 29.0465754}, {"type": "node", "id": 4005932133, "lat": 41.0849971, "lon": 29.0465194}, {"type": "node", "id": 4043705881, "lat": 41.073319, "lon": 29.0283887, "tags": {"amenity": "cafe", "brand": "Kahve D\u00fcnyas\u0131", "brand:wikidata": "Q28008050", "cuisine": "coffee_shop", "name": "Kahve D\u00fcnyas\u0131", "takeaway": "yes"}}, {"type": "node", "id": 4047095798, "lat": 41.0767505, "lon": 29.0253444, "tags": {"amenity": "cafe", "name": "Bistro 34"}}, {"type": "node", "id": 4049379677, "lat": 41.0638855, "lon": 29.0315765}, {"type": "node", "id": 4049379679, "lat": 41.0639358, "lon": 29.0314325}, {"type": "node", "id": 4049380389, "lat": 41.0642657, "lon": 29.0318098}, {"type": "node", "id": 4049380392, "lat": 41.0643159, "lon": 29.0316658}, {"type": "node", "id": 4053760862, "lat": 41.0755424, "lon": 29.0171154, "tags": {"amenity": "cafe", "brand": "Kahve D\u00fcnyas\u0131", "brand:wikidata": "Q28008050", "cuisine": "coffee_shop", "name": "Kahve D\u00fcnyas\u0131", "takeaway": "yes"}}, {"type": "node", "id": 4053781500, "lat": 41.076262, "lon": 29.0148029, "tags": {"amenity": "cafe", "brand": "Mado", "brand:wikidata": "Q17116336", "brand:wikipedia": "en:Mado (food company)", "cuisine": "coffee_shop", "name": "Mado", "takeaway": "yes"}}, {"type": "node", "id": 4053785523, "lat": 41.0754565, "lon": 29.0168834, "tags": {"amenity": "cafe", "brand": "Kahve D\u00fcnyas\u0131", "brand:wikidata": "Q28008050", "cuisine": "coffee_shop", "name": "Kahve D\u00fcnyas\u0131", "takeaway": "yes"}}, {"type": "node", "id": 4053860160, "lat": 41.0767974, "lon": 29.027694, "tags": {"amenity": "cafe", "brand": "Mado", "brand:wikidata": "Q17116336", "brand:wikipedia": "en:Mado (food company)", "cuisine": "coffee_shop", "name": "Mado", "takeaway": "yes"}}, {"type": "node", "id": 4053862158, "lat": 41.0762186, "lon": 29.0132067, "tags": {"amenity": "cafe", "brand": "Starbucks", "brand:wikidata": "Q37158", "brand:wikipedia": "en:Starbucks", "cuisine": "coffee_shop", "name": "Starbucks", "official_name": "Starbucks Coffee", "takeaway": "yes"}}, {"type": "node", "id": 4057360477, "lat": 41.0640678, "lon": 29.0316884}, {"type": "node", "id": 4124644489, "lat": 41.0659375, "lon": 29.0083805, "tags": {"addr:city": "\u0130stanbul", "addr:housenumber": "15/C", "addr:street": "Y\u0131ld\u0131z Posta Caddesi", "amenity": "cafe", "cuisine": "coffee_shop", "internet_access": "yes", "name": "Bulvar Pastanesi", "smoking": "outside"}}, {"type": "node", "id": 4124648206, "lat": 41.0661863, "lon": 29.0079943, "tags": {"addr:city": "\u0130stanbul", "addr:housenumber": "13", "addr:postcode": "34394", "addr:street": "Y\u0131ld\u0131z Posta Caddesi", "amenity": "cafe", "cuisine": "coffee_shop", "internet_access": "yes", "name": "Manolya Pastaneleri", "smoking": "outside", "website": "http://manolya.com.tr"}}, {"type": "node", "id": 4126489592, "lat": 41.0684655, "lon": 29.0103145, "tags": {"addr:city": "istanbul", "addr:street": "buyukdere", "amenity": "cafe", "internet_access": "wlan", "internet_access:fee": "yes", "level": "0", "name": "M3anema", "outdoor_seating": "yes", "smoking": "outside", "takeaway": "yes"}}, {"type": "node", "id": 4162010490, "lat": 41.0496805, "lon": 29.0260093, "tags": {"accessibility": "Tchibo", "amenity": "cafe", "name": "Tchibo", "wheelchair": "no"}}, {"type": "node", "id": 4165094899, "lat": 41.0492902, "lon": 29.0258856, "tags": {"amenity": "cafe", "name": "Piano Restaurant Cafe", "wheelchair": "limited"}}, {"type": "node", "id": 4165094915, "lat": 41.0500232, "lon": 29.0253874, "tags": {"amenity": "cafe", "name": "Ortakoy Profiterol", "wheelchair": "limited"}}, {"type": "node", "id": 4165094918, "lat": 41.0501517, "lon": 29.0252928, "tags": {"amenity": "cafe", "name": "Alli Dorek Cafe"}}, {"type": "node", "id": 4165094921, "lat": 41.0502495, "lon": 29.0252202, "tags": {"amenity": "cafe", "name": "Paklavaci Dedeoglu", "wheelchair": "no"}}, {"type": "node", "id": 4165097562, "lat": 41.0493195, "lon": 29.0233442, "tags": {"amenity": "cafe", "name": "Istanbul Cafe", "wheelchair": "limited"}}, {"type": "node", "id": 4256030189, "lat": 41.0606904, "lon": 28.9692608, "tags": {"addr:street": "Perpa A Blok Kat 11", "amenity": "cafe", "name": "Dostlar \u00c7ay Oca\u011f\u0131"}}, {"type": "node", "id": 4344443587, "lat": 41.1352793, "lon": 29.2948318}, {"type": "node", "id": 4344443588, "lat": 41.1353331, "lon": 29.2949067}, {"type": "node", "id": 4344445089, "lat": 41.1352639, "lon": 29.2949909}, {"type": "node", "id": 4344445090, "lat": 41.13521, "lon": 29.2949058}, {"type": "node", "id": 4371188637, "lat": 41.1016851, "lon": 29.2903019, "tags": {"amenity": "cafe", "brand": "Starbucks", "brand:wikidata": "Q37158", "cuisine": "coffee_shop", "name": "Starbucks", "official_name": "Starbucks Coffee", "takeaway": "yes"}}, {"type": "node", "id": 4371188642, "lat": 41.0907739, "lon": 29.2872494, "tags": {"amenity": "cafe", "brand": "Starbucks", "brand:wikidata": "Q37158", "cuisine": "coffee_shop", "name": "Starbucks", "official_name": "Starbucks Coffee", "takeaway": "yes"}}, {"type": "node", "id": 4402746990, "lat": 41.0505935, "lon": 28.9858477, "tags": {"addr:housenumber": "44", "addr:postcode": "34375", "addr:street": "E\u015fref Efendi Sk.", "amenity": "cafe", "internet_access": "wlan", "name": "Kot S\u0131f\u0131r Mekan", "name:tr": "Kot S\u0131f\u0131r Mekan", "opening_hours": "Mo-Su 10:00-23:00", "website": "http://kot0.com"}}, {"type": "node", "id": 4419254077, "lat": 41.0672825, "lon": 29.0009615, "tags": {"amenity": "cafe", "name": "Chops Cafe & Pub"}}, {"type": "node", "id": 4428872692, "lat": 41.0637886, "lon": 28.9876616, "tags": {"amenity": "cafe", "internet_access": "wlan", "name": "\u00c7aykovski", "name:en": "Caykovski"}}, {"type": "node", "id": 4494008818, "lat": 41.1132284, "lon": 29.0615035, "tags": {"amenity": "cafe"}}, {"type": "node", "id": 4535217992, "lat": 41.1144639, "lon": 29.130238, "tags": {"amenity": "cafe"}}, {"type": "node", "id": 4535240397, "lat": 41.0873587, "lon": 29.0566886, "tags": {"amenity": "cafe", "name": "Lokma", "name:en": "Lokma Cafe", "wheelchair": "no"}}, {"type": "node", "id": 4538678392, "lat": 41.0798586, "lon": 29.0328467, "tags": {"amenity": "cafe", "name": "ps lounge \u0641\u064a \u0627\u064a\u062a\u0644\u0631", "name:tr": "ps lounge \u0641\u064a \u0627\u064a\u062a\u0644\u0631"}}, {"type": "node", "id": 4538758289, "lat": 41.0504943, "lon": 29.0529658, "tags": {"amenity": "cafe", "name:ar": "\u0645\u0637\u0639\u0645 \u0648 \u0645\u0642\u0647\u0649  Erbap"}}, {"type": "node", "id": 4538806089, "lat": 41.0755216, "lon": 29.0188421, "tags": {"amenity": "cafe", "name:ar": "\u0645\u0642\u0647\u0649 kadayifzade  \u0645\u0646\u0637\u0642\u0629 \u0627\u062a\u064a\u0644\u0631"}}, {"type": "node", "id": 4538812189, "lat": 41.0531978, "lon": 28.9934675, "tags": {"amenity": "cafe", "name:ar": "\u0645\u0642\u0647\u0649  humaliva cikolata"}}, {"type": "node", "id": 4542445079, "lat": 41.0941737, "lon": 29.1017802, "tags": {"addr:street": "Cumhuriyet Caddesi", "amenity": "cafe", "cuisine": "sandwich", "internet_access": "yes", "name": "Fiesta Kafe"}}, {"type": "node", "id": 4545405762, "lat": 41.1938354, "lon": 29.4381399}, {"type": "node", "id": 4545405763, "lat": 41.1937022, "lon": 29.4381037}, {"type": "node", "id": 4545405764, "lat": 41.193676, "lon": 29.4382552}, {"type": "node", "id": 4545405765, "lat": 41.1938011, "lon": 29.4383169}, {"type": "node", "id": 4546305699, "lat": 41.0561839, "lon": 28.9974615, "tags": {"amenity": "cafe", "cuisine": "donut;pancake;ramen;chicken;sandwich;fish_and_chips;soba;tea;steak_house;beef_bowl;breakfast;grill;bagel;cake;barbecue;deli", "internet_access": "wlan"}}, {"type": "node", "id": 4548571390, "lat": 41.0816048, "lon": 29.0336487, "tags": {"amenity": "cafe", "name:en": "\u0645\u0642\u0647\u0649 harvard cafe"}}, {"type": "node", "id": 4549898290, "lat": 41.0506484, "lon": 29.0526678, "tags": {"amenity": "cafe", "name:ar": "\u0645\u0642\u0647\u0649 boon cafe \u0634\u0646\u0642\u0644 \u0643\u0648\u064a"}}, {"type": "node", "id": 4555570957, "lat": 41.1143866, "lon": 29.0922865, "tags": {"amenity": "cafe", "name:ar": "\u0645\u0642\u0647\u0649 shubra \u0628\u064a\u0643\u0648\u0632"}}, {"type": "node", "id": 4564637325, "lat": 41.0927441, "lon": 29.0861299, "tags": {"addr:housenumber": "29B", "addr:street": "Fatih Sultan Mehmet Cd.", "amenity": "cafe", "cuisine": "turkish", "internet_access": "no", "name": "\u00e7engelk\u00f6y b\u00f6rek\u00e7isi"}}, {"type": "node", "id": 4569187389, "lat": 41.0503844, "lon": 29.0536507, "tags": {"addr:housenumber": "14", "addr:postcode": "34680", "addr:street": "\u00c7engelo\u011flu Sokak", "amenity": "cafe", "internet_access": "wlan", "name": "BabilMekan \u00c7engelk\u00f6y", "name:en": "BabilMekan \u00c7engelk\u00f6y", "name:tr": "BabilMekan \u00c7engelk\u00f6y", "opening_hours": "Mo-Su 09:00-00:00", "phone": "0216 318 1016"}}, {"type": "node", "id": 4573122428, "lat": 41.0704704, "lon": 28.9968224, "tags": {"amenity": "cafe", "name:ar": "\u0645\u0642\u0647\u0649  kunefis"}}, {"type": "node", "id": 4576210591, "lat": 41.0515602, "lon": 28.990994, "tags": {"amenity": "cafe", "name:ar": "\u0645\u0642\u0647\u0649 zamane kahvesi", "name:en": "Zamane Kahvesi"}}, {"type": "node", "id": 4577251889, "lat": 41.0583138, "lon": 29.036182, "tags": {"addr:city": "\u0130stanbul", "addr:district": "Be\u015fikta\u015f", "addr:housenumber": "No:64", "addr:neighbourhood": "Kuru\u00e7e\u015fme", "addr:postcode": "34330", "addr:street": "Muallim Naci Caddesi", "amenity": "cafe", "delivery": "yes", "description": "Bu mekan evcil hayvan dostudur.Bu mekanda vale hizmeti bulunmaktad\u0131r. \u00c7ocuklar i\u00e7in uygun bir mekand\u0131r.", "internet_access": "yes", "name:ar": "\u0645\u0642\u0647\u0649 A\u015f\u015fk Kahve", "name:en": "Assk Cafe", "opening_hours": "Mo-Su 09:00-01:00", "opening_hours:covid19": "off", "outdoor_seating": "yes", "phone": "0212 265 47 34", "website": "asskkahve.com"}}, {"type": "node", "id": 4580115957, "lat": 41.0779862, "lon": 29.0103044, "tags": {"amenity": "cafe", "name": "the house cafe"}}, {"type": "node", "id": 4580117192, "lat": 41.078213, "lon": 29.0103206, "tags": {"amenity": "cafe", "brand": "Starbucks", "brand:wikidata": "Q37158", "brand:wikipedia": "en:Starbucks", "cuisine": "coffee_shop", "name": "Starbucks", "official_name": "Starbucks Coffee", "takeaway": "yes"}}, {"type": "node", "id": 4580129753, "lat": 41.0780169, "lon": 29.0112394, "tags": {"amenity": "cafe", "brand": "Kahve D\u00fcnyas\u0131", "brand:wikidata": "Q28008050", "cuisine": "coffee_shop", "name": "Kahve D\u00fcnyas\u0131", "takeaway": "yes"}}, {"type": "node", "id": 4580138370, "lat": 41.0779924, "lon": 29.0115159, "tags": {"amenity": "cafe", "description": "pastane cafe", "name": "num num"}}, {"type": "node", "id": 4580140152, "lat": 41.0782559, "lon": 29.0116704, "tags": {"addr:housenumber": "185/169", "addr:street": "B\u00fcy\u00fckdere Caddesi", "amenity": "cafe", "cuisine": "turkish", "description": "tatl\u0131 d\u00fckkan\u0131", "email": "saray@saraymuhallebicisi.com", "internet_access": "wlan", "name": "saray muhallebicisi", "name:en": "Saray Muhallebicisi", "name:tr": "Saray Muhallebicisi", "opening_hours": "Mo-Su 10:00-22:00", "phone": "02129992866", "website": "http://saraymuhallebicisi.com"}}, {"type": "node", "id": 4580251226, "lat": 41.0775057, "lon": 29.0117002, "tags": {"amenity": "cafe", "cuisine": "turkish", "description": "tatl\u0131 d\u00fckkan\u0131", "name": "saray muhallebicisi"}}, {"type": "node", "id": 4580253800, "lat": 41.0774207, "lon": 29.010917, "tags": {"amenity": "cafe", "brand": "Starbucks", "brand:wikidata": "Q37158", "brand:wikipedia": "en:Starbucks", "cuisine": "coffee_shop", "name": "Starbucks", "official_name": "Starbucks Coffee", "takeaway": "yes"}}, {"type": "node", "id": 4581101060, "lat": 41.0938716, "lon": 29.0903813}, {"type": "node", "id": 4581964747, "lat": 41.0936944, "lon": 29.0915915, "tags": {"addr:housenumber": "34", "addr:street": "Fatih Sultan Mehmet Cd.", "amenity": "cafe", "brand": "Mado", "brand:wikidata": "Q17116336", "brand:wikipedia": "en:Mado (food company)", "cuisine": "coffee_shop", "name": "Mado", "takeaway": "yes"}}, {"type": "node", "id": 4583084671, "lat": 41.0938993, "lon": 29.0902843}, {"type": "node", "id": 4583084672, "lat": 41.0937713, "lon": 29.0902347}, {"type": "node", "id": 4583084673, "lat": 41.0937273, "lon": 29.0902595}, {"type": "node", "id": 4583084674, "lat": 41.09371, "lon": 29.0902683}, {"type": "node", "id": 4583084675, "lat": 41.093714, "lon": 29.0903851}, {"type": "node", "id": 4583084676, "lat": 41.0937433, "lon": 29.0904099}, {"type": "node", "id": 4583106170, "lat": 41.0943692, "lon": 29.0925977, "tags": {"addr:housenumber": "112B", "addr:street": "Orhan Veli Kan\u0131k Cd.", "amenity": "cafe", "name": "beylerbeyi profiterol"}}, {"type": "node", "id": 4583755602, "lat": 41.0949948, "lon": 29.0968746, "tags": {"addr:housenumber": "31", "addr:street": "Cumhuriyet Caddesi", "amenity": "cafe", "name": "\u00d6zs\u00fct"}}, {"type": "node", "id": 4629420090, "lat": 41.1134708, "lon": 29.0178699, "tags": {"amenity": "cafe", "name:ar": "\u0645\u0642\u0647\u0649 Sanayi 313"}}, {"type": "node", "id": 4631843491, "lat": 41.050518, "lon": 29.0535434, "tags": {"amenity": "cafe", "name:ar": "\u0645\u0627\u064a\u0627 \u0634\u0648\u0643\u0644\u062a"}}, {"type": "node", "id": 4641562690, "lat": 41.082853, "lon": 28.9822945, "tags": {"amenity": "cafe", "brand": "Starbucks", "brand:wikidata": "Q37158", "cuisine": "coffee_shop", "name": "Starbucks", "name:tr": "Starbucks Papirus", "official_name": "Starbucks Coffee", "takeaway": "yes"}}, {"type": "node", "id": 4674285590, "lat": 41.0773058, "lon": 29.0260402, "tags": {"amenity": "cafe", "name:ar": "\u0645\u0642\u0647\u0649 Godiva"}}, {"type": "node", "id": 4674291889, "lat": 41.0503786, "lon": 28.9914485, "tags": {"amenity": "cafe", "name:ar": "\u0645\u0642\u0647\u0649 Godiva", "name:en": "Nespresso Shop"}}, {"type": "node", "id": 4678732990, "lat": 41.0512926, "lon": 28.9961504, "tags": {"amenity": "cafe", "name:en": "Namli Hipermarketleri"}}, {"type": "node", "id": 4691931853, "lat": 41.0938313, "lon": 29.0888453, "tags": {"amenity": "cafe", "name": "bilardo cafe"}}, {"type": "node", "id": 4889958224, "lat": 41.0778177, "lon": 29.0441372, "tags": {"amenity": "cafe", "brand": "Starbucks", "brand:wikidata": "Q37158", "brand:wikipedia": "en:Starbucks", "cuisine": "coffee_shop", "name": "Starbucks", "name:en": "Starbucks", "name:tr": "Starbucks", "official_name": "Starbucks Coffee", "takeaway": "yes"}}, {"type": "node", "id": 4989957524, "lat": 41.0656328, "lon": 29.0026351, "tags": {"amenity": "cafe", "name": "Bursam Ocakba\u015f\u0131", "name:tr": "bursam ocakbashi"}}, {"type": "node", "id": 5095251334, "lat": 41.1090193, "lon": 29.0196151, "tags": {"amenity": "cafe", "brand": "Starbucks", "brand:wikidata": "Q37158", "brand:wikipedia": "en:Starbucks", "cuisine": "coffee_shop", "name": "Starbucks", "official_name": "Starbucks Coffee", "takeaway": "yes"}}, {"type": "node", "id": 5144772025, "lat": 41.1099038, "lon": 29.0193613, "tags": {"amenity": "cafe", "brand": "Starbucks", "brand:wikidata": "Q37158", "brand:wikipedia": "en:Starbucks", "cuisine": "coffee_shop", "name": "Starbucks", "official_name": "Starbucks Coffee", "outdoor_seating": "yes", "smoking": "outside", "takeaway": "yes"}}, {"type": "node", "id": 5217181161, "lat": 41.1132797, "lon": 29.086037}, {"type": "node", "id": 5217181162, "lat": 41.1131479, "lon": 29.0858119}, {"type": "node", "id": 5217181163, "lat": 41.1130906, "lon": 29.085871}, {"type": "node", "id": 5217181164, "lat": 41.1132224, "lon": 29.0860961}, {"type": "node", "id": 5217181165, "lat": 41.1131316, "lon": 29.0859657, "tags": {"addr:city": "\u0130stanbul", "addr:country": "TR", "addr:district": "Beykoz", "addr:neighbourhood": "Pa\u015fabah\u00e7e Mahallesi", "addr:postcode": "34800", "amenity": "cafe", "building": "yes", "name": "\u0130BB Sosyal Tesisleri"}}, {"type": "node", "id": 5274380090, "lat": 41.0697598, "lon": 29.0003581}, {"type": "node", "id": 5274380091, "lat": 41.0697112, "lon": 29.0004312}, {"type": "node", "id": 5274380092, "lat": 41.0697352, "lon": 29.0004594}, {"type": "node", "id": 5274380094, "lat": 41.0698854, "lon": 29.0005631}, {"type": "node", "id": 5274380095, "lat": 41.0698271, "lon": 29.0005445}, {"type": "node", "id": 5274380096, "lat": 41.0698433, "lon": 29.0004558}, {"type": "node", "id": 5289202515, "lat": 41.1001677, "lon": 29.0877455}, {"type": "node", "id": 5289202516, "lat": 41.0999637, "lon": 29.0877968}, {"type": "node", "id": 5289202517, "lat": 41.099983, "lon": 29.0879318}, {"type": "node", "id": 5289202518, "lat": 41.100187, "lon": 29.0878804}, {"type": "node", "id": 5301186399, "lat": 41.0572842, "lon": 28.9834711, "tags": {"amenity": "cafe", "name": "Akat Pastanesi"}}, {"type": "node", "id": 5302405278, "lat": 41.0590068, "lon": 28.9841668, "tags": {"amenity": "cafe", "name": "Bomonti Patisserie"}}, {"type": "node", "id": 5303716779, "lat": 41.0592568, "lon": 28.984144, "tags": {"amenity": "cafe", "name": "Y\u0131ld\u0131z Cafe"}}, {"type": "node", "id": 5326798007, "lat": 41.0829551, "lon": 29.029708}, {"type": "node", "id": 5326798008, "lat": 41.0829761, "lon": 29.029749}, {"type": "node", "id": 5326798009, "lat": 41.0829329, "lon": 29.0298341}, {"type": "node", "id": 5326798010, "lat": 41.0828745, "lon": 29.0298535}, {"type": "node", "id": 5326798011, "lat": 41.0828217, "lon": 29.0297831}, {"type": "node", "id": 5326798012, "lat": 41.0828166, "lon": 29.0297201}, {"type": "node", "id": 5326798013, "lat": 41.082855, "lon": 29.0296772}, {"type": "node", "id": 5326798014, "lat": 41.0829298, "lon": 29.0296664}, {"type": "node", "id": 5434709021, "lat": 41.160694, "lon": 29.0429561, "tags": {"amenity": "cafe"}}, {"type": "node", "id": 5475064321, "lat": 41.0676375, "lon": 28.9914976, "tags": {"amenity": "cafe", "internet_access": "wlan", "name": "Khalifa Shisha Lounge", "name:ru": "\u041a\u0430\u043b\u044c\u044f\u043d\u043d\u0430\u044f \u041a\u0445\u0430\u043b\u0438\u0444\u0430 \u0428\u0438\u0448\u0430 \u041b\u0430\u043d\u0434\u0436", "opening_hours": "24/7"}}, {"type": "node", "id": 5482031321, "lat": 41.0655402, "lon": 29.0179306, "tags": {"addr:street": "Koru Soka\u011f\u0131", "amenity": "cafe", "cuisine": "coffee_shop", "name": "Cup of Joy", "opening_hours": "Mo-Fr 08:00-22:00; Sa-Su 10:00-22:00", "wheelchair": "yes"}}, {"type": "node", "id": 5482109429, "lat": 41.0668451, "lon": 29.0165269, "tags": {"amenity": "cafe", "brand": "Starbucks", "brand:wikidata": "Q37158", "brand:wikipedia": "en:Starbucks", "cuisine": "coffee_shop", "name": "Starbucks", "official_name": "Starbucks Coffee", "takeaway": "yes", "wheelchair": "yes"}}, {"type": "node", "id": 5483137022, "lat": 41.0797486, "lon": 29.0072913, "tags": {"addr:street": "Talatpa\u015fa Caddesi", "amenity": "cafe", "name": "Ekin F", "name:tr": "Ekin F\u0131r\u0131n"}}, {"type": "node", "id": 5524885721, "lat": 41.0527745, "lon": 28.99506, "tags": {"addr:housenumber": "45", "addr:street": "Prof. Dr. M\u00fcfide K\u00fcley Solak", "amenity": "cafe", "cuisine": "coffee_shop", "name": "Gravite Coffee Bar", "name:en": "Gravity Coffee", "name:tr": "Gravite Coffee Bar"}}, {"type": "node", "id": 5556751415, "lat": 41.0698758, "lon": 29.0006159}, {"type": "node", "id": 5556751416, "lat": 41.0696988, "lon": 29.0005591}, {"type": "node", "id": 5608717522, "lat": 41.0562401, "lon": 28.9967545, "tags": {"amenity": "cafe", "name": "La Vita"}}, {"type": "node", "id": 5608761521, "lat": 41.0620943, "lon": 29.0094761, "tags": {"amenity": "cafe", "name": "Petra Roasting Co.", "website": "https://www.petracoffee.com/"}}, {"type": "node", "id": 5613881922, "lat": 41.0658234, "lon": 29.0172524, "tags": {"amenity": "cafe"}}, {"type": "node", "id": 5630294921, "lat": 41.1186308, "lon": 29.0096965, "tags": {"amenity": "cafe", "name": "Arabica Coffee House"}}, {"type": "node", "id": 5680097721, "lat": 41.0787824, "lon": 29.0102239, "tags": {"amenity": "cafe", "name": "Balibey Doner"}}, {"type": "node", "id": 5680097821, "lat": 41.0960968, "lon": 28.9867643, "tags": {"amenity": "cafe", "name": "Seyrangah Mangalba\u0219i", "name:tr": "Seyrangah Mangalba\u0219i"}}, {"type": "node", "id": 5725919923, "lat": 41.061859, "lon": 28.9883478, "tags": {"addr:housenumber": "3", "addr:postcode": "34360", "addr:street": "B\u00fcy\u00fckdere Caddesi", "amenity": "cafe", "cuisine": "tea;turkish;cake;donut;coffee_shop", "internet_access": "wlan", "name": "\u00c7aykovski", "name:en": "Caykovski", "opening_hours": "Mo-Su 06:30-23:30", "phone": "+90 212 291 33 13"}}, {"type": "node", "id": 5739032421, "lat": 41.0579609, "lon": 28.9793118, "tags": {"addr:city": "Cumhuriyet Mahallesi", "addr:district": "\u015ei\u015fli", "addr:neighbourhood": "Cumhuriyet Mahallesi, Hac\u0131ahmet Silah\u015f\u00f6r Cad, Yeniyol Sk.", "addr:postcode": "34440", "addr:street": "Silah\u015f\u00f6r Caddesi", "amenity": "cafe", "name": "Cooklife", "name:tr": "Cooklife"}}, {"type": "node", "id": 5739796521, "lat": 41.0513477, "lon": 28.9967189, "tags": {"addr:housenumber": "34", "addr:street": "Ni\u015fanta\u015f\u0131 Ihlamur Yolu Sokak", "amenity": "cafe", "name": "Federal", "name:tr": "Federal"}}, {"type": "node", "id": 5740031921, "lat": 41.0651814, "lon": 28.9956547, "tags": {"addr:street": "Ortaklar Caddesi", "amenity": "cafe", "cuisine": "turkish;kebab;coffee_shop", "internet_access": "wlan", "name": "Match Cafe", "phone": "(0212) 266 15 85"}}, {"type": "node", "id": 5751400722, "lat": 41.0499631, "lon": 28.9953668, "tags": {"addr:housenumber": "8", "addr:street": "Av. S\u00fcreyya A\u011fao\u011flu Sokak", "amenity": "cafe", "name:en": "Spada Coffee"}}, {"type": "node", "id": 5751400835, "lat": 41.0505442, "lon": 28.9945512, "tags": {"addr:housenumber": "37", "addr:street": "\u015eakay\u0131k Sokak", "amenity": "cafe", "name:en": "Coffeebain"}}, {"type": "node", "id": 5751934341, "lat": 41.0512816, "lon": 28.9947677, "tags": {"addr:housenumber": "18", "addr:street": "Prof. Dr. Orhan Ersek sokak", "amenity": "cafe", "name:en": "Petra Roasting Co."}}, {"type": "node", "id": 5771263656, "lat": 41.0647001, "lon": 28.993447, "tags": {"addr:housenumber": "5/21", "addr:postcode": "34180", "addr:street": "Eski Londra Asfalt\u0131", "amenity": "cafe", "cuisine": "coffee_shop", "internet_access": "wlan", "name": "Kocatepe", "name:tr": "Kocatepe Kahve Evi", "opening_hours": "Mo-Su 05:00-00:30", "website": "http://kocatepekahveevi.com.tr"}}, {"type": "node", "id": 5810435757, "lat": 41.051582, "lon": 28.9925953, "tags": {"addr:housenumber": "26 a", "addr:street": "Akakavak Sokak", "amenity": "cafe", "cuisine": "turkish", "name": "Zeynel"}}, {"type": "node", "id": 5814184553, "lat": 41.0928784, "lon": 29.1067312, "tags": {"amenity": "cafe", "name:en": "Muhlama Karadeniz Mutfagi"}}, {"type": "node", "id": 5840245585, "lat": 41.051412, "lon": 29.0332952, "tags": {"addr:city": "\u0130stanbul", "addr:district": "Be\u015fikta\u015f", "addr:housenumber": "No:48", "addr:neighbourhood": "Ortak\u00f6y", "addr:postcode": "34347", "addr:street": "Muallim Naci Caddesi", "amenity": "cafe", "cuisine": "aperatif_yiyecekler", "description": "Nargile mevcuttur.\n\u00d6zel otopark\u0131 mevcuttur.", "name": "Bosphorus Cafe", "opening_hours": "Mo-Su 12:00-02:00", "opening_hours:covid19": "off", "outdoor_seating": "yes", "payment:cash": "yes", "phone": "0212 327 77 23"}}, {"type": "node", "id": 5869163285, "lat": 41.1508806, "lon": 29.0428258, "tags": {"amenity": "cafe", "name:en": "\u062a\u0631\u0627\u0628\u064a\u0627"}}, {"type": "node", "id": 5902354186, "lat": 41.085599, "lon": 29.0380959, "tags": {"addr:housenumber": "17/b", "addr:street": "Cengiz Topel Caddesi", "amenity": "cafe", "name:en": "Piccolo"}}, {"type": "node", "id": 5924273185, "lat": 41.0510873, "lon": 28.9952213, "tags": {"addr:housenumber": "9b", "amenity": "cafe", "name:en": "Magado Coffee"}}, {"type": "node", "id": 5936324786, "lat": 41.0813827, "lon": 29.0447255, "tags": {"addr:housenumber": "4", "addr:street": "K\u00fc\u00e7\u00fckbebek Caddesi", "amenity": "cafe", "name:en": "Art of Coffee"}}, {"type": "node", "id": 5936346085, "lat": 41.0798402, "lon": 29.0451474, "tags": {"addr:housenumber": "2a", "addr:street": "Yeniyol \u00c7\u0131kmaz\u0131", "amenity": "cafe", "name:en": "Hidden House - Bebek"}}, {"type": "node", "id": 6009584585, "lat": 41.1053747, "lon": 28.9860442, "tags": {"amenity": "cafe", "name": "Bigchefs"}}, {"type": "node", "id": 6009584685, "lat": 41.1060735, "lon": 28.9861463, "tags": {"amenity": "cafe", "name": "Michelle"}}, {"type": "node", "id": 6087660585, "lat": 41.0862325, "lon": 29.0489182, "tags": {"amenity": "cafe", "cuisine": "coffee_shop", "name": "Past Hisar"}}, {"type": "node", "id": 6095098685, "lat": 41.1049487, "lon": 28.9858229, "tags": {"amenity": "cafe", "name": "Vakko Bistrot"}}, {"type": "node", "id": 6095102485, "lat": 41.1051279, "lon": 28.9859267, "tags": {"amenity": "cafe", "brand": "Starbucks", "brand:wikidata": "Q37158", "brand:wikipedia": "en:Starbucks", "cuisine": "coffee_shop", "name": "Starbucks", "official_name": "Starbucks Coffee", "takeaway": "yes"}}, {"type": "node", "id": 6126570675, "lat": 41.0976332, "lon": 28.9892456, "tags": {"addr:city": "istanbul", "addr:district": "ka\u011f\u0131thane", "addr:neighbourhood": "seyrantepe mahallesi", "addr:street": "\u0130brahim Karao\u011flano\u011flu Caddesi", "amenity": "cafe", "cuisine": "burger;coffee_shop;kebab;chicken", "internet_access": "wlan", "name": "Seyrangah", "outdoor_seating": "yes"}}, {"type": "node", "id": 6137636652, "lat": 41.0864784, "lon": 29.0060565, "tags": {"addr:city": "Istanbul", "addr:district": "Ka\u011f\u0131thane", "addr:housenumber": "5/B", "addr:neighbourhood": "Emniyetevleri Mahallesi", "addr:postcode": "34415", "addr:street": "Lalapa\u015fa Sokak", "amenity": "cafe", "cuisine": "coffee_shop", "name": "Ye\u015fil\u00e7am Soka\u011f\u0131", "smoking": "no"}}, {"type": "node", "id": 6137641432, "lat": 41.0865016, "lon": 29.0060633, "tags": {"addr:city": "Istanbul", "addr:district": "Ka\u011f\u0131thane", "addr:housenumber": "No:5/C", "addr:neighbourhood": "Emniyetevleri Mahallesi", "addr:postcode": "34415", "addr:street": "Lalapa\u015fa Sokak", "amenity": "cafe", "name": "\u00c7ardak Cafe", "opening_hours": "13:00-23:00", "smoking": "no"}}, {"type": "node", "id": 6157228186, "lat": 41.0796448, "lon": 29.0379858, "tags": {"addr:housenumber": "3", "addr:street": "Bebek Da\u011f\u0131 Sokak", "amenity": "cafe", "name": "Voi Central", "name:tr": "Voi Central"}}, {"type": "node", "id": 6166866478, "lat": 41.0510012, "lon": 28.9950001, "tags": {"addr:city": "Istanbul", "addr:district": "\u015e\u0130\u015eL\u0130", "addr:housenumber": "18C", "addr:neighbourhood": "Te\u015fvikiye Mahallesi", "addr:postcode": "34365", "addr:street": "Prof. Dr. Orhan Ersek Sk", "amenity": "cafe", "cuisine": "coffee_shop", "internet_access": "yes", "name": "Kronotrop Topa\u011fac\u0131", "opening_hours": "Mo-Su 08:00-22:00", "outdoor_seating": "yes", "phone": "+90 (212) 234 8226", "smoking": "isolated", "website": "https://www.kronotrop.com.tr/tr/nerelerdeyiz/topagaci"}}, {"type": "node", "id": 6197859204, "lat": 41.0625559, "lon": 28.997959, "tags": {"amenity": "cafe", "name": "G\u00fcl Pastanesi"}}, {"type": "node", "id": 6197861799, "lat": 41.0625054, "lon": 28.9975325, "tags": {"amenity": "cafe", "name": "Friends Cafe"}}, {"type": "node", "id": 6219760098, "lat": 41.1290915, "lon": 29.2592877, "tags": {"addr:city": "\u0130stanbul", "addr:district": "Beykoz", "addr:housenumber": "53", "addr:neighbourhood": "Cumhuriyet Mahallesi", "addr:postcode": "34829", "addr:street": "Ressam Mehmet Caddesi", "amenity": "cafe", "cuisine": "turkish;noodle;pizza;regional;burger;coffee_shop;sandwich;kebab;chicken;ice_cream;steak_house", "description": "Sessiz sakin huzuru damarlar\u0131n\u0131za kadar hissedebilece\u011finiz bir yer", "internet_access": "yes", "name": "Bamboo Cafe & Restaurant", "opening_hours": "Mo-Su 07:00-23:00", "outdoor_seating": "yes", "payment:cash": "yes", "payment:credit_cards": "yes", "payment:debit_cards": "yes", "payment:maestro": "yes", "payment:mastercard": "yes", "payment:visa": "yes", "phone": "+905448233434", "smoking": "isolated", "start_date": "2009", "takeaway": "yes", "wheelchair": "yes"}}, {"type": "node", "id": 6243912388, "lat": 41.1071904, "lon": 28.9866538, "tags": {"amenity": "cafe", "name": "Timboo Cafe"}}, {"type": "node", "id": 6243912586, "lat": 41.1079708, "lon": 28.9863562, "tags": {"amenity": "cafe", "brand": "Mado", "brand:wikidata": "Q17116336", "brand:wikipedia": "en:Mado (food company)", "cuisine": "coffee_shop", "name": "Mado", "takeaway": "yes"}}, {"type": "node", "id": 6243912686, "lat": 41.1072923, "lon": 28.986687, "tags": {"addr:housenumber": "109-C/116", "amenity": "cafe", "cuisine": "turkish", "email": "saray@saraymuhallebicisi.com", "internet_access": "wlan", "name": "Saray Muhallebicisi", "opening_hours": "Mo-Su 10:00-22:00", "phone": "02129992845", "website": "http://saraymuhallebicisi.com"}}, {"type": "node", "id": 6243945485, "lat": 41.1075992, "lon": 28.9865998, "tags": {"amenity": "cafe", "name": "Expresso Lab"}}, {"type": "node", "id": 6264885985, "lat": 41.0506126, "lon": 29.0071937, "tags": {"addr:street": "Y\u0131ld\u0131z Caddesi", "amenity": "cafe", "cuisine": "breakfast", "name": "Ar\u0131 B\u00f6rek Kafe", "name:en": "Ar\u0131 B\u00f6rek Cafe"}}, {"type": "node", "id": 6295666685, "lat": 41.0512532, "lon": 28.9960387, "tags": {"amenity": "cafe", "name": "Voi", "name:tr": "Voi"}}, {"type": "node", "id": 6295666785, "lat": 41.051142, "lon": 28.9953122, "tags": {"amenity": "cafe", "name": "Date", "name:tr": "Date"}}, {"type": "node", "id": 6325289086, "lat": 41.0650856, "lon": 28.9954504, "tags": {"addr:housenumber": "9/A-3", "addr:street": "Ortaklar Caddesi", "amenity": "cafe", "name": "Rumeli k\u00f6ftecisi", "name:tr": "Rumeli K\u00f6ftecisi"}}, {"type": "node", "id": 6326679555, "lat": 41.23673, "lon": 28.9844777, "tags": {"amenity": "cafe", "name": "G\u00fcm\u00fc\u015fdere Dinlenme \u00c7ay Evi"}}, {"type": "node", "id": 6326679563, "lat": 41.2369877, "lon": 28.9843868, "tags": {"amenity": "cafe", "name": "Efe K\u0131raathanesi"}}, {"type": "node", "id": 6334155689, "lat": 41.0513123, "lon": 28.9827845, "tags": {"amenity": "cafe", "name": "Baruthane Pilavc\u0131s\u0131"}}, {"type": "node", "id": 6490420768, "lat": 41.0624422, "lon": 28.9932294, "tags": {"amenity": "cafe", "brand": "Mado", "brand:wikidata": "Q17116336", "brand:wikipedia": "en:Mado (food company)", "cuisine": "coffee_shop", "name": "Mado", "takeaway": "yes"}}, {"type": "node", "id": 6539230560, "lat": 41.050723, "lon": 28.990713, "tags": {"addr:city": "\u0130STANBUL", "addr:district": "Nisantasi", "addr:housenumber": "2/B", "addr:neighbourhood": "Harbiye mah.", "addr:postcode": "34367", "addr:street": "Abdi \u0130pek\u00e7i Caddesi", "amenity": "cafe", "cuisine": "burger;sandwich;salad;cake;turkish_delight;chocolate;drinks;t;toast;cheese;cheese_cake;pancake;milkshake;smoothie;frozen;\u0131ce_coffee;hot_drinks;breakfast;fried_br\u0131oche;gro\u0131ssant;beef_bowl;fondue", "internet_access": "wlan", "internet_access:fee": "no", "name": "FAT\u0130MA 1932 By Famuse", "opening_hours": "09:00-23:00", "outdoor_seating": "yes", "phone": "+90 212 230 74 33", "website": "https://www.fatima1932.com"}}, {"type": "node", "id": 6544718552, "lat": 41.1096563, "lon": 29.0213812, "tags": {"amenity": "cafe", "brand": "Starbucks", "brand:wikidata": "Q37158", "brand:wikipedia": "en:Starbucks", "cuisine": "coffee_shop", "name": "Starbucks", "official_name": "Starbucks Coffee", "takeaway": "yes"}}, {"type": "node", "id": 6554484992, "lat": 41.0566617, "lon": 28.9854771, "tags": {"amenity": "cafe", "name": "Cagdas Borek"}}, {"type": "node", "id": 6588877888, "lat": 41.1052874, "lon": 29.0188992}, {"type": "node", "id": 6588877889, "lat": 41.1053917, "lon": 29.0188692}, {"type": "node", "id": 6746087937, "lat": 41.21717, "lon": 29.0323829}, {"type": "node", "id": 6746087938, "lat": 41.2171334, "lon": 29.0327148}, {"type": "node", "id": 6746087942, "lat": 41.2170324, "lon": 29.0323561}, {"type": "node", "id": 6746087943, "lat": 41.2169958, "lon": 29.032688}, {"type": "node", "id": 6815014754, "lat": 41.212774, "lon": 29.0391461}, {"type": "node", "id": 6815014755, "lat": 41.2129572, "lon": 29.0396253}, {"type": "node", "id": 6815014756, "lat": 41.2130843, "lon": 29.0395192}, {"type": "node", "id": 6815014757, "lat": 41.2128981, "lon": 29.0390636}, {"type": "node", "id": 6829960618, "lat": 41.1282839, "lon": 29.1119832, "tags": {"amenity": "cafe", "name": "Mekanplus Cafe Nargile"}}, {"type": "node", "id": 6831025288, "lat": 41.0515859, "lon": 28.9932043, "tags": {"amenity": "cafe", "brand": "Starbucks", "brand:wikidata": "Q37158", "cuisine": "coffee_shop", "name": "Starbucks", "name:en": "Starbucks", "official_name": "Starbucks Coffee", "takeaway": "yes"}}, {"type": "node", "id": 6831046785, "lat": 41.0506481, "lon": 28.991207, "tags": {"amenity": "cafe", "name:en": "Godiva Belgium 1926"}}, {"type": "node", "id": 6831046786, "lat": 41.0518121, "lon": 28.9927401, "tags": {"addr:city": "\u0130stanbul", "addr:district": "\u015ei\u015fli", "addr:housenumber": "No:26", "addr:neighbourhood": "Te\u015fvikiye Mahallesi", "addr:postcode": "34365", "addr:street": "Akakavak Soka\u011f\u0131", "amenity": "cafe", "internet_access": "yes", "name:en": "Backhaus", "opening_hours": "We-Sa 10:00-17:00", "opening_hours:covid19": "open", "outdoor_seating": "yes", "payment:cash": "yes", "payment:credit_cards": "yes", "payment:yemek_kartlar\u0131": "yes", "phone": "0212 343 60 81", "website": "https://backhaus.com.tr/"}}, {"type": "node", "id": 6831046787, "lat": 41.0518345, "lon": 28.9925234, "tags": {"amenity": "cafe", "brand": "Kahve D\u00fcnyas\u0131", "brand:wikidata": "Q28008050", "cuisine": "coffee_shop", "name": "Kahve D\u00fcnyas\u0131", "name:en": "Kahve Dunyasi", "takeaway": "yes"}}, {"type": "node", "id": 6833013098, "lat": 41.0524396, "lon": 28.9943226, "tags": {"amenity": "cafe", "name:en": "Ministry of coffee"}}, {"type": "node", "id": 6847153629, "lat": 41.1245996, "lon": 29.1013026}, {"type": "node", "id": 6847153630, "lat": 41.1244693, "lon": 29.1013468}, {"type": "node", "id": 6847153631, "lat": 41.1244179, "lon": 29.10108}, {"type": "node", "id": 6847153632, "lat": 41.1245482, "lon": 29.1010358}, {"type": "node", "id": 6847976090, "lat": 41.0512894, "lon": 28.9899601, "tags": {"amenity": "cafe", "cuisine": "turkish", "name": "Mazidagli", "name:tr": "Mazidagli kebap"}}, {"type": "node", "id": 6870108883, "lat": 41.1345508, "lon": 29.0920337}, {"type": "node", "id": 6870108884, "lat": 41.1346042, "lon": 29.0920727}, {"type": "node", "id": 6870112387, "lat": 41.1345728, "lon": 29.0919804}, {"type": "node", "id": 6870112388, "lat": 41.1346262, "lon": 29.0920194}, {"type": "node", "id": 6870921528, "lat": 41.1350451, "lon": 29.089669}, {"type": "node", "id": 6870921529, "lat": 41.1349942, "lon": 29.0896334}, {"type": "node", "id": 6870921530, "lat": 41.1350138, "lon": 29.0895868}, {"type": "node", "id": 6870921531, "lat": 41.1350654, "lon": 29.0896249}, {"type": "node", "id": 6874193732, "lat": 41.0623411, "lon": 28.9861684, "tags": {"addr:city": "istanbul", "addr:district": "\u015ei\u015fli", "addr:housenumber": "80", "addr:neighbourhood": "Merkez Mahallesi", "addr:postcode": "34381", "addr:street": "Han\u0131mefendi Sokak", "amenity": "cafe", "cuisine": "pizza;burger", "internet_access": "yes", "name": "Agusto Cafe", "outdoor_seating": "yes"}}, {"type": "node", "id": 6900269179, "lat": 41.1364577, "lon": 29.0874913, "tags": {"amenity": "cafe", "name": "Deep Blue"}}, {"type": "node", "id": 6920231382, "lat": 41.134474, "lon": 29.0922756, "tags": {"amenity": "cafe", "name": "Lokmacho"}}, {"type": "node", "id": 6920296190, "lat": 41.1347376, "lon": 29.0906368, "tags": {"amenity": "cafe", "name": "Beykoz Pier"}}, {"type": "node", "id": 6920832815, "lat": 41.1410088, "lon": 29.0871915, "tags": {"amenity": "cafe", "cuisine": "tea", "name": "\u00c7ay Evi"}}, {"type": "node", "id": 6920832821, "lat": 41.1401898, "lon": 29.0868658}, {"type": "node", "id": 6920832822, "lat": 41.1401212, "lon": 29.0868591}, {"type": "node", "id": 6920832823, "lat": 41.1401251, "lon": 29.0867878}, {"type": "node", "id": 6920832824, "lat": 41.1401938, "lon": 29.0867946}, {"type": "node", "id": 6924072992, "lat": 41.0502314, "lon": 29.0078176, "tags": {"addr:housenumber": "41", "addr:street": "Y\u0131ld\u0131z Caddesi", "amenity": "cafe", "name": "deal coffe"}}, {"type": "node", "id": 6926828286, "lat": 41.1275101, "lon": 29.0965457, "tags": {"amenity": "cafe", "name": "Vosvos Cafe"}}, {"type": "node", "id": 6928631743, "lat": 41.1345124, "lon": 29.0947098, "tags": {"amenity": "cafe", "name": "Pastali Cafe"}}, {"type": "node", "id": 6933046377, "lat": 41.148968, "lon": 29.0947332, "tags": {"amenity": "cafe"}}, {"type": "node", "id": 6933077308, "lat": 41.1487453, "lon": 29.095554, "tags": {"amenity": "cafe", "name": "Efes Cafe"}}, {"type": "node", "id": 6934326587, "lat": 41.130223, "lon": 29.0940055}, {"type": "node", "id": 6934326588, "lat": 41.1301841, "lon": 29.0939157}, {"type": "node", "id": 6934326589, "lat": 41.130281, "lon": 29.093834}, {"type": "node", "id": 6934326590, "lat": 41.1303249, "lon": 29.0939225}, {"type": "node", "id": 6966610712, "lat": 41.0495457, "lon": 29.025107, "tags": {"amenity": "cafe", "cuisine": "breakfast", "name": "M\u00fcessese", "outdoor_seating": "yes", "phone": "+90 212 258 00 59", "smoking": "outside"}}, {"type": "node", "id": 7004157557, "lat": 41.0823564, "lon": 29.0521061, "tags": {"amenity": "cafe"}}, {"type": "node", "id": 7010840085, "lat": 41.0952059, "lon": 29.0050889, "tags": {"amenity": "cafe", "cuisine": "turkish", "name": "Hatay Ekol K\u00fcnefe Levent"}}, {"type": "node", "id": 7016592669, "lat": 41.0698785, "lon": 29.0006013}, {"type": "node", "id": 7027838986, "lat": 41.1127869, "lon": 29.0207726, "tags": {"addr:street": "Ahi Evran Caddesi", "amenity": "cafe", "brand": "Starbucks", "brand:wikidata": "Q37158", "brand:wikipedia": "en:Starbucks", "cuisine": "coffee_shop", "name": "Starbucks", "official_name": "Starbucks Coffee", "opening_hours": "Mo-Su 09:00-22:00", "takeaway": "yes"}}, {"type": "node", "id": 7087789785, "lat": 41.0559177, "lon": 28.9814455, "tags": {"amenity": "cafe", "internet_access": "wlan", "name": "MOC - Ministry of Coffee", "opening_hours": "Mo-Su 07:30-00:30"}}, {"type": "node", "id": 7088073385, "lat": 41.054265, "lon": 28.9870447, "tags": {"amenity": "cafe", "cuisine": "coffee_shop", "internet_access": "wlan", "name": "MOC - Ministry of Coffee"}}, {"type": "node", "id": 7189793468, "lat": 41.0684935, "lon": 29.0088115, "tags": {"amenity": "cafe", "name": "Coffee Day"}}, {"type": "node", "id": 7189793473, "lat": 41.0691679, "lon": 29.0091947, "tags": {"amenity": "cafe", "name": "Esen Cafe"}}, {"type": "node", "id": 7351141586, "lat": 41.0602156, "lon": 29.0111173, "tags": {"addr:housenumber": "60/1", "addr:street": "Barbaros Bulvar\u0131", "amenity": "cafe", "brand": "Mado", "brand:wikidata": "Q17116336", "brand:wikipedia": "en:Mado (food company)", "cuisine": "coffee_shop", "email": "mansur_58_58@hotmail.com", "name": "Mado", "name:tr": "Mado", "phone": "5415745858", "takeaway": "yes"}}, {"type": "node", "id": 7514942523, "lat": 41.0907007, "lon": 29.0113284}, {"type": "node", "id": 7514942524, "lat": 41.0906581, "lon": 29.0113284}, {"type": "node", "id": 7514942525, "lat": 41.0906331, "lon": 29.0113683}, {"type": "node", "id": 7514942526, "lat": 41.0906512, "lon": 29.0114089}, {"type": "node", "id": 7514942527, "lat": 41.0906147, "lon": 29.0114644}, {"type": "node", "id": 7514942528, "lat": 41.0906169, "lon": 29.0114872}, {"type": "node", "id": 7514942529, "lat": 41.0905676, "lon": 29.0115706}, {"type": "node", "id": 7514942530, "lat": 41.0905264, "lon": 29.0115666}, {"type": "node", "id": 7514942531, "lat": 41.090501, "lon": 29.0116083}, {"type": "node", "id": 7514942532, "lat": 41.0905204, "lon": 29.0116579}, {"type": "node", "id": 7514942533, "lat": 41.090569, "lon": 29.0116539}, {"type": "node", "id": 7514942534, "lat": 41.0906192, "lon": 29.0117085}, {"type": "node", "id": 7514942535, "lat": 41.090673, "lon": 29.0117125}, {"type": "node", "id": 7514942536, "lat": 41.0907022, "lon": 29.0116639}, {"type": "node", "id": 7514942537, "lat": 41.0906887, "lon": 29.0116023}, {"type": "node", "id": 7514942538, "lat": 41.0907468, "lon": 29.0115187}, {"type": "node", "id": 7514942539, "lat": 41.0906837, "lon": 29.0114415}, {"type": "node", "id": 7514942540, "lat": 41.0907202, "lon": 29.0113889}, {"type": "node", "id": 7527270513, "lat": 41.1178768, "lon": 29.0657797, "tags": {"addr:city": "istanbul", "addr:district": "sar\u0131yer", "addr:housenumber": "No:143", "addr:neighbourhood": "Yenik\u00f6y mahallesi", "addr:street": "K\u00f6yba\u015f\u0131 Caddesi", "amenity": "cafe", "internet_access": "yes", "name": "Kahve Liman\u0131", "opening_hours:covid19": "off", "outdoor_seating": "yes", "website": "kahvelimani.com.tr"}}, {"type": "node", "id": 7527313924, "lat": 41.117555, "lon": 29.064161, "tags": {"addr:city": "istanbul", "addr:district": "sar\u0131yer", "addr:neighbourhood": "Yenik\u00f6y mahallesi", "addr:street": "K\u00f6yba\u015f\u0131 Caddesi", "amenity": "cafe", "bar": "yes", "internet_access": "yes", "internet_access:fee": "no", "name": "Molka", "opening_hours": "Mo-Su 08:30-00:00", "outdoor_seating": "yes", "phone": "0212 299 22 55", "website": "molkacafe.com"}}, {"type": "node", "id": 7529824340, "lat": 41.1185624, "lon": 29.0674448, "tags": {"addr:city": "istanbul", "addr:district": "sar\u0131yer", "addr:housenumber": "No:125", "addr:neighbourhood": "Yenik\u00f6y mahallesi", "addr:street": "K\u00f6yba\u015f\u0131 Caddesi", "amenity": "cafe", "cuisine": "pizza;coffee_shop;fish_and_chips;seafood", "internet_access": "yes", "internet_access:fee": "customers", "name": "Gazebo", "opening_hours": "Mo-Su 09:00-00:00", "outdoor_seating": "yes", "phone": "+90 (212) 299 84 87", "website": "gazebo-ist.com"}}, {"type": "node", "id": 7529983015, "lat": 41.1173632, "lon": 29.0640597, "tags": {"addr:city": "istanbul", "addr:district": "sar\u0131yer", "addr:housenumber": "No:162", "addr:neighbourhood": "Yenik\u00f6y mahallesi", "addr:street": "K\u00f6yba\u015f\u0131 Caddesi", "amenity": "cafe", "name": "Tasse Coffee Co", "opening_hours": "Mo-Su10:00-22:00", "opening_hours:covid19": "off", "outdoor_seating": "yes"}}, {"type": "node", "id": 7530026639, "lat": 41.1173527, "lon": 29.064032, "tags": {"addr:city": "istanbul", "addr:district": "sar\u0131yer", "addr:housenumber": "No:162", "addr:neighbourhood": "Yenik\u00f6y mahallesi", "addr:street": "K\u00f6yba\u015f\u0131 Caddesi", "air_conditioning": "yes", "amenity": "cafe", "brand": "Caff\u00e8 Nero", "brand:wikidata": "Q675808", "brand:wikipedia": "en:Caff\u00e8 Nero", "cuisine": "coffee_shop", "internet_access": "yes", "name": "Caff\u00e8 Nero", "opening_hours:covid19": "off", "outdoor_seating": "yes", "phone": "+90 (212) 262 13 31", "takeaway": "yes"}}, {"type": "node", "id": 7530037902, "lat": 41.1173396, "lon": 29.0640009, "tags": {"addr:city": "istanbul", "addr:district": "sar\u0131yer", "addr:housenumber": "No:164", "addr:neighbourhood": "Yenik\u00f6y mahallesi", "addr:street": "K\u00f6yba\u015f\u0131 Caddesi", "air_conditioning": "yes", "amenity": "cafe", "brand": "Caribou Coffee", "brand:wikidata": "Q5039494", "brand:wikipedia": "en:Caribou Coffee", "cuisine": "coffee_shop", "internet_access": "yes", "name": "Caribou Coffee", "opening_hours:covid19": "off", "outdoor_seating": "yes", "phone": "0212 262 62 83", "takeaway": "yes"}}, {"type": "node", "id": 7532843140, "lat": 41.1171043, "lon": 29.0635648}, {"type": "node", "id": 7532843141, "lat": 41.1170734, "lon": 29.0635231}, {"type": "node", "id": 7532843142, "lat": 41.1170536, "lon": 29.063556}, {"type": "node", "id": 7532843143, "lat": 41.1170845, "lon": 29.0635963}, {"type": "node", "id": 7532850922, "lat": 41.1171363, "lon": 29.0636461}, {"type": "node", "id": 7532850923, "lat": 41.1171176, "lon": 29.0636644}, {"type": "node", "id": 7532850924, "lat": 41.1171335, "lon": 29.0637032}, {"type": "node", "id": 7532850925, "lat": 41.1171545, "lon": 29.0636812}, {"type": "node", "id": 7533020594, "lat": 41.0890149, "lon": 29.0568127, "tags": {"addr:city": "istanbul", "addr:district": "sar\u0131yer", "addr:housenumber": "No:1", "addr:neighbourhood": "rumeli hisar\u0131 mahallesi", "addr:street": "Balta Liman\u0131 Hisar Caddesi", "amenity": "cafe", "name": "Dokqa", "opening_hours": "Mo-Su 08:00-01:00", "outdoor_seating": "yes"}}, {"type": "node", "id": 7533089397, "lat": 41.0889868, "lon": 29.0568174, "tags": {"addr:city": "istanbul", "addr:district": "sar\u0131yer", "addr:neighbourhood": "rumeli hisar\u0131 mahallesi", "addr:street": "Baltaliman\u0131 Hisar Caddesi", "amenity": "cafe", "internet_access": "yes", "internet_access:fee": "no", "name": "Fincan", "opening_hours": "Mo-Su 07:00-04:00", "outdoor_seating": "yes", "phone": "0212 263 60 10", "website": "fincankahve.com"}}, {"type": "node", "id": 7537185198, "lat": 41.087418, "lon": 29.0567088, "tags": {"addr:city": "istanbul", "addr:district": "sar\u0131yer", "addr:neighbourhood": "rumeli hisar\u0131 mahallesi", "addr:street": "Yahya Kemal Caddesi", "amenity": "cafe", "delivery": "no", "name": "Espressolab", "opening_hours": "Mo-Su 09:00-21:00", "phone": "0212 855 80 65", "website": "espressolab.com.tr"}}, {"type": "node", "id": 7537267797, "lat": 41.0863024, "lon": 29.0567776, "tags": {"addr:city": "istanbul", "addr:district": "sar\u0131yer", "addr:housenumber": "No:10", "addr:neighbourhood": "rumeli hisar\u0131 mahallesi", "addr:street": "Yahya Kemal Caddesi", "amenity": "cafe", "internet_access": "yes", "internet_access:fee": "no", "name": "Kale cafe \u00c7ay Bah\u00e7esi", "opening_hours": "Mo-Su 06:00-01:00", "opening_hours:covid19": "off", "outdoor_seating": "yes", "phone": "0212 257 55 78"}}, {"type": "node", "id": 7537305110, "lat": 41.0859577, "lon": 29.056686, "tags": {"addr:city": "istanbul", "addr:district": "sar\u0131yer", "addr:housenumber": "No:26", "addr:neighbourhood": "rumeli hisar\u0131 mahallesi", "addr:street": "Yahya Kemal Caddesi", "amenity": "cafe", "delivery": "yes", "internet_access": "yes", "internet_access:fee": "no", "name": "Hisar Cafe&Restaurant", "opening_hours": "Mo-Su 07:00-03:00", "outdoor_seating": "yes", "phone": "0212 265 18 82"}}, {"type": "node", "id": 7542070017, "lat": 41.0801477, "lon": 29.0510317, "tags": {"addr:city": "\u0130stanbul", "addr:district": "Be\u015fikta\u015f", "addr:neighbourhood": "Bebek", "addr:street": "Cevdetpa\u015fa Caddesi", "amenity": "cafe", "delivery": "yes", "name": "Bebek Koru Kahvesi", "opening_hours": "Mo-Su 09:00-00:00", "opening_hours:covid19": "off", "outdoor_seating": "yes", "phone": "0212 287 56 07", "website": "https://tr-tr.facebook.com/"}}, {"type": "node", "id": 7542233106, "lat": 41.0784083, "lon": 29.044837, "tags": {"addr:city": "\u0130stanbul", "addr:district": "Be\u015fikta\u015f", "addr:neighbourhood": "Bebek", "addr:street": "Cevdetpa\u015fa Caddesi", "amenity": "cafe", "name": "Selaml\u0131que \u0130stanbul Cafe", "opening_hours:covid19": "off"}}, {"type": "node", "id": 7542312114, "lat": 41.0784002, "lon": 29.0448209, "tags": {"addr:city": "\u0130stanbul", "addr:district": "Be\u015fikta\u015f", "addr:housenumber": "No:46", "addr:neighbourhood": "Bebek", "addr:street": "Cevdetpa\u015fa Caddesi", "amenity": "cafe", "delivery": "yes", "name": "Ab'bas Waffle", "opening_hours": "Mo-Su 08:00-03:00", "outdoor_seating": "yes", "phone": "0212 263 00 05", "website": "abbaswaffle.com.tr"}}, {"type": "node", "id": 7552360429, "lat": 41.0757985, "lon": 29.042979, "tags": {"addr:city": "\u0130stanbul", "addr:district": "Be\u015fikta\u015f", "addr:housenumber": "No:39", "addr:neighbourhood": "Bebek", "addr:street": "Cevdetpa\u015fa Caddesi", "amenity": "cafe", "internet_access": "yes", "internet_access:fee": "customers", "name": "Midpoint", "opening_hours": "Mo-Su 09:00-02:00", "outdoor_seating": "yes", "payment:cash": "yes", "payment:credit_cards": "yes", "phone": "0212 265 40 37", "website": "midpoint.com.tr"}}, {"type": "node", "id": 7553143662, "lat": 41.0730964, "lon": 29.0442183, "tags": {"addr:city": "\u0130stanbul", "addr:district": "Be\u015fikta\u015f", "addr:housenumber": "No:15/A", "addr:neighbourhood": "Bebek", "addr:street": "Cevdetpa\u015fa Caddesi", "amenity": "cafe", "description": "Evcil hayvan dostu bir mekand\u0131r. Vale mevcuttur. ", "internet_access": "yes", "internet_access:fee": "customers", "name": "Patio Bebek", "opening_hours": "Mo-Su 08:00-02:00", "outdoor_seating": "yes", "phone": "0212 257 57 70", "reservation": "recommended"}}, {"type": "node", "id": 7555030380, "lat": 41.0673434, "lon": 29.0425129, "tags": {"addr:city": "\u0130stanbul", "addr:district": "Be\u015fikta\u015f", "addr:housenumber": "No:1", "addr:neighbourhood": "Arnavutk\u00f6y", "addr:postcode": "34345", "addr:street": "Tekkeci Soka\u011f\u0131", "amenity": "cafe", "description": "Evcil hayvan dostu bir kafedir.", "internet_access": "yes", "name": "Kavanoz", "opening_hours": "Mo-Su 09:00-02:00", "opening_hours:covid19": "off", "outdoor_seating": "yes", "payment:cash": "yes", "payment:credit_cards": "yes"}}, {"type": "node", "id": 7557085481, "lat": 41.0666806, "lon": 29.0417961, "tags": {"addr:city": "\u0130stanbul", "addr:district": "Be\u015fikta\u015f", "addr:housenumber": "No:43/A", "addr:neighbourhood": "Arnavutk\u00f6y", "addr:postcode": "34345", "addr:street": "Bebek Arnavutk\u00f6y Caddesi", "amenity": "cafe", "delivery": "yes", "internet_access": "yes", "name": "La Pierre Pasta Cafe", "opening_hours": "Mo-Su 08:00-19:30", "opening_hours:covid19": "off", "outdoor_seating": "yes"}}, {"type": "node", "id": 7557102236, "lat": 41.0654279, "lon": 29.0409497, "tags": {"addr:city": "\u0130stanbul", "addr:district": "Be\u015fikta\u015f", "addr:housenumber": "No:21A-B", "addr:neighbourhood": "Arnavutk\u00f6y", "addr:postcode": "34345", "addr:street": "Bebek Arnavutk\u00f6y Caddesi", "amenity": "cafe", "description": "Evcil hayvan dostu bir mekand\u0131r.", "internet_access": "yes", "name": "Wuufbox Cafe", "opening_hours": "Mo-Su 09:00-22:00", "opening_hours:covid19": "off", "outdoor_seating": "yes", "payment:cash": "yes", "payment:credit_cards": "yes", "phone": "0212 265 96 09", "website": "https://wuufbox.com/"}}, {"type": "node", "id": 7568738488, "lat": 41.0513485, "lon": 28.990702, "tags": {"addr:city": "\u0130STANBUL", "addr:district": "\u015ei\u015fli", "addr:housenumber": "No:79", "addr:neighbourhood": "Halaskargazi Mahallesi", "addr:postcode": "34371", "addr:street": "Valikona\u011f\u0131 Caddesi", "amenity": "cafe", "brand": "Mado", "brand:wikidata": "Q17116336", "brand:wikipedia": "en:Mado (food company)", "cuisine": "coffee_shop", "delivery": "yes", "internet_access": "wlan", "internet_access:fee": "customers", "name": "Mado", "opening_hours": "Mo-Su 08:00-24:00", "opening_hours:covid19": "off", "outdoor_seating": "yes", "payment:cash": "yes", "payment:credit_cards": "yes", "payment:yemek_kartlar\u0131": "yes", "phone": "0212 234 91 92", "takeaway": "yes", "website": "mado.com.tr"}}, {"type": "node", "id": 7693165985, "lat": 41.0870324, "lon": 29.0195141, "tags": {"addr:housenumber": "6", "addr:postcode": "34335", "addr:street": "Sedir Soka\u011f\u0131", "amenity": "cafe", "name": "Ek Bi\u00e7 Ye I\u00e7"}}, {"type": "node", "id": 7713569184, "lat": 41.0949587, "lon": 29.0682462}, {"type": "node", "id": 7713583185, "lat": 41.0950093, "lon": 29.0683561}, {"type": "node", "id": 7713583186, "lat": 41.0948779, "lon": 29.0684473}, {"type": "node", "id": 7713583187, "lat": 41.0948374, "lon": 29.0683239}, {"type": "node", "id": 7740108481, "lat": 41.067066, "lon": 28.9945768, "tags": {"amenity": "cafe", "name": "Asl\u0131 B\u00f6rek Cafe"}}, {"type": "node", "id": 7740135163, "lat": 41.0675977, "lon": 28.9881586, "tags": {"amenity": "cafe", "name": "Vanel"}}, {"type": "node", "id": 7740142436, "lat": 41.0676066, "lon": 28.990993, "tags": {"amenity": "cafe", "name": "Big Mamma's"}}, {"type": "node", "id": 7740255800, "lat": 41.0668632, "lon": 28.9968275, "tags": {"amenity": "cafe", "name": "Murat Muhallebicisi"}}, {"type": "node", "id": 7918243650, "lat": 41.1136948, "lon": 29.021306, "tags": {"addr:city": "\u0130stanbul", "addr:district": "Sar\u0131yer", "addr:housenumber": "6", "addr:neighbourhood": "Maslak", "addr:postcode": "34485", "addr:street": "Ahi Evran Caddesi", "amenity": "cafe", "cuisine": "kahve;\u00e7orba;salata;sandvi\u00e7;tatl\u0131", "internet_access": "yes", "internet_access:fee": "no", "internet_access:ssid": "STARTUP CAFE", "name": "Startup Cafe Healthy Food & Networking 42 Maslak \ud83d\ude80", "opening_hours": "Mo-Su 08:00-22:00", "outdoor_seating": "yes", "website": "https://startupcafes.com"}}, {"type": "node", "id": 7982712986, "lat": 41.0672036, "lon": 29.0427049, "tags": {"amenity": "cafe", "name": "F\u2019Rosses"}}, {"type": "node", "id": 8545261756, "lat": 41.0678765, "lon": 29.0442503, "tags": {"addr:city": "\u0130stanbul", "addr:district": "Be\u015fikta\u015f", "addr:neighbourhood": "Arnavutk\u00f6y", "addr:postcode": "33345", "addr:street": "Arnavutk\u00f6y Dere Soka\u011f\u0131", "amenity": "cafe", "name": "Hide Arnavutkoy", "opening_hours": "Mo-Su 08:00-22:00", "outdoor_seating": "yes", "website": "www.cafehide.com"}}, {"type": "node", "id": 8892432297, "lat": 41.1221872, "lon": 29.0689767, "tags": {"addr:city": "istanbul", "addr:district": "sar\u0131yer", "addr:housenumber": "7", "addr:neighbourhood": "Yenik\u00f6y mahallesi", "addr:postcode": "34464", "addr:street": "Simit\u00e7i Salih Soka\u011f\u0131", "amenity": "cafe", "cuisine": "coffee_shop;french", "internet_access": "wlan", "internet_access:fee": "customers", "internet_access:ssid": "La vie en Yenik\u00f6y", "name": "La Vie en Yenik\u00f6y", "opening_hours": "09:00-02:00", "outdoor_seating": "yes", "phone": "02122990826"}}, {"type": "node", "id": 9002997372, "lat": 41.0937363, "lon": 29.0916667, "tags": {"amenity": "cafe", "brand": "Mado", "brand:wikidata": "Q17116336", "cuisine": "coffee_shop", "name": "Mado", "takeaway": "yes"}}, {"type": "node", "id": 9003034682, "lat": 41.0941493, "lon": 29.0939434, "tags": {"amenity": "cafe", "name": "Diyar Burma Tatl\u0131c\u0131s\u0131"}}, {"type": "node", "id": 9003040452, "lat": 41.094107, "lon": 29.0936191, "tags": {"amenity": "cafe", "name": "Bolulu Hasan Usta"}}, {"type": "node", "id": 9098884506, "lat": 41.1029825, "lon": 29.0481743, "tags": {"addr:housenumber": "71", "addr:neighbourhood": "Re\u015fitpa\u015fa", "addr:street": "Sezaibey Caddesi", "amenity": "cafe", "internet_access": "yes", "internet_access:fee": "no", "name": "3Chocolate", "phone": "02123233737"}}, {"type": "node", "id": 9100667310, "lat": 41.0792083, "lon": 29.0651488}, {"type": "node", "id": 9100667311, "lat": 41.0792426, "lon": 29.0650483}, {"type": "node", "id": 9100667312, "lat": 41.0790914, "lon": 29.0649576}, {"type": "node", "id": 9100667313, "lat": 41.0790514, "lon": 29.065075}, {"type": "node", "id": 9100667343, "lat": 41.0790245, "lon": 29.0651538}, {"type": "node", "id": 9100667344, "lat": 41.0791756, "lon": 29.0652445}, {"type": "node", "id": 9100686083, "lat": 41.0790265, "lon": 29.0651478}, {"type": "node", "id": 9125987117, "lat": 41.068052, "lon": 29.043324, "tags": {"amenity": "cafe", "name:en": "Melina Kantina"}}, {"type": "node", "id": 9125987118, "lat": 41.0593763, "lon": 29.0363774, "tags": {"amenity": "cafe", "name": "Nilly"}}, {"type": "node", "id": 9131989503, "lat": 41.1180437, "lon": 29.10177, "tags": {"addr:city": "\u0130stanbul", "addr:country": "TR", "addr:district": "Beykoz", "addr:neighbourhood": "\u0130ncirk\u00f6y Mahallesi", "addr:postcode": "34800", "amenity": "cafe", "name": "S & R Cafe", "phone": "+90 216 322 1224"}}, {"type": "node", "id": 9141373579, "lat": 41.1389057, "lon": 29.0306976}, {"type": "node", "id": 9141373580, "lat": 41.1390362, "lon": 29.0308397}, {"type": "node", "id": 9141373581, "lat": 41.138929, "lon": 29.0310133}, {"type": "node", "id": 9141373582, "lat": 41.1387985, "lon": 29.0308712}, {"type": "node", "id": 9164286589, "lat": 41.1154008, "lon": 28.9990469, "tags": {"amenity": "cafe", "name": "Mikado Cafe & Restaurant"}}, {"type": "node", "id": 9164286590, "lat": 41.1154068, "lon": 28.9983632, "tags": {"amenity": "cafe", "name": "\u00c7ehre Cafe"}}, {"type": "node", "id": 9164297482, "lat": 41.1148777, "lon": 28.9986349, "tags": {"amenity": "cafe", "name": "Dags"}}, {"type": "node", "id": 9164320484, "lat": 41.1152128, "lon": 28.9983248, "tags": {"amenity": "cafe", "name": "Meydan Simit Salonu"}}, {"type": "node", "id": 9164320485, "lat": 41.1150051, "lon": 28.9982306, "tags": {"amenity": "cafe", "name": "Tu\u011fba Pasta Cafe"}}, {"type": "node", "id": 9278786217, "lat": 41.0511193, "lon": 28.9968381, "tags": {"amenity": "cafe", "name:en": "pokemate"}}, {"type": "node", "id": 9322091120, "lat": 41.0784911, "lon": 29.0450178, "tags": {"amenity": "cafe", "name:en": "Baylan"}}, {"type": "node", "id": 9367052917, "lat": 41.0675874, "lon": 29.0431119, "tags": {"amenity": "cafe", "name:en": "Bugra bey"}}, {"type": "node", "id": 9631069142, "lat": 41.0671055, "lon": 28.9968804, "tags": {"addr:city": "\u0130stanbul", "addr:district": "\u015ei\u015fli", "addr:housenumber": "4\\A", "addr:neighbourhood": "Mecidiyek\u00f6y Mahallesi", "addr:postcode": "34387", "addr:street": "Kervange\u00e7mez Soka\u011f\u0131", "amenity": "cafe", "cuisine": "coffee_shop", "internet_access": "wlan", "internet_access:fee": "no", "internet_access:ssid": "turksat kablonet ycjo", "name": "Kurukahveci Fuat bey", "opening_hours": "Mo-Sa 07:00-00:00", "outdoor_seating": "yes", "phone": "+905325012126", "website": "https://www.kurukahvecifuatbey.com/"}}, {"type": "node", "id": 9727288455, "lat": 41.0647414, "lon": 28.9943632, "tags": {"amenity": "cafe", "name": "The Craton Bistro"}}, {"type": "node", "id": 9730235699, "lat": 41.0522849, "lon": 28.9890772, "tags": {"amenity": "cafe", "name": "Uni\u015f Firin & Cafe"}}, {"type": "node", "id": 9730237208, "lat": 41.0590821, "lon": 28.9878513, "tags": {"amenity": "cafe", "name": "Beyaz \u00f6nl\u0171k"}}, {"type": "node", "id": 9786498817, "lat": 41.1134761, "lon": 29.0546936, "tags": {"amenity": "cafe", "name": "K\u00f6k Caf\u00e9 Lounge"}}, {"type": "node", "id": 9905693764, "lat": 41.0633314, "lon": 29.1097056, "tags": {"amenity": "cafe"}}, {"type": "node", "id": 9933603755, "lat": 41.0818021, "lon": 28.9731509, "tags": {"amenity": "cafe", "name": "Akyol Pasta & Cafe"}}, {"type": "node", "id": 9933646410, "lat": 41.0654851, "lon": 28.9868983, "tags": {"amenity": "cafe", "brand": "Starbucks", "brand:wikidata": "Q37158", "cuisine": "coffee_shop", "name": "Starbucks", "official_name": "Starbucks Coffee", "takeaway": "yes"}}, {"type": "node", "id": 9933656985, "lat": 41.0818142, "lon": 28.9737751, "tags": {"amenity": "cafe", "name": "Ekleristan"}}, {"type": "node", "id": 9933684911, "lat": 41.0811304, "lon": 28.9734686, "tags": {"amenity": "cafe", "name": "Mavi Boncuk \u00c7ay Evi"}}, {"type": "node", "id": 9933686056, "lat": 41.0811255, "lon": 28.9725214, "tags": {"amenity": "cafe", "name": "Nezih Cafe"}}, {"type": "node", "id": 9933705026, "lat": 41.0713056, "lon": 28.9783311, "tags": {"amenity": "cafe", "name": "G\u00fcltad Cafe Pastane"}}, {"type": "node", "id": 9939299575, "lat": 41.1781634, "lon": 28.9917527, "tags": {"amenity": "cafe", "name": "A'saftat Anteplio\u011flu"}}, {"type": "node", "id": 9939299594, "lat": 41.1805202, "lon": 28.9896614, "tags": {"amenity": "cafe", "name": "Bristot"}}, {"type": "node", "id": 9939299598, "lat": 41.1783883, "lon": 28.9917874, "tags": {"amenity": "cafe", "name": "Me\u015fhur Gaziantepli Tan\u0131nm\u0131\u015f Baklavac\u0131"}}, {"type": "node", "id": 9950496819, "lat": 41.0675208, "lon": 29.0430226, "tags": {"amenity": "cafe", "name": "Bufe arnavutkoy"}}, {"type": "node", "id": 9957736617, "lat": 41.0525432, "lon": 28.9911856, "tags": {"amenity": "cafe", "name": "Cup of joy"}}, {"type": "node", "id": 10121742525, "lat": 41.055791, "lon": 29.0350525}, {"type": "node", "id": 10121742526, "lat": 41.0558641, "lon": 29.0346057}, {"type": "node", "id": 10121742527, "lat": 41.055619, "lon": 29.0345351}, {"type": "node", "id": 10121742528, "lat": 41.0555967, "lon": 29.0346712}, {"type": "node", "id": 10121742529, "lat": 41.0556361, "lon": 29.0346826}, {"type": "node", "id": 10121742530, "lat": 41.0556242, "lon": 29.0347554}, {"type": "node", "id": 10121742531, "lat": 41.0556698, "lon": 29.0347685}, {"type": "node", "id": 10121742532, "lat": 41.0556257, "lon": 29.0350376}, {"type": "node", "id": 10121742533, "lat": 41.0557072, "lon": 29.0350611}, {"type": "node", "id": 10121742534, "lat": 41.0557123, "lon": 29.0350299}, {"type": "node", "id": 10155546595, "lat": 41.0589798, "lon": 29.0355483}, {"type": "node", "id": 10155546596, "lat": 41.0593814, "lon": 29.0356721}, {"type": "node", "id": 10155546597, "lat": 41.0594321, "lon": 29.0357053}, {"type": "node", "id": 10155546598, "lat": 41.0594372, "lon": 29.0357307}, {"type": "node", "id": 10155546599, "lat": 41.0594355, "lon": 29.0357606}, {"type": "node", "id": 10155546600, "lat": 41.0594185, "lon": 29.0357916}, {"type": "node", "id": 10155546601, "lat": 41.0593917, "lon": 29.0357944}, {"type": "node", "id": 10155546602, "lat": 41.0593222, "lon": 29.0357728}, {"type": "node", "id": 10155546603, "lat": 41.0589727, "lon": 29.0356112}, {"type": "node", "id": 10155546604, "lat": 41.0591291, "lon": 29.0355805}, {"type": "node", "id": 10155546605, "lat": 41.0593424, "lon": 29.0356589}, {"type": "node", "id": 10166108617, "lat": 41.0764632, "lon": 29.0160891, "tags": {"addr:street": "\u00c7ar\u015f\u0131 arkas\u0131 sokak 20", "amenity": "cafe", "cuisine": "coffee_shop", "name": "Fiyeli coffee Co."}}, {"type": "node", "id": 10168465876, "lat": 41.1072314, "lon": 29.0573723}, {"type": "node", "id": 10168465877, "lat": 41.1072099, "lon": 29.0575496}, {"type": "node", "id": 10168465878, "lat": 41.1071192, "lon": 29.0575302}, {"type": "node", "id": 10168465879, "lat": 41.1071216, "lon": 29.0575102}, {"type": "node", "id": 10168465880, "lat": 41.1070721, "lon": 29.0574996}, {"type": "node", "id": 10168465881, "lat": 41.1070744, "lon": 29.0574812}, {"type": "node", "id": 10168465882, "lat": 41.1070369, "lon": 29.0574732}, {"type": "node", "id": 10168465883, "lat": 41.1070401, "lon": 29.0574473}, {"type": "node", "id": 10168465884, "lat": 41.1069571, "lon": 29.0574296}, {"type": "node", "id": 10168465885, "lat": 41.1069644, "lon": 29.0573688}, {"type": "node", "id": 10168465886, "lat": 41.1071042, "lon": 29.0573986}, {"type": "node", "id": 10168465887, "lat": 41.1071106, "lon": 29.0573465}, {"type": "node", "id": 10174021873, "lat": 41.1480979, "lon": 29.0996994, "tags": {"addr:city": "\u0130stanbul", "addr:district": "Beykoz", "addr:postcode": "34820", "addr:street": "\u015eahinkaya Caddesi", "amenity": "cafe", "name": "Cafe Corner", "outdoor_seating": "yes"}}, {"type": "node", "id": 10250303605, "lat": 41.0575054, "lon": 28.9816906, "tags": {"addr:housenumber": "65", "addr:street": "Silah\u015f\u00f6r Caddesi", "amenity": "cafe", "brand": "Montag", "brand:wikidata": "Q109568497", "check_date": "2022-12-09", "cuisine": "coffee_shop", "name": "Montag", "opening_hours": "Mo-Fr 08:00-23:00; Sa-Su 10:00-23:00", "outdoor_seating": "yes", "payment:mastercard": "yes", "payment:visa": "yes", "takeaway": "yes"}}, {"type": "node", "id": 10284825346, "lat": 41.0807291, "lon": 29.0445789, "tags": {"amenity": "cafe", "check_date": "2022-12-24", "name": "Petra Roasting", "payment:mastercard": "yes", "payment:visa": "yes"}}, {"type": "node", "id": 10291399345, "lat": 41.0859667, "lon": 29.044762, "tags": {"amenity": "cafe"}}, {"type": "node", "id": 10297844109, "lat": 41.0776475, "lon": 29.0436708, "tags": {"addr:housenumber": "D:53/5", "addr:postcode": "34342", "addr:street": "Cevdetpa\u015fa (Rumeli Hisar\u0131) Caddesi", "amenity": "cafe", "name": "Cup of Joy", "opening_hours": "Su-Sa 07:00-17:00"}}, {"type": "node", "id": 10297942309, "lat": 41.080688, "lon": 29.0445976, "tags": {"addr:housenumber": "38", "addr:postcode": "34342", "addr:street": "K\u00fc\u00e7\u00fckbebek Caddesi", "amenity": "cafe", "name": "Petra Roasting Co.", "website": "http://petracoffee.com"}}, {"type": "node", "id": 10298009609, "lat": 41.1051679, "lon": 29.0472131, "tags": {"addr:housenumber": "22", "addr:postcode": "34467", "addr:street": "Emirgan Mektebi Soka\u011f\u0131", "amenity": "cafe", "name": "Misk Floral Cafe", "website": "http://miskistanbul.com"}}, {"type": "node", "id": 10316886172, "lat": 41.0741245, "lon": 29.0585076, "tags": {"amenity": "cafe", "cuisine": "coffee_shop", "name": "Ihlamur Cafe"}}, {"type": "node", "id": 10568782449, "lat": 41.2050644, "lon": 29.0732709, "tags": {"amenity": "cafe", "name": "Suzy's"}}, {"type": "node", "id": 10568788211, "lat": 41.207783, "lon": 29.0750207, "tags": {"amenity": "cafe", "brand": "Caff\u00e8 Nero", "brand:wikidata": "Q675808", "cuisine": "coffee_shop", "name": "Caff\u00e8 Nero", "takeaway": "yes"}}, {"type": "node", "id": 10568788212, "lat": 41.2080817, "lon": 29.0754166, "tags": {"amenity": "cafe", "name": "EspressoLab"}}, {"type": "node", "id": 10570587724, "lat": 41.0636358, "lon": 28.9938066, "tags": {"amenity": "cafe", "name": "Perona Cafe"}}, {"type": "node", "id": 10570598375, "lat": 41.0637382, "lon": 28.9936959, "tags": {"amenity": "cafe", "name": "Street by Berco"}}, {"type": "node", "id": 10583640125, "lat": 41.0843711, "lon": 28.9783792, "tags": {"amenity": "cafe", "brand": "Starbucks", "brand:wikidata": "Q37158", "cuisine": "coffee_shop", "name": "Starbucks", "official_name": "Starbucks Coffee", "takeaway": "yes"}}, {"type": "node", "id": 10591632605, "lat": 41.0504339, "lon": 28.9962116, "tags": {"amenity": "cafe", "name": "origami kruvasan"}}, {"type": "node", "id": 10591927605, "lat": 41.0529533, "lon": 28.9919364, "tags": {"amenity": "cafe", "name": "Cup of joy"}}, {"type": "node", "id": 10610532205, "lat": 41.0526321, "lon": 28.9911219, "tags": {"amenity": "cafe", "name": "Cup of Joy"}}, {"type": "node", "id": 10709294705, "lat": 41.0504261, "lon": 28.9950017, "tags": {"amenity": "cafe", "name:en": "let\u2019s Winkk"}}, {"type": "node", "id": 10760924105, "lat": 41.1005487, "lon": 29.0524555, "tags": {"amenity": "cafe", "cuisine": "vegan", "name:en": "Beam bakes"}}, {"type": "node", "id": 10788836727, "lat": 41.1033598, "lon": 29.0224232, "tags": {"amenity": "cafe", "name": "\u0130T\u00dc Kovan Kafe"}}, {"type": "node", "id": 10790441803, "lat": 41.0960618, "lon": 29.3324714}, {"type": "node", "id": 10790441804, "lat": 41.0962198, "lon": 29.3327752}, {"type": "node", "id": 10790466305, "lat": 41.0959654, "lon": 29.3330218}, {"type": "node", "id": 10790466306, "lat": 41.0957904, "lon": 29.3327077}, {"type": "node", "id": 10822342926, "lat": 41.0514743, "lon": 29.0145468}, {"type": "node", "id": 10822342927, "lat": 41.0513032, "lon": 29.0147673}, {"type": "node", "id": 10822342928, "lat": 41.0514821, "lon": 29.0146451, "tags": {"entrance": "yes"}}, {"type": "node", "id": 10822342929, "lat": 41.0512877, "lon": 29.0145731}, {"type": "node", "id": 10822342931, "lat": 41.0514898, "lon": 29.014741}, {"type": "node", "id": 10837077048, "lat": 41.1483068, "lon": 29.0459377}, {"type": "node", "id": 10837077049, "lat": 41.1484139, "lon": 29.0460535}, {"type": "node", "id": 10837077050, "lat": 41.1483462, "lon": 29.0461404}, {"type": "node", "id": 10837077051, "lat": 41.1482474, "lon": 29.0460285}, {"type": "way", "id": 26358895, "nodes": [288789422, 288789424, 288789428, 288789431, 288789422], "tags": {"amenity": "cafe"}}, {"type": "way", "id": 167450758, "nodes": [1788450339, 1788450263, 1788450310, 1788450308, 1788450339], "tags": {"amenity": "cafe", "building": "yes", "name": "A\u011fa\u00e7 Ev"}}, {"type": "way", "id": 224951149, "nodes": [2337918458, 2337918461, 2337918463, 2337918465, 2337918467, 2337918469, 2337918471, 2337918473, 2337918475, 2337918477, 2337918458], "tags": {"addr:city": "istanbul", "addr:housenumber": "6", "addr:postcode": "34330", "addr:street": "Ihlamur Sokak", "amenity": "cafe", "building": "yes", "internet_access": "yes", "name": "Cafe Sporcular", "phone": "0212 283 25 42"}}, {"type": "way", "id": 274180282, "nodes": [2789440665, 2789440666, 2789440667, 2789440668, 2789440665], "tags": {"amenity": "cafe", "building": "yes"}}, {"type": "way", "id": 310825394, "nodes": [3163134912, 3163134913, 3163134914, 4005932133, 4005932132, 3163134915, 3163134916, 3163134912], "tags": {"amenity": "cafe", "building": "yes"}}, {"type": "way", "id": 338806284, "nodes": [3459457493, 3459457494, 3459457495, 3459457496, 3459457497, 3459457493], "tags": {"amenity": "cafe", "building": "yes", "name": "Ota\u011ftepe Cafe"}}, {"type": "way", "id": 351694008, "nodes": [6588877889, 2530861317, 3575137719, 6588877888, 6588877889], "tags": {"amenity": "cafe", "internet_access": "no", "name": "Jr. Bee", "wheelchair": "yes"}}, {"type": "way", "id": 354271422, "nodes": [3600177364, 3600177365, 3600177366, 3600177367, 3600177364], "tags": {"amenity": "cafe", "building": "yes", "name": "Fincan Cafe"}}, {"type": "way", "id": 361216018, "nodes": [3657223973, 3657223978, 3657223979, 3657223974, 3657223973], "tags": {"amenity": "cafe", "brand": "Starbucks", "brand:wikidata": "Q37158", "brand:wikipedia": "en:Starbucks", "building": "yes", "cuisine": "coffee_shop", "name": "Starbucks", "official_name": "Starbucks Coffee", "takeaway": "yes"}}, {"type": "way", "id": 361216019, "nodes": [3657223978, 3657223980, 3657223981, 3657223979, 3657223978], "tags": {"amenity": "cafe", "brand": "Caff\u00e8 Nero", "brand:wikidata": "Q675808", "brand:wikipedia": "en:Caff\u00e8 Nero", "building": "yes", "cuisine": "coffee_shop", "name": "Caff\u00e8 Nero", "takeaway": "yes"}}, {"type": "way", "id": 366192462, "nodes": [3701773170, 3701773173, 3701773171, 3701773167, 3701773166, 3701773168, 3701773169, 3701773172, 3701773170], "tags": {"amenity": "cafe", "building": "yes", "building:levels": "1", "cuisine": "coffee_shop", "roof:material": "roof_tiles", "roof:shape": "hipped"}}, {"type": "way", "id": 402542206, "nodes": [4049380392, 4049380389, 4057360477, 4049379677, 4049379679, 4049380392], "tags": {"amenity": "cafe", "building": "yes", "name": "Ulus Cafe"}}, {"type": "way", "id": 436557229, "nodes": [4344443587, 4344443588, 4344445089, 4344445090, 4344443587], "tags": {"amenity": "cafe", "building": "yes", "name": "K\u00f6y Kahvesi"}}, {"type": "way", "id": 458556409, "nodes": [4545405762, 4545405763, 4545405764, 4545405765, 4545405762], "tags": {"addr:housenumber": "7/9", "amenity": "cafe", "building": "yes", "name": "K\u0131raathane"}}, {"type": "way", "id": 462988166, "nodes": [4581101060, 4583084671, 4583084672, 4583084673, 4583084674, 4583084675, 4583084676, 4581101060], "tags": {"amenity": "cafe", "building": "yes", "name": "dilim istanbul"}}, {"type": "way", "id": 539115433, "nodes": [5217181164, 5217181163, 5217181162, 5217181161, 5217181164], "tags": {"addr:city": "\u0130stanbul", "addr:country": "TR", "addr:district": "Beykoz", "addr:neighbourhood": "Pa\u015fabah\u00e7e Mahallesi", "addr:postcode": "34800", "amenity": "cafe", "building": "yes"}}, {"type": "way", "id": 545747113, "nodes": [5274380090, 5274380091, 5274380092, 5556751416, 5556751415, 7016592669, 5274380094, 5274380095, 5274380096, 5274380090], "tags": {"amenity": "cafe", "building": "yes", "name": "\u00d6z Harman"}}, {"type": "way", "id": 547389018, "nodes": [5289202515, 5289202516, 5289202517, 5289202518, 5289202515], "tags": {"addr:street": "Bo\u011faz \u0130\u00e7i Cad.", "amenity": "cafe", "building": "yes"}}, {"type": "way", "id": 551581580, "nodes": [5326798007, 5326798008, 5326798009, 5326798010, 5326798011, 5326798012, 5326798013, 5326798014, 5326798007], "tags": {"amenity": "cafe", "building": "yes", "cuisine": "burger;pizza;sandwich;ice_cream;kebab;barbecue", "internet_access": "yes", "name": "Bina Cafe"}}, {"type": "way", "id": 696353984, "nodes": [2341079714, 2341079700, 2341079737, 2341079751, 2341079714], "tags": {"amenity": "cafe", "building": "yes"}}, {"type": "way", "id": 718363243, "nodes": [6746087937, 6746087942, 6746087943, 6746087938, 6746087937], "tags": {"amenity": "cafe", "brand": "Starbucks", "brand:wikidata": "Q37158", "brand:wikipedia": "en:Starbucks", "building": "yes", "cuisine": "coffee_shop", "name": "Starbucks", "official_name": "Starbucks Coffee", "takeaway": "yes"}}, {"type": "way", "id": 727195535, "nodes": [6815014754, 6815014755, 6815014756, 6815014757, 6815014754], "tags": {"amenity": "cafe", "brand": "Starbucks", "brand:wikidata": "Q37158", "brand:wikipedia": "en:Starbucks", "building": "yes", "cuisine": "coffee_shop", "name": "Starbucks", "official_name": "Starbucks Coffee", "takeaway": "yes"}}, {"type": "way", "id": 731046606, "nodes": [6847153632, 6847153629, 6847153630, 6847153631, 6847153632], "tags": {"addr:city": "\u0130stanbul", "addr:country": "TR", "addr:district": "Beykoz", "addr:housenumber": "75-1", "addr:neighbourhood": "G\u00fcm\u00fc\u015fsuyu Mahallesi", "addr:postcode": "34820", "addr:street": "Sultaniye Caddesi", "amenity": "cafe", "building": "yes", "building:levels": "3"}}, {"type": "way", "id": 733577056, "nodes": [6870112388, 6870108884, 6870108883, 6870112387, 6870112388], "tags": {"addr:district": "Beykoz", "addr:housenumber": "8A", "addr:neighbourhood": "Merkez Mahallesi", "addr:street": "Fevzi Pa\u015fa Caddesi", "amenity": "cafe", "building": "yes", "building:levels": "2", "name": "Dilim Cafe"}}, {"type": "way", "id": 733604159, "nodes": [6870921531, 6870921528, 6870921529, 6870921530, 6870921531], "tags": {"addr:city": "\u0130stanbul", "addr:country": "TR", "addr:district": "Beykoz", "addr:housenumber": "17", "addr:neighbourhood": "Merkez Mahallesi", "addr:postcode": "34820", "addr:street": "Fevzi Pa\u015fa Caddesi", "amenity": "cafe", "building": "yes", "building:levels": "1", "name": "Dalyan Cafe", "phone": "+90 216 323 79 76"}}, {"type": "way", "id": 739185847, "nodes": [6920832824, 6920832821, 6920832822, 6920832823, 6920832824], "tags": {"alt_name": "Beykoz Huzur \u00c7ay Bah\u00e7esi", "amenity": "cafe", "building": "yes", "name": "Huzur Fast Food"}}, {"type": "way", "id": 740653476, "nodes": [6934326590, 6934326587, 6934326588, 6934326589, 6934326590], "tags": {"addr:city": "\u0130stanbul", "addr:country": "TR", "addr:district": "Beykoz", "addr:neighbourhood": "G\u00fcm\u00fc\u015fsuyu Mahallesi", "addr:postcode": "34820", "amenity": "cafe", "building": "yes", "name": "Likoz Cafe"}}, {"type": "way", "id": 803371659, "nodes": [7514942523, 7514942524, 7514942525, 7514942526, 7514942527, 7514942528, 7514942529, 7514942530, 7514942531, 7514942532, 7514942533, 7514942534, 7514942535, 7514942536, 7514942537, 7514942538, 7514942539, 7514942540, 7514942523], "tags": {"amenity": "cafe", "building": "yes", "name": "Lokkal Cafe"}}, {"type": "way", "id": 805405960, "nodes": [7532850922, 7532850923, 7532850924, 7532850925, 7532850922], "tags": {"addr:city": "istanbul", "addr:district": "sar\u0131yer", "addr:housenumber": "No:166", "addr:neighbourhood": "Yenik\u00f6y mahallesi", "addr:street": "K\u00f6yba\u015f\u0131 Caddesi", "amenity": "cafe", "building": "yes", "cuisine": "waffle;kumpir", "name": "Waffle Port Cafe", "opening_hours": "Mo-Su 09:00-02:30", "outdoor_seating": "yes", "phone": "0212 299 80 91"}}, {"type": "way", "id": 805409899, "nodes": [7532843140, 7532843141, 7532843142, 7532843143, 7532843140], "tags": {"addr:city": "istanbul", "addr:district": "sar\u0131yer", "addr:housenumber": "No:170", "addr:neighbourhood": "Yenik\u00f6y mahallesi", "addr:street": "Kapal\u0131 Bakkal Sokak", "amenity": "cafe", "brand": "Kahve D\u00fcnyas\u0131", "brand:wikidata": "Q28008050", "building": "yes", "cuisine": "coffee_shop", "name": "Kahve D\u00fcnyas\u0131", "opening_hours": "Mo-Su 07:00-00:00", "outdoor_seating": "yes", "phone": "0212 277 2791", "takeaway": "yes", "website": "https://kahvedunyasi.com/"}}, {"type": "way", "id": 826142535, "nodes": [7713569184, 7713583185, 7713583186, 7713583187, 7713569184], "tags": {"addr:city": "\u0130stanbul", "addr:district": "Beykoz", "addr:housenumber": "50", "addr:neighbourhood": "Kanl\u0131ca", "addr:postcode": "34810", "addr:street": "Mihrabat Caddesi", "amenity": "cafe", "building": "yes", "cuisine": "coffee_shop", "email": "aadan@mihrabatkorusu.com", "name": "Aadan", "opening_hours:covid19": "off", "outdoor_seating": "yes"}}, {"type": "way", "id": 984258527, "nodes": [9100667311, 9100667312, 9100667313, 9100686083, 9100667343, 9100667344, 9100667310, 9100667311], "tags": {"amenity": "cafe", "building": "yes"}}, {"type": "way", "id": 989037101, "nodes": [9141373579, 9141373580, 9141373581, 9141373582, 9141373579], "tags": {"amenity": "cafe", "building": "yes"}}, {"type": "way", "id": 1106158061, "nodes": [10121742525, 10121742526, 10121742527, 10121742528, 10121742529, 10121742530, 10121742531, 10121742532, 10121742533, 10121742534, 10121742525], "tags": {"addr:city": "\u0130stanbul", "addr:district": "Be\u015fikta\u015f", "addr:housenumber": "56", "addr:neighbourhood": "Kuru\u00e7e\u015fme", "addr:postcode": "34345", "addr:street": "Muallim Naci Caddesi", "amenity": "cafe", "branch": "Kuru\u00e7e\u015fme", "building": "yes", "building:levels": "2", "email": "info@huqqa.com", "name": "Huqqa", "opening_hours": "Mo-Th 09:30-03:00; Fr 09:30-04:00; Sa 09:00-04:00; Su 09:00-03:00", "phone": "+90 212 265 0666", "website": "https://huqqa.com/tr/"}}, {"type": "way", "id": 1110110932, "nodes": [10155546595, 10155546604, 10155546605, 10155546596, 10155546597, 10155546598, 10155546599, 10155546600, 10155546601, 10155546602, 10155546603, 10155546595], "tags": {"addr:city": "\u0130stanbul", "addr:district": "Be\u015fikta\u015f", "addr:housenumber": "109", "addr:neighbourhood": "Kuru\u00e7e\u015fme", "addr:postcode": "34345", "addr:street": "Muallim Naci Caddesi", "amenity": "cafe", "name": "Kuru\u00e7e\u015fme Kahvesi", "phone": "+90 212 287 8107"}}, {"type": "way", "id": 1111344853, "nodes": [10168465876, 10168465877, 10168465878, 10168465879, 10168465880, 10168465881, 10168465882, 10168465883, 10168465884, 10168465885, 10168465886, 10168465887, 10168465876], "tags": {"addr:city": "\u0130stanbul", "addr:district": "Sar\u0131yer", "addr:housenumber": "1", "addr:neighbourhood": "Emirgan", "addr:postcode": "34467", "addr:street": "Kalam\u0131\u015f Soka\u011f\u0131", "amenity": "cafe", "branch": "Emirhan", "building": "yes", "building:levels": "1", "name": "Huqqa", "opening_hours": "Mo-Th 09:30-03:00; Fr 09:30-04:00; Sa 09:00-04:00; Su 09:00-03:00", "outdoor_seating": "no", "phone": "+90 212 277 0666", "website": "https://huqqa.com/tr/"}}, {"type": "way", "id": 1160228795, "nodes": [10790441803, 10790441804, 10790466305, 10790466306, 10790441803], "tags": {"addr:city": "\u00c7ekmek\u00f6y", "addr:district": "S\u0131rap\u0131nar", "addr:housenumber": "34", "addr:postcode": "34799", "addr:street": "Beykoz Caddesi", "amenity": "cafe", "building": "yes", "name": "ART Road Coffee"}}, {"type": "way", "id": 1163670229, "nodes": [10822342931, 10822342927, 10822342929, 10822342926, 10822342928, 10822342931], "tags": {"amenity": "cafe", "building": "yes", "name": "Beltur Cafe"}}, {"type": "way", "id": 1165080912, "nodes": [10837077048, 10837077049, 10837077050, 10837077051, 10837077048], "tags": {"amenity": "cafe", "building": "yes"}}]}