{"version": 0.6, "generator": "Overpass API 0.7.60 f4c14d41", "osm3s": {"timestamp_osm_base": "2023-05-02T21:18:20Z", "copyright": "The data included in this document is from www.openstreetmap.org. The data is made available under ODbL."}, "elements": [{"type": "node", "id": 256592934, "lat": 41.8935698, "lon": 12.5081179, "tags": {"addr:city": "Roma", "addr:country": "IT", "addr:housenumber": "65", "addr:street": "Via Principe Eugenio", "alt_name": "Palazzo del Freddo", "amenity": "ice_cream", "cuisine": "ice_cream", "delivery": "no", "email": "fassicomunicazione@palazzodelfreddo.it", "food": "ice_cream", "food:taste": "sweet", "name": "Palazzo del Freddo Giovanni Fassi", "opening_hours": "Mo-Th 12:00-00:00; Fr-Sa 12:00-00:30; Su 10:00-00:00", "outdoor_seating": "limited", "phone": "+39 06 4464740", "ref:vatin": "IT01704331006", "takeaway": "yes", "takeaway:food": "yes", "website": "http://www.palazzodelfreddo.it", "wheelchair": "yes"}}, {"type": "node", "id": 431342203, "lat": 41.9145162, "lon": 12.4502284, "tags": {"addr:city": "Roma", "addr:country": "IT", "addr:housenumber": "75/C", "addr:postcode": "00136", "addr:street": "Via Trionfale", "amenity": "ice_cream", "name": "L'Angolo del Gelato", "operator": "Angolo del Gelato Srl.", "phone": "+39 06 39738818", "ref:IT:REA": "1151586", "ref:vatin": "IT09252861001"}}, {"type": "node", "id": 442561853, "lat": 41.9063947, "lon": 12.4563629, "tags": {"addr:city": "Roma", "addr:country": "IT", "addr:housenumber": "5", "addr:postcode": "00192", "addr:street": "Viale dei Bastioni di Michelangelo", "amenity": "ice_cream", "email": "info@gelateriaoldbridge.com", "name": "Old Bridge Gelateria", "name:en": "Old Bridge Gelateria", "name:it": "Old Bridge Gelateria", "name:ko": "\uc62c\ub4dc\ube0c\ub9bf\uc9c0 \uc824\ub77c\ud14c\ub9ac\uc544", "operator": "Gianluciano Mereu", "phone": "+39 3284119478", "website": "https://gelateriaoldbridge.com/", "wheelchair": "limited"}}, {"type": "node", "id": 659892422, "lat": 41.8603791, "lon": 12.4931851, "tags": {"addr:city": "Roma", "addr:country": "IT", "addr:housenumber": "107D", "addr:postcode": "00147", "addr:street": "Via delle Sette Chiese", "amenity": "ice_cream", "cuisine": "ice_cream;crepe", "name": "La Botega", "operator": "La Botega Srl", "outdoor_seating": "yes", "phone": "+39 06 51430215", "ref:vatin": "IT13157131007", "takeaway": "yes", "website": "https://www.labotega.bio/", "wheelchair": "limited"}}, {"type": "node", "id": 754688671, "lat": 41.9120324, "lon": 12.4495371, "tags": {"addr:city": "Roma", "addr:country": "IT", "addr:housenumber": "53", "addr:street": "Circonvallazione Trionfale", "amenity": "ice_cream", "name": "La Piazzetta", "operator": "Cristina Rogato sas", "phone": "+39 06 39736767"}}, {"type": "node", "id": 754694592, "lat": 41.9070989, "lon": 12.4498966, "tags": {"addr:city": "Roma", "addr:country": "IT", "addr:housenumber": "2A", "addr:postcode": "00136", "addr:street": "Piazza Santa Maria delle Grazie", "amenity": "ice_cream", "name": "Millennium", "operator": "Franchising Roma Solo Roma SRL", "phone": "+39 06 39724268"}}, {"type": "node", "id": 932316331, "lat": 41.8982497, "lon": 12.4704477, "tags": {"addr:city": "Roma", "addr:country": "IT", "addr:housenumber": "112", "addr:postcode": "00186", "addr:street": "Via del Governo Vecchio", "alt_name": "La Gelateria Frigidarium", "amenity": "ice_cream", "ice_cream:type": "artisanal", "name": "Frigidarium", "operator": "Gif Srl.", "phone": "+39 338 1800220", "ref:vatin": "IT09075651001", "restaurant:type:it": "gelateria", "shop": "ice_cream", "takeaway": "only", "website": "http://www.frigidarium-gelateria.com/", "wheelchair": "limited"}}, {"type": "node", "id": 932338038, "lat": 41.90163, "lon": 12.4846758, "tags": {"addr:city": "Roma", "addr:country": "IT", "addr:housenumber": "42", "addr:postcode": "00187", "addr:street": "Via della Panetteria", "amenity": "ice_cream", "cuisine": "ice_cream", "name": "Il Gelato di San Crispino", "operator": "San Crispino Srl.", "phone": "+39 06 69489518", "ref:vatin": "IT05195231005", "website": "http://www.ilgelatodisancrispino.it"}}, {"type": "node", "id": 1232967050, "lat": 41.8896071, "lon": 12.4726433, "tags": {"addr:city": "Roma", "addr:country": "IT", "addr:housenumber": "96", "addr:postcode": "00153", "addr:street": "Via della Lungaretta", "amenity": "ice_cream", "delivery": "yes", "name": "Fiordiluna Gelato & Cioccolato", "operator": "fiordiluna s.n.c.", "outdoor_seating": "no", "phone": "+39 06 64561314", "takeaway": "yes", "website": "https://www.fiordiluna.com/"}}, {"type": "node", "id": 1251979409, "lat": 41.8665219, "lon": 12.4444496, "tags": {"amenity": "ice_cream", "name": "Tony"}}, {"type": "node", "id": 1271631044, "lat": 41.8762073, "lon": 12.5215469, "tags": {"addr:housenumber": "16a", "addr:street": "Piazza dell'Alberone", "amenity": "ice_cream", "name": "Petrini"}}, {"type": "node", "id": 1340631579, "lat": 41.8943826, "lon": 12.4808691, "tags": {"amenity": "ice_cream"}}, {"type": "node", "id": 1340664561, "lat": 41.8992295, "lon": 12.4718746, "tags": {"addr:city": "Roma", "addr:country": "IT", "addr:housenumber": "15", "addr:street": "Via di Tor Millina", "alt_name": "Gelateria Quinto", "amenity": "ice_cream", "name": "Da Quinto", "operator": "FEM 10 s.r.l.", "phone": "+39 06 6865657", "ref:vatin": "IT10760541002"}}, {"type": "node", "id": 1342177586, "lat": 41.8963927, "lon": 12.4725898, "tags": {"amenity": "ice_cream", "name": "Blue Ice"}}, {"type": "node", "id": 1342178556, "lat": 41.9067987, "lon": 12.4576755, "tags": {"amenity": "ice_cream", "name": "Blue Ice", "wheelchair": "limited"}}, {"type": "node", "id": 1343191245, "lat": 41.9245793, "lon": 12.5079921, "tags": {"amenity": "ice_cream"}}, {"type": "node", "id": 1344347975, "lat": 41.9082298, "lon": 12.4474812, "tags": {"addr:city": "Roma", "addr:country": "IT", "addr:housenumber": "4F", "addr:postcode": "00136", "addr:street": "Via Cipro", "amenity": "ice_cream", "name": "Gelateria Zoryani", "operator": "Zoryana Pyrozhok"}}, {"type": "node", "id": 1344348753, "lat": 41.9074541, "lon": 12.4577592, "tags": {"amenity": "ice_cream", "wheelchair": "no"}}, {"type": "node", "id": 1344355729, "lat": 41.9026425, "lon": 12.4251538, "tags": {"amenity": "ice_cream"}}, {"type": "node", "id": 1349038365, "lat": 41.8897631, "lon": 12.470445, "tags": {"addr:housenumber": "4", "addr:street": "Piazza di Santa Maria in Trastevere", "amenity": "ice_cream", "name": "Blue Ice", "source": "survey"}}, {"type": "node", "id": 1349122383, "lat": 41.9095839, "lon": 12.4670765, "tags": {"addr:city": "Roma", "addr:housenumber": "36", "addr:postcode": "00192", "addr:street": "Via Marcantonio Colonna", "amenity": "ice_cream", "name": "Gelateria Pupi di Zucchero", "wheelchair": "no"}}, {"type": "node", "id": 1358198685, "lat": 41.9367702, "lon": 12.4660185}, {"type": "node", "id": 1358198686, "lat": 41.9367342, "lon": 12.4660453}, {"type": "node", "id": 1358198687, "lat": 41.936711, "lon": 12.465989}, {"type": "node", "id": 1358198689, "lat": 41.9367469, "lon": 12.4659622}, {"type": "node", "id": 1359083455, "lat": 41.8903279, "lon": 12.4738355}, {"type": "node", "id": 1359083458, "lat": 41.8903191, "lon": 12.4739082}, {"type": "node", "id": 1359083460, "lat": 41.8903604, "lon": 12.4738426}, {"type": "node", "id": 1359083463, "lat": 41.8903516, "lon": 12.4739153}, {"type": "node", "id": 1360191319, "lat": 41.9003772, "lon": 12.4557855}, {"type": "node", "id": 1360191328, "lat": 41.8897862, "lon": 12.4768236}, {"type": "node", "id": 1360191331, "lat": 41.8897684, "lon": 12.4768843}, {"type": "node", "id": 1360191335, "lat": 41.9003775, "lon": 12.4557489}, {"type": "node", "id": 1360191341, "lat": 41.9003885, "lon": 12.455749}, {"type": "node", "id": 1360191346, "lat": 41.9003883, "lon": 12.4557857}, {"type": "node", "id": 1360191356, "lat": 41.911904, "lon": 12.4529245}, {"type": "node", "id": 1360191360, "lat": 41.9118682, "lon": 12.4529672}, {"type": "node", "id": 1360191362, "lat": 41.889746, "lon": 12.4768725}, {"type": "node", "id": 1360191366, "lat": 41.9119232, "lon": 12.4529536}, {"type": "node", "id": 1360191367, "lat": 41.8897638, "lon": 12.4768117}, {"type": "node", "id": 1360191368, "lat": 41.9118874, "lon": 12.4529962}, {"type": "node", "id": 1387921091, "lat": 41.9069539, "lon": 12.4137516, "tags": {"amenity": "ice_cream", "name": "Gelateria Monti"}}, {"type": "node", "id": 1436614746, "lat": 41.9006613, "lon": 12.4719548}, {"type": "node", "id": 1454343680, "lat": 41.875711, "lon": 12.5276224, "tags": {"addr:city": "Roma", "addr:housenumber": "325", "addr:postcode": "00181", "addr:street": "Via Tuscolana", "amenity": "ice_cream", "name": "Il Gelatario"}}, {"type": "node", "id": 1541346172, "lat": 41.8948136, "lon": 12.4919805, "tags": {"addr:city": "Roma", "addr:country": "IT", "addr:housenumber": "18/19/20", "addr:postcode": "00184", "addr:street": "Via Leonina", "amenity": "ice_cream", "cuisine": "sicilian", "name": "Ciuri Ciuri", "operator": "Ciuri Ciuri s.r.l.", "phone": "+39 06 45444548", "ref:vatin": "IT09108461006", "shop": "pastry"}}, {"type": "node", "id": 1542228020, "lat": 41.8945114, "lon": 12.4760855, "tags": {"addr:city": "Roma", "addr:country": "IT", "addr:housenumber": "27", "addr:street": "Largo Arenula", "amenity": "ice_cream", "name": "Gelateria Corona", "operator": "Giancarlo Corona", "phone": "+39 06 68808054"}}, {"type": "node", "id": 1710679163, "lat": 41.9005899, "lon": 12.4836248, "tags": {"addr:housenumber": "31", "addr:street": "Via di San Vincenzo", "amenity": "ice_cream", "name": "Gelato in Trevi s.a.s.", "phone": "+39 06 6798580"}}, {"type": "node", "id": 1712622394, "lat": 41.9075047, "lon": 12.4527847, "tags": {"amenity": "ice_cream", "name": "Gelateria Siciliana"}}, {"type": "node", "id": 1754895753, "lat": 41.8989123, "lon": 12.456363, "tags": {"addr:city": "Roma", "addr:country": "IT", "addr:housenumber": "33/A", "addr:street": "Via delle Fornaci", "amenity": "ice_cream", "name": "Ghiottonerie Tre Tre", "operator": "Rosanna Lugli", "phone": "+39 06 39375941"}}, {"type": "node", "id": 1759807196, "lat": 41.888283, "lon": 12.5295646, "tags": {"addr:city": "Roma", "addr:housenumber": "191", "addr:postcode": "00176", "addr:street": "Via del Pigneto", "amenity": "ice_cream", "contact:email": "gelateria.tempesta@gmail.com", "contact:facebook": "https://www.facebook.com/profile.php?id=100054574833663", "contact:phone": "+39 335 484132", "cuisine": "ice_cream", "diet:vegan": "yes", "ice_cream:type": "artisanal", "name": "Tempesta di Gusti", "opening_hours": "Mo-Th 12:00-21:00,Fr-Sa 12:00-22:00,Su 13:00-21:00", "restaurant:type:it": "gelateria;pasticceria", "shop": "pastry"}}, {"type": "node", "id": 1759856901, "lat": 41.8897795, "lon": 12.524963, "tags": {"addr:city": "Roma", "addr:housenumber": "11", "addr:postcode": "00176", "addr:street": "Via Pesaro", "amenity": "ice_cream", "name": "La Gelateria del Pigneto", "wheelchair": "no"}}, {"type": "node", "id": 1767921661, "lat": 41.8896348, "lon": 12.5068444, "tags": {"addr:city": "Roma", "addr:country": "IT", "addr:housenumber": "187", "addr:postcode": "00185", "addr:street": "Via Emanuele Filiberto", "amenity": "ice_cream", "name": "Casa del gelato", "phone": "+39 06 77254870"}}, {"type": "node", "id": 1769480709, "lat": 41.9051394, "lon": 12.4990076, "tags": {"amenity": "ice_cream"}}, {"type": "node", "id": 1770511731, "lat": 41.9232143, "lon": 12.4456374, "tags": {"amenity": "ice_cream", "name": "Gelateria Quadrani"}}, {"type": "node", "id": 1772586232, "lat": 41.8878468, "lon": 12.4704906, "tags": {"addr:city": "Roma", "addr:country": "IT", "addr:housename": "49b", "addr:street": "Piazza di San Cosimato", "amenity": "ice_cream", "cuisine": "ice_cream", "email": "info@ciuri-ciuri.it", "name": "Pasticceria Gelateria Siciliana", "website": "http://www.ciuri-ciuri.it"}}, {"type": "node", "id": 1777358207, "lat": 41.9345519, "lon": 12.4411724, "tags": {"amenity": "ice_cream", "name": "Gelosia"}}, {"type": "node", "id": 1779086525, "lat": 41.9131471, "lon": 12.4409697, "tags": {"amenity": "ice_cream", "coffee": "yes", "name": "Tiramis\u00f9"}}, {"type": "node", "id": 1891043836, "lat": 41.9435351, "lon": 12.649699, "tags": {"addr:housenumber": "23", "addr:street": "Piazza Trilussa", "amenity": "ice_cream", "name": "Gelateria Arcobaleno", "opening_hours": "Mo-Su 12:00-20:00", "phone": "+39 0774 391788"}}, {"type": "node", "id": 1926196461, "lat": 41.8961396, "lon": 12.4852222, "tags": {"addr:city": "Roma", "addr:postcode": "00187", "addr:street": "Via Magnanapoli", "amenity": "ice_cream", "name": "Gelateria Panna e Liquirizia"}}, {"type": "node", "id": 2246354459, "lat": 41.9091879, "lon": 12.46687, "tags": {"addr:city": "Roma", "addr:country": "IT", "addr:housenumber": "272", "addr:postcode": "00192", "addr:street": "Via dei Gracchi", "amenity": "ice_cream", "contact:email": "geldeigracchi@virgilio.it", "contact:phone": "+39 06 3216668", "contact:website": "http://www.gelateriadeigracchi.it", "name": "Gelateria dei Gracchi", "opening_hours": "Su-Th 12:00-24:00; Fr-Sa 12:00-00:30", "operator": "Alberto Manassei S.r.l.", "ref:vatin": "IT12196981000", "shop": "ice_cream", "wheelchair": "no"}}, {"type": "node", "id": 2274125995, "lat": 41.9001922, "lon": 12.4732317, "tags": {"addr:city": "Roma", "addr:country": "IT", "addr:housenumber": "3", "addr:street": "Via Agonale", "amenity": "ice_cream", "name": "Grom", "phone": "+39 06 68807297", "source": "Bing, Local knowledge", "website": "https://www.grom.it/", "wheelchair": "limited"}}, {"type": "node", "id": 2274125996, "lat": 41.9011079, "lon": 12.4765122, "tags": {"addr:city": "Roma", "addr:country": "IT", "addr:housenumber": "30A", "addr:street": "Via della Maddalena", "amenity": "ice_cream", "brand": "Grom", "brand:wikidata": "Q3776892", "cuisine": "ice_cream", "name": "Grom", "phone": "+39 06 68210447", "source": "Bing, Local knowledge", "takeaway": "yes", "website": "https://www.grom.it/"}}, {"type": "node", "id": 2274384718, "lat": 41.8950068, "lon": 12.4727365, "tags": {"addr:city": "Roma", "addr:country": "IT", "addr:housenumber": "53", "addr:street": "Via dei Giubbonari", "amenity": "ice_cream", "brand": "Grom", "brand:wikidata": "Q3776892", "cuisine": "ice_cream", "name": "Grom", "source": "Bing, Local knowledge", "takeaway": "yes", "website": "https://www.grom.it/"}}, {"type": "node", "id": 2274819351, "lat": 41.9062484, "lon": 12.4801407, "tags": {"addr:city": "Roma", "addr:country": "IT", "addr:housenumber": "25/26", "addr:street": "Via della Croce", "amenity": "ice_cream", "name": "Venchi", "opening_hours": "Mo-Su 10:30-22:00", "phone": "+39 06 69797790", "source": "Bing, Local knowledge", "website": "http://www.venchi.it"}}, {"type": "node", "id": 2327736649, "lat": 41.909538, "lon": 12.4577121, "tags": {"addr:city": "Roma", "addr:country": "IT", "addr:housenumber": "56", "addr:postcode": "00165", "addr:street": "Viale Giulio Cesare", "amenity": "ice_cream", "name": "Lemongrass", "operator": "Lemongrass s.r.l.", "phone": "+39 06 3725774", "ref:vatin": "IT12195161000", "shop": "ice_cream"}}, {"type": "node", "id": 2329115293, "lat": 41.8556584, "lon": 12.4794515, "tags": {"addr:city": "Roma", "addr:housenumber": "40;42", "addr:street": "Via Gabriello Chiabrera", "amenity": "ice_cream", "cuisine": "ice_cream", "fixme": "position estimated", "name": "Daniel Gelo", "operator": "Lanzallotto C. D.", "phone": "+39 06 5430568", "ref:vatin": "IT06818890581", "shop": "pastry"}}, {"type": "node", "id": 2361812373, "lat": 41.8666694, "lon": 12.4898767, "tags": {"addr:city": "Roma", "addr:housenumber": "10", "addr:street": "Piazza Eugenio Biffi", "amenity": "ice_cream", "cuisine": "ice_cream", "name": "Il Pellicano", "operator": "Biffi S.r.l.", "phone": "+39 06 45598414", "ref:vatin": "IT10738701001", "shop": "ice_cream", "start_date": "1984", "takeaway": "only"}}, {"type": "node", "id": 2398103686, "lat": 41.8947076, "lon": 12.4737227, "tags": {"addr:city": "Roma", "addr:housenumber": "86", "addr:postcode": "00186", "addr:street": "Largo dei Librari", "amenity": "ice_cream", "name": "Yogurteria", "operator": "L'angolo dell'artista s.r.l.", "phone": "+39 320 7034868", "ref:vatin": "IT09924531008"}}, {"type": "node", "id": 2411080142, "lat": 41.8898823, "lon": 12.4739744, "tags": {"amenity": "ice_cream"}}, {"type": "node", "id": 2411101902, "lat": 41.9060842, "lon": 12.4691395, "tags": {"amenity": "ice_cream"}}, {"type": "node", "id": 2420989704, "lat": 41.8645227, "lon": 12.483996, "tags": {"addr:city": "Roma", "addr:housenumber": "39,40,41", "addr:street": "Piazza Augusto Albini", "amenity": "ice_cream", "name": "Gelateria i Golosoni", "operator": "Garbataebella Srls.", "phone": "+39 06 51607756", "ref:vatin": "IT16144971005"}}, {"type": "node", "id": 2472305905, "lat": 41.9126141, "lon": 12.474464, "tags": {"addr:city": "Roma", "addr:housenumber": "13/15", "addr:street": "Via Giambattista Vico", "amenity": "ice_cream", "name": "Lemon Ice", "operator": "Shirani Restaurant snc", "phone": "+39 06 3213651", "ref:vatin": "IT12007731008", "restaurant:type:it": "gelateria_artigianale", "shop": "ice_cream"}}, {"type": "node", "id": 2537299956, "lat": 41.8972101, "lon": 12.4956321, "tags": {"addr:housenumber": "93/A", "addr:street": "Via Cavour", "amenity": "ice_cream", "name": "Gelateria Santa Maria Maggiore", "opening_hours": "Mo-Su 12:00-00:00", "phone": "+39 06 4744267"}}, {"type": "node", "id": 2672736970, "lat": 41.8607914, "lon": 12.4860782, "tags": {"addr:city": "Roma", "addr:housenumber": "12", "addr:postcode": "00145", "addr:street": "Largo delle Sette Chiese", "amenity": "ice_cream", "ice_cream:type": "artisanal", "name": "Gelato Baciato", "opening_hours": "Tu-Fr,Su 12:00-22:00; Sa 12:00-23:00", "operator": "Gianfranco Pontillo", "ref:vatin": "IT02873650598", "shop": "ice_cream"}}, {"type": "node", "id": 2793625481, "lat": 41.9300401, "lon": 12.4842617, "tags": {"addr:city": "Roma", "addr:housenumber": "7", "addr:street": "Viale della Moschea", "amenity": "ice_cream", "name": "Steccolecco", "payment:bitcoin": "yes", "website": "https://steccolecco.com/"}}, {"type": "node", "id": 2904316656, "lat": 41.8147719, "lon": 12.6054916, "tags": {"amenity": "ice_cream", "name": "Er Pozzo der Gelato"}}, {"type": "node", "id": 2904329587, "lat": 41.8147307, "lon": 12.6010724, "tags": {"addr:city": "Roma", "addr:housenumber": "139", "addr:postcode": "00118", "addr:street": "Via del Casale Agostinelli", "amenity": "ice_cream", "name": "Mon Amour"}}, {"type": "node", "id": 3061568282, "lat": 41.9008635, "lon": 12.4836851, "tags": {"addr:city": "Roma", "addr:housenumber": "90", "addr:postcode": "00187", "addr:street": "Via della Stamperia", "amenity": "ice_cream", "name": "Gelateria", "name:zh": "\u8bb8\u613f\u6c60\u8fb9\u4e0a\u7684\u5395\u6240"}}, {"type": "node", "id": 3156230931, "lat": 41.8739949, "lon": 12.4470955, "tags": {"addr:city": "Roma", "addr:housenumber": "1", "addr:street": "Piazza San Giovanni di Dio", "amenity": "ice_cream", "name": "Gelateria Tony", "operator": "Dolci Desideri SNC", "phone": "+39 06 535007"}}, {"type": "node", "id": 3269324482, "lat": 41.8637727, "lon": 12.46988, "tags": {"addr:city": "Roma", "addr:housenumber": "23", "addr:postcode": "00146", "addr:street": "Piazza Enrico Fermi", "amenity": "ice_cream", "name": "Gelateria Alpina", "opening_hours": "Mo-Su 11:00-00:45", "phone": "+39 06 5570250"}}, {"type": "node", "id": 3270132560, "lat": 41.8785593, "lon": 12.5085976, "tags": {"addr:city": "Roma", "addr:country": "IT", "addr:housenumber": "51", "addr:street": "Via Britannia", "amenity": "ice_cream", "food": "ice_cream", "food:taste": "sweet", "name": "K2", "takeaway:food": "yes"}}, {"type": "node", "id": 3281220666, "lat": 41.8553916, "lon": 12.5644529, "tags": {"addr:city": "Roma", "addr:housenumber": "1370", "addr:street": "Via Tuscolana", "amenity": "ice_cream", "name": "Grom"}}, {"type": "node", "id": 3284699306, "lat": 41.9172205, "lon": 12.4873964, "tags": {"amenity": "ice_cream", "name": "Gelateria del Parco"}}, {"type": "node", "id": 3287625970, "lat": 41.7163742, "lon": 12.4433265}, {"type": "node", "id": 3287625986, "lat": 41.7164308, "lon": 12.4432373}, {"type": "node", "id": 3287626006, "lat": 41.7165158, "lon": 12.4434875}, {"type": "node", "id": 3287626016, "lat": 41.7165723, "lon": 12.4433983}, {"type": "node", "id": 3412962045, "lat": 41.8956299, "lon": 12.4932552, "tags": {"addr:city": "Roma", "addr:housenumber": "5", "addr:postcode": "00184", "addr:street": "Piazza degli Zingari", "amenity": "ice_cream", "email": "info@gelateriafatamorgana.com", "name": "Fatamorgana", "name:de": "Fatamorgana Monti", "name:en": "Fatamorgana Monti", "name:it": "Fatamorgana Monti", "phone": "+39 06 48906955", "ref:vatin": "IT11788051008", "website": "http://www.gelateriafatamorgana.com/"}}, {"type": "node", "id": 3469826255, "lat": 41.7271916, "lon": 12.2855008, "tags": {"addr:city": "Roma", "addr:housenumber": "6", "addr:postcode": "00122", "addr:street": "Piazza Cesario Console", "amenity": "ice_cream", "cuisine": "ice_cream", "fair_trade": "yes", "name": "Le Chat il gelato giusto", "website": "http://www.lechatilgelatogiusto.it/"}}, {"type": "node", "id": 3631201748, "lat": 41.8591363, "lon": 12.5593041, "tags": {"addr:city": "Roma", "addr:country": "IT", "addr:housenumber": "9A", "addr:postcode": "00174", "addr:street": "Via Calpurnio Fiamma", "amenity": "ice_cream", "name": "Ping Pong Ice", "opening_hours": "Mo-Su 10:00-24:00", "phone": "+39 06 7674411", "website": "http://www.pingpongice.it", "wheelchair": "limited"}}, {"type": "node", "id": 3654669694, "lat": 41.8314229, "lon": 12.4632223, "tags": {"amenity": "ice_cream", "name": "Gelarmony"}}, {"type": "node", "id": 3659148119, "lat": 41.8516819, "lon": 12.4782382, "tags": {"addr:city": "Roma", "addr:country": "IT", "addr:housenumber": "22", "addr:postcode": "00145", "addr:street": "Via Silvio D'Amico", "amenity": "ice_cream", "name": "Gelateria Miami 3", "phone": "+39 06 5407745", "ref:vatin": "IT05694551002"}}, {"type": "node", "id": 3671844092, "lat": 41.9269358, "lon": 12.4805445}, {"type": "node", "id": 3735088846, "lat": 41.8618509, "lon": 12.5535617, "tags": {"amenity": "ice_cream", "name": "Gelarmony"}}, {"type": "node", "id": 3769032892, "lat": 41.8471252, "lon": 12.4846944, "tags": {"addr:city": "Roma", "addr:housenumber": "68", "addr:postcode": "00142", "addr:street": "Via Fontanellato", "amenity": "ice_cream", "name": "Gelateria del Eros", "operator": "Montagnola 2000 Srl.", "phone": "+39 339 5793728", "ref:vatin": "IT05656641007", "restaurant:type:it": "gelateria"}}, {"type": "node", "id": 3895020460, "lat": 42.0912864, "lon": 12.2730666, "tags": {"addr:city": "Anguillara Sabazia", "addr:housenumber": "5", "addr:postcode": "00061", "addr:street": "Largo dello Zodiaco", "amenity": "ice_cream", "name": "Crema & Cioccolato", "outdoor_seating": "yes"}}, {"type": "node", "id": 4046462971, "lat": 41.909909, "lon": 12.454822, "tags": {"amenity": "ice_cream", "name": "Frulall\u00e0"}}, {"type": "node", "id": 4046462972, "lat": 41.9096421, "lon": 12.454882, "tags": {"addr:housenumber": "50", "addr:street": "Via Leone IV", "amenity": "ice_cream", "name": "Fatamorgana"}}, {"type": "node", "id": 4092204361, "lat": 41.7301497, "lon": 12.2745022, "tags": {"amenity": "ice_cream", "internet_access": "yes", "name": "Gelateria Salus", "outdoor_seating": "yes", "takeaway": "yes", "wheelchair": "yes"}}, {"type": "node", "id": 4131068216, "lat": 41.9087996, "lon": 12.4780019, "tags": {"addr:city": "Roma", "addr:housenumber": "10", "addr:postcode": "00187", "addr:street": "Via Laurina", "amenity": "ice_cream", "email": "info@gelateriafatamorgana.com", "name": "Fatamorgana", "name:de": "Fatamorgana Corso", "name:en": "Fatamorgana Corso", "name:it": "Fatamorgana Corso", "outdoor_seating": "no", "phone": "+39 06 32 65 22 38", "website": "http://www.gelateriafatamorgana.com"}}, {"type": "node", "id": 4135119121, "lat": 41.8622916, "lon": 12.4888096, "tags": {"addr:housenumber": "11/12", "addr:street": "Piazza Damiano Sauli", "amenity": "ice_cream", "ice_cream": "artisanal", "name": "Dolci Manie", "operator": "Dolci Manie Srl.", "phone": "+39 06 5135345", "ref:vatin": "IT06848991003", "sells:ice_cream": "yes", "shop": "pastry"}}, {"type": "node", "id": 4155899391, "lat": 41.8935761, "lon": 12.4885228, "tags": {"addr:housenumber": "337", "addr:street": "Via Cavour", "amenity": "ice_cream", "name": "Flor Gelato", "shop": "confectionery"}}, {"type": "node", "id": 4175663499, "lat": 41.9070566, "lon": 12.457698, "tags": {"addr:city": "Roma", "addr:housenumber": "29", "addr:street": "Via Ottaviano", "amenity": "ice_cream", "cuisine": "ice_cream;coffee_shop", "internet_access": "wlan", "name": "Lemongrass", "wheelchair": "no"}}, {"type": "node", "id": 4185120692, "lat": 41.8623398, "lon": 12.490291, "tags": {"addr:housenumber": "7/B", "addr:street": "Piazza Giovanni da Triora", "amenity": "ice_cream"}}, {"type": "node", "id": 4202673890, "lat": 41.7869964, "lon": 12.6667327, "tags": {"addr:city": "Grottaferrata", "addr:housenumber": "7", "addr:postcode": "00046", "addr:street": "Viale San Nilo", "amenity": "ice_cream", "name": "Mel\u00f2 e Coc\u00f2", "phone": "+39 339 663 4650", "takeaway": "yes"}}, {"type": "node", "id": 4226491791, "lat": 41.8815077, "lon": 12.4253781, "tags": {"addr:city": "Roma", "addr:housenumber": "4 a", "addr:postcode": "00164", "addr:street": "Via dei Malatesta", "amenity": "ice_cream", "name": "Il cono d'oro", "phone": "+39 06 66153121"}}, {"type": "node", "id": 4227893566, "lat": 41.9039406, "lon": 12.4591201, "tags": {"amenity": "ice_cream", "name": "Gelateria Del Monte", "toilets:wheelchair": "no", "wheelchair": "yes"}}, {"type": "node", "id": 4227893570, "lat": 41.9037878, "lon": 12.4614129, "tags": {"amenity": "ice_cream", "name": "Hedera", "wheelchair": "no"}}, {"type": "node", "id": 4228135490, "lat": 41.9137398, "lon": 12.451423, "tags": {"addr:city": "Roma", "addr:country": "IT", "addr:housenumber": "122", "addr:street": "Via Trionfale", "amenity": "ice_cream", "name": "Iamotti", "operator": "Vales srls"}}, {"type": "node", "id": 4230222480, "lat": 41.9074921, "lon": 12.4637831, "tags": {"amenity": "ice_cream", "name": "Mo's Gelaterie", "toilets:wheelchair": "no", "wheelchair": "yes"}}, {"type": "node", "id": 4230987816, "lat": 41.9141202, "lon": 12.5049106, "tags": {"addr:city": "Roma", "addr:country": "IT", "addr:housenumber": "212", "addr:postcode": "00198", "addr:street": "Viale Regina Margherita", "amenity": "ice_cream", "contact:email": "geldeigracchi@virgilio.it", "contact:phone": "+39 06 321 6668", "diet:gluten_free": "yes", "diet:lactose_free": "yes", "diet:vegetarian": "yes", "name": "Gelateria dei Gracchi", "opening_hours": "Mo-Th 12:00-22:00; Fr-Sa 12:00-00:00; Su 12:00-22:00", "operator": "Alberto Manassei S.r.l.", "outdoor_seating": "no", "shop": "ice_cream"}}, {"type": "node", "id": 4230993216, "lat": 41.9096515, "lon": 12.4761148, "tags": {"addr:city": "Roma", "addr:country": "IT", "addr:housenumber": "261", "addr:postcode": "00186", "addr:street": "Via di Ripetta", "amenity": "ice_cream", "contact:email": "gracchiviaripetta@gmail.com", "contact:phone": "+39 06 3224727", "contact:website": "http://www.gelateriadeigracchi.it", "name": "Gelateria dei Gracchi", "opening_hours": "Mo-Su 11:30-22:00", "operator": "Alberto Manassei S.r.l.", "ref:vatin": "IT12532571002", "shop": "ice_cream", "toilets:wheelchair": "no", "wheelchair": "limited"}}, {"type": "node", "id": 4241893843, "lat": 41.8593969, "lon": 12.5581628, "tags": {"amenity": "ice_cream", "name": "Le Bontique", "phone": "+39 06 69315270", "website": "http://gelaterialebontique.it/"}}, {"type": "node", "id": 4246722392, "lat": 41.9004624, "lon": 12.4695542, "tags": {"addr:housenumber": "65/66", "addr:postcode": "00186", "addr:street": "Via dei Coronari", "amenity": "ice_cream", "name": "Gelateria del Teatro", "name:es": "Helader\u00eda del Teatro", "name:fr": "Glacier du theatre", "name:ja": "\u30b8\u30a7\u30e9\u30c6\u30ea\u30a2 \u30c7\u30eb \u30c6\u30a2\u30c8\u30ed", "opening_hours": "Mo-Su 11:00-22:30", "phone": "+39 64 54 74 880", "wheelchair": "limited"}}, {"type": "node", "id": 4268275513, "lat": 41.8947942, "lon": 12.4915124, "tags": {"addr:city": "Roma", "addr:housenumber": "15", "addr:postcode": "00184", "addr:street": "Via dell'Angeletto", "amenity": "ice_cream", "name": "Gelateria dell' Angeletto", "phone": "+39064874760", "website": "http://gelateriadellangeletto.com"}}, {"type": "node", "id": 4275707708, "lat": 41.9077937, "lon": 12.4989727, "tags": {"access:covid19": "yes", "addr:city": "Roma", "addr:housenumber": "60", "addr:postcode": "00187", "addr:street": "Via Venti Settembre", "amenity": "ice_cream", "contact:facebook": "https://www.facebook.com/GelateriaLaRomanaRoma", "delivery:covid19": "yes", "email": "romana-romaventisettembre@gelateriaromana.com", "name": "Gelateria la Romana", "opening_hours": "Mo-Su 11:00-00:00", "opening_hours:covid19": "open", "takeaway:covid19": "yes", "website": "https://www.gelateriaromana.com/34-gelateria-roma.php"}}, {"type": "node", "id": 4322904691, "lat": 41.9427896, "lon": 12.4213538, "tags": {"addr:street": "Piazza Pietro Thouar", "amenity": "ice_cream", "name": "Gelateria Candy Cream"}}, {"type": "node", "id": 4357829497, "lat": 41.8940395, "lon": 12.4382908, "tags": {"amenity": "ice_cream", "name": "Gelateria"}}, {"type": "node", "id": 4359077792, "lat": 41.9006815, "lon": 12.4765049, "tags": {"addr:housenumber": "19-23", "addr:street": "Via della Maddalena", "amenity": "ice_cream", "diet:vegan": "yes", "name": "Gelateria della palma", "name:it": "gelateria della palma", "name:zh": "\u68d5\u6988\u51b0\u6dc7\u6dcb\u5e97", "shop": "ice_cream"}}, {"type": "node", "id": 4386798605, "lat": 41.886502, "lon": 12.4691955, "tags": {"addr:housenumber": "11", "addr:postcode": "00153", "addr:street": "Via Roma Libera", "amenity": "ice_cream", "name": "Fatamorgana Trastevere", "name:it": "Fatamorgana Trastevere", "opening_hours": "Mo-Sa 12:30-21:30; Su 12:30-22:30", "phone": "+39 065803615", "takeaway": "yes", "website": "http://www.gelateriafatamorgana.com"}}, {"type": "node", "id": 4398820593, "lat": 41.9009107, "lon": 12.4937318, "tags": {"addr:city": "Roma", "addr:housenumber": "19/a", "addr:postcode": "00184", "addr:street": "Via Nazionale", "amenity": "ice_cream", "name": "Gelateria Wonderful Ice Cream", "opening_hours": "Mo-Su 09:00-01:00"}}, {"type": "node", "id": 4406877332, "lat": 41.8080007, "lon": 12.6813907, "tags": {"amenity": "ice_cream", "name": "Gelateria Blanca", "takeaway": "yes"}}, {"type": "node", "id": 4406877337, "lat": 41.8077199, "lon": 12.6803295, "tags": {"addr:city": "Frascati", "addr:country": "IT", "addr:housenumber": "4", "addr:postcode": "00044", "addr:street": "Piazza San Pietro", "amenity": "ice_cream", "name": "Gelateria Tris", "phone": "+39 06 9416434", "takeaway": "yes"}}, {"type": "node", "id": 4406959033, "lat": 41.8094031, "lon": 12.6799865, "tags": {"amenity": "ice_cream"}}, {"type": "node", "id": 4427970837, "lat": 41.8197476, "lon": 12.6735989, "tags": {"addr:city": "Frascati", "addr:country": "IT", "addr:housenumber": "1", "addr:postcode": "00044", "addr:street": "Via Livio Gratton", "amenity": "ice_cream", "name": "Milletti Pasticceria Gelateria Caffetteria", "opening_hours": "Mo-Su 07:00-20:30", "outdoor_seating": "yes", "payment:bancomat": "yes", "payment:cash": "yes", "payment:coins": "yes", "phone": "+39 06 9417373", "shop": "pastry", "takeaway": "yes", "website": "http://www.facebook.com/MillettiPasticceria", "wheelchair": "yes"}}, {"type": "node", "id": 4429662554, "lat": 41.8639227, "lon": 12.553346, "tags": {"addr:city": "Roma", "addr:country": "IT", "addr:housenumber": "102", "addr:street": "Viale dei Consoli", "amenity": "ice_cream", "name": "Blue Ice"}}, {"type": "node", "id": 4449663530, "lat": 41.8884939, "lon": 12.5078731, "tags": {"addr:city": "Roma", "addr:housenumber": "140", "addr:street": "Via Emanuele Filiberto", "amenity": "ice_cream", "diet:vegan": "only", "diet:vegetarian": "only", "entrance": "yes", "name": "Gelateria Olive Dolci", "phone": "+39 06 7005894"}}, {"type": "node", "id": 4457771647, "lat": 41.8369019, "lon": 12.4762408}, {"type": "node", "id": 4457771648, "lat": 41.8369372, "lon": 12.4761121}, {"type": "node", "id": 4457771649, "lat": 41.837029, "lon": 12.4762438}, {"type": "node", "id": 4457771651, "lat": 41.8370229, "lon": 12.4761131}, {"type": "node", "id": 4460483926, "lat": 41.9298052, "lon": 12.4651046, "tags": {"addr:housenumber": "6", "addr:postcode": "00196", "addr:street": "Via Luigi Poletti", "amenity": "ice_cream", "ice_cream:type": "artisanal", "name": "Neve di Latte", "operator": "Neve di Latte Srl.", "ref:vatin": "IT11288021006", "restaurant:type:it": "gelateria_naturale", "shop": "ice_cream"}}, {"type": "node", "id": 4471160637, "lat": 41.9375402, "lon": 12.4657078, "tags": {"addr:housenumber": "19", "addr:street": "Piazzale di Ponte Milvio", "amenity": "ice_cream", "cuisine": "ice_cream", "name": "Il Pellicano"}}, {"type": "node", "id": 4530507479, "lat": 41.8829229, "lon": 12.4869244, "tags": {"addr:city": "Roma", "addr:housenumber": "30", "addr:postcode": "00153", "addr:street": "Viale Aventino", "amenity": "ice_cream", "delivery": "no", "description": "Gelateria Biologica, Gluten free, Granite, Brioche con gelato, Vegan", "diet:vegan": "yes", "gluten_free": "yes", "name": "Gelateria biologica Stefino Roma", "opening_hours": "Mo-Su 12:30-22:00", "organic": "yes", "phone": "+39 06 64420291", "takeaway": "yes"}}, {"type": "node", "id": 4551486412, "lat": 41.8802237, "lon": 12.5087315, "tags": {"addr:city": "Roma", "addr:housenumber": "7", "addr:postcode": "00183", "addr:street": "Piazza Tuscolo", "amenity": "ice_cream", "brand": "Freddo", "brand:wikidata": "Q28823999", "brand:wikipedia": "es:Freddo", "cuisine": "ice_cream", "name": "Freddo"}}, {"type": "node", "id": 4602661772, "lat": 41.7878477, "lon": 12.6674338, "tags": {"amenity": "ice_cream", "name": "La fonte del gelato"}}, {"type": "node", "id": 4620515190, "lat": 41.8982406, "lon": 12.4707581, "tags": {"addr:housenumber": "54", "addr:street": "Via del Governo Vecchio", "amenity": "ice_cream", "diet:vegan": "yes", "name": "Gelateria CamBIOvita", "name:es": "La Danesina", "opening_hours": "Mo-Su 11:00-00:00", "website": "http://gelateriacambiovitaroma", "wheelchair": "limited"}}, {"type": "node", "id": 4622057661, "lat": 41.8617012, "lon": 12.5560396, "tags": {"addr:city": "Roma", "addr:country": "IT", "addr:housenumber": "13", "addr:postcode": "00175", "addr:street": "Via Flavio Stilicone", "amenity": "ice_cream", "name": "Crema e cioccolato"}}, {"type": "node", "id": 4624251314, "lat": 41.7880092, "lon": 12.6678401, "tags": {"amenity": "ice_cream"}}, {"type": "node", "id": 4659895871, "lat": 41.888279, "lon": 12.534799, "tags": {"addr:city": "Roma", "addr:housenumber": "80", "addr:postcode": "00176", "addr:street": "Via Alberto da Giussano", "amenity": "ice_cream", "description:it": "Gelato/Pasticceria artigianale/Altri sfizi", "ice_cream:type": "ice cream shop;cup cake shop;coffee shop", "internet_access": "wlan", "name": "Fattori", "opening_hours": "Mo-Su 07:00-21:00", "outdoor_seating": "yes", "website": "https://www.gelateriafattori.com/", "wheelchair": "limited"}}, {"type": "node", "id": 4706307610, "lat": 41.6727444, "lon": 12.5007384, "tags": {"amenity": "ice_cream", "name": "La Fonte del Gelato"}}, {"type": "node", "id": 4706722157, "lat": 41.6723121, "lon": 12.5006008, "tags": {"amenity": "ice_cream", "name": "La Salernitana"}}, {"type": "node", "id": 4718545767, "lat": 41.8071972, "lon": 12.6804396, "tags": {"amenity": "ice_cream", "name": "Bis", "outdoor_seating": "yes"}}, {"type": "node", "id": 4760464374, "lat": 41.836949, "lon": 12.4762626}, {"type": "node", "id": 4760464388, "lat": 41.8368986, "lon": 12.476206, "tags": {"entrance": "yes"}}, {"type": "node", "id": 4769734367, "lat": 41.8798437, "lon": 12.5422946, "tags": {"addr:city": "Roma", "addr:housenumber": "13a", "addr:postcode": "00177", "addr:street": "Via di Tor Pignattara", "amenity": "ice_cream", "name": "Gelateria Fratelli Vecchio", "operator": "3V snc di Vecchio Vito e f.lli", "outdoor_seating": "yes", "phone": "+39 06 2413423", "ref:vatin": "IT01300731005", "restaurant:type:it": "gelateria;bar"}}, {"type": "node", "id": 4774603194, "lat": 41.7403404, "lon": 12.2733735, "tags": {"addr:city": "Roma", "addr:housenumber": "25", "addr:postcode": "00121", "addr:street": "Via Danilo Stiepovich", "amenity": "ice_cream", "name": "Il frutto proibito", "takeaway": "yes"}}, {"type": "node", "id": 4803876325, "lat": 41.9091668, "lon": 12.4706132, "tags": {"addr:housenumber": "2", "addr:postcode": "00193", "addr:street": "Via Cola di Rienzo", "amenity": "ice_cream", "name": "Gelateria la Romana", "name:en": "Gelateria la Romana", "name:it": "Gelateria la Romana", "opening_hours": "Mo-Su 11:00-00:00", "toilets:wheelchair": "no", "website": "https://www.gelateriaromana.com/", "wheelchair": "limited"}}, {"type": "node", "id": 4818657882, "lat": 41.9153783, "lon": 12.5098772, "tags": {"addr:housenumber": "271", "addr:street": "Via Nomentana", "amenity": "ice_cream", "name": "Gelateria Guttilla", "website": "http://www.guttilla.it/"}}, {"type": "node", "id": 4847966846, "lat": 41.8999395, "lon": 12.4764672, "tags": {"amenity": "ice_cream", "name": "San Crispino"}}, {"type": "node", "id": 4847981452, "lat": 41.89308, "lon": 12.4717983, "tags": {"amenity": "ice_cream", "name": "G\u00fcnter Gelato"}}, {"type": "node", "id": 4880298605, "lat": 41.9081814, "lon": 12.4679155, "tags": {"addr:city": "Roma", "addr:country": "IT", "addr:housenumber": "70", "addr:street": "Via Cicerone", "amenity": "ice_cream", "name": "Gelateria Tavola Calda", "wheelchair": "yes"}}, {"type": "node", "id": 4897079751, "lat": 41.8589344, "lon": 12.5580436, "tags": {"addr:housenumber": "1060", "addr:street": "Via Tuscolana", "amenity": "ice_cream", "entrance": "yes", "name": "Cream & Friends", "operator": "Show Food S.r.l.", "ref:vatin": "IT12340441000", "wheelchair": "yes"}}, {"type": "node", "id": 4899842612, "lat": 41.9001582, "lon": 12.4921503, "tags": {"addr:city": "Roma", "addr:housenumber": "206/207", "addr:postcode": "00184", "addr:street": "Via Nazionale", "amenity": "ice_cream", "name": "La Nazionale"}}, {"type": "node", "id": 4929565869, "lat": 41.8091205, "lon": 12.6803606, "tags": {"addr:housenumber": "28", "addr:street": "Via Cernaia", "amenity": "ice_cream", "name": "Greed avidi di gelato", "outdoor_seating": "yes", "takeaway": "yes"}}, {"type": "node", "id": 4931439788, "lat": 41.853536, "lon": 12.5671229, "tags": {"addr:city": "Roma", "addr:housenumber": "6", "addr:postcode": "00174", "addr:street": "Viale Tito Labieno", "amenity": "ice_cream", "name": "Stop&Go", "outdoor_seating": "no"}}, {"type": "node", "id": 4982672578, "lat": 41.8951808, "lon": 12.4502243, "tags": {"amenity": "ice_cream"}}, {"type": "node", "id": 4985678750, "lat": 41.9273809, "lon": 12.5155793, "tags": {"amenity": "ice_cream", "name": "Gelarte"}}, {"type": "node", "id": 5001269187, "lat": 41.8663687, "lon": 12.4659415, "tags": {"addr:city": "Roma", "addr:housenumber": "71", "addr:postcode": "00146", "addr:street": "Via Oderisi da Gubbio", "amenity": "ice_cream", "name": "Mela e Cannella", "opening_hours": "Tu-Su 12:00-00:00, Mo 12:00-20:00", "outdoor_seating": "no", "phone": "+39 06 5530 1622", "takeaway": "yes"}}, {"type": "node", "id": 5002857124, "lat": 41.7283553, "lon": 12.283454, "tags": {"addr:city": "Lido di Ostia", "addr:housenumber": "30/G", "addr:postcode": "00122", "addr:street": "Viale della Pineta di Ostia", "amenity": "ice_cream", "name": "Gelateria Glauco", "shop": "ice_cream", "wheelchair": "limited"}}, {"type": "node", "id": 5008303378, "lat": 41.9094329, "lon": 12.4515828, "tags": {"amenity": "ice_cream", "name": "Fattore Gelato"}}, {"type": "node", "id": 5009296445, "lat": 41.9265509, "lon": 12.5104544, "tags": {"addr:housenumber": "9/11", "addr:postcode": "00199", "addr:street": "Via Lago di Lesina", "amenity": "ice_cream", "name": "Fatamorgana", "name:de": "Fatamorgana Nemorense", "name:en": "Fatamorgana Nemorense", "name:it": "Fatamorgana Nemorense", "phone": "+39 0686391589", "website": "http://www.gelateriafatamorgana.com"}}, {"type": "node", "id": 5015298710, "lat": 41.8617869, "lon": 12.4430939, "tags": {"amenity": "ice_cream", "name": "Otaleg gelateria"}}, {"type": "node", "id": 5041512828, "lat": 41.9444157, "lon": 12.550409, "tags": {"addr:city": "Roma", "addr:housenumber": "83", "addr:postcode": "00137", "addr:street": "Via Ugo Ojetti", "amenity": "ice_cream", "name": "Gelateria Jimmy Zabaione", "name:it": "Gelateria Jimmy Zabaione", "outdoor_seating": "no", "takeaway": "yes"}}, {"type": "node", "id": 5044156621, "lat": 41.9063983, "lon": 12.470634, "tags": {"amenity": "ice_cream", "name": "Neve di Latte", "name:it": "Neve di Latte", "wheelchair": "no"}}, {"type": "node", "id": 5139508430, "lat": 41.7370467, "lon": 12.3760504, "tags": {"addr:housenumber": "41", "addr:postcode": "00124", "addr:street": "Via Torcegno", "amenity": "ice_cream", "name": "Gelateria Il Dolce Sorriso", "phone": "+39 328 030 9229"}}, {"type": "node", "id": 5139552934, "lat": 41.8721832, "lon": 12.4798723, "tags": {"addr:housenumber": "48", "addr:postcode": "00155", "addr:street": "Via Ostiense", "amenity": "ice_cream", "name": "Gelateria La Romana", "opening_hours": "Mo-Th 12:00-00:00; Fr-Sa 12:00-01:00; Su 11:00-00:00", "phone": "+39 06 5730 2253", "website": "https://www.gelateriaromana.com/35-gelateria-roma.php"}}, {"type": "node", "id": 5169424722, "lat": 41.915378, "lon": 12.5234561, "tags": {"amenity": "ice_cream", "name": "GELATERIA"}}, {"type": "node", "id": 5169457125, "lat": 41.9146762, "lon": 12.5206977, "tags": {"amenity": "ice_cream"}}, {"type": "node", "id": 5188180502, "lat": 41.8907166, "lon": 12.4779278, "tags": {"amenity": "ice_cream", "name": "Sora Lella"}}, {"type": "node", "id": 5204885470, "lat": 41.9006616, "lon": 12.4719367}, {"type": "node", "id": 5204885471, "lat": 41.9006746, "lon": 12.4719371}, {"type": "node", "id": 5204885472, "lat": 41.9006743, "lon": 12.4719552}, {"type": "node", "id": 5223170122, "lat": 41.8966599, "lon": 12.5001331, "tags": {"addr:city": "Roma", "addr:housenumber": "7", "addr:postcode": "00185", "addr:street": "Via Carlo Alberto", "amenity": "ice_cream", "cuisine": "ice_cream", "email": "orsobiancoroma@gmail.com", "name": "L'Orso Bianco", "opening_hours": "Mo-Su 12:00-21:30", "phone": "+39 06 4434 0765", "takeaway": "yes"}}, {"type": "node", "id": 5248413721, "lat": 41.8973432, "lon": 12.4976766, "tags": {"addr:city": "Roma", "addr:housenumber": "20", "addr:postcode": "00184", "addr:street": "Via Liberiana", "amenity": "ice_cream", "name": "Gelateria", "source": "mapillary"}}, {"type": "node", "id": 5340455426, "lat": 41.984434, "lon": 12.5140055, "tags": {"addr:city": "Roma", "addr:housenumber": "9", "addr:postcode": "00138", "addr:street": "Via Monte Urano", "amenity": "ice_cream", "name": "Al 7\u00ba gusto", "operator": "Simone Conticelli", "phone": "+39 06 88521870"}}, {"type": "node", "id": 5405116864, "lat": 41.865326, "lon": 12.469257, "tags": {"addr:city": "Roma", "addr:housenumber": "187", "addr:postcode": "00146", "addr:street": "Viale Guglielmo Marconi", "amenity": "ice_cream", "name": "MILKY Gelateria Naturale", "opening_hours": "Mo-Th 10:30-00:00; Fr-Su 10:30-01:00", "phone": "+39 06 4549 4730"}}, {"type": "node", "id": 5435192227, "lat": 41.9091083, "lon": 12.5203865, "tags": {"addr:housenumber": "22", "addr:street": "Viale Ippocrate", "amenity": "ice_cream", "name": "Gelateria Il pellicano"}}, {"type": "node", "id": 5503505200, "lat": 41.9114648, "lon": 12.5747922, "tags": {"addr:city": "Roma", "addr:housenumber": "75", "addr:postcode": "00155", "addr:street": "Viale Ettore Franceschini", "amenity": "ice_cream", "name": "Casa del gelato Adrian'S", "opening_hours": "Mo-Th 08:00-22:00; Fr-Sa 08:00-00:00; Su 08:00-22:00", "phone": "+39 06 406 7565", "website": "http://www.casadelgelato.it/"}}, {"type": "node", "id": 5518777449, "lat": 41.900086, "lon": 12.4807013, "tags": {"addr:city": "Roma", "addr:housenumber": "335", "addr:postcode": "00186", "addr:street": "Via del Corso", "amenity": "ice_cream", "name": "Venchi", "opening_hours": "Mo-Th 10:00-00:00; Fr-Su 10:00-01:00", "phone": "+39 06 6784698", "website": "http://venchi.com", "wheelchair": "limited"}}, {"type": "node", "id": 5535622168, "lat": 41.8963324, "lon": 12.4906336, "tags": {"addr:housenumber": "245", "addr:postcode": "00184", "addr:street": "Via Panisperna", "amenity": "ice_cream", "name": "Glauco"}}, {"type": "node", "id": 5535701257, "lat": 41.9295708, "lon": 12.5674268, "tags": {"addr:housenumber": "110", "addr:postcode": "00156", "addr:street": "Via di Casal de' Pazzi", "amenity": "ice_cream", "name": "Emmi Gelati", "outdoor_seating": "yes", "wheelchair": "yes"}}, {"type": "node", "id": 5557470322, "lat": 41.8969515, "lon": 12.5118208, "tags": {"addr:housenumber": "6", "addr:street": "Via Tiburtina", "amenity": "ice_cream", "name": "Gelato San Lorenzo", "opening_hours": "Mo-Su 11:00-00:00", "phone": "+39 06 446 9440", "website": "gelatosanlorenzo.com"}}, {"type": "node", "id": 5578196144, "lat": 41.8856547, "lon": 12.4587567, "tags": {"addr:city": "Roma", "addr:housenumber": "8", "addr:postcode": "00152", "addr:street": "Piazza Francesco Cucchi", "amenity": "ice_cream", "name": "Miami", "opening_hours": "Mo-Su 12:00-20:00", "outdoor_seating": "no", "wheelchair": "yes"}}, {"type": "node", "id": 5578903424, "lat": 41.8801299, "lon": 12.4760474, "tags": {"amenity": "ice_cream", "name": "Gelateria Artigianale Creperia"}}, {"type": "node", "id": 5584321297, "lat": 41.8489867, "lon": 12.4878272, "tags": {"addr:city": "Roma", "addr:housenumber": "44/46", "addr:postcode": "00147", "addr:street": "Via Mario Musco", "amenity": "ice_cream", "email": "igemelligelateria@gmail.com", "facebook": "https://www.facebook.com/Igemelligelateria", "name": "I Gemelli", "opening_hours": "Tu-Fr 12:00-20:00;Sa-Su 12:00-13:30,15:00-20:00", "operator": "I Gemelli SAS di Matteo Ricci", "ref:vatin": "IT13957011003", "takeaway": "yes"}}, {"type": "node", "id": 5586080400, "lat": 41.9817627, "lon": 12.5636677}, {"type": "node", "id": 5586080403, "lat": 41.9817279, "lon": 12.5637097}, {"type": "node", "id": 5586080406, "lat": 41.9816855, "lon": 12.5635244}, {"type": "node", "id": 5586080408, "lat": 41.9816465, "lon": 12.5635691}, {"type": "node", "id": 5597186421, "lat": 41.8907424, "lon": 12.4685405, "tags": {"amenity": "ice_cream", "name": "OldBridge Gelateria Trastevere"}}, {"type": "node", "id": 5612234839, "lat": 41.9048276, "lon": 12.5042798, "tags": {"addr:city": "Roma", "addr:housenumber": "47", "addr:postcode": "00185", "addr:street": "Via Palestro", "amenity": "ice_cream", "name": "Gello"}}, {"type": "node", "id": 5637140869, "lat": 41.9281019, "lon": 12.5156182, "tags": {"addr:city": "Roma", "addr:housenumber": "109", "addr:postcode": "00199", "addr:street": "Viale Eritrea", "amenity": "ice_cream", "name": "Don Nino"}}, {"type": "node", "id": 5675346631, "lat": 41.9792398, "lon": 12.5159508, "tags": {"addr:city": "Roma", "addr:housenumber": "7", "addr:postcode": "00138", "addr:street": "Via Monte Giberto", "amenity": "ice_cream", "name": "Mim\u00ec", "operator": "Giovanni Cirulli", "outdoor_seating": "yes", "phone": "+30 06 8805789", "takeaway": "only"}}, {"type": "node", "id": 5677412470, "lat": 41.9155167, "lon": 12.5755057, "tags": {"addr:housenumber": "77", "addr:street": "Viale Battista Bardanzellu", "amenity": "ice_cream", "name": "Strawberry Fields - Gelato D'essai", "opening_hours": "Mo-Su 12:00-21:00", "phone": "+39 06 6426 4692", "website": "gelatodessai.it"}}, {"type": "node", "id": 5677484298, "lat": 41.9063897, "lon": 12.4441343, "tags": {"addr:housenumber": "102", "addr:street": "Viale degli Ammiragli", "amenity": "ice_cream", "name": "Cremeria Nonno Lillo", "opening_hours": "Mo-Th 07:30-21:00; Fr-Sa 07:30-23:00; Su 10:00-23:00", "phone": "+39 329 091 4485"}}, {"type": "node", "id": 5730129842, "lat": 41.9389002, "lon": 12.4690504, "tags": {"addr:housenumber": "3", "addr:street": "Via Riano", "amenity": "ice_cream", "name": "Steccolecco", "opening_hours": "Mo-Su 11:00-00:00", "phone": "+39 331 102 9160", "website": "https://steccolecco.com/"}}, {"type": "node", "id": 5745712141, "lat": 41.768418, "lon": 12.6618151, "tags": {"addr:housenumber": "36", "addr:street": "Via Fratelli Giani", "amenity": "ice_cream", "name": "Zio Jack 2.0"}}, {"type": "node", "id": 5745712180, "lat": 41.7684282, "lon": 12.6620694, "tags": {"addr:housenumber": "11", "addr:street": "Piazza Giacomo Matteotti", "amenity": "ice_cream", "name": "Pasqualotto Gelato Storico", "opening_hours": "Mo-Th 12:00-22:30; Fr-Sa 12:00-23:45; Su 12:00-22:30", "phone": "+39 06 938 8102", "website": "pasqualotto1925.it"}}, {"type": "node", "id": 5761897753, "lat": 41.8868647, "lon": 12.5087218, "tags": {"addr:street": "Via Emanuele Filiberto", "amenity": "ice_cream", "cuisine": "ice_cream", "name": "Ohana"}}, {"type": "node", "id": 5767834955, "lat": 41.8819971, "lon": 12.539016, "tags": {"addr:city": "Roma", "addr:housenumber": "22", "addr:postcode": "00176", "addr:street": "Via Leonardo Bufalini", "amenity": "ice_cream", "ice_cream": "artisanal", "name": "Il Gelato di Dei", "operator": "Daniele Dei", "phone": "+39 348 3653917", "ref:vatin": "IT07527100585"}}, {"type": "node", "id": 5774817971, "lat": 41.9388785, "lon": 12.5279782, "tags": {"addr:city": "Roma", "addr:housenumber": "41", "addr:postcode": "00141", "addr:street": "Piazza Conca d'Oro", "amenity": "ice_cream", "cuisine": "ice_cream", "name": "La Fabbrica di Gelato", "opening_hours": "Su-Th 11:30-20:30; Fr,Sa 11:30-21:00", "outdoor_seating": "yes", "phone": "+39 06 87179428"}}, {"type": "node", "id": 5777611153, "lat": 41.8677081, "lon": 12.6314737, "tags": {"amenity": "ice_cream", "name": "Gelateria Mioni"}}, {"type": "node", "id": 5792747461, "lat": 41.9714612, "lon": 12.4334651, "tags": {"addr:city": "Roma", "addr:housenumber": "927", "addr:postcode": "00189", "addr:street": "Via Cassia", "addr:unit": "b", "amenity": "ice_cream", "name": "GelAngelo", "website": "https://www.gelangelo.com/"}}, {"type": "node", "id": 5793676006, "lat": 41.9834199, "lon": 12.4083372, "tags": {"addr:housenumber": "13", "addr:street": "Via Vittorio Piccinini", "amenity": "ice_cream", "name": "Orso Goloso", "opening_hours": "Mo-Su 08:00-23:30", "phone": "+39 328 874 9394", "website": "https://orsogoloso.it/"}}, {"type": "node", "id": 5799665983, "lat": 41.917697, "lon": 12.5197697, "tags": {"addr:housenumber": "1", "addr:street": "Largo Ventuno Aprile", "amenity": "ice_cream", "name": "Pico Gelato", "opening_hours": "Mo-Th 11:30-23:30; Fr-Sa 11:30-00:00; Su 11:30-23:30", "phone": "+39 06 4425 4365", "website": "picogelato.it"}}, {"type": "node", "id": 5814241036, "lat": 41.9115936, "lon": 12.5042724, "tags": {"addr:city": "Roma", "addr:housenumber": "115", "addr:postcode": "00198", "addr:street": "Via Nomentana", "amenity": "ice_cream", "name": "Special Ice"}}, {"type": "node", "id": 5832047454, "lat": 41.9058458, "lon": 12.4930477, "tags": {"addr:housenumber": "24", "addr:street": "Via Giosu\u00e8 Carducci", "amenity": "ice_cream", "name": "Yogurteria"}}, {"type": "node", "id": 5837165744, "lat": 41.8847025, "lon": 12.5096351, "tags": {"addr:city": "Roma", "addr:housenumber": "25", "addr:postcode": "00183", "addr:street": "Via Magnagrecia", "amenity": "ice_cream", "name": "Rivareno", "outdoor_seating": "no", "takeaway": "yes"}}, {"type": "node", "id": 5837165745, "lat": 41.8842328, "lon": 12.5090479, "tags": {"addr:city": "Roma", "addr:street": "Via Magnagrecia", "amenity": "ice_cream", "delivery": "no", "description": "Grattachecca (aperto solo in estate)", "name": "Chiosco Grattachecca", "outdoor_seating": "limited", "takeaway": "only"}}, {"type": "node", "id": 5853362489, "lat": 41.8939025, "lon": 12.4898173, "tags": {"addr:city": "Roma", "addr:housenumber": "289", "addr:postcode": "00184", "addr:street": "Via Cavour", "amenity": "ice_cream", "name": "Gelateria"}}, {"type": "node", "id": 5863978978, "lat": 41.8793504, "lon": 12.4758599, "tags": {"addr:housenumber": "62/B", "addr:postcode": "00153", "addr:street": "Via Giovanni Battista Bodoni", "amenity": "ice_cream", "contact:facebook": "Brivido-gelateria-167752756725810", "contact:instagram": "brivido_gelateria_roma_", "email": "deangelis.stella@libero.it", "name": "Brivido Gelateria", "opening_hours": "We-Th 11:30-00:00; Su-Tu 11:30-23:00; Fr-Sa 11:30-01:00", "operator": "S. De Angelis & C. snc", "phone": "+39 06 5728 8998", "ref:vatin": "IT12163521003"}}, {"type": "node", "id": 5903309329, "lat": 41.8680253, "lon": 12.5265324, "tags": {"amenity": "ice_cream", "name": "Cafe Cancelliere"}}, {"type": "node", "id": 5933524186, "lat": 41.9005361, "lon": 12.4765198, "tags": {"addr:housenumber": "19-23", "addr:street": "Via Della Maddalena", "amenity": "ice_cream", "description": "Gellateria della Palma serves 150 ice cream flavours and has many vegan options.", "diet:gluten_free": "yes", "diet:vegan": "yes", "name": "Gellateria Della Palma", "opening_hours": "Mo-Su 08:30-00:30", "website": "https://www.dellapalma.it/"}}, {"type": "node", "id": 5973923508, "lat": 41.8825498, "lon": 12.5139276, "tags": {"addr:housenumber": "50", "addr:street": "Piazza dei Re di Roma", "amenity": "ice_cream", "name": "GeLabo", "outdoor_seating": "no", "takeaway": "yes"}}, {"type": "node", "id": 5973923509, "lat": 41.8826155, "lon": 12.5141585, "tags": {"addr:city": "Roma", "addr:housenumber": "3", "addr:postcode": "00182", "addr:street": "Via Aosta", "amenity": "ice_cream", "name": "Fata Morgana", "name:de": "Fatamorgana Re di Roma", "name:en": "Fatamorgana Re di Roma", "name:it": "Fatamorgana Re di Roma", "outdoor_seating": "no", "phone": "+39 0645668092", "takeaway": "yes", "website": "http://www.gelateriafatamorgana.com/web/"}}, {"type": "node", "id": 6044688593, "lat": 41.889766, "lon": 12.4952132, "tags": {"amenity": "ice_cream", "name:en": "Gelateria da Costanza"}}, {"type": "node", "id": 6056947792, "lat": 41.8987373, "lon": 12.4990608, "tags": {"addr:city": "Roma", "addr:country": "IT", "addr:housenumber": "32", "addr:postcode": "00185", "addr:street": "Via Farini", "amenity": "ice_cream", "name": "Farini 32"}}, {"type": "node", "id": 6073170856, "lat": 41.8873197, "lon": 12.5191016, "tags": {"addr:city": "Roma", "addr:housenumber": "7", "addr:postcode": "00182", "addr:street": "Piazza Camerino", "amenity": "ice_cream", "name": "Ice Dream Factory"}}, {"type": "node", "id": 6080455388, "lat": 41.9160447, "lon": 12.374187, "tags": {"addr:city": "Roma", "addr:housenumber": "59", "addr:postcode": "00166", "addr:street": "Via di Casalotti", "amenity": "ice_cream", "name": "Gelateria", "wheelchair": "yes"}}, {"type": "node", "id": 6197760759, "lat": 41.9036137, "lon": 12.458305, "tags": {"amenity": "ice_cream", "wheelchair": "no"}}, {"type": "node", "id": 6250093101, "lat": 42.0033813, "lon": 12.3824556, "tags": {"amenity": "ice_cream", "name": "Pera e Cioccolato"}}, {"type": "node", "id": 6274885215, "lat": 41.8368997, "lon": 12.4761351}, {"type": "node", "id": 6274885364, "lat": 41.8369864, "lon": 12.4762538}, {"type": "node", "id": 6274885370, "lat": 41.8370261, "lon": 12.4761819}, {"type": "node", "id": 6274885527, "lat": 41.8368933, "lon": 12.476139}, {"type": "node", "id": 6300640035, "lat": 41.8991904, "lon": 12.4269407}, {"type": "node", "id": 6300640036, "lat": 41.899207, "lon": 12.4269875}, {"type": "node", "id": 6300640037, "lat": 41.8991615, "lon": 12.4270167}, {"type": "node", "id": 6300640038, "lat": 41.8991449, "lon": 12.4269699}, {"type": "node", "id": 6312410366, "lat": 41.8798731, "lon": 12.4766836, "tags": {"amenity": "ice_cream", "name": "Capitan Cono"}}, {"type": "node", "id": 6318208586, "lat": 41.8881739, "lon": 12.4704635, "tags": {"addr:city": "Roma", "addr:housenumber": "14a", "addr:postcode": "00153", "addr:street": "Via di San Cosimato", "amenity": "ice_cream", "diet:vegan": "only", "name": "Otaleg", "opening_hours": "Mo-Th 12:00-00:00; Fr-Su 12:00-00:30", "phone": "+39 338 6515450", "wheelchair": "no"}}, {"type": "node", "id": 6325416986, "lat": 41.8880054, "lon": 12.4838449, "tags": {"amenity": "ice_cream", "name": "Gelateria Artigianale"}}, {"type": "node", "id": 6328615148, "lat": 41.9382639, "lon": 12.4687317, "tags": {"addr:housenumber": "492", "addr:street": "Via Flaminia", "amenity": "ice_cream", "name": "Sweety Gelato", "opening_hours": "Mo-Th 13:30-00:00; Fr-Sa 13:30-01:30; Su 14:00-00:00", "phone": "+39 06 9761 3850", "website": "sweetygelato.com"}}, {"type": "node", "id": 6328623408, "lat": 41.8956309, "lon": 12.4729241, "tags": {"addr:housenumber": "9", "addr:street": "Via del Biscione", "amenity": "ice_cream", "name": "Sweety Gelato", "opening_hours": "Mo-Th 13:00-23:30; Fr-Sa 13:00-02:00; Su 13:00-23:30", "phone": "+39 06 6400 1365", "website": "sweetygelato.com"}}, {"type": "node", "id": 6364380102, "lat": 41.9, "lon": 12.4763255, "tags": {"addr:city": "Roma", "addr:housenumber": "35", "addr:postcode": "00186", "addr:street": "Piazza Rondanini", "amenity": "ice_cream", "name": "Sicily", "outdoor_seating": "no"}}, {"type": "node", "id": 6396713067, "lat": 41.8799052, "lon": 12.4170671, "tags": {"addr:housenumber": "185", "amenity": "ice_cream", "name": "Iceberg Gelateria Caffetteria", "outdoor_seating": "yes", "takeaway": "yes"}}, {"type": "node", "id": 6425243792, "lat": 41.9428184, "lon": 12.4213909, "tags": {"amenity": "ice_cream", "name": "Candy Cream"}}, {"type": "node", "id": 6427487373, "lat": 41.9805249, "lon": 12.5616002, "tags": {"addr:city": "Roma", "addr:housenumber": "123", "addr:postcode": "00139", "addr:street": "Via di Tor San Giovanni", "amenity": "ice_cream", "name": "Gelateria Reale"}}, {"type": "node", "id": 6492481685, "lat": 41.8972962, "lon": 12.4725605, "tags": {"addr:housenumber": "61", "addr:street": "Via di San Pantaleo", "amenity": "ice_cream", "name": "Gelateria dei Gracchi", "website": "http://gelateriadiegracchi.it"}}, {"type": "node", "id": 6495412185, "lat": 41.9063827, "lon": 12.4564675, "tags": {"addr:housenumber": "5", "addr:street": "Viale dei Bastioni di Michelangelo", "amenity": "ice_cream", "name": "Old Bridge Gelateria"}}, {"type": "node", "id": 6506606485, "lat": 41.8263558, "lon": 12.4773253, "tags": {"addr:housenumber": "105", "addr:street": "Viale dell'Aeronautica", "amenity": "ice_cream", "name": "Torc\u00e8", "opening_hours": "Mo-Su 11:30-21:00"}}, {"type": "node", "id": 6547556185, "lat": 41.9566631, "lon": 12.5183106, "tags": {"addr:housenumber": "69", "addr:postcode": "00139", "addr:street": "Via Calcinaia", "amenity": "ice_cream", "name": "La Rotonda"}}, {"type": "node", "id": 6555717686, "lat": 41.8969279, "lon": 12.5117933, "tags": {"addr:housenumber": "6", "addr:street": "Via Tiburtina", "amenity": "ice_cream", "name": "Gelatta San Lorenzo"}}, {"type": "node", "id": 6653924127, "lat": 41.8968901, "lon": 12.4871326, "tags": {"addr:city": "Roma", "addr:housenumber": "160", "addr:postcode": "00184", "addr:street": "Via Nazionale", "amenity": "ice_cream", "description": "Gelato ice cream shop", "diet:vegan": "yes", "name": "The Gelatist", "opening_hours": "Mo-Su 10:00-01:00", "website": "https://www.thegelatist.it/"}}, {"type": "node", "id": 6699802074, "lat": 41.7981595, "lon": 12.2524521, "tags": {"amenity": "ice_cream", "name": "Venchi"}}, {"type": "node", "id": 6707733188, "lat": 41.8943437, "lon": 12.476621, "tags": {"amenity": "ice_cream"}}, {"type": "node", "id": 6710483585, "lat": 41.8630129, "lon": 12.4428741, "tags": {"amenity": "ice_cream"}}, {"type": "node", "id": 6768730878, "lat": 41.9476031, "lon": 12.4703512, "tags": {"addr:housenumber": "30", "addr:street": "Via di Villa Severini", "amenity": "ice_cream", "name": "Alaska Gelateria", "opening_hours": "Mo-Th 12:00-22:00; Fr-Sa 12:00-00:00; Su 12:00-22:00", "phone": "+39 06 3629 8466"}}, {"type": "node", "id": 6779509967, "lat": 41.8805095, "lon": 12.47763, "tags": {"addr:housenumber": "115", "addr:street": "Via Marmorata", "amenity": "ice_cream", "name": "Panna & Co", "operator": "CA.MA.DA. Srl", "ref:vatin": "IT12896901001"}}, {"type": "node", "id": 6789373002, "lat": 41.9071001, "lon": 12.4157626, "tags": {"addr:housenumber": "109", "addr:street": "Via Mattia Battistini", "amenity": "ice_cream", "name": "Dolce gelo", "opening_hours": "Mo-Th 11:00-00:00; Fr 11:00-01:00; Sa 11:00-00:00; Su 10:30-00:00", "phone": "+39 340 166 3312"}}, {"type": "node", "id": 6996564585, "lat": 41.9090436, "lon": 12.4781668, "tags": {"amenity": "ice_cream", "name": "Cafe ristorante"}}, {"type": "node", "id": 7022635087, "lat": 41.7381146, "lon": 12.2891897, "tags": {"amenity": "ice_cream", "name": "Gelateria Diamante"}}, {"type": "node", "id": 7023169486, "lat": 41.7220477, "lon": 12.3027691, "tags": {"amenity": "ice_cream", "name": "Gelateria Da Carletto al Borghetto"}}, {"type": "node", "id": 7023461319, "lat": 41.722369, "lon": 12.2961045, "tags": {"amenity": "ice_cream", "name": "Chiosco Grattachecca"}}, {"type": "node", "id": 7023491464, "lat": 41.7299657, "lon": 12.2845727, "tags": {"amenity": "ice_cream", "wheelchair": "yes"}}, {"type": "node", "id": 7025688385, "lat": 41.8947077, "lon": 12.4742642, "tags": {"addr:housenumber": "37", "addr:postcode": "00186", "addr:street": "Via dei Chiavari", "amenity": "ice_cream", "name": "Fatamorgana Centro Storico", "name:en": "Fatamorgana", "phone": "+39 0688818437", "website": "http://www.gelateriafatamorgana.com"}}, {"type": "node", "id": 7026590195, "lat": 41.8996076, "lon": 12.4784395, "tags": {"addr:housenumber": "18", "addr:street": "Via dei Pastini", "amenity": "ice_cream", "name": "La bottega del gelato"}}, {"type": "node", "id": 7088051764, "lat": 41.8482285, "lon": 12.4869474, "tags": {"addr:street": "Via di Grotta Perfetta", "amenity": "ice_cream", "internet_access": "no", "name": "I Mannari", "takeaway": "yes"}}, {"type": "node", "id": 7089801819, "lat": 41.9094595, "lon": 12.5440903, "tags": {"amenity": "ice_cream", "description": "Gelateria artigianale", "name": "Lubrano", "website": "http://www.gelaterialubrano.com/"}}, {"type": "node", "id": 7103267186, "lat": 41.8969003, "lon": 12.4871885, "tags": {"amenity": "ice_cream"}}, {"type": "node", "id": 7140867514, "lat": 41.9470593, "lon": 12.5263019, "tags": {"addr:city": "Roma", "addr:housenumber": "28", "addr:postcode": "00139", "addr:street": "Via Gorgona", "amenity": "ice_cream", "name": "Il gelato di Alessandra"}}, {"type": "node", "id": 7247904446, "lat": 41.9580477, "lon": 12.5214806, "tags": {"amenity": "ice_cream"}}, {"type": "node", "id": 7296400022, "lat": 41.9727647, "lon": 12.5152361, "tags": {"addr:city": "Roma", "addr:housenumber": "210", "addr:postcode": "00138", "addr:street": "Via Radicofani", "amenity": "ice_cream", "name": "Gelateria Angelini"}}, {"type": "node", "id": 7437443942, "lat": 41.8541206, "lon": 12.4861783, "tags": {"addr:housenumber": "177", "addr:street": "Via Alessandro Severo", "amenity": "ice_cream", "name": "Crema & Cioccolato", "restaurant:type:it": "gelateria;caffeteria"}}, {"type": "node", "id": 7547486605, "lat": 41.8721428, "lon": 12.5276227, "tags": {"addr:city": "Roma", "addr:housenumber": "102", "addr:postcode": "00181", "addr:street": "Via Eurialo", "amenity": "ice_cream", "name": "Gelateria Splash", "opening_hours": "Su-Th 09:00-24:00; Fr-Sa 09:00-23:00"}}, {"type": "node", "id": 7549830489, "lat": 41.8961788, "lon": 12.4854023, "tags": {"addr:housenumber": "95a", "addr:street": "Via Quattro Novembre", "amenity": "ice_cream", "name": "Il Cannolo Siciliano"}}, {"type": "node", "id": 7555762466, "lat": 41.8498744, "lon": 12.5915044, "tags": {"addr:city": "Roma", "addr:housenumber": "98", "addr:postcode": "00173", "addr:street": "Viale Antonio Ciamarra", "amenity": "ice_cream", "contact:facebook": "https://www.facebook.com/gelateriadiverso", "name": "Diverso", "phone": "+39 06 39741751"}}, {"type": "node", "id": 7563323202, "lat": 41.8604704, "lon": 12.5562074, "tags": {"addr:city": "Roma", "addr:housenumber": "765", "addr:postcode": "00175", "addr:street": "Via Tuscolana", "amenity": "ice_cream", "name": "Blue Ice"}}, {"type": "node", "id": 7580985985, "lat": 41.8999518, "lon": 12.476803, "tags": {"addr:housenumber": "51", "addr:street": "Via del Pantheon", "amenity": "ice_cream", "name:en": "Gelateria Fiocco Di Neve"}}, {"type": "node", "id": 7592315609, "lat": 41.7367079, "lon": 12.2904529, "tags": {"amenity": "ice_cream", "name": "L'angolo Gelato", "opening_hours": "Sep-May Tu-Su 12:00-23:00; Jun-Aug Tu-Su 12:00-19:30"}}, {"type": "node", "id": 7595916763, "lat": 41.8511933, "lon": 12.4245834, "tags": {"addr:city": "Roma", "addr:housenumber": "760", "addr:postcode": "00148", "addr:street": "Via Portuense", "amenity": "ice_cream", "diet:vegan": "no", "name": "Gelatomania", "opening_hours": "Mo-Th 11:00-23:30; Fr-Sa 11:00-00:00; Su 10:00-00:00", "outdoor_seating": "no", "website": "https://gelatomaniaportuense.ordina.menu/gelatomaniaportuense", "wheelchair": "limited"}}, {"type": "node", "id": 7617753431, "lat": 41.731267, "lon": 12.2754128, "tags": {"amenity": "ice_cream", "name": "Gelosia"}}, {"type": "node", "id": 7709659840, "lat": 41.8841713, "lon": 12.5618895, "tags": {"addr:city": "Roma", "addr:housenumber": "31", "addr:postcode": "00172", "addr:street": "Via delle Albizzie", "amenity": "ice_cream", "name": "Panna e cioccolato"}}, {"type": "node", "id": 7719493636, "lat": 41.8674454, "lon": 12.4941023, "tags": {"addr:housenumber": "347", "addr:street": "Circonvallazione Ostiense", "amenity": "ice_cream", "name": "Caffeteria Gelateria", "outdoor_seating": "yes"}}, {"type": "node", "id": 7728200432, "lat": 41.8960045, "lon": 12.4777864, "tags": {"addr:housenumber": "37", "addr:street": "Corso Vittorio Emanuele Secondo", "amenity": "ice_cream", "name": "Gelato Vale"}}, {"type": "node", "id": 7756791081, "lat": 41.8445196, "lon": 12.4364827, "tags": {"addr:city": "Roma", "addr:housenumber": "257", "addr:postcode": "00148", "addr:street": "Via del Trullo", "amenity": "ice_cream", "name": "Green bar", "outdoor_seating": "no"}}, {"type": "node", "id": 7765253649, "lat": 41.8324939, "lon": 12.5991996, "tags": {"addr:city": "Roma", "addr:housenumber": "141", "addr:postcode": "00173", "addr:street": "Via Gasperina", "amenity": "ice_cream", "name": "Blue Ice", "phone": "+39 333 2021672"}}, {"type": "node", "id": 7842955351, "lat": 41.893104, "lon": 12.4772197, "tags": {"addr:housenumber": "6", "addr:street": "Via del Portico d'Ottavia", "amenity": "ice_cream", "name": "Gelateria Steccolecco", "opening_hours": "Mo-Su 11:00-00:00", "phone": "+39 0668136153", "website": "https://steccolecco.com/"}}, {"type": "node", "id": 7859168734, "lat": 41.8698046, "lon": 12.5297937, "tags": {"addr:city": "Roma", "addr:housenumber": "22", "addr:postcode": "00179", "addr:street": "Largo dei Colli Albani", "amenity": "ice_cream", "name": "Billy's Ice", "phone": "+39 06 89671914", "takeaway": "only"}}, {"type": "node", "id": 8012156465, "lat": 41.8922726, "lon": 12.4749997, "tags": {"addr:housenumber": "47", "addr:street": "Via Arenula", "amenity": "ice_cream", "name": "Old Bridge Gelateria"}}, {"type": "node", "id": 8091070060, "lat": 41.8827439, "lon": 12.5668893, "tags": {"addr:housenumber": "92a", "addr:postcode": "00172", "addr:street": "Via dei Castani", "amenity": "ice_cream", "name": "Giulivo", "operator": "La Delicatezza Ciarlantini R. & C. SAS", "ref:vatin": "IT15199181007"}}, {"type": "node", "id": 8096934092, "lat": 41.9426729, "lon": 12.4210842, "tags": {"amenity": "ice_cream", "name": "Gelateria"}}, {"type": "node", "id": 8166631294, "lat": 41.8932001, "lon": 12.4883444, "tags": {"amenity": "ice_cream"}}, {"type": "node", "id": 8221934501, "lat": 41.8732695, "lon": 12.5177099, "tags": {"addr:city": "Roma", "addr:housenumber": "172", "addr:postcode": "00179", "addr:street": "Via Gino Capponi", "amenity": "ice_cream", "name": "Desiderio"}}, {"type": "node", "id": 8240834842, "lat": 41.937123, "lon": 12.5588939, "tags": {"addr:city": "roma", "addr:housenumber": "175", "addr:postcode": "00137", "addr:street": "Viale Marx", "amenity": "ice_cream", "name": "gelateria Shabry", "opening_hours": "07:00-20:30"}}, {"type": "node", "id": 8390498351, "lat": 41.8568427, "lon": 12.5688024, "tags": {"addr:city": "Roma", "addr:housenumber": "83", "addr:postcode": "00175", "addr:street": "Via Statilio Ottato", "amenity": "ice_cream", "name": "Crema e cioccolato", "phone": "+39 06 71543749"}}, {"type": "node", "id": 8442926798, "lat": 41.8813652, "lon": 12.5150173, "tags": {"addr:city": "Roma", "addr:housenumber": "143/c", "addr:postcode": "00183", "addr:street": "Via Appia Nuova", "amenity": "ice_cream", "name": "La yogurteria"}}, {"type": "node", "id": 8484645019, "lat": 41.9524799, "lon": 12.7240013, "tags": {"amenity": "ice_cream", "name": "Artigianale"}}, {"type": "node", "id": 8504267274, "lat": 41.8441575, "lon": 12.5993391, "tags": {"addr:city": "Roma", "addr:housenumber": "57/a", "addr:postcode": "00173", "addr:street": "Via Giuseppe Gregoraci", "amenity": "ice_cream", "name": "Smile", "phone": "+39 349 2800980"}}, {"type": "node", "id": 8504706830, "lat": 41.8075837, "lon": 12.6800734, "tags": {"addr:city": "Frascati", "addr:country": "IT", "addr:housenumber": "9", "addr:postcode": "00044", "addr:street": "Via Solferino", "amenity": "ice_cream", "name": "Gelateria Alaska", "phone": "+39 06 942 0399"}}, {"type": "node", "id": 8506281460, "lat": 41.7839451, "lon": 12.3649071, "tags": {"amenity": "ice_cream", "name": "Sweet Ice", "takeaway": "yes"}}, {"type": "node", "id": 8520084635, "lat": 41.7465317, "lon": 12.3571542, "tags": {"amenity": "ice_cream", "takeaway": "yes"}}, {"type": "node", "id": 8568691065, "lat": 41.8754096, "lon": 12.4679412, "tags": {"addr:housenumber": "2", "addr:street": "Via Bernardino Passeri", "amenity": "ice_cream", "name": "Gelateria Cucurucho", "opening_hours": "Mo-Fr 12:00-20:00; Sa 15:30-20:00; Su 11:00-20:00"}}, {"type": "node", "id": 8586555699, "lat": 41.7620377, "lon": 12.371414, "tags": {"amenity": "ice_cream", "name": "Gelosi per Natura"}}, {"type": "node", "id": 8633204550, "lat": 41.8841236, "lon": 12.5093911, "tags": {"addr:housenumber": "25", "addr:postcode": "00183", "addr:street": "Via Magnagrecia", "amenity": "ice_cream", "name": "Rivareno Roma", "operator": "Unica Srl.", "phone": "+39 06 77590302", "ref:vatin": "IT16528301001"}}, {"type": "node", "id": 8658480632, "lat": 41.8520743, "lon": 12.4934564, "tags": {"addr:city": "Roma", "addr:housenumber": "106", "addr:postcode": "00147", "addr:street": "Via dei Georgofili", "amenity": "ice_cream", "name": "Parrini", "phone": "+39 375 6223883"}}, {"type": "node", "id": 8765066486, "lat": 41.9269228, "lon": 12.4804764}, {"type": "node", "id": 8765066487, "lat": 41.9269021, "lon": 12.4804814}, {"type": "node", "id": 8765066488, "lat": 41.9269127, "lon": 12.4805525}, {"type": "node", "id": 8995135707, "lat": 41.8869505, "lon": 12.5428429, "tags": {"amenity": "ice_cream", "name": "Il principe del gelato 2"}}, {"type": "node", "id": 8998687005, "lat": 42.09078, "lon": 12.2734271, "tags": {"amenity": "ice_cream", "name": "Gelateria Albachiara"}}, {"type": "node", "id": 9038784371, "lat": 41.868473, "lon": 12.5273475, "tags": {"addr:city": "Roma", "addr:housenumber": "71", "addr:postcode": "00179", "addr:street": "Via Mario Menghini", "amenity": "ice_cream", "name": "Le Dolci Tentazioni", "outdoor_seating": "yes"}}, {"type": "node", "id": 9206918194, "lat": 41.7956072, "lon": 12.2488546, "tags": {"amenity": "ice_cream", "name": "Venchi"}}, {"type": "node", "id": 9326638583, "lat": 41.9013362, "lon": 12.4957819, "tags": {"addr:city": "Roma", "addr:housenumber": "130", "addr:postcode": "00184", "addr:street": "Via Torino", "amenity": "ice_cream", "name": "Opera Italiana"}}, {"type": "node", "id": 9385834917, "lat": 41.9031421, "lon": 12.4863392, "tags": {"amenity": "ice_cream", "email": "info@thegelatist.it", "name": "The Gelatist", "website": "http://thegelatist.it"}}, {"type": "node", "id": 9585699998, "lat": 41.7309704, "lon": 12.6586182, "tags": {"addr:housenumber": "19", "addr:street": "Piazza Pia", "amenity": "ice_cream", "name": "Fortini La Gelateria", "opening_hours": "Tu-We 11:00-21:30; Th 09:30-21:30; Fr 11:00-22:00; Sa 11:00-22:30; Su 11:00-22:00"}}, {"type": "node", "id": 9688258184, "lat": 41.9009216, "lon": 12.4829392, "tags": {"amenity": "ice_cream", "name": "Don Nino", "website": "https://www.don-nino.it"}}, {"type": "node", "id": 9738044954, "lat": 41.9008504, "lon": 12.4829976, "tags": {"amenity": "ice_cream"}}, {"type": "node", "id": 9738049433, "lat": 41.9007783, "lon": 12.4830318, "tags": {"amenity": "ice_cream", "name": "Caff\u00e8 Roma Gelateria"}}, {"type": "node", "id": 9772371889, "lat": 41.8889767, "lon": 12.497769, "tags": {"addr:city": "Roma", "addr:housenumber": "120", "addr:postcode": "00184", "addr:street": "Via di San Giovanni in Laterano", "amenity": "ice_cream", "name": "Very Buono", "outdoor_seating": "yes"}}, {"type": "node", "id": 9781001485, "lat": 41.7301153, "lon": 12.2792043, "tags": {"amenity": "ice_cream", "name": "Time Out"}}, {"type": "node", "id": 9805301403, "lat": 41.8897687, "lon": 12.4703464, "tags": {"amenity": "ice_cream", "name": "Gelateria"}}, {"type": "node", "id": 9805408539, "lat": 41.8880984, "lon": 12.4704777, "tags": {"addr:housenumber": "14", "addr:street": "Via di San Cosimato", "amenity": "ice_cream", "name": "Gelateria"}}, {"type": "node", "id": 9821117279, "lat": 41.9005195, "lon": 12.476624, "tags": {"amenity": "ice_cream"}}, {"type": "node", "id": 9835480166, "lat": 41.7338251, "lon": 12.2721787, "tags": {"amenity": "ice_cream", "name": "L'angoletto"}}, {"type": "node", "id": 9866161394, "lat": 41.8912445, "lon": 12.5599937, "tags": {"addr:housenumber": "295", "addr:street": "Via Tor de' Schaivi", "amenity": "ice_cream", "name": "Gelato d'Essai", "opening_hours": "Mo-Fr 12:00-00:00; Sa, Su 10:00-00:00", "phone": "+390689232228", "website": "gelattodessai.it"}}, {"type": "node", "id": 9866174415, "lat": 41.8915051, "lon": 12.469721, "tags": {"addr:housenumber": "7", "addr:street": "Via Benedetta", "amenity": "ice_cream", "name": "Bar Latteria"}}, {"type": "node", "id": 9868117811, "lat": 41.9006039, "lon": 12.4801409, "tags": {"addr:housenumber": "356", "amenity": "ice_cream"}}, {"type": "node", "id": 9949808418, "lat": 41.9032257, "lon": 12.4833388, "tags": {"amenity": "ice_cream", "name": "Gelateria La Paloma", "name:en": "Ice cream shop La Paloma"}}, {"type": "node", "id": 9980050053, "lat": 41.8700612, "lon": 12.4678852, "tags": {"addr:housenumber": "5", "addr:postcode": "00146", "addr:street": "Piazza della Radio", "amenity": "ice_cream", "operator": "Ping Pong Gestioni Srl.", "ref:vatin": "IT06324511002"}}, {"type": "node", "id": 9981907085, "lat": 41.8984472, "lon": 12.4753689, "tags": {"addr:housenumber": "47", "addr:postcode": "00186", "addr:street": "Piazza di Sant'Eustachio", "amenity": "ice_cream", "name": "G\u00fcnther Gelato", "operator": "Eustachio Tre Srl.", "ref:vatin": "IT10465281003"}}, {"type": "node", "id": 10033873752, "lat": 41.8524017, "lon": 12.5616431, "tags": {"addr:housenumber": "59", "addr:street": "Via Caio Canuleio", "amenity": "ice_cream", "name": "Gelateria Consoli"}}, {"type": "node", "id": 10034545953, "lat": 41.9391281, "lon": 12.5284825, "tags": {"addr:city": "Roma", "addr:housenumber": "31", "addr:postcode": "00141", "addr:street": "Via Martana", "amenity": "ice_cream", "name": "Crem Caramel"}}, {"type": "node", "id": 10074639993, "lat": 41.8954714, "lon": 12.4727221, "tags": {"addr:housenumber": "51", "addr:street": "Campo de' Fiori", "amenity": "ice_cream", "contact:housenumber": "51", "contact:street": "Campo de' Fiori", "name": "Marav\u00e8"}}, {"type": "node", "id": 10123976591, "lat": 41.854051, "lon": 12.4735617, "tags": {"addr:housenumber": "45", "addr:street": "Via Efeso", "amenity": "ice_cream", "name": "Mister Ice", "operator": "Federico Sinibaldi", "outdoor_seating": "no", "ref:vatin": "IT08528021002", "takeaway": "only"}}, {"type": "node", "id": 10124863517, "lat": 41.8546448, "lon": 12.5666013, "tags": {"addr:housenumber": "989", "addr:postcode": "00175", "addr:street": "Via Tuscolana", "amenity": "ice_cream", "contact:facebook": "profile.php", "contact:instagram": "thegelatist_tuscolana", "email": "gelatist.desca@gmail.com", "name": "The Gelatist", "opening_hours": "Mo-Su 11:00-01:00", "phone": "+390671072735", "website": "http://www.thegelatist.it"}}, {"type": "node", "id": 10263111796, "lat": 41.8947583, "lon": 12.4908888, "tags": {"amenity": "ice_cream", "level": "0", "name": "Don Nino", "opening_hours": "08:30-12:30,15:30-20:00", "shop": "pastry", "wheelchair": "no"}}, {"type": "node", "id": 10291926934, "lat": 41.8985816, "lon": 12.5354953, "tags": {"addr:city": "Roma", "addr:housenumber": "10", "addr:postcode": "00159", "addr:street": "Via Cesare Ricotti", "amenity": "ice_cream", "name": "Gelando", "phone": "+393400577863"}}, {"type": "node", "id": 10556730613, "lat": 41.9181234, "lon": 12.3767056, "tags": {"addr:city": "Roma", "addr:housenumber": "40", "addr:postcode": "00166", "addr:street": "Via di Casalotti", "amenity": "ice_cream", "name": "Pasticceria Il Giglio", "opening_hours": "Mo-Sa 06:00-21:30", "phone": "+39661564223"}}, {"type": "node", "id": 10563509413, "lat": 41.8079018, "lon": 12.4857694}, {"type": "node", "id": 10563509414, "lat": 41.8078922, "lon": 12.4857636}, {"type": "node", "id": 10563509415, "lat": 41.8078733, "lon": 12.4857731}, {"type": "node", "id": 10563509416, "lat": 41.80787, "lon": 12.4857999}, {"type": "node", "id": 10563509417, "lat": 41.8078856, "lon": 12.4858171}, {"type": "node", "id": 10563509418, "lat": 41.807896, "lon": 12.4858157}, {"type": "node", "id": 10563509419, "lat": 41.8079089, "lon": 12.4857948}, {"type": "node", "id": 10568616883, "lat": 41.8078818, "lon": 12.4857649}, {"type": "node", "id": 10568616884, "lat": 41.807869, "lon": 12.4857859}, {"type": "node", "id": 10568616885, "lat": 41.8078761, "lon": 12.4858113}, {"type": "node", "id": 10568616886, "lat": 41.8079045, "lon": 12.4858076}, {"type": "node", "id": 10568616887, "lat": 41.8079079, "lon": 12.4857808}, {"type": "node", "id": 10573693109, "lat": 41.9120578, "lon": 12.497999, "tags": {"addr:housenumber": "40", "addr:postcode": "00198", "addr:street": "Via Salaria", "amenity": "ice_cream", "name": "Il mio gelato", "opening_hours": "Mo-Sa 06:00-19:30", "phone": "+39 06 854 9722"}}, {"type": "node", "id": 10660847609, "lat": 41.8790158, "lon": 12.4622176, "tags": {"addr:city": "Roma", "addr:housenumber": "36b", "addr:postcode": "00152", "addr:street": "Via Felice Cavallotti", "amenity": "ice_cream", "opening_hours": "We-Th 10:00-22:00; Fr-Sa 10:00-23:00; Su 10:00-22:00; Mo-Tu off", "phone": "+39 06 96039081", "website": "https://lagourmandise.it/"}}, {"type": "node", "id": 10705065705, "lat": 41.9013099, "lon": 12.493906, "tags": {"addr:housenumber": "239", "addr:postcode": "00184", "addr:street": "Via Nazionale", "amenity": "ice_cream", "name": "Verde Pistacchio", "opening_hours": "Su-Fr 12:00-20:30; Sa 12:00-22:00", "phone": "+393357449991", "website": "http://www.verdepistacchiolab.it"}}, {"type": "node", "id": 10727860768, "lat": 41.8814286, "lon": 12.4857935, "tags": {"addr:city": "Roma", "addr:housenumber": "59", "addr:postcode": "00153", "addr:street": "Viale Aventino", "alt_name": "Torc\u00e8", "amenity": "ice_cream", "name": "Claudio Torce", "outdoor_seating": "limited", "shop": "ice_cream"}}, {"type": "node", "id": 10790117088, "lat": 41.907882, "lon": 12.4624392, "tags": {"amenity": "ice_cream", "name": "Guttilla", "opening_hours": "Su-Fr 11:00-24:00, Sa 11:00-01:00", "wheelchair": "limited"}}, {"type": "node", "id": 10857810805, "lat": 41.8072338, "lon": 12.2970375, "tags": {"amenity": "ice_cream", "name": "Bonetti"}}, {"type": "way", "id": 121284689, "nodes": [1358198689, 1358198685, 1358198686, 1358198687, 1358198689], "tags": {"amenity": "ice_cream", "building": "kiosk", "ice_cream:type": "grattachecca", "name": "Grattacheccaro", "wikidata": "Q3775863", "wikipedia": "it:Grattachecca"}}, {"type": "way", "id": 121357401, "nodes": [1359083460, 1359083463, 1359083458, 1359083455, 1359083460], "tags": {"amenity": "ice_cream", "building": "kiosk", "diet:vegan": "yes", "ice_cream:type": "grattachecca", "name": "Grattacheccaro \"Alla Fonte d'Oro\"", "opening_hours": "10:00-02:00", "wheelchair": "yes", "wikidata": "Q3775863", "wikipedia": "it:Grattachecca"}}, {"type": "way", "id": 121520789, "nodes": [1360191356, 1360191366, 1360191368, 1360191360, 1360191356], "tags": {"amenity": "ice_cream", "building": "kiosk", "check_date:opening_hours": "2023-04-07", "ice_cream:type": "grattachecca", "name": "Grattacheccaro \"Sora Maria\"", "opening_hours:signed": "no", "operator": "Gabriella Sciarrone SNC", "wheelchair": "yes", "wikidata": "Q3775863", "wikipedia": "it:Grattachecca"}}, {"type": "way", "id": 121520790, "nodes": [1360191328, 1360191331, 1360191362, 1360191367, 1360191328], "tags": {"amenity": "ice_cream", "building": "kiosk", "ice_cream:type": "grattachecca", "name": "Grattacheccaro \"Sora Mirella\"", "opening_hours": "09:30-03:00"}}, {"type": "way", "id": 121520795, "nodes": [1360191341, 1360191346, 1360191319, 1360191335, 1360191341], "tags": {"amenity": "ice_cream", "building": "kiosk", "ice_cream:type": "grattachecca", "name": "Grattacheccaro \"Sora Lella\"", "opening_hours": "10:30-02:00", "operator": "Moscaroli Maria"}}, {"type": "way", "id": 321995529, "nodes": [3287626006, 3287625970, 3287625986, 3287626016, 3287626006], "tags": {"amenity": "ice_cream", "building": "commercial", "cuisine": "italian", "name": "Bonetti", "ref": "157", "wheelchair": "yes"}}, {"type": "way", "id": 448800842, "nodes": [4457771651, 6274885370, 4457771649, 6274885364, 4760464374, 4457771647, 4760464388, 6274885527, 6274885215, 4457771648, 4457771651], "tags": {"amenity": "ice_cream", "building": "yes", "name": "Casa del Gelato", "opening_hours": "PH,Mo-Su 10:00-20:00", "operator": "Algida", "takeaway": "yes", "wheelchair": "yes"}}, {"type": "way", "id": 537507308, "nodes": [5204885470, 5204885471, 5204885472, 1436614746, 5204885470], "tags": {"amenity": "ice_cream", "building": "yes", "wheelchair": "limited"}}, {"type": "way", "id": 584378823, "nodes": [5586080406, 5586080400, 5586080403, 5586080408, 5586080406], "tags": {"addr:city": "Roma", "addr:housenumber": "171/173", "addr:postcode": "00139", "addr:street": "Via di Tor San Giovanni", "amenity": "ice_cream", "building": "yes", "name": "Porfiri"}}, {"type": "way", "id": 672815453, "nodes": [6300640035, 6300640036, 6300640037, 6300640038, 6300640035], "tags": {"amenity": "ice_cream", "building": "yes", "name": "Al vicoletto"}}, {"type": "way", "id": 946894212, "nodes": [8765066486, 8765066487, 8765066488, 3671844092, 8765066486], "tags": {"addr:city": "Roma", "addr:housenumber": "25", "addr:postcode": "00197", "addr:street": "Piazza Euclide", "amenity": "ice_cream", "building": "yes", "diet:lactose_free": "yes", "name": "Gelateria Torc\u00e8", "opening_hours": "Mo-Su 12:00-21:00", "opening_hours:covid19": "same", "outdoor_seating": "no", "takeaway": "yes"}}, {"type": "way", "id": 1132982060, "nodes": [10563509419, 10568616886, 10563509418, 10563509417, 10568616885, 10563509416, 10568616884, 10563509415, 10568616883, 10563509414, 10563509413, 10568616887, 10563509419], "tags": {"amenity": "ice_cream", "indoor": "room", "level": "1", "name": "YoYoghurt"}}]}