{"version": 0.6, "generator": "Overpass API 0.7.60 f4c14d41", "osm3s": {"timestamp_osm_base": "2023-05-02T21:18:20Z", "copyright": "The data included in this document is from www.openstreetmap.org. The data is made available under ODbL."}, "elements": [{"type": "node", "id": 1022477187, "lat": 22.287607, "lon": 114.1575991, "tags": {"addr:street": "Pier 3", "amenity": "bar", "brewery": "yes;various", "name": "The Beer Bay", "outdoor_seating": "no", "wheelchair": "yes"}}, {"type": "node", "id": 1298704786, "lat": 22.2808, "lon": 114.1547, "tags": {"addr:unit": "3", "amenity": "bar", "email": "wagyu@casteloconcepts.com", "level": "0", "name": "Wagyu", "phone": "+852 25258805", "ref:openrice": "17428", "website": "http://casteloconcepts.com/our-venues/wagyu"}}, {"type": "node", "id": 1571059914, "lat": 22.2818593, "lon": 114.153032, "tags": {"addr:housenumber": "9", "addr:street": "\u58eb\u4e39\u9813\u8857 Staunton Street", "amenity": "bar", "name": "Bar Bleu"}}, {"type": "node", "id": 2247808912, "lat": 22.2783005, "lon": 114.1710495, "tags": {"addr:housenumber": "57-73", "addr:street": "Lockhart Road", "amenity": "bar", "name": "The Canny Man", "source": "(852)28611935", "website": "http://www.thecannyman.com/"}}, {"type": "node", "id": 2247811359, "lat": 22.2857231, "lon": 114.1589623, "tags": {"addr:housename": "Podium Level 3", "addr:housenumber": "8", "addr:street": "Finance St.", "amenity": "bar", "name": "Red Bar", "source": "852-81298882", "website": "http://www.pure-red.com/en/hongkong/"}}, {"type": "node", "id": 2247820098, "lat": 22.278666, "lon": 114.1701437, "tags": {"addr:housenumber": "54", "addr:street": "Jaffe Road", "amenity": "bar", "name": "The Wanch", "opening_hours": "Mo-Su,PH 16:00-03:00+", "source": "(852)28611621", "website": "https://www.reverbnation.com/venue/thewanch"}}, {"type": "node", "id": 2247834709, "lat": 22.2797029, "lon": 114.1552367, "tags": {"addr:housename": "G/F", "addr:housenumber": "2", "addr:street": "Glenealy", "amenity": "bar", "name": "Hush", "source": "852-25372281"}}, {"type": "node", "id": 2247841484, "lat": 22.2860562, "lon": 114.2159126, "tags": {"addr:housenumber": "29", "addr:street": "Taikoo Shing Rd", "amenity": "bar", "name": "Sugar Bar + Deck + Lodge", "source": "852-39683738", "website": "http://www.sugar-hongkong.com/en/Pages/index.aspx", "wheelchair": "yes"}}, {"type": "node", "id": 2247849935, "lat": 22.278055, "lon": 114.1708616, "tags": {"addr:floor": "5/F", "addr:housenumber": "54-62", "addr:street": "Lockhart Road", "amenity": "bar", "name": "Trafalgar Bar", "source": "(852)21101535", "website": "https://trafalgar.com.hk/"}}, {"type": "node", "id": 3681652842, "lat": 22.28504, "lon": 114.151901, "tags": {"addr:housenumber": "33", "addr:street": "Jervois Street", "amenity": "bar", "name": "Zoo Bar", "phone": "+852 35831200"}}, {"type": "node", "id": 3681652844, "lat": 22.28465, "lon": 114.15063, "tags": {"addr:housenumber": "284", "addr:street": "Queen's Road Central", "amenity": "bar", "name": "Morrison Cafe & Bar", "phone": "+852 28510890", "ref:openrice": "492065"}}, {"type": "node", "id": 3681652845, "lat": 22.2823996, "lon": 114.1526337, "tags": {"amenity": "bar", "name": "Le Tambour"}}, {"type": "node", "id": 3729526135, "lat": 22.2814979, "lon": 114.1549665, "tags": {"amenity": "bar", "name": "Pastis"}}, {"type": "node", "id": 3781017541, "lat": 22.2783206, "lon": 114.1707867, "tags": {"addr:city": "Wan Chai", "addr:housenumber": "53-55", "addr:street": "\u99f1\u514b\u9053 Lockhart Road", "amenity": "bar", "name": "Carnegie's", "opening_hours": "Mo-Fr 11:00+; Sa 12:00+; Su 16:00+", "operator": "Carnegie's International", "phone": "+852 2866 6289", "smoking": "no", "website": "www.carnegies.net"}}, {"type": "node", "id": 4147897708, "lat": 22.2823435, "lon": 114.1522927, "tags": {"addr:city": "Hong Kong", "addr:housenumber": "9-11", "addr:street": "\u58eb\u4e39\u9813\u8857 Staunton Street", "amenity": "bar", "name": "Bar Feather Boa", "smoking": "outside"}}, {"type": "node", "id": 4148659707, "lat": 22.2824162, "lon": 114.152315, "tags": {"addr:city": "Hong Kong", "addr:housenumber": "49", "addr:street": "\u58eb\u4e39\u9813\u8857 Staunton Street", "amenity": "bar", "name": "Bar Medusa"}}, {"type": "node", "id": 4149632252, "lat": 22.2805172, "lon": 114.1548335, "tags": {"addr:city": "Central", "addr:housenumber": "The Centrium, 60", "addr:street": "\u96f2\u54b8\u8857 Wyndham Street", "amenity": "bar", "name": "Dragon-i", "website": "dragon-i.com.hk"}}, {"type": "node", "id": 4149638360, "lat": 22.2785974, "lon": 114.1709157, "tags": {"addr:city": "Wan Chai", "addr:housenumber": "76", "addr:street": "\u8b1d\u6590\u9053 Jaffe Road", "amenity": "bar", "name": "Dusk till Dawn"}}, {"type": "node", "id": 4149638361, "lat": 22.2784739, "lon": 114.1715806, "tags": {"addr:city": "Wan Chai", "addr:housenumber": "15-19", "addr:street": "\u76e7\u62bc\u9053 Luard Road", "amenity": "bar", "name": "Bar Amazonia", "website": "https://www.amazonia.hk/"}}, {"type": "node", "id": 4149788318, "lat": 22.2815786, "lon": 114.1549385, "tags": {"addr:city": "Central", "addr:housenumber": "65", "addr:street": "\u96f2\u54b8\u8857 Wyndham Street", "amenity": "bar", "name": "Le Boudoir", "website": "https://www.french-creations.com/boudoir"}}, {"type": "node", "id": 4191452490, "lat": 22.2834908, "lon": 114.1527151, "tags": {"addr:street": "\u6587\u8208\u91cc Man Hing Lane", "amenity": "bar", "internet_access": "wlan", "name": "Club 71", "opening_hours": "Mo-Su 10:00-22:00", "phone": "+85228587071"}}, {"type": "node", "id": 4202050336, "lat": 22.2840397, "lon": 114.1506106, "tags": {"amenity": "bar", "description": "Japanese Cocktail Bar", "name": "3 Monkeys"}}, {"type": "node", "id": 4202053311, "lat": 22.2823427, "lon": 114.1522788, "tags": {"amenity": "bar", "description": "Hidden Bar", "name": "Feather Boa"}}, {"type": "node", "id": 4239105199, "lat": 22.278, "lon": 114.172438, "tags": {"addr:housenumber": "114-120", "addr:street": "\u99f1\u514b\u9053 Lockhart Road", "amenity": "bar", "cuisine": "mexican", "name": "Coyote", "source": "Kaart Ground Survey 2017"}}, {"type": "node", "id": 4402952290, "lat": 22.2780004, "lon": 114.1721999, "tags": {"addr:housenumber": "104", "addr:street": "Lockhart Road", "amenity": "bar", "internet_access": "wlan", "name": "Churchill's", "name:de": "Churchill's", "phone": "21777002", "source": "Kaart Ground Survey 2017"}}, {"type": "node", "id": 4403654990, "lat": 22.2849263, "lon": 114.1516349, "tags": {"addr:housenumber": "62 G/F", "addr:street": "\u8607\u676d\u8857 Jervois Street", "amenity": "bar", "internet_access": "wlan", "name:en": "FLM", "opening_hours": "Mo-Su 19:00-03:00", "phone": "28577683"}}, {"type": "node", "id": 4448498690, "lat": 22.2812748, "lon": 114.1548993, "tags": {"amenity": "bar", "internet_access": "wlan", "name:en": "SO17"}}, {"type": "node", "id": 4458994892, "lat": 22.2820112, "lon": 114.1839336, "tags": {"addr:housenumber": "280", "addr:street": "\u544a\u58eb\u6253\u9053 Gloucester Road", "amenity": "bar", "internet_access": "wlan", "name:en": "Hooray", "opening_hours": "Mo-Su 12:00-23:00", "phone": "+852 2895 0885", "website": "https://www.jcgroup.hk/restaurants/hooray/"}}, {"type": "node", "id": 4469985089, "lat": 22.2821412, "lon": 114.1527176, "tags": {"addr:housenumber": "27", "addr:street": "\u58eb\u4e39\u9813\u8857 Staunton Street", "amenity": "bar", "internet_access": "wlan", "name:en": "Club 1911"}}, {"type": "node", "id": 4500834998, "lat": 22.280866, "lon": 114.155302, "tags": {"addr:housenumber": "38", "addr:street": "\u5fb7\u5df1\u7acb\u8857 D'Aguilar Street", "amenity": "bar", "level": "0", "name": "Insomnia", "ref:openrice": "6068"}}, {"type": "node", "id": 4539399890, "lat": 22.2754505, "lon": 114.1692756, "tags": {"addr:street": "17A Moon St, Wan Chai, Hong Kong", "amenity": "bar", "name:en": "Ted's Look Out", "opening_hours": "24/7"}}, {"type": "node", "id": 4682221101, "lat": 22.2835166, "lon": 114.15257, "tags": {"addr:housenumber": "35", "addr:street": "\u9d28\u5df4\u7538\u8857 Aberdeen Street", "amenity": "bar", "name:en": "Aberdeen Street Social"}}, {"type": "node", "id": 4682221105, "lat": 22.2771782, "lon": 114.1645276, "tags": {"addr:street": "\u67cf\u6689\u5f91 Pacific Place Drive", "amenity": "bar", "name:en": "Lobster Bar & Grill"}}, {"type": "node", "id": 4682262193, "lat": 22.28182, "lon": 114.15534, "tags": {"addr:country": "HK", "addr:housenumber": "52", "addr:street": "\u5a01\u9748\u9813\u8857 Wellington Street", "amenity": "bar", "email": "info@honihonibar.com", "level": "3", "name": "Honi Honi", "opening_hours": "Mo 16:00-01:00; Tu-Sa 16:00-02:00; Su 16:00-24:00", "phone": "+852 23530885", "website": "http://www.honihonibar.com"}}, {"type": "node", "id": 4682290490, "lat": 22.2862824, "lon": 114.1397346, "tags": {"amenity": "bar", "name:en": "Ping Pong 129"}}, {"type": "node", "id": 4682303191, "lat": 22.2815799, "lon": 114.1535381, "tags": {"addr:country": "HK", "addr:housenumber": "13", "addr:street": "\u5967\u5351\u5229\u8857 Old Bailey Street", "amenity": "bar", "level": "0", "name": "The Pontiac", "phone": "+852 25213855"}}, {"type": "node", "id": 4701371590, "lat": 22.2810596, "lon": 114.1553059, "tags": {"addr:housenumber": "27", "addr:street": "\u5fb7\u5df1\u7acb\u8857 D'Aguilar Street", "amenity": "bar", "name": "Beirut"}}, {"type": "node", "id": 4701371591, "lat": 22.2822245, "lon": 114.1539951, "tags": {"amenity": "bar", "name": "Barkada", "website": "https://barkada.hk"}}, {"type": "node", "id": 4701371592, "lat": 22.28288, "lon": 114.15544, "tags": {"addr:housenumber": "74", "addr:street": "\u7687\u540e\u5927\u9053\u4e2d Queen's Road Central", "amenity": "bar", "email": "info@theenvoy.hk", "level": "3", "name": "The Envoy", "opening_hours": "Su-Th 12:00-01:00; Fr-Sa 12:00-02:00", "phone": "+852 21693311", "ref:openrice": "176648", "website": "https://www.theenvoy.hk/"}}, {"type": "node", "id": 4701371593, "lat": 22.2863804, "lon": 114.140457, "tags": {"addr:housenumber": "129", "addr:street": "\u7b2c\u4e8c\u8857 Second Street", "amenity": "bar", "name:en": "Ping Pong 129"}}, {"type": "node", "id": 4701371594, "lat": 22.2799594, "lon": 114.1554746, "tags": {"addr:housenumber": "32", "addr:street": "\u96f2\u54b8\u8857 Wyndham Street", "amenity": "bar", "name:en": "stockton"}}, {"type": "node", "id": 4701371595, "lat": 22.2800276, "lon": 114.1545838, "tags": {"addr:housenumber": "10", "addr:street": "\u4e9e\u7562\u8afe\u9053 Arbuthnot Road", "amenity": "bar", "name": "Salon Number 10", "name:en": "Salon Number 10"}}, {"type": "node", "id": 4701371596, "lat": 22.28231, "lon": 114.15349, "tags": {"addr:housenumber": "39-43", "addr:street": "\u8377\u674e\u6d3b\u9053 Hollywood Road", "amenity": "bar", "name": "Drop", "opening_hours": "Mo-Sa 21:00-06:00", "ref:openrice": "10522", "website": "https://www.drop.com.hk/"}}, {"type": "node", "id": 4701371597, "lat": 22.2820126, "lon": 114.1585715, "tags": {"addr:housenumber": "8", "addr:street": "\u5e72\u8afe\u9053\u4e2d Connaught Road Central", "amenity": "bar", "name:en": "Armani Privee"}}, {"type": "node", "id": 4701371690, "lat": 22.281994, "lon": 114.15422, "tags": {"addr:housenumber": "1", "addr:street": "\u8377\u674e\u6d3b\u9053 Hollywood Road", "addr:unit": "G6", "amenity": "bar", "level": "0", "name": "OZU Bar", "ref:openrice": "169923"}}, {"type": "node", "id": 4701371989, "lat": 22.282731, "lon": 114.152851, "tags": {"addr:housenumber": "56-58", "addr:street": "\u8377\u674e\u6d3b\u9053 Hollywood Road", "amenity": "bar", "email": "info@quinary.hk", "fax": "+852 28512272", "level": "0", "name": "Quinary", "opening_hours": "Mo-Sa 17:00-01:00; Su off", "phone": "+852 28513223", "ref:openrice": "133437", "website": "https://www.quinary.hk/"}}, {"type": "node", "id": 4701372090, "lat": 22.2836098, "lon": 114.1542685, "tags": {"addr:housenumber": "97", "addr:street": "\u5a01\u9748\u9813\u8857 Wellington Street", "amenity": "bar", "name": "001", "name:en": "001", "phone": "+852 28106969", "ref:openrice": "542374"}}, {"type": "node", "id": 4701372689, "lat": 22.2819575, "lon": 114.1546204, "tags": {"addr:housenumber": "1", "addr:street": "\u8377\u674e\u6d3b\u9053 Hollywood Road", "amenity": "bar", "name:en": "The Iron Fairies"}}, {"type": "node", "id": 4701372790, "lat": 22.2803831, "lon": 114.155059, "tags": {"addr:housenumber": "33", "addr:street": "\u96f2\u54b8\u8857 Wyndham Street", "amenity": "bar", "name:en": "lily & bloom"}}, {"type": "node", "id": 4701372791, "lat": 22.2839107, "lon": 114.152104, "tags": {"addr:housenumber": "10", "addr:street": "Shin Hing St.", "amenity": "bar", "name:en": "NEO cocktail Club"}}, {"type": "node", "id": 4701373689, "lat": 22.2801505, "lon": 114.1550696, "tags": {"addr:housenumber": "48", "addr:street": "\u96f2\u54b8\u8857 Wyndham Street", "amenity": "bar", "name:en": "Ori-gin Bar"}}, {"type": "node", "id": 4701373889, "lat": 22.2810313, "lon": 114.1591599, "tags": {"addr:housenumber": "10", "addr:street": "\u906e\u6253\u9053 Chater Road", "amenity": "bar", "name:en": "Sevva"}}, {"type": "node", "id": 4703574290, "lat": 22.279832, "lon": 114.1571659, "tags": {"addr:housenumber": "6", "addr:street": "\u90fd\u7239\u5229\u8857 Duddell Street", "amenity": "bar", "name:en": "Foxglove"}}, {"type": "node", "id": 4713706093, "lat": 22.2822907, "lon": 114.1543164, "tags": {"addr:street": "\u6566\u548c\u91cc Tun Wo Lane", "amenity": "bar", "name": "Tell Camellia"}}, {"type": "node", "id": 4716946989, "lat": 22.2848668, "lon": 114.1529476, "tags": {"addr:housenumber": "198", "addr:street": "\u5a01\u9748\u9813\u8857 Wellington Street", "amenity": "bar", "name:en": "Vea"}}, {"type": "node", "id": 4778081821, "lat": 22.28273, "lon": 114.152631, "tags": {"addr:housenumber": "49", "addr:street": "\u5351\u5229\u8857 Peel Street", "amenity": "bar", "email": "frescopeel@gmail.com", "level": "0", "name": "Peel Fresco", "opening_hours": "Mo-Su,PH 19:00-02:00", "phone": "+852 25402046", "ref:openrice": "20897", "website": "http://peel-fresco.com"}}, {"type": "node", "id": 4778090434, "lat": 22.27847, "lon": 114.17185, "tags": {"addr:housenumber": "18", "addr:street": "\u76e7\u62bc\u9053 Luard Road", "amenity": "bar", "name": "Taboo", "ref:openrice": "496464"}}, {"type": "node", "id": 4778090643, "lat": 22.2807087, "lon": 114.1556414, "tags": {"addr:housenumber": "8", "addr:street": "\u862d\u6842\u574a Lan Kwai Fong", "amenity": "bar", "name": "Felfela II"}}, {"type": "node", "id": 4780235122, "lat": 22.2806986, "lon": 114.1566464, "tags": {"addr:housenumber": "1", "addr:street": "\u5b89\u6176\u81fa On Hing Terrace", "amenity": "bar", "name": "Studio Jazz Lounge", "name:en": "Studio Jazz Lounge", "website": "https://www.studioclub.asia/"}}, {"type": "node", "id": 4780249821, "lat": 22.2803734, "lon": 114.155059, "tags": {"addr:housenumber": "33", "addr:street": "\u96f2\u54b8\u8857 Wyndham Street", "amenity": "bar", "name:en": "Cassio."}}, {"type": "node", "id": 4780249822, "lat": 22.2802412, "lon": 114.155143, "tags": {"addr:housenumber": "33", "addr:street": "\u96f2\u54b8\u8857 Wyndham Street", "amenity": "bar", "name:en": "Tasmania Ballroom", "opening_hours": "Mo-Su 17:00-02:00", "website": "http://www.tazmaniaballroom.com/main.html"}}, {"type": "node", "id": 4844460141, "lat": 22.2617831, "lon": 114.2356762, "tags": {"addr:street": "\u74b0\u7fe0\u9053 Wan Tsui Road", "amenity": "bar", "name": "Bar Pacific", "source": "Kaart Ground Survey 2017"}}, {"type": "node", "id": 4848291631, "lat": 22.2781744, "lon": 114.2263061, "tags": {"addr:street": "\u5357\u5eb7\u8857 Nam Hong Street", "amenity": "bar", "name": "Bar Pacific", "source": "Kaart Ground Survey 2017"}}, {"type": "node", "id": 4848291665, "lat": 22.2793078, "lon": 114.2248599, "tags": {"amenity": "bar", "name": "Focus Bar", "source": "Kaart Ground Survey 2017"}}, {"type": "node", "id": 4850169218, "lat": 22.2805436, "lon": 114.1802702, "tags": {"addr:street": "\u544a\u58eb\u6253\u9053 Gloucester Road", "amenity": "bar", "name": "Ember"}}, {"type": "node", "id": 4850219763, "lat": 22.2485858, "lon": 114.1521554, "tags": {"addr:street": "\u9999\u6e2f\u4ed4\u5927\u9053 Aberdeen Main Road", "amenity": "bar", "name": "Bar Pacific", "source": "Kaart Ground Survey 2017"}}, {"type": "node", "id": 4858417127, "lat": 22.2779717, "lon": 114.1718823, "tags": {"addr:street": "\u99f1\u514b\u9053 Lockhart Road", "amenity": "bar", "name": "Chili Club", "source": "Kaart Ground Survey 2017"}}, {"type": "node", "id": 4858417128, "lat": 22.2779339, "lon": 114.1719432, "tags": {"addr:street": "\u99f1\u514b\u9053 Lockhart Road", "amenity": "bar", "name": "Pub-Pine Bar", "source": "Kaart Ground Survey 2017"}}, {"type": "node", "id": 4858417129, "lat": 22.2779928, "lon": 114.1721538, "tags": {"addr:street": "\u99f1\u514b\u9053 Lockhart Road", "amenity": "bar", "name": "Hawaii Club", "source": "Kaart Ground Survey 2017"}}, {"type": "node", "id": 4858455473, "lat": 22.2782116, "lon": 114.1719801, "tags": {"addr:street": "\u99f1\u514b\u9053 Lockhart Road", "amenity": "bar", "name": "Players", "source": "Kaart Ground Survey 2017"}}, {"type": "node", "id": 4860716985, "lat": 22.2677915, "lon": 114.1867938, "tags": {"addr:street": "\u6210\u548c\u9053 Sing Woo Road", "amenity": "bar", "name": "Sing Woo Road Bar & Grill", "outdoor_seating": "no", "source": "Kaart Ground Survey 2017"}}, {"type": "node", "id": 4860721610, "lat": 22.2687063, "lon": 114.1861671, "tags": {"addr:street": "\u6210\u548c\u9053 Sing Woo Road", "amenity": "bar", "name": "Wine Etc...", "source": "Kaart Ground Survey 2017"}}, {"type": "node", "id": 4860729544, "lat": 22.292625, "lon": 114.20221, "tags": {"addr:street": "\u6e23\u83ef\u9053 Java Road", "amenity": "bar", "name": "Bar Pacific"}}, {"type": "node", "id": 4862651553, "lat": 22.2814585, "lon": 114.1269882, "tags": {"addr:street": "\u7239\u6838\u58eb\u8857 Davis Street", "amenity": "bar", "name": "42 Davis", "source": "Kaart Ground Survey 2017"}}, {"type": "node", "id": 4870169137, "lat": 22.2868642, "lon": 114.1358518, "tags": {"addr:street": "\u5fb7\u8f14\u9053\u897f Des Voeux Road West", "amenity": "bar", "name": "Meeting Point Restaurant & Bar", "source": "Kaart Ground Survey 2017"}}, {"type": "node", "id": 4951965822, "lat": 22.276207, "lon": 114.1678879, "tags": {"addr:street": "\u661f\u8857 Star Street", "amenity": "bar", "name:en": "Spa L'Occitane"}}, {"type": "node", "id": 5041034837, "lat": 22.2741297, "lon": 114.1739595, "tags": {"addr:housenumber": "69", "addr:street": "\u77f3\u6c34\u6e20\u8857 Stone Nullah Lane", "amenity": "bar", "name": "Stone Nullah Tavern", "website": "http://www.stonenullahtavern.com/en/hongkong/contact/"}}, {"type": "node", "id": 5151248821, "lat": 22.282913, "lon": 114.152753, "tags": {"addr:housenumber": "62", "addr:street": "\u8377\u674e\u6d3b\u9053 Hollywood Road", "amenity": "bar", "level": "0", "name": "La Cabane Wine Bistro", "phone": "+852 27766070", "ref:openrice": "118684", "website": "https://lacabane.hk/"}}, {"type": "node", "id": 5151255625, "lat": 22.2830943, "lon": 114.1529709, "tags": {"amenity": "bar", "name:en": "Time bar"}}, {"type": "node", "id": 5151255626, "lat": 22.2831709, "lon": 114.1529272, "tags": {"amenity": "bar", "name:en": "Club 71"}}, {"type": "node", "id": 5151255627, "lat": 22.282265, "lon": 114.15475, "tags": {"addr:housenumber": "35", "addr:street": "\u7835\u5178\u4e4d\u8857 Pottinger Street", "amenity": "bar", "level": "0", "name": "LINQ", "ref:openrice": "16671"}}, {"type": "node", "id": 5154981124, "lat": 22.273709, "lon": 114.1741813, "tags": {"addr:housenumber": "5-9", "addr:street": "\u6176\u96f2\u8857 Hing Wan Street", "amenity": "bar", "name": "Tai Lung Fung", "phone": "+852 2572 0055", "wheelchair": "yes"}}, {"type": "node", "id": 5178217729, "lat": 22.2812212, "lon": 114.1550041, "tags": {"amenity": "bar", "name:en": "Pettitcoat Lane"}}, {"type": "node", "id": 5299058321, "lat": 22.2809511, "lon": 114.1555086, "tags": {"addr:housenumber": "30-32", "addr:street": "\u5fb7\u5df1\u7acb\u8857 D'Aguilar Street", "amenity": "bar", "name": "Baci"}}, {"type": "node", "id": 5311766324, "lat": 22.2810912, "lon": 114.1553522, "tags": {"addr:street": "\u5fb7\u5df1\u7acb\u8857 D'Aguilar Street", "amenity": "bar", "name": "Corner Bar"}}, {"type": "node", "id": 5430822322, "lat": 22.2827488, "lon": 114.1531015, "tags": {"addr:housenumber": "49-51", "addr:street": "\u8377\u674e\u6d3b\u9053 Hollywood Road", "amenity": "bar", "email": "info@topiaryhk.com", "fax": "+852 28666484", "name": "Topiary", "opening_hours": "Mo-Fr 18:00-02:00; Sa,PH 17:00-02:00; Su off", "phone": "+852 28666485", "website": "http://www.topiaryhk.com"}}, {"type": "node", "id": 5435416825, "lat": 22.2801312, "lon": 114.1556024, "tags": {"amenity": "bar", "name:en": "Fringe Club"}}, {"type": "node", "id": 5492224321, "lat": 22.284051, "lon": 114.192177, "tags": {"addr:housenumber": "27", "addr:street": "\u9280\u5e55\u8857 Ngan Mok Street", "addr:unit": "B", "amenity": "bar", "level": "0", "name": "Drunkerland", "phone": "+852 37021841", "ref:openrice": "497695"}}, {"type": "node", "id": 5519630242, "lat": 22.28079, "lon": 114.1552, "tags": {"addr:housenumber": "44", "addr:street": "\u5fb7\u5df1\u7acb\u8857 D'Aguilar Street", "amenity": "bar", "email": "lkf@thechinabar.com.hk", "level": "0", "name": "The China Bar", "opening_hours": "Mo-Su,PH 16:00-06:30", "phone": "+852 25265992", "ref:openrice": "54327", "website": "http://lkf.thechinabar.com.hk"}}, {"type": "node", "id": 5531078630, "lat": 22.2824338, "lon": 114.1522344, "tags": {"addr:housenumber": "40", "addr:street": "\u58eb\u4e39\u9813\u8857 Staunton Street", "amenity": "bar", "email": "Info@Bocadito.co", "internet_access": "wlan", "name:de": "Bocadito", "name:en": "Bocadito", "phone": "25492878", "website": "http://www.bocadito.co"}}, {"type": "node", "id": 5536151378, "lat": 22.2760343, "lon": 114.1724546, "tags": {"addr:housenumber": "39A/41A, 1Floor", "addr:street": "\u5229\u6771\u8857 Lee Tung Avenue", "amenity": "bar", "email": "info@ophelia.com.hk", "internet_access": "wlan", "name:de": "Ophelia", "name:en": "Ophelia", "phone": "25201117", "website": "http://www.ophelia.com.hk"}}, {"type": "node", "id": 5662314021, "lat": 22.2818562, "lon": 114.1528616, "tags": {"addr:street": "\u58eb\u4e39\u9813\u8857 Staunton Street", "amenity": "bar", "name:en": "Last Sip"}}, {"type": "node", "id": 5662314121, "lat": 22.2823, "lon": 114.15478, "tags": {"addr:housenumber": "33", "addr:street": "\u7835\u5178\u4e4d\u8857 Pottinger Street", "amenity": "bar", "level": "0", "name": "Flirty Thirty"}}, {"type": "node", "id": 5712429526, "lat": 22.2816528, "lon": 114.1575215, "tags": {"addr:housenumber": "15", "addr:street": "\u7687\u540e\u5927\u9053\u4e2d Queen's Road Central", "amenity": "bar", "name:en": "Dr Fern\u2019s Gin Parlour"}}, {"type": "node", "id": 5712459821, "lat": 22.282778, "lon": 114.1517135, "tags": {"amenity": "bar", "name:en": "The Old Man"}}, {"type": "node", "id": 5778196553, "lat": 22.2185338, "lon": 114.211203, "tags": {"amenity": "bar", "name:en": "Smugglers Inn"}}, {"type": "node", "id": 5778196953, "lat": 22.2810128, "lon": 114.1552377, "tags": {"addr:street": "\u5fb7\u5df1\u7acb\u8857 D'Aguilar Street", "amenity": "bar", "name": "Mine"}}, {"type": "node", "id": 5921782886, "lat": 22.2846763, "lon": 114.1482653, "tags": {"amenity": "bar", "name:en": "Craftissimo"}}, {"type": "node", "id": 5921782887, "lat": 22.281883, "lon": 114.1546648, "tags": {"amenity": "bar", "name:en": "Tipping Point"}}, {"type": "node", "id": 5933482433, "lat": 22.2858822, "lon": 114.2242441, "tags": {"addr:street": "\u592a\u5eb7\u8857 Tai Hong Street", "amenity": "bar", "name": "The Blind Pig"}}, {"type": "node", "id": 5939048498, "lat": 22.2824245, "lon": 114.1521856, "tags": {"addr:housenumber": "38", "addr:street": "\u58eb\u4e39\u9813\u8857 Staunton Street", "amenity": "bar", "name:en": "Feather Boa Speakeasy", "phone": "28572586"}}, {"type": "node", "id": 6110805386, "lat": 22.2803277, "lon": 114.1554657, "tags": {"addr:housenumber": "58-62", "addr:street": "\u5fb7\u5df1\u7acb\u8857 D'Aguilar Street", "amenity": "bar", "email": "info@rulabula.com.hk", "internet_access": "wlan", "name:en": "R\u00falaBula", "website": "http://www.rulabula.com.hk"}}, {"type": "node", "id": 6159587550, "lat": 22.2480522, "lon": 114.1756194, "tags": {"amenity": "bar", "level": "1", "name": "Pier\u9152\u5eca Pier Lounge", "name:en": "Pier Lounge", "name:zh": "Pier\u9152\u5eca", "smoking": "no"}}, {"type": "node", "id": 6205676554, "lat": 22.2811, "lon": 114.15424, "tags": {"amenity": "bar", "name": "Dragonfly", "opening_hours": "Mo-Su,PH 17:00-02:00", "phone": "+852 27772633", "website": "https://www.diningconcepts.com/restaurants/Dragonfly"}}, {"type": "node", "id": 6205676555, "lat": 22.28164, "lon": 114.15382, "tags": {"amenity": "bar", "level": "0", "name": "Armoury Terrace"}}, {"type": "node", "id": 6318080537, "lat": 22.2864775, "lon": 114.2236135, "tags": {"amenity": "bar", "name": "Social"}}, {"type": "node", "id": 6344755687, "lat": 22.2810374, "lon": 114.1552725, "tags": {"addr:housenumber": "29", "addr:street": "\u5fb7\u5df1\u7acb\u8857 D'Aguilar Street", "amenity": "bar", "name": "Carat"}}, {"type": "node", "id": 6512256596, "lat": 22.2817784, "lon": 114.151832, "tags": {"addr:housenumber": "62", "addr:street": "\u5351\u5229\u8857 Peel Street", "amenity": "bar", "name:en": "The Roundhouse BBQ & Beer"}}, {"type": "node", "id": 6581021385, "lat": 22.2351857, "lon": 114.1977384, "tags": {"amenity": "bar", "name:en": "Cabana at the Pulse"}}, {"type": "node", "id": 6612795685, "lat": 22.2817404, "lon": 114.1525272, "tags": {"amenity": "bar", "name:en": "Publaco"}}, {"type": "node", "id": 6725669282, "lat": 22.2791493, "lon": 114.1776354, "tags": {"amenity": "bar", "name": "Loyal Bar", "name:en": "Loyal Bar", "name:zh": "\u4f86\u4f6cBar"}}, {"type": "node", "id": 6728746253, "lat": 22.2786512, "lon": 114.1720053, "tags": {"amenity": "bar", "name": "The Station"}}, {"type": "node", "id": 6728746259, "lat": 22.2780084, "lon": 114.1725158, "tags": {"amenity": "bar", "name": "El Cerdo"}}, {"type": "node", "id": 6751233918, "lat": 22.2820874, "lon": 114.1539704, "tags": {"addr:housenumber": "23", "addr:street": "Hollywood Road", "addr:unit": "2/F", "amenity": "bar", "email": "enquiry@thethirtysix.hk", "name": "The ThirtySix", "opening_hours": "Mo-Th 17:00-01:00, Fr-Sa 17:00-02:00", "phone": "+852 2336 1411", "website": "http://www.thethirtysix.hk/"}}, {"type": "node", "id": 6773403307, "lat": 22.2783761, "lon": 114.1702359, "tags": {"amenity": "bar", "name": "Typhoon"}}, {"type": "node", "id": 6794764503, "lat": 22.2755876, "lon": 114.1718502, "tags": {"addr:street": "\u5ec8\u9580\u8857 Amoy Street", "amenity": "bar", "name": "Thaiwan"}}, {"type": "node", "id": 6820139269, "lat": 22.285923, "lon": 114.1525165, "tags": {"amenity": "bar", "name": "Nirvana"}}, {"type": "node", "id": 6934307013, "lat": 22.2833369, "lon": 114.1523173, "tags": {"amenity": "bar", "name:en": "peel fresco"}}, {"type": "node", "id": 6943369285, "lat": 22.2859281, "lon": 114.1515671, "tags": {"amenity": "bar", "name:en": "WINK"}}, {"type": "node", "id": 7291554280, "lat": 22.2855372, "lon": 114.1539173, "tags": {"addr:housenumber": "33", "addr:street": "\u6c38\u548c\u8857 Wing Wo Street", "amenity": "bar", "name": "Point One"}}, {"type": "node", "id": 7537169111, "lat": 22.2812531, "lon": 114.1558271, "tags": {"amenity": "bar", "min_age": "18", "name": "Zentral Club", "opening_hours": "Tu-Sa 22:00-04:00", "payment:cash": "yes", "payment:credit_cards": "yes"}}, {"type": "node", "id": 7682425287, "lat": 22.2851755, "lon": 114.143152, "tags": {"addr:housenumber": "23", "addr:street": "\u9ad8\u8857 High Street", "amenity": "bar", "name:en": "TJ\u2019s place"}}, {"type": "node", "id": 7855810563, "lat": 22.2879132, "lon": 114.1574113, "tags": {"addr:street": "Pier 3", "amenity": "bar", "brewery": "yes;various", "name": "Pier Bar", "outdoor_seating": "no", "wheelchair": "yes"}}, {"type": "node", "id": 8064179754, "lat": 22.2779869, "lon": 114.1600372, "tags": {"amenity": "bar", "name": "Murray Lane"}}, {"type": "node", "id": 9034029718, "lat": 22.2862729, "lon": 114.1466296, "tags": {"addr:district": "Sheung Wan", "addr:housenumber": "111", "addr:province": "Hong Kong", "addr:street": "\u7687\u540e\u5927\u9053\u897f Queen's Road West", "amenity": "bar", "name": "Mars Bar", "opening_hours": "Mo-Su 16:00-02:00"}}, {"type": "node", "id": 9719941300, "lat": 22.2865504, "lon": 114.1436372, "tags": {"addr:housenumber": "5A", "addr:street": "\u7b2c\u4e00\u8857 First Street", "amenity": "bar", "name": "The Bottle & Steak"}}, {"type": "node", "id": 10125919209, "lat": 22.2810763, "lon": 114.1556002, "tags": {"amenity": "bar", "name": "D26"}}, {"type": "node", "id": 10578677674, "lat": 22.2311818, "lon": 114.2519889, "tags": {"amenity": "bar", "name": "Back beach bar"}}, {"type": "node", "id": 10690524273, "lat": 22.2839327, "lon": 114.1581089, "tags": {"amenity": "bar", "level": "1", "name": "Liberty Exchange"}}]}