{"version": 0.6, "generator": "Overpass API 0.7.60.2 e4cf9f7a", "osm3s": {"timestamp_osm_base": "2023-05-02T19:47:15Z", "copyright": "The data included in this document is from www.openstreetmap.org. The data is made available under ODbL."}, "elements": [{"type": "node", "id": 26412045, "lat": 22.271123, "lon": 114.1501414, "tags": {"alt_name": "Victoria Peak", "funicular": "yes", "name": "\u5c71\u9802 The Peak", "name:en": "The Peak", "name:zh": "\u5c71\u9802", "public_transport": "station", "railway": "station", "tourism": "attraction", "website": "https://www.thepeak.com.hk/", "wikidata": "Q5959277"}}, {"type": "node", "id": 30745880, "lat": 22.2871201, "lon": 114.1610833, "tags": {"access:ferry": "private", "boat": "no", "ferry": "yes", "loc_ref": "7", "name": "\u4e2d\u74b0 Central", "name:en": "Central", "name:zh": "\u4e2d\u74b0", "public_transport": "stop_position", "public_transport:ferry": "yes", "seamark:berth:restriction": "restricted_berthing", "seamark:type": "berth", "ship": "no"}}, {"type": "node", "id": 32946990, "lat": 22.2932809, "lon": 114.1999025}, {"type": "node", "id": 32964800, "lat": 22.2936871, "lon": 114.2008731}, {"type": "node", "id": 32964802, "lat": 22.2933128, "lon": 114.2000582}, {"type": "node", "id": 32964803, "lat": 22.2944987, "lon": 114.1998232}, {"type": "node", "id": 32964804, "lat": 22.2944495, "lon": 114.1996232}, {"type": "node", "id": 72889948, "lat": 22.2892235, "lon": 114.1512438}, {"type": "node", "id": 72900332, "lat": 22.289359, "lon": 114.15343}, {"type": "node", "id": 73084216, "lat": 22.289769, "lon": 114.151352}, {"type": "node", "id": 73126903, "lat": 22.289295, "lon": 114.1532774}, {"type": "node", "id": 73238868, "lat": 22.289895, "lon": 114.151273}, {"type": "node", "id": 73248682, "lat": 22.289012, "lon": 114.1510575}, {"type": "node", "id": 73307288, "lat": 22.2891395, "lon": 114.1510917}, {"type": "node", "id": 73361265, "lat": 22.2884009, "lon": 114.1531111}, {"type": "node", "id": 73591641, "lat": 22.2887515, "lon": 114.1531688}, {"type": "node", "id": 73657736, "lat": 22.2888832, "lon": 114.1511394}, {"type": "node", "id": 73718671, "lat": 22.290037, "lon": 114.151349}, {"type": "node", "id": 73790011, "lat": 22.289513, "lon": 114.153438}, {"type": "node", "id": 73797912, "lat": 22.290011, "lon": 114.151308}, {"type": "node", "id": 232221512, "lat": 22.2830965, "lon": 114.1761298}, {"type": "node", "id": 235147875, "lat": 22.288466, "lon": 114.1577291}, {"type": "node", "id": 235147970, "lat": 22.2882803, "lon": 114.1584179}, {"type": "node", "id": 235148013, "lat": 22.2874361, "lon": 114.1591711}, {"type": "node", "id": 235148031, "lat": 22.2880332, "lon": 114.1593697}, {"type": "node", "id": 235148052, "lat": 22.2879668, "lon": 114.1596079}, {"type": "node", "id": 235148072, "lat": 22.2873673, "lon": 114.1594167}, {"type": "node", "id": 235183944, "lat": 22.2887844, "lon": 114.1498273}, {"type": "node", "id": 235216338, "lat": 22.2877588, "lon": 114.16031}, {"type": "node", "id": 235223709, "lat": 22.2873533, "lon": 114.1614697}, {"type": "node", "id": 235223711, "lat": 22.2874452, "lon": 114.1612271}, {"type": "node", "id": 235223716, "lat": 22.2870237, "lon": 114.1602921}, {"type": "node", "id": 235223719, "lat": 22.2876766, "lon": 114.1605365}, {"type": "node", "id": 253288735, "lat": 22.2875631, "lon": 114.1933149, "tags": {"addr:housenumber": "238", "addr:street": "\u82f1\u7687\u9053 King's Road", "name": "\u70ae\u53f0\u5c71 Fortress Hill", "name:en": "Fortress Hill", "name:zh": "\u70ae\u53f0\u5c71", "network": "MTR", "operator": "\u9999\u6e2f\u9435\u8def\u6709\u9650\u516c\u53f8 MTR Corporation", "platforms": "2", "public_transport": "station", "railway": "station", "ref": "FOH", "ref:note": "Common use in MTR app indoor navigation labels, station shop units, etc", "start_date": "1985-05-31", "station": "subway", "subway": "yes", "wheelchair": "limited", "wikidata": "Q839682", "wikipedia": "zh:\u70ae\u53f0\u5c71\u7ad9"}}, {"type": "node", "id": 281657424, "lat": 22.2886915, "lon": 114.1565684}, {"type": "node", "id": 281657427, "lat": 22.2870915, "lon": 114.1621011}, {"type": "node", "id": 281657428, "lat": 22.2869996, "lon": 114.1623437}, {"type": "node", "id": 281657435, "lat": 22.2860493, "lon": 114.1622535}, {"type": "node", "id": 281657436, "lat": 22.2858929, "lon": 114.162311}, {"type": "node", "id": 281657437, "lat": 22.2862447, "lon": 114.1628873}, {"type": "node", "id": 281657438, "lat": 22.2860993, "lon": 114.1629541}, {"type": "node", "id": 288172784, "lat": 22.2883007, "lon": 114.1497408}, {"type": "node", "id": 288172980, "lat": 22.2886793, "lon": 114.1502197}, {"type": "node", "id": 288172983, "lat": 22.2887244, "lon": 114.1497309}, {"type": "node", "id": 288172985, "lat": 22.2883225, "lon": 114.1496284}, {"type": "node", "id": 288173054, "lat": 22.2882037, "lon": 114.1501022}, {"type": "node", "id": 288173055, "lat": 22.2880578, "lon": 114.1505587}, {"type": "node", "id": 288173473, "lat": 22.2882991, "lon": 114.1507681}, {"type": "node", "id": 288174247, "lat": 22.2879709, "lon": 114.1506749}, {"type": "node", "id": 288174248, "lat": 22.2874137, "lon": 114.1529197}, {"type": "node", "id": 288174249, "lat": 22.2878768, "lon": 114.1530524}, {"type": "node", "id": 288174250, "lat": 22.288041, "lon": 114.1523996}, {"type": "node", "id": 288174251, "lat": 22.2885401, "lon": 114.1525436}, {"type": "node", "id": 288174254, "lat": 22.2888829, "lon": 114.1526329}, {"type": "node", "id": 288174260, "lat": 22.2894504, "lon": 114.1526462}, {"type": "node", "id": 288174261, "lat": 22.2889168, "lon": 114.1524945}, {"type": "node", "id": 288174262, "lat": 22.2891752, "lon": 114.1514409}, {"type": "node", "id": 288174263, "lat": 22.2888348, "lon": 114.1513433}, {"type": "node", "id": 288174264, "lat": 22.2887528, "lon": 114.151677}, {"type": "node", "id": 288174265, "lat": 22.2882587, "lon": 114.1515338}, {"type": "node", "id": 288175158, "lat": 22.2877459, "lon": 114.1530149}, {"type": "node", "id": 288361303, "lat": 22.278067, "lon": 114.1728885, "tags": {"name": "\u99f1\u514b\u9053 Lockhart Road", "name:en": "Lockhart Road", "name:zh": "\u99f1\u514b\u9053", "railway": "subway_entrance", "ref": "C", "wheelchair": "no"}}, {"type": "node", "id": 289558548, "lat": 22.284004, "lon": 114.1578034, "tags": {"amenity": "bus_station", "bus": "yes", "name": "\u4e2d\u74b0\uff08\u4ea4\u6613\u5ee3\u5834\uff09 Central (Exchange Square)", "name:en": "Central (Exchange Square)", "name:zh": "\u4e2d\u74b0\uff08\u4ea4\u6613\u5ee3\u5834\uff09", "public_transport": "station", "ref": "EXS"}}, {"type": "node", "id": 290330442, "lat": 22.2839682, "lon": 114.1742459, "tags": {"amenity": "bus_station", "bus": "yes", "name": "\u7063\u4ed4 (\u6703\u5c55\u65b0\u7ffc) Wan Chai (HKCEC Extension)", "name:en": "Wan Chai (HKCEC Extension)", "name:zh": "\u7063\u4ed4 (\u6703\u5c55\u65b0\u7ffc)", "operator": "NWFB", "public_transport": "station", "wikidata": "Q15927878"}}, {"type": "node", "id": 290330686, "lat": 22.2836541, "lon": 114.1760688}, {"type": "node", "id": 290330940, "lat": 22.281868, "lon": 114.1762892}, {"type": "node", "id": 290651786, "lat": 22.2879093, "lon": 114.1585741, "tags": {"access:ferry": "private", "ferry": "yes", "loc_ref": "4", "name": "\u4e2d\u74b0 Central", "name:en": "Central", "name:zh": "\u4e2d\u74b0", "public_transport": "stop_position", "public_transport:ferry": "yes", "seamark:berth:restriction": "restricted_berthing", "seamark:type": "berth", "ship": "no"}}, {"type": "node", "id": 293571667, "lat": 22.2842409, "lon": 114.1280041}, {"type": "node", "id": 316736125, "lat": 22.266576, "lon": 114.2506958}, {"type": "node", "id": 316736126, "lat": 22.2661225, "lon": 114.2502369}, {"type": "node", "id": 316736127, "lat": 22.2656584, "lon": 114.2509965}, {"type": "node", "id": 316736128, "lat": 22.2660132, "lon": 114.2513351}, {"type": "node", "id": 335945800, "lat": 22.2877253, "lon": 114.1592658, "tags": {"access:ferry": "private", "ferry": "yes", "loc_ref": "5", "name": "\u4e2d\u74b0 Central", "name:en": "Central", "name:zh": "\u4e2d\u74b0", "public_transport": "stop_position", "public_transport:ferry": "yes", "seamark:berth:restriction": "restricted_berthing", "seamark:type": "berth", "ship": "no"}}, {"type": "node", "id": 356280203, "lat": 22.2864563, "lon": 114.1612949}, {"type": "node", "id": 356280204, "lat": 22.2863139, "lon": 114.1612305}, {"type": "node", "id": 356280205, "lat": 22.2862152, "lon": 114.1614842}, {"type": "node", "id": 356280206, "lat": 22.2863581, "lon": 114.1615489}, {"type": "node", "id": 356280210, "lat": 22.2864837, "lon": 114.1607923}, {"type": "node", "id": 364861473, "lat": 22.2881918, "lon": 114.1574022, "tags": {"access:ferry": "private", "ferry": "yes", "loc_ref": "3", "name": "\u4e2d\u74b0 Central", "name:en": "Central", "name:zh": "\u4e2d\u74b0", "public_transport": "stop_position", "public_transport:ferry": "yes", "seamark:berth:restriction": "restricted_berthing", "seamark:type": "berth", "ship": "no"}}, {"type": "node", "id": 365549833, "lat": 22.2878143, "lon": 114.1574327}, {"type": "node", "id": 365555694, "lat": 22.2864473, "lon": 114.1608862}, {"type": "node", "id": 426839374, "lat": 22.2873186, "lon": 114.160404, "tags": {"access:ferry": "private", "ferry": "yes", "loc_ref": "6", "name": "\u4e2d\u74b0 Central", "name:en": "Central", "name:zh": "\u4e2d\u74b0", "public_transport": "stop_position", "public_transport:ferry": "yes", "seamark:berth:restriction": "restricted_berthing", "seamark:type": "berth", "ship": "no"}}, {"type": "node", "id": 508016200, "lat": 22.2784481, "lon": 114.1650433}, {"type": "node", "id": 508016700, "lat": 22.2797618, "lon": 114.1634555}, {"type": "node", "id": 508017485, "lat": 22.2786567, "lon": 114.1659342, "tags": {"amenity": "bus_station", "bus": "yes", "name": "\u91d1\u9418 (\u6a02\u79ae\u8857) Admiralty (Rodney Street)", "name:en": "Admiralty (Rodney Street)", "name:zh": "\u91d1\u9418 (\u6a02\u79ae\u8857)", "public_transport": "station", "ref": "ROS"}}, {"type": "node", "id": 566899267, "lat": 22.2861419, "lon": 114.190711, "tags": {"amenity": "bus_station", "bus": "yes", "bus_stop_ref": "1342A", "name": "\u9285\u947c\u7063 (\u5a01\u975e\u8def\u9053) Causeway Bay (Whitfield Road)", "name:en": "Causeway Bay (Whitfield Road)", "name:zh": "\u9285\u947c\u7063 (\u5a01\u975e\u8def\u9053)", "public_transport": "station", "ref": "WHR", "route_ref:CtB": "5X", "wikidata": "Q15915373"}}, {"type": "node", "id": 600716561, "lat": 22.279639, "lon": 114.1641685}, {"type": "node", "id": 673375695, "lat": 22.2945816, "lon": 114.2008839, "tags": {"access:ferry": "private", "boat": "no", "ferry": "private", "foot": "yes", "mooring": "yes", "motor_vehicle": "no", "name": "\u5317\u89d2 North Point", "name:en": "North Point", "name:zh": "\u5317\u89d2", "public_transport": "stop_position", "public_transport:ferry": "yes", "ship": "no"}}, {"type": "node", "id": 1000961467, "lat": 22.2910251, "lon": 114.2055227, "tags": {"amenity": "bus_station", "bus": "yes", "name": "\u5317\u89d2 (\u767e\u798f\u9053) North Point (Pak Fuk Road)", "name:en": "North Point (Pak Fuk Road)", "name:zh": "\u5317\u89d2 (\u767e\u798f\u9053)", "public_transport": "station", "ref": "PFR", "wikidata": "Q10903959"}}, {"type": "node", "id": 1000961872, "lat": 22.2917483, "lon": 114.2057567, "tags": {"addr:street": "Healthy Street Central", "amenity": "bus_station", "bus": "yes", "name": "\u5317\u89d2\uff08\u5065\u5eb7\u4e2d\u8857\uff09 North Point (Healthy Street Central)", "name:en": "North Point (Healthy Street Central)", "name:zh": "\u5317\u89d2\uff08\u5065\u5eb7\u4e2d\u8857\uff09", "operator": "NWFB", "public_transport": "station", "ref": "2800A", "route_ref": "18;18P", "wikidata": "Q10903957"}}, {"type": "node", "id": 1005422336, "lat": 22.2785394, "lon": 114.2280923}, {"type": "node", "id": 1012176477, "lat": 22.2805978, "lon": 114.1842425, "tags": {"building:entrance": "no", "name": "\u5d07\u5149\u767e\u8ca8 SOGO", "name:en": "SOGO", "name:zh": "\u5d07\u5149\u767e\u8ca8", "railway": "subway_entrance", "ref": "D1", "wheelchair": "no"}}, {"type": "node", "id": 1012752035, "lat": 22.2703457, "lon": 114.1847159}, {"type": "node", "id": 1029692765, "lat": 22.2842708, "lon": 114.2128445, "tags": {"amenity": "bus_station", "bus": "yes", "name": "\u9c02\u9b5a\u6d8c Quarry Bay", "name:en": "Quarry Bay", "name:zh": "\u9c02\u9b5a\u6d8c", "network": "116", "operator": "NWFB", "public_transport": "station"}}, {"type": "node", "id": 1038509252, "lat": 22.281684, "lon": 114.1324226, "tags": {"amenity": "bus_station", "bus": "yes", "name": "\u84b2\u98db\u8def Pokfield Road", "name:en": "Pokfield Road", "name:zh": "\u84b2\u98db\u8def", "public_transport": "station", "wikidata": "Q7208639"}}, {"type": "node", "id": 1070003258, "lat": 22.2430498, "lon": 114.1642177, "tags": {"amenity": "bus_station", "bus": "yes", "name": "\u6df1\u7063 Shum Wan", "name:en": "Shum Wan", "name:zh": "\u6df1\u7063", "public_transport": "station"}}, {"type": "node", "id": 1072933906, "lat": 22.2644178, "lon": 114.1886467, "tags": {"amenity": "bus_station", "bus": "yes", "name": "\u8dd1\u99ac\u5730 (\u4e0a) Happy Valley (Upper)", "name:en": "Happy Valley (Upper)", "name:zh": "\u8dd1\u99ac\u5730 (\u4e0a)", "public_transport": "station"}}, {"type": "node", "id": 1072933956, "lat": 22.2632598, "lon": 114.1858374, "tags": {"amenity": "bus_station", "bus": "yes", "name": "\u8dd1\u99ac\u5730 (\u4e0a) Happy Valley (Upper)", "name:en": "Happy Valley (Upper)", "name:zh": "\u8dd1\u99ac\u5730 (\u4e0a)", "public_transport": "station"}}, {"type": "node", "id": 1121807213, "lat": 22.2154318, "lon": 114.2177664, "tags": {"amenity": "bus_station", "name": "\u8d64\u67f1\u76e3\u7344 Stanley Prison", "name:en": "Stanley Prison", "name:zh": "\u8d64\u67f1\u76e3\u7344", "public_transport": "station"}}, {"type": "node", "id": 1123352721, "lat": 22.2472043, "lon": 114.1738931, "tags": {"amenity": "bus_station", "name": "\u6d77\u6d0b\u516c\u5712 Ocean Park", "name:en": "Ocean Park", "name:zh": "\u6d77\u6d0b\u516c\u5712", "public_transport": "station"}}, {"type": "node", "id": 1131046828, "lat": 22.2307536, "lon": 114.2510366, "tags": {"amenity": "bus_station", "name": "\u77f3\u6fb3 Shek O", "name:en": "Shek O", "name:zh": "\u77f3\u6fb3", "public_transport": "station", "ref": "SHO", "wikidata": "Q7217104"}}, {"type": "node", "id": 1136085209, "lat": 22.2659331, "lon": 114.250712}, {"type": "node", "id": 1163596744, "lat": 22.2945633, "lon": 114.2033785, "tags": {"amenity": "ferry_terminal", "cargo": "vehicle", "ferry": "yes", "hazmat": "designated", "name": "\u5317\u89d2\u6c7d\u8eca\u6e21\u8f2a\u78bc\u982d North Point Vehicle Ferry Pier", "name:en": "North Point Vehicle Ferry Pier", "name:zh": "\u5317\u89d2\u6c7d\u8eca\u6e21\u8f2a\u78bc\u982d", "name:zh-Hans": "\u5317\u89d2\u6c7d\u8f66\u6e21\u8f6e\u7801\u5934", "name:zh-Hant": "\u5317\u89d2\u6c7d\u8eca\u6e21\u8f2a\u78bc\u982d", "operator": "HYF", "public_transport": "station"}}, {"type": "node", "id": 1165256880, "lat": 22.2764391, "lon": 114.2397669}, {"type": "node", "id": 1165257224, "lat": 22.276515, "lon": 114.2397025}, {"type": "node", "id": 1165257542, "lat": 22.276571, "lon": 114.2396553}, {"type": "node", "id": 1165257835, "lat": 22.2766644, "lon": 114.2395752}, {"type": "node", "id": 1166459170, "lat": 22.2667468, "lon": 114.2450479}, {"type": "node", "id": 1234054220, "lat": 22.2785189, "lon": 114.1647676, "tags": {"name": "\u91d1\u9418\u5eca Queensway Plaza", "name:en": "Queensway Plaza", "name:zh": "\u91d1\u9418\u5eca", "railway": "subway_entrance", "ref": "C1", "wheelchair": "no"}}, {"type": "node", "id": 1234318206, "lat": 22.2873968, "lon": 114.1601614, "tags": {"access:ferry": "private", "ferry": "yes", "loc_ref": "6", "name": "\u4e2d\u74b0 Central", "name:en": "Central", "name:zh": "\u4e2d\u74b0", "public_transport": "stop_position", "public_transport:ferry": "yes", "seamark:berth:restriction": "restricted_berthing", "seamark:type": "berth", "ship": "no"}}, {"type": "node", "id": 1281244414, "lat": 22.2879689, "lon": 114.1583256, "tags": {"access:ferry": "private", "ferry": "yes", "loc_ref": "4", "name": "\u4e2d\u74b0 Central", "name:en": "Central", "name:zh": "\u4e2d\u74b0", "public_transport": "stop_position", "public_transport:ferry": "yes", "seamark:berth:restriction": "restricted_berthing", "seamark:type": "berth", "ship": "no"}}, {"type": "node", "id": 1317015267, "lat": 22.2882222, "lon": 114.1586586}, {"type": "node", "id": 1327081001, "lat": 22.2351017, "lon": 114.1670686, "tags": {"amenity": "ferry_terminal", "ferry": "yes", "name": "\u6d77\u6d0b\u516c\u5712\u5927\u6a39\u7063\u78bc\u982d Ocean Park Tai Shue Wan Pier", "name:en": "Ocean Park Tai Shue Wan Pier", "name:zh": "\u6d77\u6d0b\u516c\u5712\u5927\u6a39\u7063\u78bc\u982d", "public_transport": "station"}}, {"type": "node", "id": 1334208286, "lat": 22.2880506, "lon": 114.1506975, "tags": {"entrance": "yes"}}, {"type": "node", "id": 1442107002, "lat": 22.2817217, "lon": 114.1576434, "tags": {"name": "\u7f6e\u5730\u5ee3\u5834 The Landmark", "name:en": "The Landmark", "name:zh": "\u7f6e\u5730\u5ee3\u5834", "railway": "subway_entrance", "ref": "G", "wheelchair": "no"}}, {"type": "node", "id": 1442732070, "lat": 22.2867958, "lon": 114.1545581, "tags": {"amenity": "bus_station", "bus": "yes", "name": "\u4e2d\u74b0 (\u6797\u58eb\u8857) Central (Rumsey Street)", "name:en": "Central (Rumsey Street)", "name:zh": "\u4e2d\u74b0 (\u6797\u58eb\u8857)", "public_transport": "station", "ref": "RUS"}}, {"type": "node", "id": 1613294311, "lat": 22.2858733, "lon": 114.1533354}, {"type": "node", "id": 1613294315, "lat": 22.285959, "lon": 114.1535468}, {"type": "node", "id": 1616458712, "lat": 22.2862236, "lon": 114.1565498, "tags": {"amenity": "bus_station", "name": "\u4e2d\u74b0 (\u9999\u6e2f\u7ad9) Central (Hong Kong Station)", "name:en": "Central (Hong Kong Station)", "name:zh": "\u4e2d\u74b0 (\u9999\u6e2f\u7ad9)", "public_transport": "station", "ref": "HOK"}}, {"type": "node", "id": 1619220273, "lat": 22.2769799, "lon": 114.172965}, {"type": "node", "id": 1624746611, "lat": 22.2535426, "lon": 114.1351873, "tags": {"amenity": "bus_station", "bus": "yes", "name": "\u83ef\u5bcc (\u4e2d) Wah Fu (Central)", "name:en": "Wah Fu (Central)", "name:zh": "\u83ef\u5bcc (\u4e2d)", "public_transport": "station", "ref": "WFC", "wikidata": "Q15922443"}}, {"type": "node", "id": 1676456823, "lat": 22.2173873, "lon": 114.2102531, "tags": {"amenity": "ferry_terminal", "ferry": "yes", "name": "\u535c\u516c\u78bc\u982d Blake Pier", "name:en": "Blake Pier", "name:zh": "\u535c\u516c\u78bc\u982d", "public_transport": "station"}}, {"type": "node", "id": 1705327189, "lat": 22.2861286, "lon": 114.1537134}, {"type": "node", "id": 1705682797, "lat": 22.2884411, "lon": 114.1508084}, {"type": "node", "id": 1723726347, "lat": 22.2861269, "lon": 114.1629889}, {"type": "node", "id": 1723726350, "lat": 22.2862027, "lon": 114.1629961}, {"type": "node", "id": 1723726352, "lat": 22.2862342, "lon": 114.1629691}, {"type": "node", "id": 1723726354, "lat": 22.2862478, "lon": 114.1629374}, {"type": "node", "id": 1855205173, "lat": 22.2863787, "lon": 114.1615582}, {"type": "node", "id": 1918563726, "lat": 22.279967, "lon": 114.1936844, "tags": {"amenity": "bus_station", "bus": "yes", "name": "\u52f5\u5fb7\u90a8 Lai Tak Tsuen", "name:en": "Lai Tak Tsuen", "name:zh": "\u52f5\u5fb7\u90a8", "public_transport": "station", "ref": "LTT", "wikidata": "Q10901474"}}, {"type": "node", "id": 1953259341, "lat": 22.2878637, "lon": 114.1530487, "tags": {"entrance": "yes"}}, {"type": "node", "id": 1953259415, "lat": 22.2884798, "lon": 114.1532497}, {"type": "node", "id": 1953259446, "lat": 22.2885901, "lon": 114.1532741}, {"type": "node", "id": 1953259604, "lat": 22.289417, "lon": 114.1527817}, {"type": "node", "id": 2015264505, "lat": 22.2535987, "lon": 114.1374049, "tags": {"amenity": "bus_station", "bus": "yes", "name": "\u83ef\u5bcc (\u5317) Wah Fu (North)", "name:en": "Wah Fu (North)", "name:zh": "\u83ef\u5bcc (\u5317)", "public_transport": "station", "ref": "WFN"}}, {"type": "node", "id": 2053863528, "lat": 22.2861639, "lon": 114.1598884, "tags": {"amenity": "bus_station", "bus": "yes", "name": "\u4e2d\u74b0\u78bc\u982d Central (Ferry Piers)", "name:en": "Central (Ferry Piers)", "name:zh": "\u4e2d\u74b0\u78bc\u982d", "public_transport": "station"}}, {"type": "node", "id": 2090969588, "lat": 22.2827094, "lon": 114.1914917, "tags": {"amenity": "bus_station", "bus": "yes", "name": "\u5929\u540e\u7ad9 Tin Hau Station", "name:en": "Tin Hau Station", "name:zh": "\u5929\u540e\u7ad9", "public_transport": "station"}}, {"type": "node", "id": 2091077139, "lat": 22.2748357, "lon": 114.118027, "tags": {"amenity": "bus_station", "bus": "yes", "name": "\u6469\u661f\u5dba Felix Villas", "name:en": "Felix Villas", "name:zh": "\u6469\u661f\u5dba", "public_transport": "station", "ref": "FEV", "wikidata": "Q11078442"}}, {"type": "node", "id": 2091077141, "lat": 22.2818412, "lon": 114.122388}, {"type": "node", "id": 2091078428, "lat": 22.2811854, "lon": 114.1402127, "tags": {"amenity": "bus_station", "bus": "yes", "name": "\u65ed\u9fa2\u9053 Kotewall Road", "name:en": "Kotewall Road", "name:zh": "\u65ed\u9fa2\u9053", "public_transport": "station", "ref": "KOR"}}, {"type": "node", "id": 2093261191, "lat": 22.2574115, "lon": 114.139487}, {"type": "node", "id": 2098054603, "lat": 22.29069, "lon": 114.210172, "tags": {"amenity": "bus_station", "bus": "yes", "name": "\u9c02\u9b5a\u6d8c\uff08\u6d77\u6fa4\u8857\uff09 Quarry Bay (Hoi Chak Street)", "name:en": "Quarry Bay (Hoi Chak Street)", "name:zh": "\u9c02\u9b5a\u6d8c\uff08\u6d77\u6fa4\u8857\uff09", "public_transport": "station", "ref": "HCS", "ref:hkbus": "\u9c02\u9b5a\u6d8c (\u6d77\u6fa4\u8857) \u7e3d\u7ad9", "route_ref": "N72"}}, {"type": "node", "id": 2153312677, "lat": 22.2768278, "lon": 114.2397475}, {"type": "node", "id": 2153312683, "lat": 22.2766221, "lon": 114.2399241}, {"type": "node", "id": 2153312689, "lat": 22.2759303, "lon": 114.2401981}, {"type": "node", "id": 2153312692, "lat": 22.2760783, "lon": 114.2403936}, {"type": "node", "id": 2153312695, "lat": 22.2772128, "lon": 114.2391109}, {"type": "node", "id": 2153312696, "lat": 22.2773489, "lon": 114.2392955}, {"type": "node", "id": 2153312697, "lat": 22.2766766, "lon": 114.2399975}, {"type": "node", "id": 2153312703, "lat": 22.2768821, "lon": 114.2398227}, {"type": "node", "id": 2153312717, "lat": 22.2767764, "lon": 114.239914, "tags": {"level": "1", "railway": "subway_entrance", "ref": "A"}}, {"type": "node", "id": 2153312724, "lat": 22.2762901, "lon": 114.2398953}, {"type": "node", "id": 2157328935, "lat": 22.2380908, "lon": 114.1532334, "tags": {"amenity": "bus_station", "bus": "yes", "name": "\u9d28\u8137\u6d32 (\u5229\u666f\u8857) Ap Lei Chau (Lee King Street)", "name:en": "Ap Lei Chau (Lee King Street)", "name:zh": "\u9d28\u8137\u6d32 (\u5229\u666f\u8857)", "public_transport": "station"}}, {"type": "node", "id": 2157328942, "lat": 22.2373959, "lon": 114.1533138, "tags": {"amenity": "bus_station", "bus": "yes", "name": "\u9d28\u8137\u6d32 (\u5229\u6a02\u8857) Ap Lei Chau (Lee Lok Street)", "name:en": "Ap Lei Chau (Lee Lok Street)", "name:zh": "\u9d28\u8137\u6d32 (\u5229\u6a02\u8857)", "public_transport": "station", "ref": "LLS"}}, {"type": "node", "id": 2193677481, "lat": 22.243764, "lon": 114.153073, "tags": {"amenity": "bus_station", "bus": "yes", "name": "\u9d28\u8137\u6d32\u5927\u8857 Ap Lei Chau (Main Street)", "name:en": "Ap Lei Chau (Main Street)", "name:zh": "\u9d28\u8137\u6d32\u5927\u8857", "public_transport": "station"}}, {"type": "node", "id": 2303356543, "lat": 22.2922475, "lon": 114.2002722, "tags": {"name": "\u6e23\u83ef\u9053 Java Road", "name:en": "Java Road", "name:zh": "\u6e23\u83ef\u9053", "railway": "subway_entrance", "ref": "A1"}}, {"type": "node", "id": 2335541059, "lat": 22.2864954, "lon": 114.1618373}, {"type": "node", "id": 2335541060, "lat": 22.2870283, "lon": 114.1613259, "tags": {"access:ferry": "private", "ferry": "yes", "loc_ref": "7", "name": "\u4e2d\u74b0 Central", "name:en": "Central", "name:zh": "\u4e2d\u74b0", "public_transport": "stop_position", "public_transport:ferry": "yes", "seamark:berth:restriction": "restricted_berthing", "seamark:type": "berth", "ship": "no"}}, {"type": "node", "id": 2374460965, "lat": 22.2942512, "lon": 114.2010028}, {"type": "node", "id": 2374460972, "lat": 22.2948407, "lon": 114.2008018}, {"type": "node", "id": 2374460973, "lat": 22.294105, "lon": 114.2007396}, {"type": "node", "id": 2374460981, "lat": 22.2937171, "lon": 114.2010876}, {"type": "node", "id": 2374460982, "lat": 22.2948049, "lon": 114.2006319}, {"type": "node", "id": 2374460984, "lat": 22.293891, "lon": 114.2000109}, {"type": "node", "id": 2374461006, "lat": 22.2936587, "lon": 114.1998181}, {"type": "node", "id": 2374461015, "lat": 22.2935753, "lon": 114.2012059}, {"type": "node", "id": 2374461016, "lat": 22.2937993, "lon": 114.2000328}, {"type": "node", "id": 2374461034, "lat": 22.2940768, "lon": 114.2007822}, {"type": "node", "id": 2374461048, "lat": 22.2934975, "lon": 114.200834}, {"type": "node", "id": 2374461061, "lat": 22.2948245, "lon": 114.2008265}, {"type": "node", "id": 2374461086, "lat": 22.2941692, "lon": 114.2010223}, {"type": "node", "id": 2374461099, "lat": 22.2947779, "lon": 114.2006173}, {"type": "node", "id": 2374461102, "lat": 22.2938147, "lon": 114.1997018}, {"type": "node", "id": 2374461107, "lat": 22.2939587, "lon": 114.1999598}, {"type": "node", "id": 2374461110, "lat": 22.2941864, "lon": 114.2007185}, {"type": "node", "id": 2374461111, "lat": 22.2936816, "lon": 114.1999774}, {"type": "node", "id": 2374461136, "lat": 22.2943138, "lon": 114.2009471}, {"type": "node", "id": 2374461147, "lat": 22.2939262, "lon": 114.1997293}, {"type": "node", "id": 2374461149, "lat": 22.294272, "lon": 114.2007369}, {"type": "node", "id": 2374461151, "lat": 22.2941178, "lon": 114.2009929}, {"type": "node", "id": 2374461154, "lat": 22.2937307, "lon": 114.1997207}, {"type": "node", "id": 2498627367, "lat": 22.2764137, "lon": 114.1724181}, {"type": "node", "id": 2521837823, "lat": 22.2884772, "lon": 114.1528165, "tags": {"access:ferry": "private", "ferry": "yes", "foot": "permit", "foot:conditional": "yes @ (permit)", "name": "\u9999\u6e2f Hong Kong", "name:en": "Hong Kong", "name:zh": "\u9999\u6e2f", "permit": "travel_document", "public_transport": "stop_position", "public_transport:ferry": "yes", "seamark:berth:restriction": "restricted_berthing", "seamark:type": "berth"}}, {"type": "node", "id": 2521839682, "lat": 22.2863185, "lon": 114.1534083}, {"type": "node", "id": 2524913792, "lat": 22.2930489, "lon": 114.2025064}, {"type": "node", "id": 2524913823, "lat": 22.2928514, "lon": 114.2014871}, {"type": "node", "id": 2555153007, "lat": 22.2810629, "lon": 114.1274892}, {"type": "node", "id": 2555153009, "lat": 22.2814462, "lon": 114.1294984}, {"type": "node", "id": 2555153011, "lat": 22.2811978, "lon": 114.1295536}, {"type": "node", "id": 2555153013, "lat": 22.2808164, "lon": 114.1275436}, {"type": "node", "id": 2555167180, "lat": 22.2809523, "lon": 114.1282623}, {"type": "node", "id": 2555167182, "lat": 22.280907, "lon": 114.1280234}, {"type": "node", "id": 2555167184, "lat": 22.2808596, "lon": 114.1280354}, {"type": "node", "id": 2555167185, "lat": 22.2808991, "lon": 114.1282732}, {"type": "node", "id": 2555167186, "lat": 22.2810088, "lon": 114.1285577}, {"type": "node", "id": 2555167187, "lat": 22.2810798, "lon": 114.1289495}, {"type": "node", "id": 2555167188, "lat": 22.280934, "lon": 114.1285743}, {"type": "node", "id": 2555167189, "lat": 22.2810026, "lon": 114.1289667}, {"type": "node", "id": 2555275647, "lat": 22.2870389, "lon": 114.150404}, {"type": "node", "id": 2555275649, "lat": 22.2860989, "lon": 114.1533125}, {"type": "node", "id": 2555275650, "lat": 22.2869068, "lon": 114.1503706}, {"type": "node", "id": 2555281849, "lat": 22.2859198, "lon": 114.153273}, {"type": "node", "id": 2555281850, "lat": 22.2858457, "lon": 114.1535128}, {"type": "node", "id": 2555281851, "lat": 22.2864846, "lon": 114.1539518}, {"type": "node", "id": 2555281852, "lat": 22.2866935, "lon": 114.1535944, "tags": {"addr:street": "\u5e72\u8afe\u9053\u4e2d Connaught Road Central", "addr:street:carriageway_ref:kmb": "W", "addr:street:direction:kmb": "W", "addr:street:en": "Connaught Road Central", "addr:street:ref:kmb": "CO03", "addr:street:wikidata": "Q16313103", "addr:street:zh": "\u5e72\u8afe\u9053\u4e2d", "building:entrance": "no", "name": "\u7121\u9650\u6975\u5ee3\u5834 Infinitus Plaza", "name:en": "Infinitus Plaza", "name:zh": "\u7121\u9650\u6975\u5ee3\u5834", "railway": "subway_entrance", "railway:entrance": "yes", "ref": "E4", "wheelchair": "no"}}, {"type": "node", "id": 2555281853, "lat": 22.2866792, "lon": 114.1535122}, {"type": "node", "id": 2555281855, "lat": 22.286149, "lon": 114.1536783}, {"type": "node", "id": 2555281856, "lat": 22.2858587, "lon": 114.1533478}, {"type": "node", "id": 2555281857, "lat": 22.2859012, "lon": 114.1533423}, {"type": "node", "id": 2555281858, "lat": 22.2866695, "lon": 114.1535781}, {"type": "node", "id": 2555281859, "lat": 22.2866945, "lon": 114.1535343}, {"type": "node", "id": 2555281860, "lat": 22.2866947, "lon": 114.1511262}, {"type": "node", "id": 2555281861, "lat": 22.2863979, "lon": 114.1523157}, {"type": "node", "id": 2555281862, "lat": 22.2864762, "lon": 114.151992}, {"type": "node", "id": 2555281863, "lat": 22.2862246, "lon": 114.1519191}, {"type": "node", "id": 2555281864, "lat": 22.2861042, "lon": 114.1522298}, {"type": "node", "id": 2555281865, "lat": 22.2861769, "lon": 114.1519521}, {"type": "node", "id": 2555281866, "lat": 22.2866668, "lon": 114.1519598}, {"type": "node", "id": 2555281867, "lat": 22.2866327, "lon": 114.1521217}, {"type": "node", "id": 2555281868, "lat": 22.2878349, "lon": 114.1522721}, {"type": "node", "id": 2555281869, "lat": 22.2878245, "lon": 114.1523144}, {"type": "node", "id": 2555281870, "lat": 22.2877694, "lon": 114.1521377}, {"type": "node", "id": 2555281871, "lat": 22.2876213, "lon": 114.1522023}, {"type": "node", "id": 2555281872, "lat": 22.2876755, "lon": 114.1521099}, {"type": "node", "id": 2555281873, "lat": 22.2877213, "lon": 114.1522396}, {"type": "node", "id": 2555299654, "lat": 22.2860801, "lon": 114.1533071}, {"type": "node", "id": 2555314548, "lat": 22.2810742, "lon": 114.1584332}, {"type": "node", "id": 2555314550, "lat": 22.2811762, "lon": 114.158578}, {"type": "node", "id": 2555314551, "lat": 22.282823, "lon": 114.1570394}, {"type": "node", "id": 2555314552, "lat": 22.2829166, "lon": 114.1571929}, {"type": "node", "id": 2555316408, "lat": 22.2820653, "lon": 114.1576394}, {"type": "node", "id": 2555316409, "lat": 22.2818944, "lon": 114.157773}, {"type": "node", "id": 2555316410, "lat": 22.28179, "lon": 114.1578566}, {"type": "node", "id": 2555316412, "lat": 22.2816715, "lon": 114.157683}, {"type": "node", "id": 2555328368, "lat": 22.2822317, "lon": 114.157731}, {"type": "node", "id": 2555328373, "lat": 22.2818426, "lon": 114.158044}, {"type": "node", "id": 2555328374, "lat": 22.2812452, "lon": 114.1608409}, {"type": "node", "id": 2555331017, "lat": 22.2814312, "lon": 114.1595948}, {"type": "node", "id": 2555331018, "lat": 22.281407, "lon": 114.1596868}, {"type": "node", "id": 2555331019, "lat": 22.2811154, "lon": 114.1594987}, {"type": "node", "id": 2555331020, "lat": 22.2810895, "lon": 114.1595908}, {"type": "node", "id": 2555331024, "lat": 22.2811325, "lon": 114.1607251}, {"type": "node", "id": 2555331025, "lat": 22.2809317, "lon": 114.16066}, {"type": "node", "id": 2555331026, "lat": 22.2808996, "lon": 114.1607666}, {"type": "node", "id": 2555331027, "lat": 22.2810778, "lon": 114.1608247}, {"type": "node", "id": 2555331028, "lat": 22.2810589, "lon": 114.1608922}, {"type": "node", "id": 2555331029, "lat": 22.2811587, "lon": 114.1609205}, {"type": "node", "id": 2555348134, "lat": 22.2812681, "lon": 114.1595459}, {"type": "node", "id": 2555348135, "lat": 22.2812427, "lon": 114.1596371}, {"type": "node", "id": 2555348138, "lat": 22.2821137, "lon": 114.1578224}, {"type": "node", "id": 2555348141, "lat": 22.2820617, "lon": 114.1579385}, {"type": "node", "id": 2555348142, "lat": 22.2812746, "lon": 114.1614209}, {"type": "node", "id": 2555632178, "lat": 22.2811038, "lon": 114.1595389, "tags": {"entrance": "yes", "loc_ref": "K", "name": "\u7687\u540e\u50cf\u5ee3\u5834 Statue Square", "name:en": "Statue Square", "name:zh": "\u7687\u540e\u50cf\u5ee3\u5834", "railway": "subway_entrance", "ref": "K", "wheelchair": "no"}}, {"type": "node", "id": 2556657201, "lat": 22.2794984, "lon": 114.1647831}, {"type": "node", "id": 2556657206, "lat": 22.2795715, "lon": 114.1648369}, {"type": "node", "id": 2556657208, "lat": 22.2794643, "lon": 114.1650053}, {"type": "node", "id": 2556657210, "lat": 22.2793229, "lon": 114.1670576}, {"type": "node", "id": 2556657211, "lat": 22.2795052, "lon": 114.1650114}, {"type": "node", "id": 2556657212, "lat": 22.2794231, "lon": 114.1652605}, {"type": "node", "id": 2556657213, "lat": 22.2794705, "lon": 114.165263}, {"type": "node", "id": 2556657214, "lat": 22.2793126, "lon": 114.1669707}, {"type": "node", "id": 2556657215, "lat": 22.2787096, "lon": 114.1660935}, {"type": "node", "id": 2556657216, "lat": 22.2790521, "lon": 114.1653558}, {"type": "node", "id": 2556657217, "lat": 22.2789421, "lon": 114.1656119}, {"type": "node", "id": 2556657218, "lat": 22.2785234, "lon": 114.1647348}, {"type": "node", "id": 2556657219, "lat": 22.278846, "lon": 114.164788}, {"type": "node", "id": 2556657220, "lat": 22.2785158, "lon": 114.1647901}, {"type": "node", "id": 2556657221, "lat": 22.2788229, "lon": 114.164841}, {"type": "node", "id": 2556657222, "lat": 22.2791351, "lon": 114.1650653}, {"type": "node", "id": 2556657224, "lat": 22.2791042, "lon": 114.1652164}, {"type": "node", "id": 2556657229, "lat": 22.2793084, "lon": 114.1645663}, {"type": "node", "id": 2556657230, "lat": 22.2793129, "lon": 114.1640324}, {"type": "node", "id": 2556657231, "lat": 22.2793741, "lon": 114.1639519}, {"type": "node", "id": 2556672757, "lat": 22.2794424, "lon": 114.1640144}, {"type": "node", "id": 2556672760, "lat": 22.2794368, "lon": 114.1640409}, {"type": "node", "id": 2556672766, "lat": 22.2788263, "lon": 114.1658437, "tags": {"layer": "-2", "name": "\u592a\u53e4\u5ee3\u5834 Pacific Place", "name:en": "Pacific Place", "name:zh": "\u592a\u53e4\u5ee3\u5834", "railway": "subway_entrance", "ref": "F"}}, {"type": "node", "id": 2556676417, "lat": 22.2792598, "lon": 114.1671356}, {"type": "node", "id": 2556676418, "lat": 22.2776277, "lon": 114.1656064}, {"type": "node", "id": 2556676419, "lat": 22.277884, "lon": 114.1653064}, {"type": "node", "id": 2556690867, "lat": 22.2776169, "lon": 114.1718578}, {"type": "node", "id": 2556690871, "lat": 22.2778326, "lon": 114.1743438}, {"type": "node", "id": 2556690874, "lat": 22.2776531, "lon": 114.1743657}, {"type": "node", "id": 2556690878, "lat": 22.2774367, "lon": 114.1718391}, {"type": "node", "id": 2556690881, "lat": 22.2775968, "lon": 114.1721168}, {"type": "node", "id": 2556690883, "lat": 22.2774116, "lon": 114.1721553}, {"type": "node", "id": 2556690885, "lat": 22.2774565, "lon": 114.1726227}, {"type": "node", "id": 2556690886, "lat": 22.2775354, "lon": 114.1733397}, {"type": "node", "id": 2556690887, "lat": 22.2769356, "lon": 114.1726874}, {"type": "node", "id": 2556690889, "lat": 22.2769776, "lon": 114.1729407}, {"type": "node", "id": 2556690893, "lat": 22.2773745, "lon": 114.1733567}, {"type": "node", "id": 2556736124, "lat": 22.2770771, "lon": 114.173333}, {"type": "node", "id": 2556736136, "lat": 22.2773734, "lon": 114.173346}, {"type": "node", "id": 2556752872, "lat": 22.2780652, "lon": 114.1728726}, {"type": "node", "id": 2556752874, "lat": 22.2776673, "lon": 114.1728919}, {"type": "node", "id": 2556752876, "lat": 22.2776632, "lon": 114.17285}, {"type": "node", "id": 2556752878, "lat": 22.2780688, "lon": 114.172905}, {"type": "node", "id": 2556775236, "lat": 22.2800068, "lon": 114.1832272}, {"type": "node", "id": 2556775237, "lat": 22.2800452, "lon": 114.1844877}, {"type": "node", "id": 2556775240, "lat": 22.2804608, "lon": 114.1852833}, {"type": "node", "id": 2556775241, "lat": 22.2802894, "lon": 114.1853412}, {"type": "node", "id": 2556775242, "lat": 22.2803871, "lon": 114.1850284}, {"type": "node", "id": 2556775243, "lat": 22.2806874, "lon": 114.1849118}, {"type": "node", "id": 2556775244, "lat": 22.2805789, "lon": 114.18379}, {"type": "node", "id": 2556775245, "lat": 22.2806128, "lon": 114.1846607}, {"type": "node", "id": 2556775246, "lat": 22.2804347, "lon": 114.183797}, {"type": "node", "id": 2556775247, "lat": 22.2804363, "lon": 114.1838227}, {"type": "node", "id": 2556775248, "lat": 22.2802116, "lon": 114.1838326}, {"type": "node", "id": 2556775250, "lat": 22.2802563, "lon": 114.1838306}, {"type": "node", "id": 2556775255, "lat": 22.2801595, "lon": 114.1830589}, {"type": "node", "id": 2556775256, "lat": 22.2805521, "lon": 114.183014}, {"type": "node", "id": 2556775257, "lat": 22.2805496, "lon": 114.1829352}, {"type": "node", "id": 2556775261, "lat": 22.2800872, "lon": 114.1827348}, {"type": "node", "id": 2556775263, "lat": 22.2800777, "lon": 114.1828136}, {"type": "node", "id": 2556775265, "lat": 22.280169, "lon": 114.183094}, {"type": "node", "id": 2556775268, "lat": 22.2800385, "lon": 114.1842692}, {"type": "node", "id": 2556775269, "lat": 22.280039, "lon": 114.1842999}, {"type": "node", "id": 2556786606, "lat": 22.2798665, "lon": 114.1828263}, {"type": "node", "id": 2556786608, "lat": 22.2790455, "lon": 114.183055}, {"type": "node", "id": 2556786610, "lat": 22.2790116, "lon": 114.1831711}, {"type": "node", "id": 2556786612, "lat": 22.2788631, "lon": 114.1828068}, {"type": "node", "id": 2556786613, "lat": 22.2784942, "lon": 114.182787}, {"type": "node", "id": 2556786614, "lat": 22.2786285, "lon": 114.1821758}, {"type": "node", "id": 2556786616, "lat": 22.2782107, "lon": 114.1826954}, {"type": "node", "id": 2556786617, "lat": 22.2787786, "lon": 114.1828618}, {"type": "node", "id": 2556786618, "lat": 22.2797602, "lon": 114.1827498}, {"type": "node", "id": 2556786620, "lat": 22.2800162, "lon": 114.1826463}, {"type": "node", "id": 2556822800, "lat": 22.2815012, "lon": 114.1908075}, {"type": "node", "id": 2556822801, "lat": 22.2820597, "lon": 114.1919251}, {"type": "node", "id": 2556822802, "lat": 22.2831011, "lon": 114.1926}, {"type": "node", "id": 2556822806, "lat": 22.2819517, "lon": 114.1914955}, {"type": "node", "id": 2556822808, "lat": 22.2813943, "lon": 114.190889}, {"type": "node", "id": 2556822811, "lat": 22.2826902, "lon": 114.1923837}, {"type": "node", "id": 2556822813, "lat": 22.2822825, "lon": 114.192155}, {"type": "node", "id": 2556822815, "lat": 22.2824398, "lon": 114.1922499}, {"type": "node", "id": 2556822817, "lat": 22.2831584, "lon": 114.1924596}, {"type": "node", "id": 2556822818, "lat": 22.2824832, "lon": 114.1913189}, {"type": "node", "id": 2556822820, "lat": 22.282336, "lon": 114.1913279}, {"type": "node", "id": 2556822822, "lat": 22.2822175, "lon": 114.1914884}, {"type": "node", "id": 2556822823, "lat": 22.2821518, "lon": 114.1916271}, {"type": "node", "id": 2556822825, "lat": 22.2820875, "lon": 114.1917004}, {"type": "node", "id": 2556822827, "lat": 22.2828275, "lon": 114.1916887}, {"type": "node", "id": 2556822830, "lat": 22.2829329, "lon": 114.1919098}, {"type": "node", "id": 2556822832, "lat": 22.2825538, "lon": 114.192056}, {"type": "node", "id": 2556822833, "lat": 22.2825149, "lon": 114.1921225}, {"type": "node", "id": 2556822836, "lat": 22.282169, "lon": 114.1920642}, {"type": "node", "id": 2558477890, "lat": 22.282581, "lon": 114.1574555}, {"type": "node", "id": 2566102950, "lat": 22.2909093, "lon": 114.2007532, "tags": {"addr:street": "\u82f1\u7687\u9053 King's Road", "name": "\u5317\u89d2 North Point", "name:en": "North Point", "name:zh": "\u5317\u89d2", "network": "MTR", "operator": "\u9999\u6e2f\u9435\u8def\u6709\u9650\u516c\u53f8 MTR Corporation", "platforms": "4", "public_transport": "station", "railway": "station", "ref": "NOP", "ref:note": "Common use in MTR app indoor navigation labels, station shop units, etc", "start_date": "1985-05-31", "station": "subway", "subway": "yes", "wheelchair": "limited", "wikidata": "Q838864"}}, {"type": "node", "id": 2566130974, "lat": 22.2816256, "lon": 114.2222894, "tags": {"addr:housenumber": "111", "addr:street": "\u7b72\u7b95\u7063\u9053 Shau Kei Wan Road", "addr:street:en": "Shau Kei Wan Road", "addr:street:zh": "\u7b72\u7b95\u7063\u9053", "name": "\u897f\u7063\u6cb3 Sai Wan Ho", "name:en": "Sai Wan Ho", "name:zh": "\u897f\u7063\u6cb3", "network": "MTR", "operator": "\u9999\u6e2f\u9435\u8def\u6709\u9650\u516c\u53f8 MTR Corporation", "platforms": "2", "public_transport": "station", "railway": "station", "ref": "SWH", "ref:note": "Common use in MTR app indoor navigation labels, station shop units, etc", "start_date": "1985-05-31", "station": "subway", "subway": "yes", "wheelchair": "yes", "wikidata": "Q838777", "wikipedia": "zh:\u897f\u7063\u6cb3\u7ad9"}}, {"type": "node", "id": 2566130977, "lat": 22.2845316, "lon": 114.2163521, "tags": {"addr:housenumber": "1-2", "addr:street": "\u5eb7\u5c71\u9053 Kornhill Road", "addr:street:en": "\u5eb7\u5c71\u9053", "addr:street:zh": "\u5eb7\u5c71\u9053", "addr:wikidata": "Q11063800", "elevator": "yes", "fixme": "Use area to map different levels and layers of thde station itself as well as exit tunnels.", "name": "\u592a\u53e4 Tai Koo", "name:en": "Tai Koo", "name:zh": "\u592a\u53e4", "network": "MTR", "operator": "\u9999\u6e2f\u9435\u8def\u6709\u9650\u516c\u53f8 MTR Corporation", "operator:wikidata": "Q1479375", "platforms": "2", "public_transport": "station", "railway": "station", "ref": "TAK", "ref:note": "Common use in MTR app indoor navigation labels, station shop units, etc", "start_date": "1985-05-31", "station": "subway", "subway": "yes", "toilets:wheelchair": "yes", "wheelchair": "yes", "wikidata": "Q838774", "wikipedia": "zh:\u592a\u53e4\u7ad9"}}, {"type": "node", "id": 2566265627, "lat": 22.2790972, "lon": 114.2286665, "tags": {"addr:housenumber": "1", "addr:street": "\u5bf6\u6587\u8857 Po Man Street", "name": "\u7b72\u7b95\u7063 Shau Kei Wan", "name:en": "Shau Kei Wan", "name:zh": "\u7b72\u7b95\u7063", "network": "MTR", "operator": "\u9999\u6e2f\u9435\u8def\u6709\u9650\u516c\u53f8 MTR Corporation", "platforms": "2", "public_transport": "station", "railway": "station", "ref": "SKW", "ref:note": "Common use in MTR app indoor navigation labels, station shop units, etc", "start_date": "1985-05-31", "station": "subway", "subway": "yes", "wheelchair": "limited", "wikidata": "Q839709", "wikipedia": "zh:\u7b72\u7b95\u7063\u7ad9"}}, {"type": "node", "id": 2579834508, "lat": 22.2770409, "lon": 114.1729588}, {"type": "node", "id": 2589340143, "lat": 22.2929833, "lon": 114.201345}, {"type": "node", "id": 2589341266, "lat": 22.2930814, "lon": 114.2013201}, {"type": "node", "id": 2589342015, "lat": 22.2932724, "lon": 114.2014951}, {"type": "node", "id": 2689659200, "lat": 22.2837235, "lon": 114.1760612}, {"type": "node", "id": 2689660078, "lat": 22.2837786, "lon": 114.1762919}, {"type": "node", "id": 2689661535, "lat": 22.2831135, "lon": 114.1763944}, {"type": "node", "id": 2689662113, "lat": 22.283086, "lon": 114.1764215}, {"type": "node", "id": 2702292253, "lat": 22.2800245, "lon": 114.1842698}, {"type": "node", "id": 2702292254, "lat": 22.2800251, "lon": 114.1843004}, {"type": "node", "id": 2719228425, "lat": 22.2827954, "lon": 114.1920475}, {"type": "node", "id": 2719228448, "lat": 22.2828382, "lon": 114.1919169}, {"type": "node", "id": 2719228473, "lat": 22.2828746, "lon": 114.1919602}, {"type": "node", "id": 2719228492, "lat": 22.2828965, "lon": 114.1919591}, {"type": "node", "id": 2719228509, "lat": 22.2829056, "lon": 114.1921328}, {"type": "node", "id": 2719228579, "lat": 22.2829422, "lon": 114.1921296}, {"type": "node", "id": 2733408433, "lat": 22.2811041, "lon": 114.161371}, {"type": "node", "id": 2977109015, "lat": 22.2804914, "lon": 114.1827797, "tags": {"name": "\u4fe1\u548c\u5ee3\u5834 Sino Plaza", "name:en": "Sino Plaza", "name:zh": "\u4fe1\u548c\u5ee3\u5834", "railway": "subway_entrance", "ref": "C", "wheelchair": "no"}}, {"type": "node", "id": 2977109496, "lat": 22.2801107, "lon": 114.1827979}, {"type": "node", "id": 2977109842, "lat": 22.2804028, "lon": 114.1830028}, {"type": "node", "id": 2977109844, "lat": 22.2804086, "lon": 114.1830182}, {"type": "node", "id": 2977109853, "lat": 22.2804221, "lon": 114.1825885}, {"type": "node", "id": 2979411624, "lat": 22.2780978, "lon": 114.1823963}, {"type": "node", "id": 2991175202, "lat": 22.2817747, "lon": 114.1576017}, {"type": "node", "id": 2991175204, "lat": 22.2817693, "lon": 114.1572108}, {"type": "node", "id": 2991175220, "lat": 22.2821532, "lon": 114.1569749}, {"type": "node", "id": 2991175222, "lat": 22.2822547, "lon": 114.1577591}, {"type": "node", "id": 2991175224, "lat": 22.2822576, "lon": 114.1578314}, {"type": "node", "id": 2991175231, "lat": 22.2824199, "lon": 114.1573582}, {"type": "node", "id": 2991175249, "lat": 22.2825797, "lon": 114.1580659}, {"type": "node", "id": 3049050709, "lat": 22.2830024, "lon": 114.1763876}, {"type": "node", "id": 3049050712, "lat": 22.2833414, "lon": 114.176103, "tags": {"access:ferry": "private", "boat": "no", "ferry": "yes", "name": "\u7063\u4ed4 Wan Chai", "name:en": "Wan Chai", "name:zh": "\u7063\u4ed4", "public_transport": "stop_position", "public_transport:ferry": "yes", "seamark:berth:restriction": "restricted_berthing", "seamark:type": "berth", "ship": "no"}}, {"type": "node", "id": 3049050714, "lat": 22.2837191, "lon": 114.1763294}, {"type": "node", "id": 3076434519, "lat": 22.2864035, "lon": 114.1620799}, {"type": "node", "id": 3076434520, "lat": 22.2867573, "lon": 114.161206}, {"type": "node", "id": 3076434521, "lat": 22.2868492, "lon": 114.1609634}, {"type": "node", "id": 3076434522, "lat": 22.2870726, "lon": 114.1603106}, {"type": "node", "id": 3076434526, "lat": 22.2876168, "lon": 114.1584921}, {"type": "node", "id": 3076434527, "lat": 22.2876764, "lon": 114.1582436}, {"type": "node", "id": 3076434528, "lat": 22.2878183, "lon": 114.1575688}, {"type": "node", "id": 3076434529, "lat": 22.2878784, "lon": 114.1573154}, {"type": "node", "id": 3076434530, "lat": 22.2880312, "lon": 114.1566323}, {"type": "node", "id": 3116216527, "lat": 22.2888132, "lon": 114.152917, "tags": {"access:ferry": "private", "ferry": "yes", "foot": "permit", "foot:conditional": "yes @ (permit)", "name": "\u9999\u6e2f Hong Kong", "name:en": "Hong Kong", "name:zh": "\u9999\u6e2f", "permit": "travel_document", "public_transport": "stop_position", "public_transport:ferry": "yes", "seamark:berth:restriction": "restricted_berthing", "seamark:type": "berth"}}, {"type": "node", "id": 3141194046, "lat": 22.2863321, "lon": 114.1336257, "tags": {"amenity": "bus_station", "bus": "yes", "name": "\u77f3\u5858\u5480 Shek Tong Tsui", "name:en": "Shek Tong Tsui", "name:zh": "\u77f3\u5858\u5480", "public_transport": "station", "ref:ctb": "STT", "ref:hkbus": "\u77f3\u5858\u5480\u7e3d\u7ad9"}}, {"type": "node", "id": 3180387950, "lat": 22.2815441, "lon": 114.1294783}, {"type": "node", "id": 3256217830, "lat": 22.2815357, "lon": 114.1293642}, {"type": "node", "id": 3256217831, "lat": 22.2819123, "lon": 114.129286}, {"type": "node", "id": 3256217832, "lat": 22.2819322, "lon": 114.1293975}, {"type": "node", "id": 3256217833, "lat": 22.2816464, "lon": 114.1294572}, {"type": "node", "id": 3256217834, "lat": 22.2816265, "lon": 114.1293457}, {"type": "node", "id": 3335567799, "lat": 22.2818179, "lon": 114.122432}, {"type": "node", "id": 3335567800, "lat": 22.2820024, "lon": 114.1223276}, {"type": "node", "id": 3335567802, "lat": 22.2820268, "lon": 114.1230144}, {"type": "node", "id": 3335567804, "lat": 22.2822129, "lon": 114.1229484}, {"type": "node", "id": 3413857798, "lat": 22.2918584, "lon": 114.2003087, "tags": {"railway": "subway_entrance", "ref": "A2"}}, {"type": "node", "id": 3500626295, "lat": 22.274195, "lon": 114.1890487, "tags": {"amenity": "bus_station", "bus": "yes", "name": "\u9999\u6e2f\u5927\u7403\u5834 Hong Kong Stadium", "name:en": "Hong Kong Stadium", "name:zh": "\u9999\u6e2f\u5927\u7403\u5834", "public_transport": "station", "ref": "EHR"}}, {"type": "node", "id": 3791000798, "lat": 22.2854347, "lon": 114.1426424, "tags": {"layer": "-3", "name": "\u897f\u71df\u76e4 Sai Ying Pun", "name:en": "Sai Ying Pun", "name:zh": "\u897f\u71df\u76e4", "network": "MTR", "operator": "\u9999\u6e2f\u9435\u8def\u6709\u9650\u516c\u53f8 MTR Corporation", "platforms": "2", "public_transport": "station", "railway": "station", "ref": "SYP", "ref:note": "Common use in MTR app indoor navigation labels, station shop units, etc", "start_date": "2015-03-29", "station": "subway", "subway": "yes", "wikidata": "Q2106571"}}, {"type": "node", "id": 3897533487, "lat": 22.2876565, "lon": 114.1595114, "tags": {"access:ferry": "private", "ferry": "yes", "loc_ref": "5", "name": "\u4e2d\u74b0 Central", "name:en": "Central", "name:zh": "\u4e2d\u74b0", "public_transport": "stop_position", "public_transport:ferry": "yes", "seamark:berth:restriction": "restricted_berthing", "seamark:type": "berth", "ship": "no", "website": "http://www.nwff.com.hk/route/get_route.php?lang=en&id=75852f2a-6be6-49bc-bb7a-e9d31f46b41e&route_id=8&submenu_num=3"}}, {"type": "node", "id": 3897533490, "lat": 22.2881317, "lon": 114.1576557, "tags": {"access:ferry": "private", "ferry": "yes", "loc_ref": "3", "name": "\u4e2d\u74b0 Central", "name:en": "Central", "name:zh": "\u4e2d\u74b0", "public_transport": "stop_position", "public_transport:ferry": "yes", "seamark:berth:restriction": "restricted_berthing", "seamark:type": "berth", "ship": "no"}}, {"type": "node", "id": 3897533492, "lat": 22.2880863, "lon": 114.1564004}, {"type": "node", "id": 3897533532, "lat": 22.2833714, "lon": 114.1763619, "tags": {"access": "private", "name": "\u7063\u4ed4 Wan Chai", "name:en": "Wan Chai", "name:zh": "\u7063\u4ed4", "proposed:public_transport": "stop_position", "seamark:berth:restriction": "restricted_berthing", "seamark:type": "berth"}}, {"type": "node", "id": 3930556110, "lat": 22.2859038, "lon": 114.1623069}, {"type": "node", "id": 3930556112, "lat": 22.2859694, "lon": 114.1622829, "tags": {"entrance": "yes", "wheelchair": "yes"}}, {"type": "node", "id": 3943626137, "lat": 22.2482892, "lon": 114.1738767}, {"type": "node", "id": 3943626147, "lat": 22.2484982, "lon": 114.173747}, {"type": "node", "id": 3943626150, "lat": 22.248881, "lon": 114.1749898}, {"type": "node", "id": 3943626152, "lat": 22.2490898, "lon": 114.1748601}, {"type": "node", "id": 3995719715, "lat": 22.2828033, "lon": 114.1577758}, {"type": "node", "id": 3995719718, "lat": 22.2828525, "lon": 114.1578476}, {"type": "node", "id": 4159231995, "lat": 22.2794809, "lon": 114.163912}, {"type": "node", "id": 4159232005, "lat": 22.2797039, "lon": 114.1639711}, {"type": "node", "id": 4186644163, "lat": 22.2932048, "lon": 114.2026185}, {"type": "node", "id": 4186644171, "lat": 22.2933119, "lon": 114.2019436}, {"type": "node", "id": 4186644173, "lat": 22.293352, "lon": 114.2018544}, {"type": "node", "id": 4186644177, "lat": 22.293449, "lon": 114.2025631}, {"type": "node", "id": 4366402516, "lat": 22.2196654, "lon": 114.2099837}, {"type": "node", "id": 4366402517, "lat": 22.2196977, "lon": 114.2100199}, {"type": "node", "id": 4366402518, "lat": 22.2197622, "lon": 114.2096625}, {"type": "node", "id": 4366402520, "lat": 22.2202352, "lon": 114.2091609}, {"type": "node", "id": 4366402521, "lat": 22.2203054, "lon": 114.209177}, {"type": "node", "id": 4366402522, "lat": 22.2203786, "lon": 114.2092079}, {"type": "node", "id": 4366480890, "lat": 22.2192895, "lon": 114.2129917}, {"type": "node", "id": 4366480891, "lat": 22.2188418, "lon": 114.2130611}, {"type": "node", "id": 4366480892, "lat": 22.2190485, "lon": 114.2132126}, {"type": "node", "id": 4366480893, "lat": 22.2193201, "lon": 114.2130123}, {"type": "node", "id": 4366480896, "lat": 22.2193445, "lon": 114.2130211}, {"type": "node", "id": 4366480897, "lat": 22.2192895, "lon": 114.2131725}, {"type": "node", "id": 4366480899, "lat": 22.2193752, "lon": 114.2130218}, {"type": "node", "id": 4366480900, "lat": 22.2194079, "lon": 114.2130614}, {"type": "node", "id": 4449907054, "lat": 22.2470349, "lon": 114.1543017, "tags": {"amenity": "ferry_terminal", "ferry": "yes", "public_transport": "station"}}, {"type": "node", "id": 4451114829, "lat": 22.2480948, "lon": 114.1745544}, {"type": "node", "id": 4476263512, "lat": 22.2771394, "lon": 114.1725653}, {"type": "node", "id": 4498404913, "lat": 22.2786766, "lon": 114.1904574}, {"type": "node", "id": 4498404920, "lat": 22.2789161, "lon": 114.189816}, {"type": "node", "id": 4498404921, "lat": 22.2788975, "lon": 114.1905158}, {"type": "node", "id": 4498404924, "lat": 22.2789777, "lon": 114.1904741}, {"type": "node", "id": 4498404925, "lat": 22.278975, "lon": 114.189947}, {"type": "node", "id": 4498404927, "lat": 22.2791007, "lon": 114.1901377}, {"type": "node", "id": 4498404929, "lat": 22.2791025, "lon": 114.1901981}, {"type": "node", "id": 4506726720, "lat": 22.248327, "lon": 114.1738533, "tags": {"railway": "subway_entrance", "ref": "A"}}, {"type": "node", "id": 4506726721, "lat": 22.248911, "lon": 114.1749711, "tags": {"railway": "subway_entrance", "ref": "C"}}, {"type": "node", "id": 4507531576, "lat": 22.242199, "lon": 114.156258}, {"type": "node", "id": 4507531577, "lat": 22.242084, "lon": 114.1563763}, {"type": "node", "id": 4507531578, "lat": 22.2415982, "lon": 114.1558283}, {"type": "node", "id": 4507531579, "lat": 22.2417046, "lon": 114.1557156}, {"type": "node", "id": 4507531585, "lat": 22.242099, "lon": 114.1561476}, {"type": "node", "id": 4507531586, "lat": 22.2421533, "lon": 114.1562097}, {"type": "node", "id": 4507531594, "lat": 22.2417651, "lon": 114.1560154}, {"type": "node", "id": 4507531595, "lat": 22.2418198, "lon": 114.1560801}, {"type": "node", "id": 4507531598, "lat": 22.2436512, "lon": 114.1553329, "tags": {"railway": "subway_entrance", "ref": "A1"}}, {"type": "node", "id": 4507610431, "lat": 22.2436295, "lon": 114.1552806}, {"type": "node", "id": 4507610432, "lat": 22.2435702, "lon": 114.1554286}, {"type": "node", "id": 4507610433, "lat": 22.2435337, "lon": 114.1553404}, {"type": "node", "id": 4507610434, "lat": 22.2416088, "lon": 114.1561704}, {"type": "node", "id": 4507610435, "lat": 22.2416474, "lon": 114.156251}, {"type": "node", "id": 4507610437, "lat": 22.2407198, "lon": 114.156184}, {"type": "node", "id": 4507610438, "lat": 22.2410711, "lon": 114.1562422}, {"type": "node", "id": 4507610439, "lat": 22.2407193, "lon": 114.1560929}, {"type": "node", "id": 4507610441, "lat": 22.241073, "lon": 114.1561146}, {"type": "node", "id": 4507610442, "lat": 22.2409565, "lon": 114.1561027}, {"type": "node", "id": 4507655685, "lat": 22.2428292, "lon": 114.148168}, {"type": "node", "id": 4507655686, "lat": 22.2427191, "lon": 114.1487062}, {"type": "node", "id": 4507655687, "lat": 22.2427022, "lon": 114.1487644}, {"type": "node", "id": 4507655688, "lat": 22.2426786, "lon": 114.1488153}, {"type": "node", "id": 4507655889, "lat": 22.2426281, "lon": 114.1488681}, {"type": "node", "id": 4507655892, "lat": 22.2426076, "lon": 114.1490552}, {"type": "node", "id": 4507655893, "lat": 22.2426368, "lon": 114.1490944}, {"type": "node", "id": 4507655894, "lat": 22.2427756, "lon": 114.1489735}, {"type": "node", "id": 4507655895, "lat": 22.2429205, "lon": 114.1490061}, {"type": "node", "id": 4507655896, "lat": 22.2429617, "lon": 114.1488331}, {"type": "node", "id": 4507655897, "lat": 22.2434319, "lon": 114.1489242}, {"type": "node", "id": 4507655898, "lat": 22.2429573, "lon": 114.1488776}, {"type": "node", "id": 4507655899, "lat": 22.2434255, "lon": 114.1489658}, {"type": "node", "id": 4507655902, "lat": 22.2428541, "lon": 114.1481713}, {"type": "node", "id": 4507655903, "lat": 22.242814, "lon": 114.1483764}, {"type": "node", "id": 4507655904, "lat": 22.242776, "lon": 114.1484282}, {"type": "node", "id": 4507655905, "lat": 22.2427987, "lon": 114.1484331}, {"type": "node", "id": 4507655906, "lat": 22.2428206, "lon": 114.148503}, {"type": "node", "id": 4507655907, "lat": 22.2428075, "lon": 114.1485734}, {"type": "node", "id": 4507655908, "lat": 22.2427501, "lon": 114.148562}, {"type": "node", "id": 4507655909, "lat": 22.2428509, "lon": 114.1485122}, {"type": "node", "id": 4507655911, "lat": 22.242859, "lon": 114.1487917}, {"type": "node", "id": 4507655912, "lat": 22.2428289, "lon": 114.1486367}, {"type": "node", "id": 4507655914, "lat": 22.2428273, "lon": 114.1487286}, {"type": "node", "id": 4507655915, "lat": 22.2428352, "lon": 114.1487662}, {"type": "node", "id": 4507655916, "lat": 22.2429362, "lon": 114.1488263}, {"type": "node", "id": 4507655917, "lat": 22.2429077, "lon": 114.1488174}, {"type": "node", "id": 4507655918, "lat": 22.2428814, "lon": 114.1488071}, {"type": "node", "id": 4507655919, "lat": 22.2434279, "lon": 114.1489498, "tags": {"entrance": "yes", "railway": "subway_entrance", "ref": "A"}}, {"type": "node", "id": 4507655920, "lat": 22.2428416, "lon": 114.1481696, "tags": {"entrance": "yes", "railway": "subway_entrance", "ref": "B"}}, {"type": "node", "id": 4507655921, "lat": 22.2426601, "lon": 114.1490764, "tags": {"railway": "subway_entrance", "ref": "C"}}, {"type": "node", "id": 4507655922, "lat": 22.2426924, "lon": 114.1490478, "tags": {"highway": "elevator"}}, {"type": "node", "id": 4507659162, "lat": 22.2432232, "lon": 114.1489277}, {"type": "node", "id": 4507659163, "lat": 22.2432316, "lon": 114.1488854}, {"type": "node", "id": 4507659166, "lat": 22.2428244, "lon": 114.1483231}, {"type": "node", "id": 4507659167, "lat": 22.2427981, "lon": 114.1483199}, {"type": "node", "id": 4576671402, "lat": 22.2420358, "lon": 114.1493037}, {"type": "node", "id": 4576671403, "lat": 22.242117, "lon": 114.1494303}, {"type": "node", "id": 4607207016, "lat": 22.2407729, "lon": 114.1561826}, {"type": "node", "id": 4607207028, "lat": 22.2409565, "lon": 114.1561162}, {"type": "node", "id": 4607207030, "lat": 22.240892, "lon": 114.1562418}, {"type": "node", "id": 4607207032, "lat": 22.2408916, "lon": 114.1562054}, {"type": "node", "id": 4607207036, "lat": 22.240825, "lon": 114.1560915}, {"type": "node", "id": 4607207044, "lat": 22.2407741, "lon": 114.1562069}, {"type": "node", "id": 4607207050, "lat": 22.2410721, "lon": 114.1561707}, {"type": "node", "id": 4607207053, "lat": 22.2408241, "lon": 114.1561034}, {"type": "node", "id": 4730058733, "lat": 22.278646, "lon": 114.2284875}, {"type": "node", "id": 4730058734, "lat": 22.2777997, "lon": 114.2283056}, {"type": "node", "id": 4730058736, "lat": 22.2777175, "lon": 114.227918}, {"type": "node", "id": 4738226179, "lat": 22.2818681, "lon": 114.1745532}, {"type": "node", "id": 4738226182, "lat": 22.2813421, "lon": 114.1760141}, {"type": "node", "id": 4738226183, "lat": 22.2816766, "lon": 114.1745395}, {"type": "node", "id": 4738226184, "lat": 22.2812621, "lon": 114.1745775}, {"type": "node", "id": 4738226187, "lat": 22.2818817, "lon": 114.1761618}, {"type": "node", "id": 4738226188, "lat": 22.2818985, "lon": 114.1751387}, {"type": "node", "id": 4780849423, "lat": 22.2797053, "lon": 114.1847712, "tags": {"amenity": "bus_station", "bus": "yes", "name:en": "Repulse bay bus station/40,40x", "name:ko": "\ub9ac\ud384\uc2a4\ubca0\uc774 \ubc84\uc2a4\uc815\ub958\uc7a5", "public_transport": "station"}}, {"type": "node", "id": 4833194196, "lat": 22.2776197, "lon": 114.1590974}, {"type": "node", "id": 4848091232, "lat": 22.2864333, "lon": 114.2239417}, {"type": "node", "id": 4848091233, "lat": 22.2862359, "lon": 114.2241548}, {"type": "node", "id": 4848091234, "lat": 22.2863135, "lon": 114.2242388}, {"type": "node", "id": 4848091235, "lat": 22.286511, "lon": 114.2240257}, {"type": "node", "id": 5086819797, "lat": 22.2764193, "lon": 114.1724676}, {"type": "node", "id": 5148459275, "lat": 22.242825, "lon": 114.1487125}, {"type": "node", "id": 5148459276, "lat": 22.2430427, "lon": 114.1488937}, {"type": "node", "id": 5148459277, "lat": 22.242989, "lon": 114.1488384}, {"type": "node", "id": 5148459278, "lat": 22.2428364, "lon": 114.1485817}, {"type": "node", "id": 5222144173, "lat": 22.2941781, "lon": 114.1998938, "tags": {"access:ferry": "private", "boat": "no", "ferry": "private", "foot": "yes", "mooring": "yes", "motor_vehicle": "no", "name": "\u5317\u89d2 North Point", "name:en": "North Point", "name:zh": "\u5317\u89d2", "public_transport": "stop_position", "public_transport:ferry": "yes", "ship": "no"}}, {"type": "node", "id": 5382734305, "lat": 22.2814737, "lon": 114.1745738}, {"type": "node", "id": 5444474759, "lat": 22.2766726, "lon": 114.2397196, "tags": {"name": "\u674f\u82b1\u90a8 Heng Fa Chuen", "name:en": "Heng Fa Chuen", "name:zh": "\u674f\u82b1\u90a8", "network": "MTR", "operator": "\u9999\u6e2f\u9435\u8def\u6709\u9650\u516c\u53f8 MTR Corporation", "public_transport": "station", "railway": "station", "station": "subway", "subway": "yes", "wikidata": "Q839665"}}, {"type": "node", "id": 5444483688, "lat": 22.2775843, "lon": 114.1728604, "tags": {"name": "\u7063\u4ed4 Wan Chai", "name:en": "Wan Chai", "name:zh": "\u7063\u4ed4", "public_transport": "station", "station": "subway", "subway": "yes"}}, {"type": "node", "id": 5444489721, "lat": 22.2644535, "lon": 114.237044, "tags": {"brand": "\u6e2f\u9435 MTR", "brand:en": "MTR", "brand:zh": "\u6e2f\u9435", "name": "\u67f4\u7063 Chai Wan", "name:en": "Chai Wan", "name:zh": "\u67f4\u7063", "network": "\u6e2f\u9435 MTR", "network:en": "MTR", "network:wikidata": "Q14751", "network:zh": "\u6e2f\u9435", "operator": "\u9999\u6e2f\u9435\u8def\u6709\u9650\u516c\u53f8 MTR Corporation Limited", "operator:en": "MTR Corporation Limited", "operator:wikidata": "Q1479375", "operator:zh": "\u9999\u6e2f\u9435\u8def\u6709\u9650\u516c\u53f8", "owner": "\u9999\u6e2f\u9435\u8def\u6709\u9650\u516c\u53f8 MTR Corporation Limited", "owner:en": "MTR Corporation Limited", "owner:wikidata": "Q1479375", "owner:zh": "\u9999\u6e2f\u9435\u8def\u6709\u9650\u516c\u53f8", "public_transport": "station", "railway": "station", "ref": "CHW", "ref:note": "Common use in MTR app indoor navigation labels, station shop units, etc", "station": "subway", "subway": "yes"}}, {"type": "node", "id": 5444491703, "lat": 22.2850394, "lon": 114.1583819, "tags": {"brand": "\u6e2f\u9435 MTR", "brand:en": "MTR", "brand:zh": "\u6e2f\u9435", "name": "\u9999\u6e2f Hong Kong", "name:ar": "\u0647\u0648\u0646\u063a \u0643\u0648\u0646\u063a", "name:en": "Hong Kong", "name:ko": "\ud64d\ucf69\uc5ed", "name:zh": "\u9999\u6e2f", "network": "\u6e2f\u9435 MTR", "network:en": "MTR", "network:wikidata": "Q14751", "network:zh": "\u6e2f\u9435", "operator": "\u9999\u6e2f\u9435\u8def\u6709\u9650\u516c\u53f8 MTR Corporation Limited", "operator:en": "MTR Corporation Limited", "operator:wikidata": "Q1479375", "operator:zh": "\u9999\u6e2f\u9435\u8def\u6709\u9650\u516c\u53f8", "owner": "\u9999\u6e2f\u9435\u8def\u6709\u9650\u516c\u53f8 MTR Corporation Limited", "owner:en": "MTR Corporation Limited", "owner:wikidata": "Q1479375", "owner:zh": "\u9999\u6e2f\u9435\u8def\u6709\u9650\u516c\u53f8", "platforms": "3", "public_transport": "station", "railway": "station", "ref": "HOK", "ref:note": "Common use in MTR app indoor navigation labels, station shop units, etc", "start_date": "1998-06-22", "station": "subway", "subway": "yes", "wheelchair": "yes", "wikidata": "Q2106205"}}, {"type": "node", "id": 5446027239, "lat": 22.2822771, "lon": 114.1919173, "tags": {"name": "\u5929\u540e Tin Hau", "name:en": "Tin Hau", "name:zh": "\u5929\u540e", "network": "MTR", "operator": "\u9999\u6e2f\u9435\u8def\u6709\u9650\u516c\u53f8 MTR Corporation", "public_transport": "station", "railway": "station", "station": "subway", "subway": "yes", "wikidata": "Q839600"}}, {"type": "node", "id": 5447058900, "lat": 22.2764167, "lon": 114.1724445, "tags": {"entrance": "yes", "exit": "yes", "layer": "-1", "level": "-1", "level:ref:backward": "B1", "level:ref:forward": "C", "name": "\u5229\u6771\u8857 Lee Tung Avenue", "name:en": "Lee Tung Avenue", "name:zh": "\u5229\u6771\u8857", "railway": "subway_entrance", "ref": "D"}}, {"type": "node", "id": 5480526020, "lat": 22.2836245, "lon": 114.1990439}, {"type": "node", "id": 5480601621, "lat": 22.2833901, "lon": 114.1989701}, {"type": "node", "id": 5480601624, "lat": 22.2833478, "lon": 114.1989477}, {"type": "node", "id": 5480601625, "lat": 22.2830922, "lon": 114.1987978}, {"type": "node", "id": 5507230678, "lat": 22.2863481, "lon": 114.1531467}, {"type": "node", "id": 5507230679, "lat": 22.2864323, "lon": 114.152869}, {"type": "node", "id": 5507230711, "lat": 22.2861902, "lon": 114.1530651}, {"type": "node", "id": 5507230717, "lat": 22.2861386, "lon": 114.1532159}, {"type": "node", "id": 5507230718, "lat": 22.2862429, "lon": 114.1528982}, {"type": "node", "id": 5507230719, "lat": 22.2863018, "lon": 114.1527009}, {"type": "node", "id": 5507233224, "lat": 22.2863067, "lon": 114.1532702}, {"type": "node", "id": 5507233225, "lat": 22.2863957, "lon": 114.152992}, {"type": "node", "id": 5507233226, "lat": 22.28646, "lon": 114.1527741}, {"type": "node", "id": 5586441113, "lat": 22.2656859, "lon": 114.2508912}, {"type": "node", "id": 5997041885, "lat": 22.2809155, "lon": 114.1761942, "tags": {"amenity": "bus_station", "bus": "yes", "name:en": "Huanggang Border Direct Bus", "public_transport": "station"}}, {"type": "node", "id": 6000875409, "lat": 22.2775559, "lon": 114.1591268}, {"type": "node", "id": 6000875410, "lat": 22.2777647, "lon": 114.1595629}, {"type": "node", "id": 6000875411, "lat": 22.277704, "lon": 114.1594848}, {"type": "node", "id": 6000875417, "lat": 22.2777326, "lon": 114.1590453}, {"type": "node", "id": 6000875419, "lat": 22.2779186, "lon": 114.1595894}, {"type": "node", "id": 6000875420, "lat": 22.2778092, "lon": 114.1595897}, {"type": "node", "id": 6000875421, "lat": 22.2778725, "lon": 114.1596017}, {"type": "node", "id": 6000875422, "lat": 22.2779707, "lon": 114.1595628}, {"type": "node", "id": 6038917062, "lat": 22.26589, "lon": 114.2507621}, {"type": "node", "id": 6038917063, "lat": 22.2658138, "lon": 114.2507903}, {"type": "node", "id": 6038917064, "lat": 22.265762, "lon": 114.2508128}, {"type": "node", "id": 6038917066, "lat": 22.2659508, "lon": 114.2506715}, {"type": "node", "id": 6038917067, "lat": 22.2659167, "lon": 114.250529}, {"type": "node", "id": 6038917068, "lat": 22.2659591, "lon": 114.2505971}, {"type": "node", "id": 6038917069, "lat": 22.2659618, "lon": 114.2506364}, {"type": "node", "id": 6038917070, "lat": 22.2659486, "lon": 114.2505694}, {"type": "node", "id": 6038917071, "lat": 22.2659164, "lon": 114.2507381}, {"type": "node", "id": 6038917072, "lat": 22.2658519, "lon": 114.2507814}, {"type": "node", "id": 6038917073, "lat": 22.2657172, "lon": 114.2508499}, {"type": "node", "id": 6038917074, "lat": 22.2660869, "lon": 114.2503071}, {"type": "node", "id": 6087605817, "lat": 22.2489453, "lon": 114.1749498}, {"type": "node", "id": 6087605818, "lat": 22.2483661, "lon": 114.173829}, {"type": "node", "id": 6087605819, "lat": 22.2489857, "lon": 114.1749248}, {"type": "node", "id": 6087605820, "lat": 22.2484051, "lon": 114.1738048}, {"type": "node", "id": 6087608208, "lat": 22.2483325, "lon": 114.1738499}, {"type": "node", "id": 6087608209, "lat": 22.2484288, "lon": 114.1737901}, {"type": "node", "id": 6112161834, "lat": 22.2623087, "lon": 114.2502443, "tags": {"amenity": "bus_station", "bus": "yes", "name": "\u5c0f\u5df4\u7ad9", "network": "\u5c08\u7dda\u5c0f\u5df4 GMB", "public_transport": "station"}}, {"type": "node", "id": 6112161846, "lat": 22.2669593, "lon": 114.2469697, "tags": {"amenity": "bus_station", "bus": "yes", "name": "\u5c0f\u5df4\u7ad9 Minibus Station", "name:en": "Minibus Station", "name:zh": "\u5c0f\u5df4\u7ad9", "public_transport": "station"}}, {"type": "node", "id": 6135479158, "lat": 22.2839758, "lon": 114.1355067, "tags": {"name": "\u9999\u6e2f\u5927\u5b78 HKU", "name:en": "HKU", "name:zh": "\u9999\u6e2f\u5927\u5b78", "network": "MTR", "operator": "\u9999\u6e2f\u9435\u8def\u6709\u9650\u516c\u53f8 MTR Corporation", "platforms": "2", "public_transport": "station", "railway": "station", "ref": "HKU", "ref:note": "Common use in MTR app indoor navigation labels, station shop units, etc", "start_date": "2014-12-28", "station": "subway", "subway": "yes", "wikidata": "Q838827"}}, {"type": "node", "id": 6143069751, "lat": 22.2754581, "lon": 114.2411048, "tags": {"amenity": "bus_station", "bus": "yes", "name": "\u5c0f\u5df4\u7ad9 Minibus Station", "name:en": "Minibus Station", "name:zh": "\u5c0f\u5df4\u7ad9", "network": "\u5c08\u7dda\u5c0f\u5df4 GMB", "public_transport": "station", "shelter": "yes"}}, {"type": "node", "id": 6143085248, "lat": 22.2646361, "lon": 114.2372545}, {"type": "node", "id": 6143117229, "lat": 22.2645135, "lon": 114.2363262, "tags": {"amenity": "bus_station", "bus": "yes", "name": "\u5c0f\u5df4\u7ad9 Minibus station", "name:en": "Minibus station", "name:zh": "\u5c0f\u5df4\u7ad9", "network": "\u516c\u5171\u5c0f\u5df4 PLB", "public_transport": "station"}}, {"type": "node", "id": 6143117232, "lat": 22.2650827, "lon": 114.2364614, "tags": {"amenity": "bus_station", "bus": "minibus", "minibus": "private", "minibus:conditional": "yes @ (public AND scheduled)", "name": "\u67f4\u7063\u5de5\u5ee0\u90a8 Chai Wan Industrial Estate", "name:en": "Chai Wan Industrial Estate", "name:zh": "\u67f4\u7063\u5de5\u5ee0\u90a8", "public_transport": "station", "shelter": "yes"}}, {"type": "node", "id": 6160784006, "lat": 22.2789324, "lon": 114.2287697, "tags": {"amenity": "bus_station", "bus": "yes", "highway": "bus_stop", "level": "0", "name": "\u5c0f\u5df4\u7ad9 Minibus station", "name:en": "Minibus station", "name:zh": "\u5c0f\u5df4\u7ad9", "public_transport": "station"}}, {"type": "node", "id": 6208672615, "lat": 22.2818465, "lon": 114.1294154}, {"type": "node", "id": 6239818741, "lat": 22.289475, "lon": 114.153462}, {"type": "node", "id": 6266858937, "lat": 22.279583, "lon": 114.1643694}, {"type": "node", "id": 6513110786, "lat": 22.2877813, "lon": 114.1527688, "tags": {"amenity": "bus_station", "bus": "yes", "charge": "HKD50", "coach": "yes", "destination:en": "Shenzhen Bay Port", "destination:zh": "\u6df1\u5733\u7063\u53e3\u5cb8", "fee": "yes", "name": "\u4e0a\u74b0\uff08\u4fe1\u5fb7\u4e2d\u5fc3\uff09 Sheung Wan (Shun Tak Centre)", "name:en": "Sheung Wan (Shun Tak Centre)", "operator": "\u74b0\u5cf6\u65c5\u904b Trans-Island Limousine Service", "operator:en": "Trans-Island Limousine Service", "operator:zh": "\u74b0\u5cf6\u65c5\u904b", "public_transport": "station"}}, {"type": "node", "id": 6593254441, "lat": 22.2883839, "lon": 114.1507922}, {"type": "node", "id": 6594510974, "lat": 22.2800152, "lon": 114.183502}, {"type": "node", "id": 6778581525, "lat": 22.281032, "lon": 114.182786, "tags": {"amenity": "bus_station", "bus": "yes", "name": "\u9285\u947c\u7063\uff08\u8b1d\u6590\u9053\uff09 Causeway Bay (Jaffe Road)", "name:en": "Causeway Bay (Jaffe Road)", "name:zh": "\u9285\u947c\u7063\uff08\u8b1d\u6590\u9053\uff09", "public_transport": "station"}}, {"type": "node", "id": 6805807210, "lat": 22.2714042, "lon": 114.1243802, "tags": {"amenity": "bus_station", "bus": "yes", "minibus": "yes", "name": "\u5927\u53e3\u74b0 Sandy Bay", "name:en": "Sandy Bay", "name:zh": "\u5927\u53e3\u74b0", "public_transport": "station", "route_ref": "10;10P;HR88"}}, {"type": "node", "id": 6876936124, "lat": 22.2919214, "lon": 114.2003317, "tags": {"layer": "-1", "railway": "subway_entrance", "ref": "A3"}}, {"type": "node", "id": 6928988189, "lat": 22.2772562, "lon": 114.1880915, "tags": {"amenity": "bus_station", "bus": "yes", "name": "\u9285\u947c\u7063 (\u68c9\u82b1\u8def) Causeway Bay (Cotton Path)", "name:en": "Causeway Bay (Cotton Path)", "name:zh": "\u9285\u947c\u7063 (\u68c9\u82b1\u8def)", "public_transport": "station", "ref": "STA"}}, {"type": "node", "id": 6950480950, "lat": 22.2811874, "lon": 114.1612911}, {"type": "node", "id": 6950480953, "lat": 22.2811829, "lon": 114.1608215}, {"type": "node", "id": 6950480957, "lat": 22.2812993, "lon": 114.1613251}, {"type": "node", "id": 6950551042, "lat": 22.2819811, "lon": 114.1570439}, {"type": "node", "id": 6950551045, "lat": 22.2820118, "lon": 114.1570871}, {"type": "node", "id": 6950837865, "lat": 22.2876554, "lon": 114.1521855}, {"type": "node", "id": 6950837866, "lat": 22.286321, "lon": 114.153385}, {"type": "node", "id": 6950837867, "lat": 22.2877555, "lon": 114.1521896}, {"type": "node", "id": 6950837869, "lat": 22.2870743, "lon": 114.1521644}, {"type": "node", "id": 6950837870, "lat": 22.2867136, "lon": 114.1511317}, {"type": "node", "id": 6950837872, "lat": 22.2876868, "lon": 114.1521913}, {"type": "node", "id": 6950837873, "lat": 22.2876054, "lon": 114.1522497}, {"type": "node", "id": 6950837874, "lat": 22.2870857, "lon": 114.1521187}, {"type": "node", "id": 6950837875, "lat": 22.2870537, "lon": 114.1522417}, {"type": "node", "id": 6950837876, "lat": 22.2862733, "lon": 114.1533625}, {"type": "node", "id": 6950837877, "lat": 22.2876918, "lon": 114.1521717}, {"type": "node", "id": 6950837878, "lat": 22.2877126, "lon": 114.1522824}, {"type": "node", "id": 6950837879, "lat": 22.287094, "lon": 114.1520856}, {"type": "node", "id": 6956932743, "lat": 22.2771985, "lon": 114.1733677}, {"type": "node", "id": 6956932745, "lat": 22.2764549, "lon": 114.1724639}, {"type": "node", "id": 6956932746, "lat": 22.2771941, "lon": 114.1733192}, {"type": "node", "id": 6956932747, "lat": 22.2764499, "lon": 114.1724133}, {"type": "node", "id": 6956932748, "lat": 22.2769569, "lon": 114.1729432}, {"type": "node", "id": 6956932750, "lat": 22.2768355, "lon": 114.1727}, {"type": "node", "id": 6956932752, "lat": 22.2768441, "lon": 114.1726518}, {"type": "node", "id": 6956932754, "lat": 22.2771432, "lon": 114.1726169}, {"type": "node", "id": 6956932757, "lat": 22.2772665, "lon": 114.1725512}, {"type": "node", "id": 6956932760, "lat": 22.2772771, "lon": 114.172645}, {"type": "node", "id": 6956932762, "lat": 22.2776132, "lon": 114.1723905}, {"type": "node", "id": 6973440323, "lat": 22.2830091, "lon": 114.1760809}, {"type": "node", "id": 6973440324, "lat": 22.2837294, "lon": 114.176062}, {"type": "node", "id": 6973440325, "lat": 22.2837402, "lon": 114.176067}, {"type": "node", "id": 6973440326, "lat": 22.2837484, "lon": 114.1760752}, {"type": "node", "id": 6973440327, "lat": 22.2837532, "lon": 114.1760859}, {"type": "node", "id": 6973440328, "lat": 22.2837351, "lon": 114.1760638}, {"type": "node", "id": 6973440329, "lat": 22.2837512, "lon": 114.17608}, {"type": "node", "id": 6973440330, "lat": 22.2837449, "lon": 114.1760711}, {"type": "node", "id": 6973440331, "lat": 22.2837546, "lon": 114.1760919}, {"type": "node", "id": 6973440332, "lat": 22.283758, "lon": 114.1763245}, {"type": "node", "id": 6973440333, "lat": 22.2837672, "lon": 114.1763181}, {"type": "node", "id": 6973440334, "lat": 22.283774, "lon": 114.1763093}, {"type": "node", "id": 6973440335, "lat": 22.2837779, "lon": 114.1762983}, {"type": "node", "id": 6973440336, "lat": 22.2837763, "lon": 114.1763043}, {"type": "node", "id": 6973440337, "lat": 22.2837628, "lon": 114.1763218}, {"type": "node", "id": 6973440338, "lat": 22.2837714, "lon": 114.1763138}, {"type": "node", "id": 6973440339, "lat": 22.2837528, "lon": 114.1763263}, {"type": "node", "id": 7060166415, "lat": 22.280609, "lon": 114.1845538, "tags": {"door": "yes", "entrance": "yes"}}, {"type": "node", "id": 7084879238, "lat": 22.2862486, "lon": 114.2241411, "tags": {"door": "no", "entrance": "yes"}}, {"type": "node", "id": 7084879239, "lat": 22.2863666, "lon": 114.2241815, "tags": {"door": "no", "entrance": "yes"}}, {"type": "node", "id": 7115813631, "lat": 22.2847383, "lon": 114.1283188}, {"type": "node", "id": 7141115145, "lat": 22.2866868, "lon": 114.1535233, "tags": {"addr:street": "\u6797\u58eb\u8857 Rumsey Street", "addr:street:en": "Rumsey Street", "addr:street:wikidata": "Q7379409", "addr:street:zh": "\u6797\u58eb\u8857", "entrance": "yes"}}, {"type": "node", "id": 7142347332, "lat": 22.279384, "lon": 114.1655914}, {"type": "node", "id": 7142347333, "lat": 22.279337, "lon": 114.1662553}, {"type": "node", "id": 7142347334, "lat": 22.2793556, "lon": 114.165924}, {"type": "node", "id": 7142347335, "lat": 22.2793451, "lon": 114.1666348}, {"type": "node", "id": 7142347336, "lat": 22.2793301, "lon": 114.1665906}, {"type": "node", "id": 7142347337, "lat": 22.2793495, "lon": 114.1668732}, {"type": "node", "id": 7142347338, "lat": 22.2795359, "lon": 114.1645756}, {"type": "node", "id": 7142347339, "lat": 22.2794562, "lon": 114.1640448}, {"type": "node", "id": 7142347340, "lat": 22.2792927, "lon": 114.1645437}, {"type": "node", "id": 7142347341, "lat": 22.2793218, "lon": 114.1644562}, {"type": "node", "id": 7142347342, "lat": 22.2793532, "lon": 114.1644461}, {"type": "node", "id": 7142347343, "lat": 22.2793615, "lon": 114.1643952}, {"type": "node", "id": 7142347344, "lat": 22.2793136, "lon": 114.1643858}, {"type": "node", "id": 7142347345, "lat": 22.2793873, "lon": 114.1641028}, {"type": "node", "id": 7142347346, "lat": 22.2791498, "lon": 114.1650056}, {"type": "node", "id": 7252400931, "lat": 22.2833906, "lon": 114.1986832}, {"type": "node", "id": 7252400932, "lat": 22.2834924, "lon": 114.1987422}, {"type": "node", "id": 7252400936, "lat": 22.283202, "lon": 114.198643}, {"type": "node", "id": 7280129501, "lat": 22.2787631, "lon": 114.1898869}, {"type": "node", "id": 7280129502, "lat": 22.2788713, "lon": 114.1905287}, {"type": "node", "id": 7280129503, "lat": 22.2788434, "lon": 114.1905361}, {"type": "node", "id": 7280129504, "lat": 22.2788147, "lon": 114.1905379}, {"type": "node", "id": 7280129505, "lat": 22.2787861, "lon": 114.1905339}, {"type": "node", "id": 7280129506, "lat": 22.2787588, "lon": 114.1905243}, {"type": "node", "id": 7280129507, "lat": 22.2787335, "lon": 114.1905095}, {"type": "node", "id": 7280129508, "lat": 22.2790061, "lon": 114.1904561}, {"type": "node", "id": 7280129509, "lat": 22.2790313, "lon": 114.190433}, {"type": "node", "id": 7280129510, "lat": 22.2790522, "lon": 114.1904055}, {"type": "node", "id": 7280129511, "lat": 22.2790685, "lon": 114.1903745}, {"type": "node", "id": 7280129512, "lat": 22.2790794, "lon": 114.1903408}, {"type": "node", "id": 7611293776, "lat": 22.2945003, "lon": 114.1998131}, {"type": "node", "id": 7611293777, "lat": 22.2944617, "lon": 114.1996342}, {"type": "node", "id": 7611293778, "lat": 22.294441, "lon": 114.1996217}, {"type": "node", "id": 7611293779, "lat": 22.2944559, "lon": 114.1996281}, {"type": "node", "id": 7611300686, "lat": 22.2944927, "lon": 114.1998312}, {"type": "node", "id": 7611300687, "lat": 22.294487, "lon": 114.1998347}, {"type": "node", "id": 7611300688, "lat": 22.2932964, "lon": 114.1999784, "tags": {"door": "no", "entrance": "yes", "exit": "yes"}}, {"type": "node", "id": 7611300689, "lat": 22.2935348, "lon": 114.2010164, "tags": {"door": "no", "entrance": "yes", "exit": "yes"}}, {"type": "node", "id": 7611322192, "lat": 22.2948374, "lon": 114.2008121}, {"type": "node", "id": 7611322193, "lat": 22.2948314, "lon": 114.2008212}, {"type": "node", "id": 7611322194, "lat": 22.2947883, "lon": 114.2006202}, {"type": "node", "id": 7611322195, "lat": 22.2947973, "lon": 114.2006244}, {"type": "node", "id": 7659957217, "lat": 22.2868539, "lon": 114.1619959, "tags": {"access:ferry": "private", "ferry": "yes", "loc_ref": "8", "name": "\u4e2d\u74b0 Central", "name:en": "Central", "name:zh": "\u4e2d\u74b0", "public_transport": "stop_position", "public_transport:ferry": "yes", "seamark:berth:restriction": "restricted_berthing", "seamark:type": "berth", "ship": "no"}}, {"type": "node", "id": 7660469179, "lat": 22.2895426, "lon": 114.1962448}, {"type": "node", "id": 7660469180, "lat": 22.2895752, "lon": 114.1962366}, {"type": "node", "id": 7660469181, "lat": 22.2895332, "lon": 114.1960321}, {"type": "node", "id": 7660469182, "lat": 22.2895006, "lon": 114.1960403}, {"type": "node", "id": 7765141719, "lat": 22.2883791, "lon": 114.1564816, "tags": {"access:ferry": "private", "ferry": "yes", "name": "\u4e2d\u74b0 Central", "name:en": "Central", "name:zh": "\u4e2d\u74b0", "public_transport": "stop_position", "public_transport:ferry": "yes", "seamark:berth:restriction": "restricted_berthing", "seamark:type": "berth", "ship": "no", "wheelchair": "yes"}}, {"type": "node", "id": 7765141739, "lat": 22.2883245, "lon": 114.1567136, "tags": {"access:ferry": "private", "ferry": "yes", "name": "\u4e2d\u74b0 Central", "name:en": "Central", "name:zh": "\u4e2d\u74b0", "public_transport": "stop_position", "public_transport:ferry": "yes", "seamark:berth:restriction": "restricted_berthing", "seamark:type": "berth", "ship": "no", "wheelchair": "yes"}}, {"type": "node", "id": 7783165053, "lat": 22.266395, "lon": 114.2454379}, {"type": "node", "id": 7818472279, "lat": 22.2436127, "lon": 114.1554081}, {"type": "node", "id": 7818488718, "lat": 22.2436707, "lon": 114.1553801}, {"type": "node", "id": 7822283521, "lat": 22.2436017, "lon": 114.1552941}, {"type": "node", "id": 7925365733, "lat": 22.2836736, "lon": 114.158662, "tags": {"amenity": "bus_station", "bus": "yes", "name": "\u4e2d\u74b0\uff08\u4ea4\u6613\u5ee3\u5834\uff09 Central (Exchange Square)", "name:en": "Central (Exchange Square)", "name:zh": "\u4e2d\u74b0\uff08\u4ea4\u6613\u5ee3\u5834\uff09", "public_transport": "station"}}, {"type": "node", "id": 7925365752, "lat": 22.261887, "lon": 114.1319981, "tags": {"bench": "no", "bus": "yes", "name": "\u78a7\u7464\u7063\uff08\u4e0b\uff09 Baguio Villa (Lower)", "name:en": "Baguio Villa (Lower)", "name:zh": "\u78a7\u7464\u7063\uff08\u4e0b\uff09", "public_transport": "station", "shelter": "no"}}, {"type": "node", "id": 7934602424, "lat": 22.2630839, "lon": 114.1333492, "tags": {"amenity": "bus_station", "bus": "yes", "highway": "bus_stop", "name": "\u78a7\u7464\u7063\uff08\u4e0a\uff09 Baguio Villa (Upper)", "name:en": "Baguio Villa (Upper)", "name:zh": "\u78a7\u7464\u7063\uff08\u4e0a\uff09", "public_transport": "station"}}, {"type": "node", "id": 7934725265, "lat": 22.2692169, "lon": 114.1247361, "tags": {"amenity": "bus_station", "bus": "yes", "minibus": "yes", "name": "\u7f8e\u666f\u81fa Scenic Villas", "name:en": "Scenic Villas", "name:zh": "\u7f8e\u666f\u81fa", "public_transport": "station", "route_ref": "HR88"}}, {"type": "node", "id": 7942512549, "lat": 22.2775816, "lon": 114.1847183, "tags": {"amenity": "bus_station", "bus": "yes", "minibus": "yes", "name": "\u9285\u947c\u7063\uff08\u65b0\u6703\u9053\uff09 Causeway Bay (Sun Wui Road)", "name:en": "Causeway Bay (Sun Wui Road)", "name:zh": "\u9285\u947c\u7063\uff08\u65b0\u6703\u9053\uff09", "public_transport": "station"}}, {"type": "node", "id": 7975658800, "lat": 22.280673, "lon": 114.1835761, "tags": {"amenity": "bus_station", "bus": "yes", "minibus": "yes", "name": "\u9285\u947c\u7063\uff08\u5d07\u5149\uff09 Causeway Bay (SOGO)", "name:en": "Causeway Bay (SOGO)", "name:zh": "\u9285\u947c\u7063\uff08\u5d07\u5149\uff09", "operator": "\u9032\u667a\u516c\u4ea4 AMS", "public_transport": "station", "route_ref": "69X"}}, {"type": "node", "id": 7975658801, "lat": 22.2803677, "lon": 114.1821273, "tags": {"amenity": "bus_station", "bus": "yes", "name": "\u9d5d\u9838\u6a4b\u5c0f\u5df4\u7e3d\u7ad9 Canal Road Flyover Minibus Terminus", "name:en": "Canal Road Flyover Minibus Terminus", "name:zh": "\u9d5d\u9838\u6a4b\u5c0f\u5df4\u7e3d\u7ad9", "public_transport": "station", "route_ref": "\u7063\u5b98", "share_taxi": "yes"}}, {"type": "node", "id": 7975737392, "lat": 22.2849282, "lon": 114.213599, "tags": {"amenity": "bus_station", "bus": "yes", "minibus": "yes", "name": "\u9c02\u9b5a\u6d8c\uff08\u8239\u5862\u91cc\uff09 Quarry Bay (Dockyard Lane)", "name:en": "Quarry Bay (Dockyard Lane)", "name:zh": "\u9c02\u9b5a\u6d8c\uff08\u8239\u5862\u91cc\uff09", "public_transport": "station", "route_ref": "69"}}, {"type": "node", "id": 7988407042, "lat": 22.2564917, "lon": 114.1384958, "tags": {"amenity": "bus_station", "bus": "yes", "name": "\u7f6e\u5bcc\u5f91 Chi Fu Close", "name:en": "Chi Fu Close", "name:zh": "\u7f6e\u5bcc\u5f91", "public_transport": "station"}}, {"type": "node", "id": 7988407043, "lat": 22.2818277, "lon": 114.1269817, "tags": {"amenity": "bus_station", "bus": "yes", "name": "\u897f\u74b0\uff08\u5351\u8def\u4e4d\u8857\uff09 Kennedy Town (Davis Street)", "name:en": "Kennedy Town (Davis Street)", "name:zh": "\u897f\u74b0\uff08\u5351\u8def\u4e4d\u8857\uff09", "public_transport": "station"}}, {"type": "node", "id": 7988407044, "lat": 22.2812289, "lon": 114.1271299, "tags": {"amenity": "bus_station", "bus": "yes", "name": "\u5805\u5c3c\u5730\u57ce\uff08\u79d1\u58eb\u8857\uff09 Kennedy Town (Forbes Street)", "name:en": "Kennedy Town (Forbes Street)", "name:zh": "\u5805\u5c3c\u5730\u57ce\uff08\u79d1\u58eb\u8857\uff09", "public_transport": "station", "share_taxi": "yes"}}, {"type": "node", "id": 8000089682, "lat": 22.2797872, "lon": 114.1286255, "tags": {"amenity": "bus_station", "bus": "yes", "minibus": "yes", "name": "\u897f\u74b0\uff08\u89c0\u9f8d\u6a13\uff09 Sai Wan (Kwun Lung Lau)", "name:en": "Sai Wan (Kwun Lung Lau)", "name:zh": "\u897f\u74b0\uff08\u89c0\u9f8d\u6a13\uff09", "public_transport": "station"}}, {"type": "node", "id": 8000141822, "lat": 22.2811963, "lon": 114.1252955, "tags": {"amenity": "bus_station", "bus": "yes", "minibus": "yes", "name": "\u897f\u74b0\uff08\u52a0\u60e0\u6c11\u9053\uff09 Sai Wan (Ka Wai Man Road)", "name:en": "Sai Wan (Ka Wai Man Road)", "name:zh": "\u897f\u74b0\uff08\u52a0\u60e0\u6c11\u9053\uff09", "public_transport": "station"}}, {"type": "node", "id": 8000151611, "lat": 22.2812764, "lon": 114.1287375, "tags": {"amenity": "bus_station", "bus": "yes", "name": "\u5805\u5c3c\u5730\u57ce\u7ad9 Kennedy Town Station", "name:en": "Kennedy Town Station", "name:zh": "\u5805\u5c3c\u5730\u57ce\u7ad9", "public_transport": "station"}}, {"type": "node", "id": 8123621993, "lat": 22.2922442, "lon": 114.2002525}, {"type": "node", "id": 8123621994, "lat": 22.2922507, "lon": 114.2002914}, {"type": "node", "id": 8123621995, "lat": 22.2918725, "lon": 114.2003808}, {"type": "node", "id": 8123621996, "lat": 22.291852, "lon": 114.200463}, {"type": "node", "id": 8123621997, "lat": 22.2917129, "lon": 114.2004984}, {"type": "node", "id": 8123621998, "lat": 22.2916768, "lon": 114.200333}, {"type": "node", "id": 8123621999, "lat": 22.2917219, "lon": 114.2003232}, {"type": "node", "id": 8123622000, "lat": 22.2917489, "lon": 114.2004569}, {"type": "node", "id": 8123622001, "lat": 22.2918234, "lon": 114.2004374}, {"type": "node", "id": 8123622002, "lat": 22.2918365, "lon": 114.2003737}, {"type": "node", "id": 8123622003, "lat": 22.2916654, "lon": 114.2002197}, {"type": "node", "id": 8123622004, "lat": 22.2912651, "lon": 114.2003135}, {"type": "node", "id": 8123622005, "lat": 22.2915066, "lon": 114.2014921}, {"type": "node", "id": 8123622006, "lat": 22.2913322, "lon": 114.2015337}, {"type": "node", "id": 8123622007, "lat": 22.2912208, "lon": 114.2009972}, {"type": "node", "id": 8123622008, "lat": 22.2911691, "lon": 114.2010104}, {"type": "node", "id": 8123622009, "lat": 22.2910356, "lon": 114.2010419}, {"type": "node", "id": 8123622010, "lat": 22.2910149, "lon": 114.2009413}, {"type": "node", "id": 8123622011, "lat": 22.2909509, "lon": 114.2009576}, {"type": "node", "id": 8123622012, "lat": 22.2907094, "lon": 114.2008022}, {"type": "node", "id": 8123622013, "lat": 22.2906417, "lon": 114.2004829}, {"type": "node", "id": 8123622014, "lat": 22.291091, "lon": 114.2003777}, {"type": "node", "id": 8123622015, "lat": 22.2910369, "lon": 114.2001127}, {"type": "node", "id": 8123622016, "lat": 22.2912169, "lon": 114.2000699}, {"type": "node", "id": 8123634217, "lat": 22.2912582, "lon": 114.2002786}, {"type": "node", "id": 8123634218, "lat": 22.2916766, "lon": 114.200177}, {"type": "node", "id": 8123634219, "lat": 22.2918668, "lon": 114.2003453}, {"type": "node", "id": 8123634220, "lat": 22.2919679, "lon": 114.2003201}, {"type": "node", "id": 8123634221, "lat": 22.2919632, "lon": 114.2002945}, {"type": "node", "id": 8123634222, "lat": 22.2918604, "lon": 114.2003201}, {"type": "node", "id": 8123634223, "lat": 22.2918563, "lon": 114.2002968}, {"type": "node", "id": 8123634224, "lat": 22.2919863, "lon": 114.2002646}, {"type": "node", "id": 8123634225, "lat": 22.2920625, "lon": 114.2002979}, {"type": "node", "id": 8123634229, "lat": 22.2860763, "lon": 114.2165557}, {"type": "node", "id": 8123634230, "lat": 22.2860772, "lon": 114.2166126}, {"type": "node", "id": 8123634231, "lat": 22.285923, "lon": 114.2166136}, {"type": "node", "id": 8123634232, "lat": 22.2858496, "lon": 114.2167437}, {"type": "node", "id": 8123634233, "lat": 22.2858459, "lon": 114.2170455}, {"type": "node", "id": 8123634234, "lat": 22.2857988, "lon": 114.2170486}, {"type": "node", "id": 8123634235, "lat": 22.2857988, "lon": 114.2167345}, {"type": "node", "id": 8123634236, "lat": 22.285228, "lon": 114.2164967}, {"type": "node", "id": 8123634237, "lat": 22.2847295, "lon": 114.2166746}, {"type": "node", "id": 8123634238, "lat": 22.2847267, "lon": 114.2169053}, {"type": "node", "id": 8123634239, "lat": 22.2848217, "lon": 114.2169043}, {"type": "node", "id": 8123634240, "lat": 22.2851951, "lon": 114.2170323}, {"type": "node", "id": 8123634241, "lat": 22.2853042, "lon": 114.216828}, {"type": "node", "id": 8123634242, "lat": 22.2853248, "lon": 114.216826}, {"type": "node", "id": 8123634243, "lat": 22.2853926, "lon": 114.2168728}, {"type": "node", "id": 8123634244, "lat": 22.2853361, "lon": 114.2169622}, {"type": "node", "id": 8123634245, "lat": 22.2852882, "lon": 114.2170659}, {"type": "node", "id": 8123634246, "lat": 22.2855346, "lon": 114.2171502}, {"type": "node", "id": 8123634247, "lat": 22.2855769, "lon": 114.2171492}, {"type": "node", "id": 8123634248, "lat": 22.2855769, "lon": 114.2172295}, {"type": "node", "id": 8123634249, "lat": 22.2855336, "lon": 114.2172315}, {"type": "node", "id": 8123634250, "lat": 22.2855317, "lon": 114.217196}, {"type": "node", "id": 8123634251, "lat": 22.2848283, "lon": 114.216953}, {"type": "node", "id": 8123634252, "lat": 22.2847277, "lon": 114.216953}, {"type": "node", "id": 8123634253, "lat": 22.2847211, "lon": 114.2177285}, {"type": "node", "id": 8123634254, "lat": 22.2845461, "lon": 114.2177275}, {"type": "node", "id": 8123634255, "lat": 22.2845461, "lon": 114.216953}, {"type": "node", "id": 8123634256, "lat": 22.2843609, "lon": 114.216953}, {"type": "node", "id": 8123634257, "lat": 22.2843646, "lon": 114.2167305}, {"type": "node", "id": 8123634258, "lat": 22.2844697, "lon": 114.2167294}, {"type": "node", "id": 8123634259, "lat": 22.2844702, "lon": 114.2168441}, {"type": "node", "id": 8123634260, "lat": 22.2844103, "lon": 114.2168444}, {"type": "node", "id": 8123634261, "lat": 22.2844103, "lon": 114.2169054}, {"type": "node", "id": 8123634262, "lat": 22.2845485, "lon": 114.2169039}, {"type": "node", "id": 8123634263, "lat": 22.2845563, "lon": 114.2154967}, {"type": "node", "id": 8123634264, "lat": 22.2843547, "lon": 114.2154944}, {"type": "node", "id": 8123634265, "lat": 22.2843622, "lon": 114.215014}, {"type": "node", "id": 8123634266, "lat": 22.2844735, "lon": 114.215013}, {"type": "node", "id": 8123634267, "lat": 22.2844735, "lon": 114.2150513}, {"type": "node", "id": 8123634268, "lat": 22.2843936, "lon": 114.2150499}, {"type": "node", "id": 8123634269, "lat": 22.2843961, "lon": 114.2154524}, {"type": "node", "id": 8123634270, "lat": 22.2845543, "lon": 114.2154455}, {"type": "node", "id": 8123634271, "lat": 22.2845564, "lon": 114.2152071}, {"type": "node", "id": 8123634272, "lat": 22.2847353, "lon": 114.2152063}, {"type": "node", "id": 8123634273, "lat": 22.2847353, "lon": 114.2154462}, {"type": "node", "id": 8123634274, "lat": 22.2847802, "lon": 114.2154462}, {"type": "node", "id": 8123634275, "lat": 22.2847813, "lon": 114.2153577}, {"type": "node", "id": 8123634276, "lat": 22.2847916, "lon": 114.2152863}, {"type": "node", "id": 8123634277, "lat": 22.2848086, "lon": 114.2152131}, {"type": "node", "id": 8123634278, "lat": 22.2848294, "lon": 114.2151611}, {"type": "node", "id": 8123634279, "lat": 22.2848608, "lon": 114.2151311}, {"type": "node", "id": 8123634280, "lat": 22.2848986, "lon": 114.2151153}, {"type": "node", "id": 8123634281, "lat": 22.2849223, "lon": 114.2151159}, {"type": "node", "id": 8123634282, "lat": 22.2849399, "lon": 114.2151203}, {"type": "node", "id": 8123634283, "lat": 22.2849647, "lon": 114.2151302}, {"type": "node", "id": 8123634284, "lat": 22.2849772, "lon": 114.2151407}, {"type": "node", "id": 8123634285, "lat": 22.2850982, "lon": 114.2151757}, {"type": "node", "id": 8123634286, "lat": 22.2850844, "lon": 114.2152283}, {"type": "node", "id": 8123634287, "lat": 22.2849466, "lon": 114.2151874}, {"type": "node", "id": 8123634288, "lat": 22.2849167, "lon": 114.2152887}, {"type": "node", "id": 8123634289, "lat": 22.2848953, "lon": 114.2152843}, {"type": "node", "id": 8123634290, "lat": 22.2848964, "lon": 114.2155055}, {"type": "node", "id": 8123634291, "lat": 22.2847349, "lon": 114.215505}, {"type": "node", "id": 8123634292, "lat": 22.2847305, "lon": 114.2166181}, {"type": "node", "id": 8123634293, "lat": 22.2852278, "lon": 114.2164372}, {"type": "node", "id": 8123634294, "lat": 22.285823, "lon": 114.2166893}, {"type": "node", "id": 8123634295, "lat": 22.2859024, "lon": 114.2165548}, {"type": "node", "id": 8123634296, "lat": 22.283228, "lon": 114.2208963}, {"type": "node", "id": 8123634297, "lat": 22.283336, "lon": 114.2210551}, {"type": "node", "id": 8123634298, "lat": 22.2820243, "lon": 114.2220832}, {"type": "node", "id": 8123634299, "lat": 22.2822246, "lon": 114.2223775}, {"type": "node", "id": 8123634300, "lat": 22.2822317, "lon": 114.2223729}, {"type": "node", "id": 8123634301, "lat": 22.2822495, "lon": 114.2223983}, {"type": "node", "id": 8123634302, "lat": 22.2819202, "lon": 114.2226579}, {"type": "node", "id": 8123634303, "lat": 22.2817028, "lon": 114.2223413}, {"type": "node", "id": 8123634304, "lat": 22.2814427, "lon": 114.2225446}, {"type": "node", "id": 8123634305, "lat": 22.2813358, "lon": 114.2223867}, {"type": "node", "id": 8123634306, "lat": 22.2797756, "lon": 114.2288416}, {"type": "node", "id": 8123634307, "lat": 22.2797743, "lon": 114.2290551}, {"type": "node", "id": 8123634308, "lat": 22.2797684, "lon": 114.2290756}, {"type": "node", "id": 8123634309, "lat": 22.2797608, "lon": 114.2290977}, {"type": "node", "id": 8123634310, "lat": 22.2797576, "lon": 114.229117}, {"type": "node", "id": 8123634311, "lat": 22.2797619, "lon": 114.2291369}, {"type": "node", "id": 8123634312, "lat": 22.27977, "lon": 114.2291567}, {"type": "node", "id": 8123634313, "lat": 22.2797732, "lon": 114.2291725}, {"type": "node", "id": 8123634314, "lat": 22.2797721, "lon": 114.2291923}, {"type": "node", "id": 8123634315, "lat": 22.2797667, "lon": 114.2292081}, {"type": "node", "id": 8123634316, "lat": 22.2797624, "lon": 114.2292303}, {"type": "node", "id": 8123634317, "lat": 22.2797635, "lon": 114.2292466}, {"type": "node", "id": 8123634318, "lat": 22.2797716, "lon": 114.2292729}, {"type": "node", "id": 8123634319, "lat": 22.2797797, "lon": 114.229288}, {"type": "node", "id": 8123634320, "lat": 22.2797873, "lon": 114.2293202}, {"type": "node", "id": 8123634321, "lat": 22.2797889, "lon": 114.2293324}, {"type": "node", "id": 8123634322, "lat": 22.2797889, "lon": 114.229347}, {"type": "node", "id": 8123634323, "lat": 22.2797927, "lon": 114.2293686}, {"type": "node", "id": 8123634324, "lat": 22.2797981, "lon": 114.2293779}, {"type": "node", "id": 8123634325, "lat": 22.2798154, "lon": 114.2293949}, {"type": "node", "id": 8123634326, "lat": 22.2798299, "lon": 114.2294112}, {"type": "node", "id": 8123634327, "lat": 22.279837, "lon": 114.2294252}, {"type": "node", "id": 8123634328, "lat": 22.2798461, "lon": 114.2294457}, {"type": "node", "id": 8123634329, "lat": 22.2798548, "lon": 114.229469}, {"type": "node", "id": 8123634330, "lat": 22.2798629, "lon": 114.2294813}, {"type": "node", "id": 8123634331, "lat": 22.2798802, "lon": 114.2294894}, {"type": "node", "id": 8123634332, "lat": 22.2799142, "lon": 114.229514}, {"type": "node", "id": 8123634333, "lat": 22.2800033, "lon": 114.2295828}, {"type": "node", "id": 8123634334, "lat": 22.2801206, "lon": 114.229657}, {"type": "node", "id": 8123634335, "lat": 22.2802399, "lon": 114.2297177}, {"type": "node", "id": 8123634336, "lat": 22.2803739, "lon": 114.2297726}, {"type": "node", "id": 8123634337, "lat": 22.280463, "lon": 114.2297994}, {"type": "node", "id": 8123634338, "lat": 22.2804511, "lon": 114.2298519}, {"type": "node", "id": 8123634339, "lat": 22.2803156, "lon": 114.2298052}, {"type": "node", "id": 8123634340, "lat": 22.2802432, "lon": 114.2297749}, {"type": "node", "id": 8123634341, "lat": 22.2801735, "lon": 114.2297428}, {"type": "node", "id": 8123634342, "lat": 22.2800903, "lon": 114.2296967}, {"type": "node", "id": 8123634343, "lat": 22.2800066, "lon": 114.2296441}, {"type": "node", "id": 8123634344, "lat": 22.2799353, "lon": 114.2295933}, {"type": "node", "id": 8123634345, "lat": 22.2798661, "lon": 114.2295385}, {"type": "node", "id": 8123634346, "lat": 22.2797884, "lon": 114.2294807}, {"type": "node", "id": 8123634347, "lat": 22.2797505, "lon": 114.2294544}, {"type": "node", "id": 8123634348, "lat": 22.2795426, "lon": 114.2295501}, {"type": "node", "id": 8123634349, "lat": 22.2792946, "lon": 114.2294369}, {"type": "node", "id": 8123634350, "lat": 22.2794119, "lon": 114.2295589}, {"type": "node", "id": 8123634351, "lat": 22.279447, "lon": 114.2295887}, {"type": "node", "id": 8123634352, "lat": 22.2796268, "lon": 114.2297294}, {"type": "node", "id": 8123634353, "lat": 22.2797397, "lon": 114.2298076}, {"type": "node", "id": 8123634354, "lat": 22.279797, "lon": 114.2298374}, {"type": "node", "id": 8123634355, "lat": 22.279838, "lon": 114.2298572}, {"type": "node", "id": 8123634356, "lat": 22.2798218, "lon": 114.2298922}, {"type": "node", "id": 8123634357, "lat": 22.2797808, "lon": 114.2298735}, {"type": "node", "id": 8123634358, "lat": 22.2796895, "lon": 114.2298169}, {"type": "node", "id": 8123634359, "lat": 22.279642, "lon": 114.2297836}, {"type": "node", "id": 8123634360, "lat": 22.2795744, "lon": 114.229734}, {"type": "node", "id": 8123634361, "lat": 22.279481, "lon": 114.229664}, {"type": "node", "id": 8123634362, "lat": 22.2794086, "lon": 114.2296097}, {"type": "node", "id": 8123634363, "lat": 22.2792476, "lon": 114.2294392}, {"type": "node", "id": 8123634364, "lat": 22.2791272, "lon": 114.2301882}, {"type": "node", "id": 8123634365, "lat": 22.2789484, "lon": 114.2301543}, {"type": "node", "id": 8123634366, "lat": 22.27903, "lon": 114.2296581}, {"type": "node", "id": 8123634367, "lat": 22.2789198, "lon": 114.2296395}, {"type": "node", "id": 8123634368, "lat": 22.2788798, "lon": 114.2298806}, {"type": "node", "id": 8123634369, "lat": 22.2788019, "lon": 114.2298719}, {"type": "node", "id": 8123634370, "lat": 22.2788158, "lon": 114.2297369}, {"type": "node", "id": 8123634371, "lat": 22.2787906, "lon": 114.2297352}, {"type": "node", "id": 8123634372, "lat": 22.2787763, "lon": 114.229692}, {"type": "node", "id": 8123634373, "lat": 22.2788206, "lon": 114.2296759}, {"type": "node", "id": 8123634374, "lat": 22.2788592, "lon": 114.2296779}, {"type": "node", "id": 8123634375, "lat": 22.2788722, "lon": 114.2295965}, {"type": "node", "id": 8123634376, "lat": 22.278924, "lon": 114.2296061}, {"type": "node", "id": 8123634377, "lat": 22.2790953, "lon": 114.2285093}, {"type": "node", "id": 8123634378, "lat": 22.278843, "lon": 114.2284626}, {"type": "node", "id": 8123634379, "lat": 22.2788046, "lon": 114.228685}, {"type": "node", "id": 8123634380, "lat": 22.2789478, "lon": 114.228713}, {"type": "node", "id": 8123634381, "lat": 22.2789354, "lon": 114.2287801}, {"type": "node", "id": 8123634382, "lat": 22.2786858, "lon": 114.2287288}, {"type": "node", "id": 8123634383, "lat": 22.2786977, "lon": 114.2286611}, {"type": "node", "id": 8123634384, "lat": 22.2787566, "lon": 114.2286727}, {"type": "node", "id": 8123634385, "lat": 22.2787955, "lon": 114.2284597}, {"type": "node", "id": 8123634386, "lat": 22.278682, "lon": 114.2284416}, {"type": "node", "id": 8123634387, "lat": 22.2786102, "lon": 114.2281812}, {"type": "node", "id": 8123634388, "lat": 22.2786939, "lon": 114.2281549}, {"type": "node", "id": 8123634389, "lat": 22.2787528, "lon": 114.2283873}, {"type": "node", "id": 8123634390, "lat": 22.2791034, "lon": 114.2284474}, {"type": "node", "id": 8123634391, "lat": 22.279112, "lon": 114.2283902}, {"type": "node", "id": 8123634392, "lat": 22.2792325, "lon": 114.2284071}, {"type": "node", "id": 8123634393, "lat": 22.2793513, "lon": 114.2276704}, {"type": "node", "id": 8123634394, "lat": 22.2795285, "lon": 114.2277043}, {"type": "node", "id": 8123634395, "lat": 22.2793131, "lon": 114.2290497}, {"type": "node", "id": 8123634396, "lat": 22.2795002, "lon": 114.2290963}, {"type": "node", "id": 8123634397, "lat": 22.2795099, "lon": 114.2282724}, {"type": "node", "id": 8123634398, "lat": 22.2795364, "lon": 114.2282736}, {"type": "node", "id": 8123634399, "lat": 22.2795299, "lon": 114.2290996}, {"type": "node", "id": 8123634400, "lat": 22.2797314, "lon": 114.2293745}, {"type": "node", "id": 8123634401, "lat": 22.2797168, "lon": 114.2290255}, {"type": "node", "id": 8123634402, "lat": 22.2797163, "lon": 114.2288404}, {"type": "node", "id": 8123634403, "lat": 22.2794977, "lon": 114.229127}, {"type": "node", "id": 8123634404, "lat": 22.2794927, "lon": 114.2292856}, {"type": "node", "id": 8123634405, "lat": 22.2792561, "lon": 114.2293711}, {"type": "node", "id": 8123634406, "lat": 22.2793074, "lon": 114.2290746}, {"type": "node", "id": 8123634407, "lat": 22.2797168, "lon": 114.2294167}, {"type": "node", "id": 8123634408, "lat": 22.2795428, "lon": 114.2295001}, {"type": "node", "id": 8123634409, "lat": 22.2793039, "lon": 114.2293944}, {"type": "node", "id": 8123634410, "lat": 22.2795188, "lon": 114.229308}, {"type": "node", "id": 8123634411, "lat": 22.2795278, "lon": 114.229152}, {"type": "node", "id": 8123634412, "lat": 22.2485286, "lon": 114.1743271}, {"type": "node", "id": 8123634414, "lat": 22.2480749, "lon": 114.1744924}, {"type": "node", "id": 8123634415, "lat": 22.2485602, "lon": 114.1743865}, {"type": "node", "id": 8144963424, "lat": 22.2843673, "lon": 114.1278863}, {"type": "node", "id": 8144963426, "lat": 22.2847312, "lon": 114.1284981}, {"type": "node", "id": 8144963427, "lat": 22.2844765, "lon": 114.1287582}, {"type": "node", "id": 8178818898, "lat": 22.2883967, "lon": 114.1507958}, {"type": "node", "id": 8184127152, "lat": 22.2579513, "lon": 114.1373947, "tags": {"amenity": "bus_station", "bus": "yes", "minibus": "yes", "name": "\u8584\u6276\u6797\u82b1\u5712 Pokfulam Gardens", "name:en": "Pokfulam Gardens", "name:zh": "\u8584\u6276\u6797\u82b1\u5712", "public_transport": "station"}}, {"type": "node", "id": 8211982581, "lat": 22.2707073, "lon": 114.1306448, "tags": {"amenity": "bus_station", "bus": "yes", "minibus": "yes", "name": "\u746a\u9e97\u91ab\u9662 Queen Mary Hospital", "name:en": "Queen Mary Hospital", "name:zh": "\u746a\u9e97\u91ab\u9662", "public_transport": "station", "route_ref": "63"}}, {"type": "node", "id": 8211982583, "lat": 22.2706097, "lon": 114.1306712, "tags": {"amenity": "bus_station", "bus": "yes", "minibus": "yes", "name": "\u746a\u9e97\u91ab\u9662 Queen Mary Hospital", "name:en": "Queen Mary Hospital", "name:zh": "\u746a\u9e97\u91ab\u9662", "public_transport": "station", "route_ref": "55"}}, {"type": "node", "id": 8211982592, "lat": 22.2704609, "lon": 114.1309876, "tags": {"amenity": "bus_station", "bus": "yes", "minibus": "yes", "name": "\u746a\u9e97\u91ab\u9662 Queen Mary Hospital", "name:en": "Queen Mary Hospital", "name:zh": "\u746a\u9e97\u91ab\u9662", "public_transport": "station", "route_ref": "54"}}, {"type": "node", "id": 8212033539, "lat": 22.2691623, "lon": 114.1312291, "tags": {"amenity": "bus_station", "bus": "yes", "minibus": "yes", "name": "\u6559\u6388\u6a13 Professorial Block", "name:en": "Professorial Block", "name:zh": "\u6559\u6388\u6a13", "public_transport": "station", "route_ref": "54"}}, {"type": "node", "id": 8223532022, "lat": 22.2798812, "lon": 114.1806763, "tags": {"amenity": "bus_station", "bus": "yes", "name": "\u7063\u4ed4\uff08\u9d5d\u9838\u6a4b\uff09 Wan Chai (Canal Road)", "name:en": "Wan Chai (Canal Road)", "name:zh": "\u7063\u4ed4\uff08\u9d5d\u9838\u6a4b\uff09", "public_transport": "station", "route_ref": "\u7063\u4ed4\u81f3\u9752\u5c71\u9053"}}, {"type": "node", "id": 8223532023, "lat": 22.2797359, "lon": 114.1807243, "tags": {"amenity": "bus_station", "bus": "yes", "name": "\u7063\u4ed4\uff08\u9d5d\u9838\u6a4b\uff09 Wan Chai (Canal Road)", "name:en": "Wan Chai (Canal Road)", "name:zh": "\u7063\u4ed4\uff08\u9d5d\u9838\u6a4b\uff09", "note": "official hours 19-5 but used 19-0 only", "opening_hours": "19:00-05:00", "public_transport": "station", "route_ref": "\u7063\u4e0a"}}, {"type": "node", "id": 8223536292, "lat": 22.2809915, "lon": 114.1836727, "tags": {"amenity": "bus_station", "bus": "yes", "minibus": "yes", "name": "\u9285\u947c\u7063\uff08\u5d07\u5149\uff09 Causeway Bay (SOGO)", "name:en": "Causeway Bay (SOGO)", "name:zh": "\u9285\u947c\u7063\uff08\u5d07\u5149\uff09", "operator": "\u9032\u667a\u516c\u4ea4 AMS", "public_transport": "station", "route_ref": "4C"}}, {"type": "node", "id": 8223536293, "lat": 22.280666, "lon": 114.1833443, "tags": {"amenity": "bus_station", "bus": "yes", "minibus": "yes", "name": "\u9285\u947c\u7063\uff08\u5d07\u5149\uff09 Causeway Bay (SOGO)", "name:en": "Causeway Bay (SOGO)", "name:zh": "\u9285\u947c\u7063\uff08\u5d07\u5149\uff09", "operator": "\u9032\u667a\u516c\u4ea4 AMS", "public_transport": "station", "route_ref": "N4X"}}, {"type": "node", "id": 8223582199, "lat": 22.2806924, "lon": 114.1856429, "tags": {"amenity": "bus_station", "bus": "yes", "minibus": "yes", "public_transport": "station", "route_ref": "25"}}, {"type": "node", "id": 8308187027, "lat": 22.2829755, "lon": 114.1761456}, {"type": "node", "id": 8308187099, "lat": 22.2819658, "lon": 114.1746948}, {"type": "node", "id": 8308187100, "lat": 22.2819535, "lon": 114.1746192}, {"type": "node", "id": 8308187115, "lat": 22.2819692, "lon": 114.1746571}, {"type": "node", "id": 8396957514, "lat": 22.266262, "lon": 114.2500737}, {"type": "node", "id": 8396957515, "lat": 22.2661199, "lon": 114.2501796}, {"type": "node", "id": 8396957516, "lat": 22.2666008, "lon": 114.2506946}, {"type": "node", "id": 8396961117, "lat": 22.2667007, "lon": 114.2504887}, {"type": "node", "id": 8424436189, "lat": 22.2876618, "lon": 114.1572254}, {"type": "node", "id": 8424436190, "lat": 22.2875196, "lon": 114.1575417}, {"type": "node", "id": 8424436191, "lat": 22.2873119, "lon": 114.1580601}, {"type": "node", "id": 8424436192, "lat": 22.2874552, "lon": 114.1580997}, {"type": "node", "id": 8424436194, "lat": 22.2875986, "lon": 114.1572079}, {"type": "node", "id": 8424436195, "lat": 22.2873734, "lon": 114.1578001}, {"type": "node", "id": 8442336613, "lat": 22.2698214, "lon": 114.184029}, {"type": "node", "id": 8442336614, "lat": 22.269958, "lon": 114.1843374}, {"type": "node", "id": 8442336615, "lat": 22.2697938, "lon": 114.1839539}, {"type": "node", "id": 8442336616, "lat": 22.2700225, "lon": 114.1844769}, {"type": "node", "id": 8442353317, "lat": 22.269868, "lon": 114.1844735}, {"type": "node", "id": 8442353318, "lat": 22.2697184, "lon": 114.1840893}, {"type": "node", "id": 8442353321, "lat": 22.2705506, "lon": 114.1848075}, {"type": "node", "id": 8442353322, "lat": 22.2704128, "lon": 114.1849034}, {"type": "node", "id": 8442353323, "lat": 22.2703005, "lon": 114.1848685}, {"type": "node", "id": 8477613481, "lat": 22.2846737, "lon": 114.1283958}, {"type": "node", "id": 8477613482, "lat": 22.2847347, "lon": 114.1284601}, {"type": "node", "id": 8477613483, "lat": 22.2844351, "lon": 114.1287446}, {"type": "node", "id": 8477613484, "lat": 22.2843516, "lon": 114.1285193}, {"type": "node", "id": 8477613485, "lat": 22.2843913, "lon": 114.1286355}, {"type": "node", "id": 8477613486, "lat": 22.2843094, "lon": 114.128371}, {"type": "node", "id": 8477649082, "lat": 22.2880579, "lon": 114.15652}, {"type": "node", "id": 8477649091, "lat": 22.2873263, "lon": 114.159334}, {"type": "node", "id": 8477649094, "lat": 22.2870815, "lon": 114.1601143}, {"type": "node", "id": 8477649099, "lat": 22.2870631, "lon": 114.160171}, {"type": "node", "id": 8477649103, "lat": 22.286371, "lon": 114.161998}, {"type": "node", "id": 8477649112, "lat": 22.2860212, "lon": 114.1622639}, {"type": "node", "id": 8477649116, "lat": 22.2861678, "lon": 114.1630033}, {"type": "node", "id": 8477675117, "lat": 22.2862497, "lon": 114.1629121}, {"type": "node", "id": 8477675118, "lat": 22.2862425, "lon": 114.162954}, {"type": "node", "id": 8477675119, "lat": 22.28622, "lon": 114.1629848}, {"type": "node", "id": 8477675120, "lat": 22.2861856, "lon": 114.1630018}, {"type": "node", "id": 8477675121, "lat": 22.2861464, "lon": 114.1629991}, {"type": "node", "id": 8477675122, "lat": 22.2861109, "lon": 114.1629735}, {"type": "node", "id": 8481394738, "lat": 22.2871661, "lon": 114.1600725}, {"type": "node", "id": 8481394740, "lat": 22.2877367, "lon": 114.1602923}, {"type": "node", "id": 8481394741, "lat": 22.2877586, "lon": 114.1603392}, {"type": "node", "id": 8481394742, "lat": 22.2876549, "lon": 114.1605317}, {"type": "node", "id": 8481394743, "lat": 22.2877013, "lon": 114.1605166}, {"type": "node", "id": 8481394744, "lat": 22.2876954, "lon": 114.1605263}, {"type": "node", "id": 8481394745, "lat": 22.2876868, "lon": 114.1605332}, {"type": "node", "id": 8481394746, "lat": 22.2876659, "lon": 114.1605358}, {"type": "node", "id": 8481394747, "lat": 22.2877465, "lon": 114.1602961}, {"type": "node", "id": 8481394748, "lat": 22.2877536, "lon": 114.1603021}, {"type": "node", "id": 8481394749, "lat": 22.2877616, "lon": 114.1603193}, {"type": "node", "id": 8481394750, "lat": 22.2877619, "lon": 114.160329}, {"type": "node", "id": 8481394757, "lat": 22.2879905, "lon": 114.1595867}, {"type": "node", "id": 8481394758, "lat": 22.2880146, "lon": 114.1593604}, {"type": "node", "id": 8481394760, "lat": 22.2880258, "lon": 114.1593641}, {"type": "node", "id": 8481394761, "lat": 22.2880387, "lon": 114.1593774}, {"type": "node", "id": 8481394762, "lat": 22.288042, "lon": 114.1593865}, {"type": "node", "id": 8481394763, "lat": 22.287956, "lon": 114.1596077}, {"type": "node", "id": 8481394764, "lat": 22.2879458, "lon": 114.159606}, {"type": "node", "id": 8481394765, "lat": 22.2879851, "lon": 114.1595967}, {"type": "node", "id": 8481394766, "lat": 22.2879768, "lon": 114.1596041}, {"type": "node", "id": 8481394770, "lat": 22.2878355, "lon": 114.1573428}, {"type": "node", "id": 8481394773, "lat": 22.2874397, "lon": 114.1575196}, {"type": "node", "id": 8481394780, "lat": 22.2884451, "lon": 114.1577425}, {"type": "node", "id": 8481394781, "lat": 22.2885052, "lon": 114.157489}, {"type": "node", "id": 8481394782, "lat": 22.2885176, "lon": 114.1575116}, {"type": "node", "id": 8481394785, "lat": 22.2876016, "lon": 114.1582912}, {"type": "node", "id": 8481394786, "lat": 22.2875574, "lon": 114.1584754}, {"type": "node", "id": 8481394787, "lat": 22.2882615, "lon": 114.1584076}, {"type": "node", "id": 8481394788, "lat": 22.2882905, "lon": 114.1584377}, {"type": "node", "id": 8481394789, "lat": 22.2882711, "lon": 114.158412}, {"type": "node", "id": 8481394790, "lat": 22.288287, "lon": 114.1584268}, {"type": "node", "id": 8481394791, "lat": 22.2882456, "lon": 114.1586309}, {"type": "node", "id": 8481394792, "lat": 22.2882019, "lon": 114.1586561}, {"type": "node", "id": 8481394793, "lat": 22.2882132, "lon": 114.1586592}, {"type": "node", "id": 8481394794, "lat": 22.2882378, "lon": 114.1586492}, {"type": "node", "id": 8481394795, "lat": 22.2882306, "lon": 114.1586552}, {"type": "node", "id": 8528940300, "lat": 22.2790136, "lon": 114.1654414}, {"type": "node", "id": 8736436967, "lat": 22.2650894, "lon": 114.2374482}, {"type": "node", "id": 8736436968, "lat": 22.2653713, "lon": 114.2373783}, {"type": "node", "id": 8736436969, "lat": 22.2651626, "lon": 114.2370384}, {"type": "node", "id": 8736436970, "lat": 22.2649727, "lon": 114.2368802}, {"type": "node", "id": 8736436971, "lat": 22.2648168, "lon": 114.2368894}, {"type": "node", "id": 8736436972, "lat": 22.2645684, "lon": 114.2370027}, {"type": "node", "id": 8791680460, "lat": 22.2465195, "lon": 114.1765348, "tags": {"aerialway": "station", "public_transport": "station"}}, {"type": "node", "id": 8791680461, "lat": 22.2465376, "lon": 114.1764294, "tags": {"aerialway": "station", "public_transport": "station"}}, {"type": "node", "id": 8791680464, "lat": 22.2335959, "lon": 114.1725444, "tags": {"aerialway": "station", "name": "\u6d77\u6d0b\u516c\u5712\u767b\u5c71\u7e9c\u8eca Ocean Park cable car Summit", "public_transport": "station"}}, {"type": "node", "id": 8791680465, "lat": 22.2336385, "lon": 114.1724119, "tags": {"aerialway": "station", "name": "\u6d77\u6d0b\u516c\u5712\u767b\u5c71\u7e9c\u8eca Ocean Park cable car Summit", "public_transport": "station"}}, {"type": "node", "id": 8791680467, "lat": 22.2340087, "lon": 114.1728386}, {"type": "node", "id": 8791680468, "lat": 22.2341223, "lon": 114.1723765}, {"type": "node", "id": 8791680469, "lat": 22.2333689, "lon": 114.172655}, {"type": "node", "id": 8791680470, "lat": 22.2334826, "lon": 114.1721929}, {"type": "node", "id": 8791680471, "lat": 22.2468026, "lon": 114.1759998}, {"type": "node", "id": 8791680472, "lat": 22.2468821, "lon": 114.1762237}, {"type": "node", "id": 8791680473, "lat": 22.2468362, "lon": 114.1765416}, {"type": "node", "id": 8791680474, "lat": 22.2466165, "lon": 114.1767856}, {"type": "node", "id": 8791680475, "lat": 22.246146, "lon": 114.1766636}, {"type": "node", "id": 8791680476, "lat": 22.246295, "lon": 114.1761956}, {"type": "node", "id": 8791680477, "lat": 22.2463589, "lon": 114.1761278}, {"type": "node", "id": 8791680478, "lat": 22.2464452, "lon": 114.1760856}, {"type": "node", "id": 8791680479, "lat": 22.2466102, "lon": 114.1758455}, {"type": "node", "id": 8916273588, "lat": 22.2830544, "lon": 114.176451}, {"type": "node", "id": 9085332216, "lat": 22.2812252, "lon": 114.1283812, "tags": {"name": "\u5805\u5c3c\u5730\u57ce Kennedy Town", "name:en": "Kennedy Town", "name:zh": "\u5805\u5c3c\u5730\u57ce", "network": "MTR", "operator": "\u9999\u6e2f\u9435\u8def\u6709\u9650\u516c\u53f8 MTR Corporation", "platforms": "2", "public_transport": "station", "railway": "station", "ref": "KET", "ref:note": "Common use in MTR app indoor navigation labels, station shop units, etc", "start_date": "2014-12-28", "station": "subway", "subway": "yes", "wikidata": "Q6389697"}}, {"type": "node", "id": 9090016193, "lat": 22.2435291, "lon": 114.1553291}, {"type": "node", "id": 9402463578, "lat": 22.2866878, "lon": 114.153609}, {"type": "node", "id": 9629295637, "lat": 22.286773, "lon": 114.1609976}, {"type": "node", "id": 9629295650, "lat": 22.2886364, "lon": 114.1568003}, {"type": "node", "id": 9629295652, "lat": 22.2877931, "lon": 114.1575229}, {"type": "node", "id": 9629295654, "lat": 22.2875872, "lon": 114.1583512}, {"type": "node", "id": 9629295656, "lat": 22.2873429, "lon": 114.1592747}, {"type": "node", "id": 9629295658, "lat": 22.2882431, "lon": 114.1586414}, {"type": "node", "id": 9629295659, "lat": 22.2882904, "lon": 114.1584494}, {"type": "node", "id": 9629295660, "lat": 22.2873773, "lon": 114.1591519}, {"type": "node", "id": 9629295661, "lat": 22.2880427, "lon": 114.1593962}, {"type": "node", "id": 9629295667, "lat": 22.2864195, "lon": 114.1618726}, {"type": "node", "id": 9629295668, "lat": 22.2867255, "lon": 114.1611235}, {"type": "node", "id": 9630924986, "lat": 22.2865767, "lon": 114.1609842}, {"type": "node", "id": 9630924987, "lat": 22.2867493, "lon": 114.1610603}, {"type": "node", "id": 9630925077, "lat": 22.2866004, "lon": 114.1609215}, {"type": "node", "id": 9630925078, "lat": 22.2865529, "lon": 114.1610474}, {"type": "node", "id": 9630925079, "lat": 22.286212, "lon": 114.1619261}, {"type": "node", "id": 9630925080, "lat": 22.2862606, "lon": 114.1618007}, {"type": "node", "id": 9630925090, "lat": 22.2862262, "lon": 114.1613944}, {"type": "node", "id": 9630925092, "lat": 22.2862621, "lon": 114.1613017}, {"type": "node", "id": 9630925094, "lat": 22.2861949, "lon": 114.161475}, {"type": "node", "id": 9630925095, "lat": 22.2864771, "lon": 114.1613043}, {"type": "node", "id": 9630925096, "lat": 22.2862933, "lon": 114.1612211}, {"type": "node", "id": 9630925104, "lat": 22.2861884, "lon": 114.161987}, {"type": "node", "id": 9630925105, "lat": 22.2860454, "lon": 114.1619223}, {"type": "node", "id": 9630925106, "lat": 22.2866261, "lon": 114.1608568}, {"type": "node", "id": 9630925107, "lat": 22.2861926, "lon": 114.1615424}, {"type": "node", "id": 9630925109, "lat": 22.2871471, "lon": 114.1610953}, {"type": "node", "id": 9630925110, "lat": 22.2870931, "lon": 114.1610714}, {"type": "node", "id": 9630925111, "lat": 22.2870553, "lon": 114.1613378}, {"type": "node", "id": 9630925112, "lat": 22.2870013, "lon": 114.161314}, {"type": "node", "id": 9630925115, "lat": 22.2867015, "lon": 114.1622118}, {"type": "node", "id": 9630925116, "lat": 22.2867935, "lon": 114.1619692}, {"type": "node", "id": 9630925117, "lat": 22.2867395, "lon": 114.1619453}, {"type": "node", "id": 9630925118, "lat": 22.2866475, "lon": 114.1621879}, {"type": "node", "id": 9659973852, "lat": 22.2813216, "lon": 114.1745734}, {"type": "node", "id": 9681896795, "lat": 22.281875, "lon": 114.1754773, "tags": {"crossing": "no", "give_way": "minor", "highway": "give_way", "junction": "separate"}}, {"type": "node", "id": 9713090816, "lat": 22.2813452, "lon": 114.1760613}, {"type": "node", "id": 9713136460, "lat": 22.2816371, "lon": 114.1760745}, {"type": "node", "id": 9713136461, "lat": 22.2816265, "lon": 114.1762713}, {"type": "node", "id": 9737605444, "lat": 22.2819599, "lon": 114.1747404, "tags": {"crossing": "no", "give_way": "minor", "highway": "give_way", "junction": "separate"}}, {"type": "node", "id": 9737605445, "lat": 22.2818838, "lon": 114.1752927}, {"type": "node", "id": 9737609028, "lat": 22.2818787, "lon": 114.1760242}, {"type": "node", "id": 9737609030, "lat": 22.2818719, "lon": 114.1756194}, {"type": "node", "id": 9737609055, "lat": 22.281933, "lon": 114.174886}, {"type": "node", "id": 9737609056, "lat": 22.2818762, "lon": 114.1754253}, {"type": "node", "id": 9739308598, "lat": 22.2816132, "lon": 114.1756895, "tags": {"brand": "\u6e2f\u9435 MTR", "brand:en": "MTR", "brand:ref": "MTR", "brand:zh": "\u6e2f\u9435", "name": "\u6703\u5c55 Exhibition Centre", "name:en": "Exhibition Centre", "name:zh": "\u6703\u5c55", "network": "\u6e2f\u9435 MTR", "network:en": "MTR", "network:ref": "MTR", "network:wikidata": "Q14751", "network:zh": "\u6e2f\u9435", "operator": "\u9999\u6e2f\u9435\u8def\u6709\u9650\u516c\u53f8 MTR Corporation Limited", "operator:en": "MTR Corporation Limited", "operator:wikidata": "Q1479375", "operator:zh": "\u9999\u6e2f\u9435\u8def\u6709\u9650\u516c\u53f8", "owner": "\u4e5d\u5ee3\u9435\u8def\u516c\u53f8 Kowloon-Canton Railway Corporation", "owner:en": "Kowloon-Canton Railway Corporation", "owner:wikidata": "Q838436", "owner:zh": "\u4e5d\u5ee3\u9435\u8def\u516c\u53f8", "ownership": "public", "platforms": "2", "proposed:platforms": "4", "public_transport": "station", "railway": "station", "ref": "EXC", "ref:note": "Common use in MTR app indoor navigation labels, station shop units, etc", "start_date": "2022-05-15", "station": "subway", "subway": "yes"}}, {"type": "node", "id": 9741533499, "lat": 22.2819143, "lon": 114.1750081}, {"type": "node", "id": 9763887312, "lat": 22.283748, "lon": 114.199039}, {"type": "node", "id": 9763887313, "lat": 22.2837302, "lon": 114.198965}, {"type": "node", "id": 9763887314, "lat": 22.2836953, "lon": 114.1989196}, {"type": "node", "id": 9763887315, "lat": 22.2831008, "lon": 114.198778}, {"type": "node", "id": 9763887316, "lat": 22.2837432, "lon": 114.1990806}, {"type": "node", "id": 9763887317, "lat": 22.2833666, "lon": 114.1989576}, {"type": "node", "id": 9763887471, "lat": 22.2909105, "lon": 114.20042}, {"type": "node", "id": 9763887494, "lat": 22.2909746, "lon": 114.200405}, {"type": "node", "id": 9763887511, "lat": 22.2919963, "lon": 114.2003125}, {"type": "node", "id": 9781334308, "lat": 22.2189647, "lon": 114.2130421}, {"type": "node", "id": 9781334316, "lat": 22.2193796, "lon": 114.2130271}, {"type": "node", "id": 9781334318, "lat": 22.2189453, "lon": 114.2130451}, {"type": "node", "id": 9781334327, "lat": 22.2194029, "lon": 114.2130554}, {"type": "node", "id": 9781334357, "lat": 22.2188542, "lon": 114.2130592}, {"type": "node", "id": 9781334376, "lat": 22.2191936, "lon": 114.2130066}, {"type": "node", "id": 9801476082, "lat": 22.2785545, "lon": 114.1656617}, {"type": "node", "id": 9801476083, "lat": 22.278637, "lon": 114.1650743}, {"type": "node", "id": 9801476084, "lat": 22.2783656, "lon": 114.1656307}, {"type": "node", "id": 9801476085, "lat": 22.279517, "lon": 114.1642532}, {"type": "node", "id": 9801476086, "lat": 22.2799622, "lon": 114.1636201}, {"type": "node", "id": 9801476087, "lat": 22.2793165, "lon": 114.1640886}, {"type": "node", "id": 9806787474, "lat": 22.2861731, "lon": 114.162655, "tags": {"access:ferry": "yes", "ferry": "yes", "loc_ref": "9", "name": "\u4e2d\u74b0 Central", "name:en": "Central", "name:zh": "\u4e2d\u74b0", "public_transport": "stop_position", "public_transport:ferry": "yes", "seamark:type": "berth"}}, {"type": "node", "id": 9824199724, "lat": 22.2478266, "lon": 114.1675142, "tags": {"name": "\u9ec3\u7af9\u5751 Wong Chuk Hang", "name:en": "Wong Chuk Hang", "name:zh": "\u9ec3\u7af9\u5751", "network": "MTR", "operator": "\u9999\u6e2f\u9435\u8def\u6709\u9650\u516c\u53f8 MTR Corporation", "public_transport": "station", "railway": "station", "ref": "WCH", "ref:note": "Common use in MTR app indoor navigation labels, station shop units, etc", "station": "subway", "subway": "yes", "wikidata": "Q8031972"}}, {"type": "node", "id": 9897850226, "lat": 22.2864008, "lon": 114.1619211}, {"type": "node", "id": 9933184176, "lat": 22.2453044, "lon": 114.1560708, "tags": {"amenity": "ferry_terminal", "ferry": "yes", "name": "\u9d28\u8137\u6d32\u89c0\u5149\u8222\u8228\u78bc\u982d", "name:zh": "\u9d28\u8137\u6d32\u89c0\u5149\u8222\u8228\u78bc\u982d", "public_transport": "station"}}, {"type": "node", "id": 9959325015, "lat": 22.2789818, "lon": 114.1638284}, {"type": "node", "id": 9959325016, "lat": 22.2791938, "lon": 114.1639939}, {"type": "node", "id": 9959350417, "lat": 22.279169, "lon": 114.1640309}, {"type": "node", "id": 9959350418, "lat": 22.278957, "lon": 114.1638654}, {"type": "node", "id": 10018688722, "lat": 22.2829876, "lon": 114.1761188}, {"type": "node", "id": 10164753966, "lat": 22.2669893, "lon": 114.2453644}, {"type": "node", "id": 10164753967, "lat": 22.2666021, "lon": 114.2457372}, {"type": "node", "id": 10164753968, "lat": 22.2663923, "lon": 114.2456044}, {"type": "node", "id": 10219700134, "lat": 22.2878198, "lon": 114.1530361}, {"type": "node", "id": 10219700147, "lat": 22.283689, "lon": 114.176065}, {"type": "node", "id": 10219705515, "lat": 22.2836819, "lon": 114.1763329}, {"type": "node", "id": 10228308267, "lat": 22.2830282, "lon": 114.1764201}, {"type": "node", "id": 10595713018, "lat": 22.2860118, "lon": 114.1532983}, {"type": "node", "id": 10595713019, "lat": 22.2860224, "lon": 114.1532905}, {"type": "node", "id": 10595713020, "lat": 22.2861168, "lon": 114.1532765}, {"type": "node", "id": 10607466494, "lat": 22.2834211, "lon": 114.1743785, "tags": {"amenity": "ferry_terminal", "ferry": "yes", "name": "\u7063\u4ed4\u516c\u773e\u78bc\u982d Wan Chai Public Pier", "name:en": "Wan Chai Public Pier", "name:zh": "\u7063\u4ed4\u516c\u773e\u78bc\u982d", "public_transport": "station"}}, {"type": "node", "id": 10713385491, "lat": 22.2874185, "lon": 114.1580896}, {"type": "node", "id": 10818863260, "lat": 22.2575889, "lon": 114.1390675}, {"type": "node", "id": 10818863261, "lat": 22.2577383, "lon": 114.1392172}, {"type": "node", "id": 10818863262, "lat": 22.2573488, "lon": 114.13926}, {"type": "way", "id": 9562306, "nodes": [288174251, 2521837823, 73361265, 1953259415, 1953259446, 73591641, 3116216527, 288174254], "tags": {"anthropogenic": "yes", "barrier": "wall", "landform": "coastline", "natural": "coastline", "seamark:shoreline_construction:category": "sea_wall", "seamark:type": "shoreline_construction", "wall": "seawall"}}, {"type": "way", "id": 26305418, "nodes": [288172985, 288172784, 288173054, 288173055, 288172980, 235183944, 288172983, 288172985], "tags": {"amenity": "bus_station", "bus": "yes", "name": "\u4e2d\u74b0 (\u6e2f\u6fb3\u78bc\u982d) Central (Macau Ferry)", "name:en": "Central (Macau Ferry)", "name:zh": "\u4e2d\u74b0 (\u6e2f\u6fb3\u78bc\u982d)", "public_transport": "station"}}, {"type": "way", "id": 26321427, "nodes": [9959350418, 9959350417, 9959325016, 9959325015, 9959350418], "tags": {"amenity": "bus_station", "bus": "yes", "name": "\u91d1\u9418 (\u6dfb\u99ac\u8857) Admiralty (Tamar Street)", "name:en": "Admiralty (Tamar Street)", "name:zh": "\u91d1\u9418 (\u6dfb\u99ac\u8857)", "public_transport": "station", "ref": "TAS"}}, {"type": "way", "id": 28808695, "nodes": [316736125, 316736126, 6038917074, 6038917067, 6038917070, 6038917068, 6038917069, 6038917066, 1136085209, 6038917071, 6038917062, 6038917072, 6038917063, 6038917064, 6038917073, 5586441113, 316736127, 316736128, 316736125], "tags": {"amenity": "bus_station", "area": "yes", "bus": "private", "bus:conditional": "yes @ (franchised)", "minibus": "no", "name": "\u5c0f\u897f\u7063\uff08\u85cd\u7063\u534a\u5cf6\uff09 Siu Sai Wan (Island Resort) Bus Terminus", "name:en": "Siu Sai Wan (Island Resort) Bus Terminus", "name:zh": "\u5c0f\u897f\u7063\uff08\u85cd\u7063\u534a\u5cf6\uff09", "public_transport": "station"}}, {"type": "way", "id": 31821670, "nodes": [9630925104, 9630925105, 9630925107, 356280205, 9630925094, 9630925090, 9630925092, 9630925096, 356280204, 365555694, 356280210, 9630925106, 9630925077, 9630924986, 9630925078, 356280203, 9630925095, 1855205173, 356280206, 9630925080, 9630925079, 9630925104], "tags": {"abutters": "retail", "building": "transportation", "layer": "1", "name": "\u4e2d\u74b0\u78bc\u982d\u9023\u63a5\u5927\u6a13 Central Terminal Building", "name:en": "Central Terminal Building", "name:zh": "\u4e2d\u74b0\u78bc\u982d\u9023\u63a5\u5927\u6a13", "retail": "yes"}}, {"type": "way", "id": 44573967, "nodes": [3897533492, 8477649082, 3076434530, 7765141739, 9629295650, 281657424, 7765141719, 3897533492], "tags": {"abutters": "retail", "area": "yes", "building": "transportation", "building:levels": "3", "ferry": "private", "height": "10", "loc_ref": "2", "man_made": "pier", "name": "\u4e2d\u74b02\u865f\u78bc\u982d Central Pier 2", "name:en": "Central Pier 2", "name:zh": "\u4e2d\u74b02\u865f\u78bc\u982d", "retail": "yes", "seamark:shoreline_construction:category": "pier", "seamark:shoreline_construction:restriction": "restricted_berthing", "seamark:type": "shoreline_construction"}}, {"type": "way", "id": 44574053, "nodes": [3076434528, 9629295652, 365549833, 8481394770, 3076434529, 364861473, 8481394781, 8481394782, 235147875, 8481394780, 3897533490, 3076434528], "tags": {"abutters": "retail", "addr:housename": "\u4e2d\u74b03\u865f\u78bc\u982d Central Pier 3", "addr:housename:en": "Central Pier 3", "addr:housename:zh": "\u4e2d\u74b03\u865f\u78bc\u982d", "addr:street": "\u6c11\u5149\u8857 Man Kwong Street", "addr:street:en": "Man Kwong Street", "addr:street:zh": "\u6c11\u5149\u8857", "addr:suburb": "\u4e2d\u74b0 Central", "addr:suburb:en": "Central", "addr:suburb:zh": "\u4e2d\u74b0", "area": "yes", "building": "transportation", "building:levels": "3", "ferry": "private", "height": "10", "loc_ref": "3", "man_made": "pier", "name": "\u4e2d\u74b03\u865f\u78bc\u982d Central Pier 3", "name:en": "Central Pier 3", "name:zh": "\u4e2d\u74b03\u865f\u78bc\u982d", "retail": "yes", "seamark:shoreline_construction:category": "pier", "seamark:shoreline_construction:restriction": "restricted_berthing", "seamark:type": "shoreline_construction"}}, {"type": "way", "id": 44574055, "nodes": [8481394795, 1317015267, 8481394793, 8481394792, 290651786, 3076434526, 8481394786, 9629295654, 8481394785, 3076434527, 1281244414, 8481394787, 8481394789, 235147970, 8481394790, 8481394788, 9629295659, 8481394791, 9629295658, 8481394794, 8481394795], "tags": {"abutters": "retail", "area": "yes", "building": "transportation", "building:levels": "3", "ferry": "private", "height": "10", "loc_ref": "4", "man_made": "pier", "name": "\u4e2d\u74b04\u865f\u78bc\u982d Central Pier 4", "name:en": "Central Pier 4", "name:zh": "\u4e2d\u74b04\u865f\u78bc\u982d", "retail": "yes", "seamark:shoreline_construction:category": "pier", "seamark:shoreline_construction:restriction": "restricted_berthing", "seamark:type": "shoreline_construction"}}, {"type": "way", "id": 44574066, "nodes": [8481394761, 235148031, 8481394760, 8481394758, 335945800, 235148013, 9629295660, 9629295656, 8477649091, 235148072, 3897533487, 8481394764, 8481394763, 235148052, 8481394766, 8481394765, 8481394757, 9629295661, 8481394762, 8481394761], "tags": {"abutters": "retail", "area": "yes", "building": "transportation", "building:levels": "3", "ferry": "private", "height": "10", "loc_ref": "5", "man_made": "pier", "name": "\u4e2d\u74b05\u865f\u78bc\u982d Central Pier 5", "name:en": "Central Pier 5", "name:zh": "\u4e2d\u74b05\u865f\u78bc\u982d", "retail": "yes", "seamark:shoreline_construction:category": "pier", "seamark:shoreline_construction:restriction": "restricted_berthing", "seamark:type": "shoreline_construction"}}, {"type": "way", "id": 44574108, "nodes": [235216338, 8481394748, 8481394747, 8481394740, 1234318206, 8481394738, 8477649094, 8477649099, 235223716, 3076434522, 426839374, 8481394742, 8481394746, 235223719, 8481394745, 8481394744, 8481394743, 8481394741, 8481394750, 8481394749, 235216338], "tags": {"abutters": "retail", "area": "yes", "building": "transportation", "building:levels": "3", "ferry": "private", "height": "10", "loc_ref": "6", "man_made": "pier", "name": "\u4e2d\u74b06\u865f\u78bc\u982d Central Pier 6", "name:en": "Central Pier 6", "name:zh": "\u4e2d\u74b06\u865f\u78bc\u982d", "retail": "yes", "seamark:shoreline_construction:category": "pier", "seamark:shoreline_construction:restriction": "restricted_berthing", "seamark:type": "shoreline_construction", "wheelchair": "yes", "wheelchair:description": "\u4e0a\u843d\u6642\uff0c\u6e21\u8f2a\u8207\u78bc\u982d\u4e4b\u9593\uff0c\u9700\u8981\u5e6b\u624b\u62ac\u8d77\u3002 When going up or down, between the ferry and the pier, you need to help lift it up."}}, {"type": "way", "id": 174870802, "nodes": [235223709, 235223711, 9630925109, 30745880, 9630925110, 3076434521, 9629295637, 9630924987, 9629295668, 3076434520, 9630925112, 2335541060, 9630925111, 235223709], "tags": {"abutters": "retail", "alt_name": "\u4e2d\u74b07\u865f\u78bc\u982d Central Pier 7", "alt_name:en": "Central Pier 7", "alt_name:zh": "\u4e2d\u74b07\u865f\u78bc\u982d", "area": "yes", "building": "transportation", "building:levels": "3", "contact:phone": "+852-2367-7065", "ferry": "private", "height": "10", "loc_ref": "7", "man_made": "pier", "name": "\u4e2d\u74b0\u5929\u661f\u78bc\u982d Central Star Ferry Pier", "name:en": "Central Star Ferry Pier", "name:zh": "\u4e2d\u74b0\u5929\u661f\u78bc\u982d", "phone": "+852-2367-7065", "retail": "yes", "seamark:shoreline_construction:category": "pier", "seamark:shoreline_construction:restriction": "restricted_berthing", "seamark:type": "shoreline_construction", "short_name": "\u5929\u661f\u78bc\u982d Star Ferry Pier", "short_name:en": "Star Ferry Pier", "short_name:ko": "\uc2a4\ud0c0 \ud398\ub9ac \uc120\ucc29\uc7a5", "short_name:zh": "\u5929\u661f\u78bc\u982d"}}, {"type": "way", "id": 174870804, "nodes": [281657428, 281657427, 7659957217, 9630925116, 9630925117, 2335541059, 9629295667, 9897850226, 8477649103, 3076434519, 9630925118, 9630925115, 281657428], "tags": {"abutters": "retail", "area": "yes", "building": "transportation", "building:levels": "3", "ferry": "private", "height": "10", "loc_ref": "8", "man_made": "pier", "name": "\u4e2d\u74b08\u865f\u78bc\u982d Central Pier 8", "name:en": "Central Pier 8", "name:zh": "\u4e2d\u74b08\u865f\u78bc\u982d", "retail": "yes", "seamark:shoreline_construction:category": "pier", "seamark:shoreline_construction:restriction": "restricted_berthing", "seamark:type": "shoreline_construction"}}, {"type": "way", "id": 184798475, "nodes": [10219700134, 288175158, 288174248, 288174247, 1334208286, 288173473, 6593254441]}, {"type": "way", "id": 184798514, "nodes": [1953259604, 73126903, 72900332, 6239818741, 73790011, 73718671, 73797912, 73238868, 73084216, 288174260], "tags": {"anthropogenic": "yes", "landform": "coastline", "natural": "coastline"}}, {"type": "way", "id": 205358842, "nodes": [2153312696, 2153312695, 1165257835, 1165257542, 1165257224, 1165256880, 2153312724, 2153312689, 2153312692, 2153312683, 2153312697, 2153312717, 2153312703, 2153312677, 2153312696], "tags": {"addr:housenumber": "100", "addr:street": "\u76db\u6cf0\u9053 Shing Tai Road", "building": "train_station", "fixme": "please help improve the 3D mapping of the station, the depot, the residential area, and the mall at individual levels, each level have different shapes and different numbers", "layer": "-1", "level": "0;1", "name": "\u674f\u82b1\u90a8 Heng Fa Chuen", "name:en": "Heng Fa Chuen", "name:zh": "\u674f\u82b1\u90a8", "network": "MTR", "operator": "\u9999\u6e2f\u9435\u8def\u6709\u9650\u516c\u53f8 MTR Corporation", "operator:en": "MTR Corporation", "operator:wikidata": "Q1479375", "operator:zh": "\u9999\u6e2f\u9435\u8def\u6709\u9650\u516c\u53f8", "platforms": "2", "public_transport": "station", "railway": "station", "railway:ref": "HFC", "start_date": "1985-05-31", "station": "subway", "subway": "yes", "wheelchair": "limited", "wikipedia": "zh:\u674f\u82b1\u90a8\u7ad9"}}, {"type": "way", "id": 228769718, "nodes": [32964804, 7611293778, 2374461147, 2374461102, 2374461154, 2374461006, 32946990, 7611300688, 32964802, 2374461111, 2374461016, 2374460984, 2374461107, 5222144173, 7611300687, 7611300686, 32964803, 7611293776, 7611293777, 7611293779, 32964804], "tags": {"area": "yes", "boat": "no", "building": "transportation", "building:levels": "2", "ferry": "private", "foot": "yes", "man_made": "pier", "name": "\u5317\u89d2\uff08\u897f\uff09\u6e21\u8f2a\u78bc\u982d North Point (West) Ferry Pier", "name:en": "North Point (West) Ferry Pier", "name:zh": "\u5317\u89d2\uff08\u897f\uff09\u6e21\u8f2a\u78bc\u982d", "roof:levels": "1", "roof:shape": "flat", "short_name": "\u5317\u89d2\uff08\u897f\uff09 North Point (West)", "short_name:en": "North Point (West)", "short_name:zh": "\u5317\u89d2\uff08\u897f\uff09"}}, {"type": "way", "id": 228769725, "nodes": [2374461015, 2374460981, 2374461151, 2374461086, 2374460965, 2374461136, 673375695, 2374461061, 7611322193, 7611322192, 2374460972, 2374460982, 7611322195, 7611322194, 2374461099, 2374461149, 2374461110, 2374460973, 2374461034, 32964800, 2374461048, 7611300689, 2374461015], "tags": {"area": "yes", "boat": "no", "building": "transportation", "building:levels": "2", "ferry": "private", "foot": "yes", "man_made": "pier", "name": "\u5317\u89d2\uff08\u6771\uff09\u6e21\u8f2a\u78bc\u982d North Point (East) Ferry Pier", "name:en": "North Point (East) Ferry Pier", "name:zh": "\u5317\u89d2\uff08\u6771\uff09\u6e21\u8f2a\u78bc\u982d", "roof:levels": "1", "roof:shape": "flat", "short_name": "\u5317\u89d2\uff08\u6771\uff09 North Point (East)", "short_name:en": "North Point (East)", "short_name:zh": "\u5317\u89d2\uff08\u6771\uff09"}}, {"type": "way", "id": 248775630, "nodes": [3256217833, 3180387950, 2555153009, 2555153011, 2555167187, 2555167189, 2555167188, 2555167186, 2555167180, 2555167185, 2555167184, 2555167182, 2555153013, 2555153007, 3256217830, 3256217834, 3256217831, 3256217832, 6208672615, 3256217833], "tags": {"addr:housenumber": "12N", "addr:street": "\u58eb\u7f8e\u83f2\u8def Smithfield", "area": "yes", "building": "train_station", "layer": "-3", "name": "\u5805\u5c3c\u5730\u57ce Kennedy Town", "name:en": "Kennedy Town", "name:zh": "\u5805\u5c3c\u5730\u57ce", "network": "MTR", "operator": "\u9999\u6e2f\u9435\u8def\u6709\u9650\u516c\u53f8 MTR Corporation", "platforms": "2", "public_transport": "station", "railway": "station", "railway:ref": "KET", "start_date": "2014-12-28", "station": "subway", "subway": "yes", "wikidata": "Q6389697"}}, {"type": "way", "id": 248789530, "nodes": [2555275647, 2555281866, 6950837879, 6950837874, 2555281871, 6950837865, 2555281872, 2555281870, 6950837867, 6950837877, 6950837872, 2555281873, 2555281868, 2555281869, 6950837878, 6950837873, 6950837869, 6950837875, 2555281867, 5507233226, 5507230679, 5507233225, 5507230678, 5507233224, 6950837876, 6950837866, 2521839682, 2555281853, 7141115145, 2555281859, 2555281858, 2555281852, 9402463578, 2555281851, 1705327189, 2555281855, 1613294315, 2555281850, 2555281856, 1613294311, 2555281857, 2555281849, 10595713018, 10595713019, 2555299654, 2555275649, 10595713020, 5507230717, 5507230711, 5507230718, 5507230719, 2555281861, 2555281864, 2555281865, 2555281863, 2555281862, 2555281860, 6950837870, 2555275650, 2555275647], "tags": {"addr:street": "\u5fb7\u8f14\u9053\u4e2d Des Voeux Road Central", "addr:street:en": "Des Voeux Road Central", "addr:street:wikidata": "Q13163706", "addr:street:zh": "\u5fb7\u8f14\u9053\u4e2d", "building": "train_station", "indoor": "corridor", "is_in:en": "Sheung Wan, Central and Western District, Hong Kong Island, Hong Kong", "is_in:zh": "\u9999\u6e2f\u6e2f\u5cf6\u4e2d\u897f\u5340\u4e0a\u74b0", "layer": "-2", "level": "-1", "location": "underground", "name": "\u4e0a\u74b0 Sheung Wan", "name:en": "Sheung Wan", "name:zh": "\u4e0a\u74b0", "network": "MTR", "operator": "\u9999\u6e2f\u9435\u8def\u6709\u9650\u516c\u53f8 MTR Corporation", "platforms": "2", "public_transport": "station", "railway": "station", "railway:ref": "SHW", "start_date": "1986-05-23", "station": "subway", "subway": "yes", "wikidata": "Q15168"}}, {"type": "way", "id": 248794172, "nodes": [2555316408, 2555316409, 2991175202, 1442107002, 2555316412, 2555316410, 2555314548, 2555314550, 2555328373, 2555331017, 2555348134, 2555331019, 2555632178, 2555331020, 2555348135, 2555331018, 2555331024, 2555331025, 2555331026, 2555331027, 2555331028, 2555331029, 6950480953, 2555328374, 2733408433, 2555348142, 6950480957, 6950480950, 2555348141, 2555348138, 2555328368, 2991175222, 2991175224, 2991175249, 3995719718, 3995719715, 2558477890, 2555314552, 2555314551, 2991175231, 2991175220, 6950551045, 6950551042, 2991175204, 2555316408], "tags": {"addr:street": "\u906e\u6253\u9053 Chater Road", "building": "train_station", "fixme": "old name of Chater, Peder; address", "indoor": "corridor", "layer": "-1", "location": "underground", "name": "\u4e2d\u74b0 Central", "name:en": "Central", "name:ko": "\uc13c\ud2b8\ub7f4", "name:zh": "\u4e2d\u74b0", "network": "MTR", "old_name": "\u4e2d\u74b0 Chater", "old_name:en": "Chater", "operator": "\u9999\u6e2f\u9435\u8def\u6709\u9650\u516c\u53f8 MTR Corporation", "platforms": "4", "public_transport": "station", "railway": "station", "railway:ref": "CEN", "start_date": "1982-02-12", "station": "subway", "subway": "yes", "wheelchair": "limited", "wikidata": "Q15166"}}, {"type": "way", "id": 248960443, "nodes": [2556657215, 2556672766, 2556657217, 8528940300, 2556657216, 2556657224, 2556657222, 2556657221, 2556657220, 1234054220, 2556657218, 2556657219, 7142347346, 2556657229, 7142347340, 7142347341, 7142347342, 7142347343, 7142347344, 7142347345, 2556657230, 2556657231, 2556672757, 2556672760, 7142347339, 4159231995, 4159232005, 600716561, 6266858937, 7142347338, 2556657201, 2556657206, 2556657208, 2556657211, 2556657213, 2556657212, 7142347332, 7142347334, 7142347333, 7142347336, 7142347335, 7142347337, 2556657214, 2556657210, 2556676417, 2556676418, 2556676419, 2556657215], "tags": {"brand": "\u6e2f\u9435 MTR", "brand:en": "MTR", "brand:ref": "MTR", "brand:zh": "\u6e2f\u9435", "building": "train_station", "internet_access": "wlan", "internet_access:fee": "no", "internet_access:ssid": "MTR Free Wi\u2014Fi", "layer": "-2", "location": "underground", "name": "\u91d1\u9418 Admiralty", "name:en": "Admiralty", "name:zh": "\u91d1\u9418", "network": "\u6e2f\u9435 MTR", "network:en": "MTR", "network:ref": "MTR", "network:wikidata": "Q14751", "network:zh": "\u6e2f\u9435", "operator": "\u9999\u6e2f\u9435\u8def\u6709\u9650\u516c\u53f8 MTR Corporation Limited", "operator:en": "MTR Corporation Limited", "operator:wikidata": "Q1479375", "operator:zh": "\u9999\u6e2f\u9435\u8def\u6709\u9650\u516c\u53f8", "platforms": "8", "platforms:start_date": "2022-05-14", "public_transport": "station", "railway": "station", "railway:ref": "ADM", "start_date": "1980-02-12", "station": "subway", "subway": "yes", "train": "yes", "train:start_date": "2022-05-14", "was:platforms": "6", "was:platforms:end_date": "2022-05-14", "wikidata": "Q15167"}}, {"type": "way", "id": 248963932, "nodes": [2556690867, 2556690881, 6956932762, 2556752876, 2556752872, 288361303, 2556752878, 2556752874, 2556690871, 2556690874, 2556690886, 2556690893, 2556736136, 6956932743, 6956932746, 2556736124, 2579834508, 1619220273, 2556690889, 6956932748, 2556690887, 6956932750, 6956932745, 5086819797, 5447058900, 2498627367, 6956932747, 6956932752, 6956932754, 4476263512, 6956932757, 6956932760, 2556690885, 2556690883, 2556690878, 2556690867], "tags": {"addr:housenumber": "130-150", "addr:street": "\u8ed2\u5c3c\u8a69\u9053 Hennessy Road", "area": "yes", "building": "train_station", "layer": "-2", "name": "\u7063\u4ed4 Wan Chai", "name:en": "Wan Chai", "name:zh": "\u7063\u4ed4", "network": "MTR", "operator": "\u9999\u6e2f\u9435\u8def\u6709\u9650\u516c\u53f8 MTR Corporation", "platforms": "2", "public_transport": "station", "railway": "station", "railway:ref": "WAC", "start_date": "1985-05-31", "station": "subway", "subway": "yes", "wheelchair": "limited", "wikidata": "Q15811", "wikipedia": "zh:\u7063\u4ed4\u7ad9"}}, {"type": "way", "id": 248971549, "nodes": [2702292254, 2556775269, 2556775237, 2556775241, 2556775240, 2556775242, 2556775243, 2556775245, 7060166415, 1012176477, 2556775244, 2556775246, 2556775247, 2556775250, 2556775248, 2556775265, 2556775255, 2977109842, 2977109844, 2556775256, 2556775257, 2977109015, 2977109853, 2556775261, 2977109496, 2556775263, 2556786620, 2556786618, 2556786608, 2556786612, 2556786614, 2979411624, 2556786616, 2556786613, 2556786617, 2556786610, 2556786606, 2556775236, 6594510974, 2556775268, 2702292253, 2702292254], "tags": {"addr:housenumber": "555", "addr:street": "\u8ed2\u5c3c\u8a69\u9053 Hennessy Road", "addr:street:en": "Hennessy Road", "addr:street:wikidata": "Q5714914", "addr:street:zh": "\u8ed2\u5c3c\u8a69\u9053", "building": "train_station", "layer": "-2", "location": "underground", "man_made": "tunnel", "name": "\u9285\u947c\u7063 Causeway Bay", "name:en": "Causeway Bay", "name:zh": "\u9285\u947c\u7063", "network": "MTR", "operator": "\u9999\u6e2f\u9435\u8def\u6709\u9650\u516c\u53f8 MTR Corporation", "platforms": "2", "public_transport": "station", "railway": "station", "railway:ref": "CAB", "start_date": "1985-05-31", "station": "subway", "subway": "yes", "wheelchair": "yes", "wikidata": "Q2106561", "wikipedia": "zh:\u9285\u947c\u7063\u7ad9"}}, {"type": "way", "id": 248976077, "nodes": [2556822800, 2556822808, 2556822801, 2556822836, 2556822813, 2556822815, 2556822811, 2556822802, 2556822817, 2556822833, 2556822832, 2719228425, 2719228473, 2719228492, 2719228509, 2719228579, 2556822830, 2719228448, 2556822827, 2556822818, 2556822820, 2556822822, 2556822823, 2556822825, 2556822806, 2556822800], "tags": {"addr:housenumber": "1", "addr:street": "\u82f1\u7687\u9053 King's Road", "building": "train_station", "layer": "-2", "location": "underground", "name": "\u5929\u540e Tin Hau", "name:en": "Tin Hau", "name:zh": "\u5929\u540e", "network": "MTR", "operator": "\u9999\u6e2f\u9435\u8def\u6709\u9650\u516c\u53f8 MTR Corporation", "platforms": "2", "public_transport": "station", "railway": "station", "railway:ref": "TIH", "start_date": "1985-05-31", "station": "subway", "subway": "yes", "wikipedia": "zh:\u5929\u540e\u7ad9"}}, {"type": "way", "id": 326860215, "nodes": [3335567804, 3335567802, 3335567799, 2091077141, 3335567800, 3335567804], "tags": {"amenity": "bus_station", "bus": "yes", "bus_stop_ref": "1152D;1152F;1152C;1152B", "name": "\u5805\u5c3c\u5730\u57ce Kennedy Town", "name:en": "Kennedy Town", "name:zh": "\u5805\u5c3c\u5730\u57ce", "public_transport": "station", "ref": "KET", "route_ref:CtB": "5B;5X;10;N8X", "route_ref:KMB": "101;101X;104", "route_ref:NWFB": "101;101X;104", "wikidata": "Q10930538"}}, {"type": "way", "id": 389896949, "nodes": [3930556110, 281657436, 281657438, 8477675122, 1723726347, 8477675121, 8477649116, 8477675120, 1723726350, 8477675119, 1723726352, 8477675118, 1723726354, 8477675117, 281657437, 9806787474, 281657435, 8477649112, 3930556112, 3930556110], "tags": {"area": "yes", "building": "roof", "covered": "yes", "ferry": "private", "height": "6", "loc_ref": "9", "man_made": "pier", "min_height": "5", "name": "\u4e2d\u74b09\u865f\u78bc\u982d Central Pier No.9", "name:en": "Central Pier No.9", "name:zh": "\u4e2d\u74b09\u865f\u78bc\u982d", "roof:height": "1", "roof:material": "glass", "roof:shape": "round", "seamark:shoreline_construction:category": "pier", "seamark:type": "shoreline_construction"}}, {"type": "way", "id": 391176774, "nodes": [3943626147, 6087608209, 6087605820, 6087605818, 6087608208, 4506726720, 3943626137, 8123634412, 8123634414, 4451114829, 8123634415, 3943626150, 4506726721, 6087605817, 6087605819, 3943626152, 3943626147], "tags": {"building": "train_station", "building:levels": "3", "layer": "2", "name": "\u6d77\u6d0b\u516c\u5712 Ocean Park", "name:en": "Ocean Park", "name:zh": "\u6d77\u6d0b\u516c\u5712", "network": "MTR", "operator": "\u9999\u6e2f\u9435\u8def\u6709\u9650\u516c\u53f8 MTR Corporation", "platforms": "2", "public_transport": "station", "railway": "station", "railway:ref": "OCP", "start_date": "2016-12-28", "station": "subway", "subway": "yes", "wheelchair": "yes"}}, {"type": "way", "id": 418204766, "nodes": [2524913792, 2524913823, 2589340143, 2589341266, 2589342015, 4186644173, 4186644171, 4186644177, 4186644163, 2524913792], "tags": {"amenity": "bus_station", "bus": "yes", "minibus": "yes", "name": "\u5317\u89d2\u78bc\u982d\u516c\u5171\u904b\u8f38\u4ea4\u532f\u8655 North Point Ferry Pier Public Transport Interchange", "name:en": "North Point Ferry Pier Public Transport Interchange", "name:zh": "\u5317\u89d2\u78bc\u982d\u516c\u5171\u904b\u8f38\u4ea4\u532f\u8655", "public_transport": "station", "ref:ctb": "NPF", "wikidata": "Q60990430"}}, {"type": "way", "id": 439016631, "nodes": [4366402522, 4366402521, 4366402520, 4366402518, 4366402516, 4366402517, 4366402522], "tags": {"amenity": "bus_station", "bus": "yes", "minibus": "yes", "name": "\u8d64\u67f1\u5ee3\u5834\uff08\u99ac\u5751\uff09 Stanley Plaza (Ma Hang)", "name:en": "Stanley Plaza (Ma Hang)", "name:zh": "\u8d64\u67f1\u5ee3\u5834\uff08\u99ac\u5751\uff09", "official_name": "\u99ac\u5751\u90a8\u516c\u5171\u904b\u8f38\u4ea4\u532f\u8655 Ma Hang Estate Public Transport Interchange", "official_name:en": "Ma Hang Estate Public Transport Interchange", "official_name:zh": "\u99ac\u5751\u90a8\u516c\u5171\u904b\u8f38\u4ea4\u532f\u8655", "public_transport": "station", "ref": "MAH", "ref:ctb": "MAH"}}, {"type": "way", "id": 439019970, "nodes": [4366480893, 4366480896, 4366480899, 9781334316, 9781334327, 4366480900, 4366480897, 4366480892, 4366480891, 9781334357, 9781334318, 9781334308, 9781334376, 4366480890, 4366480893], "tags": {"alt_name": "\u8d64\u67f1\u5e02\u5834 Stanley Market", "alt_name:en": "Stanley Market", "alt_name:zh": "\u8d64\u67f1\u5e02\u5834", "amenity": "bus_station", "bus": "yes", "name": "\u8d64\u67f1\u6751 Stanley Village", "name:en": "Stanley Village", "name:zh": "\u8d64\u67f1\u6751", "public_transport": "station"}}, {"type": "way", "id": 453033606, "nodes": [7280129507, 4498404913, 7280129501, 4498404920, 4498404925, 4498404927, 4498404929, 7280129512, 7280129511, 7280129510, 7280129509, 7280129508, 4498404924, 4498404921, 7280129502, 7280129503, 7280129504, 7280129505, 7280129506, 7280129507], "tags": {"amenity": "bus_station", "bus": "yes", "name": "\u9285\u947c\u7063\uff08\u6469\u9813\u53f0\uff09 Causeway Bay (Moreton Terrace)", "name:en": "Causeway Bay (Moreton Terrace)", "name:zh": "\u9285\u947c\u7063\uff08\u6469\u9813\u53f0\uff09", "public_transport": "station", "ref": "MOT", "ref:hkbus": "\u9285\u947c\u7063 (\u6469\u9813\u53f0) \u7e3d\u7ad9", "wikidata": "Q15897960"}}, {"type": "way", "id": 454133893, "nodes": [4507531576, 4507531577, 4507531595, 4507610435, 4507610438, 4607207030, 4607207032, 4607207044, 4607207016, 4507610437, 4507610439, 4607207036, 4607207053, 4507610442, 4607207028, 4507610441, 4607207050, 4507610434, 4507531594, 4507531578, 4507531579, 4507531585, 4507610433, 9090016193, 7822283521, 4507610431, 4507531598, 7818488718, 7818472279, 4507610432, 4507531586, 4507531576], "tags": {"building": "train_station", "layer": "-2", "name": "\u5229\u6771 Lei Tung", "name:en": "Lei Tung", "name:zh": "\u5229\u6771", "network": "MTR", "operator": "\u9999\u6e2f\u9435\u8def\u6709\u9650\u516c\u53f8 MTR Corporation", "platforms": "2", "public_transport": "station", "railway": "station", "railway:ref": "LET", "start_date": "2016-12-28", "station": "subway", "subway": "yes", "wheelchair": "yes", "wikidata": "Q6519035"}}, {"type": "way", "id": 454158470, "nodes": [4507655685, 4507659167, 4507655904, 4507655905, 4507655906, 4507655907, 4507655908, 4507655686, 4507655687, 4507655688, 4507655889, 4576671402, 4576671403, 4507655892, 4507655893, 4507655921, 4507655922, 4507655894, 4507655895, 4507655898, 5148459276, 4507659162, 4507655899, 4507655919, 4507655897, 4507659163, 5148459277, 4507655896, 4507655916, 4507655917, 4507655918, 4507655911, 4507655915, 4507655914, 5148459275, 4507655912, 5148459278, 4507655909, 4507655903, 4507659166, 4507655902, 4507655920, 4507655685], "tags": {"building": "train_station", "internet_access": "yes", "layer": "-2", "location": "underground", "name": "\u6d77\u6021\u534a\u5cf6 South Horizons", "name:en": "South Horizons", "name:zh": "\u6d77\u6021\u534a\u5cf6", "network": "MTR", "operator": "\u9999\u6e2f\u9435\u8def\u6709\u9650\u516c\u53f8 MTR Corporation", "platforms": "2", "public_transport": "station", "railway": "station", "railway:ref": "SOH", "start_date": "2016-12-28", "station": "subway", "subway": "yes", "wheelchair": "yes", "wikidata": "Q7567503"}}, {"type": "way", "id": 479977919, "nodes": [1005422336, 4730058733, 4730058734, 4730058736, 1005422336], "tags": {"access:bus": "private", "amenity": "bus_station", "bus": "yes", "bus:conditional": "yes @ (franchised)", "level": "0", "name": "\u7b72\u7b95\u7063 Shau Kei Wan", "name:en": "Shau Kei Wan", "name:zh": "\u7b72\u7b95\u7063", "public_transport": "station", "public_transport:bus": "yes", "station": "bus"}}, {"type": "way", "id": 480868877, "nodes": [4738226179, 8308187100, 8308187115, 8308187099, 9737605444, 9737609055, 9741533499, 4738226188, 9737605445, 9737609056, 9681896795, 9737609030, 9737609028, 4738226187, 290330940, 9713136461, 9713136460, 9713090816, 4738226182, 4738226184, 9659973852, 5382734305, 4738226183, 4738226179], "tags": {"access:bus": "private", "alt_ref:ctb": "3415", "amenity": "bus_station", "bus": "yes", "bus_stop:ref:ctb": "3415", "name": "\u6703\u5c55\u7ad9 Exhibition Centre Station", "name:en": "Exhibition Centre Station", "name:zh": "\u6703\u5c55\u7ad9", "official_name": "\u6703\u5c55\u7ad9\u516c\u5171\u904b\u8f38\u4ea4\u532f\u8655 Exhibition Centre Station Public Transport Interchange", "official_name:en": "Exhibition Centre Station Public Transport Interchange", "official_name:zh": "\u6703\u5c55\u7ad9\u516c\u5171\u904b\u8f38\u4ea4\u532f\u8655", "public_transport": "station", "public_transport:bus": "yes", "ref:ctb": "EXC", "ref:kmb": "EX01-T", "shelter": "yes", "start_date": "2022-05-14", "station": "bus", "station:ref:ctb": "EXC", "taxi": "yes", "toilets": "separate"}}, {"type": "way", "id": 492839530, "nodes": [4848091232, 7084879238, 4848091233, 4848091234, 7084879239, 4848091235, 4848091232], "tags": {"addr:street": "\u592a\u5eb7\u8857 Tai Hong Street", "addr:street:en": "Tai Hong Street", "addr:street:zh": "\u592a\u5eb7\u8857", "amenity": "ferry_terminal", "building": "yes", "building:levels": "1", "ferry": "yes", "name": "\u897f\u7063\u6cb3\u6e21\u8f2a\u78bc\u982d Sai Wan Ho Ferry Pier", "name:en": "Sai Wan Ho Ferry Pier", "name:zh": "\u897f\u7063\u6cb3\u6e21\u8f2a\u78bc\u982d", "public_transport": "station", "wikidata": "Q7399832"}}, {"type": "way", "id": 636324517, "nodes": [6000875417, 6000875422, 6000875419, 6000875421, 6000875420, 6000875410, 6000875411, 6000875409, 4833194196, 6000875417], "tags": {"area": "yes", "description": "Peak Tram Terminal", "description:en": "Peak Tram Terminal", "description:ru": "\u0422\u043e\u0447\u043a\u0430 \u043f\u043e\u0441\u0430\u0434\u043a\u0438 \u043d\u0430 \u0442\u0440\u0430\u043c\u0432\u0430\u0439\u0447\u0438\u043a \u0434\u043e \u041f\u0438\u043a\u0430 \u0412\u0438\u043a\u0442\u043e\u0440\u0438\u0438.", "description:zh": "\u5c71\u9802\u7e9c\u8eca\u7e3d\u7ad9", "funicular": "yes", "landuse": "railway", "name": "\u82b1\u5712\u9053 Garden Road", "name:en": "Garden Road", "name:zh": "\u82b1\u5712\u9053", "operator": "\u5c71\u9802\u7e9c\u8eca\u6709\u9650\u516c\u53f8 Peak Tramways Company Limited", "operator:en": "Peak Tramways Company Limited", "operator:owner": "\u9999\u6e2f\u4e0a\u6d77\u5927\u9152\u5e97\u6709\u9650\u516c\u53f8 Hongkong and Shanghai Hotels Limited", "operator:owner:en": "Hongkong and Shanghai Hotels Limited", "operator:owner:zh": "\u9999\u6e2f\u4e0a\u6d77\u5927\u9152\u5e97\u6709\u9650\u516c\u53f8", "operator:zh": "\u5c71\u9802\u7e9c\u8eca\u6709\u9650\u516c\u53f8", "owner": "\u5c71\u9802\u7e9c\u8eca\u6709\u9650\u516c\u53f8 Peak Tramways Company Limited", "owner:en": "Peak Tramways Company Limited", "owner:owner": "\u9999\u6e2f\u4e0a\u6d77\u5927\u9152\u5e97\u6709\u9650\u516c\u53f8 Hongkong and Shanghai Hotels Limited", "owner:owner:en": "Hongkong and Shanghai Hotels Limited", "owner:owner:zh": "\u9999\u6e2f\u4e0a\u6d77\u5927\u9152\u5e97\u6709\u9650\u516c\u53f8", "owner:zh": "\u5c71\u9802\u7e9c\u8eca\u6709\u9650\u516c\u53f8", "public_transport": "station", "railway": "station", "tourism": "yes", "wikidata": "Q5522306"}}, {"type": "way", "id": 820386832, "nodes": [7660469182, 7660469181, 7660469180, 7660469179, 7660469182], "tags": {"access:minibus": "permit", "addr:street": "\u5821\u58d8\u8857 Fort Street", "addr:street:en": "Fort Street", "addr:street:zh": "\u5821\u58d8\u8857", "addr:suburb": "\u5317\u89d2 North Point", "addr:suburb:en": "North Point", "addr:suburb:zh": "\u5317\u89d2", "amenity": "bus_station", "bus": "minibus", "designation": "\u6e2f\u5cf6\u5c08\u7dab\u5c0f\u5df4 Hong Kong Island Green Minibus", "designation:en": "Hong Kong Island Green Minibus", "designation:zh": "\u6e2f\u5cf6\u5c08\u7dab\u5c0f\u5df4", "minibus": "yes", "name": "\u5317\u89d2 (\u5821\u58d8\u8857) North Point (Fort Street)", "name:en": "North Point (Fort Street)", "name:zh": "\u5317\u89d2 (\u5821\u58d8\u8857)", "operator:ownership": "private", "public_transport": "station", "public_transport:minibus": "yes", "route:designation": "\u6e2f\u5cf6\u5c08\u7dab\u5c0f\u5df4 Hong Kong Island Green Minibus", "route:designation:en": "Hong Kong Island Green Minibus", "route:designation:zh": "\u6e2f\u5cf6\u5c08\u7dab\u5c0f\u5df4", "route:ref": "65", "route_ref": "65"}}, {"type": "way", "id": 872195824, "nodes": [8123621993, 2303356543, 8123621994, 8123621995, 8123621996, 8123621997, 8123621998, 8123621999, 8123622000, 8123622001, 8123622002, 8123622003, 8123622004, 8123622005, 8123622006, 8123622007, 8123622008, 8123622009, 8123622010, 8123622011, 2566102950, 8123622012, 8123622013, 9763887471, 9763887494, 8123622014, 8123622015, 8123622016, 8123634217, 8123634218, 8123634219, 6876936124, 8123634220, 8123634221, 8123634222, 3413857798, 8123634223, 8123634224, 9763887511, 8123634225, 8123621993], "tags": {"building": "train_station", "layer": "-1", "network": "MTR", "operator": "\u9999\u6e2f\u9435\u8def\u6709\u9650\u516c\u53f8 MTR Corporation", "public_transport": "station", "railway": "station", "station": "subway", "subway": "yes", "wikidata": "Q838864"}}, {"type": "way", "id": 872195825, "nodes": [8123634229, 8123634230, 8123634231, 8123634232, 8123634233, 8123634234, 8123634235, 8123634236, 8123634237, 8123634238, 8123634239, 8123634240, 8123634241, 8123634242, 8123634243, 8123634244, 8123634245, 8123634246, 8123634247, 8123634248, 8123634249, 8123634250, 8123634251, 8123634252, 8123634253, 8123634254, 8123634255, 8123634256, 8123634257, 8123634258, 8123634259, 8123634260, 8123634261, 8123634262, 8123634263, 8123634264, 8123634265, 8123634266, 8123634267, 8123634268, 8123634269, 8123634270, 8123634271, 8123634272, 8123634273, 8123634274, 8123634275, 8123634276, 8123634277, 8123634278, 8123634279, 8123634280, 8123634281, 8123634282, 8123634283, 8123634284, 8123634285, 8123634286, 8123634287, 8123634288, 8123634289, 8123634290, 8123634291, 8123634292, 8123634293, 8123634294, 8123634295, 8123634229], "tags": {"building": "train_station", "layer": "-1", "network": "MTR", "operator": "\u9999\u6e2f\u9435\u8def\u6709\u9650\u516c\u53f8 MTR Corporation", "public_transport": "station", "railway": "station", "station": "subway", "subway": "yes", "wikidata": "Q838774"}}, {"type": "way", "id": 872195826, "nodes": [8123634296, 8123634297, 8123634298, 8123634299, 8123634300, 8123634301, 8123634302, 8123634303, 8123634304, 8123634305, 8123634296], "tags": {"building": "train_station", "layer": "-1", "network": "MTR", "operator": "\u9999\u6e2f\u9435\u8def\u6709\u9650\u516c\u53f8 MTR Corporation", "public_transport": "station", "railway": "station", "station": "subway", "subway": "yes", "wikidata": "Q838777"}}, {"type": "way", "id": 872195827, "nodes": [8123634306, 8123634307, 8123634308, 8123634309, 8123634310, 8123634311, 8123634312, 8123634313, 8123634314, 8123634315, 8123634316, 8123634317, 8123634318, 8123634319, 8123634320, 8123634321, 8123634322, 8123634323, 8123634324, 8123634325, 8123634326, 8123634327, 8123634328, 8123634329, 8123634330, 8123634331, 8123634332, 8123634333, 8123634334, 8123634335, 8123634336, 8123634337, 8123634338, 8123634339, 8123634340, 8123634341, 8123634342, 8123634343, 8123634344, 8123634345, 8123634346, 8123634347, 8123634348, 8123634349, 8123634350, 8123634351, 8123634352, 8123634353, 8123634354, 8123634355, 8123634356, 8123634357, 8123634358, 8123634359, 8123634360, 8123634361, 8123634362, 8123634363, 8123634364, 8123634365, 8123634366, 8123634367, 8123634368, 8123634369, 8123634370, 8123634371, 8123634372, 8123634373, 8123634374, 8123634375, 8123634376, 8123634377, 8123634378, 8123634379, 8123634380, 8123634381, 8123634382, 8123634383, 8123634384, 8123634385, 8123634386, 8123634387, 8123634388, 8123634389, 8123634390, 8123634391, 8123634392, 8123634393, 8123634394, 8123634395, 8123634396, 8123634397, 8123634398, 8123634399, 8123634400, 8123634401, 8123634402, 8123634306]}, {"type": "way", "id": 872195828, "nodes": [8123634403, 8123634404, 8123634405, 8123634406, 8123634403], "tags": {"area": "yes"}}, {"type": "way", "id": 872195829, "nodes": [8123634407, 8123634408, 8123634409, 8123634410, 8123634411, 8123634407], "tags": {"area": "yes"}}, {"type": "way", "id": 875004398, "nodes": [293571667, 8477613486, 8477613484, 8477613485, 8477613483, 8144963427, 8144963426, 8477613482, 8477613481, 7115813631, 8144963424, 293571667], "tags": {"access:bus": "private", "amenity": "bus_station", "bus": "yes", "name": "\u5805\u5c3c\u5730\u57ce\uff08\u5351\u8def\u4e4d\u7063\uff09 Kennedy Town (Belcher Bay)", "name:en": "Kennedy Town (Belcher Bay)", "name:zh": "\u5805\u5c3c\u5730\u57ce\uff08\u5351\u8def\u4e4d\u7063\uff09", "public_transport": "station", "public_transport:bus": "yes", "ref": "BEB"}}, {"type": "way", "id": 904134709, "nodes": [8396961117, 8396957516, 8396957515, 8396957514, 8396961117], "tags": {"amenity": "bus_station", "bus": "yes", "minibus": "yes", "name": "\u5c0f\u897f\u7063\uff08\u85cd\u7063\u534a\u5cf6\uff09 Siu Sai Wan (Island Resort)", "name:en": "Siu Sai Wan (Island Resort)", "name:zh": "\u5c0f\u897f\u7063\uff08\u85cd\u7063\u534a\u5cf6\uff09", "public_transport": "station", "taxi": "yes"}}, {"type": "way", "id": 907227667, "nodes": [8424436189, 8424436194, 8424436190, 8481394773, 8424436195, 8424436191, 10713385491, 8424436192, 8424436189], "tags": {"building": "transportation", "layer": "2"}}, {"type": "way", "id": 909255669, "nodes": [8442353318, 8442353317, 8442336616, 8442336614, 8442336613, 8442336615, 8442353318], "tags": {"brand": "\u9999\u6e2f\u96fb\u8eca Hong Kong Tramways", "brand:en": "Hong Kong Tramways", "brand:wikidata": "Q385245", "brand:zh": "\u9999\u6e2f\u96fb\u8eca", "name": "\u8dd1\u99ac\u5730\u7e3d\u7ad9 Happy Valley Terminus", "name:en": "Happy Valley Terminus", "name:zh": "\u8dd1\u99ac\u5730\u7e3d\u7ad9", "network": "\u9999\u6e2f\u96fb\u8eca Hong Kong Tramways", "network:en": "Hong Kong Tramways", "network:wikidata": "Q385245", "network:zh": "\u9999\u6e2f\u96fb\u8eca", "operation": "private", "operator": "\u9999\u6e2f\u96fb\u8eca\u6709\u9650\u516c\u53f8 Hongkong Tramways Limited", "operator:en": "Hongkong Tramways Limited", "operator:ownership": "private", "operator:wikidata": "Q15902782", "operator:zh": "\u9999\u6e2f\u96fb\u8eca\u6709\u9650\u516c\u53f8", "owner": "\u9999\u6e2f\u96fb\u8eca\u6709\u9650\u516c\u53f8 Hongkong Tramways Limited", "owner:en": "Hongkong Tramways Limited", "owner:wikidata": "Q15902782", "owner:zh": "\u9999\u6e2f\u96fb\u8eca\u6709\u9650\u516c\u53f8", "ownership": "private", "public_transport": "station", "railway": "station", "railway:ref": "HVT", "shelter": "yes", "supervised": "yes", "tram": "yes"}}, {"type": "way", "id": 909255672, "nodes": [1012752035, 8442353323, 8442353322, 8442353321, 1012752035], "tags": {"amenity": "bus_station", "brand": "\u57ce\u5df4 Citybus", "brand:en": "Citybus", "brand:zh": "\u57ce\u5df4", "bus": "yes", "bus:conditional": "yes @ (franchised)", "landuse": "highway", "name": "\u8dd1\u99ac\u5730 (\u4e0b) Happy Valley (Lower)", "name:en": "Happy Valley (Lower)", "name:zh": "\u8dd1\u99ac\u5730 (\u4e0b)", "network": "\u57ce\u5df4 Citybus;\u65b0\u5df4 NWFB", "network:en": "Citybus;NWFB", "network:zh": "\u57ce\u5df4;\u65b0\u5df4", "operation": "private", "operator": "\u57ce\u5df4\u6709\u9650\u516c\u53f8 Citybus Limited", "operator:en": "Citybus Limited", "operator:ownership": "private", "operator:wikidata": "Q5124055", "operator:zh": "\u57ce\u5df4\u6709\u9650\u516c\u53f8", "ownership": "government", "public_transport": "station", "ref": "HVL", "wikidata": "Q15914105"}}, {"type": "way", "id": 943558488, "nodes": [6143085248, 8736436972, 8736436971, 8736436970, 8736436969, 8736436968, 8736436967, 6143085248], "tags": {"amenity": "bus_station", "bus": "private", "bus:conditional": "yes @ (franchised)", "covered": "partial", "minibus": "private", "minibus:conditional": "yes @ (public AND scheduled)", "name": "\u67f4\u7063\u7ad9 Chai Wan Station", "name:en": "Chai Wan Station", "name:zh": "\u67f4\u7063\u7ad9", "official_name": "\u67f4\u7063\u7ad9\u516c\u5171\u904b\u8f38\u4ea4\u532f\u8655 Chai Wan Station Public Transport Interchange", "official_name:en": "Chai Wan Station Public Transport Interchange", "official_name:short_name": "Chai Wan Station PTI", "official_name:short_name:en": "Chai Wan Station PTI", "official_name:zh": "\u67f4\u7063\u7ad9\u516c\u5171\u904b\u8f38\u4ea4\u532f\u8655", "public_transport": "station", "shelter": "yes"}}, {"type": "way", "id": 949698613, "nodes": [8791680470, 8791680468, 8791680467, 8791680469, 8791680470], "tags": {"aerialway": "station", "gondola": "yes", "name": "\u9ad8\u5cf0 Summit", "name:en": "Summit", "name:zh": "\u9ad8\u5cf0", "public_transport": "station", "station": "gondola"}}, {"type": "way", "id": 949698614, "nodes": [8791680479, 8791680478, 8791680477, 8791680476, 8791680475, 8791680474, 8791680473, 8791680472, 8791680471, 8791680479], "tags": {"aerialway": "station", "gondola": "yes", "name": "\u6d77\u6ff1 Waterfront", "name:en": "Waterfront", "name:zh": "\u6d77\u6ff1", "public_transport": "station", "station": "gondola"}}, {"type": "way", "id": 1062860757, "nodes": [9763887312, 9763887313, 9763887314, 7252400932, 7252400931, 7252400936, 9763887315, 5480601625, 5480601624, 9763887317, 5480601621, 5480526020, 9763887316, 9763887312], "tags": {"amenity": "bus_station", "area": "yes", "building": "no", "bus": "yes", "name": "\u5bf6\u99ac\u5c71 Braemar Hill", "name:en": "Braemar Hill", "name:zh": "\u5bf6\u99ac\u5c71", "public_transport": "station", "ref": "BRH"}}, {"type": "way", "id": 1067577421, "nodes": [508016200, 9801476083, 9801476082, 9801476084, 508016200], "tags": {"access:bus": "private", "alt_ref": "1138", "alt_ref:ctb": "1138", "amenity": "bus_station", "bus": "yes", "bus:conditional": "yes @ (franchised)", "bus_stop:ref:ctb": "1138", "covered": "yes", "name": "\u91d1\u9418 (\u6771\uff09 Admiralty (East)", "name:en": "Admiralty (East)", "name:zh": "\u91d1\u9418 (\u6771\uff09", "operation": "government", "ownership": "government", "public_transport": "station", "public_transport:bus": "yes", "ref": "ADE", "ref:ctb": "ADE", "station": "bus", "station:ref:ctb": "ADE", "wikidata": "Q4683749"}}, {"type": "way", "id": 1067577422, "nodes": [508016700, 9801476086, 9801476085, 9801476087, 508016700], "tags": {"access:bus": "private", "alt_ref": "1139", "alt_ref:ctb": "1139", "amenity": "bus_station", "bus": "yes", "bus:conditional": "yes @ (franchised)", "bus_stop:ref:ctb": "1139", "name": "\u91d1\u9418 (\u897f\uff09 Admiralty (West)", "name:en": "Admiralty (West)", "name:zh": "\u91d1\u9418 (\u897f\uff09", "operation": "government", "ownership": "government", "public_transport": "station", "public_transport:bus": "yes", "ref": "ADW", "ref:ctb": "ADW", "station": "bus", "station:ref:ctb": "ADE", "wheelchair": "yes"}}, {"type": "way", "id": 1110947423, "nodes": [7783165053, 10164753968]}, {"type": "way", "id": 1110947424, "nodes": [1166459170, 7783165053]}, {"type": "way", "id": 1110947426, "nodes": [10164753968, 10164753967, 10164753966, 1166459170]}, {"type": "way", "id": 1117392680, "nodes": [288174264, 288174265]}, {"type": "way", "id": 1117392681, "nodes": [288174254, 1953259604]}, {"type": "way", "id": 1117392683, "nodes": [288174261, 288174262], "tags": {"anthropogenic": "yes", "barrier": "wall", "landform": "coastline", "natural": "coastline", "seamark:shoreline_construction:category": "sea_wall", "seamark:type": "shoreline_construction", "wall": "seawall"}}, {"type": "way", "id": 1117392688, "nodes": [288174263, 288174264], "tags": {"anthropogenic": "yes", "barrier": "wall", "landform": "coastline", "natural": "coastline", "seamark:shoreline_construction:category": "sea_wall", "seamark:type": "shoreline_construction", "wall": "seawall"}}, {"type": "way", "id": 1117392689, "nodes": [288174262, 72889948, 73307288, 73248682, 73657736, 288174263], "tags": {"anthropogenic": "yes", "barrier": "wall", "landform": "coastline", "natural": "coastline", "seamark:shoreline_construction:category": "sea_wall", "seamark:type": "shoreline_construction", "wall": "seawall"}}, {"type": "way", "id": 1117392690, "nodes": [6593254441, 8178818898, 1705682797]}, {"type": "way", "id": 1117392691, "nodes": [288174249, 1953259341, 10219700134]}, {"type": "way", "id": 1117392694, "nodes": [288174265, 1705682797], "tags": {"anthropogenic": "yes", "landform": "coastline", "natural": "coastline"}}, {"type": "way", "id": 1117392698, "nodes": [288174249, 288174250], "tags": {"anthropogenic": "yes", "landform": "coastline", "natural": "coastline"}}, {"type": "way", "id": 1117392701, "nodes": [288174260, 288174261]}, {"type": "way", "id": 1117392703, "nodes": [288174250, 288174251]}, {"type": "way", "id": 1118341910, "nodes": [8916273588, 2689662113, 2689661535], "tags": {"anthropogenic": "yes", "barrier": "wall", "landform": "coastline", "natural": "coastline", "seamark:shoreline_construction:category": "sea_wall", "seamark:type": "shoreline_construction", "wall": "seawall"}}, {"type": "way", "id": 1118341911, "nodes": [232221512, 6973440323], "tags": {"anthropogenic": "yes", "barrier": "wall", "landform": "coastline", "natural": "coastline", "seamark:shoreline_construction:category": "sea_wall", "seamark:type": "shoreline_construction", "wall": "seawall"}}, {"type": "way", "id": 1118341912, "nodes": [6973440323, 10018688722, 8308187027, 3049050709, 10228308267, 8916273588]}, {"type": "way", "id": 1118341925, "nodes": [2689661535, 3897533532, 10219705515, 3049050714, 6973440339, 6973440332, 6973440337, 6973440333, 6973440338, 6973440334, 6973440336, 6973440335, 2689660078, 6973440331, 6973440327, 6973440329, 6973440326, 6973440330, 6973440325, 6973440328, 6973440324, 2689659200, 10219700147, 290330686, 3049050712, 232221512], "tags": {"anthropogenic": "yes", "landform": "coastline", "natural": "coastline"}}, {"type": "way", "id": 1163293987, "nodes": [10818863262, 2093261191, 10818863261, 10818863260, 10818863262], "tags": {"alt_name": "\u7f6e\u5bcc\u82b1\u5712 Chi Fu Fa Yuen", "alt_name:en": "Chi Fu Fa Yuen", "alt_name:zh": "\u7f6e\u5bcc\u82b1\u5712", "amenity": "bus_station", "bus": "yes", "name": "\u7f6e\u5bcc Chi Fu", "name:en": "Chi Fu", "name:zh": "\u7f6e\u5bcc", "public_transport": "station", "ref": "CFF"}}, {"type": "relation", "id": 2462122, "members": [{"type": "way", "ref": 184798475, "role": "outer"}, {"type": "way", "ref": 1117392691, "role": "outer"}, {"type": "way", "ref": 1117392698, "role": "outer"}, {"type": "way", "ref": 1117392703, "role": "outer"}, {"type": "way", "ref": 9562306, "role": "outer"}, {"type": "way", "ref": 1117392681, "role": "outer"}, {"type": "way", "ref": 184798514, "role": "outer"}, {"type": "way", "ref": 1117392701, "role": "outer"}, {"type": "way", "ref": 1117392683, "role": "outer"}, {"type": "way", "ref": 1117392689, "role": "outer"}, {"type": "way", "ref": 1117392688, "role": "outer"}, {"type": "way", "ref": 1117392680, "role": "outer"}, {"type": "way", "ref": 1117392694, "role": "outer"}, {"type": "way", "ref": 1117392690, "role": "outer"}], "tags": {"access:ferry": "private", "addr:housename": "\u4fe1\u5fb7\u4e2d\u5fc3 Shun Tak Centre", "addr:housename:en": "Shun Tak Centre", "addr:housename:zh": "\u4fe1\u5fb7\u4e2d\u5fc3", "addr:street": "\u5e72\u8afe\u9053\u4e2d Connaught Road Central", "addr:street:en": "Connaught Road Central", "addr:street:zh": "\u5e72\u8afe\u9053\u4e2d", "amenity": "ferry_terminal", "ferry": "yes", "importance": "regional", "name": "\u6e2f\u6fb3\u5ba2\u904b\u78bc\u982d Hong Kong-Macau Ferry Terminal", "name:en": "Hong Kong-Macau Ferry Terminal", "name:zh": "\u6e2f\u6fb3\u5ba2\u904b\u78bc\u982d", "nohousenumber": "separate", "passenger": "international", "public_transport": "station", "public_transport:ferry": "yes", "shop": "mall", "short_name": "\u6e2f\u6fb3\u78bc\u982d Macau Ferry", "short_name:en": "Macau Ferry", "short_name:zh": "\u6e2f\u6fb3\u78bc\u982d", "station": "ferry", "type": "multipolygon", "wikidata": "Q3207485", "wikipedia": "en:Hong Kong\u2013Macau Ferry Terminal"}}, {"type": "relation", "id": 11192539, "members": [{"type": "way", "ref": 228769718, "role": "outer"}, {"type": "way", "ref": 228769725, "role": "outer"}], "tags": {"access:ferry": "private", "addr:suburb": "\u5317\u89d2 North Point", "addr:suburb:en": "North Point", "addr:suburb:zh": "\u5317\u89d2", "amenity": "ferry_terminal", "ferry": "private", "name": "\u5317\u89d2\u6e21\u8f2a\u78bc\u982d North Point Ferry Pier", "name:en": "North Point Ferry Pier", "name:zh": "\u5317\u89d2\u6e21\u8f2a\u78bc\u982d", "public_transport": "station", "public_transport:ferry": "yes", "short_name": "\u5317\u89d2 North Point", "short_name:en": "North Point", "short_name:zh": "\u5317\u89d2", "type": "multipolygon", "wikidata": "Q7056373"}}, {"type": "relation", "id": 11897806, "members": [{"type": "way", "ref": 872195827, "role": "outer"}, {"type": "way", "ref": 872195829, "role": "inner"}, {"type": "way", "ref": 872195828, "role": "inner"}], "tags": {"building": "train_station", "layer": "-1", "network": "MTR", "operator": "\u9999\u6e2f\u9435\u8def\u6709\u9650\u516c\u53f8 MTR Corporation", "public_transport": "station", "railway": "station", "station": "subway", "subway": "yes", "type": "multipolygon", "wikidata": "Q839709"}}, {"type": "relation", "id": 14781124, "members": [{"type": "way", "ref": 1110947423, "role": "outer"}, {"type": "way", "ref": 1110947426, "role": "outer"}, {"type": "way", "ref": 1110947424, "role": "outer"}], "tags": {"access:bus": "private", "alt_name": "\u67f4\u7063\uff08\u6771\uff09\u81e8\u6642\u5df4\u58eb\u7e3d\u7ad9 Chai Wan (East) Temporary Bus Terminus", "alt_name:en": "Chai Wan (East) Temporary Bus Terminus", "alt_name:zh": "\u67f4\u7063\uff08\u6771\uff09\u81e8\u6642\u5df4\u58eb\u7e3d\u7ad9", "alt_ref": "2591", "amenity": "bus_station", "bus": "private", "bus:conditional": "yes @ (franchised)", "bus_stop:ref": "2591", "name": "\u67f4\u7063\uff08\u6771\uff09 Chai Wan (East)", "name:en": "Chai Wan (East)", "name:zh": "\u67f4\u7063\uff08\u6771\uff09", "public_transport": "station", "public_transport:bus": "yes", "ref": "CWE", "ref:ctb": "CWE", "start_date": "2022-11-05", "station": "bus", "station:ref": "CWE", "temporary": "yes", "type": "multipolygon", "wikidata": "Q11110186"}}, {"type": "relation", "id": 14944632, "members": [{"type": "way", "ref": 44573967, "role": "outer"}, {"type": "way", "ref": 44574053, "role": "outer"}, {"type": "way", "ref": 44574055, "role": "outer"}, {"type": "way", "ref": 44574066, "role": "outer"}, {"type": "way", "ref": 44574108, "role": "outer"}, {"type": "way", "ref": 174870802, "role": "outer"}, {"type": "way", "ref": 174870804, "role": "outer"}, {"type": "way", "ref": 389896949, "role": "outer"}, {"type": "way", "ref": 31821670, "role": "outer"}, {"type": "way", "ref": 907227667, "role": "outer"}], "tags": {"access:ferry": "private", "addr:suburb": "\u4e2d\u74b0 Central", "addr:suburb:en": "Central", "addr:suburb:zh": "\u4e2d\u74b0", "amenity": "ferry_terminal", "ferry": "yes", "name": "\u4e2d\u74b0\u78bc\u982d Central Piers", "name:en": "Central Piers", "name:zh": "\u4e2d\u74b0\u78bc\u982d", "official_name": "\u4e2d\u74b0\u6e21\u8f2a\u78bc\u982d Central Ferry Piers", "official_name:en": "Central Ferry Piers", "official_name:zh": "\u4e2d\u74b0\u6e21\u8f2a\u78bc\u982d", "public_transport": "station", "public_transport:ferry": "yes", "ship": "no", "station": "ferry", "type": "multipolygon"}}, {"type": "relation", "id": 14953849, "members": [{"type": "way", "ref": 1118341912, "role": "outer"}, {"type": "way", "ref": 1118341910, "role": "outer"}, {"type": "way", "ref": 1118341925, "role": "outer"}, {"type": "way", "ref": 1118341911, "role": "outer"}], "tags": {"access:ferry": "private", "addr:housename": "\u7063\u4ed4\u78bc\u982d Wan Chai Pier", "addr:housename:en": "Wan Chai Pier", "addr:housename:zh": "\u7063\u4ed4\u78bc\u982d", "addr:suburb": "\u7063\u4ed4 Wan Chai", "addr:suburb:en": "Wan Chai", "addr:suburb:zh": "\u7063\u4ed4", "amenity": "ferry_terminal", "boat": "no", "ferry": "yes", "name": "\u7063\u4ed4\u78bc\u982d Wan Chai Pier", "name:en": "Wan Chai Pier", "name:zh": "\u7063\u4ed4\u78bc\u982d", "no:addr:street": "yes", "official_name": "\u7063\u4ed4\u6e21\u8f2a\u78bc\u982d Wan Chai Ferry Pier", "official_name:en": "Wan Chai Ferry Pier", "official_name:zh": "\u7063\u4ed4\u6e21\u8f2a\u78bc\u982d", "public_transport": "station", "public_transport:ferry": "yes", "ship": "no", "type": "multipolygon"}}]}