{"version": 0.6, "generator": "Overpass API 0.7.60.2 e4cf9f7a", "osm3s": {"timestamp_osm_base": "2023-05-02T19:59:26Z", "copyright": "The data included in this document is from www.openstreetmap.org. The data is made available under ODbL."}, "elements": [{"type": "node", "id": 767261931, "lat": 41.9148731, "lon": 12.4504814, "tags": {"amenity": "nightclub", "name": "Life'85"}}, {"type": "node", "id": 1505428882, "lat": 41.8628138, "lon": 12.4805005}, {"type": "node", "id": 1505428886, "lat": 41.8628349, "lon": 12.4802677}, {"type": "node", "id": 1505428894, "lat": 41.8628817, "lon": 12.4805987}, {"type": "node", "id": 1505428896, "lat": 41.8628895, "lon": 12.480513}, {"type": "node", "id": 1505428912, "lat": 41.8629255, "lon": 12.4802961}, {"type": "node", "id": 1505428913, "lat": 41.8629267, "lon": 12.4802828}, {"type": "node", "id": 1505428937, "lat": 41.8631106, "lon": 12.4804187}, {"type": "node", "id": 1505428941, "lat": 41.8631171, "lon": 12.4803279}, {"type": "node", "id": 1505428942, "lat": 41.863119, "lon": 12.4806376}, {"type": "node", "id": 1505428944, "lat": 41.863124, "lon": 12.4806384}, {"type": "node", "id": 1505428945, "lat": 41.8631318, "lon": 12.4805527}, {"type": "node", "id": 1505428958, "lat": 41.863144, "lon": 12.4805547}, {"type": "node", "id": 1505428960, "lat": 41.8631557, "lon": 12.4804261}, {"type": "node", "id": 1600983246, "lat": 41.8837828, "lon": 12.5314774, "tags": {"addr:city": "Roma", "addr:country": "IT", "addr:housenumber": "3", "addr:street": "Via del Mandrione", "amenity": "nightclub", "culture": "arts_centre", "email": "info@30formiche.it", "name": "30 Formiche", "operator": "Associazione Culturale ARCI", "website": "http://www.30formiche.it"}}, {"type": "node", "id": 1623559926, "lat": 41.8150126, "lon": 12.586686}, {"type": "node", "id": 1623559948, "lat": 41.8159973, "lon": 12.5842837}, {"type": "node", "id": 1623560034, "lat": 41.8149184, "lon": 12.5867946}, {"type": "node", "id": 1623560042, "lat": 41.8155328, "lon": 12.5861411}, {"type": "node", "id": 1623560055, "lat": 41.8166631, "lon": 12.5848979}, {"type": "node", "id": 1623560099, "lat": 41.8159998, "lon": 12.5841033}, {"type": "node", "id": 1623560220, "lat": 41.8160693, "lon": 12.5842112}, {"type": "node", "id": 1623560230, "lat": 41.8161113, "lon": 12.5839913}, {"type": "node", "id": 2244954388, "lat": 41.8953891, "lon": 12.4793833, "tags": {"addr:housenumber": "41", "addr:street": "Via d'Aracoeli", "amenity": "nightclub", "name": "Escopazzo", "source": "+38 96835618", "website": "http://www.escopazzo.it/"}}, {"type": "node", "id": 2244959592, "lat": 41.8994514, "lon": 12.4702273, "tags": {"addr:city": "Roma", "addr:housenumber": "3", "addr:postcode": "00186", "addr:street": "Vicolo del Fico", "amenity": "nightclub", "name": "Level Club", "source": "+39 06 6880 8866", "website": "http://levelroma.eu/"}}, {"type": "node", "id": 2244979909, "lat": 41.9225427, "lon": 12.5117534, "tags": {"addr:housenumber": "2", "addr:street": "Via Bellinzona", "amenity": "nightclub", "name": "The Cotton Club", "source": "+39 349 070 9468", "website": "http://www.cottonclubroma.it/"}}, {"type": "node", "id": 2403686867, "lat": 41.8972795, "lon": 12.5399624, "tags": {"addr:city": "Roma", "addr:housenumber": "212", "addr:postcode": "00159", "addr:street": "Via di Portonaccio", "amenity": "nightclub", "name": "Qube", "phone": "+39 06 438 5445", "website": "qubedisco.com"}}, {"type": "node", "id": 2609654458, "lat": 41.8915751, "lon": 12.5327665, "tags": {"amenity": "nightclub", "name": "Belleville"}}, {"type": "node", "id": 2616968237, "lat": 41.8820355, "lon": 12.5242601, "tags": {"addr:city": "Roma", "addr:country": "IT", "addr:housenumber": "21", "addr:postcode": "00182", "addr:street": "Via Mirandola", "amenity": "nightclub", "email": "28divino@libero.it", "name": "28DiVino Jazz", "website": "http://www.28divino.com"}}, {"type": "node", "id": 2791024986, "lat": 41.875217, "lon": 12.4748616, "tags": {"addr:city": "Roma", "addr:country": "IT", "addr:housenumber": "48b", "addr:street": "Via di Monte Testaccio", "amenity": "nightclub", "name": "Coyote", "opening_hours": "Mo-Su 23:00-05:00", "operator": "moco s.r.l.", "phone": "+39 340 2445874", "website": "http://coyotebar.it"}}, {"type": "node", "id": 2791029489, "lat": 41.8646346, "lon": 12.4814167, "tags": {"amenity": "nightclub", "name": "Saponeria"}}, {"type": "node", "id": 2951049488, "lat": 41.8482906, "lon": 12.5982127, "tags": {"addr:city": "Roma", "addr:housenumber": "10", "addr:postcode": "00173", "addr:street": "Via Bernardino Alimena", "amenity": "nightclub", "cuisine": "pizza", "email": "info@ilbarriolatino.it", "fax": "+39 06 72631926", "name": "Barrio Latino", "phone": "+39 06 72631926", "website": "ilbarriolatino.it"}}, {"type": "node", "id": 3454575257, "lat": 41.8925666, "lon": 12.5383037}, {"type": "node", "id": 4024071466, "lat": 41.9880205, "lon": 12.5206662}, {"type": "node", "id": 4024071467, "lat": 41.9880342, "lon": 12.520621}, {"type": "node", "id": 4024071468, "lat": 41.9881329, "lon": 12.5202926}, {"type": "node", "id": 4024071470, "lat": 41.9881843, "lon": 12.5201218}, {"type": "node", "id": 4024071471, "lat": 41.9882056, "lon": 12.5208058}, {"type": "node", "id": 4024071472, "lat": 41.9882156, "lon": 12.5207724}, {"type": "node", "id": 4024071474, "lat": 41.9882376, "lon": 12.5208232}, {"type": "node", "id": 4024071475, "lat": 41.9882476, "lon": 12.5207901}, {"type": "node", "id": 4024071476, "lat": 41.988303, "lon": 12.5207679}, {"type": "node", "id": 4024071477, "lat": 41.9883146, "lon": 12.5208266}, {"type": "node", "id": 4024071478, "lat": 41.9883282, "lon": 12.5207816}, {"type": "node", "id": 4024071479, "lat": 41.988353, "lon": 12.5204129}, {"type": "node", "id": 4024071482, "lat": 41.9884018, "lon": 12.5204395}, {"type": "node", "id": 4024071483, "lat": 41.9884045, "lon": 12.5202418}, {"type": "node", "id": 4043650691, "lat": 41.8189754, "lon": 12.4647773}, {"type": "node", "id": 4043650704, "lat": 41.8190514, "lon": 12.4645815}, {"type": "node", "id": 4043650711, "lat": 41.8190754, "lon": 12.4651341}, {"type": "node", "id": 4043650712, "lat": 41.8190804, "lon": 12.4645453}, {"type": "node", "id": 4043650713, "lat": 41.8190854, "lon": 12.4645628}, {"type": "node", "id": 4043650714, "lat": 41.8190874, "lon": 12.464721}, {"type": "node", "id": 4043650722, "lat": 41.8191303, "lon": 12.464953}, {"type": "node", "id": 4043650724, "lat": 41.8191423, "lon": 12.4645105}, {"type": "node", "id": 4043650725, "lat": 41.8191443, "lon": 12.4649061}, {"type": "node", "id": 4043650726, "lat": 41.8191603, "lon": 12.4645668}, {"type": "node", "id": 4043650729, "lat": 41.8191803, "lon": 12.4650657}, {"type": "node", "id": 4043650731, "lat": 41.8191843, "lon": 12.4650201}, {"type": "node", "id": 4043650732, "lat": 41.8191883, "lon": 12.4650777}, {"type": "node", "id": 4043650736, "lat": 41.8191973, "lon": 12.4649825}, {"type": "node", "id": 4043650739, "lat": 41.8192003, "lon": 12.4650536}, {"type": "node", "id": 4043650740, "lat": 41.8192043, "lon": 12.4649383}, {"type": "node", "id": 4043650746, "lat": 41.8192213, "lon": 12.4645346}, {"type": "node", "id": 4043650748, "lat": 41.8192303, "lon": 12.4646848}, {"type": "node", "id": 4043650749, "lat": 41.8192303, "lon": 12.4649249}, {"type": "node", "id": 4043650753, "lat": 41.8192433, "lon": 12.4649181}, {"type": "node", "id": 4043650755, "lat": 41.8192543, "lon": 12.4649597}, {"type": "node", "id": 4043650758, "lat": 41.8192573, "lon": 12.4646633}, {"type": "node", "id": 4043650764, "lat": 41.8192693, "lon": 12.464827}, {"type": "node", "id": 4043650782, "lat": 41.8193112, "lon": 12.4648068}, {"type": "node", "id": 4043650789, "lat": 41.8193462, "lon": 12.4649101}, {"type": "node", "id": 4101405570, "lat": 41.7146658, "lon": 12.316224}, {"type": "node", "id": 4101405571, "lat": 41.7145883, "lon": 12.316412}, {"type": "node", "id": 4101405572, "lat": 41.7145055, "lon": 12.3163011}, {"type": "node", "id": 4101405573, "lat": 41.7144872, "lon": 12.3162766}, {"type": "node", "id": 4101405574, "lat": 41.7145142, "lon": 12.3162217}, {"type": "node", "id": 4101405575, "lat": 41.7144837, "lon": 12.316203}, {"type": "node", "id": 4101405576, "lat": 41.7145125, "lon": 12.3161224}, {"type": "node", "id": 4457772839, "lat": 41.926002, "lon": 12.5391813, "tags": {"addr:housenumber": "159", "addr:street": "Via di Pietralata", "amenity": "nightclub", "name": "Lanificio", "phone": "+39 06 4178 0081", "website": "https://www.lanificio.com/"}}, {"type": "node", "id": 4593937395, "lat": 41.9105453, "lon": 12.4734186, "tags": {"addr:city": "Roma", "addr:housenumber": "2", "addr:postcode": "00196", "addr:street": "Via Maria Cristina", "amenity": "nightclub", "entrance": "yes", "name": "Raspoutine Rome", "phone:mobile": "+39 339 6655142"}}, {"type": "node", "id": 4598483005, "lat": 41.9733814, "lon": 12.442172, "tags": {"addr:city": "Roma", "addr:housenumber": "175", "addr:postcode": "00189", "addr:street": "Via di Grottarossa", "amenity": "nightclub", "name": "Studio7 Roma", "phone": "+39 06 3326 3215", "website": "studio7roma.it"}}, {"type": "node", "id": 4805767876, "lat": 41.8994468, "lon": 12.5182211, "tags": {"addr:city": "Roma", "addr:housenumber": "126", "addr:postcode": "00185", "addr:street": "Via dei Volsci", "amenity": "nightclub", "contact:facebook": "https://www.facebook.com/WishlistClub", "live_music": "yes", "music": "live", "name": "Wishlist Club", "phone": "+39 349 7494659"}}, {"type": "node", "id": 4984834225, "lat": 41.8754598, "lon": 12.4765151, "tags": {"addr:city": "Roma", "addr:housenumber": "69", "addr:postcode": "00153", "addr:street": "Via di Monte Testaccio", "amenity": "nightclub", "name": "Akab Club", "name:en": "Akab Club", "name:it": "Akab Club"}}, {"type": "node", "id": 5247115784, "lat": 41.8753581, "lon": 12.47443, "tags": {"addr:housenumber": "34", "addr:street": "Via di Monte Testaccio", "amenity": "nightclub", "name": "L'Alibi", "opening_hours": "We 00:00-04:00; Fr-Sa 00:00-04:00", "phone": "+39 06 574 3448", "website": "http://lalibi.it"}}, {"type": "node", "id": 5296480913, "lat": 41.9096365, "lon": 12.4841416, "tags": {"addr:housenumber": "33", "addr:street": "Viale del Galoppatoio", "amenity": "nightclub", "name": "Art Caf\u00e8", "opening_hours": "Fr-Sa 23:00-06:00", "phone": "340 620 7432"}}, {"type": "node", "id": 5297868390, "lat": 41.9189093, "lon": 12.5011976, "tags": {"addr:city": "Roma", "addr:housenumber": "9", "addr:postcode": "00198", "addr:street": "Via Tagliamento", "amenity": "nightclub", "name": "Piper Club", "opening_hours": "Fr-Sa 20:00-05:00", "phone": "+39 06 855 5398", "website": "https://piperclub.it/", "wikidata": "Q3905504"}}, {"type": "node", "id": 5297884193, "lat": 41.9340494, "lon": 12.4523062, "tags": {"addr:housenumber": "8", "addr:street": "Piazzale dello Stadio Olimpico", "amenity": "nightclub", "name": "Il Bosco delle Fragole", "phone": "+39 06 323 6086", "website": "ilboscodellefragole.it"}}, {"type": "node", "id": 5297884194, "lat": 41.9336962, "lon": 12.4520622, "tags": {"addr:housenumber": "5", "addr:street": "Piazzale dello Stadio Olimpico", "amenity": "nightclub", "name": "Chalet nel Bosco", "phone": "+39 06 323 6086", "website": "chaletnelbosco.it"}}, {"type": "node", "id": 5297890588, "lat": 41.8351657, "lon": 12.4700682, "tags": {"addr:housenumber": "50/52", "addr:street": "Viale della Civilt\u00e0 del Lavoro", "amenity": "nightclub", "name": "Project Roma", "phone": "333 181 8498", "website": "https://projectroma.it/"}}, {"type": "node", "id": 5297903141, "lat": 41.8760501, "lon": 12.4855505, "tags": {"addr:housenumber": "119", "addr:street": "Viale di Porta Ardeatina", "amenity": "nightclub", "name": "Too Club", "phone:mobile": "+39 329 363 6421", "website": "https://tooclub.it/"}}, {"type": "node", "id": 5298545017, "lat": 41.8336059, "lon": 12.4729007, "tags": {"addr:housenumber": "9", "addr:street": "Piazza Guglielmo Marconi", "amenity": "nightclub", "name": "EXE ROMA", "phone": "327 639 8956", "website": "exe.discotecadiroma.it"}}, {"type": "node", "id": 5298550733, "lat": 41.834606, "lon": 12.4706635, "tags": {"addr:housenumber": "31", "addr:street": "Piazza Guglielmo Marconi", "amenity": "nightclub", "name": "Room 26", "phone": "333 428 9202", "website": "https://www.room26.it/"}}, {"type": "node", "id": 5298561394, "lat": 41.8637496, "lon": 12.4807867, "tags": {"addr:housenumber": "13", "addr:street": "Via Giuseppe Libetta", "amenity": "nightclub", "name": "Cluster Club", "phone": "+39 06 578 1260", "website": "clusterclub.it"}}, {"type": "node", "id": 5298561395, "lat": 41.8645846, "lon": 12.4810013, "tags": {"addr:city": "Roma", "addr:housenumber": "1", "addr:postcode": "00154", "addr:street": "Via Giuseppe Libetta", "amenity": "nightclub", "name": "Circolo Degli Illuminati", "phone": "327 761 5286", "website": "https://circolodegliilluminati.it/"}}, {"type": "node", "id": 5298561396, "lat": 41.8646817, "lon": 12.4812051, "tags": {"addr:housenumber": "16", "addr:street": "Via degli Argonauti", "amenity": "nightclub", "name": "Rash\u00f5mon Club", "name:en": "Rashomon Club", "name:it": "Rashomon Club", "phone": "391 730 7386", "website": "https://www.rashomonclub.com/"}}, {"type": "node", "id": 5298561397, "lat": 41.8646581, "lon": 12.481313, "tags": {"addr:city": "Roma", "addr:housenumber": "18", "addr:postcode": "00154", "addr:street": "Via degli Argonauti", "amenity": "nightclub", "name": "Neo Club Roma", "phone": "338 949 2526", "website": "piovra.it"}}, {"type": "node", "id": 5374252628, "lat": 41.923464, "lon": 12.5888044}, {"type": "node", "id": 5374252629, "lat": 41.9235773, "lon": 12.5890671}, {"type": "node", "id": 5374252630, "lat": 41.9234248, "lon": 12.589186}, {"type": "node", "id": 5374252631, "lat": 41.9233896, "lon": 12.5891045}, {"type": "node", "id": 5374252632, "lat": 41.9233313, "lon": 12.5891499}, {"type": "node", "id": 5374252633, "lat": 41.9232531, "lon": 12.5889687}, {"type": "node", "id": 5381094382, "lat": 41.8345353, "lon": 12.469732, "tags": {"addr:housenumber": "26/b", "addr:street": "Piazza Guglielmo Marconi", "amenity": "nightclub", "name": "Spazio Novecento", "phone": "+39 06 5422 1107", "website": "spazionovecento.it"}}, {"type": "node", "id": 5467125643, "lat": 41.8164946, "lon": 12.5850757}, {"type": "node", "id": 5467125644, "lat": 41.8163287, "lon": 12.5852447}, {"type": "node", "id": 5467125645, "lat": 41.8171565, "lon": 12.5856862}, {"type": "node", "id": 5467125646, "lat": 41.8168467, "lon": 12.5860322}, {"type": "node", "id": 5467125648, "lat": 41.8152775, "lon": 12.586405}, {"type": "node", "id": 5467125653, "lat": 41.8153814, "lon": 12.5877247}, {"type": "node", "id": 5467125654, "lat": 41.8149296, "lon": 12.5870112}, {"type": "node", "id": 5582129674, "lat": 41.7145473, "lon": 12.3163571}, {"type": "node", "id": 5677523359, "lat": 41.9750293, "lon": 12.6172087, "tags": {"addr:housenumber": "22", "addr:street": "Via Monte Nero", "amenity": "nightclub", "name": "Caraibe", "phone": "+39 338 844 0889", "website": "caraibe.it"}}, {"type": "node", "id": 5677866696, "lat": 41.8449244, "lon": 12.5733872, "tags": {"addr:housenumber": "217", "addr:street": "Via delle Capannelle", "amenity": "nightclub", "name": "Kalimba Club", "phone": "+39 339 397 5662", "website": "kalimba.it"}}, {"type": "node", "id": 5687919832, "lat": 41.7164368, "lon": 12.3116678}, {"type": "node", "id": 5687919833, "lat": 41.7164337, "lon": 12.3117102}, {"type": "node", "id": 5687919834, "lat": 41.7163952, "lon": 12.3117053}, {"type": "node", "id": 5687919835, "lat": 41.7163982, "lon": 12.3116629}, {"type": "node", "id": 5825536040, "lat": 41.8635319, "lon": 12.4807437, "tags": {"addr:housenumber": "13", "addr:street": "Via Giuseppe Libetta", "amenity": "nightclub", "name": "Goa Club", "phone": "+39 06 574 8277", "website": "https://goaclub.com/"}}, {"type": "node", "id": 5831965985, "lat": 41.8403001, "lon": 12.4685578, "tags": {"addr:housenumber": "24", "addr:street": "Via delle Tre Fontane", "amenity": "nightclub", "name": "Fiesta", "phone": "+39 06 8746 3296", "website": "fiesta.it"}}, {"type": "node", "id": 5902210387, "lat": 41.9242598, "lon": 12.3702097, "tags": {"amenity": "nightclub"}}, {"type": "node", "id": 6017661158, "lat": 41.8831685, "lon": 12.3799766, "tags": {"addr:city": "Roma", "addr:housenumber": "1051", "addr:postcode": "00166", "addr:street": "Via Aurelia", "amenity": "nightclub", "name": "Studio 1051", "opening_hours": "Tu 08:30-03:30; Fr-Su 08:30-03:30", "phone": "+39 339 892 4770"}}, {"type": "node", "id": 6167913786, "lat": 41.9031962, "lon": 12.4879549, "tags": {"amenity": "nightclub", "name": "Club Epoque"}}, {"type": "node", "id": 6167913787, "lat": 41.903184, "lon": 12.4878779, "tags": {"amenity": "nightclub", "name": "Toy RoOm Rome"}}, {"type": "node", "id": 6308904228, "lat": 41.7979665, "lon": 12.6828046, "tags": {"addr:city": "Grottaferrata", "addr:housenumber": "136", "addr:postcode": "00046", "addr:province": "Roma", "addr:street": "Via Ventiquattro Maggio", "amenity": "nightclub", "contact:facebook": "https://www.facebook.com/Studio1.Entertainment.Clubbing", "contact:instagram": "https://www.instagram.com/studio1_official", "contact:youtube": "https://www.youtube.com/channel/UCf9ZwBSLIbR7fWuyLohvKag", "email": "info@studio1roma.it", "mobile": "+39 366 3170062", "name": "Studio 1 Entertainment Clubbing", "phone": "+39 06 9411182", "website": "https://studio1roma.it/"}}, {"type": "node", "id": 6314048189, "lat": 41.9403268, "lon": 12.6377802, "tags": {"addr:city": "Roma", "addr:housenumber": "92", "addr:postcode": "00131", "addr:street": "Via San Getullo", "amenity": "nightclub", "name": "Blue Night Strip Bar", "opening_hours": "Mo-Su 22:30-04:00", "phone": "+39 331 392 5330", "website": "https://blue-night-strip-bar.business.site/"}}, {"type": "node", "id": 6373899833, "lat": 41.9726233, "lon": 12.4421349, "tags": {"addr:housenumber": "15", "addr:street": "Via Bassanello", "addr:unit": "b", "amenity": "nightclub", "name": "Magic Fly", "phone": "+39 06 3326 8956", "website": "magicfly.it"}}, {"type": "node", "id": 6467683804, "lat": 41.8934347, "lon": 12.5880611, "tags": {"addr:city": "Roma", "addr:housenumber": "738", "addr:street": "Via Prenestina", "amenity": "nightclub", "name": "Traffic Live", "website": "http://www.trafficlive.org/"}}, {"type": "node", "id": 6897079045, "lat": 41.8099656, "lon": 12.5992391, "tags": {"addr:city": "Ciampino", "addr:housenumber": "52", "addr:street": "Viale John Fitzgerald Kennedy", "amenity": "nightclub", "email": "info@orionliveclub.com", "mapillary": "3331785853590498", "name": "ORION", "phone": "+39 06.89013645", "website": "http://www.orionliveclub.com/info/"}}, {"type": "node", "id": 7156976372, "lat": 41.8359111, "lon": 12.6037686, "tags": {"addr:city": "Roma", "addr:housenumber": "1261", "addr:postcode": "00173", "addr:street": "Via Tuscolana", "amenity": "nightclub", "name": "Malec\u00f3n Roma", "opening_hours": "Tu 20:00-02:00; Fr-Su 20:00-02:00", "phone": "+39 377 5261832"}}, {"type": "node", "id": 8958413510, "lat": 41.892569, "lon": 12.5382397}, {"type": "node", "id": 8958413511, "lat": 41.892668, "lon": 12.5380469}, {"type": "node", "id": 8958413512, "lat": 41.8926615, "lon": 12.538248}, {"type": "node", "id": 8958413513, "lat": 41.8925763, "lon": 12.538038}, {"type": "node", "id": 9028216458, "lat": 41.8815532, "lon": 12.5100802, "tags": {"amenity": "nightclub", "name": "Zanussi"}}, {"type": "node", "id": 9165579495, "lat": 41.8925853, "lon": 12.5378937}, {"type": "node", "id": 9165579496, "lat": 41.892627, "lon": 12.5378984}, {"type": "node", "id": 9165579497, "lat": 41.8926722, "lon": 12.5379497}, {"type": "node", "id": 9165579498, "lat": 41.8927287, "lon": 12.5379206}, {"type": "node", "id": 9165579499, "lat": 41.8929607, "lon": 12.5379719}, {"type": "node", "id": 9165579500, "lat": 41.8929432, "lon": 12.5385214}, {"type": "node", "id": 9165579501, "lat": 41.892843, "lon": 12.5379459}, {"type": "node", "id": 9165579502, "lat": 41.8928209, "lon": 12.5384507}, {"type": "node", "id": 9165579503, "lat": 41.8929449, "lon": 12.5384688}, {"type": "node", "id": 10313435009, "lat": 41.8343033, "lon": 12.4703946, "tags": {"addr:housenumber": "31", "addr:postcode": "00144", "addr:street": "Piazza Guglielmo Marconi", "amenity": "nightclub", "contact:facebook": "room26official", "contact:instagram": "room26official", "contact:twitter": "Room26Official", "email": "Info@room26.it", "name": "Room26", "name:en": "Room26", "name:it": "Room26", "phone": "+39 351 919 5320", "website": "https://www.room26.it"}}, {"type": "way", "id": 137242271, "nodes": [1505428944, 1505428942, 1505428894, 1505428896, 1505428882, 1505428886, 1505428913, 1505428912, 1505428941, 1505428937, 1505428960, 1505428958, 1505428945, 1505428944], "tags": {"addr:housenumber": "19", "addr:postcode": "00154", "addr:street": "Via Giuseppe Libetta", "amenity": "nightclub", "building": "hall", "eating": "yes", "name": "Vinile", "operator": "360 S.r.l.", "phone": "+39 06 57288666", "ref:vatin": "IT10615781001"}}, {"type": "way", "id": 399709229, "nodes": [4024071475, 4024071474, 4024071471, 4024071472, 4024071466, 4024071467, 4024071468, 4024071470, 4024071483, 4024071479, 4024071482, 4024071476, 4024071478, 4024071477, 4024071475], "tags": {"addr:city": "Roma", "addr:housenumber": "716", "addr:postcode": "00138", "addr:street": "Via di Settebagni", "amenity": "nightclub", "building": "yes", "name": "Billions"}}, {"type": "way", "id": 401959725, "nodes": [4043650758, 4043650746, 4043650726, 4043650724, 4043650712, 4043650713, 4043650704, 4043650714, 4043650691, 4043650711, 4043650732, 4043650729, 4043650739, 4043650731, 4043650736, 4043650722, 4043650725, 4043650740, 4043650749, 4043650753, 4043650755, 4043650789, 4043650782, 4043650764, 4043650748, 4043650758], "tags": {"addr:city": "Roma", "addr:housenumber": "271D", "addr:postcode": "00144", "addr:street": "Viale dell'Oceano Atlantico", "amenity": "nightclub", "building": "yes", "name": "Atlantico"}}, {"type": "way", "id": 408140735, "nodes": [4101405570, 4101405571, 5582129674, 4101405572, 4101405573, 4101405574, 4101405575, 4101405576, 4101405570], "tags": {"amenity": "nightclub", "building": "yes", "name": "Barkabar"}}, {"type": "way", "id": 557214119, "nodes": [5374252628, 5374252629, 5374252630, 5374252631, 5374252632, 5374252633, 5374252628], "tags": {"addr:city": "Roma", "addr:housenumber": "109", "addr:postcode": "00155", "addr:street": "Via di Tor Cervara", "amenity": "nightclub", "building": "yes", "name": "Viper Deluxe Club"}}, {"type": "way", "id": 568225442, "nodes": [1623560230, 1623560055, 5467125645, 5467125646, 5467125653, 5467125654, 1623560034, 1623559926, 5467125648, 1623560042, 5467125644, 5467125643, 1623559948, 1623560220, 1623560099, 1623560230], "tags": {"addr:housenumber": "180", "addr:street": "Via Ranuccio Bianchi Bandinelli", "amenity": "nightclub", "name": "PalaCavicchi Ciampino", "operator": "PalaCavicchi", "website": "http://www.palacavicchieventi.com/"}}, {"type": "way", "id": 597362051, "nodes": [5687919832, 5687919833, 5687919834, 5687919835, 5687919832], "tags": {"addr:city": "Roma", "addr:housenumber": "6/b", "addr:postcode": "00122", "addr:street": "Lungomare Lutazio Catulo", "amenity": "nightclub", "building": "yes", "name": "Open Bar", "operator": "Altamarea"}}, {"type": "way", "id": 992014893, "nodes": [8958413513, 9165579495, 9165579496, 9165579497, 9165579498, 9165579501, 9165579499, 9165579503, 9165579500, 9165579502, 3454575257, 8958413510, 8958413512, 8958413511, 8958413513], "tags": {"addr:city": "Roma", "addr:postcode": "00176", "addr:street": "Via Biordo Michelotti", "amenity": "nightclub", "lgbtq": "friendly", "name": "Largo Venue", "opening_hours": "Tu-Th 19:30-02:00; Fr-Sa 19:30-04:00", "phone": "+390659875966", "website": "https://www.largovenue.com/"}}]}