{"version": 0.6, "generator": "Overpass API 0.7.60 f4c14d41", "osm3s": {"timestamp_osm_base": "2023-05-02T21:20:24Z", "copyright": "The data included in this document is from www.openstreetmap.org. The data is made available under ODbL."}, "elements": [{"type": "node", "id": 251373375, "lat": 48.8407951, "lon": 2.3497522, "tags": {"access:covid19": "yes", "contact:city": "Paris", "contact:housenumber": "107", "contact:postcode": "75005", "contact:street": "Rue Mouffetard", "name": "La Fontaine aux Vins", "opening_hours:covid19": "open", "shop": "alcohol", "takeaway:covid19": "yes"}}, {"type": "node", "id": 597846230, "lat": 48.8473574, "lon": 2.3951017, "tags": {"name": "Cave Michel Renaud", "opening_hours": "Mo 15:00-20:30; Tu,We,Fr,Sa 09:30-20:30; Th 09:30-13:00,15:00-20:30; Su 10:00-13:00; PH off", "shop": "alcohol", "wheelchair": "no"}}, {"type": "node", "id": 647402104, "lat": 48.8647287, "lon": 2.4058097, "tags": {"brand": "Nicolas", "brand:wikidata": "Q3340012", "brand:wikipedia": "en:Nicolas (wine retailer)", "name": "Nicolas", "shop": "alcohol"}}, {"type": "node", "id": 735359707, "lat": 48.881757, "lon": 2.3717272, "tags": {"brand": "Nicolas", "brand:wikidata": "Q3340012", "brand:wikipedia": "en:Nicolas (wine retailer)", "name": "Nicolas", "opening_hours:covid19": "off", "shop": "alcohol"}}, {"type": "node", "id": 804285925, "lat": 48.8483722, "lon": 2.3246441, "tags": {"addr:housenumber": "20", "addr:street": "Rue de l'Abb\u00e9 Gr\u00e9goire", "name": "Christian de Montaguere", "shop": "alcohol", "source": "cadastre-dgi-fr source : Direction G\u00e9n\u00e9rale des Imp\u00f4ts - Cadastre. Mise \u00e0 jour : 2010"}}, {"type": "node", "id": 813460453, "lat": 48.8728476, "lon": 2.3209832, "tags": {"name": "La new Cave", "shop": "alcohol", "source": "cadastre-dgi-fr source : Direction G\u00e9n\u00e9rale des Imp\u00f4ts - Cadastre. Mise \u00e0 jour : 2010"}}, {"type": "node", "id": 836814917, "lat": 48.8339438, "lon": 2.3094456, "tags": {"alcohol": "wine", "amenity": "restaurant", "contact:city": "Paris", "contact:housenumber": "38", "contact:postcode": "75015", "contact:street": "Rue Georges Pitard", "name": "Les Assoiff\u00e9s", "shop": "alcohol"}}, {"type": "node", "id": 841916874, "lat": 48.8806957, "lon": 2.3249839, "tags": {"addr:housenumber": "22", "addr:postcode": "75008", "addr:street": "Rue de Moscou", "name": "59 vins", "shop": "alcohol", "source": "cadastre-dgi-fr source : Direction G\u00e9n\u00e9rale des Imp\u00f4ts - Cadastre. Mise \u00e0 jour : 2010"}}, {"type": "node", "id": 980281996, "lat": 48.8828528, "lon": 2.314854}, {"type": "node", "id": 980311334, "lat": 48.8828799, "lon": 2.3148607}, {"type": "node", "id": 1055726497, "lat": 48.8547134, "lon": 2.362183, "tags": {"brand": "Nicolas", "brand:wikidata": "Q3340012", "brand:wikipedia": "en:Nicolas (wine retailer)", "contact:city": "Paris", "contact:housenumber": "93", "contact:postcode": "75004", "contact:street": "Rue Saint-Antoine", "name": "Nicolas", "opening_hours:covid19": "off", "shop": "alcohol", "wheelchair": "yes"}}, {"type": "node", "id": 1113739011, "lat": 48.8421726, "lon": 2.3136717, "tags": {"brand": "Nicolas", "brand:wikidata": "Q3340012", "brand:wikipedia": "en:Nicolas (wine retailer)", "name": "Nicolas", "opening_hours": "Mo-Sa 16:00-20:00, Tu-Sa 10:00-13:30", "shop": "alcohol"}}, {"type": "node", "id": 1145667714, "lat": 48.8430873, "lon": 2.3523909, "tags": {"addr:housenumber": "77", "addr:street": "Rue Monge", "brand": "Nicolas", "brand:wikidata": "Q3340012", "check_date": "2023-01-05", "drive_through": "no", "name": "Nicolas", "opening_hours": "Mo 16:00-20:00; Tu-Fr 10:00-14:00,15:00-20:00; Sa 10:00-20:00; Su 10:00-13:00", "payment:mastercard": "yes", "payment:visa": "yes", "shop": "alcohol", "wheelchair": "yes"}}, {"type": "node", "id": 1163709686, "lat": 48.8471395, "lon": 2.2954453, "tags": {"brand": "Nicolas", "brand:wikidata": "Q3340012", "brand:wikipedia": "en:Nicolas (wine retailer)", "name": "Nicolas", "opening_hours": "Tu-Sa 10:00-13:00, 15:30-20:30; Mo 16:00-20:30", "opening_hours:covid19": "Mo 16:00-20:30; Tu-Sa 10:00-13:00,15:30-20:30", "shop": "alcohol"}}, {"type": "node", "id": 1252379389, "lat": 48.8379815, "lon": 2.3905619, "tags": {"brand": "Nicolas", "brand:wikidata": "Q3340012", "brand:wikipedia": "en:Nicolas (wine retailer)", "name": "Nicolas", "opening_hours": "Su-Fr 10:00-13:00, Mo-Fr 15:30-20:00, Sa 10:00-20:00", "opening_hours:covid19": "off", "shop": "alcohol", "source": "survey", "website": "https://www.nicolas.com/", "wheelchair": "limited"}}, {"type": "node", "id": 1264875583, "lat": 48.8508151, "lon": 2.3111485, "tags": {"name": "Les Vins du Terroir", "shop": "alcohol", "source": "survey"}}, {"type": "node", "id": 1264875596, "lat": 48.8504274, "lon": 2.3115177, "tags": {"name": "A. Laurans", "shop": "alcohol", "source": "survey"}}, {"type": "node", "id": 1307180157, "lat": 48.8554417, "lon": 2.3709697, "tags": {"check_date:opening_hours": "2023-03-26", "name": "La Cave, \u00e0 la Bastille", "opening_hours:covid19": "open", "opening_hours:signed": "no", "shop": "alcohol", "source": "cadastre-dgi-fr source : Direction G\u00e9n\u00e9rale des Imp\u00f4ts - Cadastre. Mise \u00e0 jour : 2011", "wheelchair": "no"}}, {"type": "node", "id": 1352878664, "lat": 48.8440969, "lon": 2.2934906, "tags": {"brand": "Nicolas", "brand:wikidata": "Q3340012", "brand:wikipedia": "en:Nicolas (wine retailer)", "contact:city": "Paris", "contact:housenumber": "91", "contact:postcode": "75015", "contact:street": "Rue du Commerce", "name": "Nicolas", "opening_hours": "Tu-Fr 10:00-13:00,15:00-20:00; Sa 10:00-20:00; Su 10:00-13:00", "shop": "alcohol", "wheelchair": "yes"}}, {"type": "node", "id": 1448783409, "lat": 48.8631122, "lon": 2.2764103, "tags": {"addr:city": "Paris", "brand": "Nicolas", "brand:wikidata": "Q3340012", "brand:wikipedia": "en:Nicolas (wine retailer)", "name": "Nicolas", "opening_hours:covid19": "Mo-Sa 10:00-13:30,15:30-18:30", "shop": "alcohol", "source": "survey"}}, {"type": "node", "id": 1471972842, "lat": 48.8690486, "lon": 2.2841706, "tags": {"brand": "Nicolas", "brand:wikidata": "Q3340012", "brand:wikipedia": "en:Nicolas (wine retailer)", "name": "Nicolas", "opening_hours:covid19": "Mo 10:00-14:30; Tu-Th 10:00-17:30; Fr,Sa 10:00-18:30", "shop": "alcohol", "source": "survey"}}, {"type": "node", "id": 1488772086, "lat": 48.8766992, "lon": 2.3563478, "tags": {"name": "Caves Bardou", "opening_hours": "Tu-Sa 10:00-17:00", "shop": "alcohol"}}, {"type": "node", "id": 1490922376, "lat": 48.8692624, "lon": 2.3358419, "tags": {"brand": "Nicolas", "brand:wikidata": "Q3340012", "brand:wikipedia": "en:Nicolas (wine retailer)", "check_date": "2023-04-08", "name": "Nicolas", "opening_hours": "Mo 15:30-20:00; Tu-Th 10:00-14:30,15:30-20:00; Fr 10:00-20:00; Sa 11:00-20:00", "shop": "alcohol", "wheelchair": "yes"}}, {"type": "node", "id": 1579654935, "lat": 48.8271894, "lon": 2.3250641, "tags": {"brand": "Nicolas", "brand:wikidata": "Q3340012", "brand:wikipedia": "en:Nicolas (wine retailer)", "name": "Nicolas", "opening_hours": "Mo 17:00-20:00, Tu-Sa 10:30-13:00,15:00-20:00, Sa 14:00-20:00", "shop": "alcohol", "wheelchair": "yes"}}, {"type": "node", "id": 1579665772, "lat": 48.823687, "lon": 2.3244326, "tags": {"brand": "Nicolas", "brand:wikidata": "Q3340012", "brand:wikipedia": "en:Nicolas (wine retailer)", "name": "Nicolas", "shop": "alcohol", "url": "http://www.nicolas.com/fr/magasin/paris/brune-107-18-465.htm"}}, {"type": "node", "id": 1581691058, "lat": 48.8493179, "lon": 2.3745043, "tags": {"access:covid19": "no", "alcohol": "wine", "contact:city": "Paris", "contact:email": "contact@ici-meme.com", "contact:housenumber": "68", "contact:phone": "+33 1 43 40 00 99", "contact:postcode": "75012", "contact:street": "Rue de Charenton", "contact:website": "http://www.ici-meme.com/", "internet_access": "wlan", "name": "Ici-m\u00eame", "opening_hours": "Tu-Sa 10:40-22:00; Su 11:00-17:00; Mo 17:00-20:00", "opening_hours:covid19": "open", "shop": "alcohol", "wheelchair": "yes"}}, {"type": "node", "id": 1620425824, "lat": 48.8658704, "lon": 2.3983197, "tags": {"name": "La Goutte des G\u00e2tines", "shop": "alcohol", "website": "https://la-goutte-des-gatines.business.site/"}}, {"type": "node", "id": 1668712184, "lat": 48.893953, "lon": 2.342951, "tags": {"addr:city": "Paris", "addr:postcode": "75018", "addr:street": "Rue Letort", "name": "Vinum Picatum", "shop": "alcohol"}}, {"type": "node", "id": 1668860940, "lat": 48.893433, "lon": 2.343072, "tags": {"brand": "Nicolas", "brand:wikidata": "Q3340012", "brand:wikipedia": "en:Nicolas (wine retailer)", "name": "Nicolas", "opening_hours:covid19": "off", "shop": "alcohol"}}, {"type": "node", "id": 1688083023, "lat": 48.8663015, "lon": 2.3398769, "tags": {"access:covid19": "yes", "contact:city": "Paris", "contact:housenumber": "1", "contact:postcode": "75002", "contact:street": "Rue de la Banque", "contact:website": "https://www.caves-legrand.com/", "delivery:covid19": "yes", "description": "Cave \u00e0 vin", "name": "Legrand Filles et Fils", "opening_hours:covid19": "Fr,Sa 13:00-18:00", "shop": "alcohol", "source": "www.caves-legrand.com", "takeaway:covid19": "yes", "wheelchair": "no"}}, {"type": "node", "id": 1748954522, "lat": 48.854572, "lon": 2.3859477, "tags": {"name": "Cavavin", "shop": "alcohol"}}, {"type": "node", "id": 1756138354, "lat": 48.8551355, "lon": 2.269622, "tags": {"addr:housenumber": "52", "addr:street": "Avenue Mozart", "name": "Le rep\u00e8re de Bacchus", "shop": "alcohol"}}, {"type": "node", "id": 1770300768, "lat": 48.8557483, "lon": 2.3688091, "tags": {"addr:housenumber": "26", "addr:postcode": "75011", "addr:street": "Boulevard Beaumarchais", "delivery:covid19": "yes", "description:covid19": "Livraisons par coursier en 30 minutes dans Paris. Contact : 01 55 28 52 38 Instagram & Facebook @lacartedesvins", "name": "La Carte des Vins", "opening_hours:covid19": "Mo 10:00-18:00; Tu-Sa,PH 10:00-20:00; Su 10:00-16:00", "opening_hours:signed": "no", "phone": "+33 1 55 28 52 38", "shop": "alcohol", "takeaway:covid19": "yes", "wheelchair": "no"}}, {"type": "node", "id": 1775419044, "lat": 48.8560382, "lon": 2.405188, "tags": {"addr:full": "104 Rue des Pyr\u00e9n\u00e9es 75020 Paris", "description": "Le bon vin, les bons moments", "name": "Nysa", "opening_hours": "Mo 16:00-20:30; Tu-Th 10:00-13:00; Tu 15:00-20:30; We, Th 14:00-20:30; Fr, Sa 10:00-20:30; Su 10:00-14:00, 16:00-20:00", "shop": "alcohol", "source": "cadastre-dgi-fr source : Direction G\u00e9n\u00e9rale des Imp\u00f4ts - Cadastre. Mise \u00e0 jour : 2012"}}, {"type": "node", "id": 1789904012, "lat": 48.865363, "lon": 2.368119, "tags": {"check_date": "2023-04-08", "name": "Le Petit Bleu", "opening_hours:covid19": "open", "shop": "alcohol", "wheelchair": "limited"}}, {"type": "node", "id": 1803870994, "lat": 48.8862928, "lon": 2.3185528, "tags": {"brand": "Nicolas", "brand:wikidata": "Q3340012", "brand:wikipedia": "en:Nicolas (wine retailer)", "name": "Nicolas", "opening_hours": "Mo 15:00-20:00, Tu-Th 10:30-20:00, Fr 10:30-20:30, Sa 10:00-20:30", "shop": "alcohol"}}, {"type": "node", "id": 1821668279, "lat": 48.8771878, "lon": 2.3322893, "tags": {"access:covid19": "yes", "delivery:covid19": "yes", "name": "Du Vin et des Bulles", "opening_hours:covid19": "Tu-Sa 10:30-18:30", "shop": "alcohol", "takeaway:covid19": "yes"}}, {"type": "node", "id": 1823551390, "lat": 48.8815871, "lon": 2.3284275, "tags": {"name": "Le Repaire de Bacchus", "opening_hours": "Mo 17:15-20:00; Tu-Th 10:30-13:00, Tu,We 16:00-20:00; Fr,Sa 10:30-13:30,15:15-20:30", "opening_hours:covid19": "Tu-Sa 10:30-13:30,14:00-18:30", "shop": "alcohol"}}, {"type": "node", "id": 1827138921, "lat": 48.8762916, "lon": 2.3397239, "tags": {"cuisine": "italian", "name": "RAP", "phone": "+33 1 42 80 09 91", "shop": "alcohol"}}, {"type": "node", "id": 1832068177, "lat": 48.8793168, "lon": 2.3479668, "tags": {"name": "\u00c2me et Esprit du Vin", "opening_hours": "Tu-Th 10:30-20:30, Mo 16:30-20:30, Fr,Sa 10:30-21:00", "shop": "alcohol", "wheelchair": "no"}}, {"type": "node", "id": 1877309834, "lat": 48.8896935, "lon": 2.3436443, "tags": {"addr:city": "Paris", "addr:housenumber": "58", "addr:postcode": "75018", "addr:street": "Rue Custine", "description": "Vins bio/Vins biodynamiques/Vins naturels.\nD\u00e9gustations\nVente sur Paris & Orl\u00e9ans\n\nOuverture fin aout 2019", "drive_through": "no", "email": "koikonboi@gmail.com", "facebook": "https://www.facebook.com/koikonboi/", "instagram": "https://www.instagram.com/koikonboi/", "name": "Koi Kon Boi?", "shop": "alcohol"}}, {"type": "node", "id": 1910433731, "lat": 48.8331517, "lon": 2.3612262, "tags": {"drink:wine": "yes", "name": "Nysa", "opening_hours": "Tu-Fr 10:00-13:30,16:00-20:00; Sa 10:00-14:00,15:00-20:00", "shop": "alcohol"}}, {"type": "node", "id": 1915530913, "lat": 48.8358016, "lon": 2.289951, "tags": {"name": "La Cave du Hameau", "shop": "alcohol"}}, {"type": "node", "id": 1930542164, "lat": 48.8464997, "lon": 2.343014, "tags": {"name": "Caves du Panth\u00e9on", "opening_hours": "Mo 14:00-20:30; Tu-Sa 09:30-20:30", "phone": "+33146339035", "shop": "alcohol"}}, {"type": "node", "id": 1930542221, "lat": 48.8477202, "lon": 2.3413408, "tags": {"brand": "Nicolas", "brand:wikidata": "Q3340012", "brand:wikipedia": "en:Nicolas (wine retailer)", "name": "Nicolas", "opening_hours": "Tu-Fr 10:30-13:00,15:00-20:00; Sa 10:30-20:00", "shop": "alcohol"}}, {"type": "node", "id": 1939149273, "lat": 48.8422861, "lon": 2.2819483, "tags": {"contact:city": "Paris", "contact:housenumber": "159", "contact:postcode": "75015", "contact:street": "Rue Saint-Charles", "name": "Le Repaire De Bacchus", "opening_hours": "Mo 14:30-20:00;Tu-Th 09:00-13:30,14:30-20:00;Fr-Sa 09:00-20:00; Su 09:00-13:00", "shop": "alcohol"}}, {"type": "node", "id": 1987166836, "lat": 48.8679736, "lon": 2.2905273, "tags": {"brand": "Nicolas", "brand:wikidata": "Q3340012", "brand:wikipedia": "en:Nicolas (wine retailer)", "name": "Nicolas", "shop": "alcohol", "wheelchair": "yes"}}, {"type": "node", "id": 2003145832, "lat": 48.8611791, "lon": 2.3538908, "tags": {"alcohol": "wine", "brand": "Nicolas", "brand:wikidata": "Q3340012", "brand:wikipedia": "en:Nicolas (wine retailer)", "name": "Nicolas", "opening_hours": "Tu-Sa 10:00-20:15, Mo 16:00-20:15, Su 10:00-13:00", "opening_hours:covid19": "Mo-Sa 10:00-17:00", "shop": "alcohol"}}, {"type": "node", "id": 2086423557, "lat": 48.8750253, "lon": 2.2862115, "tags": {"brand": "Nicolas", "brand:wikidata": "Q3340012", "brand:wikipedia": "en:Nicolas (wine retailer)", "check_date": "2023-04-17", "name": "Nicolas", "opening_hours": "Tu-Sa 10:00-20:00; Mo 16:00-20:00", "shop": "alcohol"}}, {"type": "node", "id": 2125414137, "lat": 48.8828193, "lon": 2.3148931, "tags": {"addr:housenumber": "32"}}, {"type": "node", "id": 2191795355, "lat": 48.8193687, "lon": 2.3606361, "tags": {"name": "China Moutai", "shop": "alcohol", "website": "http://chinamoutai.fr"}}, {"type": "node", "id": 2193280082, "lat": 48.8256587, "lon": 2.3496891, "tags": {"brand": "Nicolas", "brand:website": "https://www.nicolas.com/", "brand:wikidata": "Q3340012", "name": "Nicolas Tolbiac", "shop": "alcohol", "url": "http://www.nicolas.com/fr/magasin/paris/tolbiac-128-18-465.htm"}}, {"type": "node", "id": 2193372766, "lat": 48.8255819, "lon": 2.346847, "tags": {"contact:city": "Paris", "contact:housenumber": "215 bis", "contact:phone": "+33 1 79 60 00 09", "contact:postcode": "75013", "contact:street": "Rue de Tolbiac", "contact:website": "https://www.lerepairedebacchus.com", "name": "Le Repaire de Bacchus", "opening_hours": "Tu-Fr 10:30-13:00,15:45-20:00; Sa 10:30-14:00,15:00-20:15; Su 10:00-13:00", "opening_hours:covid19": "off", "operator": "Le Repaire de Bacchus", "shop": "alcohol"}}, {"type": "node", "id": 2193494568, "lat": 48.8762988, "lon": 2.3556828, "tags": {"brand": "Nicolas", "brand:wikidata": "Q3340012", "brand:wikipedia": "en:Nicolas (wine retailer)", "check_date": "2023-04-22", "name": "Nicolas", "opening_hours": "Tu-Sa 10:00-14:00, Mo,Tu 16:00-20:00, We-Sa 16:00-20:30", "shop": "alcohol", "source": "survey"}}, {"type": "node", "id": 2194937703, "lat": 48.827945, "lon": 2.328656, "tags": {"brand": "Nicolas", "brand:wikidata": "Q3340012", "brand:wikipedia": "en:Nicolas (wine retailer)", "contact:city": "Paris", "contact:housenumber": "46", "contact:postcode": "75014", "contact:street": "Rue d'Al\u00e9sia", "name": "Nicolas", "opening_hours": "Tu-Sa 10:30-13:00,15:45-19:45", "shop": "alcohol"}}, {"type": "node", "id": 2206967422, "lat": 48.8254475, "lon": 2.3469307, "tags": {"addr:city": "Paris", "addr:housenumber": "32", "addr:postcode": "75013", "addr:street": "Rue de l'Esp\u00e9rance", "check_date:opening_hours": "2022-09-03", "contact:city": "Paris", "contact:housenumber": "32", "contact:postcode": "75013", "contact:street": "Rue de l'Esp\u00e9rance", "name": "Bi\u00e9rocratie", "note": "Fair trade shop", "opening_hours": "Tu 11:00-20:00; We 16:00-20:00; Th-Sa 11:00-20:00", "opening_hours:covid19": "Tu 11:00-20:00; We 16:00-20:00; Th-Sa 11:00-20:00", "payment:cash": "yes", "payment:credit_cards": "yes", "payment:visa": "yes", "phone": "+33 1 53 80 16 10", "shop": "alcohol", "toilets:wheelchair": "no", "website": "https://www.bierocratie.com/", "wheelchair": "limited", "wheelchair:description": "Une rampe amovible est disponible."}}, {"type": "node", "id": 2216215922, "lat": 48.8289442, "lon": 2.3692706, "tags": {"brand": "Nicolas", "brand:wikidata": "Q3340012", "brand:wikipedia": "en:Nicolas (wine retailer)", "name": "Nicolas", "shop": "alcohol"}}, {"type": "node", "id": 2245306406, "lat": 48.8450238, "lon": 2.4051992, "tags": {"brand": "le repaire de bacchus", "contact:email": "rendez-vous@lerepairedebacchus.com", "contact:phone": "+33172636633;+33 1 43 42 08 08", "delivery:covid19": "yes", "drink:beer": "sales", "drink:wine": "sales", "name": "Le Repaire de Bacchus", "opening_hours": "Mo 16:00-20:00; Tu-Th 10:30-13:00,16:00-20:00; Fr 10:00-13:00,16:00-20:00; Sa 10:00-20:15; Su 10:00-13:00", "opening_hours:covid19": "Tu-Sa 10:00-13:30,14:00-18:00", "shop": "alcohol", "website": "http://q-r.to/bagrxe"}}, {"type": "node", "id": 2265632275, "lat": 48.8281022, "lon": 2.3301702, "tags": {"addr:housenumber": "24", "addr:postcode": "75014", "addr:street": "Rue Montbrun", "name": "Sacr\u00e9s Vins Dieux", "opening_hours": "Tu-Fr 10:15-19:30; Sa 10:00-20:00", "shop": "alcohol"}}, {"type": "node", "id": 2267078077, "lat": 48.890402, "lon": 2.3613793, "tags": {"brand": "Nicolas", "brand:wikidata": "Q3340012", "brand:wikipedia": "en:Nicolas (wine retailer)", "name": "Nicolas", "opening_hours": "Tu-Fr,Su 10:00-13:00, Tu-Th 15:00-20:00, Fr 14:00-20:30, Sa 10:00-20:30", "shop": "alcohol"}}, {"type": "node", "id": 2273222570, "lat": 48.8438522, "lon": 2.2829311, "tags": {"brand": "Nicolas", "brand:wikidata": "Q3340012", "brand:wikipedia": "en:Nicolas (wine retailer)", "contact:city": "Paris", "contact:housenumber": "130", "contact:postcode": "75015", "contact:street": "Rue Saint-Charles", "name": "Nicolas", "shop": "alcohol"}}, {"type": "node", "id": 2275170496, "lat": 48.8906439, "lon": 2.3611705, "tags": {"name": "Nysa", "shop": "alcohol", "source": "Observations personnelles"}}, {"type": "node", "id": 2333397301, "lat": 48.8901546, "lon": 2.3614003, "tags": {"amenity": "pub", "bulk_purchase": "yes", "name": "En Vrac", "opening_hours": "Mo 17:00-21:00; Tu-Sa 10:00-22:00; Su 10:00-21:00", "opening_hours:covid19": "off", "restaurant": "yes", "shop": "alcohol", "website": "http://www.vinenvrac.fr/"}}, {"type": "node", "id": 2383363280, "lat": 48.8610573, "lon": 2.3423839, "tags": {"contact:city": "Paris", "contact:housenumber": "41", "contact:postcode": "75001", "contact:street": "Rue de l'Arbre Sec", "name": "Le Garde Robe", "shop": "alcohol"}}, {"type": "node", "id": 2389310272, "lat": 48.8754225, "lon": 2.3897293, "tags": {"brand": "Nicolas", "brand:wikidata": "Q3340012", "brand:wikipedia": "en:Nicolas (wine retailer)", "name": "Nicolas", "opening_hours:covid19": "Mo-Sa 09:30-15:00", "shop": "alcohol"}}, {"type": "node", "id": 2394885023, "lat": 48.8480298, "lon": 2.3718274, "tags": {"name": "Vins et Saveurs", "opening_hours": "Tu-Sa 10:00-20:15", "phone": "+33 1 43 44 17 40", "shop": "alcohol", "website": "https://www.vinsetsaveurs75.com/"}}, {"type": "node", "id": 2396187542, "lat": 48.8746608, "lon": 2.3866706, "tags": {"name": "Le Repaire de Bacchus", "phone": "+33 1 42 08 62 95", "shop": "alcohol", "source": "survey"}}, {"type": "node", "id": 2431319922, "lat": 48.8624306, "lon": 2.3631415, "tags": {"brand": "Nicolas", "brand:wikidata": "Q3340012", "brand:wikipedia": "en:Nicolas (wine retailer)", "level": "0", "name": "Nicolas", "opening_hours": "Tu-Th 09:30-13:00, 15:30-20:00; Fr 09:30-13:00, 15:30-20:15; Sa 09:30-20:15; Su 09:30-13:00", "opening_hours:covid19": "off", "phone": "+33 1 42 78 43 73", "shop": "alcohol", "website": "http://www.nicolas.com/fr/magasin/paris/bretagne-18-18-465.htm", "wheelchair": "yes"}}, {"type": "node", "id": 2431491789, "lat": 48.8631338, "lon": 2.3622966, "tags": {"alcohol": "wine", "name": "Le Repaire de Bacchus", "opening_hours": "Mo 16:00-21:00; Tu-Sa 10:30-21:00; Su 10:00-20:00", "phone": "+331 72 63 68 45", "shop": "alcohol", "website": "https://www.lerepairedebacchus.com/"}}, {"type": "node", "id": 2454244742, "lat": 48.8321644, "lon": 2.33556, "tags": {"name": "La Treille D'Or", "opening_hours": "Tu,Th 10:00-13:00, Mo-Th 16:00-20:00, Fr 10:00-13:30,15:00-20:30, Sa 10:00-13:30,14:30-20:00", "opening_hours:covid19": "Mo-Sa 15:00-18:00", "payment:credit_cards": "yes", "payment:debit_cards": "yes", "shop": "alcohol"}}, {"type": "node", "id": 2500391286, "lat": 48.8322357, "lon": 2.3029168, "tags": {"name": "Le Repaire de Bacchus", "opening_hours": "Tu,Th-Sa 10:30-20:30; Mo 16:30-20:00; Su 10:00-13:00; We 10:30-14:00,14:30-20:30", "opening_hours:covid19": "open", "payment:credit_cards": "yes", "payment:debit_cards": "yes", "shop": "alcohol", "wheelchair": "no"}}, {"type": "node", "id": 2517187107, "lat": 48.8548645, "lon": 2.3863573, "tags": {"addr:city": "Paris", "addr:housenumber": "120", "addr:postcode": "75011", "addr:street": "Rue de Charonne", "brand": "Nicolas", "brand:wikidata": "Q3340012", "brand:wikipedia": "en:Nicolas (wine retailer)", "name": "Nicolas", "opening_hours:covid19": "off", "shop": "alcohol"}}, {"type": "node", "id": 2521645582, "lat": 48.8493683, "lon": 2.3779025, "tags": {"name": "Nysa", "name:fr": "Nysa", "opening_hours": "Tu-Fr 09:00-13:00; Sa 09:00-20:00; Su 09:00-14:00", "shop": "alcohol"}}, {"type": "node", "id": 2538000591, "lat": 48.8707812, "lon": 2.3215062, "tags": {"contact:city": "Paris", "contact:housenumber": "20", "contact:phone": "+33 1 42 65 03 16", "contact:postcode": "75008", "contact:street": "Rue d'Anjou", "contact:website": "http://www.whisky.fr/boutiques/anjou", "level": "0", "name": "La Maison du Whisky", "opening_hours": "Mo 09:30-19:00; Tu-Fr 09:30-20:00; Sa 09:30-19:30", "shop": "alcohol", "source": "survey", "wheelchair": "yes"}}, {"type": "node", "id": 2586564350, "lat": 48.8603607, "lon": 2.3429293, "tags": {"addr:city": "Paris", "addr:postcode": "75001", "brand": "Nicolas", "brand:wikidata": "Q3340012", "brand:wikipedia": "en:Nicolas (wine retailer)", "name": "Nicolas", "opening_hours": "Mo-Th 10:30-20:00; Fr,Sa 10:30-20:30", "operator": "Nicolas", "shop": "alcohol", "source": "knowledge"}}, {"type": "node", "id": 2619501253, "lat": 48.8668679, "lon": 2.3366937, "tags": {"brand": "Nicolas", "brand:wikidata": "Q3340012", "brand:wikipedia": "en:Nicolas (wine retailer)", "name": "Nicolas", "opening_hours:covid19": "off", "operator": "Nicolas", "shop": "alcohol"}}, {"type": "node", "id": 2653648652, "lat": 48.8608675, "lon": 2.3684463, "tags": {"alcohol": "wine", "check_date": "2022-08-25", "name": "Caviste", "name:fr": "j\u00e9roboam", "opening_hours": "Tu-Fr 14:00-23:00; Sa 10:30-13:30, 14:30-23:00", "shop": "alcohol"}}, {"type": "node", "id": 2655943002, "lat": 48.8711222, "lon": 2.3246401, "tags": {"brand": "Nicolas", "brand:wikidata": "Q3340012", "brand:wikipedia": "en:Nicolas (wine retailer)", "name": "Nicolas", "opening_hours:covid19": "open", "shop": "alcohol"}}, {"type": "node", "id": 2656051547, "lat": 48.8694769, "lon": 2.3230032, "tags": {"drive_through": "no", "name": "The Whisky Shop", "shop": "alcohol", "survey:date": "2022-10-30", "wheelchair": "no"}}, {"type": "node", "id": 2689407063, "lat": 48.8397844, "lon": 2.3973416, "tags": {"brand": "Nicolas", "brand:wikidata": "Q3340012", "brand:wikipedia": "en:Nicolas (wine retailer)", "name": "Nicolas", "opening_hours": "Mo-Fr 15:30-20:00; Tu-Fr 10:00-13:00; Sa 10:00-20:00", "opening_hours:covid19": "open", "shop": "alcohol"}}, {"type": "node", "id": 2750304034, "lat": 48.8336598, "lon": 2.3536791, "tags": {"name": "Cave des Gobelins", "opening_hours:covid19": "open", "shop": "alcohol"}}, {"type": "node", "id": 2758775321, "lat": 48.886837, "lon": 2.295753, "tags": {"name": "Caves de Courcelles", "opening_hours:covid19": "open", "shop": "alcohol", "wheelchair": "limited"}}, {"type": "node", "id": 2758797338, "lat": 48.886155, "lon": 2.295657, "tags": {"access:covid19": "yes", "addr:housenumber": "73", "addr:street": "Boulevard Berthier", "brand": "Nicolas", "brand:wikidata": "Q3340012", "brand:wikipedia": "en:Nicolas (wine retailer)", "delivery:covid19": "yes", "description:covid19": "Livraison de paniers ap\u00e9ro, avec fromages et/ou charcuteries au choix venant des commer\u00e7ants du quartier.", "name": "Nicolas", "opening_hours": "Mo-Th 10:00-20:30; Fr-Sa 10:00-21:00", "opening_hours:covid19": "Tu-Sa,PH 09:00-13:00,15:00-19:00", "phone": "+33 1 43801523", "shop": "alcohol", "source": "Survey", "takeaway:covid19": "yes", "website": "http://www.nicolas.com/fr/magasin/paris/berthier-70-18-465.htm"}}, {"type": "node", "id": 2770625324, "lat": 48.8361294, "lon": 2.3526603, "tags": {"brand": "Nicolas", "brand:wikidata": "Q3340012", "brand:wikipedia": "en:Nicolas (wine retailer)", "name": "Nicolas", "network": "Nicolas", "opening_hours": "Tu-Sa 10:00-13:00,15:00-20:00", "shop": "alcohol"}}, {"type": "node", "id": 2777275236, "lat": 48.881315, "lon": 2.294515, "tags": {"alcohol": "wine", "name": "Vins Guy Jeunema\u00eetre", "shop": "alcohol"}}, {"type": "node", "id": 2788471612, "lat": 48.8404953, "lon": 2.3496256, "tags": {"brand": "Nicolas", "brand:wikidata": "Q3340012", "brand:wikipedia": "en:Nicolas (wine retailer)", "contact:city": "Paris", "contact:housenumber": "114", "contact:postcode": "75005", "contact:street": "Rue Mouffetard", "name": "Nicolas", "opening_hours": "Tu-Fr 10:00-14:00,15:00-20:00; Sa 10:00-20:00; Su 10:00-13:30", "shop": "alcohol"}}, {"type": "node", "id": 2788471622, "lat": 48.8407382, "lon": 2.349601, "tags": {"contact:city": "Paris", "contact:housenumber": "112", "contact:postcode": "75005", "contact:street": "Rue Mouffetard", "name": "Le Repaire de Bacchus", "opening_hours": "Mo 15:30-20:30; Tu-Fr 10:00-14:30,15:00-20:30; Sa 10:00-20:30; Su 10:00-13:00", "shop": "alcohol"}}, {"type": "node", "id": 2793461182, "lat": 48.882033, "lon": 2.288517, "tags": {"alcohol": "wine", "name": "Cave XVII", "shop": "alcohol"}}, {"type": "node", "id": 2799009850, "lat": 48.8346264, "lon": 2.2897545, "tags": {"brand": "Nicolas", "brand:wikidata": "Q3340012", "name": "Nicolas", "opening_hours": "Mo 16:00-20:00; Tu-Fr 10:30-13:00,15:00-20:00; Sa 10:30-20:00", "shop": "alcohol"}}, {"type": "node", "id": 2822432201, "lat": 48.87562, "lon": 2.332003, "tags": {"brand": "Nicolas", "brand:wikidata": "Q3340012", "brand:wikipedia": "en:Nicolas (wine retailer)", "name": "Nicolas", "opening_hours": "Mo-Sa 11:00-20:00", "opening_hours:covid19": "off", "shop": "alcohol"}}, {"type": "node", "id": 2823113901, "lat": 48.880798, "lon": 2.285752, "tags": {"alcohol": "wine", "brand": "Nicolas", "brand:wikidata": "Q3340012", "brand:wikipedia": "en:Nicolas (wine retailer)", "check_date": "2023-01-21", "name": "Nicolas", "shop": "alcohol"}}, {"type": "node", "id": 2827723501, "lat": 48.8256721, "lon": 2.3571109, "tags": {"brand": "Nicolas", "brand:wikidata": "Q3340012", "brand:wikipedia": "en:Nicolas (wine retailer)", "name": "Nicolas", "opening_hours": "Tu-Fr,Su 10:00-13:30, Tu-Fr 15:00-20:30; Mo 16:00-20:30; Sa 10:00-20:30", "opening_hours:covid19": "off", "shop": "alcohol", "wheelchair": "yes"}}, {"type": "node", "id": 2844396855, "lat": 48.8455662, "lon": 2.3833103, "tags": {"contact:email": "raisinbleuparis@gmail.com", "contact:phone": "+33 6 07 52 52 64", "delivery:covid19": "yes", "name": "Le Raisin Bleu", "opening_hours": "Tu-Fr 10:00-13:00,16:00-20:00, Sa 10:00-13:30,15:00-20:00", "opening_hours:covid19": "open", "shop": "alcohol", "source": "knowledge", "survey:date": "2020-06-20", "website": "https://www.epicery.com/epiceries/le-raisin-bleu-chaligny", "wheelchair": "limited"}}, {"type": "node", "id": 2853024593, "lat": 48.8335443, "lon": 2.3309743, "tags": {"name": "Cave Peret", "opening_hours": "Mo 17:00-20:00; Tu-Sa 09:30-20:00; Su 09:30-13:30", "shop": "alcohol"}}, {"type": "node", "id": 2853978788, "lat": 48.8337061, "lon": 2.3305217, "tags": {"addr:city": "Paris", "addr:housenumber": "10", "addr:postcode": "75014", "addr:street": "Rue Daguerre", "brand": "Nicolas", "brand:wikidata": "Q3340012", "brand:wikipedia": "en:Nicolas (wine retailer)", "name": "Nicolas", "opening_hours": "Mo 17:00-20:00; Tu-Fr 09:30-13:30,14:30-20:00; Sa 09:30-20:00; Su 09:30-13:00", "shop": "alcohol", "website": "https://www.nicolas.com/"}}, {"type": "node", "id": 2901760874, "lat": 48.826699, "lon": 2.3268854, "tags": {"name": "Le Cellier d'Al\u00e9sia", "opening_hours": "Tu-Su 10:00-13:00, Tu-Fr 15:00-20:00, Sa 10:00-20:00", "shop": "alcohol", "source": "survey"}}, {"type": "node", "id": 2912780884, "lat": 48.8328248, "lon": 2.3863263, "tags": {"brand": "Nicolas", "brand:wikidata": "Q3340012", "brand:wikipedia": "en:Nicolas (wine retailer)", "name": "Nicolas", "opening_hours": "Mo-Su 10:00-20:00", "shop": "alcohol", "wheelchair": "limited"}}, {"type": "node", "id": 2916067864, "lat": 48.8508633, "lon": 2.30107, "tags": {"brand": "Nicolas", "brand:wikidata": "Q3340012", "brand:wikipedia": "en:Nicolas (wine retailer)", "name": "Nicolas", "opening_hours": "Tu-Sa 10:00-20:30; Mo 16:00-20:30; Su 10:00-13:00", "shop": "alcohol"}}, {"type": "node", "id": 2917352882, "lat": 48.8408682, "lon": 2.3054615, "tags": {"brand": "Nicolas", "brand:wikidata": "Q3340012", "brand:wikipedia": "en:Nicolas (wine retailer)", "name": "Nicolas", "opening_hours": "Tu-Sa 10:00-21:00, Mo 14:00-20:30", "shop": "alcohol"}}, {"type": "node", "id": 2919347301, "lat": 48.853455, "lon": 2.366003, "tags": {"brand": "Nicolas", "brand:wikidata": "Q3340012", "brand:wikipedia": "en:Nicolas (wine retailer)", "name": "Nicolas", "opening_hours": "Mo-Sa 10:00-20:30, Su 10:00-13:00", "shop": "alcohol", "wheelchair": "yes"}}, {"type": "node", "id": 2919559722, "lat": 48.8851815, "lon": 2.3802771, "tags": {"brand": "Nicolas", "brand:wikidata": "Q3340012", "brand:wikipedia": "en:Nicolas (wine retailer)", "name": "Nicolas", "opening_hours:covid19": "off", "shop": "alcohol"}}, {"type": "node", "id": 2921130390, "lat": 48.8856425, "lon": 2.3819517, "tags": {"delivery:covid19": "no", "description:covid19": "uniquement sur commande \u00e0 r\u00e9cup\u00e9rer sur place", "name": "Cavavin", "opening_hours:covid19": "open", "shop": "alcohol"}}, {"type": "node", "id": 2924393164, "lat": 48.844004, "lon": 2.3521552, "tags": {"name": "Vin et Whisky", "opening_hours": "Tu 16:00-21:00; We-Fr 10:00-14:00,16:00-21:00; Sa 10:00-21:00; Su 10:00-14:00", "shop": "alcohol"}}, {"type": "node", "id": 2934421701, "lat": 48.883391, "lon": 2.304279, "tags": {"alcohol": "wine", "brand": "Nicolas", "brand:wikidata": "Q3340012", "contact:city": "Paris", "contact:email": "service-clients@nicolas.com", "contact:housenumber": "79", "contact:phone": "+33 1 47 63 55 13", "contact:postcode": "75017", "contact:street": "Rue Jouffroy d'Abbans", "contact:website": "https://www.nicolas.com/fr/magasins/JOUFFROY/s/00002181.html", "name": "Nicolas Jouffroy", "opening_hours": "Mo 15:00-20:00, 09:00-18:00; Tu-Fr 09:30-13:00, 15:00-20:30; Sa 09:30-20:00", "shop": "alcohol", "wheelchair": "yes"}}, {"type": "node", "id": 2980014524, "lat": 48.8587809, "lon": 2.3553879, "tags": {"brand": "Nicolas", "brand:wikidata": "Q3340012", "brand:wikipedia": "en:Nicolas (wine retailer)", "name": "Nicolas", "opening_hours": "Mo-Sa 11:00-21:00, Sa 16:00-20:00", "shop": "alcohol", "source": "survey", "survey:date": "2017-07-05"}}, {"type": "node", "id": 3021147442, "lat": 48.8746536, "lon": 2.3883406, "tags": {"name": "Nysa", "shop": "alcohol", "source": "survey"}}, {"type": "node", "id": 3041850041, "lat": 48.84757, "lon": 2.348428, "tags": {"check_date": "2023-04-29", "name": "De Vinis Illustribus", "shop": "alcohol"}}, {"type": "node", "id": 3087194403, "lat": 48.8642212, "lon": 2.3689996, "tags": {"brand": "Nicolas", "brand:wikidata": "Q3340012", "brand:wikipedia": "en:Nicolas (wine retailer)", "name": "Nicolas", "shop": "alcohol"}}, {"type": "node", "id": 3092529901, "lat": 48.8568635, "lon": 2.3783439, "tags": {"alcohol": "wine", "brand": "Nicolas", "brand:wikidata": "Q3340012", "brand:wikipedia": "en:Nicolas (wine retailer)", "name": "Nicolas", "opening_hours": "Mo 17:00-20:15; Tu-Sa 10:00-13:30, 15:00-20:15", "shop": "alcohol"}}, {"type": "node", "id": 3109774530, "lat": 48.878676, "lon": 2.289772, "tags": {"alcohol": "wine", "name": "La Vigne au Verre", "shop": "alcohol", "wheelchair": "no"}}, {"type": "node", "id": 3116538445, "lat": 48.8666666, "lon": 2.3973061, "tags": {"brand": "Nicolas", "brand:wikidata": "Q3340012", "brand:wikipedia": "en:Nicolas (wine retailer)", "check_date:opening_hours": "2022-02-10", "name": "Nicolas", "opening_hours": "Mo 16:00-20:15; Tu-Fr 10:00-13:00,15:30-20:15; Sa 10:00-20:15; Su 10:00-13:00", "opening_hours:covid19": "open", "shop": "alcohol"}}, {"type": "node", "id": 3120480864, "lat": 48.8594547, "lon": 2.3673294, "tags": {"alcohol": "wine", "name": "Bouquet des Vins", "opening_hours": "Mo-We 11:00-13:00, 14:30-20:30; Th-Su 11:00-20:00", "phone": "+33147003929", "shop": "alcohol", "website": "http://www.bouquetdesvins.com", "wheelchair": "limited"}}, {"type": "node", "id": 3125969525, "lat": 48.8662774, "lon": 2.3975962, "tags": {"alcohol": "wine", "name": "Le Repaire de Bacchus", "shop": "alcohol"}}, {"type": "node", "id": 3140659781, "lat": 48.8680638, "lon": 2.4092971, "tags": {"alcohol": "wine", "brand": "Nicolas", "brand:wikidata": "Q3340012", "brand:wikipedia": "en:Nicolas (wine retailer)", "name": "Nicolas", "shop": "alcohol"}}, {"type": "node", "id": 3143534211, "lat": 48.8623471, "lon": 2.3792821, "tags": {"check_date": "2023-04-02", "name": "Le Vin de boh\u00eame", "opening_hours:covid19": "open", "shop": "alcohol"}}, {"type": "node", "id": 3155052944, "lat": 48.8471535, "lon": 2.3167132, "tags": {"alcohol": "wine", "brand": "Nicolas", "brand:wikidata": "Q3340012", "brand:wikipedia": "en:Nicolas (wine retailer)", "name": "Nicolas", "opening_hours": "Tu-Fr 10:00-13:30, Mo 14:30-20:15, Tu-Fr 14:30-20:00, Sa 10:00-20:00", "shop": "alcohol", "wheelchair": "yes"}}, {"type": "node", "id": 3155082607, "lat": 48.8469748, "lon": 2.3108131, "tags": {"access:covid19": "yes", "brand": "Nicolas", "brand:wikidata": "Q3340012", "brand:wikipedia": "en:Nicolas (wine retailer)", "name": "Nicolas", "opening_hours:covid19": "open", "shop": "alcohol"}}, {"type": "node", "id": 3159336348, "lat": 48.8472385, "lon": 2.3961176, "tags": {"brand": "Nicolas", "brand:wikidata": "Q3340012", "brand:wikipedia": "en:Nicolas (wine retailer)", "name": "Nicolas", "opening_hours": "Tu-Sa 09:30-13:00,15:30-20:00; Su 10:00-13:00", "shop": "alcohol", "wheelchair": "yes"}}, {"type": "node", "id": 3201604404, "lat": 48.8626962, "lon": 2.3626614, "tags": {"alcohol": "wine", "name": "Nyza", "opening_hours": "Mo-Fr 10:30-14:00, 16:00-21:00; Sa 10:30-14:00, 15:00-21:00; Su 9:30-14:00, 16:00-21:00", "shop": "alcohol", "website": "https://www.nysa.fr/"}}, {"type": "node", "id": 3205830461, "lat": 48.86345, "lon": 2.3502493, "tags": {"name": "Le Comptoir du Terroir", "shop": "alcohol"}}, {"type": "node", "id": 3224123095, "lat": 48.8712079, "lon": 2.353317, "tags": {"brand": "Nicolas", "brand:wikidata": "Q3340012", "brand:wikipedia": "en:Nicolas (wine retailer)", "name": "Nicolas", "shop": "alcohol", "source": "survey"}}, {"type": "node", "id": 3226121580, "lat": 48.8626962, "lon": 2.3622537, "tags": {"alcohol": "wine", "contact:facebook": "https://www.facebook.com/BibovinoEnfantsRouges/", "name": "BiBoViNo", "opening_hours": "Tu-Th 11:00-14:30, 16:00-20:00; Fr-Sa 11:00-20:00; Su 10:30-18:30", "phone": "+33 1 42 71 14 08", "shop": "alcohol", "website": "https://www.bibovino.fr/content/29-bibovino-charlot"}}, {"type": "node", "id": 3237836296, "lat": 48.827807, "lon": 2.3718989, "tags": {"level": "0", "name": "La Cave de Tolbiac", "opening_hours": "Tu-Sa 10:00-20:30,Su 10:00-13:00", "shop": "alcohol", "wheelchair": "limited"}}, {"type": "node", "id": 3253931986, "lat": 48.8741225, "lon": 2.3878289, "tags": {"bulk_purchase": "yes", "contact:housenumber": "5", "contact:postcode": "75020", "contact:street": "Rue Jean-Baptiste Dumay", "name": "Vino Sfuso", "phone": "+33 9 80 36 22 19", "ref:FR:SIRET": "79829551500018", "shop": "alcohol", "source": "survey", "website": "http://sfuso.fr/"}}, {"type": "node", "id": 3268964391, "lat": 48.8651846, "lon": 2.3567557, "tags": {"alcohol": "wine", "name": "La Cave \u00e0 Jiu", "phone": "+33157408888", "shop": "alcohol"}}, {"type": "node", "id": 3280902361, "lat": 48.8639079, "lon": 2.3545467, "tags": {"alcohol": "wine", "contact:phone": "+33 9 52 59 22 29", "contact:website": "https://portologia.com/", "name": "Portologia - La Maison des Porto", "origin": "portuguese", "shop": "alcohol"}}, {"type": "node", "id": 3284986212, "lat": 48.8373993, "lon": 2.2578441, "tags": {"alcohol": "wine", "brand": "Nicolas", "brand:wikidata": "Q3340012", "brand:wikipedia": "en:Nicolas (wine retailer)", "contact:city": "Paris", "contact:housenumber": "115", "contact:postcode": "75016", "contact:street": "Boulevard Murat", "name": "Nicolas", "opening_hours": "Tu-Sa 10:00-21:00; Mo 10:00-13:00", "shop": "alcohol"}}, {"type": "node", "id": 3307941161, "lat": 48.8587507, "lon": 2.355698, "tags": {"name": "Bossetti", "shop": "alcohol", "survey:date": "2017-07-05", "wheelchair": "yes"}}, {"type": "node", "id": 3308073289, "lat": 48.842808, "lon": 2.3131526, "tags": {"name": "Se mettre au Verre", "opening_hours:covid19": "open", "shop": "alcohol"}}, {"type": "node", "id": 3354765968, "lat": 48.8343456, "lon": 2.3282918, "tags": {"addr:housenumber": "35", "addr:postcode": "75014", "addr:street": "Rue Daguerre", "alcohol": "wine", "email": "contact@lacavedespapilles.com", "name": "La Cave des Papilles", "opening_hours": "Mo 15:30-20:30; Tu-Fr 10:00-13:30, 15:30-20:30; Sa 10:00-20:30; Su 10:00-13:30", "phone": "+33 1 43 20 05 74", "shop": "alcohol", "website": "http://www.lacavedespapilles.com"}}, {"type": "node", "id": 3357955646, "lat": 48.8940556, "lon": 2.3340922, "tags": {"alcohol": "wine", "shop": "alcohol"}}, {"type": "node", "id": 3363576993, "lat": 48.8518179, "lon": 2.3383588, "tags": {"name": "LMDW Fine Spirits", "opening_hours": "Mo-Sa 10:00-20:00", "shop": "alcohol"}}, {"type": "node", "id": 3378053459, "lat": 48.8631321, "lon": 2.3589221, "tags": {"name": "Soif d'Ailleurs", "opening_hours": "Mo-Sa 11:00-21:00, Su 11:00-18:00", "shop": "alcohol", "wheelchair": "yes"}}, {"type": "node", "id": 3458097215, "lat": 48.861036, "lon": 2.3504412, "tags": {"name": "La Cave \u00e0 Bulles", "phone": "+33 1 40 29 03 69", "shop": "alcohol", "website": "http://www.caveabulles.fr/", "wheelchair": "no"}}, {"type": "node", "id": 3489506290, "lat": 48.8829135, "lon": 2.3149369}, {"type": "node", "id": 3489506291, "lat": 48.8828602, "lon": 2.3149963}, {"type": "node", "id": 3519646741, "lat": 48.865071, "lon": 2.3631505, "tags": {"alcohol": "wine", "name": "La Cave du Barav", "shop": "alcohol"}}, {"type": "node", "id": 3545053093, "lat": 48.8799715, "lon": 2.3207439, "tags": {"alcohol": "wine", "brand": "Nicolas", "brand:wikidata": "Q3340012", "brand:wikipedia": "en:Nicolas (wine retailer)", "drive_through": "no", "name": "Nicolas", "opening_hours": "Tu-Sa 10:30-20:30; Mo 16:00-20:30+", "shop": "alcohol", "website": "https://www.nicolas.com/"}}, {"type": "node", "id": 3551122474, "lat": 48.8549545, "lon": 2.2952426, "tags": {"brand": "Nicolas", "brand:wikidata": "Q3340012", "name": "Nicolas", "shop": "alcohol", "source": "cadastre-dgi-fr source : Direction G\u00e9n\u00e9rale des Imp\u00f4ts - Cadastre. Mise \u00e0 jour : 2015", "wheelchair": "yes"}}, {"type": "node", "id": 3561190097, "lat": 48.8301711, "lon": 2.3198788, "tags": {"alcohol": "wine", "brand": "Nicolas", "brand:wikidata": "Q3340012", "brand:wikipedia": "en:Nicolas (wine retailer)", "name": "Nicolas", "opening_hours": "Tu-Sa 10:00-13:30,15:30-20:00", "shop": "alcohol"}}, {"type": "node", "id": 3621537893, "lat": 48.8731786, "lon": 2.3810417, "tags": {"addr:housenumber": "51", "addr:postcode": "75019", "addr:street": "Rue de Belleville", "alcohol": "wine", "email": "51@lacavedebelleville.com", "internet_access": "wlan", "name": "La Cave de Belleville", "opening_hours": "Mo-Th 10:00-20:00; Fr,Sa 10:00-20:30; Su 11:00-19:00", "opening_hours:covid19": "open", "phone": "+33 1 40 34 12 95", "shop": "alcohol", "takeaway:covid19": "only", "website": "https://lacavedebelleville.wordpress.com"}}, {"type": "node", "id": 3621575793, "lat": 48.8699147, "lon": 2.3704253, "tags": {"alcohol": "wine", "brand": "Nicolas", "brand:wikidata": "Q3340012", "brand:wikipedia": "en:Nicolas (wine retailer)", "check_date": "2023-03-25", "name": "Nicolas", "opening_hours:covid19": "Mo 16:00-20h15; Tu-Th 11:00-13:30,15:30-20:00; Fr-Sa 10:30-14:00,15:00-20:30", "shop": "alcohol", "wheelchair": "limited"}}, {"type": "node", "id": 3621879394, "lat": 48.8587778, "lon": 2.3621908, "tags": {"alcohol": "wine", "name": "Des Bulles Sinon Rien", "shop": "alcohol"}}, {"type": "node", "id": 3623282841, "lat": 48.8388717, "lon": 2.3502291, "tags": {"addr:city": "Paris", "addr:housenumber": "4", "addr:postcode": "75005", "addr:street": "Rue de Bazeilles", "alcohol": "wine", "brand": "Nicolas", "brand:wikidata": "Q3340012", "brand:wikipedia": "en:Nicolas (wine retailer)", "name": "Nicolas", "name:en": "Nicolas", "name:fr": "Nicolas", "opening_hours": "Mo 16:00-20:00; Tu-Sa 10:00-20:00; Su 10:00-13:00", "shop": "alcohol"}}, {"type": "node", "id": 3626235514, "lat": 48.842798, "lon": 2.3290888, "tags": {"brand": "Nicolas", "brand:wikidata": "Q3340012", "brand:wikipedia": "en:Nicolas (wine retailer)", "name": "Nicolas", "opening_hours": "Mo-Sa 10:30-13:00,15:30-20:00", "shop": "alcohol", "source": "survey", "wheelchair": "limited"}}, {"type": "node", "id": 3641131012, "lat": 48.8471798, "lon": 2.3183004, "tags": {"drink:beer": "retail", "drink:wine": "retail", "name": "Nysa", "opening_hours": "Mo-Sa 15:00-20:00, Tu-Sa 10:00-14:00, Su 10:00-13:30", "shop": "alcohol", "website": "https://www.nysa.fr"}}, {"type": "node", "id": 3659114892, "lat": 48.8688738, "lon": 2.3623609, "tags": {"brand": "Nicolas", "brand:wikidata": "Q3340012", "brand:wikipedia": "en:Nicolas (wine retailer)", "check_date": "2023-03-18", "name": "Nicolas", "opening_hours:covid19": "open", "shop": "alcohol"}}, {"type": "node", "id": 3682562827, "lat": 48.8727967, "lon": 2.302317, "tags": {"brand": "Nicolas", "brand:wikidata": "Q3340012", "brand:wikipedia": "en:Nicolas (wine retailer)", "name": "Nicolas", "shop": "alcohol"}}, {"type": "node", "id": 3688326417, "lat": 48.8650453, "lon": 2.3741757, "tags": {"brand": "Nicolas", "brand:wikidata": "Q3340012", "brand:wikipedia": "en:Nicolas (wine retailer)", "name": "Nicolas", "shop": "alcohol"}}, {"type": "node", "id": 3708478629, "lat": 48.8312288, "lon": 2.3754063, "tags": {"addr:city": "Paris", "addr:country": "FR", "addr:housenumber": "3", "addr:postcode": "75013", "addr:street": "Place Jean-Michel Basquiat", "alcohol": "wine", "brand": "Nicolas", "brand:wikidata": "Q3340012", "brand:wikipedia": "en:Nicolas (wine retailer)", "name": "Nicolas", "opening_hours": "Mo 16:00-20:30; Tu-Fr 11:30-14:00,16:00-20:30; Sa 10:30-13:00,14:30-20:00", "phone": "+33 1 44 24 23 96", "shop": "alcohol", "source": "survey", "website": "http://www.nicolas.com/fr", "wheelchair": "yes"}}, {"type": "node", "id": 3760274257, "lat": 48.8668407, "lon": 2.3615449, "tags": {"alcohol": "wine", "brand": "Nicolas", "brand:wikidata": "Q3340012", "brand:wikipedia": "en:Nicolas (wine retailer)", "name": "Nicolas", "opening_hours": "Mo 16:30-20:00; Tu-Sa 11:00-20:00; PH,Su off", "shop": "alcohol"}}, {"type": "node", "id": 3761282026, "lat": 48.844025, "lon": 2.3078586, "tags": {"alcohol": "wine", "name": "Moment Divin", "opening_hours": "Mo 14:00-19:00; Tu-Fr 10:30-13:00,15:00-20:00; Sa 10:30-20:00", "shop": "alcohol", "website": "https://www.momentdivin.com"}}, {"type": "node", "id": 3811373957, "lat": 48.8677957, "lon": 2.2978832, "tags": {"alcohol": "wine", "brand": "Nicolas", "brand:wikidata": "Q3340012", "brand:wikipedia": "en:Nicolas (wine retailer)", "name": "Nicolas", "opening_hours": "Mo-Th 09:30-20:00; Fr 09:30-20:30; Sa 09:30-13:00,15:00-20:30", "opening_hours:covid19": "open", "shop": "alcohol", "wheelchair": "yes"}}, {"type": "node", "id": 3812706957, "lat": 48.8887894, "lon": 2.3197317, "tags": {"alcohol": "wine", "name": "Cave et D\u00e9pendances", "shop": "alcohol"}}, {"type": "node", "id": 3826677457, "lat": 48.8474214, "lon": 2.2671922, "tags": {"alcohol": "wine", "name": "Des Mets des Vins", "shop": "alcohol"}}, {"type": "node", "id": 3835958364, "lat": 48.8896791, "lon": 2.3203166, "tags": {"access:covid19": "yes", "alcohol": "wine", "brand:wikidata": "Q3524695", "name": "Nicolas", "opening_hours:covid19": "open", "operator": "Nicolas", "shop": "alcohol", "survey:date": "2017-07-12"}}, {"type": "node", "id": 3841552457, "lat": 48.8604474, "lon": 2.3760472, "tags": {"contact:city": "Paris", "contact:housenumber": "79", "contact:postcode": "75011", "contact:street": "Boulevard Voltaire", "drive_through": "no", "name": "Bodoma", "opening_hours": "Mo-Tu 09:30-22:00; We-Sa 09:30-22:00; Su 11:00-20:00", "opening_hours:covid19": "off", "payment:cards": "yes", "payment:cash": "yes", "shop": "alcohol", "website": "https://bodoma.com/", "wheelchair": "yes"}}, {"type": "node", "id": 3889241158, "lat": 48.8655394, "lon": 2.3504105, "tags": {"amenity": "bar", "name": "Ma Cave Fleury", "shop": "alcohol", "toilets:wheelchair": "yes", "wheelchair": "yes"}}, {"type": "node", "id": 3976842257, "lat": 48.8827827, "lon": 2.3175797, "tags": {"access:covid19": "yes", "alcohol": "wine", "name": "L'Hardi Vin", "opening_hours:covid19": "open", "shop": "alcohol"}}, {"type": "node", "id": 3980826479, "lat": 48.8612044, "lon": 2.3445516, "tags": {"alcohol": "wine", "contact:city": "Paris", "contact:housenumber": "42", "contact:postcode": "75001", "contact:street": "Rue Saint-Honor\u00e9", "name": "Cave Saint-Honor\u00e9", "shop": "alcohol"}}, {"type": "node", "id": 3985131782, "lat": 48.8759515, "lon": 2.3033075, "tags": {"alcohol": "wine", "name": "Les Caves de Taillevent", "shop": "alcohol", "wheelchair": "yes"}}, {"type": "node", "id": 3991869893, "lat": 48.8723817, "lon": 2.3116264, "tags": {"alcohol": "wine", "brand": "Nicolas", "brand:wikidata": "Q3340012", "brand:wikipedia": "en:Nicolas (wine retailer)", "name": "Nicolas", "opening_hours:covid19": "off", "shop": "alcohol", "wheelchair": "yes"}}, {"type": "node", "id": 4038906198, "lat": 48.8789468, "lon": 2.3453168, "tags": {"alcohol": "wine", "brand": "Nicolas", "brand:wikidata": "Q3340012", "brand:wikipedia": "en:Nicolas (wine retailer)", "fixme": "absent", "name": "Nicolas", "note": "The object dispappeared or never happened to be there", "shop": "alcohol"}}, {"type": "node", "id": 4038906289, "lat": 48.8800811, "lon": 2.3463275, "tags": {"name": "Le Comptoir Major", "shop": "alcohol"}}, {"type": "node", "id": 4040158156, "lat": 48.8460138, "lon": 2.3427483, "tags": {"brand": "Nicolas", "brand:wikidata": "Q3340012", "brand:wikipedia": "en:Nicolas (wine retailer)", "check_date:opening_hours": "2022-05-12", "name": "Nicolas", "opening_hours": "Tu-Fr 09:30-13:30, Sa 09:30-20:30, Su 10:00-13:00, Tu-Fr 15:00-20:30, Mo 16:00-20:30", "opening_hours:covid19": "open", "phone": "+33 1 43 54 67 38", "shop": "alcohol"}}, {"type": "node", "id": 4070085121, "lat": 48.8524259, "lon": 2.3268191, "tags": {"brand": "Nicolas", "brand:wikidata": "Q3340012", "brand:wikipedia": "en:Nicolas (wine retailer)", "name": "Nicolas", "opening_hours": "Mo 13:30-20:00; Tu-Fr 09:00-20:00; Sa 09:30-20:00", "shop": "alcohol"}}, {"type": "node", "id": 4078048079, "lat": 48.8901102, "lon": 2.3341598, "tags": {"alcohol": "wine", "brand": "Nicolas", "brand:wikidata": "Q3340012", "brand:wikipedia": "en:Nicolas (wine retailer)", "name": "Nicolas", "shop": "alcohol"}}, {"type": "node", "id": 4078154330, "lat": 48.8929648, "lon": 2.3267294, "tags": {"brand": "Nicolas", "brand:wikidata": "Q3340012", "contact:city": "Paris", "contact:housenumber": "71", "contact:postcode": "75017", "contact:street": "Rue Guy M\u00f4quet", "name": "Nicolas", "shop": "alcohol"}}, {"type": "node", "id": 4086276395, "lat": 48.8793672, "lon": 2.3030892, "tags": {"brand": "Nicolas", "brand:wikidata": "Q3340012", "brand:wikipedia": "en:Nicolas (wine retailer)", "contact:city": "Paris", "contact:housenumber": "96", "contact:postcode": "75017", "contact:street": "Rue de Courcelles", "name": "Nicolas", "opening_hours": "Mo 15:30-20:30; Tu-Fr 10:00-20:30; Sa 10:00-20:00", "opening_hours:covid19": "off", "shop": "alcohol"}}, {"type": "node", "id": 4089530989, "lat": 48.8819166, "lon": 2.3246305, "tags": {"name": "Le Rouge et le Verre", "opening_hours": "Mo 10:00-20:00; Tu,We 10:00-22:00; Th-Sa 10:00-23:00", "opening_hours:covid19": "off", "shop": "alcohol", "survey:date": "2017-09-07"}}, {"type": "node", "id": 4126227736, "lat": 48.8504835, "lon": 2.3298819, "tags": {"brand": "Nicolas", "brand:wikidata": "Q3340012", "name": "Nicolas", "opening_hours": "Tu-Sa 10:00-13:30,15:00-20:00", "shop": "alcohol"}}, {"type": "node", "id": 4128557948, "lat": 48.8368625, "lon": 2.3205129, "tags": {"addr:housenumber": "16", "addr:street": "Rue Jules Guesde", "check_date:opening_hours": "2023-04-25", "name": "Cave Balthazar", "opening_hours": "Tu-Sa 10:00-13:00,16:30-20:00", "shop": "alcohol"}}, {"type": "node", "id": 4128592716, "lat": 48.8350327, "lon": 2.3171731, "tags": {"addr:housenumber": "82", "addr:postcode": "75014", "addr:street": "Rue de l'Ouest", "name": "Bootlegger", "opening_hours": "Tu 12:00-20:00 ; We-Th 10:30-13:30, 15:30-20:00 ; Fr-Sa 10:30-20:00", "phone": "+33143279402", "shop": "alcohol", "website": "http://bieres-bootlegger.fr"}}, {"type": "node", "id": 4129788699, "lat": 48.8351888, "lon": 2.3039574, "tags": {"brand": "Nicolas", "brand:wikidata": "Q3340012", "brand:wikipedia": "en:Nicolas (wine retailer)", "name": "Nicolas", "opening_hours": "Tu-Fr 10:00-13:00,16:00-19:30; Sa 10:00-19:30; Su 10:00-13:00", "shop": "alcohol"}}, {"type": "node", "id": 4129788892, "lat": 48.8369783, "lon": 2.2978004, "tags": {"brand": "Nicolas", "brand:wikidata": "Q3340012", "brand:wikipedia": "en:Nicolas (wine retailer)", "name": "Nicolas", "opening_hours": "Mo 14:00-19:00; Tu-Sa 10:00-19:00; Su 09:30-13:30", "opening_hours:covid19": "open", "shop": "alcohol"}}, {"type": "node", "id": 4136472190, "lat": 48.8360953, "lon": 2.2996844, "tags": {"name": "Le Repaire de Bacchus", "opening_hours": "Tu-Fr 10:30-13:00,16:00-20:00; Sa 10:00-14:00,14:30-20:00; Su 09:30-13:00", "payment:credit_cards": "yes", "payment:debit_cards": "yes", "shop": "alcohol", "wheelchair": "limited"}}, {"type": "node", "id": 4147034757, "lat": 48.839426, "lon": 2.3004731, "tags": {"alcohol": "wine", "brand": "Nicolas", "brand:wikidata": "Q3340012", "brand:wikipedia": "en:Nicolas (wine retailer)", "name": "Nicolas", "opening_hours": "Mo 15:00-20:30; Tu-Sa 10:00-20:30; Su 10:00-13:00", "opening_hours:covid19": "open", "shop": "alcohol"}}, {"type": "node", "id": 4147067397, "lat": 48.8386161, "lon": 2.300569, "tags": {"alcohol": "wine", "name": "La Robe du Vin", "shop": "alcohol"}}, {"type": "node", "id": 4151736689, "lat": 48.8340487, "lon": 2.3079116, "tags": {"name": "La Hotte du Caviste", "opening_hours": "Tu-Fr 10:00-13:30,15:30-19:30; Sa 10:00-20:30; Su 10:00-13:30", "shop": "alcohol"}}, {"type": "node", "id": 4153403306, "lat": 48.8816191, "lon": 2.3466446, "tags": {"check_date": "2022-09-30", "drive_through": "no", "name": "La Binouze", "opening_hours": "Mo-Fr 12:00-22:00, 09:00-18:00; Sa 11:00-23:00; Su 11:00-22:00", "opening_hours:covid19": "Mo-Sa 12:00-20:00; Su 14:00-19:00", "phone": "+33 9 53 17 23 18", "shop": "alcohol", "survey:date": "2018-05-05", "website": "https://www.labinouze.fr/"}}, {"type": "node", "id": 4153859569, "lat": 48.8800514, "lon": 2.3636179, "tags": {"addr:city": "Paris", "addr:housenumber": "203", "addr:postcode": "75010", "addr:street": "Rue du Faubourg Saint-Martin", "drive_through": "no", "email": "superbieres@gmail.com", "level": "0", "name": "Superbi\u00e8res", "opening_hours:covid19": "off", "phone": "+33 9 82 52 98 88", "shop": "alcohol", "source:date": "2021-05-22", "website": "http://www.superbieres.fr/"}}, {"type": "node", "id": 4181687292, "lat": 48.8656527, "lon": 2.3561498, "tags": {"addr:city": "Paris", "addr:housenumber": "55", "addr:postcode": "75003", "addr:street": "Rue de Turbigo", "alcohol": "wine", "contact:website": "http://lanouvellecave.fr/", "level": "0", "name": "La Nouvelle Cave", "opening_hours": "Mo-Sa 10:00-20:00, Su 10:00-13:00", "shop": "alcohol", "wheelchair": "yes"}}, {"type": "node", "id": 4198863091, "lat": 48.8718472, "lon": 2.323103, "tags": {"alcohol": "wine", "name": "Chemin des Vignes", "shop": "alcohol"}}, {"type": "node", "id": 4200737813, "lat": 48.8308198, "lon": 2.3430224, "tags": {"alcohol": "wine", "brand": "Nicolas", "brand:wikidata": "Q3340012", "brand:wikipedia": "en:Nicolas (wine retailer)", "check_date:opening_hours": "2022-10-08", "name": "Nicolas", "opening_hours": "Mo 16:30-20:00, Tu,We,Fr,Sa 10:30-13:00, Tu-Sa 15:30-20:00", "shop": "alcohol", "survey:date": "2020-03-12"}}, {"type": "node", "id": 4225769206, "lat": 48.8498879, "lon": 2.3401359, "tags": {"name": "Les Caves du Poulidor", "shop": "alcohol"}}, {"type": "node", "id": 4239277001, "lat": 48.835667, "lon": 2.3252126, "tags": {"addr:city": "Paris", "addr:housenumber": "82", "addr:postcode": "75014", "addr:street": "Rue Daguerre", "alcohol": "wine", "name": "Prune Cave", "opening_hours": "Tu-Su 10:00-14:00,16:00-20:00", "shop": "alcohol"}}, {"type": "node", "id": 4257302491, "lat": 48.8732413, "lon": 2.3620093, "tags": {"check_date": "2022-12-19", "name": "L'Agence", "old_name": "L'Agence", "shop": "alcohol", "source": "survey 02/2019"}}, {"type": "node", "id": 4350042945, "lat": 48.8786375, "lon": 2.295612, "tags": {"brand": "Nicolas", "brand:wikidata": "Q3340012", "brand:wikipedia": "en:Nicolas (wine retailer)", "name": "Nicolas", "opening_hours:covid19": "open", "shop": "alcohol"}}, {"type": "node", "id": 4376438552, "lat": 48.8800496, "lon": 2.3311537, "tags": {"addr:city": "Paris", "addr:housenumber": "1", "addr:postcode": "75009", "addr:street": "Rue Moncey", "amenity": "restaurant", "name": "Gegeor", "shop": "alcohol"}}, {"type": "node", "id": 4405707396, "lat": 48.8282705, "lon": 2.3526622, "tags": {"alcohol": "wine", "brand": "Nicolas", "brand:wikidata": "Q3340012", "brand:wikipedia": "en:Nicolas (wine retailer)", "level": "0", "name": "Nicolas", "opening_hours": "Mo 16:00-20:00; Tu-Fr 10:00-13:30,15:00-20:00; Sa 10:00-20:00; Su 10:00-13:00", "shop": "alcohol"}}, {"type": "node", "id": 4410273697, "lat": 48.8392216, "lon": 2.3391436, "tags": {"check_date:opening_hours": "2022-11-20", "level": "0", "name": "Vape Store & Cave \u00e0 Bi\u00e8res et Vind", "opening_hours:signed": "no", "shop": "alcohol", "survey:date": "2020-04-20"}}, {"type": "node", "id": 4420329990, "lat": 48.8753637, "lon": 2.3133007, "tags": {"alcohol": "wine", "level": "0", "name": "Armagnac Castar\u00e8de", "shop": "alcohol"}}, {"type": "node", "id": 4437974390, "lat": 48.8362726, "lon": 2.4039413, "tags": {"access:covid19": "yes", "alcohol": "wine", "brand": "Nicolas", "brand:wikidata": "Q3340012", "brand:wikipedia": "en:Nicolas (wine retailer)", "name": "Nicolas", "opening_hours:covid19": "open", "shop": "alcohol"}}, {"type": "node", "id": 4437978294, "lat": 48.8366931, "lon": 2.4027849, "tags": {"alcohol": "wine", "name": "Lovin'", "opening_hours": "Tu-Fr 10:00-13:30,15:30-20:30, Sa 10:00-20:30, Su 09:00-14:00", "opening_hours:covid19": "off", "shop": "alcohol", "wheelchair": "limited"}}, {"type": "node", "id": 4510424876, "lat": 48.8811121, "lon": 2.3500821, "tags": {"alcohol": "wine", "brand": "Nicolas", "brand:wikidata": "Q3340012", "check_date": "2022-09-30", "name": "Nicolas", "opening_hours": "Mo-Th 10:30-13:00, Fr,Sa 10:30-13:30, Mo-Fr 15:00-20:00, Sa 14:30-20:00", "shop": "alcohol", "wheelchair": "yes"}}, {"type": "node", "id": 4535378091, "lat": 48.8461482, "lon": 2.2869093, "tags": {"contact:housenumber": "41", "contact:phone": "+33 1 45 77 17 41", "contact:postcode": "75015", "contact:street": "Rue des Entrepreneurs", "name": "La Cave des Entrepreneurs", "opening_hours": "Mo-Fr 10:45-20:45; Sa 10:00-20:45; Su 10:00-20:00", "shop": "alcohol"}}, {"type": "node", "id": 4569466043, "lat": 48.8555096, "lon": 2.3398806, "tags": {"name": "Excellence Rhum", "opening_hours": "Mo,Su 14:00-19:00; Tu-Sa 10:30-20:00", "shop": "alcohol", "website": "https://www.excellencerhum.com"}}, {"type": "node", "id": 4579621803, "lat": 48.8526888, "lon": 2.3117536, "tags": {"alcohol": "wine", "brand": "Nicolas", "brand:wikidata": "Q3340012", "name": "Nicolas", "shop": "alcohol"}}, {"type": "node", "id": 4579790091, "lat": 48.8730842, "lon": 2.3208399, "tags": {"alcohol": "wine", "brand": "Nicolas", "brand:wikidata": "Q3340012", "brand:wikipedia": "en:Nicolas (wine retailer)", "name": "Nicolas", "shop": "alcohol"}}, {"type": "node", "id": 4625772791, "lat": 48.8539667, "lon": 2.3361496, "tags": {"addr:city": "Paris", "addr:housenumber": "6", "addr:postcode": "75006", "addr:street": "Rue de Bourbon le Ch\u00e2teau", "alcohol": "wine", "name": "La Derniere Goutte", "name:fr": "La Derniere Goutte", "opening_hours": "Mo 15:00-20:00; Tu-Fr 10:30-13:30,15:00-20:00; Sa 11:00-20:00; Su 12:00-19:00", "shop": "alcohol"}}, {"type": "node", "id": 4647663856, "lat": 48.8504806, "lon": 2.3785268, "tags": {"alcohol": "wine", "brand": "Nicolas", "brand:wikidata": "Q3340012", "brand:wikipedia": "en:Nicolas (wine retailer)", "name": "Nicolas", "shop": "alcohol"}}, {"type": "node", "id": 4688877090, "lat": 48.8648556, "lon": 2.3462966, "tags": {"check_date": "2023-04-17", "name": "G Detou", "opening_hours": "Mo-Sa 08:30-18:30", "shop": "alcohol"}}, {"type": "node", "id": 4694179396, "lat": 48.8519613, "lon": 2.3364681, "tags": {"alcohol": "wine", "contact:phone": "+33 6 30 86 75 39", "delivery:covid19": "yes", "name": "Bacchus et Ariane", "opening_hours:covid19": "open", "shop": "alcohol"}}, {"type": "node", "id": 4743753829, "lat": 48.8854361, "lon": 2.3115989, "tags": {"contact:city": "Paris", "contact:housenumber": "106", "contact:postcode": "75017", "contact:street": "Rue Cardinet", "name": "La Cave 106", "opening_hours:covid19": "off", "shop": "alcohol"}}, {"type": "node", "id": 4760247298, "lat": 48.8326079, "lon": 2.3154649, "tags": {"alcohol": "wine", "contact:email": "losserand@lerepairedebacchus.com", "contact:phone": "+33 1 72 63 68 82", "level": "0", "name": "Le Repaire de Bacchus", "opening_hours": "Tu-Fr 10:30-13:30,15:30-20:00, Sa 10:30-13:30,14:45-20:00", "shop": "alcohol"}}, {"type": "node", "id": 4826675622, "lat": 48.8514661, "lon": 2.3379757, "tags": {"name": "Rouge ou Blanc", "shop": "alcohol"}}, {"type": "node", "id": 4829548212, "lat": 48.8797989, "lon": 2.3526086, "tags": {"name": "Wines Spirits", "opening_hours": "Mo-Sa 10:30-20:30", "shop": "alcohol", "source": "survey 2017"}}, {"type": "node", "id": 4866553821, "lat": 48.8854106, "lon": 2.3358599, "tags": {"addr:city": "Paris", "addr:housenumber": "51", "addr:postcode": "75018", "addr:street": "Rue des Abbesses", "brand": "Nicolas", "brand:wikidata": "Q3340012", "brand:wikipedia": "en:Nicolas (wine retailer)", "drive_through": "no", "name": "Nicolas", "name:fr": "Nicolas", "opening_hours:covid19": "off", "phone": "+33 1 46 06 34 95", "shop": "alcohol"}}, {"type": "node", "id": 4908100322, "lat": 48.8544361, "lon": 2.3408277, "tags": {"name": "Dilettantes", "name:fr": "Dilettantes", "payment:credit_cards": "yes", "payment:debit_cards": "yes", "shop": "alcohol", "wheelchair": "no"}}, {"type": "node", "id": 4909114699, "lat": 48.8656575, "lon": 2.356414, "tags": {"brand": "Nicolas", "brand:wikidata": "Q3340012", "name": "Nicolas", "opening_hours": "Mo-Th 08:45-19:00; Apr-Oct Fr 08:45-18:00; Nov-Mar Fr 08:45-15:30", "shop": "alcohol"}}, {"type": "node", "id": 4920442621, "lat": 48.8493941, "lon": 2.3496659, "tags": {"brand": "Nicolas", "brand:wikidata": "Q3340012", "brand:wikipedia": "en:Nicolas (wine retailer)", "name": "Nicolas", "name:fr": "Nicolas", "opening_hours:covid19": "off", "shop": "alcohol"}}, {"type": "node", "id": 4954891722, "lat": 48.8714356, "lon": 2.3379199, "tags": {"brand": "Nicolas", "brand:wikidata": "Q3340012", "brand:wikipedia": "en:Nicolas (wine retailer)", "name": "Nicolas", "shop": "alcohol"}}, {"type": "node", "id": 5003433682, "lat": 48.8581041, "lon": 2.3285484, "tags": {"name": "La Cave des Climats", "shop": "alcohol"}}, {"type": "node", "id": 5076884176, "lat": 48.8692367, "lon": 2.3718185, "tags": {"addr:street": "Avenue Parmentier", "check_date": "2023-03-11", "contact:email": "lacavedudaron@gmail.com", "contact:housenumber": "140", "contact:phone": "+33 1 48 06 26 81", "drink:wine": "yes", "name": "La Cave du Daron", "opening_hours": "11:30-13:30,15:00-20:30", "opening_hours:covid19": "open", "shop": "alcohol"}}, {"type": "node", "id": 5086617141, "lat": 48.8744965, "lon": 2.3424943, "tags": {"brand": "Nicolas", "brand:wikidata": "Q3340012", "brand:wikipedia": "en:Nicolas (wine retailer)", "name": "Nicolas", "shop": "alcohol", "survey:date": "2018-05-05"}}, {"type": "node", "id": 5127860634, "lat": 48.8933898, "lon": 2.3456553, "tags": {"addr:housenumber": "46", "addr:street": "Rue Hermel", "drink:wine": "yes", "name": "Le Rouge aux L\u00e8vres", "opening_hours": "Tu-Sa 10:00-13:30,16:00-20:30", "shop": "alcohol"}}, {"type": "node", "id": 5129465188, "lat": 48.8851779, "lon": 2.3206823, "tags": {"drink:wine": "yes", "name": "Nysa", "opening_hours:covid19": "off", "shop": "alcohol", "survey:date": "2020-10-10"}}, {"type": "node", "id": 5157482505, "lat": 48.8823498, "lon": 2.3152372, "tags": {"name": "Nysa", "shop": "alcohol", "wheelchair": "no"}}, {"type": "node", "id": 5157491117, "lat": 48.8832752, "lon": 2.3141509, "tags": {"name": "Le Repaire de Bacchus", "shop": "alcohol"}}, {"type": "node", "id": 5170014963, "lat": 48.8809795, "lon": 2.3647635, "tags": {"brand": "Nicolas", "brand:wikidata": "Q3340012", "name": "Nicolas", "shop": "alcohol", "source": "survey 10/2017"}}, {"type": "node", "id": 5186169365, "lat": 48.8752741, "lon": 2.3433947, "tags": {"drink:wine": "yes", "name": "\u00c2me & Esprit du Vin", "shop": "alcohol", "survey:date": "2018-05-05"}}, {"type": "node", "id": 5200859333, "lat": 48.8906747, "lon": 2.3772492, "tags": {"addr:city": "Paris", "addr:housenumber": "98", "addr:postcode": "75019", "addr:street": "Avenue de Flandre", "brand": "Nicolas", "brand:wikidata": "Q3340012", "brand:wikipedia": "en:Nicolas (wine retailer)", "name": "Nicolas", "opening_hours:covid19": "Tu-Fr 09:00-14:00; Sa 10:00-13:30,14:30-18:00", "shop": "alcohol"}}, {"type": "node", "id": 5221253946, "lat": 48.8516955, "lon": 2.3378108, "tags": {"addr:housenumber": "41", "addr:postcode": "75006", "name": "La Cr\u00e8merie", "shop": "alcohol"}}, {"type": "node", "id": 5242329382, "lat": 48.8782101, "lon": 2.3582602, "tags": {"level": "0", "name": "K.G SARL", "shop": "alcohol", "source": "survey 11/2017", "wheelchair": "limited"}}, {"type": "node", "id": 5245858868, "lat": 48.8515601, "lon": 2.384465, "tags": {"name": "Crus et D\u00e9couvertes", "shop": "alcohol"}}, {"type": "node", "id": 5245859169, "lat": 48.8518023, "lon": 2.3847782, "tags": {"name": "El Galpon", "shop": "alcohol"}}, {"type": "node", "id": 5298105678, "lat": 48.8392594, "lon": 2.351238, "tags": {"addr:city": "Paris", "addr:housenumber": "119", "addr:postcode": "75005", "addr:street": "Rue Monge", "name": "Qu\u2019importe le Flacon", "opening_hours": "Tu-Sa 11:00-14:00, Mo-Sa 16:00-20:00", "opening_hours:covid19": "open", "phone": "+33 1 89 33 85 14", "shop": "alcohol", "website": "https://www.instagram.com/caveflacon/"}}, {"type": "node", "id": 5318733521, "lat": 48.863555, "lon": 2.3525123, "tags": {"addr:city": "Paris", "addr:housenumber": "203", "addr:postcode": "75003", "addr:street": "Rue Saint-Martin", "description": "Cette cave sp\u00e9cialis\u00e9e propose des rhums du monde entier, des punchs ou rhums arrang\u00e9s et des ateliers de d\u00e9gustations.", "drink": "rhum", "name": "A'Rh\u00fbm", "opening_hours": "Mo 14:00-18:00; Th-Su 10:30-18:00", "operator": "SARL A RHUM", "payment:apple_pay": "yes", "payment:cash": "yes", "payment:debit_cards": "yes", "payment:mastercard": "yes", "payment:visa": "yes", "phone": "+33 142778592", "shop": "alcohol", "source": "survey 2018", "website": "https://www.arhum.fr/"}}, {"type": "node", "id": 5381388475, "lat": 48.8641388, "lon": 2.351739, "tags": {"amenity": "bar", "contact:phone": "+33 9 53 36 15 24", "name": "La Prohibition", "shop": "alcohol", "source": "survey", "wheelchair": "limited"}}, {"type": "node", "id": 5422620911, "lat": 48.8432668, "lon": 2.3044526, "tags": {"brand": "Nicolas", "brand:wikidata": "Q3340012", "brand:wikipedia": "en:Nicolas (wine retailer)", "name": "Nicolas", "opening_hours": "Tu-Sa 10:00-13:30,15:30-20:00; Su 10:00-13:00", "shop": "alcohol"}}, {"type": "node", "id": 5427027763, "lat": 48.8537416, "lon": 2.337526, "tags": {"brand": "Nicolas", "brand:wikidata": "Q3340012", "brand:wikipedia": "en:Nicolas (wine retailer)", "name": "Nicolas", "opening_hours": "Mo 11:00-14:00,15:00-20:00; Tu-Th 10:00-14:00,15:00-20:00; Fr,Sa 10:00-20:00; Su 10:00-14:00,15:00-19:00", "shop": "alcohol", "wheelchair": "no"}}, {"type": "node", "id": 5445425290, "lat": 48.8406833, "lon": 2.2645517, "tags": {"brand": "Nicolas", "brand:wikidata": "Q3340012", "name": "Nicolas", "opening_hours": "Tu-Th 10:00-13:30, 15:30-20:00; Fr-Sa 10:00-20:00; Su 10:00-13:00", "shop": "alcohol"}}, {"type": "node", "id": 5446339344, "lat": 48.8874407, "lon": 2.3199877, "tags": {"addr:housenumber": "96", "addr:street": "Rue Legendre", "name": "L'UniVerre", "shop": "alcohol"}}, {"type": "node", "id": 5462661833, "lat": 48.8631933, "lon": 2.3528704, "tags": {"addr:city": "Paris", "addr:housenumber": "34", "addr:postcode": "75003", "addr:street": "Rue du Grenier-Saint-Lazare", "description": "Cave \u00e0 gin, tequila, mezcal, pisco", "drink": "gin", "drive_through": "no", "name": "G34.3 L'univers en bouteille", "opening_hours": "Mo-Sa 11:30-19:30", "opening_hours:covid19": "Mo 14:00-18:30 Tu-Sa 11:00-18:30", "operator": "G34.3", "payment:apple_pay": "yes", "payment:cash": "yes", "payment:debit_cards": "yes", "payment:mastercard": "yes", "payment:visa": "yes", "phone": "+33951480085", "shop": "alcohol", "website": "https://www.g343.fr/"}}, {"type": "node", "id": 5521150826, "lat": 48.8688265, "lon": 2.3208934, "tags": {"contact:city": "Paris", "contact:housenumber": "27", "contact:postcode": "75008", "contact:street": "Rue du Faubourg Saint-Honor\u00e9", "name": "Laurent Perrier", "shop": "alcohol"}}, {"type": "node", "id": 5585039392, "lat": 48.863692, "lon": 2.3786249, "tags": {"addr:city": "Paris", "description": "Bi\u00e8res du monde, artisanales et Alimentation", "name": "Hop Malt Market", "shop": "alcohol"}}, {"type": "node", "id": 5600404939, "lat": 48.8572173, "lon": 2.3988732, "tags": {"name": "Au Bon Vingt", "shop": "alcohol"}}, {"type": "node", "id": 5615809863, "lat": 48.8261711, "lon": 2.3477028, "tags": {"check_date:opening_hours": "2022-09-03", "name": "Art & Vin", "opening_hours": "Tu,Th-Sa 16:00-19:00", "opening_hours:signed": "no", "shop": "alcohol", "wheelchair": "no"}}, {"type": "node", "id": 5630303222, "lat": 48.8418649, "lon": 2.3286206, "tags": {"brand": "Nicolas", "brand:wikidata": "Q3340012", "brand:wikipedia": "en:Nicolas (wine retailer)", "name": "Nicolas", "opening_hours": "Tu-Su 10:00-13:00, Tu-Sa 16:00-20:00", "shop": "alcohol"}}, {"type": "node", "id": 5820333454, "lat": 48.8391019, "lon": 2.2620352, "tags": {"name": "Le Repaire De Bacchus", "shop": "alcohol", "source": "survey 2018"}}, {"type": "node", "id": 5921620937, "lat": 48.893097, "lon": 2.34547, "tags": {"addr:city": "Paris", "addr:housenumber": "40", "addr:postcode": "75018", "addr:street": "Rue Hermel", "drive_through": "no", "email": "labierothequebelge@gmail.com", "name": "La bi\u00e9roth\u00e8que Belge", "opening_hours": "Mo-Tu 14:00-20:30, We-Sa 11:30-20:30", "payment:cash": "yes", "payment:coins": "yes", "payment:credit_cards": "yes", "phone": "+33 658 099 342", "shop": "alcohol", "website": "https://www.labierothequebelge.paris/"}}, {"type": "node", "id": 5951734527, "lat": 48.8936686, "lon": 2.3351683, "tags": {"addr:city": "Paris", "addr:housenumber": "185bis", "addr:postcode": "75018", "addr:street": "Rue Ordener", "drive_through": "no", "name": "La Palette des Vins", "opening_hours": "Tu-Sa 09:30-13:00, Mo-Sa 16:00-20:00", "shop": "alcohol"}}, {"type": "node", "id": 6025772037, "lat": 48.8485073, "lon": 2.3782721, "tags": {"addr:housenumber": "12", "addr:postcode": "75012", "addr:street": "Place d'Aligre", "bulk_purchase": "only", "name": "Vino Sfuso", "shop": "alcohol", "website": "http://sfuso.fr/"}}, {"type": "node", "id": 6025772038, "lat": 48.8287577, "lon": 2.328727, "tags": {"addr:housenumber": "41", "addr:postcode": "75014", "addr:street": "Rue B\u00e9zout", "bulk_purchase": "only", "name": "Vino Sfuso", "operator": "Vino Sfuso", "shop": "alcohol", "website": "http://sfuso.fr"}}, {"type": "node", "id": 6042459229, "lat": 48.8882594, "lon": 2.3173241, "tags": {"description:covid19": "Uniquement sur commande avec retrait en boutique", "name": "Bouteille", "opening_hours:covid19": "open", "shop": "alcohol"}}, {"type": "node", "id": 6049882128, "lat": 48.8656816, "lon": 2.3468791, "tags": {"brand": "Nicolas", "brand:wikidata": "Q3340012", "brand:wikipedia": "en:Nicolas (wine retailer)", "level": "0", "name": "Nicolas", "opening_hours": "Mo 16:00-20:00; Tu-Sa 10:00-20:30; Su 10:00-13:30; Tu-We 14:00-15:00 closed", "phone": "+33 1 42 36 45 32", "shop": "alcohol", "source": "survey 01/2019"}}, {"type": "node", "id": 6087697664, "lat": 48.88938, "lon": 2.3767619, "tags": {"contact:email": "alpabiere@hotmail.fr", "contact:facebook": "https://www.facebook.com/ahlapompeabiere", "contact:phone": "+33 7 83290552", "contact:website": "https://alpabiere.fr", "drink:beer": "sales", "name": "Ah ! La Pompe \u00e0 Bi\u00e8re", "opening_hours": "Mo-Sa 10:00-20:00", "shop": "alcohol"}}, {"type": "node", "id": 6134842116, "lat": 48.8580128, "lon": 2.2809735, "tags": {"addr:city": "Paris", "brand": "Nicolas", "brand:wikidata": "Q3340012", "brand:wikipedia": "en:Nicolas (wine retailer)", "name": "Nicolas", "opening_hours": "Mo-Sa 10:00-20:15", "shop": "alcohol", "wheelchair": "yes"}}, {"type": "node", "id": 6198315526, "lat": 48.8556032, "lon": 2.3086904, "tags": {"addr:city": "Paris", "addr:housenumber": "15", "addr:postcode": "75007", "addr:street": "Rue Chevert", "name": "L'Annexe Richard", "opening_hours": "Mo 14:00-20:00,Tu-Sa 09:30-20:00", "shop": "alcohol"}}, {"type": "node", "id": 6224807986, "lat": 48.854319, "lon": 2.2654181, "tags": {"name": "Aux Vignobles", "opening_hours": "Tu-Fr 09:30-20:30; Sa 08:30-20:30", "phone": "+33 9 67 51 81 04", "shop": "alcohol"}}, {"type": "node", "id": 6224887888, "lat": 48.8524488, "lon": 2.2679628, "tags": {"brand": "Nicolas", "brand:wikidata": "Q3340012", "name": "Nicolas", "opening_hours": "Mo-Sa 10:00-20:30", "shop": "alcohol"}}, {"type": "node", "id": 6375908098, "lat": 48.8531621, "lon": 2.2758703, "tags": {"addr:city": "Paris", "addr:housenumber": "14", "addr:postcode": "75016", "addr:street": "Rue de Boulainvilliers", "brand": "Nicolas", "brand:wikidata": "Q3340012", "brand:wikipedia": "en:Nicolas (wine retailer)", "name": "Nicolas", "opening_hours": "Mo 16:00-20:00; Tu-Sa 10:00-13:00,15:30-20:30", "phone": "+33 1 45 24 03 71", "shop": "alcohol", "website": "https://www.nicolas.com/fr/magasins/BOULAINVILLIERS/s/00002525.html", "wheelchair": "no"}}, {"type": "node", "id": 6406854885, "lat": 48.8861953, "lon": 2.3038175, "tags": {"contact:city": "Paris", "contact:email": "info@bocquillon.fr", "contact:housenumber": "157", "contact:phone": "+33 1 47 66 18 14", "contact:postcode": "75017", "contact:street": "Avenue de Wagram", "contact:website": "https://bocquillon.fr", "name": "Bocquillon", "opening_hours": "Mo-Fr 10:00-13:00,14:00-19:00", "shop": "alcohol"}}, {"type": "node", "id": 6429242855, "lat": 48.8708923, "lon": 2.3586016, "tags": {"check_date": "2022-09-01", "contact:facebook": "https://www.facebook.com/culturescaves/", "level": "0", "name": "Cultures Caves", "opening_hours:covid19": "open", "shop": "alcohol", "source": "survey", "wheelchair": "no"}}, {"type": "node", "id": 6461478788, "lat": 48.8479247, "lon": 2.2652103, "tags": {"addr:city": "Paris", "brand": "Nicolas", "brand:wikidata": "Q3340012", "brand:wikipedia": "en:Nicolas (wine retailer)", "name": "Nicolas", "shop": "alcohol", "source": "survey 2019"}}, {"type": "node", "id": 6481392585, "lat": 48.8566313, "lon": 2.3777144, "tags": {"addr:housenumber": "106", "addr:street": "Rue de la Roquette", "email": "106sourires@gmail.com", "name": "Le sourire au pied de l'\u00e9chelle", "opening_hours": "Tu-Sa 11:00-21:00; Mo 17:00-21:00; Su 10:00-19:00", "phone": "+33 1 57 40 89 70", "shop": "alcohol", "website": "http://www.cavistelesourireaupieddelechelle.com"}}, {"type": "node", "id": 6502270285, "lat": 48.8773185, "lon": 2.2992578, "tags": {"brand": "Nicolas", "brand:wikidata": "Q3340012", "brand:wikipedia": "en:Nicolas (wine retailer)", "contact:city": "Paris", "contact:housenumber": "233", "contact:phone": "+33 1 40 55 05 51", "contact:postcode": "75008", "contact:street": "Rue du Faubourg Saint-Honor\u00e9", "contact:website": "https://www.nicolas.com/fr/magasins/PLEYEL/s/00000334.html", "name": "Nicolas", "opening_hours": "Mo-Sa 10:00-20:30", "opening_hours:covid19": "Tu-Sa 10:00-15:00", "shop": "alcohol", "takeaway:covid19": "yes"}}, {"type": "node", "id": 6541761781, "lat": 48.8659742, "lon": 2.3716877, "tags": {"alcohol": "wine", "check_date": "2023-03-12", "name": "Bien boire", "shop": "alcohol"}}, {"type": "node", "id": 6564640817, "lat": 48.8455115, "lon": 2.4039914, "tags": {"contact:city": "Paris", "contact:housenumber": "24", "contact:postcode": "75012", "contact:street": "Rue du Rendez-Vous", "description": "Vins fins de propri\u00e9taires", "drink:wine": "sales", "name": "Les Vins Guy Jeune Maitre", "opening_hours": "Mo-Sa 09:30-19:30", "shop": "alcohol"}}, {"type": "node", "id": 6597232203, "lat": 48.8317588, "lon": 2.3287705, "tags": {"check_date:opening_hours": "2023-04-20", "name": "La petite patrie", "opening_hours:signed": "no", "shop": "alcohol", "source": "survey"}}, {"type": "node", "id": 6630054837, "lat": 48.8600088, "lon": 2.3103912, "tags": {"addr:city": "Paris", "addr:housenumber": "25", "addr:postcode": "75007", "addr:street": "Boulevard de la Tour Maubourg", "brand": "Nicolas", "brand:wikidata": "Q3340012", "name": "Nicolas", "opening_hours": "Mo 16:30-20:30; Tu-Sa 10:00-13:30,15:00-20:30", "phone": "+33147054082", "shop": "alcohol", "website": "https://www.nicolas.com/fr/magasins/LATOUR-MAUBOURG/s/00003233.html"}}, {"type": "node", "id": 6631790621, "lat": 48.8414789, "lon": 2.319957}, {"type": "node", "id": 6789061243, "lat": 48.8414288, "lon": 2.3253775, "tags": {"drink:wine": "yes", "name": "Mi-fugue Mi-raisin", "opening_hours": "Mo 16:00-20:30; Tu-Th 10:30-13:30,16:00-20:30; Fr-Sa 10:00-21:00; Su 10:30-13:00", "shop": "alcohol", "website": "http://mifuguemiraisin.com/"}}, {"type": "node", "id": 6870500895, "lat": 48.8575776, "lon": 2.3763597, "tags": {"addr:city": "Paris", "addr:housenumber": "56", "addr:postcode": "75011", "addr:street": "Rue Sedaine", "name": "Esprit 50cl", "shop": "alcohol", "website": "https://esprit50cl.fr"}}, {"type": "node", "id": 6911999685, "lat": 48.8638321, "lon": 2.2880953, "tags": {"brand": "Nicolas", "brand:wikidata": "Q3340012", "brand:wikipedia": "en:Nicolas (wine retailer)", "name": "Nicolas", "shop": "alcohol"}}, {"type": "node", "id": 6982344358, "lat": 48.8476047, "lon": 2.2722916, "tags": {"brand": "Nicolas", "brand:wikidata": "Q3340012", "name": "Nicolas", "shop": "alcohol"}}, {"type": "node", "id": 7020866113, "lat": 48.8443578, "lon": 2.3315433, "tags": {"addr:city": "Paris", "addr:housenumber": "9", "addr:postcode": "75006", "addr:street": "Rue Vavin", "brand": "Nicolas", "brand:wikidata": "Q3340012", "brand:wikipedia": "en:Nicolas (wine retailer)", "name": "Nicolas", "opening_hours": "Tu-Th 10:30-13:30,15:00-19:30; Fr 10:30-13:30,15:00-20:00; Sa 10:30-20:00; Su 10:30-13:30", "phone": "+33 1 46 34 06 70", "shop": "alcohol", "website": "https://www.nicolas.com/fr/magasins/VAVIN/s/00000070.html"}}, {"type": "node", "id": 7215668929, "lat": 48.8896861, "lon": 2.3372092, "tags": {"brand": "Nicolas", "brand:wikidata": "Q3340012", "name": "Nicolas", "shop": "alcohol"}}, {"type": "node", "id": 7309404989, "lat": 48.8591092, "lon": 2.3750377, "tags": {"bulk_purchase": "yes", "name": "Po'Aperitivo", "shop": "alcohol", "website": "https://poaperitivo.com"}}, {"type": "node", "id": 7374814982, "lat": 48.8495196, "lon": 2.3294283, "tags": {"addr:city": "Paris", "addr:housenumber": "93", "addr:postcode": "75006", "addr:street": "Rue de Rennes", "name": "La Quille", "name:fr": "La Quille", "opening_hours": "Tu-Sa 10:30-20:00", "shop": "alcohol"}}, {"type": "node", "id": 7392962007, "lat": 48.878952, "lon": 2.295556, "tags": {"contact:city": "Paris", "contact:email": "bayen@lerepairedebacchus.com", "contact:housenumber": "6", "contact:phone": "+33 1 72 63 65 90", "contact:postcode": "75017", "contact:street": "Rue Bayen", "contact:website": "https://www.lerepairedebacchus.com/", "name": "Bacchus", "opening_hours": "Mo 16:00-19:30; Tu-Fr 10:30-13:30; Tu-We 16:00-19:30; Th-Fr 15:30-19:30; Sa 10:30-19:45; Su 10:00-13:00", "payment:cash": "yes", "payment:debit_cards": "yes", "payment:visa": "yes", "shop": "alcohol"}}, {"type": "node", "id": 7398925593, "lat": 48.8723095, "lon": 2.3911989, "tags": {"contact:email": "alabierecommealabiere@gmail.com", "contact:phone": "+33 7 68 86 50 10", "delivery": "yes", "description": "Livraisons 7j/7, le soir m\u00eame, bi\u00e8res artisanales, vins natures, sodas artisanaux", "name": "\u00c0 la bi\u00e8re comme \u00e0 la bi\u00e8re", "opening_hours": "Tu-Su 11:00-22:30", "phone": "+33 9 50 61 04 78", "shop": "alcohol", "takeaway": "yes", "website": "https://www.alabierecommealabiere.com/"}}, {"type": "node", "id": 7592238781, "lat": 48.8767588, "lon": 2.31524, "tags": {"contact:email": "sdarlay@chateauxandcoparis.fr", "contact:phone": "+33 145614365", "delivery:covid19": "yes", "drink:wine": "yes", "name": "Ch\u00e2teaux & Co", "opening_hours": "Mo 10:30-14:30,16:30-20:00; Tu-Fr 10:30-20:00; Sa 10:30-13:30,15:00-19:30", "opening_hours:covid19": "open", "shop": "alcohol", "website": "https://www.chateauxandcoparis.fr/"}}, {"type": "node", "id": 7700552999, "lat": 48.8454692, "lon": 2.4030368, "tags": {"contact:facebook": "https://www.facebook.com/leravitailleuraparis/", "contact:phone": "+33 1 45 70 90 56", "drink:beer": "retail", "drink:wine": "retail", "name": "Le Ravitalleur", "opening_hours": "Tu 10:30-13:00,15:30-20:00; We-Fr 10:30-13:00,15:30-19:00; Sa 10:00-20:00", "shop": "alcohol"}}, {"type": "node", "id": 7703833465, "lat": 48.8566426, "lon": 2.2776958, "tags": {"contact:city": "Paris", "contact:housenumber": "3", "contact:phone": "+33 1 42 88 85 56", "contact:postcode": "75016", "contact:street": "Rue Duban", "contact:website": "https://cavesdepassy.com", "drink:rum": "yes", "drink:sparkling_wine": "yes", "drink:whisky": "yes", "drink:wine": "yes", "name": "Caves de Passy", "opening_hours": "Tu-Sa 10:30-13:00, 16:00-20:00; Su 10:30-13:00", "shop": "alcohol"}}, {"type": "node", "id": 7704366431, "lat": 48.8568834, "lon": 2.2776487, "tags": {"contact:city": "Paris", "contact:housenumber": "9", "contact:phone": "+33 1 42 15 10 21", "contact:postcode": "75016", "contact:street": "Rue Duban", "contact:website": "http://paris16.cavavin.fr", "drink:rum": "yes", "drink:sparkling_wine": "yes", "drink:whisky": "yes", "drink:wine": "yes", "name": "Cavavin", "opening_hours": "Mo 16:30-19:30; Tu-Fr 11:00-13:30, 15:30-20:00; Sa 09:30-20:00; Su 09:30-13:15", "shop": "alcohol"}}, {"type": "node", "id": 7877806598, "lat": 48.8713603, "lon": 2.2889856, "tags": {"brand": "Nicolas", "brand:wikidata": "Q3340012", "brand:wikipedia": "en:Nicolas (wine retailer)", "name": "Nicolas", "shop": "alcohol"}}, {"type": "node", "id": 7973208266, "lat": 48.8812854, "lon": 2.3028301, "tags": {"name": "La Maison du Rhum", "opening_hours": "Tu 14:00-19:00; We, Th 11:00-19:00; Fr, Sa 11:00-20:00", "shop": "alcohol"}}, {"type": "node", "id": 7995899112, "lat": 48.8857497, "lon": 2.3198561, "tags": {"name": "Mes Accords Mets vins", "shop": "alcohol", "survey:date": "2020-10-10"}}, {"type": "node", "id": 8016758787, "lat": 48.855709, "lon": 2.3565858, "tags": {"name": "Eaux de vie et vins du monde", "shop": "alcohol"}}, {"type": "node", "id": 8090831199, "lat": 48.8768488, "lon": 2.3548605}, {"type": "node", "id": 8090831200, "lat": 48.8768908, "lon": 2.3548244}, {"type": "node", "id": 8090831201, "lat": 48.8768608, "lon": 2.3548924}, {"type": "node", "id": 8090831204, "lat": 48.8769027, "lon": 2.3548564}, {"type": "node", "id": 8172544744, "lat": 48.8453436, "lon": 2.4039217, "tags": {"name": "Nicolas Rendez-Vous", "shop": "alcohol"}}, {"type": "node", "id": 8222081717, "lat": 48.8701503, "lon": 2.3656375, "tags": {"name": "La recyclerie", "shop": "alcohol"}}, {"type": "node", "id": 8532521382, "lat": 48.872304, "lon": 2.3573291, "tags": {"drink:beer": "yes", "drink:wine": "no", "email": "contact@bobbiparis.com", "name": "BoBBi", "phone": "+33 6 52 74 43 93", "service:bicycle:repair": "yes", "shop": "alcohol", "source": "survey"}}, {"type": "node", "id": 8592130257, "lat": 48.8633788, "lon": 2.3889296, "tags": {"drink:wine": "yes", "name": "Le Lieu du Vin", "phone": "+33 1 46 36 43 39", "shop": "alcohol"}}, {"type": "node", "id": 8827465817, "lat": 48.8405967, "lon": 2.2869659, "tags": {"brand": "Nicolas", "brand:wikidata": "Q3340012", "contact:city": "Paris", "contact:housenumber": "55", "contact:postcode": "75015", "contact:street": "Avenue F\u00e9lix Faure", "name": "Nicolas", "shop": "alcohol"}}, {"type": "node", "id": 8850821753, "lat": 48.8623635, "lon": 2.3797767, "tags": {"name": "Vodka lab", "shop": "alcohol"}}, {"type": "node", "id": 8869956949, "lat": 48.8582689, "lon": 2.2815457, "tags": {"addr:city": "Paris", "addr:housenumber": "2", "addr:postcode": "75016", "addr:street": "Impasse des Carri\u00e8res", "description": "R\u00e9serv\u00e9 aux professionnels de la restauration", "email": "maryam.masure@foodex.fr", "name": "L'Atelier du Sak\u00e9", "phone": "+33 7 61 83 35 33", "shop": "alcohol", "website": "https://atelierdusake.com"}}, {"type": "node", "id": 8968421457, "lat": 48.8852598, "lon": 2.3256102, "tags": {"brand": "Nicolas", "level": "0", "name": "Nicolas", "opening_hours": "Tu-Fr 10:30-14:00, 16:00-20:30, Sa 10:00-20:00, Su-Mo closed", "shop": "alcohol", "wheelchair": "designated"}}, {"type": "node", "id": 8993760183, "lat": 48.8504049, "lon": 2.3904109, "tags": {"check_date": "2023-04-02", "name": "Caves Bernard", "shop": "alcohol"}}, {"type": "node", "id": 9066163351, "lat": 48.8744853, "lon": 2.3565669, "tags": {"addr:housenumber": "3", "addr:street": "Rue de la Fid\u00e9lit\u00e9", "description": "Cave \u00e0 vin et librairie inclusive.", "name": "Rerenga Wines", "opening_hours": "Tu-Th 12:00-20:00; Fr, Sa 11:00-14:30, 16:00-21:00; Su 10:00-14:00", "phone:mobile": "+33 642340692", "shop": "alcohol", "website": "http://rerengawines.com"}}, {"type": "node", "id": 9082433434, "lat": 48.8753111, "lon": 2.3042846, "tags": {"name": "Paris Divin", "shop": "alcohol"}}, {"type": "node", "id": 9082433486, "lat": 48.8760737, "lon": 2.3025665, "tags": {"name": "Cave Vintage & Cie", "shop": "alcohol"}}, {"type": "node", "id": 9089019656, "lat": 48.8218692, "lon": 2.3655747, "tags": {"level": "1", "name": "\u4e2d\u570b\u7d05\u9152\u884c", "shop": "alcohol", "wheelchair": "yes"}}, {"type": "node", "id": 9122086526, "lat": 48.8911179, "lon": 2.3206304, "tags": {"addr:city": "Paris", "addr:housenumber": "11", "addr:postcode": "75017", "addr:street": "Rue Sauffroy", "drink:beer": "yes", "drink:wine": "no", "drive_through": "no", "email": "contact@bobbiparis.com", "name": "BoBBi", "phone": "+33 6 52 74 43 93", "service:bicycle:repair": "yes", "shop": "alcohol", "website": "https://site-4126444-1932-7480.mystrikingly.com/"}}, {"type": "node", "id": 9327834982, "lat": 48.8944913, "lon": 2.3277499, "tags": {"name": "Le 107bis", "shop": "alcohol"}}, {"type": "node", "id": 9426784313, "lat": 48.8554394, "lon": 2.2703289, "tags": {"brand": "Nicolas", "brand:wikidata": "Q3340012", "brand:wikipedia": "en:Nicolas (wine retailer)", "name": "Nicolas", "shop": "alcohol"}}, {"type": "node", "id": 9426890988, "lat": 48.8543439, "lon": 2.2693501, "tags": {"name": "\u00c2me et esprit du vin", "shop": "alcohol"}}, {"type": "node", "id": 9733510155, "lat": 48.8414578, "lon": 2.3199245, "tags": {"door": "no", "indoor": "door", "level": "2"}}, {"type": "node", "id": 9733510350, "lat": 48.8414647, "lon": 2.319933}, {"type": "node", "id": 9733510351, "lat": 48.8414509, "lon": 2.3199161}, {"type": "node", "id": 9733510353, "lat": 48.841461, "lon": 2.3199399}, {"type": "node", "id": 9733510354, "lat": 48.8414473, "lon": 2.3199229}, {"type": "node", "id": 9733511530, "lat": 48.8414682, "lon": 2.3198331}, {"type": "node", "id": 9733511533, "lat": 48.8414311, "lon": 2.319903}, {"type": "node", "id": 9733511535, "lat": 48.8414703, "lon": 2.3198357}, {"type": "node", "id": 9733511536, "lat": 48.8414727, "lon": 2.319831}, {"type": "node", "id": 9733511544, "lat": 48.8415018, "lon": 2.3199218}, {"type": "node", "id": 9733511545, "lat": 48.8414898, "lon": 2.319907}, {"type": "node", "id": 9733511546, "lat": 48.8415077, "lon": 2.3198743}, {"type": "node", "id": 9733511547, "lat": 48.8414815, "lon": 2.31996}, {"type": "node", "id": 9733511586, "lat": 48.8414774, "lon": 2.31996}, {"type": "node", "id": 9748567708, "lat": 48.8572996, "lon": 2.2784057, "tags": {"branch": "Annonciation", "brand": "Nicolas", "brand:wikidata": "Q3340012", "contact:city": "Paris", "contact:housenumber": "38", "contact:phone": "+33 1 45 25 80 97", "contact:postcode": "75016", "contact:street": "Rue de l'Annonciation", "contact:website": "https://www.nicolas.com/fr/magasins/ANNONCIATION/s/00001284.html", "name": "Nicolas", "opening_hours": "Tu-Sa 10:00-20:00; Su 10:00-13:00", "shop": "alcohol"}}, {"type": "node", "id": 9802817408, "lat": 48.8522391, "lon": 2.3556001, "tags": {"brand": "Nicolas", "brand:wikidata": "Q3340012", "brand:wikipedia": "en:Nicolas (wine retailer)", "name": "Nicolas", "opening_hours": "Mo 16:00-20:00; Tu-Sa 10:30-14:30,15:30-20:00; Su 11:00-14:00", "shop": "alcohol"}}, {"type": "node", "id": 9836774752, "lat": 48.8723048, "lon": 2.3430499, "tags": {"brand": "Nicolas", "brand:wikidata": "Q3340012", "brand:wikipedia": "en:Nicolas (wine retailer)", "name": "Nicolas", "shop": "alcohol"}}, {"type": "node", "id": 9847923480, "lat": 48.841405, "lon": 2.3307324, "tags": {"alcohol": "wine", "brand": "Nicolas", "brand:wikidata": "Q3340012", "brand:wikipedia": "en:Nicolas (wine retailer)", "name": "Nicolas", "opening_hours": "Tu-Fr 10:00-14:00,16:00-20:00; Sa 10:00-20:00", "shop": "alcohol"}}, {"type": "node", "id": 9856960819, "lat": 48.8534705, "lon": 2.3383411, "tags": {"brand": "Nicolas", "brand:wikidata": "Q3340012", "brand:wikipedia": "en:Nicolas (wine retailer)", "name": "Nicolas", "opening_hours": "Mo-Sa 10:30-20:00", "shop": "alcohol"}}, {"type": "node", "id": 9876996785, "lat": 48.867486, "lon": 2.3852127, "tags": {"brand": "Nicolas", "brand:wikidata": "Q3340012", "name": "Nicolas", "shop": "alcohol"}}, {"type": "node", "id": 9877619399, "lat": 48.8454876, "lon": 2.3256818, "tags": {"brand": "Nicolas", "brand:wikidata": "Q3340012", "name": "Nicolas", "opening_hours": "Mo 15:30-20:00; Tu-Sa 10:00-20:00", "shop": "alcohol"}}, {"type": "node", "id": 9879365152, "lat": 48.8889974, "lon": 2.3482376, "tags": {"contact:city": "Paris", "contact:email": "herve@lordofbarbesgin.com", "contact:housenumber": "64", "contact:phone": "+33 6 87 22 81 21", "contact:postcode": "75018", "contact:street": "Rue de Clignancourt", "contact:website": "https://lordofbarbesgin.com", "drink:gin": "yes", "name": "Lord of Barb\u00e8s Gin", "opening_hours": "Mo-Sa 14:00-19:00", "shop": "alcohol"}}, {"type": "node", "id": 9913141545, "lat": 48.8590757, "lon": 2.3228779, "tags": {"brand": "Nicolas", "brand:wikidata": "Q3340012", "name": "Nicolas", "shop": "alcohol"}}, {"type": "node", "id": 9942481579, "lat": 48.8808856, "lon": 2.3355721, "tags": {"shop": "alcohol"}}, {"type": "node", "id": 9950625365, "lat": 48.8394266, "lon": 2.3505525, "tags": {"addr:city": "Paris", "addr:housenumber": "49", "addr:postcode": "75005", "addr:street": "Rue Censier", "level": "0", "name": "La Cave Mavromm\u00e1tis", "opening_hours": "Mo-Su 11:30-15:00, 18:00-21:20", "shop": "alcohol"}}, {"type": "node", "id": 9968265017, "lat": 48.8602074, "lon": 2.3754371, "tags": {"addr:city": "Paris", "addr:housenumber": "59", "addr:postcode": "75011", "addr:street": "Rue Popincourt", "email": "contact@cartondesix.fr", "name": "Le Carton de Six", "opening_hours": "Mo 16:00-20:00; Tu-Sa 10:00-14:00, 16:00-20:00", "shop": "alcohol"}}, {"type": "node", "id": 9969626901, "lat": 48.8515724, "lon": 2.3754959, "tags": {"addr:city": "Paris", "addr:housenumber": "95", "addr:postcode": "75011", "addr:street": "Rue du Faubourg Saint-Antoine", "brand": "Nicolas", "brand:wikidata": "Q3340012", "name": "Nicolas", "shop": "alcohol"}}, {"type": "node", "id": 9974705827, "lat": 48.8332868, "lon": 2.3170615, "tags": {"brand": "Nicolas", "brand:wikidata": "Q3340012", "brand:wikipedia": "en:Nicolas (wine retailer)", "name": "Nicolas", "opening_hours": "Tu-Sa 10:00-13:30,15:30-20:00", "shop": "alcohol"}}, {"type": "node", "id": 9976770906, "lat": 48.8714978, "lon": 2.3219874, "tags": {"name": "Louis Roederer Champagne", "shop": "alcohol"}}, {"type": "node", "id": 9976770947, "lat": 48.8703042, "lon": 2.3224778, "tags": {"shop": "alcohol"}}, {"type": "node", "id": 9995943356, "lat": 48.85681, "lon": 2.3645612, "tags": {"brand": "Nicolas", "brand:wikidata": "Q3340012", "contact:city": "Paris", "contact:email": "cave.turenne@nicolas.com", "contact:housenumber": "28", "contact:phone": "+33 1 42 78 00 33", "contact:postcode": "75003", "contact:street": "Rue de Turenne", "contact:website": "https://www.nicolas.com/fr/magasins/TURENNE/s/00001432.html", "drive_through": "no", "name": "Nicolas", "opening_hours": "Mo 16:00-20:00; Tu-Fr 11:00-14:00, 16:00-20:00; Sa 11:00-14:00, 15:30-20:00", "shop": "alcohol"}}, {"type": "node", "id": 9996025702, "lat": 48.8628841, "lon": 2.3807582, "tags": {"name": "H. Theoria", "shop": "alcohol", "website": "https://www.htheoria.com/"}}, {"type": "node", "id": 10027885589, "lat": 48.8415838, "lon": 2.3027138, "tags": {"addr:city": "Paris", "addr:housenumber": "77", "addr:postcode": "75015", "addr:street": "Rue Blomet", "brand": "Nicolas", "brand:wikidata": "Q3340012", "name": "Nicolas", "shop": "alcohol"}}, {"type": "node", "id": 10049022993, "lat": 48.8774766, "lon": 2.2928055, "tags": {"name": "Le Repaire de Bacchus", "shop": "alcohol"}}, {"type": "node", "id": 10076734477, "lat": 48.8876007, "lon": 2.3921776, "tags": {"name": "Les Caves de la Villette", "opening_hours": "Tu-Sa 09:30-20:00; Tu-Fr 13:30-16:00 closed", "shop": "alcohol"}}, {"type": "node", "id": 10106523841, "lat": 48.8572188, "lon": 2.3060561, "tags": {"name": "Nysa", "shop": "alcohol"}}, {"type": "node", "id": 10106543902, "lat": 48.857393, "lon": 2.3061971, "tags": {"name": "Le repaire de Bacchus", "shop": "alcohol"}}, {"type": "node", "id": 10106544505, "lat": 48.8569155, "lon": 2.3064506, "tags": {"name": "Nicolas", "shop": "alcohol"}}, {"type": "node", "id": 10106583422, "lat": 48.8558648, "lon": 2.3070159, "tags": {"contact:city": "Paris", "contact:housenumber": "55", "contact:postcode": "75007", "contact:street": "Rue Cler", "name": "Les grandes caves", "opening_hours": "Tu-Fr 10:00-13:00, 15:00-20:00; Mo 15:30-20:00; Sa 10:00-20:00; Su 10:00-13:00", "shop": "alcohol"}}, {"type": "node", "id": 10139088041, "lat": 48.8491472, "lon": 2.3259084, "tags": {"brand": "Nicolas", "brand:wikidata": "Q3340012", "name": "Nicolas", "opening_hours": "Mo 16:00-20:00, Tu-Sa 10:00-20:00", "shop": "alcohol"}}, {"type": "node", "id": 10186082636, "lat": 48.8537893, "lon": 2.3322804, "tags": {"name": "Les Caves de la M\u00e8re Germaine", "ref:FR:SIRET": "90201355600037", "shop": "alcohol"}}, {"type": "node", "id": 10198369068, "lat": 48.8440536, "lon": 2.3287124, "tags": {"name": "La Cave 120 Raspail", "opening_hours": "Su-Fr 16:30-21:00, Tu-Fr,Su 10:00-14:00, Sa 10:00-21:00", "shop": "alcohol"}}, {"type": "node", "id": 10269648393, "lat": 48.8818841, "lon": 2.3738422, "tags": {"addr:housenumber": "61", "addr:street": "Rue de Meaux", "name": "Le Paon qui boit", "shop": "alcohol"}}, {"type": "node", "id": 10600456402, "lat": 48.8742958, "lon": 2.3555954, "tags": {"name": "La Curieuse Cave", "shop": "alcohol"}}, {"type": "node", "id": 10677714852, "lat": 48.8805697, "lon": 2.3351081, "tags": {"brand": "Nicolas", "brand:wikidata": "Q3340012", "name": "Nicolas", "shop": "alcohol"}}, {"type": "node", "id": 10769693859, "lat": 48.832486, "lon": 2.3152565, "tags": {"drink:wine": "retail", "name": "Le Raisin Bleu", "shop": "alcohol"}}, {"type": "node", "id": 10807233674, "lat": 48.8902264, "lon": 2.3372383, "tags": {"name": "L'antidote", "shop": "alcohol"}}, {"type": "node", "id": 10816297781, "lat": 48.8321023, "lon": 2.3443297, "tags": {"name": "La Cave de Gavroche", "opening_hours": "Mo 16:00-20:00, Tu-Sa 10:30-20:00; Tu-Fr 14:00-15:00 closed", "shop": "alcohol", "website": "https://lacavedegavroche.net"}}, {"type": "node", "id": 10863624393, "lat": 48.890198, "lon": 2.3294422, "tags": {"shop": "alcohol"}}, {"type": "way", "id": 341884435, "nodes": [3489506290, 3489506291, 2125414137, 980281996, 980311334, 3489506290], "tags": {"access:covid19": "yes", "alcohol": "wine", "brand": "Nicolas", "brand:wikidata": "Q3340012", "brand:wikipedia": "en:Nicolas (wine retailer)", "check_date:opening_hours": "2021-09-03", "name": "Nicolas", "opening_hours": "Tu-Sa 09:00-20:00; Su 09:00-13:00", "opening_hours:covid19": "open", "shop": "alcohol"}}, {"type": "way", "id": 868010251, "nodes": [8090831200, 8090831204, 8090831201, 8090831199, 8090831200], "tags": {"indoor": "area", "name": "Vitis - Vinifera", "shop": "alcohol"}}, {"type": "way", "id": 1059386129, "nodes": [9733511533, 9733510354, 9733510351, 9733510155, 9733510350, 9733510353, 9733511586, 6631790621, 9733511547, 9733511544, 9733511545, 9733511546, 9733511536, 9733511535, 9733511530, 9733511533], "tags": {"indoor": "room", "level": "2", "name": "Liquors", "shop": "alcohol"}}]}