{"version": 0.6, "generator": "Overpass API 0.7.60 f4c14d41", "osm3s": {"timestamp_osm_base": "2023-05-02T21:20:24Z", "copyright": "The data included in this document is from www.openstreetmap.org. The data is made available under ODbL."}, "elements": [{"type": "node", "id": 431013612, "lat": -22.9237841, "lon": -43.1778269, "tags": {"addr:city": "Rio de Janeiro", "addr:country": "BR", "addr:housenumber": "48A", "addr:postcode": "22211-200", "addr:street": "Rua Pedro Am\u00e9rico", "name": "Hortifruti Sol & Mar", "shop": "greengrocer", "source": "survey"}}, {"type": "node", "id": 858713142, "lat": -22.9949981, "lon": -43.3663803}, {"type": "node", "id": 1345343432, "lat": -22.9796579, "lon": -43.2212711}, {"type": "node", "id": 1345343435, "lat": -22.9801435, "lon": -43.2211783}, {"type": "node", "id": 1345343437, "lat": -22.980338, "lon": -43.2221013}, {"type": "node", "id": 1345343450, "lat": -22.9798983, "lon": -43.222527}, {"type": "node", "id": 1446753136, "lat": -22.931609, "lon": -43.2465302, "tags": {"name": "Tijufruti", "shop": "greengrocer"}}, {"type": "node", "id": 1446756645, "lat": -22.9301019, "lon": -43.2428793, "tags": {"name": "Sabor & Qualidade", "shop": "greengrocer"}}, {"type": "node", "id": 1473066882, "lat": -22.9261491, "lon": -43.2455191, "tags": {"name": "Prime Hortifruti", "shop": "greengrocer"}}, {"type": "node", "id": 1548309172, "lat": -22.9270503, "lon": -43.244193}, {"type": "node", "id": 1548309176, "lat": -22.9269404, "lon": -43.2444882}, {"type": "node", "id": 1548309181, "lat": -22.926853, "lon": -43.24431}, {"type": "node", "id": 1548309187, "lat": -22.9271394, "lon": -43.2443702}, {"type": "node", "id": 1611114932, "lat": -22.8276057, "lon": -43.317536, "tags": {"addr:housenumber": "1020", "addr:postcode": "21230-355", "addr:street": "Estrada da \u00c1gua Grande", "name": "Hortifruti Vista Alegre", "shop": "greengrocer"}}, {"type": "node", "id": 1734299396, "lat": -22.9155128, "lon": -43.6854537, "tags": {"name": "Feirinha", "shop": "greengrocer"}}, {"type": "node", "id": 1734299399, "lat": -22.9154356, "lon": -43.686272, "tags": {"shop": "greengrocer"}}, {"type": "node", "id": 2003522875, "lat": -22.9157323, "lon": -43.2310601, "tags": {"shop": "greengrocer"}}, {"type": "node", "id": 2015314188, "lat": -22.9948507, "lon": -43.2392847, "tags": {"shop": "greengrocer"}}, {"type": "node", "id": 2015314280, "lat": -22.9946186, "lon": -43.2352023, "tags": {"shop": "greengrocer"}}, {"type": "node", "id": 2072673377, "lat": -22.8237377, "lon": -43.308327, "tags": {"name": "Rose's", "shop": "greengrocer", "source": "survey"}}, {"type": "node", "id": 2283490337, "lat": -22.8294125, "lon": -43.3095462, "tags": {"name": "Tigrinho", "shop": "greengrocer", "source": "survey"}}, {"type": "node", "id": 2303515159, "lat": -22.9184768, "lon": -43.3863013, "tags": {"addr:city": "Rio de Janeiro", "addr:country": "BR", "addr:housenumber": "64", "addr:postcode": "22720-000", "addr:street": "Rua Salin\u00f3polis", "name": "Shopping das Frutas", "opening_hours": "Mo-Sa 07:00-20:00;Su 07:00-14:00", "phone": "+55 21 2446-0438", "shop": "greengrocer"}}, {"type": "node", "id": 2570882668, "lat": -22.9853111, "lon": -43.2284205, "tags": {"addr:city": "Rio de Janeiro", "addr:housenumber": "57", "addr:street": "Rua Dias Ferreira", "addr:suburb": "Leblon", "name": "Hortifruti", "opening_hours": "Mo-Fr 07:30-20:30; Sa 08:00-20:00; Su 08:00-14:00", "phone": "+55-21-37973250", "shop": "greengrocer", "source": "survey; website", "website": "http://www.hortifruti.com.br/lojas/rio-de-janeiro/leblon.html"}}, {"type": "node", "id": 2610086584, "lat": -22.8038154, "lon": -43.2035109}, {"type": "node", "id": 2610086586, "lat": -22.8037769, "lon": -43.2038121}, {"type": "node", "id": 2610086587, "lat": -22.8037988, "lon": -43.2034967}, {"type": "node", "id": 2610086589, "lat": -22.8038373, "lon": -43.203956}, {"type": "node", "id": 2610086592, "lat": -22.8038068, "lon": -43.2034152}, {"type": "node", "id": 2610086593, "lat": -22.8039149, "lon": -43.2039824}, {"type": "node", "id": 2610086595, "lat": -22.803818, "lon": -43.2032687}, {"type": "node", "id": 2610086597, "lat": -22.8039923, "lon": -43.2032967, "tags": {"entrance": "main"}}, {"type": "node", "id": 2610086598, "lat": -22.8039899, "lon": -43.2034093}, {"type": "node", "id": 2654443278, "lat": -22.918873, "lon": -43.2390959, "tags": {"name": "Horti Fruti", "shop": "greengrocer"}}, {"type": "node", "id": 2654551163, "lat": -22.914967, "lon": -43.2410577, "tags": {"name": "Hortifruti", "shop": "greengrocer"}}, {"type": "node", "id": 2661168974, "lat": -22.8276018, "lon": -43.3217089, "tags": {"shop": "greengrocer", "source": "survey"}}, {"type": "node", "id": 2906036207, "lat": -22.9724593, "lon": -43.3926147}, {"type": "node", "id": 2906036208, "lat": -22.9724606, "lon": -43.3925102}, {"type": "node", "id": 2906036209, "lat": -22.9726302, "lon": -43.3925127}, {"type": "node", "id": 2906036210, "lat": -22.9720791, "lon": -43.392607}, {"type": "node", "id": 2906036211, "lat": -22.9720836, "lon": -43.3923946}, {"type": "node", "id": 2906036212, "lat": -22.9726315, "lon": -43.3924082}, {"type": "node", "id": 2938140692, "lat": -22.994904, "lon": -43.3664992}, {"type": "node", "id": 2938140694, "lat": -22.9949073, "lon": -43.3663774}, {"type": "node", "id": 2940036697, "lat": -22.9188275, "lon": -43.3811376}, {"type": "node", "id": 2940036700, "lat": -22.9188336, "lon": -43.3814486}, {"type": "node", "id": 2940036702, "lat": -22.9188442, "lon": -43.38147}, {"type": "node", "id": 2940036707, "lat": -22.9188678, "lon": -43.3814783}, {"type": "node", "id": 2940036732, "lat": -22.9190934, "lon": -43.3811112}, {"type": "node", "id": 2940036735, "lat": -22.9191215, "lon": -43.3814527}, {"type": "node", "id": 3191455479, "lat": -22.9270201, "lon": -43.1794014, "tags": {"addr:housenumber": "70", "addr:street": "Rua Bento Lisboa", "name": "Hortivida", "shop": "greengrocer"}}, {"type": "node", "id": 3235110022, "lat": -23.025367, "lon": -43.4813727}, {"type": "node", "id": 3235110023, "lat": -23.0255175, "lon": -43.4813282}, {"type": "node", "id": 3235110024, "lat": -23.0254956, "lon": -43.4812423}, {"type": "node", "id": 3235110025, "lat": -23.0253455, "lon": -43.4812881}, {"type": "node", "id": 3324207586, "lat": -22.9205128, "lon": -43.6805767, "tags": {"name": "Hortifruti Central de Santa Cruz", "shop": "greengrocer"}}, {"type": "node", "id": 3627633043, "lat": -23.0075642, "lon": -43.3168338, "tags": {"addr:city": "Rio de Janeiro", "addr:housenumber": "390", "addr:street": "Pra\u00e7a Professor Sousa Ara\u00fajo", "addr:suburb": "Barra da Tijuca", "name": "Hortifruti", "opening_hours": "Mo-Fr 08:00-21:00; Sa 08:00-20:00; Su 08:00-14:00", "phone": "+55 21 2117-9100", "shop": "greengrocer", "website": "https://www.hortifruti.com.br/"}}, {"type": "node", "id": 3861585405, "lat": -22.8313581, "lon": -43.3187777, "tags": {"name": "REMOVER", "shop": "greengrocer"}}, {"type": "node", "id": 4192442293, "lat": -22.8399324, "lon": -43.3121151, "tags": {"name": "Pomar do Bic\u00e3o", "shop": "greengrocer"}}, {"type": "node", "id": 4257951595, "lat": -22.9110566, "lon": -43.1854349, "tags": {"addr:city": "Rio de Janeiro", "addr:housenumber": "3 - Loja D", "addr:postcode": "20231-030", "addr:street": "Avenida Henrique Valadares", "addr:suburb": "Lapa", "name": "M. S. Mercearia", "shop": "greengrocer"}}, {"type": "node", "id": 4346448793, "lat": -22.9446303, "lon": -43.1613381, "tags": {"name": "Feira de Domingo", "shop": "greengrocer"}}, {"type": "node", "id": 4556179773, "lat": -23.0191114, "lon": -43.4831155, "tags": {"addr:street": "Avenida das Am\u00e9ricas", "name": "Hortilife", "shop": "greengrocer"}}, {"type": "node", "id": 4835175253, "lat": -22.9948972, "lon": -43.3666155}, {"type": "node", "id": 4835175254, "lat": -22.9949916, "lon": -43.3666193}, {"type": "node", "id": 4894222192, "lat": -23.0081629, "lon": -43.444735, "tags": {"name": "Bora Bora Horti Fruti", "shop": "greengrocer"}}, {"type": "node", "id": 5230310197, "lat": -23.0087462, "lon": -43.3654964, "tags": {"shop": "greengrocer"}}, {"type": "node", "id": 5907441401, "lat": -22.9824097, "lon": -43.4628702, "tags": {"name": "Hortifruti", "shop": "greengrocer"}}, {"type": "node", "id": 6007369369, "lat": -22.9663424, "lon": -43.4121218, "tags": {"name": "Hortimania", "shop": "greengrocer"}}, {"type": "node", "id": 6403273287, "lat": -22.8055768, "lon": -43.1816353, "tags": {"name": "Hortifruti", "shop": "greengrocer"}}, {"type": "node", "id": 6474151925, "lat": -22.9151404, "lon": -43.2431708, "tags": {"shop": "greengrocer"}}, {"type": "node", "id": 6474173854, "lat": -22.9159507, "lon": -43.247571, "tags": {"name": "Imp\u00e9rio", "shop": "greengrocer"}}, {"type": "node", "id": 6597233248, "lat": -22.9391599, "lon": -43.1782815, "tags": {"addr:city": "Rio de Janeiro", "addr:housenumber": "178 loja A", "addr:street": "Rua Marqu\u00eas de Abrantes", "addr:suburb": "Flamengo", "name": "Rede Varej\u00e3o Hortifruti", "phone": "+55 21 2554-6332", "shop": "greengrocer", "website": "http://redevarejao.com.br/loja/flamengo/"}}, {"type": "node", "id": 6644719990, "lat": -22.9358773, "lon": -43.1770032, "tags": {"name": "Da Horta", "shop": "greengrocer"}}, {"type": "node", "id": 6835542518, "lat": -22.9429312, "lon": -43.3841531}, {"type": "node", "id": 6835542519, "lat": -22.9430149, "lon": -43.3841535}, {"type": "node", "id": 6835542520, "lat": -22.9430156, "lon": -43.3840017}, {"type": "node", "id": 6835542521, "lat": -22.9429693, "lon": -43.3840015}, {"type": "node", "id": 6835542522, "lat": -22.9429692, "lon": -43.384029}, {"type": "node", "id": 6835542523, "lat": -22.9429514, "lon": -43.3840289}, {"type": "node", "id": 6835542524, "lat": -22.9429513, "lon": -43.3840588}, {"type": "node", "id": 6835542525, "lat": -22.9429317, "lon": -43.3840502}, {"type": "node", "id": 6838321669, "lat": -22.944813, "lon": -43.3800683}, {"type": "node", "id": 6838321670, "lat": -22.9448581, "lon": -43.3801043}, {"type": "node", "id": 6838321671, "lat": -22.9448984, "lon": -43.3800451}, {"type": "node", "id": 6838321672, "lat": -22.944851, "lon": -43.3800117}, {"type": "node", "id": 8442611367, "lat": -22.8469987, "lon": -43.3093536, "tags": {"name": "Hortifruti Pomar", "shop": "greengrocer"}}, {"type": "node", "id": 8659205765, "lat": -22.8246396, "lon": -43.3118293, "tags": {"name": "Sacol\u00e3o", "shop": "greengrocer"}}, {"type": "node", "id": 10612356242, "lat": -22.8040034, "lon": -43.203274}, {"type": "node", "id": 10726083940, "lat": -22.9107314, "lon": -43.1868721, "tags": {"addr:city": "Rio de Janeiro", "addr:housenumber": "70 - Lj D", "addr:postcode": "20231-016", "addr:street": "Rua Ubaldino do Amaral", "addr:suburb": "Centro", "name": "Hortifruti", "shop": "greengrocer"}}, {"type": "node", "id": 10726083941, "lat": -22.9146035, "lon": -43.1868812, "tags": {"addr:city": "Rio de Janeiro", "addr:housenumber": "8", "addr:postcode": "20231-050", "addr:street": "Rua Andr\u00e9 Cavalcanti", "addr:suburb": "Centro", "name": "Sabores Hortifruti", "shop": "greengrocer"}}, {"type": "node", "id": 10726083943, "lat": -22.9139881, "lon": -43.1820756, "tags": {"addr:city": "Rio de Janeiro", "addr:housenumber": "66", "addr:postcode": "20230-010", "addr:street": "Rua Riachuelo", "addr:suburb": "Lapa", "name": "Hortifruti Shopping das Frutas (Lapa)", "shop": "greengrocer"}}, {"type": "node", "id": 10751071369, "lat": -23.0026053, "lon": -43.3094008, "tags": {"name": "Gigoia Frutt", "shop": "greengrocer"}}, {"type": "node", "id": 10804938705, "lat": -22.9153101, "lon": -43.207352, "tags": {"name:en": "Open air market", "shop": "greengrocer"}}, {"type": "node", "id": 10840512070, "lat": -22.9494392, "lon": -43.1836171, "tags": {"addr:city": "Rio de Janeiro", "addr:housenumber": "45 - Lj. A", "addr:postcode": "22260-001", "addr:street": "Rua S\u00e3o Clemente", "addr:suburb": "Botafogo", "name": "Hortifruti S\u00e3o Clemente", "shop": "greengrocer"}}, {"type": "way", "id": 119869846, "nodes": [1345343450, 1345343432, 1345343435, 1345343437, 1345343450], "tags": {"name": "Cobal do Leblon", "shop": "greengrocer"}}, {"type": "way", "id": 141454106, "nodes": [1548309181, 1548309176, 1548309187, 1548309172, 1548309181], "tags": {"addr:housenumber": "213", "addr:street": "Rua Uruguai", "building": "yes", "name": "Hortifruti", "opening_hours": "Mo-Sa 08:00-21:00; Su 08:00-15:00", "phone": "+55-21-30782930", "shop": "greengrocer", "website": "https://www.hortifruti.com.br/lojas/rio-de-janeiro/tijuca-uruguai.html"}}, {"type": "way", "id": 255314224, "nodes": [2610086593, 2610086589, 2610086586, 2610086584, 2610086587, 2610086592, 2610086595, 2610086597, 10612356242, 2610086598, 2610086593], "tags": {"addr:street": "Estrada do Gale\u00e3o", "addr:suburb": "Jardim Carioca", "building": "commercial", "building:levels": "1", "name": "Hortifruti Natural da Terra", "opening_hours": "Mo-Sa 08:00-21:00; Su 08:00-15:00; PH off", "organic": "yes", "phone": "+55 21 3511 8800", "product": "food", "shop": "greengrocer", "website": "https://hortifruti.com.br/"}}, {"type": "way", "id": 286933421, "nodes": [2906036208, 2906036207, 2906036210, 2906036211, 2906036212, 2906036209, 2906036208], "tags": {"addr:city": "Rio de Janeiro", "addr:housenumber": "2950", "addr:street": "Avenida Embaixador Abelardo Bueno", "building": "yes", "name": "Hortifruti", "shop": "greengrocer", "website": "https://www.amoedo.com.br/"}}, {"type": "way", "id": 290475313, "nodes": [2940036697, 2940036700, 2940036702, 2940036707, 2940036735, 2940036732, 2940036697], "tags": {"addr:city": "Rio de Janeiro", "addr:country": "BR", "addr:housenumber": "1103", "addr:postcode": "22720-010", "addr:street": "Estrada do Rio Grande", "barrier": "fence", "landuse": "commercial", "name": "Frutalha", "phone": "+55 21 3347-1080", "shop": "greengrocer", "website": "https://frutalha.com.br/"}}, {"type": "way", "id": 317261825, "nodes": [3235110022, 3235110023, 3235110024, 3235110025, 3235110022], "tags": {"building": "yes", "delivery": "yes", "name": "Frutamania", "phone": "+55 21 2490 2269", "shop": "greengrocer"}}, {"type": "way", "id": 491386316, "nodes": [858713142, 2938140694, 2938140692, 4835175253, 4835175254, 858713142], "tags": {"building": "yes", "name": "Bora Bora Horti Fruti", "shop": "greengrocer"}}, {"type": "way", "id": 729707191, "nodes": [6835542518, 6835542519, 6835542520, 6835542521, 6835542522, 6835542523, 6835542524, 6835542525, 6835542518], "tags": {"addr:city": "Rio de Janeiro", "addr:postcode": "22710200", "addr:street": "Rua Iper\u00f3", "addr:suburb": "Curicica", "building": "yes", "name": "Varej\u00e3o Hortifruti", "shop": "greengrocer"}}, {"type": "way", "id": 729981509, "nodes": [6838321669, 6838321670, 6838321671, 6838321672, 6838321669], "tags": {"addr:city": "Rio de Janeiro", "addr:housenumber": "23", "addr:postcode": "22710190", "addr:street": "Rua Juranda", "addr:suburb": "Curicica", "building": "yes", "name": "Sacol\u00e3o da Elisa", "shop": "greengrocer"}}]}