{"version": 0.6, "generator": "Overpass API 0.7.60.2 e4cf9f7a", "osm3s": {"timestamp_osm_base": "2023-05-02T19:59:26Z", "copyright": "The data included in this document is from www.openstreetmap.org. The data is made available under ODbL."}, "elements": [{"type": "node", "id": 2263374049, "lat": 19.4121644, "lon": -99.1736002, "tags": {"addr:housename": "CatWalk", "addr:housenumber": "63", "addr:postcode": "06100", "addr:street": "Avenida Tamaulipas", "amenity": "nightclub", "internet_access": "wlan", "name": "CatWalk"}}, {"type": "node", "id": 2682125649, "lat": 19.2512191, "lon": -99.1000244, "tags": {"amenity": "nightclub", "name": "Rodeo Xochimilco"}}, {"type": "node", "id": 2970540261, "lat": 19.3953282, "lon": -99.1234691, "tags": {"amenity": "nightclub", "name": "VD+"}}, {"type": "node", "id": 3789659766, "lat": 19.3993176, "lon": -99.1509716, "tags": {"amenity": "nightclub"}}, {"type": "node", "id": 4173294389, "lat": 19.4378398, "lon": -99.1499459, "tags": {"amenity": "nightclub", "name": "Sal\u00f3n Candela"}}, {"type": "node", "id": 4188756924, "lat": 19.4379556, "lon": -99.1478559}, {"type": "node", "id": 4188756925, "lat": 19.4383955, "lon": -99.1477619}, {"type": "node", "id": 4188756926, "lat": 19.4383485, "lon": -99.1475147}, {"type": "node", "id": 4188756927, "lat": 19.4379086, "lon": -99.1476087}, {"type": "node", "id": 4190993594, "lat": 19.4381714, "lon": -99.1498419, "tags": {"addr:city": "Ciudad de M\u00e9xico", "addr:housenumber": "17", "addr:neighbourhood": "Buenavista", "addr:postcode": "06300", "addr:street": "Hidalgo", "amenity": "nightclub", "name": "Foro Cultural Hilvana", "smoking": "no"}}, {"type": "node", "id": 4318959376, "lat": 19.4285774, "lon": -99.1973859, "tags": {"addr:city": "Ciudad de M\u00e9xico", "addr:country": "MX", "addr:housenumber": "42", "addr:postcode": "11560", "addr:street": "Julio Verne", "amenity": "nightclub", "name": "Cigar and Wine Club"}}, {"type": "node", "id": 4345106690, "lat": 19.4237886, "lon": -99.1540341, "tags": {"amenity": "nightclub", "description": "M\u00fasica alternativa. Alternative music.", "name": "Dada X"}}, {"type": "node", "id": 4470120163, "lat": 19.4186793, "lon": -99.1672828, "tags": {"addr:city": "Ciudad de M\u00e9xico", "addr:housenumber": "90", "addr:postcode": "06700", "addr:street": "Avenida Oaxaca", "alt_name": "Ba\u00f1os Roma", "amenity": "nightclub", "name": "Main Room", "opening_hours": "Th-Sa 23:00 05:00"}}, {"type": "node", "id": 4556364808, "lat": 19.4131305, "lon": -99.1720233, "tags": {"amenity": "nightclub", "name:en": "AM Local"}}, {"type": "node", "id": 4580006953, "lat": 19.4132512, "lon": -99.1725601, "tags": {"addr:city": "Ciudad de M\u00e9xico", "addr:country": "MX", "addr:housenumber": "37 A", "addr:street": "Avenida Taumaulipas", "amenity": "nightclub", "name": "Don Quint\u00edn Condesa"}}, {"type": "node", "id": 4618713060, "lat": 19.2954286, "lon": -99.1326393, "tags": {"amenity": "nightclub"}}, {"type": "node", "id": 5003877421, "lat": 19.3739488, "lon": -99.1412791, "tags": {"addr:city": "Ciudad de M\u00e9xico", "addr:housenumber": "1189", "addr:postcode": "03660", "addr:street": "Calzada de Tlalpan", "amenity": "nightclub", "dance:style": "salsa", "dance:teaching": "yes", "name": "California Dancing Club", "opening_hours": "Mo-Su 17:00-02:00"}}, {"type": "node", "id": 5010258209, "lat": 19.3430162, "lon": -99.1894781, "tags": {"addr:housenumber": "2351", "addr:street": "Avenida Insurgentes Sur", "amenity": "nightclub", "name": "Maxine", "opening_hours": "13:30-3:00", "website": "http://maxineshowcenter.com"}}, {"type": "node", "id": 5017262622, "lat": 19.4331613, "lon": -99.1421979, "tags": {"amenity": "nightclub", "name": "Normandie", "name:es": "Normandie"}}, {"type": "node", "id": 5017262623, "lat": 19.4294373, "lon": -99.1552013, "tags": {"amenity": "nightclub", "name": "Americana Club Social"}}, {"type": "node", "id": 5117892554, "lat": 19.3689164, "lon": -99.1633339}, {"type": "node", "id": 5117892555, "lat": 19.3687139, "lon": -99.16335}, {"type": "node", "id": 5117892556, "lat": 19.3686583, "lon": -99.1629691}, {"type": "node", "id": 5117892557, "lat": 19.3688348, "lon": -99.1629245}, {"type": "node", "id": 5117899105, "lat": 19.3688024, "lon": -99.1629127}, {"type": "node", "id": 5117899106, "lat": 19.3688763, "lon": -99.1629395}, {"type": "node", "id": 5296550232, "lat": 19.4124588, "lon": -99.1721415, "tags": {"addr:housenumber": "81", "addr:postcode": "06140", "addr:street": "Avenida Nuevo Le\u00f3n", "amenity": "nightclub", "name": "Mojito Room", "opening_hours": "Th-Su 20:00-03:00"}}, {"type": "node", "id": 6182614885, "lat": 19.4117596, "lon": -99.1597544, "tags": {"amenity": "nightclub", "name": "Dance Floor"}}, {"type": "node", "id": 6777255888, "lat": 19.4165954, "lon": -99.1781101, "tags": {"amenity": "nightclub", "name": "Cuarto Piso"}}, {"type": "node", "id": 6779508486, "lat": 19.4239476, "lon": -99.1672377, "tags": {"amenity": "nightclub", "name": "Looloo"}}, {"type": "node", "id": 6865495985, "lat": 19.419961, "lon": -99.1653304, "tags": {"amenity": "nightclub", "name": "Bar Oriente"}}, {"type": "node", "id": 7023169487, "lat": 19.4316092, "lon": -99.12801, "tags": {"amenity": "nightclub", "name": "Casa Franciscana"}}, {"type": "node", "id": 7207572585, "lat": 19.4272582, "lon": -99.1560397, "tags": {"amenity": "nightclub", "name:en": "Yu Yu"}}, {"type": "node", "id": 7320783728, "lat": 19.2891376, "lon": -99.2179182}, {"type": "node", "id": 7320783729, "lat": 19.2891827, "lon": -99.2181531}, {"type": "node", "id": 7738348487, "lat": 19.2890398, "lon": -99.2181744}, {"type": "node", "id": 7738348513, "lat": 19.2891537, "lon": -99.2181636}, {"type": "node", "id": 7738348514, "lat": 19.2891145, "lon": -99.2181757}, {"type": "node", "id": 7738348515, "lat": 19.2890626, "lon": -99.2181972}, {"type": "node", "id": 7738348516, "lat": 19.2890449, "lon": -99.2182025}, {"type": "node", "id": 7738348517, "lat": 19.289031, "lon": -99.2181247}, {"type": "node", "id": 7738348518, "lat": 19.2889879, "lon": -99.2179222}, {"type": "node", "id": 7738348535, "lat": 19.2891196, "lon": -99.2178753}, {"type": "node", "id": 7738348537, "lat": 19.2891786, "lon": -99.2181102}, {"type": "node", "id": 9955918880, "lat": 19.3522336, "lon": -99.0770632, "tags": {"amenity": "nightclub", "name": "Lucero de mis Noches"}}, {"type": "way", "id": 418453633, "nodes": [4188756924, 4188756925, 4188756926, 4188756927, 4188756924], "tags": {"addr:city": "Ciudad de M\u00e9xico", "addr:housenumber": "115", "addr:postcode": "06300", "addr:street": "Hidalgo", "amenity": "nightclub", "building": "yes", "name": "Sal\u00f3n Hidalgo", "smoking": "no"}}, {"type": "way", "id": 526243614, "nodes": [5117892554, 5117892555, 5117892556, 5117899105, 5117892557, 5117899106, 5117892554], "tags": {"amenity": "nightclub", "building": "yes", "name": "Coronado"}}, {"type": "way", "id": 828984121, "nodes": [7738348517, 7738348487, 7738348516, 7738348515, 7738348514, 7738348513, 7320783729, 7738348537, 7320783728, 7738348535, 7738348518, 7738348517], "tags": {"amenity": "nightclub", "name": "La Alte\u00f1a", "source": "Esri World Imagery;gps"}}]}