{"version": 0.6, "generator": "Overpass API 0.7.60 f4c14d41", "osm3s": {"timestamp_osm_base": "2023-05-02T21:16:21Z", "copyright": "The data included in this document is from www.openstreetmap.org. The data is made available under ODbL."}, "elements": [{"type": "node", "id": 2246679687, "lat": 41.0518342, "lon": 28.9652973, "tags": {"addr:housenumber": "13", "addr:street": "Spor Sokak ", "amenity": "pub", "name": "The North Shields Pub", "source": "+90 212 259 1806 \u200e"}}, {"type": "node", "id": 4213379596, "lat": 41.0580786, "lon": 28.9803635, "tags": {"addr:city": "Istanbul", "addr:district": "\u015ei\u015fli", "addr:housenumber": "1", "addr:postcode": "34381", "addr:street": "Birahane Soka\u011f\u0131", "amenity": "pub", "check_date": "2022-12-11", "internet_access": "wlan", "microbrewery": "yes", "name": "The Populist", "opening_hours": "Mo-Th,Su 10:00-24:00; Fr-Sa 12:00-02:00", "outdoor_seating": "yes", "phone": "+90 212 296 20 34", "website": "http://populistbomonti.wizlo.io/orderMenu"}}, {"type": "node", "id": 6009584586, "lat": 41.1062174, "lon": 28.9862006, "tags": {"amenity": "pub", "name": "The North Shield Pub"}}, {"type": "node", "id": 6116261385, "lat": 41.1171598, "lon": 29.0637167, "tags": {"addr:housenumber": "164", "addr:street": "Tekke Sokak", "amenity": "pub", "name": "K\u00fcfelik Pub", "name:tr": "K\u00fcfelik Pub"}}, {"type": "node", "id": 6831047585, "lat": 41.0528773, "lon": 28.9926986, "tags": {"amenity": "pub", "name:en": "You Caf\u00e9 & Pub"}}, {"type": "node", "id": 6911922960, "lat": 41.2456558, "lon": 29.0086032}, {"type": "node", "id": 6911922961, "lat": 41.2455826, "lon": 29.0083287}, {"type": "node", "id": 6911922962, "lat": 41.2457034, "lon": 29.0082716}, {"type": "node", "id": 6911922963, "lat": 41.2457767, "lon": 29.0085461}, {"type": "node", "id": 6989592070, "lat": 41.0851317, "lon": 29.0463343}, {"type": "node", "id": 6989592071, "lat": 41.0851331, "lon": 29.0461845}, {"type": "node", "id": 6989592072, "lat": 41.084953, "lon": 29.0461816}, {"type": "node", "id": 6989592073, "lat": 41.0849516, "lon": 29.0463314}, {"type": "node", "id": 10213934607, "lat": 41.0662929, "lon": 29.0064152, "tags": {"amenity": "pub", "name": "Beergarita"}}, {"type": "way", "id": 738179871, "nodes": [6911922960, 6911922961, 6911922962, 6911922963, 6911922960], "tags": {"amenity": "pub", "building": "yes"}}, {"type": "way", "id": 746948404, "nodes": [6989592070, 6989592071, 6989592072, 6989592073, 6989592070], "tags": {"amenity": "pub", "building": "yes"}}]}