{"version": 0.6, "generator": "Overpass API 0.7.60 f4c14d41", "osm3s": {"timestamp_osm_base": "2023-05-02T21:16:21Z", "copyright": "The data included in this document is from www.openstreetmap.org. The data is made available under ODbL."}, "elements": [{"type": "node", "id": 529511440, "lat": 48.8503975, "lon": 2.3429508, "tags": {"amenity": "bureau_de_change", "check_date": "2023-04-13", "name": "Change Master", "source": "cadastre-dgi-fr source : Direction G\u00e9n\u00e9rale des Imp\u00f4ts - Cadastre. Mise \u00e0 jour : 2009", "wheelchair": "no"}}, {"type": "node", "id": 677610910, "lat": 48.8542243, "lon": 2.3500208, "tags": {"amenity": "bureau_de_change", "noname": "yes", "source": "cadastre-dgi-fr source : Direction G\u00e9n\u00e9rale des Imp\u00f4ts - Cadastre. Mise \u00e0 jour : 2010"}}, {"type": "node", "id": 691742389, "lat": 48.8613393, "lon": 2.353313}, {"type": "node", "id": 840927906, "lat": 48.8705596, "lon": 2.3079822, "tags": {"addr:housenumber": "10", "source": "cadastre-dgi-fr source : Direction G\u00e9n\u00e9rale des Imp\u00f4ts - Cadastre. Mise \u00e0 jour : 2010"}}, {"type": "node", "id": 1519776201, "lat": 48.8699488, "lon": 2.3404224, "tags": {"amenity": "bureau_de_change"}}, {"type": "node", "id": 1822082658, "lat": 48.8696081, "lon": 2.3521777, "tags": {"amenity": "bureau_de_change", "name": "Business change"}}, {"type": "node", "id": 1986745624, "lat": 48.8728847, "lon": 2.2989591, "tags": {"amenity": "bureau_de_change", "wheelchair": "yes"}}, {"type": "node", "id": 1986745625, "lat": 48.8732083, "lon": 2.2979398, "tags": {"amenity": "bureau_de_change", "source": "knowledge", "wheelchair": "yes"}}, {"type": "node", "id": 2028083399, "lat": 48.8795335, "lon": 2.287706, "tags": {"amenity": "bureau_de_change", "contact:city": "Paris", "contact:housenumber": "233", "contact:postcode": "75017", "contact:street": "Boulevard Pereire", "name": "APS Change"}}, {"type": "node", "id": 2103216537, "lat": 48.8728311, "lon": 2.3429546, "tags": {"amenity": "bureau_de_change", "name": "FCO", "source": "survey"}}, {"type": "node", "id": 2183917395, "lat": 48.8240998, "lon": 2.3638457, "tags": {"amenity": "bureau_de_change", "name": "Orchid\u00e9e", "note": "duty free", "opening_hours": "Tu-Fr 10:30-13:00,14:00-18:30; Sa 10:30-18:30; Su 10:30-16:30", "shop": "gift"}}, {"type": "node", "id": 2217482598, "lat": 48.8214836, "lon": 2.3639524, "tags": {"amenity": "bureau_de_change", "name": "Puccini Bureau de Change"}}, {"type": "node", "id": 2553153339, "lat": 48.8516659, "lon": 2.3435525, "tags": {"addr:street": "Boulevard Saint-Michel", "amenity": "bureau_de_change", "check_date": "2023-03-31", "name": "Change Group"}}, {"type": "node", "id": 2553153340, "lat": 48.8530574, "lon": 2.3436982, "tags": {"addr:street": "Boulevard Saint-Michel", "amenity": "bureau_de_change", "brand": "Travelex", "brand:wikidata": "Q2337964", "brand:wikipedia": "en:Travelex", "name": "Travelex", "phone": "+33988410807", "wheelchair": "yes"}}, {"type": "node", "id": 2634121039, "lat": 48.8612868, "lon": 2.3461069, "tags": {"amenity": "bureau_de_change", "name": "Change"}}, {"type": "node", "id": 2650408745, "lat": 48.8613576, "lon": 2.3532316}, {"type": "node", "id": 2650408746, "lat": 48.8613947, "lon": 2.353344}, {"type": "node", "id": 2650408747, "lat": 48.8614123, "lon": 2.3532605}, {"type": "node", "id": 2723256519, "lat": 48.8557864, "lon": 2.3581343, "tags": {"amenity": "bureau_de_change", "contact:email": "contact@abacor.fr", "contact:phone": "+33144613495", "contact:website": "https://www.abacor.fr", "name": "Abacor"}}, {"type": "node", "id": 2822396901, "lat": 48.8738845, "lon": 2.333023, "tags": {"amenity": "bureau_de_change", "name": "Change"}}, {"type": "node", "id": 3403997924, "lat": 48.8759271, "lon": 2.3241645}, {"type": "node", "id": 3403997926, "lat": 48.8759341, "lon": 2.3242335}, {"type": "node", "id": 3403997929, "lat": 48.8759745, "lon": 2.3241512}, {"type": "node", "id": 3403997932, "lat": 48.8759829, "lon": 2.3242204}, {"type": "node", "id": 3643908193, "lat": 48.8818218, "lon": 2.3582022, "tags": {"amenity": "bureau_de_change", "name": "Babi Bazar Plus", "source": "survey"}}, {"type": "node", "id": 3763743159, "lat": 48.8714631, "lon": 2.3041224}, {"type": "node", "id": 3763743160, "lat": 48.8714746, "lon": 2.3041286}, {"type": "node", "id": 3763743958, "lat": 48.8714617, "lon": 2.3040872}, {"type": "node", "id": 3763744157, "lat": 48.8714576, "lon": 2.3041117}, {"type": "node", "id": 3763744158, "lat": 48.871465, "lon": 2.3040916}, {"type": "node", "id": 3763744257, "lat": 48.8714727, "lon": 2.304056}, {"type": "node", "id": 3763744457, "lat": 48.8714943, "lon": 2.3040706}, {"type": "node", "id": 3767411070, "lat": 48.8716041, "lon": 2.3050852}, {"type": "node", "id": 3767435673, "lat": 48.8715929, "lon": 2.3051627}, {"type": "node", "id": 3767435674, "lat": 48.8716015, "lon": 2.3050806}, {"type": "node", "id": 3767435675, "lat": 48.8716083, "lon": 2.3051749}, {"type": "node", "id": 3767435676, "lat": 48.8716181, "lon": 2.3051645}, {"type": "node", "id": 3767435769, "lat": 48.8716115, "lon": 2.30516}, {"type": "node", "id": 3767439359, "lat": 48.8715869, "lon": 2.3051852}, {"type": "node", "id": 3767440157, "lat": 48.8715683, "lon": 2.3051721}, {"type": "node", "id": 3767440158, "lat": 48.8715941, "lon": 2.3050846}, {"type": "node", "id": 3767440159, "lat": 48.871627, "lon": 2.3051352}, {"type": "node", "id": 3768199431, "lat": 48.8464568, "lon": 2.3019875, "tags": {"amenity": "bureau_de_change", "name": "Godot & Fils", "opening_hours": "Mo-Fr 09:30-18:00"}}, {"type": "node", "id": 3916696566, "lat": 48.8609735, "lon": 2.343785, "tags": {"amenity": "bureau_de_change", "name": "Best Change", "opening_hours": "09:30-21:30"}}, {"type": "node", "id": 3969548158, "lat": 48.8796398, "lon": 2.2841021}, {"type": "node", "id": 3969548159, "lat": 48.8797041, "lon": 2.2841084}, {"type": "node", "id": 3969548160, "lat": 48.8797232, "lon": 2.2840521}, {"type": "node", "id": 3969548457, "lat": 48.8796561, "lon": 2.2840482}, {"type": "node", "id": 3980173925, "lat": 48.8644397, "lon": 2.3302571, "tags": {"amenity": "bureau_de_change"}}, {"type": "node", "id": 3980173938, "lat": 48.8639579, "lon": 2.331757, "tags": {"amenity": "bureau_de_change", "brand": "Travelex", "brand:wikidata": "Q2337964", "brand:wikipedia": "en:Travelex", "name": "Travelex"}}, {"type": "node", "id": 3980173939, "lat": 48.8636223, "lon": 2.3328156, "tags": {"amenity": "bureau_de_change"}}, {"type": "node", "id": 3980224348, "lat": 48.8614791, "lon": 2.3394764, "tags": {"amenity": "bureau_de_change"}}, {"type": "node", "id": 4111880552, "lat": 48.860334, "lon": 2.3480989, "tags": {"addr:city": "Paris", "addr:postcode": "75001", "amenity": "bureau_de_change", "name": "Change"}}, {"type": "node", "id": 4364238897, "lat": 48.8760861, "lon": 2.3234691, "tags": {"amenity": "bureau_de_change", "name": "Union des Comptoirs Savoyards", "survey:date": "2017-09-17"}}, {"type": "node", "id": 4392137109, "lat": 48.8709965, "lon": 2.3413373, "tags": {"amenity": "bureau_de_change", "name": "Joubert"}}, {"type": "node", "id": 4829548206, "lat": 48.8800308, "lon": 2.3524369, "tags": {"amenity": "bureau_de_change", "check_date": "2022-09-30", "name": "Change", "source": "survey 2017"}}, {"type": "node", "id": 4829548207, "lat": 48.8799807, "lon": 2.3524689, "tags": {"amenity": "bureau_de_change", "name": "Raphael", "shop": "shoes", "source": "survey 2017"}}, {"type": "node", "id": 4831650297, "lat": 48.8785867, "lon": 2.354776, "tags": {"amenity": "bureau_de_change", "name": "Change + Or", "source": "survey 2017"}}, {"type": "node", "id": 4831650319, "lat": 48.8794496, "lon": 2.3560343, "tags": {"addr:city": "Paris", "addr:housenumber": "38", "addr:postcode": "75010", "addr:street": "Rue de Saint-Quentin", "amenity": "bureau_de_change", "name": "Change", "source": "survey 2017"}}, {"type": "node", "id": 4843645321, "lat": 48.8827869, "lon": 2.3425559, "tags": {"amenity": "bureau_de_change", "name": "Change"}}, {"type": "node", "id": 4845269423, "lat": 48.8804642, "lon": 2.3532526, "tags": {"amenity": "bureau_de_change", "name": "Change 24"}}, {"type": "node", "id": 4874197123, "lat": 48.8743085, "lon": 2.3312118, "tags": {"amenity": "bureau_de_change", "noname": "yes"}}, {"type": "node", "id": 4904272821, "lat": 48.8537881, "lon": 2.3436611, "tags": {"amenity": "bureau_de_change", "atm": "yes", "name": "Change", "opening_hours": "10:00-19:00", "phone": "+33 1 43 54 76 55", "wheelchair": "yes"}}, {"type": "node", "id": 4920596823, "lat": 48.852736, "lon": 2.3383589, "tags": {"amenity": "bureau_de_change", "name": "Change (ChangeGroup)"}}, {"type": "node", "id": 5001825210, "lat": 48.8527366, "lon": 2.3323805, "tags": {"amenity": "bureau_de_change", "check_date": "2023-04-05"}}, {"type": "node", "id": 5172479406, "lat": 48.880954, "lon": 2.3581028, "tags": {"amenity": "bureau_de_change", "level": "0", "name:signed": "no", "source": "survey 05/2017"}}, {"type": "node", "id": 5178700995, "lat": 48.8813159, "lon": 2.3544613, "tags": {"amenity": "bureau_de_change", "level": "1", "name": "Currency Exchange"}}, {"type": "node", "id": 5268431946, "lat": 48.871445, "lon": 2.3302105, "tags": {"amenity": "bureau_de_change", "name": "Comptoir Change Opera"}}, {"type": "node", "id": 5291384334, "lat": 48.8751715, "lon": 2.3579272, "tags": {"amenity": "bureau_de_change", "check_date": "2023-01-26", "contact:city": "Paris", "contact:housenumber": "70", "contact:postcode": "75010", "contact:street": "Boulevard de Strasbourg", "contact:website": "https://www.cen-change.com/", "name": "CEN-Change", "opening_hours": "Mo-Sa 09:00-20:00"}}, {"type": "node", "id": 5555915421, "lat": 48.871075, "lon": 2.3057177, "tags": {"amenity": "bureau_de_change", "contact:email": "changeelysees@ume-france.com", "contact:housenumber": "66", "contact:phone": "+33 1 42 25 19 01", "contact:postcode": "75008", "contact:street": "Avenue des Champs-\u00c9lys\u00e9es", "contact:website": "http://www.ume-world.com", "name": "Bureau de change", "name:en": "Currency exchange", "name:fr": "Universal Money Exchange"}}, {"type": "node", "id": 5599022924, "lat": 48.8649357, "lon": 2.357954, "tags": {"amenity": "bureau_de_change", "name": "Maurice Or"}}, {"type": "node", "id": 5599022954, "lat": 48.8684353, "lon": 2.3436271, "tags": {"amenity": "bureau_de_change", "name": "Ria Transfert d'argent"}}, {"type": "node", "id": 5941386175, "lat": 48.8830799, "lon": 2.3357912, "tags": {"amenity": "bureau_de_change", "name": "Ana Change", "source": "survey;local knowledge", "survey:date": "2018-09-08"}}, {"type": "node", "id": 5941386181, "lat": 48.8832447, "lon": 2.3352503, "tags": {"addr:city": "Paris", "addr:housenumber": "52", "addr:postcode": "75018", "addr:street": "Boulevard de Clichy", "amenity": "bureau_de_change", "check_date": "2023-04-19", "name": "Euro Entreprise", "source": "survey;local knowledge", "survey:date": "2018-09-08"}}, {"type": "node", "id": 5941386589, "lat": 48.8836536, "lon": 2.3338677, "tags": {"amenity": "bureau_de_change", "check_date": "2023-04-19", "contact:city": "Paris", "contact:housenumber": "70", "contact:postcode": "75018", "contact:street": "Boulevard de Clichy", "name": "Nars", "source": "survey;local knowledge", "survey:date": "2018-09-08"}}, {"type": "node", "id": 5943868589, "lat": 48.8537889, "lon": 2.3495203, "tags": {"amenity": "bureau_de_change", "check_date:opening_hours": "2022-08-23", "name": "Change Master", "opening_hours:signed": "no", "wheelchair": "yes"}}, {"type": "node", "id": 6012962685, "lat": 48.8700802, "lon": 2.3406239, "tags": {"addr:housenumber": "33", "addr:street": "Rue Vivienne", "amenity": "bureau_de_change", "email": "merson@free.fr", "name": "Merson", "opening_hours": "Sa 10:00-18:00; Mo-Fr 09:00-18:00", "phone": "+33 142338167"}}, {"type": "node", "id": 6125198143, "lat": 48.8774039, "lon": 2.3561016, "tags": {"amenity": "bureau_de_change", "name": "Change", "shop": "gift"}}, {"type": "node", "id": 6465849825, "lat": 48.8429032, "lon": 2.3240339, "tags": {"amenity": "bureau_de_change", "noname": "yes", "opening_hours:signed": "no"}}, {"type": "node", "id": 6833056132, "lat": 48.8694158, "lon": 2.3389093, "tags": {"amenity": "bureau_de_change", "name": "Change Richelieu"}}, {"type": "node", "id": 6944898934, "lat": 48.8724589, "lon": 2.3291237, "tags": {"amenity": "bureau_de_change", "name": "Nova C\u00e2mbios"}}, {"type": "node", "id": 7374824849, "lat": 48.8447142, "lon": 2.3249113, "tags": {"amenity": "bureau_de_change", "name": "Multi Change", "wheelchair": "no"}}, {"type": "node", "id": 8048248275, "lat": 48.8704719, "lon": 2.3080509}, {"type": "node", "id": 8048248284, "lat": 48.8705217, "lon": 2.3080911}, {"type": "node", "id": 8048342985, "lat": 48.8705495, "lon": 2.3080315}, {"type": "node", "id": 8048342993, "lat": 48.8705534, "lon": 2.3079657}, {"type": "node", "id": 8048342994, "lat": 48.8705709, "lon": 2.3080124}, {"type": "node", "id": 8243533275, "lat": 48.8767361, "lon": 2.3545695, "tags": {"amenity": "bureau_de_change", "name": "Money Exchange"}}, {"type": "node", "id": 8304708416, "lat": 48.8702954, "lon": 2.3706242, "tags": {"amenity": "bureau_de_change", "check_date": "2023-03-16", "name": "Ria", "wheelchair": "yes"}}, {"type": "node", "id": 8615582797, "lat": 48.8755417, "lon": 2.3564588, "tags": {"amenity": "bureau_de_change", "name": "Change Magenta"}}, {"type": "node", "id": 9273093577, "lat": 48.8742588, "lon": 2.3581551, "tags": {"amenity": "bureau_de_change", "check_date": "2023-01-26", "name": "Moneytrans"}}, {"type": "node", "id": 9481321113, "lat": 48.8876639, "lon": 2.3249921, "tags": {"amenity": "bureau_de_change", "name": "Ria"}}, {"type": "node", "id": 9733510142, "lat": 48.8414741, "lon": 2.3195172, "tags": {"amenity": "reception_desk"}}, {"type": "node", "id": 9733510143, "lat": 48.8414813, "lon": 2.3195037, "tags": {"amenity": "reception_desk"}}, {"type": "node", "id": 9733510144, "lat": 48.8414796, "lon": 2.3195703}, {"type": "node", "id": 9733510145, "lat": 48.8415071, "lon": 2.3195197}, {"type": "node", "id": 9733510148, "lat": 48.8414606, "lon": 2.3195471}, {"type": "node", "id": 9733510149, "lat": 48.8414592, "lon": 2.3195453}, {"type": "node", "id": 9733511529, "lat": 48.8414862, "lon": 2.3194946}, {"type": "node", "id": 9805790073, "lat": 48.8869985, "lon": 2.3401208, "tags": {"addr:city": "Paris", "addr:postcode": "75018", "addr:street": "Rue Norvins", "amenity": "bureau_de_change", "name": "Ria"}}, {"type": "node", "id": 10049466572, "lat": 48.8696369, "lon": 2.3520204, "tags": {"amenity": "bureau_de_change", "name": "Change du Sentier"}}, {"type": "node", "id": 10102883779, "lat": 48.8821617, "lon": 2.3416747, "tags": {"amenity": "bureau_de_change", "level": "0", "name": "Transfert D'argent Change"}}, {"type": "node", "id": 10222535891, "lat": 48.8521479, "lon": 2.3264065, "tags": {"amenity": "bureau_de_change", "contact:phone": "+33 1 89 16 41 41", "name": "Godot & Fils", "opening_hours": "Mo-Fr 09:30-18:30"}}, {"type": "node", "id": 10572778949, "lat": 48.8796271, "lon": 2.3555809, "tags": {"amenity": "bureau_de_change", "name:signed": "no"}}, {"type": "node", "id": 10805325052, "lat": 48.8750286, "lon": 2.3316706, "tags": {"amenity": "bureau_de_change", "name": "Change de l'Or"}}, {"type": "way", "id": 259609484, "nodes": [2650408745, 2650408747, 2650408746, 691742389, 2650408745], "tags": {"amenity": "bureau_de_change", "atm": "yes", "indoor": "room", "name": "W\u20ac change", "room": "office", "source": "survey 2014", "survey:date": "2022-05-02"}}, {"type": "way", "id": 333276714, "nodes": [3403997929, 3403997932, 3403997926, 3403997924, 3403997929], "tags": {"amenity": "bureau_de_change", "brand": "Travelex", "brand:wikidata": "Q2337964", "brand:wikipedia": "en:Travelex", "indoor": "room", "layer": "1", "level": "1", "name": "Travelex", "opening_hours": "Mo-Sa 07:15-20:00", "phone": "+331 42 93 74 58", "website": "http://stlazareparis.com/boutiques/travelex/", "wheelchair": "yes"}}, {"type": "way", "id": 372826820, "nodes": [3763744457, 3763743160, 3763743159, 3763744157, 3763744158, 3763743958, 3763744257, 3763744457], "tags": {"amenity": "bureau_de_change", "level": "0", "room": "shop"}}, {"type": "way", "id": 373232605, "nodes": [3767440158, 3767435674, 3767411070, 3767440159, 3767435676, 3767435769, 3767435675, 3767435673, 3767439359, 3767440157, 3767440158], "tags": {"amenity": "bureau_de_change", "level": "0", "name": "Change du Claridge", "room": "money"}}, {"type": "way", "id": 393907943, "nodes": [3969548457, 3969548158, 3969548159, 3969548160, 3969548457], "tags": {"amenity": "bureau_de_change", "level": "-1", "name": "Bureau de Change"}}, {"type": "way", "id": 863902616, "nodes": [8048342993, 840927906, 8048342994, 8048342985, 8048248284, 8048248275, 8048342993], "tags": {"amenity": "bureau_de_change", "indoor": "room", "level": "0", "name": "Novacambios", "room": "shop", "wheelchair": "limited"}}, {"type": "way", "id": 1059385964, "nodes": [9733510145, 9733511529, 9733510143, 9733510142, 9733510149, 9733510148, 9733510144, 9733510145], "tags": {"amenity": "bureau_de_change", "fixme": "en activit\u00e9 ou pas ? Au 2022-03-23 ce n'est pas tr\u00e8s clair", "indoor": "room", "level": "2"}}]}