{"version": 0.6, "generator": "Overpass API 0.7.60 f4c14d41", "osm3s": {"timestamp_osm_base": "2023-05-02T21:18:20Z", "copyright": "The data included in this document is from www.openstreetmap.org. The data is made available under ODbL."}, "elements": [{"type": "node", "id": 294081673, "lat": 40.7354371, "lon": -74.0279815}, {"type": "node", "id": 2547000496, "lat": 40.7265753, "lon": -73.9919527}, {"type": "node", "id": 2547000777, "lat": 40.7266337, "lon": -73.9920712}, {"type": "node", "id": 2547000780, "lat": 40.7266453, "lon": -73.9919271}, {"type": "node", "id": 2547000788, "lat": 40.7266918, "lon": -73.9920217}, {"type": "node", "id": 2555120281, "lat": 40.7188489, "lon": -74.0008574, "tags": {"addr:housenumber": "261", "addr:postcode": "10013", "addr:street": "Canal Street", "entrance": "yes"}}, {"type": "node", "id": 2555120284, "lat": 40.7188754, "lon": -74.0008947, "tags": {"addr:housenumber": "263", "addr:postcode": "10013", "addr:street": "Canal Street", "entrance": "yes"}}, {"type": "node", "id": 2555120496, "lat": 40.7188225, "lon": -74.0008201}, {"type": "node", "id": 2555120505, "lat": 40.718988, "lon": -74.0006177}, {"type": "node", "id": 2563144647, "lat": 40.6107428, "lon": -73.9538076, "tags": {"addr:city": "Brooklyn", "addr:housenumber": "1927", "addr:postcode": "11229", "addr:street": "Kings Highway", "amenity": "food_court", "check_date:opening_hours": "2022-03-22", "name": "Highway Bagels", "opening_hours": "Su-Th 05:00-01:00, Fr,Sa 05:00-01:30"}}, {"type": "node", "id": 2702832072, "lat": 40.7408028, "lon": -74.0046432}, {"type": "node", "id": 2702832096, "lat": 40.7408697, "lon": -74.0048021}, {"type": "node", "id": 2702832146, "lat": 40.7410507, "lon": -74.0044629}, {"type": "node", "id": 2702832158, "lat": 40.7411201, "lon": -74.0046194}, {"type": "node", "id": 2702832164, "lat": 40.741161, "lon": -74.0043827}, {"type": "node", "id": 2702832165, "lat": 40.7411612, "lon": -74.0045894}, {"type": "node", "id": 2702832169, "lat": 40.7411976, "lon": -74.0045638}, {"type": "node", "id": 2702832172, "lat": 40.7412279, "lon": -74.0045416}, {"type": "node", "id": 2703449223, "lat": 40.7488227, "lon": -73.9896812, "tags": {"addr:housenumber": "116", "addr:postcode": "10001", "addr:street": "West 32nd Street", "entrance": "main"}}, {"type": "node", "id": 2709415095, "lat": 40.7477201, "lon": -73.9823758, "tags": {"addr:housenumber": "43", "addr:postcode": "10016", "addr:street": "East 34th Street", "amenity": "food_court", "cuisine": "international", "diet:kosher": "only", "name": "Kosher in Midtown", "opening_hours": "Mo-Th 11:00-20:00; Fr 11:00-15:00; Su 11:00-20:00", "phone": "+1-212-725-8100", "website": "https://kosherinmidtown.com"}}, {"type": "node", "id": 2758924035, "lat": 40.8222749, "lon": -73.9495427, "tags": {"addr:city": "New York", "addr:housenumber": "1625", "addr:postcode": "10031", "addr:street": "Amsterdam Avenue", "amenity": "food_court", "cuisine": "sandwich", "delivery": "yes", "name": "Virtual Eats", "smoking": "no", "takeaway": "yes"}}, {"type": "node", "id": 2784617300, "lat": 40.7036602, "lon": -73.7997352, "tags": {"addr:city": "Jamaica", "addr:country": "US", "addr:housenumber": "159-15", "addr:postcode": "11432", "addr:state": "NY", "addr:street": "Jamaica Avenue", "amenity": "food_court", "name": "Jamaica Market", "opening_hours": "Mo-Sa 07:00-19:00", "phone": "+1 718 297-4708", "website": "https://gjdc.org/"}}, {"type": "node", "id": 2824828733, "lat": 40.70334, "lon": -74.0123449}, {"type": "node", "id": 2824828753, "lat": 40.7033759, "lon": -74.0123205}, {"type": "node", "id": 2824828782, "lat": 40.7034788, "lon": -74.0117463}, {"type": "node", "id": 2824828798, "lat": 40.7035177, "lon": -74.0123771}, {"type": "node", "id": 2824828803, "lat": 40.7035391, "lon": -74.0117452}, {"type": "node", "id": 2824828805, "lat": 40.7035369, "lon": -74.012423}, {"type": "node", "id": 2827696648, "lat": 40.6890086, "lon": -74.0180985}, {"type": "node", "id": 2827696652, "lat": 40.6890344, "lon": -74.0181279}, {"type": "node", "id": 2827696659, "lat": 40.6890661, "lon": -74.0180117}, {"type": "node", "id": 2827696679, "lat": 40.6891599, "lon": -74.0182113}, {"type": "node", "id": 2827696689, "lat": 40.6891948, "lon": -74.0181586}, {"type": "node", "id": 2827696694, "lat": 40.6892238, "lon": -74.0182843}, {"type": "node", "id": 2827696808, "lat": 40.6892625, "lon": -74.0182259}, {"type": "node", "id": 2827696826, "lat": 40.6893531, "lon": -74.0184389}, {"type": "node", "id": 2827696839, "lat": 40.6893944, "lon": -74.0183765}, {"type": "node", "id": 2870750195, "lat": 40.7041796, "lon": -73.7995622, "tags": {"addr:city": "Jamaica", "addr:country": "US", "addr:housenumber": "90-40", "addr:postcode": "11432", "addr:state": "NY", "addr:street": "160th Street", "amenity": "food_court", "name": "Farmers Market", "opening_hours": "Mo-Sa 07:00-19:00", "phone": "+1 718 297-4708", "website": "https://gjdc.org/"}}, {"type": "node", "id": 3169163066, "lat": 40.7130364, "lon": -74.0157682}, {"type": "node", "id": 3169163067, "lat": 40.7126215, "lon": -74.0160885}, {"type": "node", "id": 3169163068, "lat": 40.7125319, "lon": -74.0158724}, {"type": "node", "id": 3169163069, "lat": 40.7129907, "lon": -74.0156619}, {"type": "node", "id": 3379176520, "lat": 40.7354448, "lon": -74.0280379}, {"type": "node", "id": 3379176521, "lat": 40.7355186, "lon": -74.0280097}, {"type": "node", "id": 3379176522, "lat": 40.7355089, "lon": -74.0279648}, {"type": "node", "id": 3381147817, "lat": 40.7355283, "lon": -74.0279546}, {"type": "node", "id": 3381147818, "lat": 40.735496, "lon": -74.0277707}, {"type": "node", "id": 3398576793, "lat": 40.75856, "lon": -73.988429, "tags": {"amenity": "food_court", "name": "City Kitchen", "opening_hours": "Mo-We 06:30-21:00; Th-Sa 06:30-23:30; Su 06:30-21:00", "outdoor_seating": "no"}}, {"type": "node", "id": 3583901533, "lat": 40.7347063, "lon": -73.8686986, "tags": {"amenity": "food_court", "name": "Mall Food Court"}}, {"type": "node", "id": 3656101703, "lat": 40.8160981, "lon": -73.9796299, "tags": {"amenity": "food_court", "level": "0", "name": "Wateishoku Kaneda", "opening_hours": "Mo-Su 11:00-20:00"}}, {"type": "node", "id": 4080383070, "lat": 40.6893324, "lon": -74.0184922}, {"type": "node", "id": 4080383071, "lat": 40.6892476, "lon": -74.0184162}, {"type": "node", "id": 4080383072, "lat": 40.6891551, "lon": -74.0183875}, {"type": "node", "id": 4080383073, "lat": 40.6890435, "lon": -74.0184055}, {"type": "node", "id": 4080383074, "lat": 40.6889401, "lon": -74.0184521}, {"type": "node", "id": 4080383075, "lat": 40.6888421, "lon": -74.0185669}, {"type": "node", "id": 4080383076, "lat": 40.6888013, "lon": -74.0186459}, {"type": "node", "id": 4080383077, "lat": 40.6887436, "lon": -74.0185838}, {"type": "node", "id": 4187349115, "lat": 40.7544147, "lon": -73.9766932, "tags": {"addr:city": "New York", "addr:housenumber": "230", "addr:street": "Park Avenue", "amenity": "food_court", "name": "Urbanspace Vanderbilt"}}, {"type": "node", "id": 4278861998, "lat": 40.7623295, "lon": -73.9968975, "tags": {"addr:housenumber": "600", "addr:postcode": "10036", "addr:state": "NY", "addr:street": "11th Avenue", "amenity": "food_court", "email": "info@gothamwestmarket.com", "internet_access": "wlan", "internet_access:fee": "no", "level": "0", "name": "Gotham West Market", "opening_hours": "Su-Th 07:30-22:00; Fr-Sa 07:30-23:00", "outdoor_seating": "yes", "phone": "+1-212-582-7940", "reservation": "yes", "toilets": "yes", "toilets:access": "yes", "toilets:unisex": "yes", "toilets:wheelchair": "yes", "website": "https://gothamwestmarket.com/", "wheelchair": "yes"}}, {"type": "node", "id": 4947800021, "lat": 40.7477054, "lon": -73.9862346, "tags": {"addr:city": "New York", "addr:housenumber": "11", "addr:postcode": "10001", "addr:state": "NY", "addr:street": "West 32nd Street", "amenity": "food_court", "contact:facebook": "foodgallery32", "contact:instagram": "foodgallery32.ktownnyc", "contact:phone": "+1 212-967-1678", "contact:website": "https://foodgallery32nyc.com/", "name": "Food Gallery 32", "opening_hours": "Mo-Su 11:00-23:00", "website": "https://www.foodgallery32nyc.com/"}}, {"type": "node", "id": 4979669834, "lat": 40.6912889, "lon": -73.9829444, "tags": {"addr:city": "Brooklyn", "addr:housenumber": "445", "addr:postcode": "11201", "addr:state": "NY", "addr:street": "Albee Square", "amenity": "food_court", "level": "-1", "name": "Dekalb Market Hall", "opening_hours": "Su-We 11:00-21:00; Th-Sa 11:00-22:00", "website": "https://www.dekalbmarkethall.com/"}}, {"type": "node", "id": 5017059024, "lat": 40.7189411, "lon": -74.0009162}, {"type": "node", "id": 5218236721, "lat": 40.764256, "lon": -73.9744247, "tags": {"addr:postcode": "10019", "amenity": "food_court", "contact:facebook": "https://www.facebook.com/dineattheplaza", "contact:instagram": "https://www.instagram.com/dineattheplaza", "contact:twitter": "https://www.twitter.com/dineattheplaza", "name": "The Plaza Food Hall", "opening_hours": "Mo-Sa 08:00-22:00; Su 10:00-22:00", "phone": "+1 212-759-3000", "website": "https://www.theplazany.com/dining/the-plaza-food-hall/"}}, {"type": "node", "id": 5403604439, "lat": 40.7291092, "lon": -73.9892131, "tags": {"alt_name": "Vspot;Marty's Burger;Veggiegrub;Jam", "amenity": "food_court", "bar": "yes", "cocktails": "yes", "cuisine": "latin_american;american;jamaican;pastry", "diet:vegan": "only", "drink:beer": "yes", "drink:liquor": "yes", "drink:wine": "yes", "name": "Vegan Food Court", "opening_hours": "Mo 15:00-23:00", "phone": "+1-212-254-3693", "takeaway": "yes", "toilets": "yes", "toilets:access": "customers", "website": "http://www.veganfoodcourt.nyc"}}, {"type": "node", "id": 5987475441, "lat": 40.7353781, "lon": -74.0277661}, {"type": "node", "id": 5987475442, "lat": 40.7353829, "lon": -74.0278599}, {"type": "node", "id": 5987475443, "lat": 40.7354303, "lon": -74.0278575}, {"type": "node", "id": 6109738511, "lat": 40.773784, "lon": -73.8692771, "tags": {"amenity": "food_court", "name": "5 Boroughs Food Emporium"}}, {"type": "node", "id": 6219928339, "lat": 40.8169546, "lon": -73.9577113}, {"type": "node", "id": 6219928340, "lat": 40.816733, "lon": -73.9578704}, {"type": "node", "id": 6219928341, "lat": 40.8167595, "lon": -73.9579348}, {"type": "node", "id": 6260011314, "lat": 40.7546866, "lon": -73.9766065}, {"type": "node", "id": 6260011315, "lat": 40.7545195, "lon": -73.9761796}, {"type": "node", "id": 6260011316, "lat": 40.754211, "lon": -73.9764011}, {"type": "node", "id": 6260011317, "lat": 40.7543865, "lon": -73.9768305}, {"type": "node", "id": 6260031905, "lat": 40.7504969, "lon": -73.9921048}, {"type": "node", "id": 6260031906, "lat": 40.7503282, "lon": -73.9916729}, {"type": "node", "id": 6260031907, "lat": 40.7498913, "lon": -73.9919814}, {"type": "node", "id": 6260031908, "lat": 40.75006, "lon": -73.9924078}, {"type": "node", "id": 6407373286, "lat": 40.7525127, "lon": -74.0012417, "tags": {"addr:city": "New York", "addr:housenumber": "10", "addr:postcode": "10001", "addr:state": "NY", "addr:street": "Hudson Yards", "amenity": "food_court", "contact:facebook": "littlespain", "contact:instagram": "littlespain", "contact:twitter": "little_spain", "cuisine": "spanish", "email": "hola@littlespain.com", "level": "0", "name": "Mercado Little Spain", "name:es": "Mercado Little Spain", "opening_hours": "11:00-21:00", "phone": "+1 646-495-1242", "website": "https://www.littlespain.com/"}}, {"type": "node", "id": 6409454896, "lat": 40.7483476, "lon": -73.9900271, "tags": {"addr:housenumber": "117", "addr:postcode": "10001", "addr:street": "West 31st Street", "entrance": "yes", "note": "address unclear -- might be 119"}}, {"type": "node", "id": 6409454897, "lat": 40.7483316, "lon": -73.9899889}, {"type": "node", "id": 6409454898, "lat": 40.7483635, "lon": -73.9900653}, {"type": "node", "id": 6409454899, "lat": 40.7488386, "lon": -73.9897192}, {"type": "node", "id": 6409454900, "lat": 40.7488067, "lon": -73.9896429}, {"type": "node", "id": 6562836990, "lat": 40.7035986, "lon": -73.9918867, "tags": {"addr:postcode": "11201", "alt_name": "Timeout Market Dumbo", "amenity": "food_court", "name": "Time Out Market New York", "opening_hours": "Su-Th 08:00-23:00; Fr-Sa 08:00-24:00", "phone": "917 810 4855", "website": "https://www.timeoutmarket.com/newyork/"}}, {"type": "node", "id": 6582979286, "lat": 40.7171739, "lon": -73.9974068, "tags": {"amenity": "food_court", "cuisine": "asian", "name": "Mott Street Eatery", "name:zh": "\u7f8e\u98df\u6a13"}}, {"type": "node", "id": 6781584777, "lat": 40.7716727, "lon": -73.8660926, "tags": {"amenity": "food_court", "name": "Cibo Express Food Hall"}}, {"type": "node", "id": 6781597918, "lat": 40.7691173, "lon": -73.8618537, "tags": {"amenity": "food_court", "name": "Cibo Express Food Hall"}}, {"type": "node", "id": 7237418960, "lat": 40.7371426, "lon": -73.8177495, "tags": {"amenity": "food_court"}}, {"type": "node", "id": 8908464074, "lat": 40.7529525, "lon": -73.9991038, "tags": {"addr:city": "New York", "addr:housenumber": "398", "addr:state": "NY", "addr:street": "10th Avenue", "amenity": "food_court", "capacity": "1455", "name": "Citizens", "opening_hours": "Mo-Su 11:00-21:00", "outdoor_seating": "no", "smoking": "no", "website": "https://www.ctzns.com/newyork", "wheelchair": "yes"}}, {"type": "node", "id": 9341241205, "lat": 40.7189288, "lon": -74.0008989}, {"type": "node", "id": 9341241207, "lat": 40.7189018, "lon": -74.000932}, {"type": "node", "id": 9341241208, "lat": 40.7190818, "lon": -74.000744}, {"type": "node", "id": 9646952134, "lat": 40.8170654, "lon": -73.9579808}, {"type": "node", "id": 9646952135, "lat": 40.8169711, "lon": -73.9580486}, {"type": "node", "id": 9646952136, "lat": 40.8168042, "lon": -73.9580436}, {"type": "node", "id": 9646952137, "lat": 40.8169315, "lon": -73.9579523}, {"type": "node", "id": 9659402169, "lat": 40.7513167, "lon": -73.8256702, "tags": {"amenity": "food_court", "fax": "+1 718-368-6170", "opening_hours": "8:00-20:00"}}, {"type": "node", "id": 10000660273, "lat": 40.7517754, "lon": -73.9956822, "tags": {"amenity": "food_court", "check_date": "2023-04-07", "level": "0", "name": "Moynihan Food Hall"}}, {"type": "way", "id": 264624881, "nodes": [2702832072, 2702832096, 2702832158, 2702832165, 2702832169, 2702832172, 2702832164, 2702832146, 2702832072], "tags": {"addr:housenumber": "353", "addr:postcode": "10011", "addr:street": "West 14th Street", "amenity": "food_court", "building": "yes", "height": "18.2", "name": "Gansevoort Market", "nycdoitt:bin": "1078483"}}, {"type": "way", "id": 278053529, "nodes": [2824828753, 2824828798, 2824828805, 2824828803, 2824828782, 2824828733, 2824828753], "tags": {"addr:city": "New York", "addr:housenumber": "100", "addr:postcode": "10004", "addr:state": "NY", "addr:street": "Broad Street", "amenity": "food_court", "building": "yes", "building:colour": "#BDB9AD", "building:levels": "3", "ele": "2", "gnis:feature_id": "2057417", "height": "9.5", "name": "Essen", "nycdoitt:bin": "1000022", "phone": "+13474310980", "roof:material": "concrete", "roof:shape": "flat"}}, {"type": "way", "id": 311311054, "nodes": [3169163066, 3169163067, 3169163068, 3169163069, 3169163066], "tags": {"amenity": "food_court", "level": "2", "name": "Hudson Eats", "website": "https://bfplny.com/food/", "wheelchair": "yes"}}, {"type": "way", "id": 405900461, "nodes": [2827696826, 4080383070, 4080383071, 4080383072, 4080383073, 4080383074, 4080383075, 4080383076, 4080383077, 2827696652, 2827696648, 2827696659, 2827696689, 2827696679, 2827696694, 2827696808, 2827696839, 2827696826], "tags": {"amenity": "food_court", "leisure": "outdoor_seating", "name": "Ligget Terrace Food Court"}}, {"type": "way", "id": 634471165, "nodes": [294081673, 3379176520, 3379176521, 3379176522, 3381147817, 3381147818, 5987475441, 5987475442, 5987475443, 294081673], "tags": {"amenity": "food_court", "indoor": "room", "level": "0"}}, {"type": "way", "id": 668477452, "nodes": [6260011314, 6260011315, 6260011316, 6260011317, 6260011314], "tags": {"amenity": "food_court", "building": "yes", "name": "Urbanspace Vanderbilt"}}, {"type": "way", "id": 668479576, "nodes": [6260031905, 6260031906, 6260031907, 6260031908, 6260031905], "tags": {"amenity": "food_court", "name": "The Pennsy Food Hall"}}, {"type": "way", "id": 684175571, "nodes": [6409454898, 6409454899, 2703449223, 6409454900, 6409454897, 6409454896, 6409454898], "tags": {"amenity": "food_court", "cuisine": "international", "delivery": "yes", "drink:coffee": "yes", "level": "0", "name": "Cafe R", "opening_hours": "24/7", "phone": "+1-212-695-9550", "takeaway": "yes", "website": "http://www.cafernyc.com", "wheelchair": "yes"}}, {"type": "way", "id": 994983511, "nodes": [2547000788, 2547000780, 2547000496, 2547000777, 2547000788], "tags": {"addr:city": "New York", "addr:housenumber": "348", "addr:postcode": "10012", "addr:state": "NY", "addr:street": "Bowery", "amenity": "food_court", "building": "yes", "name": "The Bowery Market"}}, {"type": "way", "id": 1012524162, "nodes": [2555120496, 2555120505, 9341241208, 5017059024, 9341241205, 9341241207, 2555120284, 2555120281, 2555120496], "tags": {"addr:housenumber": "263", "addr:postcode": "10013", "addr:street": "Canal Street", "amenity": "food_court", "level": "0", "name": "Canal Street Market Food Hall", "opening_hours": "Mo-Th 11:00-18:00; Fr-Su 11:00-19:00", "website": "https://canalstreet.market/food/"}}, {"type": "way", "id": 1049736135, "nodes": [6219928341, 6219928340, 6219928339, 9646952134, 9646952135, 9646952137, 9646952136, 6219928341], "tags": {"addr:city": "New York", "addr:housenumber": "3229", "addr:postcode": "10027", "addr:state": "NY", "addr:street": "Broadway", "amenity": "food_court", "building:levels": "1", "building:part": "yes", "email": "manhattanvillemarket@fbeckerhospitality.com", "internet_access": "wlan", "internet_access:fee": "no", "internet_access:ssid": "Columbia University", "name": "Mm - Manhatanville Market", "opening_hours": "Mo-Su 08:00-22:00", "operator": "F Becker Hospitality", "outdoor_seating": "no", "phone": "+1-917-522-0391", "website": "https://www.manhattanvillemarket.com/"}}]}