{"version": 0.6, "generator": "Overpass API 0.7.60 f4c14d41", "osm3s": {"timestamp_osm_base": "2023-05-02T21:20:24Z", "copyright": "The data included in this document is from www.openstreetmap.org. The data is made available under ODbL."}, "elements": [{"type": "node", "id": 579166058, "lat": 22.2849039, "lon": 114.1411991, "tags": {"addr:country": "HK", "brand": "7-Eleven", "brand:wikidata": "Q259340", "name": "7-Eleven", "name:en": "7-Eleven", "name:zh": "7-11\u4fbf\u5229\u5e97", "shop": "convenience", "source": "Kaart Ground Survey 2017", "website": "https://www.7-eleven.com.hk/"}}, {"type": "node", "id": 579166093, "lat": 22.2842336, "lon": 114.1399374, "tags": {"addr:country": "HK", "brand": "OK\u4fbf\u5229\u5e97 Circle K", "brand:en": "Circle K", "brand:wikidata": "Q3268010", "brand:wikipedia": "zh:OK\u4fbf\u5229\u5e97", "brand:zh": "OK\u4fbf\u5229\u5e97", "brand:zh-Hans": "OK\u4fbf\u5229\u5e97", "brand:zh-Hant": "OK\u4fbf\u5229\u5e97", "name": "OK\u4fbf\u5229\u5e97 Circle K", "name:en": "Circle K", "name:zh": "OK\u4fbf\u5229\u5e97", "name:zh-Hans": "OK\u4fbf\u5229\u5e97", "name:zh-Hant": "OK\u4fbf\u5229\u5e97", "shop": "convenience", "source": "Kaart Ground Survey 2017", "website": "https://www.circlek.hk/"}}, {"type": "node", "id": 579168075, "lat": 22.2851851, "lon": 114.1409002, "tags": {"addr:country": "HK", "brand": "7-Eleven", "brand:wikidata": "Q259340", "brand:wikipedia": "en:7-Eleven", "name": "7-Eleven", "name:en": "7-Eleven", "name:zh": "7-11\u4fbf\u5229\u5e97", "shop": "convenience", "website": "https://www.7-eleven.com.hk/"}}, {"type": "node", "id": 910441911, "lat": 22.2440267, "lon": 114.1465138, "tags": {"addr:country": "HK", "brand": "7-Eleven", "brand:wikidata": "Q259340", "name": "7-Eleven", "name:en": "7-Eleven", "name:zh": "7-11\u4fbf\u5229\u5e97", "shop": "convenience", "website": "https://www.7-eleven.com.hk/"}}, {"type": "node", "id": 959433382, "lat": 22.2644442, "lon": 114.2487119, "tags": {"addr:country": "HK", "brand": "7-Eleven", "level": "0", "name": "7-Eleven", "name:en": "7-Eleven", "name:zh": "7-11\u4fbf\u5229\u5e97", "shop": "convenience", "website": "https://www.7-eleven.com.hk/"}}, {"type": "node", "id": 959433479, "lat": 22.2630146, "lon": 114.2487718, "tags": {"addr:country": "HK", "brand": "OK\u4fbf\u5229\u5e97 Circle K", "level": "0", "name": "OK\u4fbf\u5229\u5e97 Circle K", "name:en": "Circle K", "name:zh": "OK\u4fbf\u5229\u5e97", "shop": "convenience", "website": "https://www.circlek.hk/"}}, {"type": "node", "id": 1279888418, "lat": 22.278471, "lon": 114.228827, "tags": {"addr:city": "Shau Kei Wan", "addr:country": "HK", "addr:housenumber": "2", "addr:street": "Po Man Street", "brand": "7-Eleven", "brand:wikidata": "Q259340", "brand:wikipedia": "en:7-Eleven", "level": "0", "name": "7-Eleven", "name:en": "7-Eleven", "name:zh": "7-11\u4fbf\u5229\u5e97", "opening_hours": "24/7", "shop": "convenience", "website": "https://www.7-eleven.com.hk/"}}, {"type": "node", "id": 1280317651, "lat": 22.2860622, "lon": 114.1368422, "tags": {"addr:country": "HK", "brand": "7-Eleven", "brand:wikidata": "Q259340", "name": "7-Eleven", "name:en": "7-Eleven", "name:zh": "7-11\u4fbf\u5229\u5e97", "shop": "convenience", "website": "https://www.7-eleven.com.hk/"}}, {"type": "node", "id": 1298359467, "lat": 22.2771621, "lon": 114.1704562, "tags": {"addr:country": "HK", "addr:street": "\u838a\u58eb\u6566\u9053 Johnston Road", "brand": "7-Eleven", "brand:wikidata": "Q259340", "brand:wikipedia": "en:7-Eleven", "name": "7-Eleven", "name:en": "7-Eleven", "name:zh": "7-11\u4fbf\u5229\u5e97", "shop": "convenience", "source": "Kaart Ground Survey 2017", "website": "https://www.7-eleven.com.hk/"}}, {"type": "node", "id": 1298359470, "lat": 22.27777, "lon": 114.17314, "tags": {"addr:city": "Wan Chai", "addr:country": "HK", "addr:housenumber": "145", "addr:street": "\u8ed2\u5c3c\u8a69\u9053 Hennessy Road", "brand": "OK\u4fbf\u5229\u5e97 Circle K", "brand:en": "Circle K", "brand:wikidata": "Q3268010", "brand:wikipedia": "zh:OK\u4fbf\u5229\u5e97", "brand:zh": "OK\u4fbf\u5229\u5e97", "brand:zh-Hans": "OK\u4fbf\u5229\u5e97", "brand:zh-Hant": "OK\u4fbf\u5229\u5e97", "level": "0", "name": "OK\u4fbf\u5229\u5e97 Circle K", "name:en": "Circle K", "name:zh": "OK\u4fbf\u5229\u5e97", "name:zh-Hans": "OK\u4fbf\u5229\u5e97", "name:zh-Hant": "OK\u4fbf\u5229\u5e97", "opening_hours": "24/7", "shop": "convenience", "website": "https://www.circlek.hk/"}}, {"type": "node", "id": 1298359471, "lat": 22.2760552, "lon": 114.1703361, "tags": {"addr:country": "HK", "addr:street": "\u7687\u540e\u5927\u9053\u6771 Queen's Road East", "brand": "7-Eleven", "brand:wikidata": "Q259340", "name": "7-Eleven", "name:en": "7-Eleven", "name:zh": "7-11\u4fbf\u5229\u5e97", "shop": "convenience", "source": "Kaart Ground Survey 2017", "website": "https://www.7-eleven.com.hk/"}}, {"type": "node", "id": 1298704426, "lat": 22.2818221, "lon": 114.151581, "tags": {"addr:country": "HK", "addr:street": "\u5805\u9053 Caine Road", "brand": "7-Eleven", "brand:wikidata": "Q259340", "brand:wikipedia": "en:7-Eleven", "name": "7-Eleven", "name:en": "7-Eleven", "name:zh": "7-11\u4fbf\u5229\u5e97", "shop": "convenience", "source": "Kaart Ground Survey 2017", "website": "https://www.7-eleven.com.hk/"}}, {"type": "node", "id": 1298704431, "lat": 22.2864917, "lon": 114.192753, "tags": {"addr:street": "\u6728\u661f\u8857 Jupiter Street", "name": "U\u8cfcselect Mini", "shop": "convenience", "wheelchair": "no"}}, {"type": "node", "id": 1298704452, "lat": 22.2786554, "lon": 114.1798938, "tags": {"brand": "VanGO", "brand:en": "VanGO", "brand:wikidata": "Q10853203", "brand:wikipedia": "zh:VanGO", "name": "VanGO", "name:en": "VanGO", "shop": "convenience"}}, {"type": "node", "id": 1298704520, "lat": 22.278856, "lon": 114.1808761, "tags": {"addr:country": "HK", "brand": "7-Eleven", "brand:wikidata": "Q259340", "brand:wikipedia": "en:7-Eleven", "name": "7-Eleven", "name:en": "7-Eleven", "name:zh": "7-11\u4fbf\u5229\u5e97", "shop": "convenience", "website": "https://www.7-eleven.com.hk/"}}, {"type": "node", "id": 1298704576, "lat": 22.2780833, "lon": 114.1761409, "tags": {"addr:country": "HK", "addr:street": "\u8ed2\u5c3c\u8a69\u9053 Hennessy Road", "brand": "7-Eleven", "brand:wikidata": "Q259340", "brand:wikipedia": "en:7-Eleven", "name": "7-Eleven", "name:en": "7-Eleven", "name:zh": "7-11\u4fbf\u5229\u5e97", "opening_hours": "Mo-Su,PH 07:00-00:00", "shop": "convenience", "source": "Kaart Ground Survey 2017", "verify": "no", "website": "https://www.7-eleven.com.hk/"}}, {"type": "node", "id": 1298704636, "lat": 22.2844386, "lon": 114.153344, "tags": {"addr:country": "HK", "brand": "7-Eleven", "brand:wikidata": "Q259340", "brand:wikipedia": "en:7-Eleven", "name": "7-Eleven", "name:en": "7-Eleven", "name:zh": "7-11\u4fbf\u5229\u5e97", "shop": "convenience", "website": "https://www.7-eleven.com.hk/"}}, {"type": "node", "id": 1298704763, "lat": 22.2688987, "lon": 114.1844912, "tags": {"addr:country": "HK", "addr:street": "\u666f\u5149\u8857 King Kwong Street", "brand": "7-Eleven", "brand:wikidata": "Q259340", "name": "7-Eleven", "name:en": "7-Eleven", "name:zh": "7-11\u4fbf\u5229\u5e97", "shop": "convenience", "source": "Kaart Ground Survey 2017", "website": "https://www.7-eleven.com.hk/"}}, {"type": "node", "id": 1298704809, "lat": 22.282727, "lon": 114.153913, "tags": {"addr:country": "HK", "addr:housenumber": "37", "addr:street": "\u95a3\u9e9f\u8857 Cochrane Street", "brand": "7-Eleven", "brand:wikidata": "Q259340", "level": "0", "name": "7-Eleven", "name:en": "7-Eleven", "name:zh": "7-11\u4fbf\u5229\u5e97", "opening_hours": "24/7", "shop": "convenience", "website": "https://www.7-eleven.com.hk/"}}, {"type": "node", "id": 1298704812, "lat": 22.2831281, "lon": 114.1525967, "tags": {"addr:country": "HK", "brand": "7-Eleven", "brand:wikidata": "Q259340", "brand:wikipedia": "en:7-Eleven", "name": "7-Eleven", "name:en": "7-Eleven", "name:zh": "7-11\u4fbf\u5229\u5e97", "shop": "convenience", "website": "https://www.7-eleven.com.hk/"}}, {"type": "node", "id": 1298704911, "lat": 22.2800353, "lon": 114.1508156, "tags": {"addr:country": "HK", "brand": "7-Eleven", "brand:wikidata": "Q259340", "brand:wikipedia": "en:7-Eleven", "name": "7-Eleven", "name:en": "7-Eleven", "name:zh": "7-11\u4fbf\u5229\u5e97", "shop": "convenience", "website": "https://www.7-eleven.com.hk/"}}, {"type": "node", "id": 1298704931, "lat": 22.2829672, "lon": 114.1494807, "tags": {"addr:country": "HK", "brand": "7-Eleven", "brand:wikidata": "Q259340", "brand:wikipedia": "en:7-Eleven", "name": "7-Eleven", "name:en": "7-Eleven", "name:zh": "7-11\u4fbf\u5229\u5e97", "shop": "convenience", "source": "Kaart Ground Survey 2017", "website": "https://www.7-eleven.com.hk/"}}, {"type": "node", "id": 1298704940, "lat": 22.2775519, "lon": 114.1749213, "tags": {"addr:country": "HK", "brand": "7-Eleven", "brand:wikidata": "Q259340", "brand:wikipedia": "en:7-Eleven", "name": "7-Eleven", "name:en": "7-Eleven", "name:zh": "7-11\u4fbf\u5229\u5e97", "shop": "convenience", "website": "https://www.7-eleven.com.hk/"}}, {"type": "node", "id": 1298704955, "lat": 22.2796561, "lon": 114.1848405, "tags": {"addr:country": "HK", "brand": "7-Eleven", "brand:wikidata": "Q259340", "brand:wikipedia": "en:7-Eleven", "name": "7-Eleven", "name:en": "7-Eleven", "name:zh": "7-11\u4fbf\u5229\u5e97", "shop": "convenience", "website": "https://www.7-eleven.com.hk/"}}, {"type": "node", "id": 1299465449, "lat": 22.2763176, "lon": 114.1728793, "tags": {"addr:country": "HK", "addr:housenumber": "104", "addr:street": "\u838a\u58eb\u6566\u9053 Johnston Road", "brand": "7-Eleven", "brand:wikidata": "Q259340", "brand:wikipedia": "en:7-Eleven", "name": "7-Eleven", "name:en": "7-Eleven", "name:zh": "7-11\u4fbf\u5229\u5e97", "opening_hours": "Mo-Su,PH 07:00-23:00", "shop": "convenience", "website": "https://www.7-eleven.com.hk/"}}, {"type": "node", "id": 1299465465, "lat": 22.2906633, "lon": 114.1986684, "tags": {"addr:country": "HK", "addr:street": "\u660e\u5712\u897f\u8857 Ming Yuen Western Street", "brand": "7-Eleven", "brand:wikidata": "Q259340", "brand:wikipedia": "en:7-Eleven", "name": "7-Eleven", "name:en": "7-Eleven", "name:zh": "7-11\u4fbf\u5229\u5e97", "shop": "convenience", "source": "Kaart Ground Survey 2017", "website": "https://www.7-eleven.com.hk/"}}, {"type": "node", "id": 1299465469, "lat": 22.27822, "lon": 114.17989, "tags": {"addr:country": "HK", "addr:housenumber": "9-17", "addr:street": "\u5929\u6a02\u91cc Tin Lok Lane", "addr:unit": "C", "brand": "7-Eleven", "brand:wikidata": "Q259340", "brand:wikipedia": "en:7-Eleven", "level": "0", "name": "7-Eleven", "name:en": "7-Eleven", "name:zh": "7-11\u4fbf\u5229\u5e97", "shop": "convenience", "website": "https://www.7-eleven.com.hk/"}}, {"type": "node", "id": 1299465471, "lat": 22.2809642, "lon": 114.1757371, "tags": {"addr:country": "HK", "addr:street": "\u6e2f\u7063\u9053 Harbour Road", "brand": "7-Eleven", "brand:wikidata": "Q259340", "brand:wikipedia": "en:7-Eleven", "level": "0", "name": "7-Eleven", "name:en": "7-Eleven", "name:zh": "7-11\u4fbf\u5229\u5e97", "shop": "convenience", "website": "https://www.7-eleven.com.hk/"}}, {"type": "node", "id": 1299465484, "lat": 22.2899943, "lon": 114.1955193, "tags": {"addr:country": "HK", "addr:street": "\u82f1\u7687\u9053 King's Road", "brand": "7-Eleven", "brand:wikidata": "Q259340", "brand:wikipedia": "en:7-Eleven", "name": "7-Eleven", "name:en": "7-Eleven", "name:zh": "7-11\u4fbf\u5229\u5e97", "shop": "convenience", "source": "Kaart Ground Survey 2017", "website": "https://www.7-eleven.com.hk/", "wheelchair": "no"}}, {"type": "node", "id": 1299465491, "lat": 22.27809, "lon": 114.17049, "tags": {"addr:country": "HK", "addr:housenumber": "42-50", "addr:street": "\u99f1\u514b\u9053 Lockhart Road", "brand": "7-Eleven", "brand:wikidata": "Q259340", "brand:wikipedia": "en:7-Eleven", "name": "7-Eleven", "name:en": "7-Eleven", "name:zh": "7-11\u4fbf\u5229\u5e97", "opening_hours": "24/7", "shop": "convenience", "website": "https://www.7-eleven.com.hk/"}}, {"type": "node", "id": 1299465495, "lat": 22.277434, "lon": 114.1713049, "tags": {"addr:country": "HK", "brand": "7-Eleven", "brand:wikidata": "Q259340", "brand:wikipedia": "en:7-Eleven", "name": "7-Eleven", "name:en": "7-Eleven", "name:zh": "7-11\u4fbf\u5229\u5e97", "shop": "convenience", "website": "https://www.7-eleven.com.hk/"}}, {"type": "node", "id": 1299465502, "lat": 22.2774734, "lon": 114.1704348, "tags": {"addr:country": "HK", "addr:street": "\u8ed2\u5c3c\u8a69\u9053 Hennessy Road", "brand": "OK\u4fbf\u5229\u5e97 Circle K", "brand:en": "Circle K", "brand:wikidata": "Q3268010", "brand:wikipedia": "zh:OK\u4fbf\u5229\u5e97", "brand:zh": "OK\u4fbf\u5229\u5e97", "brand:zh-Hans": "OK\u4fbf\u5229\u5e97", "brand:zh-Hant": "OK\u4fbf\u5229\u5e97", "name": "OK\u4fbf\u5229\u5e97 Circle K", "name:en": "Circle K", "name:zh": "OK\u4fbf\u5229\u5e97", "name:zh-Hans": "OK\u4fbf\u5229\u5e97", "name:zh-Hant": "OK\u4fbf\u5229\u5e97", "shop": "convenience", "source": "Kaart Ground Survey 2017", "website": "https://www.circlek.hk/"}}, {"type": "node", "id": 1335238161, "lat": 22.28142, "lon": 114.15612, "tags": {"addr:city": "Central", "addr:country": "HK", "addr:housenumber": "8-12", "addr:street": "\u5fb7\u5df1\u7acb\u8857 D'Aguilar Street", "brand": "7-Eleven", "brand:wikidata": "Q259340", "brand:wikipedia": "en:7-Eleven", "name": "7-Eleven", "name:en": "7-Eleven", "name:zh": "7-11\u4fbf\u5229\u5e97", "shop": "convenience", "website": "https://www.7-eleven.com.hk/"}}, {"type": "node", "id": 1653118701, "lat": 22.2794339, "lon": 114.2300034, "tags": {"addr:country": "HK", "brand": "7-Eleven", "brand:wikidata": "Q259340", "brand:wikipedia": "en:7-Eleven", "name": "7-Eleven", "name:en": "7-Eleven", "name:zh": "7-11\u4fbf\u5229\u5e97", "shop": "convenience", "website": "https://www.7-eleven.com.hk/"}}, {"type": "node", "id": 1705682820, "lat": 22.28136, "lon": 114.22129, "tags": {"brand": "759\u963f\u4fe1\u5c4b 759 Store", "brand:wikidata": "Q10846179", "brand:wikipedia": "en:759 Store", "brand:zh": "759\u963f\u4fe1\u5c4b", "brand:zh-Hans": "759\u963f\u4fe1\u5c4b", "brand:zh-Hant": "759\u963f\u4fe1\u5c4b", "name": "759\u963f\u4fe1\u5c4b 759 Store", "name:en": "759 Store", "name:zh": "759\u963f\u4fe1\u5c4b", "name:zh-Hans": "759\u963f\u4fe1\u5c4b", "name:zh-Hant": "759\u963f\u4fe1\u5c4b", "shop": "convenience"}}, {"type": "node", "id": 1730301250, "lat": 22.2866861, "lon": 114.191127, "tags": {"addr:country": "HK", "brand": "OK\u4fbf\u5229\u5e97 Circle K", "brand:en": "Circle K", "brand:wikidata": "Q3268010", "brand:wikipedia": "zh:OK\u4fbf\u5229\u5e97", "brand:zh": "OK\u4fbf\u5229\u5e97", "brand:zh-Hans": "OK\u4fbf\u5229\u5e97", "brand:zh-Hant": "OK\u4fbf\u5229\u5e97", "name": "OK\u4fbf\u5229\u5e97 Circle K", "name:en": "Circle K", "name:zh": "OK\u4fbf\u5229\u5e97", "name:zh-Hans": "OK\u4fbf\u5229\u5e97", "name:zh-Hant": "OK\u4fbf\u5229\u5e97", "shop": "convenience", "website": "https://www.circlek.hk/"}}, {"type": "node", "id": 1784411561, "lat": 22.2625684, "lon": 114.2512617, "tags": {"addr:country": "HK", "brand": "7-Eleven", "name": "7-Eleven", "name:en": "7-Eleven", "name:zh": "7-11\u4fbf\u5229\u5e97", "shop": "convenience", "website": "https://www.7-eleven.com.hk/"}}, {"type": "node", "id": 1784417094, "lat": 22.2626875, "lon": 114.248959, "tags": {"brand": "759\u963f\u4fe1\u5c4b 759 Store", "level": "0", "name": "759\u963f\u4fe1\u5c4b 759 Store", "name:en": "759 Store", "name:zh": "759\u963f\u4fe1\u5c4b", "shop": "convenience"}}, {"type": "node", "id": 1890950686, "lat": 22.2491238, "lon": 114.1480887, "tags": {"addr:country": "HK", "brand": "7-Eleven", "brand:wikidata": "Q259340", "brand:wikipedia": "en:7-Eleven", "name": "7-Eleven", "name:en": "7-Eleven", "name:zh": "7-11\u4fbf\u5229\u5e97", "shop": "convenience", "website": "https://www.7-eleven.com.hk/"}}, {"type": "node", "id": 1890962231, "lat": 22.2492101, "lon": 114.1488205, "tags": {"addr:country": "HK", "brand": "OK\u4fbf\u5229\u5e97 Circle K", "brand:en": "Circle K", "brand:wikidata": "Q3268010", "brand:wikipedia": "zh:OK\u4fbf\u5229\u5e97", "brand:zh": "OK\u4fbf\u5229\u5e97", "brand:zh-Hans": "OK\u4fbf\u5229\u5e97", "brand:zh-Hant": "OK\u4fbf\u5229\u5e97", "name": "OK\u4fbf\u5229\u5e97 Circle K", "name:en": "Circle K", "name:zh": "OK\u4fbf\u5229\u5e97", "name:zh-Hans": "OK\u4fbf\u5229\u5e97", "name:zh-Hant": "OK\u4fbf\u5229\u5e97", "shop": "convenience", "website": "https://www.circlek.hk/"}}, {"type": "node", "id": 1890962315, "lat": 22.2493573, "lon": 114.1489604, "tags": {"addr:country": "HK", "brand": "7-Eleven", "brand:wikidata": "Q259340", "brand:wikipedia": "en:7-Eleven", "name": "7-Eleven", "name:en": "7-Eleven", "name:zh": "7-11\u4fbf\u5229\u5e97", "shop": "convenience", "website": "https://www.7-eleven.com.hk/"}}, {"type": "node", "id": 1945327001, "lat": 22.2783524, "lon": 114.1733356, "tags": {"addr:country": "HK", "addr:street": "\u99f1\u514b\u9053 Lockhart Road", "brand": "7-Eleven", "brand:wikidata": "Q259340", "brand:wikipedia": "en:7-Eleven", "level": "0", "name": "7-Eleven", "name:en": "7-Eleven", "name:zh": "7-11\u4fbf\u5229\u5e97", "shop": "convenience", "website": "https://www.7-eleven.com.hk/"}}, {"type": "node", "id": 1952090000, "lat": 22.2809852, "lon": 114.1746768, "tags": {"addr:country": "HK", "brand": "7-Eleven", "brand:wikidata": "Q259340", "brand:wikipedia": "en:7-Eleven", "name": "7-Eleven", "name:en": "7-Eleven", "name:zh": "7-11\u4fbf\u5229\u5e97", "shop": "convenience", "website": "https://www.7-eleven.com.hk/"}}, {"type": "node", "id": 2014719544, "lat": 22.2853, "lon": 114.21271, "tags": {"addr:country": "HK", "brand": "7-Eleven", "brand:wikidata": "Q259340", "brand:wikipedia": "en:7-Eleven", "level": "0", "name": "7-Eleven", "name:en": "7-Eleven", "name:zh": "7-11\u4fbf\u5229\u5e97", "opening_hours": "Mo-Su,PH 07:00-00:00", "shop": "convenience", "website": "https://www.7-eleven.com.hk/"}}, {"type": "node", "id": 2015264550, "lat": 22.2518495, "lon": 114.1387349, "tags": {"addr:country": "HK", "brand": "7-Eleven", "name": "7-Eleven", "name:en": "7-Eleven", "name:zh": "7-11\u4fbf\u5229\u5e97", "shop": "convenience", "website": "https://www.7-eleven.com.hk/"}}, {"type": "node", "id": 2092498560, "lat": 22.2878981, "lon": 114.1445921, "tags": {"addr:city": "Hong Kong", "addr:housenumber": "125", "addr:street": "\u5fb7\u8f14\u9053\u897f Des Voeux Road West", "brand": "7-Eleven", "brand:wikidata": "Q259340", "brand:wikipedia": "en:7-Eleven", "name": "7-Eleven", "opening_hours": "24/7", "shop": "convenience", "website": "https://www.7-eleven.com.hk/"}}, {"type": "node", "id": 2123565666, "lat": 22.280897, "lon": 114.1557202, "tags": {"addr:country": "HK", "addr:housenumber": "3", "addr:street": "\u862d\u6842\u574a Lan Kwai Fong", "brand": "7-Eleven", "brand:wikidata": "Q259340", "brand:wikipedia": "en:7-Eleven", "level": "0", "name": "7-Eleven", "name:en": "7-Eleven", "name:zh": "7-11\u4fbf\u5229\u5e97", "shop": "convenience", "website": "https://www.7-eleven.com.hk"}}, {"type": "node", "id": 2124676772, "lat": 22.2806182, "lon": 114.1549693, "tags": {"addr:housenumber": "41", "addr:street": "\u96f2\u54b8\u8857 Wyndham Street", "brand": "7-Eleven", "brand:wikidata": "Q259340", "brand:wikipedia": "en:7-Eleven", "name": "7-Eleven", "shop": "convenience"}}, {"type": "node", "id": 2124676780, "lat": 22.282323, "lon": 114.15498, "tags": {"addr:country": "HK", "addr:housenumber": "76", "addr:street": "\u5a01\u9748\u9813\u8857 Wellington Street", "amenity": "restaurant", "brand": "7-Eleven", "brand:wikidata": "Q259340", "level": "0", "name": "7-Eleven", "name:en": "Berger Shop", "name:zh": "7-11\u4fbf\u5229\u5e97", "opening_hours": "24/7", "shop": "convenience", "website": "https://www.7-eleven.com.hk/"}}, {"type": "node", "id": 2247816073, "lat": 22.2808697, "lon": 114.1550718, "tags": {"addr:housenumber": "41", "addr:street": "\u5fb7\u5df1\u7acb\u8857 D'Aguilar Street", "brand": "7-Eleven", "brand:wikidata": "Q259340", "level": "0", "name": "7-Eleven", "name:en": "7-Eleven", "name:zh": "7-11\u4fbf\u5229\u5e97", "shop": "convenience", "website": "https://www.7-eleven.com.hk"}}, {"type": "node", "id": 2364363586, "lat": 22.2374233, "lon": 114.1967923, "tags": {"addr:country": "HK", "brand": "7-Eleven", "name": "7-Eleven", "name:en": "7-Eleven", "name:zh": "7-11\u4fbf\u5229\u5e97", "shop": "convenience", "website": "https://www.7-eleven.com.hk/"}}, {"type": "node", "id": 2394929266, "lat": 22.2833825, "lon": 114.1545854, "tags": {"addr:country": "HK", "addr:housenumber": "15", "addr:street": "\u95a3\u9e9f\u8857 Cochrane Street", "brand": "7-Eleven", "brand:wikidata": "Q259340", "brand:wikipedia": "en:7-Eleven", "name": "7-Eleven", "name:en": "7-Eleven", "name:zh": "7-11\u4fbf\u5229\u5e97", "opening_hours": "24/7", "shop": "convenience", "website": "https://www.7-eleven.com.hk/"}}, {"type": "node", "id": 2556738323, "lat": 22.2797578, "lon": 114.1636135, "tags": {"addr:city:en": "Hong Kong", "name": "Marks & Spencer Food", "shop": "convenience"}}, {"type": "node", "id": 2702252826, "lat": 22.2778647, "lon": 114.1862617, "tags": {"addr:country": "HK", "addr:street": "\u79ae\u9813\u9053 Leighton Road", "air_conditioning": "yes", "brand": "7-Eleven", "brand:wikidata": "Q259340", "brand:wikipedia": "en:7-Eleven", "name": "7-Eleven", "name:en": "7-Eleven", "name:zh": "7-11\u4fbf\u5229\u5e97", "opening_hours": "24/7", "shop": "convenience", "website": "https://www.7-eleven.com.hk/"}}, {"type": "node", "id": 2710192716, "lat": 22.2785443, "lon": 114.185991, "tags": {"addr:country": "HK", "addr:street": "\u908a\u5be7\u9813\u8857 Pennington Street", "brand": "7-Eleven", "brand:wikidata": "Q259340", "brand:wikipedia": "en:7-Eleven", "name": "7-Eleven", "name:en": "7-Eleven", "name:zh": "7-11\u4fbf\u5229\u5e97", "shop": "convenience", "source": "Kaart Ground Survey 2017", "website": "https://www.7-eleven.com.hk/"}}, {"type": "node", "id": 2715038149, "lat": 22.2834114, "lon": 114.191803, "tags": {"addr:country": "HK", "brand": "7-Eleven", "brand:wikidata": "Q259340", "brand:wikipedia": "en:7-Eleven", "name": "7-Eleven", "name:en": "7-Eleven", "name:zh": "7-11\u4fbf\u5229\u5e97", "shop": "convenience", "website": "https://www.7-eleven.com.hk/"}}, {"type": "node", "id": 2715038150, "lat": 22.2848457, "lon": 114.1917245, "tags": {"addr:country": "HK", "brand": "7-Eleven", "brand:wikidata": "Q259340", "brand:wikipedia": "en:7-Eleven", "name": "7-Eleven", "name:en": "7-Eleven", "name:zh": "7-11\u4fbf\u5229\u5e97", "shop": "convenience", "website": "https://www.7-eleven.com.hk/", "wheelchair": "no"}}, {"type": "node", "id": 2719229090, "lat": 22.2843749, "lon": 114.1915702, "tags": {"addr:housenumber": "69", "addr:street": "\u96fb\u6c23\u9053 Electric Road", "brand": "\u512a\u54c1360 Best Mart 360", "brand:en": "Best Mart 360", "brand:wikidata": "Q65117567", "brand:wikipedia": "zh:\u512a\u54c1360", "brand:zh": "\u512a\u54c1360", "name": "\u512a\u54c1360 Best Mart 360", "name:en": "Best Mart 360", "name:zh": "\u512a\u54c1360", "shop": "convenience"}}, {"type": "node", "id": 3439542293, "lat": 22.280259, "lon": 114.230549, "tags": {"addr:country": "HK", "addr:housenumber": "51", "addr:street": "Shau Kei Wan Main Street East", "brand": "OK\u4fbf\u5229\u5e97 Circle K", "brand:en": "Circle K", "brand:wikidata": "Q3268010", "brand:wikipedia": "zh:OK\u4fbf\u5229\u5e97", "brand:zh": "OK\u4fbf\u5229\u5e97", "brand:zh-Hans": "OK\u4fbf\u5229\u5e97", "brand:zh-Hant": "OK\u4fbf\u5229\u5e97", "level": "0", "name": "OK\u4fbf\u5229\u5e97 Circle K", "name:en": "Circle K", "name:zh": "OK\u4fbf\u5229\u5e97", "name:zh-Hans": "OK\u4fbf\u5229\u5e97", "name:zh-Hant": "OK\u4fbf\u5229\u5e97", "opening_hours": "Mo-Su,PH 06:30-23:30", "shop": "convenience", "website": "https://www.circlek.hk/"}}, {"type": "node", "id": 3496219968, "lat": 22.2858327, "lon": 114.1914902, "tags": {"brand": "VanGO", "brand:en": "VanGO", "brand:wikidata": "Q10853203", "brand:wikipedia": "zh:VanGO", "name": "VanGO", "name:en": "VanGO", "operator": "VanGO", "shop": "convenience", "wheelchair": "no"}}, {"type": "node", "id": 3527410682, "lat": 22.2505726, "lon": 114.1498188, "tags": {"addr:country": "HK", "brand": "7-Eleven", "brand:wikidata": "Q259340", "brand:wikipedia": "en:7-Eleven", "name": "7-Eleven", "name:en": "7-Eleven", "name:zh": "7-11\u4fbf\u5229\u5e97", "shop": "convenience", "website": "https://www.7-eleven.com.hk/"}}, {"type": "node", "id": 3664257766, "lat": 22.2775989, "lon": 114.1760947, "tags": {"brand": "759\u963f\u4fe1\u5c4b 759 Store", "brand:wikidata": "Q10846179", "brand:wikipedia": "en:759 Store", "brand:zh": "759\u963f\u4fe1\u5c4b", "brand:zh-Hans": "759\u963f\u4fe1\u5c4b", "brand:zh-Hant": "759\u963f\u4fe1\u5c4b", "name": "759\u963f\u4fe1\u5c4b 759 Store", "name:en": "759 Store", "name:zh": "759\u963f\u4fe1\u5c4b", "name:zh-Hans": "759\u963f\u4fe1\u5c4b", "name:zh-Hant": "759\u963f\u4fe1\u5c4b", "shop": "convenience"}}, {"type": "node", "id": 3667320222, "lat": 22.2767895, "lon": 114.1765744, "tags": {"addr:country": "HK", "brand": "7-Eleven", "brand:wikidata": "Q259340", "brand:wikipedia": "en:7-Eleven", "name": "7-Eleven", "name:en": "7-Eleven", "name:zh": "7-11\u4fbf\u5229\u5e97", "shop": "convenience", "website": "https://www.7-eleven.com.hk/"}}, {"type": "node", "id": 3667347928, "lat": 22.2741085, "lon": 114.1741113, "tags": {"addr:country": "HK", "brand": "7-Eleven", "brand:wikidata": "Q259340", "name": "7-Eleven", "name:en": "7-Eleven", "name:zh": "7-11\u4fbf\u5229\u5e97", "shop": "convenience", "website": "https://www.7-eleven.com.hk/"}}, {"type": "node", "id": 3667349295, "lat": 22.2765417, "lon": 114.1749648, "tags": {"addr:country": "HK", "brand": "OK\u4fbf\u5229\u5e97 Circle K", "brand:en": "Circle K", "brand:wikidata": "Q3268010", "brand:wikipedia": "zh:OK\u4fbf\u5229\u5e97", "brand:zh": "OK\u4fbf\u5229\u5e97", "brand:zh-Hans": "OK\u4fbf\u5229\u5e97", "brand:zh-Hant": "OK\u4fbf\u5229\u5e97", "name": "OK\u4fbf\u5229\u5e97 Circle K", "name:en": "Circle K", "name:zh": "OK\u4fbf\u5229\u5e97", "name:zh-Hans": "OK\u4fbf\u5229\u5e97", "name:zh-Hant": "OK\u4fbf\u5229\u5e97", "shop": "convenience", "website": "https://www.circlek.hk/"}}, {"type": "node", "id": 3668080179, "lat": 22.2791886, "lon": 114.1793894, "tags": {"addr:country": "HK", "addr:street": "\u99f1\u514b\u9053 Lockhart Road", "brand": "OK\u4fbf\u5229\u5e97 Circle K", "brand:en": "Circle K", "brand:wikidata": "Q3268010", "brand:wikipedia": "zh:OK\u4fbf\u5229\u5e97", "brand:zh": "OK\u4fbf\u5229\u5e97", "brand:zh-Hans": "OK\u4fbf\u5229\u5e97", "brand:zh-Hant": "OK\u4fbf\u5229\u5e97", "name": "OK\u4fbf\u5229\u5e97 Circle K", "name:en": "Circle K", "name:zh": "OK\u4fbf\u5229\u5e97", "name:zh-Hans": "OK\u4fbf\u5229\u5e97", "name:zh-Hant": "OK\u4fbf\u5229\u5e97", "shop": "convenience", "source": "Kaart Ground Survey 2017", "website": "https://www.circlek.hk/"}}, {"type": "node", "id": 3672903798, "lat": 22.2802076, "lon": 114.1769256, "tags": {"addr:country": "HK", "brand": "7-Eleven", "brand:wikidata": "Q259340", "brand:wikipedia": "en:7-Eleven", "level": "1", "name": "7-Eleven", "name:en": "7-Eleven", "name:zh": "7-11\u4fbf\u5229\u5e97", "shop": "convenience", "website": "https://www.7-eleven.com.hk/"}}, {"type": "node", "id": 3714564365, "lat": 22.2802457, "lon": 114.1538518, "tags": {"addr:country": "HK", "brand": "7-Eleven", "brand:wikidata": "Q259340", "brand:wikipedia": "en:7-Eleven", "name": "7-Eleven", "name:en": "7-Eleven", "name:zh": "7-11\u4fbf\u5229\u5e97", "shop": "convenience", "website": "https://www.7-eleven.com.hk/"}}, {"type": "node", "id": 4075184722, "lat": 22.2840661, "lon": 114.150717, "tags": {"addr:country": "HK", "brand": "7-Eleven", "brand:wikidata": "Q259340", "brand:wikipedia": "en:7-Eleven", "name": "7-Eleven", "name:en": "7-Eleven", "name:zh": "7-11\u4fbf\u5229\u5e97", "shop": "convenience", "website": "https://www.7-eleven.com.hk/"}}, {"type": "node", "id": 4079478411, "lat": 22.2775782, "lon": 114.176665, "tags": {"addr:country": "HK", "addr:street": "\u838a\u58eb\u6566\u9053 Johnston Road", "brand": "7-Eleven", "brand:wikidata": "Q259340", "brand:wikipedia": "en:7-Eleven", "internet_access": "wlan", "level": "0", "name": "7-Eleven", "name:en": "7-Eleven", "name:zh": "7-11\u4fbf\u5229\u5e97", "shop": "convenience", "source": "Kaart Ground Survey 2017", "website": "https://www.7-eleven.com.hk/"}}, {"type": "node", "id": 4092054341, "lat": 22.2866702, "lon": 114.1508664, "tags": {"addr:country": "HK", "brand": "7-Eleven", "brand:wikidata": "Q259340", "brand:wikipedia": "en:7-Eleven", "level": "0", "name": "7-Eleven", "name:en": "7-Eleven", "name:zh": "7-11\u4fbf\u5229\u5e97", "shop": "convenience", "website": "https://www.7-eleven.com.hk/"}}, {"type": "node", "id": 4104739184, "lat": 22.2630004, "lon": 114.2486199, "tags": {"brand": "\u512a\u54c1 Best Mart 360\u00b0", "level": "0", "name": "\u512a\u54c1 Best Mart 360\u00b0", "name:en": "Best Mart 360\u00b0", "name:zh": "\u512a\u54c1360\u00b0", "shop": "convenience"}}, {"type": "node", "id": 4116103533, "lat": 22.2808287, "lon": 114.1279377, "tags": {"addr:country": "HK", "brand": "7-Eleven", "brand:wikidata": "Q259340", "level": "0", "name": "7-Eleven", "name:en": "7-Eleven", "name:zh": "7-11\u4fbf\u5229\u5e97", "shop": "convenience", "website": "https://www.7-eleven.com.hk/"}}, {"type": "node", "id": 4116132392, "lat": 22.2872913, "lon": 114.138711, "tags": {"addr:country": "HK", "addr:street": "\u5fb7\u8f14\u9053\u897f Des Voeux Road West", "brand": "7-Eleven", "brand:wikidata": "Q259340", "brand:wikipedia": "en:7-Eleven", "level": "0", "name": "7-Eleven", "name:en": "7-Eleven", "name:zh": "7-11\u4fbf\u5229\u5e97", "shop": "convenience", "source": "Kaart Ground Survey 2017", "website": "https://www.7-eleven.com.hk/"}}, {"type": "node", "id": 4118418174, "lat": 22.2876155, "lon": 114.147356, "tags": {"brand": "VanGO", "brand:en": "VanGO", "brand:wikidata": "Q10853203", "level": "0", "name": "VanGO", "name:en": "VanGO", "name:zh": "VanGO\u4fbf\u5229\u5e97", "operator": "\u83ef\u6f64\u842c\u5bb6 Vanguard", "shop": "convenience"}}, {"type": "node", "id": 4118418178, "lat": 22.2872989, "lon": 114.1471702, "tags": {"addr:country": "HK", "addr:housenumber": "1", "addr:street": "\u7687\u540e\u8857 Queen Street", "brand": "7-Eleven", "brand:wikidata": "Q259340", "brand:wikipedia": "en:7-Eleven", "level": "0", "name": "7-Eleven", "name:en": "7-Eleven", "name:zh": "7-11\u4fbf\u5229\u5e97", "opening_hours": "24/7", "shop": "convenience", "website": "https://www.7-eleven.com.hk/"}}, {"type": "node", "id": 4143041290, "lat": 22.2774014, "lon": 114.1799009, "tags": {"addr:country": "HK", "addr:street": "\u6469\u7406\u81e3\u5c71\u9053 Morrison Hill Road", "brand": "7-Eleven", "brand:wikidata": "Q259340", "level": "0", "name": "7-Eleven", "name:en": "7-Eleven", "name:zh": "7-11\u4fbf\u5229\u5e97", "shop": "convenience", "source": "Kaart Ground Survey 2017", "website": "https://www.7-eleven.com.hk/"}}, {"type": "node", "id": 4148659709, "lat": 22.2823748, "lon": 114.1522251, "tags": {"addr:city": "Central", "addr:country": "HK", "addr:housenumber": "37", "addr:street": "\u58eb\u4e39\u9813\u8857 Staunton Street", "brand": "7-Eleven", "brand:wikidata": "Q259340", "brand:wikipedia": "en:7-Eleven", "name": "7-Eleven", "name:en": "7-Eleven", "name:zh": "7-11\u4fbf\u5229\u5e97", "shop": "convenience", "website": "https://www.7-eleven.com.hk/"}}, {"type": "node", "id": 4155282341, "lat": 22.2860749, "lon": 114.1518534, "tags": {"addr:country": "HK", "addr:street": "\u6c38\u6a02\u8857 Wing Lok Street", "brand": "7-Eleven", "brand:wikidata": "Q259340", "brand:wikipedia": "en:7-Eleven", "name": "7-Eleven", "name:en": "7-Eleven", "name:zh": "7-11\u4fbf\u5229\u5e97", "shop": "convenience", "website": "https://www.7-eleven.com.hk/"}}, {"type": "node", "id": 4168535490, "lat": 22.2787117, "lon": 114.1651602, "tags": {"addr:country": "HK", "brand": "OK\u4fbf\u5229\u5e97 Circle K", "brand:en": "Circle K", "brand:wikidata": "Q3268010", "brand:wikipedia": "zh:OK\u4fbf\u5229\u5e97", "brand:zh": "OK\u4fbf\u5229\u5e97", "brand:zh-Hans": "OK\u4fbf\u5229\u5e97", "brand:zh-Hant": "OK\u4fbf\u5229\u5e97", "name": "OK\u4fbf\u5229\u5e97 Circle K", "name:en": "Circle K", "name:zh": "OK\u4fbf\u5229\u5e97", "name:zh-Hans": "OK\u4fbf\u5229\u5e97", "name:zh-Hant": "OK\u4fbf\u5229\u5e97", "shop": "convenience", "website": "https://www.circlek.hk/"}}, {"type": "node", "id": 4168582289, "lat": 22.2769431, "lon": 114.168626, "tags": {"addr:country": "HK", "addr:housenumber": "27", "addr:street": "\u7687\u540e\u5927\u9053\u6771 Queen's Road East", "brand": "7-Eleven", "brand:wikidata": "Q259340", "brand:wikipedia": "en:7-Eleven", "name": "7-Eleven", "name:en": "7-Eleven", "name:zh": "7-11\u4fbf\u5229\u5e97", "shop": "convenience", "website": "https://www.7-eleven.com.hk/"}}, {"type": "node", "id": 4172634800, "lat": 22.277038, "lon": 114.17359, "tags": {"addr:country": "HK", "addr:housenumber": "72", "addr:street": "\u8b5a\u81e3\u9053 Thomson Road", "brand": "7-Eleven", "brand:wikidata": "Q259340", "brand:wikipedia": "en:7-Eleven", "name": "7-Eleven", "name:en": "7-Eleven", "name:zh": "7-11\u4fbf\u5229\u5e97", "opening_hours": "24/7", "shop": "convenience", "website": "https://www.7-eleven.com.hk/"}}, {"type": "node", "id": 4216089791, "lat": 22.2477302, "lon": 114.1549489, "tags": {"addr:country": "HK", "brand": "7-Eleven", "brand:wikidata": "Q259340", "brand:wikipedia": "en:7-Eleven", "name": "7-Eleven", "name:en": "7-Eleven", "name:zh": "7-11\u4fbf\u5229\u5e97", "shop": "convenience", "source": "Kaart Ground Survey 2017", "website": "https://www.7-eleven.com.hk/"}}, {"type": "node", "id": 4265740945, "lat": 22.2909739, "lon": 114.196747, "tags": {"addr:country": "HK", "brand": "7-Eleven", "brand:wikidata": "Q259340", "brand:wikipedia": "en:7-Eleven", "name": "7-Eleven", "name:en": "7-Eleven", "name:zh": "7-11\u4fbf\u5229\u5e97", "shop": "convenience", "website": "https://www.7-eleven.com.hk/"}}, {"type": "node", "id": 4302866368, "lat": 22.28612, "lon": 114.21482, "tags": {"addr:country": "HK", "brand": "7-Eleven", "brand:wikidata": "Q259340", "brand:wikipedia": "en:7-Eleven", "level": "0", "name": "7-Eleven", "name:en": "7-Eleven", "name:zh": "7-11\u4fbf\u5229\u5e97", "opening_hours": "24/7", "shop": "convenience", "website": "https://www.7-eleven.com.hk/"}}, {"type": "node", "id": 4331951253, "lat": 22.2809487, "lon": 114.2151595, "tags": {"brand": "759\u963f\u4fe1\u5c4b 759 Store", "brand:wikidata": "Q10846179", "brand:wikipedia": "en:759 Store", "brand:zh": "759\u963f\u4fe1\u5c4b", "brand:zh-Hans": "759\u963f\u4fe1\u5c4b", "brand:zh-Hant": "759\u963f\u4fe1\u5c4b", "name": "759\u963f\u4fe1\u5c4b 759 Store", "name:en": "759 Store", "name:zh": "759\u963f\u4fe1\u5c4b", "name:zh-Hans": "759\u963f\u4fe1\u5c4b", "name:zh-Hant": "759\u963f\u4fe1\u5c4b", "shop": "convenience"}}, {"type": "node", "id": 4345547573, "lat": 22.2777, "lon": 114.178402, "tags": {"addr:country": "HK", "brand": "7-Eleven", "brand:wikidata": "Q259340", "brand:wikipedia": "en:7-Eleven", "name": "7-Eleven", "name:en": "7-Eleven", "name:zh": "7-11\u4fbf\u5229\u5e97", "opening_hours": "24/7", "shop": "convenience", "website": "https://www.7-eleven.com.hk/"}}, {"type": "node", "id": 4413339020, "lat": 22.28214, "lon": 114.22168, "tags": {"addr:country": "HK", "addr:housenumber": "106", "addr:street": "\u7b72\u7b95\u7063\u9053 Shau Kei Wan Road", "brand": "OK\u4fbf\u5229\u5e97 Circle K", "brand:en": "Circle K", "brand:wikidata": "Q3268010", "brand:zh": "OK\u4fbf\u5229\u5e97", "brand:zh-Hans": "OK\u4fbf\u5229\u5e97", "brand:zh-Hant": "OK\u4fbf\u5229\u5e97", "level": "0", "name": "OK\u4fbf\u5229\u5e97 Circle K", "name:en": "Circle K", "name:zh": "OK\u4fbf\u5229\u5e97", "name:zh-Hans": "OK\u4fbf\u5229\u5e97", "name:zh-Hant": "OK\u4fbf\u5229\u5e97", "opening_hours": "24/7", "shop": "convenience", "website": "https://www.circlek.hk/"}}, {"type": "node", "id": 4413339023, "lat": 22.28366, "lon": 114.22091, "tags": {"addr:country": "HK", "addr:housenumber": "23", "addr:street": "Shau Kei Wan Road", "brand": "7-Eleven", "brand:wikidata": "Q259340", "brand:wikipedia": "en:7-Eleven", "level": "0", "name": "7-Eleven", "name:en": "7-Eleven", "name:zh": "7-11\u4fbf\u5229\u5e97", "opening_hours": "24/7", "shop": "convenience", "website": "https://www.7-eleven.com.hk/"}}, {"type": "node", "id": 4415983328, "lat": 22.2296753, "lon": 114.2502623, "tags": {"name": "General purpose store", "shop": "convenience"}}, {"type": "node", "id": 4450031333, "lat": 22.28637, "lon": 114.22014, "tags": {"addr:country": "HK", "brand": "7-Eleven", "brand:wikidata": "Q259340", "brand:wikipedia": "en:7-Eleven", "name": "7-Eleven", "name:en": "7-Eleven", "name:zh": "7-11\u4fbf\u5229\u5e97", "shop": "convenience", "website": "https://www.7-eleven.com.hk/"}}, {"type": "node", "id": 4451153708, "lat": 22.229242, "lon": 114.250186}, {"type": "node", "id": 4451153709, "lat": 22.2291955, "lon": 114.2501042}, {"type": "node", "id": 4451153710, "lat": 22.2292515, "lon": 114.2500671}, {"type": "node", "id": 4451153711, "lat": 22.229298, "lon": 114.2501488}, {"type": "node", "id": 4451153712, "lat": 22.2293511, "lon": 114.2501125}, {"type": "node", "id": 4451153713, "lat": 22.22933, "lon": 114.250073}, {"type": "node", "id": 4451153714, "lat": 22.2293065, "lon": 114.2500881}, {"type": "node", "id": 4451153715, "lat": 22.229284, "lon": 114.2500468}, {"type": "node", "id": 4508787493, "lat": 22.28322, "lon": 114.15466, "tags": {"addr:housenumber": "10-16", "addr:street": "\u95a3\u9e9f\u8857 Cochrane Street", "brand": "OK\u4fbf\u5229\u5e97 Circle K", "brand:en": "Circle K", "brand:wikidata": "Q3268010", "brand:wikipedia": "zh:OK\u4fbf\u5229\u5e97", "brand:zh": "OK\u4fbf\u5229\u5e97", "brand:zh-Hans": "OK\u4fbf\u5229\u5e97", "brand:zh-Hant": "OK\u4fbf\u5229\u5e97", "name": "OK\u4fbf\u5229\u5e97 Circle K", "name:en": "Circle K", "name:zh": "OK\u4fbf\u5229\u5e97", "name:zh-Hans": "OK\u4fbf\u5229\u5e97", "name:zh-Hant": "OK\u4fbf\u5229\u5e97", "opening_hours": "24/7", "shop": "convenience", "website": "https://www.circlek.hk/"}}, {"type": "node", "id": 4509866933, "lat": 22.2444568, "lon": 114.1657944, "tags": {"addr:country": "HK", "addr:street": "\u6df1\u7063\u9053 Shum Wan Road", "brand": "7-Eleven", "name": "7-Eleven", "name:en": "7-Eleven", "name:zh": "7-11\u4fbf\u5229\u5e97", "shop": "convenience", "source": "Kaart Ground Survey 2017"}}, {"type": "node", "id": 4541822190, "lat": 22.2874042, "lon": 114.1920789, "tags": {"addr:street": "Electric Road", "brand": "7-Eleven", "brand:wikidata": "Q259340", "brand:wikipedia": "en:7-Eleven", "name": "7-Eleven", "name:en": "7-Eleven", "name:zh": "7-Eleven", "shop": "convenience", "source": "Kaart Ground Survey 2017"}}, {"type": "node", "id": 4603072646, "lat": 22.24893, "lon": 114.1692641, "tags": {"addr:country": "HK", "addr:housenumber": "2", "addr:street": "\u9999\u8449\u9053 Heung Yip Road", "brand": "7-Eleven", "brand:wikidata": "Q259340", "brand:wikipedia": "en:7-Eleven", "name": "7-Eleven", "name:en": "7-Eleven", "name:zh": "7-11\u4fbf\u5229\u5e97", "opening_hours": "Mo-Sa 07:00-23:00; Su 10:00-19:00", "shop": "convenience"}}, {"type": "node", "id": 4735618526, "lat": 22.2665148, "lon": 114.250376, "tags": {"addr:housenumber": "28", "addr:street": "\u5c0f\u897f\u7063\u9053 Siu Sai Wan Road", "name": "OK\u4fbf\u5229\u5e97 Circle K", "name:en": "Circle K", "name:zh": "OK\u4fbf\u5229\u5e97", "opening_hours": "24/7", "payment:alipay": "yes", "payment:cash": "yes", "payment:coins": "yes", "payment:credit_cards": "yes", "payment:mastercard": "yes", "payment:notes": "yes", "payment:visa": "yes", "shop": "convenience"}}, {"type": "node", "id": 4736396422, "lat": 22.2799999, "lon": 114.1867759, "tags": {"addr:housenumber": "23", "addr:street": "\u7cd6\u8857 Sugar Street", "name": "7-Eleven", "shop": "convenience"}}, {"type": "node", "id": 4770543524, "lat": 22.2853424, "lon": 114.1506527, "tags": {"addr:city": "Hong Kong", "addr:country": "HK", "addr:housenumber": "106", "addr:street": "\u8607\u676d\u8857 Jervois Street", "brand": "7-Eleven", "brand:wikidata": "Q259340", "brand:wikipedia": "en:7-Eleven", "name": "7-Eleven", "name:en": "7-Eleven", "name:zh": "7-11\u4fbf\u5229\u5e97", "shop": "convenience"}}, {"type": "node", "id": 4794713940, "lat": 22.280639, "lon": 114.22348, "tags": {"addr:country": "HK", "brand": "7-Eleven", "brand:wikidata": "Q259340", "brand:wikipedia": "en:7-Eleven", "level": "0", "name": "7-Eleven", "name:en": "7-Eleven", "name:zh": "7-11\u4fbf\u5229\u5e97", "opening_hours": "24/7", "shop": "convenience", "website": "https://www.7-eleven.com.hk/"}}, {"type": "node", "id": 4838159728, "lat": 22.2875458, "lon": 114.2111453, "tags": {"addr:country": "HK", "addr:housenumber": "13-15", "addr:street": "Hoi Kwong Street", "brand": "7-Eleven", "brand:wikidata": "Q259340", "brand:wikipedia": "en:7-Eleven", "level": "0", "name": "7-Eleven", "name:en": "7-Eleven", "name:zh": "7-11\u4fbf\u5229\u5e97", "opening_hours": "24/7", "shop": "convenience", "website": "https://www.7-eleven.com.hk/"}}, {"type": "node", "id": 4838159730, "lat": 22.2875439, "lon": 114.2109251, "tags": {"addr:country": "HK", "addr:housenumber": "13-15", "addr:street": "Hoi Kwong Street", "brand": "OK\u4fbf\u5229\u5e97 Circle K", "brand:en": "Circle K", "brand:wikidata": "Q3268010", "brand:wikipedia": "zh:OK\u4fbf\u5229\u5e97", "brand:zh": "OK\u4fbf\u5229\u5e97", "brand:zh-Hans": "OK\u4fbf\u5229\u5e97", "brand:zh-Hant": "OK\u4fbf\u5229\u5e97", "level": "0", "name": "OK\u4fbf\u5229\u5e97 Circle K", "name:en": "Circle K", "name:zh": "OK\u4fbf\u5229\u5e97", "name:zh-Hans": "OK\u4fbf\u5229\u5e97", "name:zh-Hant": "OK\u4fbf\u5229\u5e97", "opening_hours": "24/7", "shop": "convenience", "website": "https://www.circlek.hk/"}}, {"type": "node", "id": 4844195874, "lat": 22.2664779, "lon": 114.2342949, "tags": {"addr:street": "\u6cf0\u6c11\u8857 Tai Man Street", "name": "Wellcome", "shop": "convenience", "source": "Kaart Ground Survey 2017"}}, {"type": "node", "id": 4845847912, "lat": 22.2645637, "lon": 114.2484903, "tags": {"addr:street": "\u5c0f\u897f\u7063\u9053 Siu Sai Wan Road", "name": "China Dispensary", "shop": "convenience", "source": "Kaart Ground Survey 2017"}}, {"type": "node", "id": 4846157292, "lat": 22.27122, "lon": 114.2416376}, {"type": "node", "id": 4846157293, "lat": 22.2711541, "lon": 114.2417393}, {"type": "node", "id": 4846157294, "lat": 22.2710844, "lon": 114.2416865}, {"type": "node", "id": 4846157295, "lat": 22.2711503, "lon": 114.2415848}, {"type": "node", "id": 4846336451, "lat": 22.2776149, "lon": 114.2393453, "tags": {"addr:street": "\u76db\u6cf0\u9053 Shing Tai Road", "name": "Brilliant Dispensary", "shop": "convenience", "source": "Kaart Ground Survey 2017"}}, {"type": "node", "id": 4846366269, "lat": 22.2487827, "lon": 114.1620461}, {"type": "node", "id": 4846605079, "lat": 22.2784, "lon": 114.2266643, "tags": {"addr:country": "HK", "addr:street": "\u7b72\u7b95\u7063\u9053 Shau Kei Wan Road", "brand": "7-Eleven", "brand:wikidata": "Q259340", "brand:wikipedia": "en:7-Eleven", "name": "7-Eleven", "name:en": "7-Eleven", "name:zh": "7-11\u4fbf\u5229\u5e97", "shop": "convenience"}}, {"type": "node", "id": 4846605103, "lat": 22.2797271, "lon": 114.225852, "tags": {"addr:street": "\u7b72\u7b95\u7063\u9053 Shau Kei Wan Road", "name": "\u50f9\u771f\u68e7", "shop": "convenience"}}, {"type": "node", "id": 4847814458, "lat": 22.2774329, "lon": 114.2270037, "tags": {"addr:country": "HK", "addr:street": "\u7b72\u7b95\u7063\u9053 Shau Kei Wan Road", "brand": "OK\u4fbf\u5229\u5e97 Circle K", "brand:en": "Circle K", "brand:wikidata": "Q3268010", "brand:wikipedia": "zh:OK\u4fbf\u5229\u5e97", "brand:zh": "OK\u4fbf\u5229\u5e97", "brand:zh-Hans": "OK\u4fbf\u5229\u5e97", "brand:zh-Hant": "OK\u4fbf\u5229\u5e97", "name": "OK\u4fbf\u5229\u5e97 Circle K", "name:en": "Circle K", "name:zh": "OK\u4fbf\u5229\u5e97", "name:zh-Hans": "OK\u4fbf\u5229\u5e97", "name:zh-Hant": "OK\u4fbf\u5229\u5e97", "shop": "convenience", "source": "Kaart Ground Survey 2017", "website": "https://www.circlek.hk/"}}, {"type": "node", "id": 4848058993, "lat": 22.2830301, "lon": 114.2209948, "tags": {"addr:street": "\u7b72\u7b95\u7063\u9053 Shau Kei Wan Road", "name": "Kaibo", "shop": "convenience", "source": "Kaart Ground Survey 2017"}}, {"type": "node", "id": 4848087717, "lat": 22.2430596, "lon": 114.1482645, "tags": {"addr:country": "HK", "addr:street": "\u6d77\u6021\u8def South Horizon Drive", "brand": "OK\u4fbf\u5229\u5e97 Circle K", "brand:en": "Circle K", "brand:wikidata": "Q3268010", "brand:zh": "OK\u4fbf\u5229\u5e97", "brand:zh-Hans": "OK\u4fbf\u5229\u5e97", "brand:zh-Hant": "OK\u4fbf\u5229\u5e97", "name": "OK\u4fbf\u5229\u5e97 Circle K", "name:en": "Circle K", "name:zh": "OK\u4fbf\u5229\u5e97", "name:zh-Hans": "OK\u4fbf\u5229\u5e97", "name:zh-Hant": "OK\u4fbf\u5229\u5e97", "shop": "convenience", "source": "Kaart Ground Survey 2017", "website": "https://www.circlek.hk/"}}, {"type": "node", "id": 4848091247, "lat": 22.2852024, "lon": 114.2237766, "tags": {"addr:country": "HK", "addr:street": "\u592a\u5eb7\u8857 Tai Hong Street", "brand": "7-Eleven", "brand:wikidata": "Q259340", "brand:wikipedia": "en:7-Eleven", "name": "7-Eleven", "name:en": "7-Eleven", "name:zh": "7-11\u4fbf\u5229\u5e97", "shop": "convenience"}}, {"type": "node", "id": 4848188581, "lat": 22.2841408, "lon": 114.2233297, "tags": {"name": "Fresh Mart", "shop": "convenience", "source": "Kaart Ground Survey 2017"}}, {"type": "node", "id": 4848188583, "lat": 22.283477, "lon": 114.2236106, "tags": {"addr:country": "HK", "addr:street": "\u592a\u5b89\u8857 Tai On Street", "brand": "7-Eleven", "brand:wikidata": "Q259340", "brand:wikipedia": "en:7-Eleven", "name": "7-Eleven", "name:en": "7-Eleven", "name:zh": "7-11\u4fbf\u5229\u5e97", "shop": "convenience", "source": "Kaart Ground Survey 2017"}}, {"type": "node", "id": 4848217017, "lat": 22.28176, "lon": 114.221422, "tags": {"addr:country": "HK", "addr:street": "\u897f\u7063\u6cb3\u8857 Sai Wan Ho Street", "brand": "7-Eleven", "brand:wikidata": "Q259340", "brand:wikipedia": "en:7-Eleven", "name": "7-Eleven", "name:en": "7-Eleven", "name:zh": "7-11\u4fbf\u5229\u5e97", "shop": "convenience", "source": "Kaart Ground Survey 2017"}}, {"type": "node", "id": 4848217349, "lat": 22.281388, "lon": 114.221222, "tags": {"addr:street": "\u6210\u5b89\u8857 Shing On Street", "level": "0", "name": "OK\u4fbf\u5229\u5e97 Circle K", "name:en": "Circle K", "name:zh": "OK\u4fbf\u5229\u5e97", "shop": "convenience"}}, {"type": "node", "id": 4848301291, "lat": 22.243462, "lon": 114.1542512, "tags": {"addr:country": "HK", "addr:street": "\u9d28\u8137\u6d32\u5927\u8857 Main Street, Ap Lei Chau", "brand": "7-Eleven", "brand:wikidata": "Q259340", "brand:wikipedia": "en:7-Eleven", "name": "7-Eleven", "name:en": "7-Eleven", "name:zh": "7-11\u4fbf\u5229\u5e97", "shop": "convenience", "source": "Kaart Ground Survey 2017"}}, {"type": "node", "id": 4848309923, "lat": 22.2806865, "lon": 114.2283701, "tags": {"addr:country": "HK", "addr:street": "\u611b\u8ce2\u8857 Oi Yin Street", "brand": "7-Eleven", "brand:wikidata": "Q259340", "brand:wikipedia": "en:7-Eleven", "name": "7-Eleven", "name:en": "7-Eleven", "name:zh": "7-11\u4fbf\u5229\u5e97", "shop": "convenience", "source": "Kaart Ground Survey 2017"}}, {"type": "node", "id": 4848321737, "lat": 22.2810012, "lon": 114.2279646, "tags": {"addr:country": "HK", "addr:street": "\u611b\u8ce2\u8857 Oi Yin Street", "brand": "OK\u4fbf\u5229\u5e97 Circle K", "brand:en": "Circle K", "brand:wikidata": "Q3268010", "brand:wikipedia": "zh:OK\u4fbf\u5229\u5e97", "brand:zh": "OK\u4fbf\u5229\u5e97", "brand:zh-Hans": "OK\u4fbf\u5229\u5e97", "brand:zh-Hant": "OK\u4fbf\u5229\u5e97", "name": "OK\u4fbf\u5229\u5e97 Circle K", "name:en": "Circle K", "name:zh": "OK\u4fbf\u5229\u5e97", "name:zh-Hans": "OK\u4fbf\u5229\u5e97", "name:zh-Hant": "OK\u4fbf\u5229\u5e97", "shop": "convenience", "source": "Kaart Ground Survey 2017", "website": "https://www.circlek.hk/"}}, {"type": "node", "id": 4848355332, "lat": 22.2488337, "lon": 114.1620457}, {"type": "node", "id": 4848355333, "lat": 22.2488343, "lon": 114.1621284}, {"type": "node", "id": 4848355334, "lat": 22.2487833, "lon": 114.1621288}, {"type": "node", "id": 4848417314, "lat": 22.2482242, "lon": 114.1641371}, {"type": "node", "id": 4848417315, "lat": 22.2482253, "lon": 114.1640917}, {"type": "node", "id": 4848417316, "lat": 22.248185, "lon": 114.1640905}, {"type": "node", "id": 4848417317, "lat": 22.2481838, "lon": 114.1641359}, {"type": "node", "id": 4848421417, "lat": 22.2845562, "lon": 114.2124401, "tags": {"addr:country": "HK", "addr:street": "\u82f1\u7687\u9053 King's Road", "brand": "7-Eleven", "brand:wikidata": "Q259340", "brand:wikipedia": "en:7-Eleven", "name": "7-Eleven", "name:en": "7-Eleven", "name:zh": "7-11\u4fbf\u5229\u5e97", "shop": "convenience", "source": "Kaart Ground Survey 2017"}}, {"type": "node", "id": 4848432326, "lat": 22.2857799, "lon": 114.1387729, "tags": {"addr:country": "HK", "addr:street": "\u7b2c\u4e09\u8857 Third Street", "brand": "7-Eleven", "brand:wikidata": "Q259340", "brand:wikipedia": "en:7-Eleven", "name": "7-Eleven", "name:en": "7-Eleven", "name:zh": "7-11\u4fbf\u5229\u5e97", "shop": "convenience", "source": "Kaart Ground Survey 2017"}}, {"type": "node", "id": 4848454855, "lat": 22.2893551, "lon": 114.2098261, "tags": {"addr:street": "\u82f1\u7687\u9053 King's Road", "brand": "759\u963f\u4fe1\u5c4b 759 Store", "brand:wikidata": "Q10846179", "brand:wikipedia": "en:759 Store", "brand:zh": "759\u963f\u4fe1\u5c4b", "brand:zh-Hans": "759\u963f\u4fe1\u5c4b", "brand:zh-Hant": "759\u963f\u4fe1\u5c4b", "name": "759\u963f\u4fe1\u5c4b 759 Store", "name:en": "759 Store", "name:zh": "759\u963f\u4fe1\u5c4b", "name:zh-Hans": "759\u963f\u4fe1\u5c4b", "name:zh-Hant": "759\u963f\u4fe1\u5c4b", "shop": "convenience", "source": "Kaart Ground Survey 2017"}}, {"type": "node", "id": 4848454860, "lat": 22.2880179, "lon": 114.2102842, "tags": {"addr:country": "HK", "addr:street": "\u82ac\u5c3c\u8857 Finnie Street", "brand": "7-Eleven", "brand:wikidata": "Q259340", "brand:wikipedia": "en:7-Eleven", "name": "7-Eleven", "name:en": "7-Eleven", "name:zh": "7-11\u4fbf\u5229\u5e97", "shop": "convenience", "source": "Kaart Ground Survey 2017"}}, {"type": "node", "id": 4849710453, "lat": 22.2489895, "lon": 114.1558134, "tags": {"addr:country": "HK", "addr:street": "\u9999\u6e2f\u4ed4\u5927\u9053 Aberdeen Main Road", "brand": "7-Eleven", "brand:wikidata": "Q259340", "brand:wikipedia": "en:7-Eleven", "name": "7-Eleven", "name:en": "7-Eleven", "name:zh": "7-11\u4fbf\u5229\u5e97", "shop": "convenience", "source": "Kaart Ground Survey 2017"}}, {"type": "node", "id": 4849814947, "lat": 22.2484694, "lon": 114.1548688, "tags": {"addr:city": "Aberdeen", "addr:country": "HK", "addr:housenumber": "20-28", "addr:street": "\u6210\u90fd\u9053 Chengtu Road", "addr:unit": "E", "brand": "\u512a\u54c1360 Best Mart 360", "brand:en": "Best Mart 360", "brand:wikidata": "Q65117567", "brand:zh": "\u512a\u54c1360", "level": "0", "name": "\u512a\u54c1360 Best Mart 360", "name:en": "Best Mart 360", "name:zh": "\u512a\u54c1360", "shop": "convenience"}}, {"type": "node", "id": 4849814952, "lat": 22.2486809, "lon": 114.1548554, "tags": {"addr:city": "Aberdeen", "addr:country": "HK", "addr:street": "\u6210\u90fd\u9053 Chengtu Road", "brand": "7-Eleven", "brand:wikidata": "Q259340", "brand:wikipedia": "en:7-Eleven", "level": "0", "name": "7-Eleven", "name:en": "7-Eleven", "name:zh": "7-11\u4fbf\u5229\u5e97", "opening_hours": "24/7", "shop": "convenience", "website": "https://www.7-eleven.com.hk"}}, {"type": "node", "id": 4849886853, "lat": 22.2477279, "lon": 114.1551397, "tags": {"brand": "\u512a\u54c1360 Best Mart 360", "brand:en": "Best Mart 360", "brand:wikidata": "Q65117567", "brand:zh": "\u512a\u54c1360", "name": "\u512a\u54c1360 Best Mart 360", "name:en": "Best Mart 360", "name:zh": "\u512a\u54c1360", "shop": "convenience", "source": "Kaart Ground Survey 2017"}}, {"type": "node", "id": 4855825483, "lat": 22.2921934, "lon": 114.2001619, "tags": {"addr:street": "\u66f8\u5c40\u8857 Shu Kuk Street", "fixme": "name", "shop": "convenience", "source": "Kaart Ground Survey 2017"}}, {"type": "node", "id": 4856133236, "lat": 22.279029, "lon": 114.17983, "tags": {"addr:city": "Wan Chai", "addr:country": "HK", "addr:housenumber": "375-379", "addr:street": "\u8ed2\u5c3c\u8a69\u9053 Hennessy Road", "addr:unit": "C", "brand": "7-Eleven", "brand:wikidata": "Q259340", "brand:wikipedia": "en:7-Eleven", "level": "0", "name": "7-Eleven", "name:en": "7-Eleven", "name:zh": "7-11\u4fbf\u5229\u5e97", "opening_hours": "24/7", "shop": "convenience", "website": "https://www.7-eleven.com.hk/"}}, {"type": "node", "id": 4856203922, "lat": 22.277682, "lon": 114.17195, "tags": {"addr:city": "Wan Chai", "addr:country": "HK", "addr:housenumber": "99", "addr:street": "\u8ed2\u5c3c\u8a69\u9053 Hennessy Road", "brand": "7-Eleven", "brand:wikidata": "Q259340", "brand:wikipedia": "en:7-Eleven", "level": "0", "name": "7-Eleven", "name:en": "7-Eleven", "name:zh": "7-11\u4fbf\u5229\u5e97", "opening_hours": "24/7", "shop": "convenience", "website": "https://www.7-eleven.com.hk/"}}, {"type": "node", "id": 4856203923, "lat": 22.27769, "lon": 114.17187, "tags": {"addr:country": "HK", "addr:housenumber": "91", "addr:street": "\u8ed2\u5c3c\u8a69\u9053 Hennessy Road", "brand": "OK\u4fbf\u5229\u5e97 Circle K", "brand:en": "Circle K", "brand:wikidata": "Q3268010", "brand:wikipedia": "zh:OK\u4fbf\u5229\u5e97", "brand:zh": "OK\u4fbf\u5229\u5e97", "brand:zh-Hans": "OK\u4fbf\u5229\u5e97", "brand:zh-Hant": "OK\u4fbf\u5229\u5e97", "level": "0", "name": "OK\u4fbf\u5229\u5e97 Circle K", "name:en": "Circle K", "name:zh": "OK\u4fbf\u5229\u5e97", "name:zh-Hans": "OK\u4fbf\u5229\u5e97", "name:zh-Hant": "OK\u4fbf\u5229\u5e97", "opening_hours": "24/7", "shop": "convenience", "website": "https://www.circlek.hk/"}}, {"type": "node", "id": 4856266575, "lat": 22.2743367, "lon": 114.173452, "tags": {"addr:street": "\u7687\u540e\u5927\u9053\u6771 Queen's Road East", "name": "The Fresh Grower", "shop": "convenience", "source": "Kaart Ground Survey 2017"}}, {"type": "node", "id": 4856266581, "lat": 22.2743152, "lon": 114.1744607, "tags": {"addr:street": "\u7687\u540e\u5927\u9053\u6771 Queen's Road East", "name": "New Av Kathmandu Store", "shop": "convenience", "source": "Kaart Ground Survey 2017"}}, {"type": "node", "id": 4856288644, "lat": 22.277343, "lon": 114.17136, "tags": {"addr:country": "HK", "addr:street": "\u8ed2\u5c3c\u8a69\u9053 Hennessy Road", "brand": "OK\u4fbf\u5229\u5e97 Circle K", "brand:en": "Circle K", "brand:wikidata": "Q3268010", "brand:wikipedia": "zh:OK\u4fbf\u5229\u5e97", "brand:zh": "OK\u4fbf\u5229\u5e97", "brand:zh-Hans": "OK\u4fbf\u5229\u5e97", "brand:zh-Hant": "OK\u4fbf\u5229\u5e97", "name": "OK\u4fbf\u5229\u5e97 Circle K", "name:en": "Circle K", "name:zh": "OK\u4fbf\u5229\u5e97", "name:zh-Hans": "OK\u4fbf\u5229\u5e97", "name:zh-Hant": "OK\u4fbf\u5229\u5e97", "shop": "convenience", "source": "Kaart Ground Survey 2017", "website": "https://www.circlek.hk/"}}, {"type": "node", "id": 4856397005, "lat": 22.2851713, "lon": 114.1917683, "tags": {"addr:housenumber": "4", "addr:street": "\u6c38\u8208\u8857 Wing Hing Street", "name": "\u76c8\u8a18 \u7279\u8ce3\u57f8 Ying Kee Save More", "name:en": "Ying Kee Save More", "name:zh": "\u76c8\u8a18", "shop": "convenience", "source": "Kaart Ground Survey 2017"}}, {"type": "node", "id": 4856511537, "lat": 22.290782, "lon": 114.1965654, "tags": {"addr:street": "\u5317\u89d2\u9053 North Point Road", "name": "Fu Tai Dispensary", "shop": "convenience", "source": "Kaart Ground Survey 2017"}}, {"type": "node", "id": 4856515404, "lat": 22.2763991, "lon": 114.1729133, "tags": {"addr:housenumber": "106", "addr:street": "\u838a\u58eb\u6566\u9053 Johnston Road", "brand": "\u512a\u54c1360 Best Mart 360", "brand:en": "Best Mart 360", "brand:wikidata": "Q65117567", "brand:wikipedia": "zh:\u512a\u54c1360", "brand:zh": "\u512a\u54c1360", "level": "0", "name": "\u512a\u54c1360 Best Mart 360", "name:en": "Best Mart 360", "name:zh": "\u512a\u54c1360", "shop": "convenience"}}, {"type": "node", "id": 4856515405, "lat": 22.2764091, "lon": 114.1730125, "tags": {"addr:city": "Wan Chai", "addr:country": "HK", "addr:housenumber": "112", "addr:street": "\u838a\u58eb\u6566\u9053 Johnston Road", "addr:unit": "1", "brand": "OK\u4fbf\u5229\u5e97 Circle K", "brand:en": "Circle K", "brand:wikidata": "Q3268010", "brand:wikipedia": "zh:OK\u4fbf\u5229\u5e97", "brand:zh": "OK\u4fbf\u5229\u5e97", "brand:zh-Hans": "OK\u4fbf\u5229\u5e97", "brand:zh-Hant": "OK\u4fbf\u5229\u5e97", "level": "0", "name": "OK\u4fbf\u5229\u5e97 Circle K", "name:en": "Circle K", "name:zh": "OK\u4fbf\u5229\u5e97", "name:zh-Hans": "OK\u4fbf\u5229\u5e97", "name:zh-Hant": "OK\u4fbf\u5229\u5e97", "opening_hours": "24/7", "shop": "convenience", "website": "https://www.circlek.hk/"}}, {"type": "node", "id": 4858150630, "lat": 22.2697106, "lon": 114.1841308, "tags": {"addr:country": "HK", "addr:street": "\u9ec3\u6ce5\u6d8c\u9053 Wong Nai Chung Road", "brand": "7-Eleven", "brand:wikidata": "Q259340", "brand:wikipedia": "en:7-Eleven", "name": "7-Eleven", "name:en": "7-Eleven", "name:zh": "7-11\u4fbf\u5229\u5e97", "shop": "convenience", "source": "Kaart Ground Survey 2017"}}, {"type": "node", "id": 4858172422, "lat": 22.2920977, "lon": 114.1995285, "tags": {"addr:country": "HK", "addr:street": "\u6e23\u83ef\u9053 Java Road", "brand": "7-Eleven", "brand:wikidata": "Q259340", "brand:wikipedia": "en:7-Eleven", "name": "7-Eleven", "name:en": "7-Eleven", "name:zh": "7-11\u4fbf\u5229\u5e97", "shop": "convenience", "source": "Kaart Ground Survey 2017"}}, {"type": "node", "id": 4858263683, "lat": 22.2918844, "lon": 114.1985246, "tags": {"addr:country": "HK", "addr:street": "\u7cd6\u6c34\u9053 Tong Shui Road", "brand": "7-Eleven", "brand:wikidata": "Q259340", "brand:wikipedia": "en:7-Eleven", "name": "7-Eleven", "name:en": "7-Eleven", "name:zh": "7-11\u4fbf\u5229\u5e97", "shop": "convenience", "source": "Kaart Ground Survey 2017"}}, {"type": "node", "id": 4858295347, "lat": 22.2921829, "lon": 114.2015906, "tags": {"addr:country": "HK", "addr:street": "\u7434\u884c\u8857 Kam Hong Street", "brand": "7-Eleven", "brand:wikidata": "Q259340", "brand:wikipedia": "en:7-Eleven", "name": "7-Eleven", "name:en": "7-Eleven", "name:zh": "7-11\u4fbf\u5229\u5e97", "shop": "convenience", "source": "Kaart Ground Survey 2017"}}, {"type": "node", "id": 4858417123, "lat": 22.2780514, "lon": 114.1709901, "tags": {"addr:country": "HK", "addr:street": "\u99f1\u514b\u9053 Lockhart Road", "brand": "7-Eleven", "brand:wikidata": "Q259340", "brand:wikipedia": "en:7-Eleven", "name": "7-Eleven", "name:en": "7-Eleven", "name:zh": "7-11\u4fbf\u5229\u5e97", "shop": "convenience", "source": "Kaart Ground Survey 2017"}}, {"type": "node", "id": 4858417131, "lat": 22.278057, "lon": 114.173062, "tags": {"addr:city": "Wan Chai", "addr:country": "HK", "addr:housenumber": "146", "addr:street": "\u99f1\u514b\u9053 Lockhart Road", "brand": "OK\u4fbf\u5229\u5e97 Circle K", "brand:en": "Circle K", "brand:wikidata": "Q3268010", "brand:wikipedia": "zh:OK\u4fbf\u5229\u5e97", "brand:zh": "OK\u4fbf\u5229\u5e97", "brand:zh-Hans": "OK\u4fbf\u5229\u5e97", "brand:zh-Hant": "OK\u4fbf\u5229\u5e97", "level": "0", "name": "OK\u4fbf\u5229\u5e97 Circle K", "name:en": "Circle K", "name:zh": "OK\u4fbf\u5229\u5e97", "name:zh-Hans": "OK\u4fbf\u5229\u5e97", "name:zh-Hant": "OK\u4fbf\u5229\u5e97", "opening_hours": "Mo-Su,PH 06:30-23:00", "shop": "convenience", "website": "https://www.circlek.hk/"}}, {"type": "node", "id": 4858507839, "lat": 22.2689662, "lon": 114.1846605, "tags": {"addr:street": "\u666f\u5149\u8857 King Kwong Street", "brand": "759\u963f\u4fe1\u5c4b 759 Store", "brand:wikidata": "Q10846179", "brand:wikipedia": "en:759 Store", "brand:zh": "759\u963f\u4fe1\u5c4b", "brand:zh-Hans": "759\u963f\u4fe1\u5c4b", "brand:zh-Hant": "759\u963f\u4fe1\u5c4b", "name": "759\u963f\u4fe1\u5c4b 759 Store", "name:en": "759 Store", "name:zh": "759\u963f\u4fe1\u5c4b", "name:zh-Hans": "759\u963f\u4fe1\u5c4b", "name:zh-Hant": "759\u963f\u4fe1\u5c4b", "shop": "convenience", "source": "Kaart Ground Survey 2017"}}, {"type": "node", "id": 4858546101, "lat": 22.27934, "lon": 114.17982, "tags": {"addr:city": "Wan Chai", "addr:country": "HK", "addr:housenumber": "376-382", "addr:street": "\u99f1\u514b\u9053 Lockhart Road", "addr:unit": "1", "brand": "7-Eleven", "brand:wikidata": "Q259340", "brand:wikipedia": "en:7-Eleven", "level": "0", "name": "7-Eleven", "name:en": "7-Eleven", "name:zh": "7-11\u4fbf\u5229\u5e97", "opening_hours": "24/7", "shop": "convenience"}}, {"type": "node", "id": 4858546110, "lat": 22.2801039, "lon": 114.1818205, "tags": {"addr:housenumber": "464", "addr:street": "\u99f1\u514b\u9053 Lockhart Road", "contact:facebook": "https://www.facebook.com/turtlelife88/", "level": "0", "name": "\u5c0f\u8463\u6162\u6d3b\u990a\u751f\u9928 Turtle Life Museum", "name:en": "Turtle Life Museum", "name:zh": "\u5c0f\u8463\u6162\u6d3b\u990a\u751f\u9928", "reusable_packaging:accept": "yes", "shop": "convenience", "website": "https://www.turtlelife.com.hk/"}}, {"type": "node", "id": 4858546116, "lat": 22.2802769, "lon": 114.1822365, "tags": {"addr:country": "HK", "addr:street": "\u99f1\u514b\u9053 Lockhart Road", "brand": "7-Eleven", "brand:wikidata": "Q259340", "brand:wikipedia": "en:7-Eleven", "name": "7-Eleven", "name:en": "7-Eleven", "name:zh": "7-11\u4fbf\u5229\u5e97", "shop": "convenience", "source": "Kaart Ground Survey 2017"}}, {"type": "node", "id": 4858549183, "lat": 22.2913568, "lon": 114.2004351, "tags": {"addr:country": "HK", "addr:street": "\u82f1\u7687\u9053 King's Road", "brand": "7-Eleven", "brand:wikidata": "Q259340", "brand:wikipedia": "en:7-Eleven", "name": "7-Eleven", "name:en": "7-Eleven", "name:zh": "7-11\u4fbf\u5229\u5e97", "shop": "convenience", "source": "Kaart Ground Survey 2017"}}, {"type": "node", "id": 4858575249, "lat": 22.2808521, "lon": 114.18379, "tags": {"addr:street": "\u666f\u9686\u8857 Cannon Street", "name": "Bonjour", "shop": "convenience", "source": "Kaart Ground Survey 2017"}}, {"type": "node", "id": 4858618228, "lat": 22.2807301, "lon": 114.1833873, "tags": {"addr:housenumber": "511", "addr:street": "\u99f1\u514b\u9053 Lockhart Road", "brand": "7-Eleven", "brand:wikidata": "Q259340", "name": "7-Eleven", "shop": "convenience"}}, {"type": "node", "id": 4858622461, "lat": 22.2909996, "lon": 114.200246, "tags": {"addr:street": "\u66f8\u5c40\u8857 Shu Kuk Street", "brand": "\u512a\u54c1360 Best Mart 360", "brand:en": "Best Mart 360", "brand:wikidata": "Q65117567", "brand:wikipedia": "zh:\u512a\u54c1360", "brand:zh": "\u512a\u54c1360", "name": "\u512a\u54c1360 Best Mart 360", "name:en": "Best Mart 360", "name:zh": "\u512a\u54c1360", "shop": "convenience", "source": "Kaart Ground Survey 2017"}}, {"type": "node", "id": 4858622477, "lat": 22.2900413, "lon": 114.1957104, "tags": {"addr:street": "\u82f1\u7687\u9053 King's Road", "brand": "\u512a\u54c1360 Best Mart 360", "brand:en": "Best Mart 360", "brand:wikidata": "Q65117567", "brand:wikipedia": "zh:\u512a\u54c1360", "brand:zh": "\u512a\u54c1360", "name": "\u512a\u54c1360 Best Mart 360", "name:en": "Best Mart 360", "name:zh": "\u512a\u54c1360", "shop": "convenience", "source": "Kaart Ground Survey 2017", "was:shop": "convenience"}}, {"type": "node", "id": 4858649268, "lat": 22.2856392, "lon": 114.1964352, "tags": {"addr:country": "HK", "addr:street": "\u96f2\u666f\u9053 Cloud View Road", "brand": "7-Eleven", "brand:wikidata": "Q259340", "brand:wikipedia": "en:7-Eleven", "name": "7-Eleven", "name:en": "7-Eleven", "name:zh": "7-11\u4fbf\u5229\u5e97", "shop": "convenience", "source": "Kaart Ground Survey 2017"}}, {"type": "node", "id": 4860027983, "lat": 22.28067, "lon": 114.1824981, "tags": {"addr:country": "HK", "addr:street": "\u6ce2\u65af\u5bcc\u8857 Percival Street", "brand": "OK\u4fbf\u5229\u5e97 Circle K", "brand:en": "Circle K", "brand:wikidata": "Q3268010", "brand:wikipedia": "zh:OK\u4fbf\u5229\u5e97", "brand:zh": "OK\u4fbf\u5229\u5e97", "brand:zh-Hans": "OK\u4fbf\u5229\u5e97", "brand:zh-Hant": "OK\u4fbf\u5229\u5e97", "name": "OK\u4fbf\u5229\u5e97 Circle K", "name:en": "Circle K", "name:zh": "OK\u4fbf\u5229\u5e97", "name:zh-Hans": "OK\u4fbf\u5229\u5e97", "name:zh-Hant": "OK\u4fbf\u5229\u5e97", "shop": "convenience", "source": "Kaart Ground Survey 2017", "website": "https://www.circlek.hk/"}}, {"type": "node", "id": 4860027989, "lat": 22.279489, "lon": 114.1830072, "tags": {"addr:country": "HK", "addr:housenumber": "60", "addr:street": "\u6ce2\u65af\u5bcc\u8857 Percival Street", "brand": "7-Eleven", "brand:wikidata": "Q259340", "brand:wikipedia": "en:7-Eleven", "name": "7-Eleven", "name:en": "7-Eleven", "name:zh": "7-11\u4fbf\u5229\u5e97", "shop": "convenience"}}, {"type": "node", "id": 4860203940, "lat": 22.2858255, "lon": 114.1914752, "tags": {"addr:country": "HK", "addr:street": "\u6b4c\u9813\u9053 Gordon Road", "brand": "7-Eleven", "brand:wikidata": "Q259340", "brand:wikipedia": "en:7-Eleven", "name": "7-Eleven", "name:en": "7-Eleven", "name:zh": "7-11\u4fbf\u5229\u5e97", "shop": "convenience", "source": "Kaart Ground Survey 2017"}}, {"type": "node", "id": 4860700664, "lat": 22.2675641, "lon": 114.1869315}, {"type": "node", "id": 4860700665, "lat": 22.2674586, "lon": 114.1869993}, {"type": "node", "id": 4860700666, "lat": 22.267468, "lon": 114.1869139}, {"type": "node", "id": 4860705021, "lat": 22.2675351, "lon": 114.1868756}, {"type": "node", "id": 4860705022, "lat": 22.2674508, "lon": 114.1869851}, {"type": "node", "id": 4860705023, "lat": 22.2675763, "lon": 114.186887}, {"type": "node", "id": 4860705024, "lat": 22.2675991, "lon": 114.186928}, {"type": "node", "id": 4860705025, "lat": 22.2676442, "lon": 114.1868986}, {"type": "node", "id": 4860705026, "lat": 22.2676214, "lon": 114.1868576}, {"type": "node", "id": 4860769680, "lat": 22.2896773, "lon": 114.1969277, "tags": {"addr:country": "HK", "addr:street": "\u5821\u58d8\u8857 Fort Street", "brand": "OK\u4fbf\u5229\u5e97 Circle K", "brand:en": "Circle K", "brand:wikidata": "Q3268010", "brand:wikipedia": "zh:OK\u4fbf\u5229\u5e97", "brand:zh": "OK\u4fbf\u5229\u5e97", "brand:zh-Hans": "OK\u4fbf\u5229\u5e97", "brand:zh-Hant": "OK\u4fbf\u5229\u5e97", "name": "OK\u4fbf\u5229\u5e97 Circle K", "name:en": "Circle K", "name:zh": "OK\u4fbf\u5229\u5e97", "name:zh-Hans": "OK\u4fbf\u5229\u5e97", "name:zh-Hant": "OK\u4fbf\u5229\u5e97", "shop": "convenience", "source": "Kaart Ground Survey 2017", "website": "https://www.circlek.hk/"}}, {"type": "node", "id": 4860774428, "lat": 22.2787922, "lon": 114.1835845, "tags": {"addr:street": "\u5bcc\u660e\u8857 Foo Ming Street", "name": "\u50f9\u771f\u68e7 PrizeMart", "name:en": "PrizeMart", "name:zh": "\u50f9\u771f\u68e7", "shop": "convenience"}}, {"type": "node", "id": 4860776556, "lat": 22.2770162, "lon": 114.1818507, "tags": {"addr:country": "HK", "addr:street": "\u79ae\u9813\u9053 Leighton Road", "brand": "7-Eleven", "brand:wikidata": "Q259340", "brand:wikipedia": "en:7-Eleven", "name": "7-Eleven", "name:en": "7-Eleven", "name:zh": "7-11\u4fbf\u5229\u5e97", "shop": "convenience", "source": "Kaart Ground Survey 2017"}}, {"type": "node", "id": 4860805298, "lat": 22.2785304, "lon": 114.1837481, "tags": {"addr:country": "HK", "addr:street": "\u5229\u5712\u5c71\u9053 Lee Garden Road", "brand": "7-Eleven", "brand:wikidata": "Q259340", "brand:wikipedia": "en:7-Eleven", "name": "7-Eleven", "name:en": "7-Eleven", "name:zh": "7-11\u4fbf\u5229\u5e97", "shop": "convenience", "source": "Kaart Ground Survey 2017"}}, {"type": "node", "id": 4860805300, "lat": 22.2784889, "lon": 114.1837631, "tags": {"addr:country": "HK", "addr:street": "\u5229\u5712\u5c71\u9053 Lee Garden Road", "brand": "OK\u4fbf\u5229\u5e97 Circle K", "brand:en": "Circle K", "brand:wikidata": "Q3268010", "brand:wikipedia": "zh:OK\u4fbf\u5229\u5e97", "brand:zh": "OK\u4fbf\u5229\u5e97", "brand:zh-Hans": "OK\u4fbf\u5229\u5e97", "brand:zh-Hant": "OK\u4fbf\u5229\u5e97", "name": "OK\u4fbf\u5229\u5e97 Circle K", "name:en": "Circle K", "name:zh": "OK\u4fbf\u5229\u5e97", "name:zh-Hans": "OK\u4fbf\u5229\u5e97", "name:zh-Hant": "OK\u4fbf\u5229\u5e97", "opening_hours": "24/7", "shop": "convenience", "source": "Kaart Ground Survey 2017", "website": "https://www.circlek.hk/"}}, {"type": "node", "id": 4860805972, "lat": 22.2829906, "lon": 114.1927697, "tags": {"addr:country": "HK", "addr:street": "\u7559\u4ed9\u8857 Lau Sin Street", "brand": "OK\u4fbf\u5229\u5e97 Circle K", "brand:en": "Circle K", "brand:wikidata": "Q3268010", "brand:wikipedia": "zh:OK\u4fbf\u5229\u5e97", "brand:zh": "OK\u4fbf\u5229\u5e97", "brand:zh-Hans": "OK\u4fbf\u5229\u5e97", "brand:zh-Hant": "OK\u4fbf\u5229\u5e97", "name": "OK\u4fbf\u5229\u5e97 Circle K", "name:en": "Circle K", "name:zh": "OK\u4fbf\u5229\u5e97", "name:zh-Hans": "OK\u4fbf\u5229\u5e97", "name:zh-Hant": "OK\u4fbf\u5229\u5e97", "shop": "convenience", "source": "Kaart Ground Survey 2017", "website": "https://www.circlek.hk/"}}, {"type": "node", "id": 4860805974, "lat": 22.2829463, "lon": 114.1925228, "tags": {"addr:street": "\u82f1\u7687\u9053 King's Road", "name": "Sunning Dispensaru", "shop": "convenience", "source": "Kaart Ground Survey 2017"}}, {"type": "node", "id": 4860805981, "lat": 22.2816037, "lon": 114.1920523, "tags": {"addr:country": "HK", "addr:street": "\u9285\u947c\u7063\u9053 Tung Lo Wan Road", "brand": "7-Eleven", "brand:wikidata": "Q259340", "brand:wikipedia": "en:7-Eleven", "name": "7-Eleven", "name:en": "7-Eleven", "name:zh": "7-11\u4fbf\u5229\u5e97", "shop": "convenience", "source": "Kaart Ground Survey 2017"}}, {"type": "node", "id": 4861954701, "lat": 22.2789568, "lon": 114.1915651, "tags": {"addr:country": "HK", "addr:street": "\u9285\u947c\u7063\u9053 Tung Lo Wan Road", "brand": "7-Eleven", "brand:wikidata": "Q259340", "brand:wikipedia": "en:7-Eleven", "name": "7-Eleven", "name:en": "7-Eleven", "name:zh": "7-11\u4fbf\u5229\u5e97", "shop": "convenience", "source": "Kaart Ground Survey 2017"}}, {"type": "node", "id": 4861990732, "lat": 22.278998, "lon": 114.1924255, "tags": {"addr:country": "HK", "addr:street": "\u6d63\u7d17\u8857 Wun Sha Street", "brand": "7-Eleven", "brand:wikidata": "Q259340", "brand:wikipedia": "en:7-Eleven", "name": "7-Eleven", "name:en": "7-Eleven", "name:zh": "7-11\u4fbf\u5229\u5e97", "shop": "convenience", "source": "Kaart Ground Survey 2017"}}, {"type": "node", "id": 4862008500, "lat": 22.2785131, "lon": 114.1929344, "tags": {"addr:street": "\u6d63\u7d17\u8857 Wun Sha Street", "name": "Japaneese Foods", "shop": "convenience", "source": "Kaart Ground Survey 2017"}}, {"type": "node", "id": 4862057451, "lat": 22.2867094, "lon": 114.1367159, "tags": {"addr:country": "HK", "addr:street": "\u5fb7\u8f14\u9053\u897f Des Voeux Road West", "brand": "7-Eleven", "brand:wikidata": "Q259340", "brand:wikipedia": "en:7-Eleven", "name": "7-Eleven", "name:en": "7-Eleven", "name:zh": "7-11\u4fbf\u5229\u5e97", "shop": "convenience", "source": "Kaart Ground Survey 2017"}}, {"type": "node", "id": 4862057457, "lat": 22.2869382, "lon": 114.1374063, "tags": {"addr:street": "\u5fb7\u8f14\u9053\u897f Des Voeux Road West", "name": "U\u8cfcSelect Food", "shop": "convenience"}}, {"type": "node", "id": 4862113242, "lat": 22.2872421, "lon": 114.1375858, "tags": {"addr:street": "\u5fb7\u8f14\u9053\u897f Des Voeux Road West", "name": "759", "shop": "convenience", "source": "Kaart Ground Survey 2017"}}, {"type": "node", "id": 4862113249, "lat": 22.2875405, "lon": 114.1386245, "tags": {"addr:country": "HK", "addr:street": "\u5fb7\u8f14\u9053\u897f Des Voeux Road West", "brand": "OK\u4fbf\u5229\u5e97 Circle K", "brand:en": "Circle K", "brand:wikidata": "Q3268010", "brand:wikipedia": "zh:OK\u4fbf\u5229\u5e97", "brand:zh": "OK\u4fbf\u5229\u5e97", "brand:zh-Hans": "OK\u4fbf\u5229\u5e97", "brand:zh-Hant": "OK\u4fbf\u5229\u5e97", "name": "OK\u4fbf\u5229\u5e97 Circle K", "name:en": "Circle K", "name:zh": "OK\u4fbf\u5229\u5e97", "name:zh-Hans": "OK\u4fbf\u5229\u5e97", "name:zh-Hant": "OK\u4fbf\u5229\u5e97", "shop": "convenience", "source": "Kaart Ground Survey 2017", "website": "https://www.circlek.hk/"}}, {"type": "node", "id": 4862122128, "lat": 22.2876933, "lon": 114.139557, "tags": {"addr:country": "HK", "addr:street": "\u5fb7\u8f14\u9053\u897f Des Voeux Road West", "brand": "7-Eleven", "brand:wikidata": "Q259340", "brand:wikipedia": "en:7-Eleven", "name": "7-Eleven", "name:en": "7-Eleven", "name:zh": "7-11\u4fbf\u5229\u5e97", "shop": "convenience", "source": "Kaart Ground Survey 2017"}}, {"type": "node", "id": 4862556858, "lat": 22.2865696, "lon": 114.1384082, "tags": {"addr:street": "\u7687\u540e\u5927\u9053\u897f Queen's Road West", "brand": "759\u963f\u4fe1\u5c4b 759 Store", "brand:wikidata": "Q10846179", "brand:wikipedia": "en:759 Store", "brand:zh": "759\u963f\u4fe1\u5c4b", "brand:zh-Hans": "759\u963f\u4fe1\u5c4b", "brand:zh-Hant": "759\u963f\u4fe1\u5c4b", "name": "759\u963f\u4fe1\u5c4b 759 Store", "name:en": "759 Store", "name:zh": "759\u963f\u4fe1\u5c4b", "name:zh-Hans": "759\u963f\u4fe1\u5c4b", "name:zh-Hant": "759\u963f\u4fe1\u5c4b", "shop": "convenience", "source": "Kaart Ground Survey 2017"}}, {"type": "node", "id": 4862556869, "lat": 22.2859148, "lon": 114.1364355, "tags": {"addr:street": "\u7687\u540e\u5927\u9053\u897f Queen's Road West", "name": "Ameyokocho", "shop": "convenience", "source": "Kaart Ground Survey 2017"}}, {"type": "node", "id": 4862580147, "lat": 22.2865602, "lon": 114.1337415, "tags": {"addr:country": "HK", "addr:street": "\u7687\u540e\u5927\u9053\u897f Queen's Road West", "brand": "7-Eleven", "brand:wikidata": "Q259340", "brand:wikipedia": "en:7-Eleven", "name": "7-Eleven", "name:en": "7-Eleven", "name:zh": "7-11\u4fbf\u5229\u5e97", "shop": "convenience", "source": "Kaart Ground Survey 2017"}}, {"type": "node", "id": 4862597870, "lat": 22.2832193, "lon": 114.1299837, "tags": {"addr:street": "\u5351\u8def\u4e4d\u8857 Belcher's Street", "name": "\u897f\u74b0\u4e2d\u897f\u5927\u85e5\u623f Kennedy Town Dispensary", "name:en": "Kennedy Town Dispensary", "name:zh": "\u897f\u74b0\u4e2d\u897f\u5927\u85e5\u623f", "shop": "convenience"}}, {"type": "node", "id": 4862618394, "lat": 22.286443, "lon": 114.138741, "tags": {"addr:country": "HK", "addr:housenumber": "420-424", "addr:street": "\u7687\u540e\u5927\u9053\u897f Queen's Road West", "addr:unit": "C", "brand": "7-Eleven", "brand:wikidata": "Q259340", "brand:wikipedia": "en:7-Eleven", "level": "0", "name": "7-Eleven", "name:en": "7-Eleven", "name:zh": "7-11\u4fbf\u5229\u5e97", "opening_hours": "24/7", "shop": "convenience", "website": "https://www.7-eleven.com.hk"}}, {"type": "node", "id": 4862626538, "lat": 22.2837777, "lon": 114.130904, "tags": {"addr:country": "HK", "addr:street": "\u5351\u8def\u4e4d\u8857 Belcher's Street", "brand": "7-Eleven", "brand:wikidata": "Q259340", "brand:wikipedia": "en:7-Eleven", "name": "7-Eleven", "name:en": "7-Eleven", "name:zh": "7-11\u4fbf\u5229\u5e97", "shop": "convenience", "source": "Kaart Ground Survey 2017"}}, {"type": "node", "id": 4862637029, "lat": 22.2826641, "lon": 114.1289892, "tags": {"addr:country": "HK", "addr:street": "\u5351\u8def\u4e4d\u8857 Belcher's Street", "brand": "7-Eleven", "brand:wikidata": "Q259340", "brand:wikipedia": "en:7-Eleven", "name": "7-Eleven", "name:en": "7-Eleven", "name:zh": "7-11\u4fbf\u5229\u5e97", "shop": "convenience", "source": "Kaart Ground Survey 2017"}}, {"type": "node", "id": 4862637035, "lat": 22.2821844, "lon": 114.1283934, "tags": {"addr:country": "HK", "addr:street": "\u58eb\u7f8e\u83f2\u8def Smithfield", "brand": "7-Eleven", "brand:wikidata": "Q259340", "brand:wikipedia": "en:7-Eleven", "name": "7-Eleven", "name:en": "7-Eleven", "name:zh": "7-11\u4fbf\u5229\u5e97", "opening_hours": "24/7", "shop": "convenience", "source": "Kaart Ground Survey 2017"}}, {"type": "node", "id": 4864628425, "lat": 22.262284, "lon": 114.1329058}, {"type": "node", "id": 4864628426, "lat": 22.2621995, "lon": 114.1329732}, {"type": "node", "id": 4864628427, "lat": 22.2622546, "lon": 114.1330538}, {"type": "node", "id": 4864628428, "lat": 22.262339, "lon": 114.1329864}, {"type": "node", "id": 4868739491, "lat": 22.2793017, "lon": 114.152037, "tags": {"addr:country": "HK", "addr:housenumber": "28", "addr:street": "Robinson Road", "brand": "OK\u4fbf\u5229\u5e97 Circle K", "brand:en": "Circle K", "brand:wikidata": "Q3268010", "brand:wikipedia": "zh:OK\u4fbf\u5229\u5e97", "brand:zh": "OK\u4fbf\u5229\u5e97", "brand:zh-Hans": "OK\u4fbf\u5229\u5e97", "brand:zh-Hant": "OK\u4fbf\u5229\u5e97", "level": "0", "name": "OK\u4fbf\u5229\u5e97 Circle K", "name:en": "Circle K", "name:zh": "OK\u4fbf\u5229\u5e97", "name:zh-Hans": "OK\u4fbf\u5229\u5e97", "name:zh-Hant": "OK\u4fbf\u5229\u5e97", "opening_hours": "Mo-Su,PH 06:30-24:00", "shop": "convenience", "source": "Kaart Ground Survey 2017", "website": "https://www.circlek.hk/"}}, {"type": "node", "id": 4870047894, "lat": 22.2872573, "lon": 114.1384844, "tags": {"addr:street": "\u5fb7\u8f14\u9053\u897f Des Voeux Road West", "name": "Worthy Dispensary", "shop": "convenience", "source": "Kaart Ground Survey 2017"}}, {"type": "node", "id": 4870058231, "lat": 22.2833691, "lon": 114.1291641, "tags": {"addr:country": "HK", "addr:street": "\u5409\u5e2d\u8857 Catchick Street", "brand": "OK\u4fbf\u5229\u5e97 Circle K", "brand:en": "Circle K", "brand:wikidata": "Q3268010", "brand:wikipedia": "zh:OK\u4fbf\u5229\u5e97", "brand:zh": "OK\u4fbf\u5229\u5e97", "brand:zh-Hans": "OK\u4fbf\u5229\u5e97", "brand:zh-Hant": "OK\u4fbf\u5229\u5e97", "name": "OK\u4fbf\u5229\u5e97 Circle K", "name:en": "Circle K", "name:zh": "OK\u4fbf\u5229\u5e97", "name:zh-Hans": "OK\u4fbf\u5229\u5e97", "name:zh-Hant": "OK\u4fbf\u5229\u5e97", "shop": "convenience", "source": "Kaart Ground Survey 2017", "website": "https://www.circlek.hk/"}}, {"type": "node", "id": 4870132927, "lat": 22.284997, "lon": 114.1313245, "tags": {"addr:street": "\u5805\u5f4c\u5730\u57ce\u6d77\u65c1 Praya, Kennedy Town", "name": "Kin Hing Hong co", "shop": "convenience", "source": "Kaart Ground Survey 2017"}}, {"type": "node", "id": 4870132929, "lat": 22.2848897, "lon": 114.1311991, "tags": {"addr:street": "\u5805\u5f4c\u5730\u57ce\u6d77\u65c1 Praya, Kennedy Town", "name": "Hing Tat Trading", "shop": "convenience", "source": "Kaart Ground Survey 2017"}}, {"type": "node", "id": 4870132934, "lat": 22.2838481, "lon": 114.1299047, "tags": {"addr:street": "\u5805\u5f4c\u5730\u57ce\u6d77\u65c1 Praya, Kennedy Town", "name": "Free Market", "shop": "convenience", "source": "Kaart Ground Survey 2017"}}, {"type": "node", "id": 5043210808, "lat": 22.2752506, "lon": 114.1725088, "tags": {"addr:country": "HK", "brand": "7-Eleven", "brand:wikidata": "Q259340", "brand:wikipedia": "en:7-Eleven", "name": "7-Eleven", "name:en": "7-Eleven", "name:zh": "7-11\u4fbf\u5229\u5e97", "shop": "convenience", "website": "https://www.7-eleven.com.hk/"}}, {"type": "node", "id": 5059552426, "lat": 22.2446113, "lon": 114.1506004, "tags": {"brand": "7-Eleven", "brand:wikidata": "Q259340", "brand:wikipedia": "en:7-Eleven", "name": "7-Eleven", "name:en": "7-Eleven", "name:zh": "7-Eleven", "shop": "convenience"}}, {"type": "node", "id": 5143400422, "lat": 22.2766913, "lon": 114.1755059, "tags": {"brand": "7-Eleven", "brand:wikidata": "Q259340", "brand:wikipedia": "en:7-Eleven", "name": "7-Eleven", "name:en": "7-Eleven", "name:zh": "7-11\u4fbf\u5229\u5e97", "shop": "convenience"}}, {"type": "node", "id": 5149293630, "lat": 22.28176, "lon": 114.22198, "tags": {"level": "0", "name": "\u6a02\u6d3b\u58eb\u591a Luckstore", "name:en": "Luckstore", "name:zh": "\u6a02\u6d3b\u58eb\u591a", "shop": "convenience"}}, {"type": "node", "id": 5400547344, "lat": 22.27701, "lon": 114.177547, "tags": {"addr:country": "HK", "brand": "7-Eleven", "brand:wikidata": "Q259340", "brand:wikipedia": "en:7-Eleven", "level": "0", "name": "7-Eleven", "name:en": "7-Eleven", "name:zh": "7-11\u4fbf\u5229\u5e97", "opening_hours": "Mo-Su,PH 07:00-23:00", "shop": "convenience", "website": "https://www.7-eleven.com.hk/"}}, {"type": "node", "id": 5564250489, "lat": 22.277203, "lon": 114.17362, "tags": {"addr:city": "Wan Chai", "addr:country": "HK", "addr:housenumber": "95", "addr:street": "\u8b5a\u81e3\u9053 Thomson Road", "name": "\u4eba\u6c11\u8d85\u5e02 People\u2019s Market", "name:en": "People\u2019s Market", "name:zh": "\u4eba\u6c11\u8d85\u5e02", "shop": "convenience"}}, {"type": "node", "id": 5565071326, "lat": 22.2802695, "lon": 114.1513496, "tags": {"brand": "7-Eleven", "brand:wikidata": "Q259340", "brand:wikipedia": "en:7-Eleven", "name": "7-Eleven", "shop": "convenience"}}, {"type": "node", "id": 5625792157, "lat": 22.2777975, "lon": 114.2296718, "tags": {"addr:housenumber": "18", "addr:street": "\u91d1\u83ef\u8857 Kam Wa Street", "brand": "7-Eleven", "brand:wikidata": "Q259340", "brand:wikipedia": "en:7-Eleven", "name": "7-Eleven", "shop": "convenience"}}, {"type": "node", "id": 5653670117, "lat": 22.2850969, "lon": 114.1425717, "tags": {"addr:housenumber": "24", "addr:street": "\u9ad8\u8857 High Street", "bulk_purchase": "only", "name": "Live Zero", "opening_hours": "Mo-Sa 11:00-20:00; Su 11:00-18:00", "shop": "convenience", "website": "https://livezero.hk/"}}, {"type": "node", "id": 5662551686, "lat": 22.277822, "lon": 114.177769, "tags": {"addr:floor": "UG/F", "bulk_purchase": "yes", "contact:facebook": "https://www.facebook.com/livelylifehk/", "contact:instagram": "https://www.instagram.com/livelylifehk/", "name": "\u559c\u5c45\u751f\u6d3b Lively Life", "name:en": "Lively Life", "name:zh": "\u559c\u5c45\u751f\u6d3b", "opening_hours": "Mo off; Tu-Sa 13:00-19:30; Su,PH 13:00-18:30", "shop": "convenience", "website": "https://www.livelylifehk.com/"}}, {"type": "node", "id": 5711855939, "lat": 22.2820015, "lon": 114.1534026, "tags": {"addr:city": "Central", "addr:country": "HK", "addr:housenumber": "30", "addr:street": "\u8377\u674e\u6d3b\u9053 Hollywood Road", "brand": "7-Eleven", "brand:wikidata": "Q259340", "name": "7-Eleven", "shop": "convenience"}}, {"type": "node", "id": 5728751800, "lat": 22.281397, "lon": 114.156084, "tags": {"addr:street": "\u5fb7\u5df1\u7acb\u8857 D'Aguilar Street", "brand": "OK\u4fbf\u5229\u5e97 Circle K", "brand:en": "Circle K", "brand:wikidata": "Q3268010", "brand:zh": "OK\u4fbf\u5229\u5e97", "brand:zh-Hans": "OK\u4fbf\u5229\u5e97", "brand:zh-Hant": "OK\u4fbf\u5229\u5e97", "name": "OK\u4fbf\u5229\u5e97 Circle K", "name:en": "Circle K", "name:zh": "OK\u4fbf\u5229\u5e97", "name:zh-Hans": "OK\u4fbf\u5229\u5e97", "name:zh-Hant": "OK\u4fbf\u5229\u5e97", "shop": "convenience"}}, {"type": "node", "id": 5773582406, "lat": 22.2756384, "lon": 114.1731016, "tags": {"addr:city": "Wan Chai", "addr:country": "HK", "addr:housenumber": "8", "addr:street": "\u4ea4\u52a0\u8857 Cross Street", "level": "0", "name": "One Stop Shop", "shop": "convenience"}}, {"type": "node", "id": 5895845985, "lat": 22.2774979, "lon": 114.1699134, "tags": {"name:en": "Wellcpme (Veg Roll)", "shop": "convenience"}}, {"type": "node", "id": 6004092085, "lat": 22.2827278, "lon": 114.1551724, "tags": {"name:en": "Corner Block", "shop": "convenience"}}, {"type": "node", "id": 6033195085, "lat": 22.279714, "lon": 114.1727417, "tags": {"level": "0", "name": "\u6a02\u5354\u793e\u5718\u512a\u60e0\u574a Cheers Coop", "name:en": "Cheers Coop", "name:zh": "\u6a02\u5354\u793e\u5718\u512a\u60e0\u574a", "shop": "convenience"}}, {"type": "node", "id": 6039040587, "lat": 22.2757562, "lon": 114.1732946, "tags": {"name:en": "Wan Chai Night Market", "shop": "convenience"}}, {"type": "node", "id": 6077061645, "lat": 22.245654, "lon": 114.2454715}, {"type": "node", "id": 6077061646, "lat": 22.2455534, "lon": 114.2454806}, {"type": "node", "id": 6077061647, "lat": 22.2455324, "lon": 114.2454081}, {"type": "node", "id": 6077061648, "lat": 22.2456393, "lon": 114.24539}, {"type": "node", "id": 6183613879, "lat": 22.2810462, "lon": 114.1283742, "tags": {"brand": "7-Eleven", "brand:wikidata": "Q259340", "level": "-1", "name": "7-Eleven", "opening_hours": "Mo-Su 07:00-24:00", "shop": "convenience"}}, {"type": "node", "id": 6183614044, "lat": 22.2811993, "lon": 114.1287996, "tags": {"brand": "7-Eleven", "brand:wikidata": "Q259340", "level": "-1", "name": "7-Eleven", "opening_hours": "Mo-Su 07:00-23:00", "shop": "convenience"}}, {"type": "node", "id": 6241598810, "lat": 22.2803814, "lon": 114.1536196, "tags": {"brand": "759\u963f\u4fe1\u5c4b 759 Store", "brand:wikidata": "Q10846179", "brand:wikipedia": "en:759 Store", "brand:zh": "759\u963f\u4fe1\u5c4b", "brand:zh-Hans": "759\u963f\u4fe1\u5c4b", "brand:zh-Hant": "759\u963f\u4fe1\u5c4b", "name": "759\u963f\u4fe1\u5c4b 759 Store", "name:en": "759 Store", "name:zh": "759\u963f\u4fe1\u5c4b", "name:zh-Hans": "759\u963f\u4fe1\u5c4b", "name:zh-Hant": "759\u963f\u4fe1\u5c4b", "operator": "CEC\u570b\u969b\u63a7\u80a1 CEC International Holdings", "shop": "convenience"}}, {"type": "node", "id": 6255884885, "lat": 22.248745, "lon": 114.1551645, "tags": {"addr:city": "Aberdeen", "addr:country": "HK", "addr:housenumber": "23", "addr:street": "\u6771\u52dd\u9053 Tung Sing Road", "brand": "OK\u4fbf\u5229\u5e97 Circle K", "brand:en": "Circle K", "brand:wikidata": "Q3268010", "brand:zh": "OK\u4fbf\u5229\u5e97", "brand:zh-Hans": "OK\u4fbf\u5229\u5e97", "brand:zh-Hant": "OK\u4fbf\u5229\u5e97", "level": "0", "name": "OK\u4fbf\u5229\u5e97 Circle K", "name:en": "Circle K", "name:zh": "OK\u4fbf\u5229\u5e97", "name:zh-Hans": "OK\u4fbf\u5229\u5e97", "name:zh-Hant": "OK\u4fbf\u5229\u5e97", "opening_hours": "24/7", "shop": "convenience", "website": "https://www.circlek.hk/"}}, {"type": "node", "id": 6257931386, "lat": 22.2707979, "lon": 114.1310254, "tags": {"brand": "7-Eleven", "brand:wikidata": "Q259340", "name": "7-Eleven", "name:en": "7-11", "shop": "convenience"}}, {"type": "node", "id": 6257945875, "lat": 22.2482546, "lon": 114.1534159, "tags": {"addr:city": "Hong Kong", "addr:district": "Aberdeen Centre", "addr:housenumber": "7", "addr:street": "\u5357\u5be7\u8857 Nam Ning Street", "brand": "7-Eleven", "brand:wikidata": "Q259340", "brand:wikipedia": "en:7-Eleven", "name": "7-Eleven", "name:en": "7-Eleven", "name:zh": "7-11\u4fbf\u5229\u5e97", "shop": "convenience"}}, {"type": "node", "id": 6322420851, "lat": 22.2933092, "lon": 114.2000265, "tags": {"brand": "7-Eleven", "brand:wikidata": "Q259340", "brand:wikipedia": "en:7-Eleven", "name": "7-Eleven", "shop": "convenience"}}, {"type": "node", "id": 6419143855, "lat": 22.2855356, "lon": 114.1542381, "tags": {"addr:housenumber": "154", "addr:street": "\u5fb7\u8f14\u9053\u4e2d Des Voeux Road Central", "brand": "7-Eleven", "brand:wikidata": "Q259340", "brand:wikipedia": "en:7-Eleven", "name": "7-Eleven", "name:en": "7-Eleven", "name:zh": "7-11\u4fbf\u5229\u5e97", "shop": "convenience"}}, {"type": "node", "id": 6426041119, "lat": 22.2776588, "lon": 114.1751726, "tags": {"addr:housenumber": "220", "addr:street": "\u8ed2\u5c3c\u8a69\u9053 Hennessy Road", "contact:facebook": "https://www.facebook.com/MrCoolFood/", "contact:instagram": "https://www.instagram.com/mrcoolxmrkoolfood/", "level": "0", "name": "Mr. Cool", "opening_hours": "Mo-Su,PH 11:00-20:00", "shop": "convenience", "website": "https://www.mrcool.com.hk/", "wikimedia_commons": "File:220 Hennessy Road, Wan Chai (2023).jpg"}}, {"type": "node", "id": 6433775050, "lat": 22.279233, "lon": 114.1815065, "tags": {"brand": "7-Eleven", "brand:wikidata": "Q259340", "brand:wikipedia": "en:7-Eleven", "name": "7-Eleven", "name:en": "7-Eleven", "name:zh": "7-11\u4fbf\u5229\u5e97", "shop": "convenience"}}, {"type": "node", "id": 6463442685, "lat": 22.2868867, "lon": 114.1443606, "tags": {"addr:housenumber": "208", "addr:street": "\u7687\u540e\u5927\u9053\u897f Queen's Road West", "name": "\u91d1\u6e90\u516c\u53f8", "name:en": "Jin Yuan tea shop", "name:ru": "\u0427\u0430\u0439\u043d\u044b\u0439 \u043c\u0430\u0433\u0430\u0437\u0438\u043d \u0414\u0437\u0438\u043d\u044c \u0423\u0430\u043d\u044c", "shop": "convenience"}}, {"type": "node", "id": 6537887415, "lat": 22.2760007, "lon": 114.1714809, "tags": {"name": "Surprice", "shop": "convenience"}}, {"type": "node", "id": 6725669284, "lat": 22.2773641, "lon": 114.173454, "tags": {"brand": "OK\u4fbf\u5229\u5e97 Circle K", "brand:en": "Circle K", "brand:wikidata": "Q3268010", "brand:wikipedia": "zh:OK\u4fbf\u5229\u5e97", "brand:zh": "OK\u4fbf\u5229\u5e97", "brand:zh-Hans": "OK\u4fbf\u5229\u5e97", "brand:zh-Hant": "OK\u4fbf\u5229\u5e97", "level": "0", "name": "OK\u4fbf\u5229\u5e97 Circle K", "name:en": "Circle K", "name:zh": "OK\u4fbf\u5229\u5e97", "name:zh-Hans": "OK\u4fbf\u5229\u5e97", "name:zh-Hant": "OK\u4fbf\u5229\u5e97", "shop": "convenience"}}, {"type": "node", "id": 6726720365, "lat": 22.2666867, "lon": 114.2349996, "tags": {"name": "7-Eleven", "name:en": "7-Eleven", "name:zh": "7-11\u4fbf\u5229\u5e97", "shop": "convenience"}}, {"type": "node", "id": 6728746249, "lat": 22.2786778, "lon": 114.1718557, "tags": {"addr:housenumber": "20", "addr:street": "\u76e7\u62bc\u9053 Luard Road", "addr:unit": "2", "brand": "7-Eleven", "brand:wikidata": "Q259340", "brand:wikipedia": "en:7-Eleven", "level": "0", "name": "7-Eleven", "name:en": "7-Eleven", "name:zh": "7-11\u4fbf\u5229\u5e97", "shop": "convenience"}}, {"type": "node", "id": 6759443424, "lat": 22.2795946, "lon": 114.1849679, "tags": {"addr:housenumber": "33", "addr:street": "\u6e23\u7538\u8857 Jardine's Bazaar", "brand": "OK\u4fbf\u5229\u5e97 Circle K", "brand:en": "Circle K", "brand:wikidata": "Q3268010", "brand:wikipedia": "zh:OK\u4fbf\u5229\u5e97", "brand:zh": "OK\u4fbf\u5229\u5e97", "brand:zh-Hans": "OK\u4fbf\u5229\u5e97", "brand:zh-Hant": "OK\u4fbf\u5229\u5e97", "level": "0", "name": "OK\u4fbf\u5229\u5e97 Circle K", "name:en": "Circle K", "name:zh": "OK\u4fbf\u5229\u5e97", "name:zh-Hans": "OK\u4fbf\u5229\u5e97", "name:zh-Hant": "OK\u4fbf\u5229\u5e97", "shop": "convenience"}}, {"type": "node", "id": 6796359666, "lat": 22.2623827, "lon": 114.2361444, "tags": {"name": "7-Eleven", "name:en": "7-Eleven", "name:zh": "7-11\u4fbf\u5229\u5e97", "shop": "convenience"}}, {"type": "node", "id": 6819777071, "lat": 22.2902969, "lon": 114.2090862, "tags": {"brand": "7-Eleven", "brand:wikidata": "Q259340", "brand:wikipedia": "en:7-Eleven", "name": "7-Eleven", "opening_hours": "Mo-Su 07:00-23:59", "shop": "convenience"}}, {"type": "node", "id": 6819792594, "lat": 22.2910356, "lon": 114.2077335, "tags": {"brand": "7-Eleven", "brand:wikidata": "Q259340", "brand:wikipedia": "en:7-Eleven", "name": "7-Eleven", "shop": "convenience"}}, {"type": "node", "id": 6830775769, "lat": 22.2793776, "lon": 114.1842956, "tags": {"brand": "OK\u4fbf\u5229\u5e97 Circle K", "brand:en": "Circle K", "brand:wikidata": "Q3268010", "brand:zh": "OK\u4fbf\u5229\u5e97", "brand:zh-Hans": "OK\u4fbf\u5229\u5e97", "brand:zh-Hant": "OK\u4fbf\u5229\u5e97", "name": "OK\u4fbf\u5229\u5e97 Circle K", "name:en": "Circle K", "name:zh": "OK\u4fbf\u5229\u5e97", "name:zh-Hans": "OK\u4fbf\u5229\u5e97", "name:zh-Hant": "OK\u4fbf\u5229\u5e97", "shop": "convenience"}}, {"type": "node", "id": 6857211718, "lat": 22.2772834, "lon": 114.1760821, "tags": {"brand": "\u512a\u54c1360 Best Mart 360", "brand:en": "Best Mart 360", "brand:wikidata": "Q65117567", "brand:zh": "\u512a\u54c1360", "name": "\u512a\u54c1360 Best Mart 360", "name:en": "Best Mart 360", "name:zh": "\u512a\u54c1360", "shop": "convenience"}}, {"type": "node", "id": 6896304062, "lat": 22.2690526, "lon": 114.1860573, "tags": {"brand": "7-Eleven", "brand:wikidata": "Q259340", "name": "7-Eleven", "shop": "convenience"}}, {"type": "node", "id": 6901684833, "lat": 22.2795852, "lon": 114.1719268, "tags": {"level": "0", "name": "\u6a02\u5354\u793e\u5718\u512a\u60e0\u574a Cheers Coop", "name:en": "Cheers Coop", "name:zh": "\u6a02\u5354\u793e\u5718\u512a\u60e0\u574a", "shop": "convenience"}}, {"type": "node", "id": 7041400959, "lat": 22.2793983, "lon": 114.1884634, "tags": {"addr:housenumber": "1-7", "addr:street": "\u4fe1\u5fb7\u8857 Shelter Street", "addr:unit": "A", "level": "0", "name": "\u71df\u591a\u6771\u5357\u4e9e\u7f8e\u98df\u5e02\u5834 Indomarket", "name:en": "Indomarket", "name:zh": "\u71df\u591a\u6771\u5357\u4e9e\u7f8e\u98df\u5e02\u5834", "opening_hours": "Mo-Sa 09:30-20:30;Su,PH 08:30-21:00", "phone": "+852 28818216", "shop": "convenience", "website": "http://www.indomarket.com.hk"}}, {"type": "node", "id": 7086522241, "lat": 22.2590569, "lon": 114.192177}, {"type": "node", "id": 7086522242, "lat": 22.2589531, "lon": 114.1922281}, {"type": "node", "id": 7086522243, "lat": 22.2589371, "lon": 114.1921901}, {"type": "node", "id": 7086522244, "lat": 22.2590409, "lon": 114.192139}, {"type": "node", "id": 7086522261, "lat": 22.2576003, "lon": 114.1933442}, {"type": "node", "id": 7086522263, "lat": 22.2576344, "lon": 114.193274}, {"type": "node", "id": 7086522265, "lat": 22.257626, "lon": 114.1933587}, {"type": "node", "id": 7127726245, "lat": 22.2816724, "lon": 114.1325629}, {"type": "node", "id": 7127726246, "lat": 22.2816308, "lon": 114.1325356}, {"type": "node", "id": 7127726247, "lat": 22.2816095, "lon": 114.1325734}, {"type": "node", "id": 7127726248, "lat": 22.2816511, "lon": 114.1326008}, {"type": "node", "id": 7136319607, "lat": 22.2645658, "lon": 114.2396999, "tags": {"addr:street": "\u6021\u9806\u8857 Yee Shun Street", "name": "7-Eleven", "name:en": "7-Eleven", "shop": "convenience"}}, {"type": "node", "id": 7150918849, "lat": 22.2787154, "lon": 114.1780697, "tags": {"addr:country": "HK", "addr:street": "\u675c\u8001\u8a8c\u9053 Tonnochy Road", "brand": "7-Eleven", "brand:wikidata": "Q259340", "brand:wikipedia": "en:7-Eleven", "name": "7-Eleven", "name:en": "7-Eleven", "name:zh": "7-11\u4fbf\u5229\u5e97", "opening_hours": "24/7", "shop": "convenience", "website": "https://www.7-eleven.com.hk/"}}, {"type": "node", "id": 7199859267, "lat": 22.2187407, "lon": 114.2111546, "tags": {"brand": "7-Eleven", "brand:wikidata": "Q259340", "name": "7-Eleven", "name:en": "7-Eleven", "name:zh": "7-11\u4fbf\u5229\u5e97", "shop": "convenience"}}, {"type": "node", "id": 7284696358, "lat": 22.2883831, "lon": 114.1930677, "tags": {"addr:country": "HK", "addr:street": "\u6cb9\u8857 Oil Street", "brand": "7-Eleven", "brand:wikidata": "Q259340", "brand:wikipedia": "en:7-Eleven", "name": "7-Eleven", "name:en": "7-Eleven", "name:zh": "7-11\u4fbf\u5229\u5e97", "shop": "convenience"}}, {"type": "node", "id": 7310063485, "lat": 22.2790526, "lon": 114.1762274, "tags": {"brand": "7-Eleven", "brand:wikidata": "Q259340", "brand:wikipedia": "en:7-Eleven", "name": "7-Eleven", "name:en": "7-11", "shop": "convenience"}}, {"type": "node", "id": 7358498850, "lat": 22.2787028, "lon": 114.1814846, "tags": {"brand": "OK\u4fbf\u5229\u5e97 Circle K", "brand:en": "Circle K", "brand:wikidata": "Q3268010", "brand:wikipedia": "zh:OK\u4fbf\u5229\u5e97", "brand:zh": "OK\u4fbf\u5229\u5e97", "brand:zh-Hans": "OK\u4fbf\u5229\u5e97", "brand:zh-Hant": "OK\u4fbf\u5229\u5e97", "name": "OK\u4fbf\u5229\u5e97 Circle K", "name:en": "Circle K", "name:zh": "OK\u4fbf\u5229\u5e97", "name:zh-Hans": "OK\u4fbf\u5229\u5e97", "name:zh-Hant": "OK\u4fbf\u5229\u5e97", "shop": "convenience"}}, {"type": "node", "id": 7608690815, "lat": 22.2856463, "lon": 114.2242614, "tags": {"addr:street": "\u592a\u5eb7\u8857 Tai Hong Street", "name": "Daily Store", "shop": "convenience"}}, {"type": "node", "id": 8779004018, "lat": 22.2841035, "lon": 114.1549522, "tags": {"addr:country": "HK", "addr:housenumber": "1", "addr:street": "\u79df\u5e87\u5229\u8857 Jubilee Street", "addr:unit": "C", "brand": "7-Eleven", "brand:wikidata": "Q259340", "brand:wikipedia": "en:7-Eleven", "name": "7-Eleven", "name:en": "7-Eleven", "name:zh": "7-11\u4fbf\u5229\u5e97", "shop": "convenience", "website": "https://www.7-eleven.com.hk/"}}, {"type": "node", "id": 8849883092, "lat": 22.2576601, "lon": 114.1932886}, {"type": "node", "id": 8938798767, "lat": 22.287165, "lon": 114.2105925, "tags": {"brand": "Shell", "brand:wikidata": "Q110716465", "brand:wikipedia": "en:Royal Dutch Shell", "name": "Shell", "shop": "convenience"}}, {"type": "node", "id": 8938836961, "lat": 22.2928739, "lon": 114.206405, "tags": {"brand": "Tiger Mart", "brand:wikidata": "Q57643977", "name": "Tiger Mart", "shop": "convenience"}}, {"type": "node", "id": 8999689180, "lat": 22.2826911, "lon": 114.1269994, "tags": {"addr:street": "Hau Wo Street", "brand": "7-Eleven", "brand:wikidata": "Q259340", "brand:wikipedia": "en:7-Eleven", "name": "7-Eleven", "shop": "convenience"}}, {"type": "node", "id": 8999689181, "lat": 22.2820126, "lon": 114.1282398, "tags": {"addr:street": "\u58eb\u7f8e\u83f2\u8def Smithfield", "brand": "7-Eleven", "brand:wikidata": "Q259340", "brand:wikipedia": "en:7-Eleven", "name": "7-Eleven", "shop": "convenience"}}, {"type": "node", "id": 8999689182, "lat": 22.2823621, "lon": 114.1273946, "tags": {"addr:street": "Belcher's Street", "brand": "7-Eleven", "brand:wikidata": "Q259340", "brand:wikipedia": "en:7-Eleven", "name": "7-Eleven", "shop": "convenience"}}, {"type": "node", "id": 9131835285, "lat": 22.2787063, "lon": 114.188499, "tags": {"brand": "7-Eleven", "brand:wikidata": "Q259340", "brand:wikipedia": "en:7-Eleven", "level": "0", "name": "7-Eleven", "shop": "convenience"}}, {"type": "node", "id": 9171211113, "lat": 22.2857773, "lon": 114.1350081, "tags": {"brand": "7-Eleven", "brand:wikidata": "Q259340", "brand:wikipedia": "en:7-Eleven", "name": "7-Eleven", "shop": "convenience"}}, {"type": "node", "id": 9171436524, "lat": 22.2699909, "lon": 114.149777, "tags": {"addr:housenumber": "118", "addr:street": "\u5c71\u9802\u9053 Peak Road", "level": "1", "name": "\u60c5\u71b1\u7b11\u5e97 Jonetz Market", "name:en": "Jonetz Market", "name:zh": "\u60c5\u71b1\u7b11\u5e97", "phone": "+852 2569 7411", "shop": "convenience"}}, {"type": "node", "id": 9295851534, "lat": 22.2849248, "lon": 114.1552619, "tags": {"brand": "7-Eleven", "brand:wikidata": "Q259340", "brand:wikipedia": "en:7-Eleven", "name": "7-Eleven", "shop": "convenience"}}, {"type": "node", "id": 9295851535, "lat": 22.2831802, "lon": 114.1566914, "tags": {"addr:housenumber": "40-42", "addr:street": "\u5fb7\u8f14\u9053\u4e2d Des Voeux Road Central", "brand": "7-Eleven", "brand:wikidata": "Q259340", "brand:wikipedia": "en:7-Eleven", "name": "7-Eleven", "shop": "convenience"}}, {"type": "node", "id": 9681896730, "lat": 22.2840863, "lon": 114.1730984, "tags": {"brand": "OK\u4fbf\u5229\u5e97 Circle K", "brand:en": "Circle K", "brand:wikidata": "Q3268010", "brand:wikipedia": "zh:OK\u4fbf\u5229\u5e97", "brand:zh": "OK\u4fbf\u5229\u5e97", "brand:zh-Hans": "OK\u4fbf\u5229\u5e97", "brand:zh-Hant": "OK\u4fbf\u5229\u5e97", "name": "OK\u4fbf\u5229\u5e97 Circle K", "name:en": "Circle K", "name:zh": "OK\u4fbf\u5229\u5e97", "name:zh-Hans": "OK\u4fbf\u5229\u5e97", "name:zh-Hant": "OK\u4fbf\u5229\u5e97", "shop": "convenience"}}, {"type": "node", "id": 9902966419, "lat": 22.277845, "lon": 114.1826909, "tags": {"addr:housenumber": "16", "addr:street": "\u52ff\u5730\u81e3\u8857 Matheson Street", "brand": "7-Eleven", "brand:wikidata": "Q259340", "level": "0", "name": "7-Eleven", "shop": "convenience"}}, {"type": "node", "id": 10171169759, "lat": 22.2796755, "lon": 114.1807198, "tags": {"addr:street": "\u99f1\u514b\u9053 Lockhart Road", "brand": "OK\u4fbf\u5229\u5e97 Circle K", "brand:en": "Circle K", "brand:wikidata": "Q3268010", "brand:zh": "OK\u4fbf\u5229\u5e97", "brand:zh-Hans": "OK\u4fbf\u5229\u5e97", "brand:zh-Hant": "OK\u4fbf\u5229\u5e97", "level": "0", "name": "OK\u4fbf\u5229\u5e97 Circle K", "name:en": "Circle K", "name:zh": "OK\u4fbf\u5229\u5e97", "name:zh-Hans": "OK\u4fbf\u5229\u5e97", "name:zh-Hant": "OK\u4fbf\u5229\u5e97", "shop": "convenience"}}, {"type": "node", "id": 10247772946, "lat": 22.2873931, "lon": 114.1593483, "tags": {"name": "Kk Store", "shop": "convenience"}}, {"type": "node", "id": 10578704571, "lat": 22.2303232, "lon": 114.252046, "tags": {"name": "Fuk Lee", "payment:cash": "yes", "payment:coins": "yes", "payment:credit_cards": "yes", "shop": "convenience"}}, {"type": "node", "id": 10578800986, "lat": 22.2470542, "lon": 114.2451192, "tags": {"name": "Sam Kee convenience store", "shop": "convenience"}}, {"type": "node", "id": 10578800988, "lat": 22.24621, "lon": 114.2456169, "tags": {"name": "Tong Kee store", "shop": "convenience"}}, {"type": "node", "id": 10606047053, "lat": 22.280083, "lon": 114.186955, "tags": {"addr:housenumber": "31", "addr:street": "\u7cd6\u8857 Sugar Street", "level": "0", "name": "OK\u4fbf\u5229\u5e97 Circle K", "name:en": "Circle K", "name:zh": "OK\u4fbf\u5229\u5e97", "shop": "convenience"}}, {"type": "node", "id": 10787281289, "lat": 22.2616461, "lon": 114.1296704, "tags": {"brand": "7-Eleven", "brand:wikidata": "Q259340", "name": "7-Eleven", "shop": "convenience"}}, {"type": "way", "id": 448061719, "nodes": [4451153708, 4451153709, 4451153710, 4451153711, 4451153708], "tags": {"building": "yes", "shop": "convenience"}}, {"type": "way", "id": 448061720, "nodes": [4451153711, 4451153712, 4451153713, 4451153714, 4451153715, 4451153710, 4451153711], "tags": {"building": "yes", "shop": "convenience"}}, {"type": "way", "id": 492626918, "nodes": [4846157292, 4846157293, 4846157294, 4846157295, 4846157292], "tags": {"addr:street": "\u5e38\u8302\u8857 Sheung Mau Street", "building": "yes", "fixme": "name", "shop": "convenience", "source": "Kaart Ground Survey 2017"}}, {"type": "way", "id": 492867867, "nodes": [4848355332, 4848355333, 4848355334, 4846366269, 4848355332], "tags": {"addr:street": "\u9ec3\u7af9\u5751\u9053 Wong Chuk Hang Road", "building": "yes", "name": "Tiger Mart", "shop": "convenience", "source": "Kaart Ground Survey 2017"}}, {"type": "way", "id": 492874571, "nodes": [4848417314, 4848417315, 4848417316, 4848417317, 4848417314], "tags": {"addr:street": "\u9ec3\u7af9\u5751\u9053 Wong Chuk Hang Road", "building": "yes", "name": "Star", "shop": "convenience", "source": "Kaart Ground Survey 2017"}}, {"type": "way", "id": 494288079, "nodes": [4860700664, 4860700665, 4860705022, 4860700666, 4860705021, 4860700664], "tags": {"addr:street": "\u6210\u548c\u9053 Sing Woo Road", "brand": "Tiger Mart", "brand:wikidata": "Q57643977", "building": "yes", "name": "Tiger Mart", "shop": "convenience", "source": "Kaart Ground Survey 2017"}}, {"type": "way", "id": 494288522, "nodes": [4860705023, 4860705024, 4860705025, 4860705026, 4860705023], "tags": {"addr:street": "\u6210\u548c\u9053 Sing Woo Road", "brand": "Star Mart", "brand:wikidata": "Q61994857", "building": "yes", "name": "Star Mart", "shop": "convenience", "source": "Kaart Ground Survey 2017"}}, {"type": "way", "id": 494725658, "nodes": [4864628425, 4864628426, 4864628427, 4864628428, 4864628425], "tags": {"building": "yes", "shop": "convenience"}}, {"type": "way", "id": 646976331, "nodes": [6077061645, 6077061646, 6077061647, 6077061648, 6077061645], "tags": {"building": "yes", "name": "Lee's Store", "shop": "convenience"}}, {"type": "way", "id": 758748280, "nodes": [7086522244, 7086522243, 7086522242, 7086522241, 7086522244], "tags": {"brand": "Tigermart", "brand:en": "Tigermart", "building": "retail", "building:levels": "1", "name": "Tigermart", "name:en": "Tigermart", "shop": "convenience"}}, {"type": "way", "id": 758748285, "nodes": [8849883092, 7086522263, 7086522261, 7086522265, 8849883092], "tags": {"shop": "convenience"}}, {"type": "way", "id": 762788090, "nodes": [7127726245, 7127726246, 7127726247, 7127726248, 7127726245], "tags": {"brand": "uSmile \u6606\u4ed1\u597d\u5ba2", "brand:en": "uSmile", "brand:wikidata": "Q66480830", "brand:zh": "\u6606\u4ed1\u597d\u5ba2", "building": "retail", "layer": "0", "name": "uSmile \u6606\u4ed1\u597d\u5ba2", "name:en": "uSmile", "name:zh": "\u6606\u4ed1\u597d\u5ba2", "not:brand": "uSmile \u5d11\u5d19\u597d\u5ba2", "not:brand:zh": "\u5d11\u5d19\u597d\u5ba2", "not:name": "uSmile \u5d11\u5d19\u597d\u5ba2", "shop": "convenience"}}]}