{"version": 0.6, "generator": "Overpass API 0.7.60 f4c14d41", "osm3s": {"timestamp_osm_base": "2023-05-02T21:17:24Z", "copyright": "The data included in this document is from www.openstreetmap.org. The data is made available under ODbL."}, "elements": [{"type": "node", "id": 1775164419, "lat": 41.2580358, "lon": 28.4183384, "tags": {"amenity": "restaurant", "cuisine": "turkish", "name": "Merkez K\u00f6fte Salonu"}}, {"type": "node", "id": 3139581006, "lat": 41.1226758, "lon": 28.2445159}, {"type": "node", "id": 3139581007, "lat": 41.1225031, "lon": 28.2444418}, {"type": "node", "id": 3139581008, "lat": 41.1223297, "lon": 28.2449461}, {"type": "node", "id": 3139581009, "lat": 41.1223634, "lon": 28.2449606}, {"type": "node", "id": 3139581011, "lat": 41.1225311, "lon": 28.2451106}, {"type": "node", "id": 3139586826, "lat": 41.1218592, "lon": 28.2287926}, {"type": "node", "id": 3139586827, "lat": 41.1216795, "lon": 28.228839}, {"type": "node", "id": 3139586828, "lat": 41.1217653, "lon": 28.2294247}, {"type": "node", "id": 3139586829, "lat": 41.121945, "lon": 28.2293783}, {"type": "node", "id": 3139597587, "lat": 41.0829578, "lon": 28.3683381, "tags": {"amenity": "restaurant"}}, {"type": "node", "id": 4512027289, "lat": 41.0744678, "lon": 28.2519487, "tags": {"amenity": "restaurant", "name": "Ta\u015f f\u0131r\u0131n Ekmek", "name:tr": "Ta\u015f f\u0131r\u0131n Ekmek"}}, {"type": "node", "id": 4806739280, "lat": 41.2669239, "lon": 28.0513495, "tags": {"amenity": "restaurant", "name": "U\u011frak Et Lokantas\u0131"}}, {"type": "node", "id": 5045043633, "lat": 41.0833025, "lon": 28.3677851, "tags": {"amenity": "restaurant", "name": "Samsun Restaurant"}}, {"type": "node", "id": 5079818825, "lat": 41.075495, "lon": 28.2419169, "tags": {"amenity": "restaurant", "name": "Mado", "name:en": "Mado", "name:tr": "Mado"}}, {"type": "node", "id": 5276780265, "lat": 41.1428894, "lon": 28.1029375, "tags": {"amenity": "restaurant", "cuisine": "fish", "name": "G\u00f6lba\u015f\u0131 Et ve Bal\u0131k Restauran ve Bal\u0131k \u00c7iftli\u011fi K\u0131r Bah\u00e7esi"}}, {"type": "node", "id": 5526908344, "lat": 41.2767059, "lon": 28.1437808, "tags": {"amenity": "restaurant", "name": "\u00c7ay\u0131rdere \u00c7aml\u0131k Restoran"}}, {"type": "node", "id": 5526908397, "lat": 41.2666313, "lon": 28.0317302, "tags": {"addr:city": "\u00c7erkezk\u00f6y", "addr:country": "TR", "addr:district": "\u00c7erkezk\u00f6y", "addr:housenumber": "137", "addr:neighbourhood": "\u0130stasyon Mahallesi", "addr:place": "Tepe Mevkii", "addr:postcode": "59500", "addr:street": "Cengiz Topel Caddesi", "amenity": "restaurant", "name": "Toko\u00e7in Restaurant", "opening_hours": "09:00-23:00", "phone": "0532 434 98 76", "website": "http://www.tokocin.com"}}, {"type": "node", "id": 5605431420, "lat": 41.2555479, "lon": 28.4210523, "tags": {"amenity": "restaurant", "name": "Tarihi K\u0131rkp\u0131nar Kuzu ve O\u011flak \u00c7evirme"}}, {"type": "node", "id": 5654883187, "lat": 41.2648783, "lon": 28.0235683, "tags": {"amenity": "restaurant", "name": "\u00c7erkezk\u00f6y Tepe Kafe Restaurant"}}, {"type": "node", "id": 6005299329, "lat": 41.3332325, "lon": 28.2458412, "tags": {"amenity": "restaurant", "name": "\u00c7elebio\u011flu \u00c7iftli\u011fi"}}, {"type": "node", "id": 6116733155, "lat": 41.081836, "lon": 28.0825755, "tags": {"amenity": "restaurant"}}, {"type": "node", "id": 6116733156, "lat": 41.0829884, "lon": 28.0817521, "tags": {"amenity": "restaurant"}}, {"type": "node", "id": 6116733157, "lat": 41.0835868, "lon": 28.0810359, "tags": {"amenity": "restaurant", "cuisine": "pizza"}}, {"type": "node", "id": 6346417885, "lat": 41.1117625, "lon": 28.1123762}, {"type": "node", "id": 6346417886, "lat": 41.1116453, "lon": 28.1123762}, {"type": "node", "id": 6346417887, "lat": 41.1118241, "lon": 28.1123762}, {"type": "node", "id": 6346417888, "lat": 41.1118241, "lon": 28.1124727}, {"type": "node", "id": 6346417889, "lat": 41.1116453, "lon": 28.1124727}, {"type": "node", "id": 6346417890, "lat": 41.1117625, "lon": 28.1124727}, {"type": "node", "id": 6346417891, "lat": 41.1117625, "lon": 28.1123239}, {"type": "node", "id": 6346417892, "lat": 41.1116453, "lon": 28.1123239}, {"type": "node", "id": 6468970037, "lat": 41.2489026, "lon": 28.0378766, "tags": {"amenity": "restaurant"}}, {"type": "node", "id": 6590960547, "lat": 41.0723843, "lon": 28.2534105, "tags": {"addr:street": "Turgut \u00d6zal Bulvar\u0131", "amenity": "restaurant", "name": "D\u00fcr\u00fcmc\u00fc Sait Usta", "phone": "+902127287900"}}, {"type": "node", "id": 6768582677, "lat": 41.0683668, "lon": 28.3011842}, {"type": "node", "id": 6768582679, "lat": 41.0680971, "lon": 28.3013051}, {"type": "node", "id": 6768582680, "lat": 41.0680551, "lon": 28.3015608}, {"type": "node", "id": 6768582681, "lat": 41.0683045, "lon": 28.3018059}, {"type": "node", "id": 6768582682, "lat": 41.0683548, "lon": 28.3017966}, {"type": "node", "id": 6768582683, "lat": 41.0684804, "lon": 28.3012137}, {"type": "node", "id": 6818550983, "lat": 41.2542472, "lon": 28.3586975, "tags": {"amenity": "restaurant", "name": "D\u00fczdereler Et Lokantas\u0131"}}, {"type": "node", "id": 6939386157, "lat": 41.2568578, "lon": 28.4116557, "tags": {"amenity": "restaurant"}}, {"type": "node", "id": 6939386158, "lat": 41.2570264, "lon": 28.4113733}, {"type": "node", "id": 6939386159, "lat": 41.2568573, "lon": 28.4114257}, {"type": "node", "id": 6939386160, "lat": 41.2567392, "lon": 28.4119033}, {"type": "node", "id": 6939386161, "lat": 41.2567971, "lon": 28.4118817}, {"type": "node", "id": 6939386162, "lat": 41.2568573, "lon": 28.4118386}, {"type": "node", "id": 6939386163, "lat": 41.2569245, "lon": 28.4115613}, {"type": "node", "id": 6939386164, "lat": 41.2568897, "lon": 28.4115459}, {"type": "node", "id": 6939386165, "lat": 41.2569036, "lon": 28.4114904}, {"type": "node", "id": 6939386166, "lat": 41.2570472, "lon": 28.4114565}, {"type": "node", "id": 6947864962, "lat": 41.3140499, "lon": 28.2855939, "tags": {"amenity": "restaurant", "name": "G\u00fcm\u00fc\u015fp\u0131nar k\u00f6ftecisi"}}, {"type": "node", "id": 7035275450, "lat": 41.1223462, "lon": 28.2450313}, {"type": "node", "id": 7035275451, "lat": 41.1224517, "lon": 28.2446532}, {"type": "node", "id": 7035275452, "lat": 41.1224057, "lon": 28.2446335}, {"type": "node", "id": 7074467295, "lat": 41.0935111, "lon": 28.0013329, "tags": {"amenity": "restaurant", "name": "Gen\u00e7 Osman Lokantas\u0131"}}, {"type": "node", "id": 7553464323, "lat": 41.0685897, "lon": 28.301345}, {"type": "node", "id": 7553464324, "lat": 41.0686488, "lon": 28.3017803}, {"type": "node", "id": 7553464325, "lat": 41.068374, "lon": 28.3018716}, {"type": "node", "id": 7553464326, "lat": 41.0682994, "lon": 28.301842}, {"type": "node", "id": 7553464327, "lat": 41.0682435, "lon": 28.3018385}, {"type": "node", "id": 7553464328, "lat": 41.0681853, "lon": 28.3018152}, {"type": "node", "id": 7553464329, "lat": 41.0681399, "lon": 28.3017851}, {"type": "node", "id": 7553464330, "lat": 41.0681033, "lon": 28.301733}, {"type": "node", "id": 7553464331, "lat": 41.0680757, "lon": 28.3016885}, {"type": "node", "id": 7553464332, "lat": 41.0680526, "lon": 28.3016139}, {"type": "node", "id": 7553464333, "lat": 41.068097, "lon": 28.3015562}, {"type": "node", "id": 7553464334, "lat": 41.0680994, "lon": 28.3014984}, {"type": "node", "id": 7553464335, "lat": 41.0680658, "lon": 28.3014942}, {"type": "node", "id": 7553464336, "lat": 41.0682136, "lon": 28.3013341}, {"type": "node", "id": 7553464337, "lat": 41.068212, "lon": 28.3013038}, {"type": "node", "id": 7553464338, "lat": 41.0682404, "lon": 28.3012521}, {"type": "node", "id": 7553464339, "lat": 41.0682622, "lon": 28.30121}, {"type": "node", "id": 7553464340, "lat": 41.0682946, "lon": 28.3012032}, {"type": "node", "id": 7553464341, "lat": 41.0683976, "lon": 28.3012172}, {"type": "node", "id": 7876274653, "lat": 41.0987806, "lon": 28.4035505, "tags": {"amenity": "restaurant", "name": "Y\u00fccel Et Mangal"}}, {"type": "node", "id": 7889813779, "lat": 41.1213758, "lon": 28.1095519, "tags": {"amenity": "restaurant", "name": "Son \u00c7are B\u00fcfe"}}, {"type": "node", "id": 7921097920, "lat": 41.204378, "lon": 28.0111005, "tags": {"amenity": "restaurant", "name": "Hafa Dinlenme Tesisi"}}, {"type": "node", "id": 7921116859, "lat": 41.2029746, "lon": 28.009517, "tags": {"amenity": "restaurant", "name": "Hafa Dinlenme Tesisi"}}, {"type": "node", "id": 7996386860, "lat": 41.0764748, "lon": 28.2525035, "tags": {"amenity": "restaurant", "name": "K\u00f6fte Soyaslan Sucuk"}}, {"type": "node", "id": 8285586094, "lat": 41.16505, "lon": 28.4297641, "tags": {"amenity": "restaurant", "name": "Antik K\u00f6y 2"}}, {"type": "node", "id": 8285587389, "lat": 41.1669454, "lon": 28.4529279, "tags": {"amenity": "restaurant", "name": "Pe\u00e7ka Et & Mangal Kahvalt\u0131", "phone": "0533 195 94 77", "website": "http://peckamangalbasi.com/"}}, {"type": "node", "id": 8285588188, "lat": 41.1649215, "lon": 28.4309367, "tags": {"addr:street": "Doktor \u00c7e\u015fme Caddesi", "amenity": "restaurant", "name": "Antik K\u00f6y", "phone": "(0212) 789 61 24", "website": "https://www.antikkoy.com/"}}, {"type": "node", "id": 8285588752, "lat": 41.1643256, "lon": 28.4342779, "tags": {"addr:housenumber": "132", "addr:street": "Doktor \u00c7e\u015fme Caddesi", "amenity": "restaurant", "name": "Tarihi \u00c7\u0131naralt\u0131 Piknik Alan\u0131 & Restaurant", "phone": "0544 320 51 56"}}, {"type": "node", "id": 8403439132, "lat": 41.2203822, "lon": 28.455133, "tags": {"amenity": "restaurant", "name": "Baba Sultan\u0131n Yeri"}}, {"type": "node", "id": 8403439133, "lat": 41.2203227, "lon": 28.4551451, "tags": {"amenity": "restaurant", "cuisine": "crepe", "name": "G\u00f6zlemeci G\u00fcl\u015fen Abla"}}, {"type": "node", "id": 8403439206, "lat": 41.2239118, "lon": 28.4556238, "tags": {"amenity": "restaurant", "cuisine": "regional;sandwich;sausage;turkish", "name": "Salim Usta Bonak B\u00f6re\u011fi Baklava Tost \u00c7orba Menemen Kahvalt\u0131"}}, {"type": "node", "id": 8403439230, "lat": 41.2233731, "lon": 28.4551504, "tags": {"amenity": "restaurant", "cuisine": "turkish", "name": "Ihlamur Lokantas\u0131"}}, {"type": "node", "id": 8403439237, "lat": 41.222665, "lon": 28.4551518, "tags": {"amenity": "restaurant", "cuisine": "turkish", "name": "Saimo\u011flu Lokantas\u0131", "phone": "+902127950399"}}, {"type": "node", "id": 8403439243, "lat": 41.2217758, "lon": 28.4553502, "tags": {"amenity": "restaurant", "name": "Sivas Huzur K\u00f6fte"}}, {"type": "node", "id": 8403439245, "lat": 41.2215922, "lon": 28.4549104, "tags": {"amenity": "restaurant", "cuisine": "turkish", "name": "\u015eefim K\u00f6fte Salonu"}}, {"type": "node", "id": 8788654699, "lat": 41.0755788, "lon": 28.1331227, "tags": {"amenity": "restaurant", "cuisine": "turkish", "name": "Cafe4You Kanepe Restaurant"}}, {"type": "node", "id": 8928802100, "lat": 41.1739137, "lon": 28.1887668, "tags": {"amenity": "restaurant", "name": "B\u00fcy\u00fckk\u0131l\u0131\u00e7l\u0131 Bat\u0131 Restaurant"}}, {"type": "node", "id": 9473413399, "lat": 41.0724661, "lon": 28.2528232, "tags": {"amenity": "restaurant", "name": "Titizel B\u00f6rek"}}, {"type": "node", "id": 9473413745, "lat": 41.0722504, "lon": 28.2546565, "tags": {"amenity": "restaurant", "name": "Aile Kasab\u0131 Et & Izgara"}}, {"type": "node", "id": 9473416982, "lat": 41.0729418, "lon": 28.2501921, "tags": {"amenity": "restaurant", "name": "Y\u0131ld\u0131z Pilav"}}, {"type": "node", "id": 9473417205, "lat": 41.0736259, "lon": 28.2443269, "tags": {"amenity": "restaurant", "name": "\u00c7ak\u0131r Bey D\u00f6ner Lahmacun"}}, {"type": "node", "id": 9473418654, "lat": 41.0722424, "lon": 28.2547628, "tags": {"amenity": "restaurant", "name": "Antepli Kebap Pide Lahmacun"}}, {"type": "node", "id": 9473418659, "lat": 41.073838, "lon": 28.2460123, "tags": {"amenity": "restaurant", "name": "B\u00f6rek\u00e7i Salih Usta'n\u0131n Yeri"}}, {"type": "node", "id": 9473421055, "lat": 41.0729434, "lon": 28.2502356, "tags": {"amenity": "restaurant", "name": "Karadeniz B\u00f6rek\u00e7isi"}}, {"type": "node", "id": 9473425747, "lat": 41.0732983, "lon": 28.2437919, "tags": {"amenity": "restaurant", "name": "Kahvalt\u0131c\u0131m"}}, {"type": "node", "id": 9473431129, "lat": 41.0712626, "lon": 28.2416296, "tags": {"amenity": "restaurant", "name": "\u0130skele Bal\u0131k"}}, {"type": "node", "id": 9473434607, "lat": 41.0711462, "lon": 28.2431061, "tags": {"amenity": "restaurant", "name": "K\u00f6fteci Osman"}}, {"type": "node", "id": 9473434608, "lat": 41.0711531, "lon": 28.2418924, "tags": {"amenity": "restaurant", "name": "Poyraz Bal\u0131k\u00e7\u0131 Osman"}}, {"type": "node", "id": 9473441539, "lat": 41.0708302, "lon": 28.2430623, "tags": {"amenity": "restaurant", "name": "Kaptan Baba Bal\u0131k Restaurant"}}, {"type": "node", "id": 9473442038, "lat": 41.0711964, "lon": 28.2417607, "tags": {"amenity": "restaurant", "name": "Halit'in Yeri"}}, {"type": "node", "id": 9473442280, "lat": 41.0711021, "lon": 28.2420433, "tags": {"amenity": "restaurant", "name": "Batt\u0131 Bal\u0131k"}}, {"type": "node", "id": 9473442524, "lat": 41.0737265, "lon": 28.2436433, "tags": {"amenity": "restaurant", "name": "Me\u015fhur Tekirda\u011f K\u00f6ftecisi"}}, {"type": "node", "id": 9473442920, "lat": 41.070884, "lon": 28.2426286, "tags": {"amenity": "restaurant", "name": "S\u0131rr\u0131 Reis Bal\u0131k\u00e7\u0131l\u0131k"}}, {"type": "node", "id": 9473450598, "lat": 41.0738071, "lon": 28.2436315, "tags": {"amenity": "restaurant", "name": "Edirne Tava Ci\u011fercisi"}}, {"type": "node", "id": 9473452282, "lat": 41.0735103, "lon": 28.243722, "tags": {"amenity": "restaurant", "name": "Kar\u0131\u015f\u0131k Pizza & Cafe"}}, {"type": "node", "id": 9473460509, "lat": 41.0724852, "lon": 28.244058, "tags": {"amenity": "restaurant", "name": "Kekik"}}, {"type": "node", "id": 9473463964, "lat": 41.0742493, "lon": 28.2433384, "tags": {"amenity": "restaurant", "name": "Me\u015fhur Edirne Tava Ci\u011feri"}}, {"type": "node", "id": 9473475595, "lat": 41.0751744, "lon": 28.2437592, "tags": {"amenity": "restaurant", "name": "Ci\u011ferimin K\u00f6\u015fesi Edirne Ci\u011fercisi"}}, {"type": "node", "id": 9473489228, "lat": 41.0750171, "lon": 28.2437889, "tags": {"addr:street": "Ba\u015fkomutan Caddesi", "amenity": "restaurant", "name": "Lokumm"}}, {"type": "node", "id": 9473511202, "lat": 41.074717, "lon": 28.2433193, "tags": {"amenity": "restaurant", "name": "Elezz Et ve Kebap"}}, {"type": "node", "id": 9473515712, "lat": 41.0748968, "lon": 28.2436887, "tags": {"amenity": "restaurant", "name": "Terbiyeli"}}, {"type": "node", "id": 9473515828, "lat": 41.0752132, "lon": 28.2437442, "tags": {"amenity": "restaurant", "name": "Gaziantepli A\u011famo\u011flu Baklava & B\u00f6rek"}}, {"type": "node", "id": 9761234795, "lat": 41.2670133, "lon": 28.0244262, "tags": {"amenity": "restaurant", "name": "Bafra"}}, {"type": "node", "id": 9950153958, "lat": 41.2713263, "lon": 28.0142248, "tags": {"amenity": "restaurant", "name": "Ci\u011ferin Kalbi"}}, {"type": "node", "id": 9950187264, "lat": 41.2713743, "lon": 28.0139983, "tags": {"amenity": "restaurant", "name": "Konya Etli Ekmek"}}, {"type": "node", "id": 9950187549, "lat": 41.2711021, "lon": 28.0153678, "tags": {"amenity": "restaurant", "name": "Oses \u00c7i\u011f K\u00f6fte"}}, {"type": "node", "id": 9950196293, "lat": 41.2713688, "lon": 28.0141264, "tags": {"amenity": "restaurant", "name": "Miss \u00c7orba D\u00fcnyas\u0131"}}, {"type": "node", "id": 9956839995, "lat": 41.1443791, "lon": 28.4668129}, {"type": "node", "id": 9956839996, "lat": 41.1442703, "lon": 28.4668274}, {"type": "node", "id": 9956839997, "lat": 41.1442866, "lon": 28.467008}, {"type": "node", "id": 9956839998, "lat": 41.1443962, "lon": 28.4669894}, {"type": "node", "id": 9967451829, "lat": 41.358132, "lon": 28.2265022, "tags": {"amenity": "restaurant", "name": "K\u00f6y\u00fcm Atciftligi cafe ve resturant"}}, {"type": "node", "id": 10019952348, "lat": 41.1424831, "lon": 28.4585573, "tags": {"amenity": "restaurant", "name": "Tarihi \u00c7atalca K\u00f6fte"}}, {"type": "node", "id": 10101012867, "lat": 41.1428463, "lon": 28.4613175, "tags": {"amenity": "restaurant", "name": "K\u00f6y\u00fcm"}}, {"type": "node", "id": 10589889515, "lat": 41.2783932, "lon": 28.0145872, "tags": {"amenity": "restaurant", "name": "Hanedan Lahmacun"}}, {"type": "node", "id": 10861311887, "lat": 41.0764985, "lon": 28.2532047, "tags": {"amenity": "restaurant", "name": "Kokore\u00e7\u00e7i"}}, {"type": "node", "id": 10861357933, "lat": 41.0770294, "lon": 28.2536533, "tags": {"amenity": "restaurant", "name": "\u015e\u00f6hret Sa\u00e7 Tava Bal\u0131k"}}, {"type": "way", "id": 308690939, "nodes": [3139581006, 3139581007, 7035275451, 7035275452, 3139581008, 3139581009, 7035275450, 3139581011, 3139581006], "tags": {"amenity": "restaurant", "building": "yes", "cuisine": "turkish", "name": "Karbey"}}, {"type": "way", "id": 308690950, "nodes": [3139586826, 3139586827, 3139586828, 3139586829, 3139586826], "tags": {"amenity": "restaurant", "building": "yes", "cuisine": "turkish", "name": "Karbey"}}, {"type": "way", "id": 677792350, "nodes": [6346417885, 6346417887, 6346417888, 6346417890, 6346417889, 6346417886, 6346417892, 6346417891, 6346417885], "tags": {"amenity": "restaurant", "building": "yes", "name": "\u00c7aml\u0131k Et Lokantas\u0131"}}, {"type": "way", "id": 721516655, "nodes": [6768582677, 7553464340, 7553464339, 7553464338, 7553464337, 7553464336, 6768582679, 7553464335, 7553464334, 7553464333, 6768582680, 7553464332, 7553464331, 7553464330, 7553464329, 7553464328, 7553464327, 7553464326, 6768582681, 6768582682, 7553464325, 7553464324, 7553464323, 6768582683, 7553464341, 6768582677], "tags": {"amenity": "restaurant", "building": "yes", "cuisine": "turkish", "name": "Garden Et Lokantas\u0131"}}, {"type": "way", "id": 741255752, "nodes": [6939386158, 6939386159, 6939386160, 6939386161, 6939386162, 6939386163, 6939386164, 6939386165, 6939386166, 6939386158], "tags": {"amenity": "restaurant", "building": "yes"}}, {"type": "way", "id": 1086675131, "nodes": [9956839995, 9956839996, 9956839997, 9956839998, 9956839995], "tags": {"amenity": "restaurant", "building": "yes"}}]}