{"version": 0.6, "generator": "Overpass API 0.7.60 f4c14d41", "osm3s": {"timestamp_osm_base": "2023-05-02T21:19:24Z", "copyright": "The data included in this document is from www.openstreetmap.org. The data is made available under ODbL."}, "elements": [{"type": "node", "id": 1394878662, "lat": 40.9641098, "lon": 29.0705619, "tags": {"addr:city": "Kad\u0131k\u00f6y \u0130STANBUL", "addr:housenumber": "9", "addr:postcode": "34728", "addr:street": "Ba\u011fdat Caddesi Yener sokak", "amenity": "cafe", "cuisine": "bakery_and_pastry", "name": "Beyaz F\u0131r\u0131n - Erenk\u00f6y", "name:ar": "\u0641\u0631\u0646 \u0648\u0645\u0637\u0639\u0645 \u0648\u062d\u0644\u0648\u064a\u0627\u062a \u0628\u064a\u0627\u0632 \u0641\u0631\u0646", "phone": "0 216 360 9090", "shop": "alcohol", "website": "https://www.beyazfirin.com/magazalar.aspx", "wheelchair": "limited", "wheelchair:description": "Giri\u015f d\u00fcz ayak, masa y\u00fcksekliklerinin tekerlekli kullan\u0131m\u0131na uygun lokantada engelli wc yoktur."}}, {"type": "node", "id": 1769486530, "lat": 41.0044938, "lon": 29.0439591, "tags": {"name": "\u00d6ncel Tekel", "shop": "alcohol"}}, {"type": "node", "id": 2445138828, "lat": 40.9844962, "lon": 29.0268505, "tags": {"name": "Ka\u015fe Market", "shop": "alcohol"}}, {"type": "node", "id": 2445188970, "lat": 40.9905832, "lon": 29.0295336, "tags": {"name": "Dilkan", "shop": "alcohol"}}, {"type": "node", "id": 2531768296, "lat": 41.0324652, "lon": 28.9843129, "tags": {"shop": "alcohol"}}, {"type": "node", "id": 2558565962, "lat": 41.031341, "lon": 28.9828724, "tags": {"addr:housenumber": "109/a", "addr:street": "S\u0131raselviler Caddesi", "name": "La Cave - \u015earap ve \u0130\u00e7ki Ma\u011fazas\u0131", "shop": "alcohol", "website": "http://www.lacavesarap.com"}}, {"type": "node", "id": 2828695473, "lat": 40.9398501, "lon": 29.1191577, "tags": {"name": "Demir Tekel-Kuruyemi\u015f", "shop": "alcohol"}}, {"type": "node", "id": 2850582441, "lat": 40.9522289, "lon": 29.0986365, "tags": {"name": "Day\u0131 Tekel", "shop": "alcohol"}}, {"type": "node", "id": 2901762590, "lat": 41.0246384, "lon": 28.9764029, "tags": {"check_date:opening_hours": "2022-12-10", "name": "\u00d6zkaya b\u00fcfe", "opening_hours:signed": "no", "shop": "alcohol"}}, {"type": "node", "id": 2990375619, "lat": 40.9861799, "lon": 29.030808, "tags": {"name": "Has\u0131rc\u0131ba\u015f\u0131 G\u0131da", "shop": "alcohol"}}, {"type": "node", "id": 3880776313, "lat": 41.0294527, "lon": 28.9730506, "tags": {"name": "you.night", "shop": "alcohol"}}, {"type": "node", "id": 3884609506, "lat": 41.0310851, "lon": 28.9818386, "tags": {"name": "Ko\u00e7 Market", "shop": "alcohol"}}, {"type": "node", "id": 4416201293, "lat": 40.9520172, "lon": 29.0986496, "tags": {"name": "Dragon Tekel", "name:tr": "Dragon Tekel", "shop": "alcohol"}}, {"type": "node", "id": 4416291793, "lat": 40.9503571, "lon": 29.1014602, "tags": {"name": "G\u00fcneysu Tekel", "name:tr": "G\u00fcneysu Tekel", "shop": "alcohol"}}, {"type": "node", "id": 4422679989, "lat": 40.9836463, "lon": 29.028816, "tags": {"addr:city": "\u0130stanbul", "addr:district": "Kad\u0131k\u00f6y", "addr:neighbourhood": "Caferaga Mah.", "addr:postcode": "34710", "addr:street": "\u015eevki Bey Sokak", "name": "Tak\u0131l", "operator": "Ahmet", "payment:cash": "yes", "shop": "alcohol"}}, {"type": "node", "id": 4786977867, "lat": 41.0335847, "lon": 28.9883904, "tags": {"name": "Kismet", "shop": "alcohol"}}, {"type": "node", "id": 5052121127, "lat": 40.983848, "lon": 29.0231714, "tags": {"addr:housenumber": "27c", "addr:street": "F\u0131r\u0131ldak Sokak", "name": "Yavuz G\u0131da", "name:tr": "Yavuz G\u0131da", "opening_hours": "Mo-Sa 10:00-21:00", "shop": "alcohol"}}, {"type": "node", "id": 5261669267, "lat": 40.9508392, "lon": 29.1072364, "tags": {"addr:postcode": "34840", "addr:street": "Lale Sokak", "name": "Ak\u015fam Sefas\u0131 Tekel", "shop": "alcohol"}}, {"type": "node", "id": 5282746255, "lat": 40.9761523, "lon": 29.1397334, "tags": {"name": "Cadde Ess", "shop": "alcohol"}}, {"type": "node", "id": 5297550997, "lat": 40.9459688, "lon": 29.1109884, "tags": {"name": "\u0130stanbul Tekel-2", "shop": "alcohol"}}, {"type": "node", "id": 5450459397, "lat": 40.9956689, "lon": 29.0292072, "tags": {"name": "Kamero\u011flu Tekel & B\u00fcfe", "shop": "alcohol"}}, {"type": "node", "id": 5734761259, "lat": 40.8149356, "lon": 29.3723484, "tags": {"addr:city": "Kocaeli", "addr:district": "\u00c7ay\u0131rova", "addr:housenumber": "4", "addr:neighbourhood": "\u00c7ay\u0131rova", "addr:postcode": "41420", "addr:street": "Ali Haydar Efendi Caddesi", "name": "Can Tekel", "shop": "alcohol"}}, {"type": "node", "id": 5788119497, "lat": 40.9865895, "lon": 29.2642898, "tags": {"name": "Toksoy Tekel", "shop": "alcohol"}}, {"type": "node", "id": 5898595446, "lat": 40.8623868, "lon": 29.3351676, "tags": {"name": "Keyf-i Ala", "shop": "alcohol"}}, {"type": "node", "id": 5898595447, "lat": 40.8627848, "lon": 29.3343445, "tags": {"name": "Lobi G\u0131da Tekel", "shop": "alcohol"}}, {"type": "node", "id": 5900475020, "lat": 40.8631332, "lon": 29.3345383, "tags": {"name": "BRT Adasya", "old_name": "Adasya Tekel ve \u015eark\u00fcteri", "shop": "alcohol"}}, {"type": "node", "id": 5900475024, "lat": 40.8639409, "lon": 29.3353779, "tags": {"name": "Nehir B\u00fcfe Tekel", "shop": "alcohol"}}, {"type": "node", "id": 5913552250, "lat": 40.8729635, "lon": 29.3322733, "tags": {"name": "Poyraz Tekel \u015eark\u00fcteri", "shop": "alcohol"}}, {"type": "node", "id": 5913685115, "lat": 40.872247, "lon": 29.326675, "tags": {"name": "U\u011fur Tekel", "shop": "alcohol"}}, {"type": "node", "id": 5927836782, "lat": 40.8692649, "lon": 29.3214486, "tags": {"name": "Kairzma Tekel Bayi", "shop": "alcohol"}}, {"type": "node", "id": 5938994897, "lat": 40.8992199, "lon": 29.2260183, "tags": {"addr:city": "\u0130stanbul", "addr:district": "Kartal", "addr:neighbourhood": "Cumhuriyet Mh.", "addr:street": "Abdi \u0130pekci Caddesi", "name": "G\u00f6rta\u015f Tekel Bayii", "payment:cash": "yes", "payment:credit_cards": "yes", "shop": "alcohol"}}, {"type": "node", "id": 5943258525, "lat": 40.8820176, "lon": 29.3390468, "tags": {"shop": "alcohol"}}, {"type": "node", "id": 6116794840, "lat": 40.8593678, "lon": 29.2985426, "tags": {"name": "Cadde", "shop": "alcohol"}}, {"type": "node", "id": 6324973106, "lat": 40.980819, "lon": 29.0237483, "tags": {"name": "Khalkedon Tekel", "shop": "alcohol"}}, {"type": "node", "id": 6383807262, "lat": 40.9892981, "lon": 29.0217313, "tags": {"name": "Es Es Tekel", "shop": "alcohol"}}, {"type": "node", "id": 6383818345, "lat": 40.9903271, "lon": 29.0235836, "tags": {"name": "Onur Tobacco", "shop": "alcohol"}}, {"type": "node", "id": 6425793417, "lat": 41.0459012, "lon": 28.9797394, "tags": {"shop": "alcohol"}}, {"type": "node", "id": 6467096087, "lat": 41.0057762, "lon": 28.9735478, "tags": {"opening_hours": "Mo-Su 09:00-00:00", "shop": "alcohol"}}, {"type": "node", "id": 6494968813, "lat": 40.8681829, "lon": 29.3040523, "tags": {"name": "Can Tekel", "shop": "alcohol"}}, {"type": "node", "id": 6512988710, "lat": 40.8680148, "lon": 29.307049, "tags": {"name": "Topuz Tekel", "shop": "alcohol"}}, {"type": "node", "id": 6513003420, "lat": 40.8680202, "lon": 29.305644, "tags": {"name": "Dilo Tekel Shop", "shop": "alcohol"}}, {"type": "node", "id": 6525073703, "lat": 40.9893895, "lon": 29.02865, "tags": {"name": "RS Tobacco Shop", "shop": "alcohol"}}, {"type": "node", "id": 6525073709, "lat": 40.9884582, "lon": 29.0285454, "tags": {"name": "The Tekel", "shop": "alcohol"}}, {"type": "node", "id": 6525110751, "lat": 40.9852476, "lon": 29.0278447, "tags": {"name": "Cadde G\u0131da", "shop": "alcohol"}}, {"type": "node", "id": 6525324612, "lat": 40.9840235, "lon": 29.026487, "tags": {"name": "Moda Tekel", "shop": "alcohol"}}, {"type": "node", "id": 6525324618, "lat": 40.9842452, "lon": 29.0241646, "tags": {"name": "Moda 202", "shop": "alcohol"}}, {"type": "node", "id": 6525324643, "lat": 40.9809692, "lon": 29.0243111, "tags": {"name": "Bakkal", "shop": "alcohol"}}, {"type": "node", "id": 6525503132, "lat": 40.9858521, "lon": 29.0251132, "tags": {"name": "G\u00f6nen Tekel", "shop": "alcohol"}}, {"type": "node", "id": 6525503139, "lat": 40.9863913, "lon": 29.0254153, "tags": {"name": "Kaptan B\u00fcfe", "shop": "alcohol"}}, {"type": "node", "id": 6531761308, "lat": 40.9875976, "lon": 29.0219658, "tags": {"name": "M\u00fcherdar \u015eark\u00fcteri", "shop": "alcohol"}}, {"type": "node", "id": 6531761312, "lat": 40.9882693, "lon": 29.0230758, "tags": {"addr:housenumber": "65/1a", "addr:postcode": "34710", "addr:street": "M\u00fch\u00fcrdar Caddesi", "name": "Ada Market", "shop": "alcohol"}}, {"type": "node", "id": 6531878040, "lat": 40.9869106, "lon": 29.0267025, "tags": {"name": "Simurg Tekel", "shop": "alcohol"}}, {"type": "node", "id": 6531910309, "lat": 40.9862791, "lon": 29.026528, "tags": {"name": "Y\u0131ld\u0131z Tekel", "shop": "alcohol"}}, {"type": "node", "id": 6531917627, "lat": 40.9865692, "lon": 29.026725, "tags": {"name": "Sokak Tekel", "shop": "alcohol"}}, {"type": "node", "id": 6532025720, "lat": 40.9939509, "lon": 29.0254076}, {"type": "node", "id": 6532025722, "lat": 40.9938777, "lon": 29.0252666}, {"type": "node", "id": 6532025723, "lat": 40.9938758, "lon": 29.0253748}, {"type": "node", "id": 6532025724, "lat": 40.9939458, "lon": 29.0252657}, {"type": "node", "id": 6532025814, "lat": 40.9934012, "lon": 29.0264429}, {"type": "node", "id": 6532025815, "lat": 40.9933992, "lon": 29.026569}, {"type": "node", "id": 6532025817, "lat": 40.9933658, "lon": 29.0264429}, {"type": "node", "id": 6532025820, "lat": 40.9932474, "lon": 29.0265677}, {"type": "node", "id": 6532025821, "lat": 40.9932494, "lon": 29.0263933}, {"type": "node", "id": 6532025822, "lat": 40.9933587, "lon": 29.0263906}, {"type": "node", "id": 6532025959, "lat": 40.9931809, "lon": 29.0268137}, {"type": "node", "id": 6532025963, "lat": 40.9931781, "lon": 29.0267458}, {"type": "node", "id": 6532025964, "lat": 40.9930371, "lon": 29.0267531}, {"type": "node", "id": 6532025965, "lat": 40.9930386, "lon": 29.0268194}, {"type": "node", "id": 6649911683, "lat": 40.9714324, "lon": 29.1459105, "tags": {"name": "B\u00fclb\u00fcl G\u0131da", "shop": "alcohol"}}, {"type": "node", "id": 6657681194, "lat": 40.9685019, "lon": 29.1396931, "tags": {"shop": "alcohol"}}, {"type": "node", "id": 6684098655, "lat": 40.996502, "lon": 29.048406, "tags": {"name": "Amsterdam Tekel", "shop": "alcohol"}}, {"type": "node", "id": 6696425818, "lat": 40.9743606, "lon": 29.0557714, "tags": {"name": "Filiz", "shop": "alcohol"}}, {"type": "node", "id": 6765814947, "lat": 40.9861264, "lon": 29.0330699, "tags": {"name": "Bade Tekel", "opening_hours": "7:30 - 2:00", "phone": "+90 532 376 64 30", "shop": "alcohol", "wheelchair": "yes"}}, {"type": "node", "id": 6765814958, "lat": 40.985156, "lon": 29.0330156, "tags": {"check_date": "2022-09-10", "name": "Canbay Tekel & \u015eark\u00fcteri", "opening_hours": "7:30 - 2:30", "payment:mastercard": "yes", "payment:visa": "yes", "phone": "+90 530 633 68 35", "shop": "alcohol", "wheelchair": "yes"}}, {"type": "node", "id": 6767608055, "lat": 40.8479369, "lon": 29.3029502, "tags": {"name": "Yaprak Tekel", "shop": "alcohol"}}, {"type": "node", "id": 6979179371, "lat": 40.9893238, "lon": 29.113436, "tags": {"name": "Ayd\u0131n Tekel", "shop": "alcohol"}}, {"type": "node", "id": 7118748260, "lat": 41.0424602, "lon": 28.9862865, "tags": {"name": "Konak Tekel & Kuruyemi\u015f", "shop": "alcohol"}}, {"type": "node", "id": 7132896821, "lat": 41.0144118, "lon": 29.087168, "tags": {"name": "\u00c7\u0131nar Tekel & B\u00fcfe", "shop": "alcohol"}}, {"type": "node", "id": 8504042118, "lat": 40.9492295, "lon": 29.1053992, "tags": {"name": "Aymina Tekel & Kuruyemi\u015f", "shop": "alcohol"}}, {"type": "node", "id": 8536674517, "lat": 41.0102562, "lon": 28.9754674, "tags": {"shop": "alcohol"}}, {"type": "node", "id": 8963313581, "lat": 40.9093309, "lon": 29.2361326, "tags": {"name": "Kartal Tekel", "shop": "alcohol"}}, {"type": "node", "id": 9045441818, "lat": 41.0306118, "lon": 28.9743325, "tags": {"shop": "alcohol"}}, {"type": "node", "id": 9047931518, "lat": 40.9878406, "lon": 29.0249024, "tags": {"name": "Nexus", "shop": "alcohol"}}, {"type": "node", "id": 9047934317, "lat": 40.9877639, "lon": 29.025122, "tags": {"addr:housenumber": "3", "addr:street": "Sarraf Ali Soka\u011f\u0131", "name": "Rind", "shop": "alcohol"}}, {"type": "node", "id": 9066653417, "lat": 40.9858603, "lon": 29.0261598, "tags": {"name": "Sword Tekel", "shop": "alcohol"}}, {"type": "node", "id": 9070252717, "lat": 40.981688, "lon": 29.0262635, "tags": {"name": "Umut Tekel", "shop": "alcohol"}}, {"type": "node", "id": 9074262219, "lat": 40.9829961, "lon": 29.0308727, "tags": {"name": "Gunaydin Gida & Tekel", "shop": "alcohol"}}, {"type": "node", "id": 9108140007, "lat": 40.9890052, "lon": 29.029669, "tags": {"name": "Yudum Tekel", "shop": "alcohol"}}, {"type": "node", "id": 9124047366, "lat": 40.9030575, "lon": 29.232744, "tags": {"addr:housenumber": "80C", "name": "Can Karde\u015fler Tekel", "shop": "alcohol"}}, {"type": "node", "id": 9179993575, "lat": 40.9703831, "lon": 29.0533721, "tags": {"name": "Onlinemahzen", "shop": "alcohol"}}, {"type": "node", "id": 9261444617, "lat": 40.9883435, "lon": 29.0236851, "tags": {"name": "Ozkan Ticaret", "shop": "alcohol"}}, {"type": "node", "id": 9263126117, "lat": 40.9902492, "lon": 29.027394, "tags": {"name": "Toff Tekel", "shop": "alcohol"}}, {"type": "node", "id": 9263249017, "lat": 40.9875822, "lon": 29.0254761, "tags": {"name": "Munzur Tekel", "shop": "alcohol"}}, {"type": "node", "id": 9263249018, "lat": 40.9875442, "lon": 29.0252866, "tags": {"name": "Imparator Tekel", "shop": "alcohol"}}, {"type": "node", "id": 9286064818, "lat": 40.9941173, "lon": 29.0280455, "tags": {"name": "ARC Tekel", "shop": "alcohol"}}, {"type": "node", "id": 9286064819, "lat": 40.9941428, "lon": 29.0298401, "tags": {"name": "Dillan Yeldegirmeni", "shop": "alcohol"}}, {"type": "node", "id": 9318036517, "lat": 40.9876252, "lon": 29.0259748, "tags": {"name": "Izmir Tekel", "shop": "alcohol"}}, {"type": "node", "id": 9318036618, "lat": 40.9876967, "lon": 29.0257157, "tags": {"addr:housenumber": "1F", "addr:street": "Sak\u0131z G\u00fcl\u00fc Soka\u011f\u0131", "name": "Mokoko Tekel", "shop": "alcohol"}}, {"type": "node", "id": 9329826917, "lat": 40.9803939, "lon": 29.0214078, "tags": {"name": "Sahil Tekel", "shop": "alcohol"}}, {"type": "node", "id": 9329863117, "lat": 40.984956, "lon": 29.024664, "tags": {"name": "Moda 58", "opening_hours": "PH,Mo-Su 08:00-01:00", "shop": "alcohol"}}, {"type": "node", "id": 9329873517, "lat": 40.9861387, "lon": 29.0252593, "tags": {"name": "Dilkan Moda", "shop": "alcohol"}}, {"type": "node", "id": 9337361717, "lat": 40.987477, "lon": 29.0267141, "tags": {"name": "Yukselis Tekel", "shop": "alcohol"}}, {"type": "node", "id": 9337361718, "lat": 40.9888137, "lon": 29.0272557, "tags": {"name": "Seksenler Gida", "shop": "alcohol"}}, {"type": "node", "id": 9337361817, "lat": 40.9879941, "lon": 29.0270051, "tags": {"name": "Zula", "shop": "alcohol"}}, {"type": "node", "id": 9375784922, "lat": 40.9864199, "lon": 29.0233261, "tags": {"addr:housenumber": "47/1a", "addr:postcode": "34710", "addr:street": "Cemal S\u00fcreya Soka\u011f\u0131", "name": "Odak Gida", "shop": "alcohol"}}, {"type": "node", "id": 9375785117, "lat": 40.9846173, "lon": 29.0262291, "tags": {"name": "Seker Tekel", "shop": "alcohol"}}, {"type": "node", "id": 9375785319, "lat": 40.9856835, "lon": 29.0234076, "tags": {"name": "Sen Gida", "shop": "alcohol"}}, {"type": "node", "id": 9393959433, "lat": 40.9814862, "lon": 29.0227858, "tags": {"name": "Modali Tekel", "shop": "alcohol"}}, {"type": "node", "id": 9393959919, "lat": 40.9841844, "lon": 29.0219847, "tags": {"name": "\u00d6zlem Gida", "shop": "alcohol"}}, {"type": "node", "id": 9510245820, "lat": 40.9811689, "lon": 29.0228325, "tags": {"name": "\u015eenol tekel", "shop": "alcohol"}}, {"type": "node", "id": 9510245920, "lat": 40.9813222, "lon": 29.0227976, "tags": {"name": "Last Point Shop", "name:en": "Last point", "shop": "alcohol"}}, {"type": "node", "id": 9510285817, "lat": 40.9844553, "lon": 29.021944, "tags": {"name": "Sevg\u0131 g\u0131da pazar\u0131", "shop": "alcohol"}}, {"type": "node", "id": 9582684517, "lat": 40.9903314, "lon": 29.0275512, "tags": {"name": "Arslan Tekel", "shop": "alcohol"}}, {"type": "node", "id": 9623590817, "lat": 40.9863109, "lon": 29.0221248, "tags": {"addr:city": "\u0130stanbul", "addr:district": "Kad\u0131k\u00f6y", "addr:housenumber": "9B", "addr:neighbourhood": "Cafera\u011fa Mahallesi", "addr:street": "Tu\u011flac\u0131 Eminbey Soka\u011f\u0131", "name": "The tekel 2", "shop": "alcohol"}}, {"type": "node", "id": 9786517779, "lat": 40.9948194, "lon": 29.0296561, "tags": {"name": "De\u011firmen Tekel", "shop": "alcohol"}}, {"type": "node", "id": 9803662717, "lat": 40.9813148, "lon": 29.0235616, "tags": {"name": "Deniz Tekel", "shop": "alcohol"}}, {"type": "node", "id": 9806642418, "lat": 40.9855343, "lon": 29.021944, "tags": {"name": "Moda Zilzurna", "shop": "alcohol"}}, {"type": "node", "id": 9813358719, "lat": 40.9876982, "lon": 29.0315113, "tags": {"name": "Alp Tekel", "shop": "alcohol"}}, {"type": "node", "id": 9819569917, "lat": 40.988023, "lon": 29.0278785, "tags": {"addr:postcode": "34710", "name": "Simurg", "shop": "alcohol"}}, {"type": "node", "id": 9823730535, "lat": 40.9964516, "lon": 29.0290359, "tags": {"addr:city": "\u0130stanbul", "addr:district": "Kad\u0131k\u00f6y", "addr:housenumber": "57B", "addr:neighbourhood": "Rasimpa\u015fa Mahallesi", "addr:street": "\u0130skele Soka\u011f\u0131", "name": "Deniz Tekel", "shop": "alcohol"}}, {"type": "node", "id": 9869851817, "lat": 40.9890097, "lon": 29.022727, "tags": {"name": "S\u0131cak bar", "shop": "alcohol"}}, {"type": "node", "id": 10149339318, "lat": 40.9874728, "lon": 29.0276494, "tags": {"name": "Deniz Tekel", "shop": "alcohol"}}, {"type": "node", "id": 10149340717, "lat": 40.9885659, "lon": 29.0276217, "tags": {"name:en": "Blue shop", "shop": "alcohol"}}, {"type": "node", "id": 10178082391, "lat": 40.9902775, "lon": 29.0267988, "tags": {"addr:housenumber": "12A", "addr:street": "K\u0131rtasiyeci Sokak", "name": "G\u00fcneysu Tekel", "shop": "alcohol"}}, {"type": "node", "id": 10209469018, "lat": 40.987626, "lon": 29.0265854, "tags": {"addr:housenumber": "19", "addr:street": "Sak\u0131z G\u00fcl\u00fc Soka\u011f\u0131", "name": "Tekel House 2", "shop": "alcohol"}}, {"type": "node", "id": 10209469021, "lat": 40.9879534, "lon": 29.0262119, "tags": {"name": "On +1 Bade", "shop": "alcohol"}}, {"type": "way", "id": 695616914, "nodes": [6532025722, 6532025723, 6532025720, 6532025724, 6532025722], "tags": {"building": "yes", "name": "Olcay Tekel", "shop": "alcohol"}}, {"type": "way", "id": 695616939, "nodes": [6532025817, 6532025814, 6532025815, 6532025820, 6532025821, 6532025822, 6532025817], "tags": {"building": "yes", "name": "Tekel", "shop": "alcohol"}}, {"type": "way", "id": 695616974, "nodes": [6532025959, 6532025963, 6532025964, 6532025965, 6532025959], "tags": {"building": "yes", "name": "Inan Tekel", "shop": "alcohol"}}]}