{"version": 0.6, "generator": "Overpass API 0.7.60 f4c14d41", "osm3s": {"timestamp_osm_base": "2023-05-02T21:20:24Z", "copyright": "The data included in this document is from www.openstreetmap.org. The data is made available under ODbL."}, "elements": [{"type": "node", "id": 340459737, "lat": -22.9240321, "lon": -43.1778721, "tags": {"addr:postcode": "22211-200", "addr:street": "Rua Pedro Am\u00e9rico", "created_by": "Potlatch 0.10f", "shop": "alcohol"}}, {"type": "node", "id": 678555512, "lat": -22.914946, "lon": -43.178072, "tags": {"addr:housenumber": "34", "addr:street": "Rua da Lapa", "shop": "alcohol", "source": "survey"}}, {"type": "node", "id": 704992219, "lat": -22.9284543, "lon": -43.1743759, "tags": {"addr:city": "Rio de Janeiro", "addr:country": "BR", "addr:housenumber": "9B", "addr:postcode": "22210-050", "addr:street": "Rua Corr\u00eaa Dutra", "amenity": "pub", "name": "Caf\u00e9 e Bar Caim\u00e3", "shop": "alcohol", "source": "survey"}}, {"type": "node", "id": 704992225, "lat": -22.9284741, "lon": -43.1742364, "tags": {"addr:city": "Rio de Janeiro", "addr:country": "BR", "addr:housenumber": "9A", "addr:postcode": "22210-050", "addr:street": "Rua Corr\u00eaa Dutra", "addr:suburb": "Flamengo", "name": "Beira Mar", "shop": "alcohol", "source": "survey"}}, {"type": "node", "id": 939170986, "lat": -22.9344077, "lon": -43.1820572, "tags": {"addr:city": "Rio de Janeiro", "addr:country": "BR", "addr:housenumber": "65", "addr:street": "Rua Ipiranga", "name": "Symposium Vinhos", "phone": "+55-21-22053122", "shop": "alcohol", "website": "http://www.symposiumvinhos.com.br/"}}, {"type": "node", "id": 939170988, "lat": -22.9348166, "lon": -43.182071, "tags": {"name": "Distribuidora de Bebidas Laranjeiras", "shop": "alcohol"}}, {"type": "node", "id": 1187790479, "lat": -22.8648167, "lon": -43.3737176, "tags": {"shop": "alcohol"}}, {"type": "node", "id": 1198842688, "lat": -22.9141827, "lon": -43.1790592, "tags": {"name": "Dep\u00f3sito do Maranh\u00e3o", "shop": "alcohol"}}, {"type": "node", "id": 1198846264, "lat": -22.9140842, "lon": -43.1787746, "tags": {"name": "Dany Star", "shop": "alcohol"}}, {"type": "node", "id": 1457107119, "lat": -22.902956, "lon": -43.1761981, "tags": {"name": "Whiskeria Manhattan", "shop": "alcohol"}}, {"type": "node", "id": 1611067014, "lat": -22.8259003, "lon": -43.3135245, "tags": {"name": "N. S. das Neves", "shop": "alcohol"}}, {"type": "node", "id": 1622795491, "lat": -22.9244797, "lon": -43.1792293, "tags": {"shop": "alcohol"}}, {"type": "node", "id": 2003522869, "lat": -22.9156154, "lon": -43.2314905, "tags": {"name": "Nova D\u00e9lhi", "shop": "alcohol"}}, {"type": "node", "id": 2010074641, "lat": -22.826919, "lon": -43.3114049, "tags": {"name": "Dep\u00f3sito do Rambo", "shop": "alcohol"}}, {"type": "node", "id": 2015314152, "lat": -22.9950531, "lon": -43.2399448, "tags": {"name": "Dico", "shop": "alcohol"}}, {"type": "node", "id": 2084558917, "lat": -22.8262723, "lon": -43.3107512, "tags": {"shop": "alcohol", "source": "survey"}}, {"type": "node", "id": 2262788185, "lat": -22.8368036, "lon": -43.3319709, "tags": {"addr:housenumber": "213", "addr:street": "Estrada do Col\u00e9gio", "name": "Dep\u00f3sito GZ", "shop": "alcohol", "source": "survey"}}, {"type": "node", "id": 2300353797, "lat": -22.9138416, "lon": -43.1818479, "tags": {"name": "Farias Ribeiro Comercio de Bebidas ltda", "shop": "alcohol", "source": "survey"}}, {"type": "node", "id": 2322567470, "lat": -22.9553895, "lon": -43.1967169, "tags": {"name": "Humait\u00e1 Delicatessen", "shop": "alcohol", "source": "survey"}}, {"type": "node", "id": 2322567475, "lat": -22.9554341, "lon": -43.1968585, "tags": {"name": "Candy Delicatesse", "phone": "+55-21-25262526", "shop": "alcohol", "source": "survey"}}, {"type": "node", "id": 2346705375, "lat": -22.8980598, "lon": -43.220245, "tags": {"name": "Gaspar", "shop": "alcohol", "source": "survey"}}, {"type": "node", "id": 3381455792, "lat": -22.8450802, "lon": -43.3381601, "tags": {"name": "Distribuidora de Bebidas GFS", "shop": "alcohol"}}, {"type": "node", "id": 4167717192, "lat": -22.9058103, "lon": -43.1749489, "tags": {"name": "Bergut Vinho & Bistr\u00f4", "shop": "alcohol"}}, {"type": "node", "id": 4264652852, "lat": -22.8928687, "lon": -43.2951716, "tags": {"name": "Rio Bebida", "shop": "alcohol"}}, {"type": "node", "id": 4264655351, "lat": -22.9077538, "lon": -43.2769271, "tags": {"shop": "alcohol"}}, {"type": "node", "id": 4336938505, "lat": -22.976303, "lon": -43.1901452, "tags": {"name": "Planeta Sonho", "shop": "alcohol"}}, {"type": "node", "id": 4401503605, "lat": -22.894926, "lon": -43.4415738, "tags": {"addr:city": "Rio de Janeiro", "addr:street": "Travessa Santa B\u00e1rbara", "addr:suburb": "Realengo", "drive_through": "no", "name": "Bar do Seu Paulo", "shop": "alcohol"}}]}