{"version": 0.6, "generator": "Overpass API 0.7.60.2 e4cf9f7a", "osm3s": {"timestamp_osm_base": "2023-05-02T19:59:26Z", "copyright": "The data included in this document is from www.openstreetmap.org. The data is made available under ODbL."}, "elements": [{"type": "node", "id": 1112469084, "lat": -33.9547688, "lon": 150.9984521}, {"type": "node", "id": 1112469090, "lat": -33.9547917, "lon": 150.9986651}, {"type": "node", "id": 1112469094, "lat": -33.9548697, "lon": 150.9986266}, {"type": "node", "id": 1112469095, "lat": -33.9548468, "lon": 150.9984399}, {"type": "node", "id": 1112469101, "lat": -33.9548725, "lon": 150.9986524}, {"type": "node", "id": 2141119882, "lat": -33.9535547, "lon": 151.0340595, "tags": {"addr:city": "Padstow", "addr:postcode": "2211", "addr:street": "Faraday Road", "amenity": "gambling", "name": "TAB", "source": "survey"}}, {"type": "node", "id": 9231692326, "lat": -33.9184976, "lon": 151.0337057, "tags": {"amenity": "gambling", "name": "Tab"}}, {"type": "way", "id": 96019467, "nodes": [1112469084, 1112469090, 1112469101, 1112469094, 1112469095, 1112469084], "tags": {"amenity": "gambling", "building": "yes", "gambling": "betting", "name": "Panania TAB"}}]}