{"version": 0.6, "generator": "Overpass API 0.7.60 f4c14d41", "osm3s": {"timestamp_osm_base": "2023-05-02T21:19:24Z", "copyright": "The data included in this document is from www.openstreetmap.org. The data is made available under ODbL."}, "elements": [{"type": "node", "id": 677594849, "lat": -22.9127274, "lon": -43.1771766, "tags": {"addr:housenumber": "62A", "addr:street": "Rua do Passeio", "amenity": "ice_cream", "name": "McDonalds", "source": "survey"}}, {"type": "node", "id": 2292886744, "lat": -22.9013128, "lon": -43.1221324, "tags": {"addr:city": "Niter\u00f3i", "addr:housenumber": "217", "addr:postcode": "24210510", "addr:street": "Rua Tiradentes", "addr:suburb": "Ing\u00e1", "amenity": "ice_cream", "name": "JAWS A\u00c7A\u00cd", "source": "survey"}}, {"type": "node", "id": 3064241086, "lat": -22.8028913, "lon": -43.1819234, "tags": {"addr:city": "Rio de Janeiro", "addr:housenumber": "2326", "addr:postcode": "21910005", "addr:street": "Avenida Paranapu\u00e3", "addr:suburb": "Cocot\u00e1", "amenity": "ice_cream", "name": "Ilha Tropical Sorvetes", "opening_hours": "08:00-19:00", "outdoor_seating": "yes"}}, {"type": "node", "id": 3326486811, "lat": -22.9749027, "lon": -43.2285561}, {"type": "node", "id": 3327291495, "lat": -22.97501, "lon": -43.2285979}, {"type": "node", "id": 3327291497, "lat": -22.9749689, "lon": -43.2285128}, {"type": "node", "id": 3327291498, "lat": -22.9749346, "lon": -43.2286408}, {"type": "node", "id": 3465755585, "lat": -22.9453232, "lon": -43.3640275, "tags": {"addr:city": "Rio de Janeiro", "addr:housenumber": "1332", "addr:postcode": "22770-334", "addr:street": "Estrada Marechal Miguel Salazar Mendes de Morais", "addr:suburb": "Cidade de Deus", "amenity": "ice_cream", "name": "Moleka", "phone": "+55 21 2443-1456"}}, {"type": "node", "id": 4548498265, "lat": -22.9845196, "lon": -43.2021061, "tags": {"addr:housenumber": "260", "amenity": "ice_cream", "name": "Vero"}}, {"type": "node", "id": 4715752298, "lat": -23.0185772, "lon": -43.4610249, "tags": {"amenity": "ice_cream", "level": "0", "name": "Fabuloso Armaz\u00e9m do Sorvete"}}, {"type": "node", "id": 4905109839, "lat": -22.9697015, "lon": -43.413387, "tags": {"addr:unit": "104", "amenity": "ice_cream", "name": "40 Sabores", "opening_hours": "Mo 10:00-20:00, Tu-Sa 10:00-23:00, Su 13:00-23:00", "outdoor_seating": "yes"}}, {"type": "node", "id": 4958568204, "lat": -22.9922286, "lon": -43.4460107, "tags": {"amenity": "ice_cream", "name": "Moleka"}}, {"type": "node", "id": 5225230252, "lat": -23.0143718, "lon": -43.4696758}, {"type": "node", "id": 5225230253, "lat": -23.0143629, "lon": -43.4696374}, {"type": "node", "id": 5225230254, "lat": -23.0143174, "lon": -43.4696498}, {"type": "node", "id": 5225230255, "lat": -23.0143263, "lon": -43.4696882}, {"type": "node", "id": 5230310942, "lat": -23.0093151, "lon": -43.3642832, "tags": {"amenity": "ice_cream"}}, {"type": "node", "id": 5259111342, "lat": -22.8683589, "lon": -43.2179027, "tags": {"amenity": "ice_cream"}}, {"type": "node", "id": 5300691169, "lat": -22.9380992, "lon": -43.6586325, "tags": {"amenity": "ice_cream"}}, {"type": "node", "id": 5739925235, "lat": -22.9129706, "lon": -43.1860925, "tags": {"addr:city": "Rio de Janeiro", "addr:housenumber": "14", "addr:postcode": "20231-024", "addr:street": "Rua Ubaldino do Amaral", "addr:suburb": "Lapa", "amenity": "ice_cream", "name": "A\u00e7a\u00ed Mais Sabor"}}, {"type": "node", "id": 5907441402, "lat": -22.9823673, "lon": -43.4628587, "tags": {"amenity": "ice_cream", "name": "Luque Sorvetes"}}, {"type": "node", "id": 5986796997, "lat": -22.9974882, "lon": -43.3586253, "tags": {"addr:city": "Rio de Janeiro", "addr:suburb": "Barra da Tijuca", "addr:unit": "216C", "amenity": "ice_cream", "brand": "Ben & Jerry's", "brand:wikidata": "Q816412", "brand:wikipedia": "en:Ben & Jerry's", "cuisine": "ice_cream", "diet:vegan": "yes", "level": "2", "name": "Ben & Jerry's", "outdoor_seating": "no"}}, {"type": "node", "id": 5994418539, "lat": -23.0011286, "lon": -43.366365, "tags": {"amenity": "ice_cream", "name": "Bob's Shakes"}}, {"type": "node", "id": 6103031850, "lat": -23.0070737, "lon": -43.3109967, "tags": {"amenity": "ice_cream", "cuisine": "milkshake", "level": "-1", "name": "Bob's Shakes"}}, {"type": "node", "id": 6314867309, "lat": -22.9125422, "lon": -43.2060814, "tags": {"amenity": "ice_cream", "coffee": "yes", "name": "It\u00e1lia"}}, {"type": "node", "id": 6380870288, "lat": -22.8692321, "lon": -43.3306241, "tags": {"addr:city": "Rio de Janeiro", "addr:postcode": "21360280", "addr:street": "Rua Frederico Lima", "addr:suburb": "Madureira", "amenity": "ice_cream", "name": "Sorveteria Gourmet"}}, {"type": "node", "id": 6474151924, "lat": -22.915123, "lon": -43.2430806, "tags": {"amenity": "ice_cream", "name": "40 sabores"}}, {"type": "node", "id": 6644719988, "lat": -22.9359221, "lon": -43.177105, "tags": {"amenity": "ice_cream", "name": "30 Sabores", "outdoor_seating": "no"}}, {"type": "node", "id": 6644720004, "lat": -22.9340421, "lon": -43.1771289, "tags": {"amenity": "ice_cream", "name": "Maria A\u00e7a\u00ed", "outdoor_seating": "yes"}}, {"type": "node", "id": 6717385668, "lat": -22.8515428, "lon": -43.381621, "tags": {"amenity": "ice_cream", "name": "A\u00e7a\u00ed", "outdoor_seating": "no"}}, {"type": "node", "id": 6837924367, "lat": -22.9433914, "lon": -43.3818862}, {"type": "node", "id": 6837924369, "lat": -22.9433311, "lon": -43.3818376}, {"type": "node", "id": 6837924370, "lat": -22.9434063, "lon": -43.3817277}, {"type": "node", "id": 6837924371, "lat": -22.9434666, "lon": -43.3817763}, {"type": "node", "id": 6896409049, "lat": -22.9524938, "lon": -43.3836474}, {"type": "node", "id": 6896409050, "lat": -22.9524806, "lon": -43.3838462}, {"type": "node", "id": 6896409051, "lat": -22.9525628, "lon": -43.3838549}, {"type": "node", "id": 6896409052, "lat": -22.9525655, "lon": -43.3837799}, {"type": "node", "id": 6896409053, "lat": -22.9525973, "lon": -43.3837799}, {"type": "node", "id": 6896409054, "lat": -22.952603, "lon": -43.3836531}, {"type": "node", "id": 7193780062, "lat": -22.9115671, "lon": -43.2022635, "tags": {"amenity": "ice_cream", "name": "Fatto a Mano"}}, {"type": "node", "id": 7201716010, "lat": -22.9549802, "lon": -43.1822737}, {"type": "node", "id": 8075510215, "lat": -22.9978672, "lon": -43.3584048, "tags": {"addr:city": "Rio de Janeiro", "addr:suburb": "Barra da Tijuca", "addr:unit": "210B", "amenity": "ice_cream", "level": "2", "name": "La Fruteria", "outdoor_seating": "no"}}, {"type": "node", "id": 8077932843, "lat": -22.9363623, "lon": -43.1899101, "tags": {"addr:city": "Rio de Janeiro", "addr:country": "BR", "addr:housenumber": "371B", "addr:postcode": "22240-004", "addr:street": "Rua das Laranjeiras", "addr:suburb": "Laranjeiras", "amenity": "ice_cream", "name": "It\u00e1lia"}}, {"type": "node", "id": 8078695666, "lat": -22.9473807, "lon": -43.1827648, "tags": {"addr:city": "Rio de Janeiro", "addr:suburb": "Botafogo", "amenity": "ice_cream", "brand": "Bacio di Latte", "brand:wikidata": "Q110249379", "coffee": "yes", "diet:vegan": "yes", "level": "1", "name": "Bacio di Latte", "outdoor_seating": "no"}}, {"type": "node", "id": 8211062337, "lat": -22.8925031, "lon": -43.566017}, {"type": "node", "id": 8211062338, "lat": -22.8924976, "lon": -43.5660022}, {"type": "node", "id": 8211062340, "lat": -22.8924882, "lon": -43.5659764}, {"type": "node", "id": 8211062341, "lat": -22.8923131, "lon": -43.5660927}, {"type": "node", "id": 8211062342, "lat": -22.8924415, "lon": -43.5660416}, {"type": "node", "id": 8211066258, "lat": -22.8924253, "lon": -43.5659557}, {"type": "node", "id": 8211066259, "lat": -22.8924734, "lon": -43.5659358}, {"type": "node", "id": 8211066287, "lat": -22.8923979, "lon": -43.5659671}, {"type": "node", "id": 8211092338, "lat": -22.8923525, "lon": -43.566077}, {"type": "node", "id": 8211092341, "lat": -22.8923841, "lon": -43.5660644}, {"type": "node", "id": 8211092353, "lat": -22.8922896, "lon": -43.566012}, {"type": "node", "id": 8211101420, "lat": -22.8971729, "lon": -43.5789734}, {"type": "node", "id": 8211101421, "lat": -22.8971718, "lon": -43.5789964}, {"type": "node", "id": 8211101422, "lat": -22.8972455, "lon": -43.5790003}, {"type": "node", "id": 8211101423, "lat": -22.8972522, "lon": -43.5788525}, {"type": "node", "id": 8211101424, "lat": -22.8972389, "lon": -43.5788518}, {"type": "node", "id": 8211101425, "lat": -22.8972325, "lon": -43.5788514}, {"type": "node", "id": 8211103641, "lat": -22.8971786, "lon": -43.5788485}, {"type": "node", "id": 8211103644, "lat": -22.8971776, "lon": -43.578871}, {"type": "node", "id": 8517700694, "lat": -22.8403419, "lon": -43.306733, "tags": {"addr:city": "Rio de Janeiro", "addr:housenumber": "1328", "addr:state": "Rio de Janeiro", "addr:street": "Avenida Br\u00e1s de Pina", "amenity": "ice_cream", "contact:instagram": "https://www.instagram.com/eskimosorvetesoficial/", "email": "eskimo@eskimo.com.br", "facebook": "https://www.facebook.com/eskimosorvetesoficial/", "name": "eskim\u00f3 sorvetes", "outdoor_seating": "no", "website": "https://www.eskimo.com.br/"}}, {"type": "node", "id": 8564050579, "lat": -22.8441976, "lon": -43.3098458, "tags": {"addr:city": "Rio de Janeiro", "addr:street": "Rua Oliveira Belo", "addr:suburb": "Vila da Penha", "amenity": "ice_cream", "cuisine": "a\u00e7a\u00ed", "name": "Hi! Sorveteria A\u00e7aiteria", "phone": "+55 21 3592 6523"}}, {"type": "node", "id": 9077780927, "lat": -22.8922932, "lon": -43.1240033, "tags": {"amenity": "ice_cream", "name": "Sobremesas McDonald's"}}, {"type": "node", "id": 9234302312, "lat": -22.955035, "lon": -43.1822426}, {"type": "node", "id": 9234308373, "lat": -22.955019, "lon": -43.182205}, {"type": "node", "id": 9234308374, "lat": -22.9549629, "lon": -43.1822355}, {"type": "node", "id": 9275838045, "lat": -22.9566773, "lon": -43.3395524, "tags": {"amenity": "ice_cream", "name": "Bacio di Latte"}}, {"type": "node", "id": 9592358089, "lat": -22.9673611, "lon": -43.1789438, "tags": {"amenity": "ice_cream", "name": "Momo"}}, {"type": "node", "id": 9665678452, "lat": -22.9132034, "lon": -43.166595, "tags": {"amenity": "ice_cream", "brand": "Bacio di Latte", "brand:wikidata": "Q110249379", "coffee": "yes", "diet:vegan": "yes", "level": "0", "name": "Bacio di Latte", "shop": "kiosk"}}, {"type": "node", "id": 9678609459, "lat": -22.8064889, "lon": -43.1818978, "tags": {"addr:city": "Rio de Janeiro", "addr:housenumber": "711", "addr:postcode": "21921-525", "addr:street": "Rua Capit\u00e3o Barbosa", "addr:suburb": "Praia da Bandeira", "amenity": "ice_cream", "name": "Eskim\u00f3 Sorvetes", "opening_hours": "09:00-19:30"}}, {"type": "node", "id": 9688367158, "lat": -22.9083375, "lon": -43.533819, "tags": {"amenity": "ice_cream"}}, {"type": "node", "id": 9696103933, "lat": -22.9105573, "lon": -43.5320106, "tags": {"amenity": "ice_cream"}}, {"type": "node", "id": 9911749152, "lat": -22.9846045, "lon": -43.2009824, "tags": {"addr:city": "Rio de Janeiro", "addr:housenumber": "187", "addr:postcode": "22410-001", "addr:street": "Rua Visconde de Piraj\u00e1", "addr:suburb": "Ipanema", "amenity": "ice_cream", "name": "Sorvete It\u00e1lia"}}, {"type": "node", "id": 10054629808, "lat": -22.952512, "lon": -43.3873, "tags": {"addr:city": "Rio de Janeiro", "addr:street": "Rua Do Dialogo", "addr:suburb": "curicica", "amenity": "ice_cream", "name": "A\u00e7a\u00ed Show de Bola"}}, {"type": "node", "id": 10163681942, "lat": -22.9230555, "lon": -43.264436, "tags": {"addr:city": "Rio de Janeiro", "addr:housenumber": "81", "addr:postcode": "20561-010", "addr:street": "Avenida Julio Furtado", "addr:suburb": "Graja\u00fa", "amenity": "ice_cream", "cuisine": "coffee_shop;ice_cream;juice;sandwich", "name": "Gir\u00e3o Lanches", "phone": "+552125769193"}}, {"type": "node", "id": 10751071373, "lat": -23.0026156, "lon": -43.3086022, "tags": {"amenity": "ice_cream", "name": "Cravo e Canela"}}, {"type": "node", "id": 10774217899, "lat": -22.9149713, "lon": -43.1854885, "tags": {"addr:city": "Rio de Janeiro", "addr:housenumber": "181 - Lj. A", "addr:postcode": "20230-010", "addr:street": "Rua Riachuelo", "addr:suburb": "Lapa", "amenity": "ice_cream", "name": "Sorveteria 4 Esta\u00e7\u00f5es"}}, {"type": "node", "id": 10857006835, "lat": -22.886175, "lon": -43.2825045, "tags": {"amenity": "ice_cream", "brand": "Bacio di Latte", "brand:wikidata": "Q110249379", "coffee": "yes", "diet:vegan": "yes", "name": "Bacio di Latte"}}, {"type": "way", "id": 326112686, "nodes": [3327291495, 3327291498, 3326486811, 3327291497, 3327291495], "tags": {"amenity": "ice_cream", "indoor": "yes", "level": "0", "name": "Yoggi", "note": "a loja vende apenas frozen yogurt", "phone": "+55 21 3197 0469", "unit": "175", "website": "https://www.yoggi.com.br/"}}, {"type": "way", "id": 540052347, "nodes": [5225230252, 5225230253, 5225230254, 5225230255, 5225230252], "tags": {"amenity": "ice_cream", "building": "yes", "name": "McDonald's", "outdoor_seating": "no", "takeaway": "only"}}, {"type": "way", "id": 729942494, "nodes": [6837924367, 6837924369, 6837924370, 6837924371, 6837924367], "tags": {"addr:city": "Rio de Janeiro", "addr:postcode": "22710190", "addr:street": "Rua Itai\u00e7aba", "addr:suburb": "Curicica", "amenity": "ice_cream", "building": "yes", "name": "Top Dessert"}}, {"type": "way", "id": 736582673, "nodes": [6896409049, 6896409050, 6896409051, 6896409052, 6896409053, 6896409054, 6896409049], "tags": {"addr:city": "Rio de Janeiro", "addr:housenumber": "42", "addr:postcode": "22780670", "addr:street": "Rua Her\u00e1clito", "addr:suburb": "Curicica", "amenity": "ice_cream", "building": "yes", "name": "Sorveteria Normando"}}, {"type": "way", "id": 882949242, "nodes": [8211066287, 8211066258, 8211066259, 8211062340, 8211062338, 8211062337, 8211062342, 8211092341, 8211092338, 8211062341, 8211092353, 8211066287], "tags": {"amenity": "ice_cream", "building": "yes", "ele": "33.57", "height": "4.3"}}, {"type": "way", "id": 882956150, "nodes": [8211103641, 8211101425, 8211101424, 8211101423, 8211101422, 8211101421, 8211101420, 8211103644, 8211103641], "tags": {"amenity": "ice_cream", "building": "yes", "ele": "20.65", "height": "10.6", "layer": "2"}}, {"type": "way", "id": 1000407376, "nodes": [9234308374, 7201716010, 9234302312, 9234308373, 9234308374], "tags": {"IPP:CodEdificio": "1582543", "addr:city": "Rio de Janeiro", "addr:housenumber": "49", "addr:street": "Rua Fernandes Guimar\u00e3es", "addr:suburb": "Botafogo", "amenity": "ice_cream", "building": "yes", "ele": "2.84", "height": "7.62", "name": "Hoba", "outdoor_seating": "no", "source": "data.rio"}}]}