{"version": 0.6, "generator": "Overpass API 0.7.60 f4c14d41", "osm3s": {"timestamp_osm_base": "2023-05-02T21:20:24Z", "copyright": "The data included in this document is from www.openstreetmap.org. The data is made available under ODbL."}, "elements": [{"type": "node", "id": 983620983, "lat": 41.9421616, "lon": 12.5767975, "tags": {"addr:city": "Roma", "addr:country": "IT", "addr:housenumber": "6", "addr:postcode": "00156", "addr:street": "Via Casal Tidei", "name": "Frutteria Alimentari", "operator": "Costantinopoli SNC", "phone": "+39 06 41219199", "shop": "greengrocer", "wheelchair": "no"}}, {"type": "node", "id": 1137295531, "lat": 41.8148832, "lon": 12.6074363, "tags": {"addr:city": "Roma", "addr:housenumber": "79", "addr:postcode": "00118", "addr:street": "Via di Torre Morena", "mapillary": "502524354432934", "name": "Frutteria ...e non solo", "shop": "greengrocer"}}, {"type": "node", "id": 1143032461, "lat": 41.8071092, "lon": 12.4783285, "tags": {"shop": "greengrocer"}}, {"type": "node", "id": 1143032469, "lat": 41.8072611, "lon": 12.4792402, "tags": {"shop": "greengrocer"}}, {"type": "node", "id": 1227315835, "lat": 41.7359546, "lon": 12.2806013, "tags": {"shop": "greengrocer"}}, {"type": "node", "id": 1423872342, "lat": 41.8868108, "lon": 12.5194047, "tags": {"shop": "greengrocer"}}, {"type": "node", "id": 1428110975, "lat": 41.9240803, "lon": 12.446162, "tags": {"shop": "greengrocer"}}, {"type": "node", "id": 1428113488, "lat": 41.9122778, "lon": 12.442995, "tags": {"addr:city": "Roma", "addr:country": "IT", "addr:housenumber": "16", "addr:street": "Via Marziale", "name": "Non solo frutta...", "shop": "greengrocer"}}, {"type": "node", "id": 1507338551, "lat": 41.9113398, "lon": 12.6526515, "tags": {"name": "Frutteria", "shop": "greengrocer"}}, {"type": "node", "id": 1514249427, "lat": 41.9129829, "lon": 12.4501709, "tags": {"shop": "greengrocer"}}, {"type": "node", "id": 1538003830, "lat": 41.9073404, "lon": 12.4458269, "tags": {"addr:city": "Roma", "addr:country": "IT", "addr:housenumber": "58", "addr:street": "Via della Meloria", "name": "Frutteria", "operator": "Roshdy Abdel Raouf", "shop": "greengrocer"}}, {"type": "node", "id": 1550051650, "lat": 41.9116757, "lon": 12.4417987, "tags": {"note": "piccolo mercato all'aperto", "opening_hours": "Mo-Sa 06:00-12:30", "shop": "greengrocer"}}, {"type": "node", "id": 1591563326, "lat": 41.8574395, "lon": 12.4517902, "tags": {"shop": "greengrocer"}}, {"type": "node", "id": 1641654331, "lat": 41.9290619, "lon": 12.5154317, "tags": {"name": "banglarolo", "shop": "greengrocer"}}, {"type": "node", "id": 1641654399, "lat": 41.9262721, "lon": 12.5156597, "tags": {"shop": "greengrocer"}}, {"type": "node", "id": 1665755346, "lat": 41.8630876, "lon": 12.5476441, "tags": {"shop": "greengrocer"}}, {"type": "node", "id": 1694694936, "lat": 41.9198289, "lon": 12.525151, "tags": {"shop": "greengrocer"}}, {"type": "node", "id": 1740324338, "lat": 41.7909014, "lon": 12.6878094}, {"type": "node", "id": 1740324342, "lat": 41.790965, "lon": 12.6876584}, {"type": "node", "id": 1740324345, "lat": 41.79098, "lon": 12.6877944}, {"type": "node", "id": 1740324348, "lat": 41.790889, "lon": 12.6876796}, {"type": "node", "id": 1759856912, "lat": 41.8887605, "lon": 12.5279323, "tags": {"addr:city": "Roma", "addr:housenumber": "121", "addr:postcode": "00176", "addr:street": "Via del Pigneto", "shop": "greengrocer"}}, {"type": "node", "id": 1759856946, "lat": 41.8901953, "lon": 12.5239286, "tags": {"shop": "greengrocer"}}, {"type": "node", "id": 1800053029, "lat": 41.8742506, "lon": 12.5242186, "tags": {"addr:city": "Roma", "addr:housenumber": "4", "addr:postcode": "00181", "addr:street": "Via Camilla", "shop": "greengrocer"}}, {"type": "node", "id": 1822786068, "lat": 41.9210924, "lon": 12.4417882, "tags": {"shop": "greengrocer"}}, {"type": "node", "id": 1827732575, "lat": 41.7779112, "lon": 12.3425581, "tags": {"addr:housenumber": "43", "addr:street": "Via Francesco Donati", "shop": "greengrocer"}}, {"type": "node", "id": 1909843306, "lat": 41.8991331, "lon": 12.4283029, "tags": {"shop": "greengrocer"}}, {"type": "node", "id": 1985507311, "lat": 41.8988235, "lon": 12.535121, "tags": {"addr:city": "Roma", "addr:housenumber": "17", "addr:postcode": "00159", "addr:street": "Via Cesare Ricotti", "name": "Frutteria da Zio", "phone": "+393491752661", "shop": "greengrocer"}}, {"type": "node", "id": 2042501454, "lat": 41.9053394, "lon": 12.4479857, "tags": {"shop": "greengrocer"}}, {"type": "node", "id": 2149381667, "lat": 41.8181766, "lon": 12.6858276, "tags": {"shop": "greengrocer"}}, {"type": "node", "id": 2182366853, "lat": 41.9135835, "lon": 12.4433472, "tags": {"shop": "greengrocer"}}, {"type": "node", "id": 2218327607, "lat": 41.8386933, "lon": 12.6013157, "tags": {"addr:city": "Roma", "addr:housenumber": "279", "addr:postcode": "00173", "addr:street": "Via Francesco di Benedetto", "name": "Frutteria", "shop": "greengrocer"}}, {"type": "node", "id": 2866631052, "lat": 41.7388009, "lon": 12.2865591, "tags": {"addr:city": "Roma", "addr:postcode": "00122", "addr:street": "Via Capo Spartivento", "shop": "greengrocer", "wheelchair": "yes"}}, {"type": "node", "id": 3211590337, "lat": 41.8654166, "lon": 12.5929937, "tags": {"addr:city": "Roma", "addr:housenumber": "44", "addr:postcode": "00169", "addr:street": "Via delle Rondini", "name": "Fruttivendolo", "shop": "greengrocer"}}, {"type": "node", "id": 3388069412, "lat": 41.9448907, "lon": 12.5590133, "tags": {"shop": "greengrocer"}}, {"type": "node", "id": 3507247428, "lat": 41.7333223, "lon": 12.2906396, "tags": {"addr:city": "Roma", "addr:housenumber": "26", "addr:postcode": "00122", "addr:street": "Via Carlo del Greco", "check_date:opening_hours": "2023-02-17", "name": "la belva del deserto", "opening_hours:signed": "no", "shop": "greengrocer"}}, {"type": "node", "id": 3661055041, "lat": 41.9288257, "lon": 12.5125256, "tags": {"shop": "greengrocer"}}, {"type": "node", "id": 3661055045, "lat": 41.9278539, "lon": 12.5222554, "tags": {"shop": "greengrocer"}}, {"type": "node", "id": 3670935603, "lat": 41.8564986, "lon": 12.5505559, "tags": {"name": "frutteria", "shop": "greengrocer"}}, {"type": "node", "id": 3779291328, "lat": 41.8460056, "lon": 12.4832468, "tags": {"addr:housenumber": "15", "addr:street": "Via Fonte Buono", "name": "Filip di Islam", "operator": "Filip di Islam Nazrul & C. S.N.C.", "ref:vatin": "IT07861291008", "sells:beer": "yes", "shop": "greengrocer"}}, {"type": "node", "id": 3779291329, "lat": 41.8459006, "lon": 12.4830944, "tags": {"addr:housenumber": "10", "addr:street": "Via Vedana", "shop": "greengrocer"}}, {"type": "node", "id": 3934554735, "lat": 41.7756537, "lon": 12.2413848}, {"type": "node", "id": 3934554736, "lat": 41.7757016, "lon": 12.2413461}, {"type": "node", "id": 3934554738, "lat": 41.7757343, "lon": 12.2415641}, {"type": "node", "id": 3934554739, "lat": 41.7757458, "lon": 12.2415548}, {"type": "node", "id": 3934554740, "lat": 41.7757519, "lon": 12.2415683}, {"type": "node", "id": 3934554743, "lat": 41.7757587, "lon": 12.2415063}, {"type": "node", "id": 3934554745, "lat": 41.7757697, "lon": 12.2414974}, {"type": "node", "id": 3934554746, "lat": 41.7757774, "lon": 12.2415478}, {"type": "node", "id": 3996441139, "lat": 41.864849, "lon": 12.5544266, "tags": {"addr:city": "Roma", "addr:country": "IT", "addr:housenumber": "103", "addr:street": "Via Scribonio Curione", "name": "Discount frutta verdura", "shop": "greengrocer"}}, {"type": "node", "id": 4036104045, "lat": 41.8272897, "lon": 12.6489034}, {"type": "node", "id": 4183252379, "lat": 41.8986972, "lon": 12.5163667, "tags": {"addr:city": "Roma", "addr:postcode": "00185", "addr:street": "Piazza dei Sanniti", "shop": "greengrocer"}}, {"type": "node", "id": 4198444989, "lat": 41.8548056, "lon": 12.471831, "tags": {"addr:city": "Roma", "addr:housenumber": "576", "addr:postcode": "00146", "addr:street": "Viale Guglielmo Marconi", "description": "also sells sandwiches and prepared pasta to go and similar", "name": "Frutteria", "operator": "Pali Srls.", "phone": "+39 06 5578796", "ref:vatin": "IT13962211002", "shop": "greengrocer"}}, {"type": "node", "id": 4232216450, "lat": 41.8968761, "lon": 12.513529, "tags": {"addr:city": "Roma", "addr:housenumber": "30", "addr:postcode": "00185", "addr:street": "Via dei Latini", "name": "Le prelibatezze della terra", "shop": "greengrocer"}}, {"type": "node", "id": 4252794803, "lat": 41.7866924, "lon": 12.6731566, "tags": {"name": "Da Massimo", "shop": "greengrocer"}}, {"type": "node", "id": 4282063589, "lat": 41.8861881, "lon": 12.4722159, "tags": {"addr:housenumber": "106", "addr:street": "Via di San Francesco a Ripa", "name": "Il Canestro", "shop": "greengrocer"}}, {"type": "node", "id": 4284350448, "lat": 41.895855, "lon": 12.450369, "tags": {"fixme": "has been added from a note, please survey and add name etc.", "shop": "greengrocer"}}, {"type": "node", "id": 4295002305, "lat": 41.8674033, "lon": 12.626624, "tags": {"name": "Frutteria Fruttolandia", "shop": "greengrocer"}}, {"type": "node", "id": 4406959011, "lat": 41.8082947, "lon": 12.6816051, "tags": {"organic": "yes", "shop": "greengrocer"}}, {"type": "node", "id": 4406959022, "lat": 41.8087002, "lon": 12.6809062, "tags": {"shop": "greengrocer"}}, {"type": "node", "id": 4407020109, "lat": 41.8093507, "lon": 12.6773005, "tags": {"shop": "greengrocer"}}, {"type": "node", "id": 4407045146, "lat": 41.8089529, "lon": 12.6817072, "tags": {"name": "Belva del deserto", "name:it": "Belva del deserto", "shop": "greengrocer"}}, {"type": "node", "id": 4408108880, "lat": 41.807474, "lon": 12.6752026, "tags": {"shop": "greengrocer"}}, {"type": "node", "id": 4414032804, "lat": 41.8628131, "lon": 12.5538413, "tags": {"shop": "greengrocer"}}, {"type": "node", "id": 4416421453, "lat": 41.8630791, "lon": 12.5544494, "tags": {"shop": "greengrocer"}}, {"type": "node", "id": 4432231007, "lat": 41.8725171, "lon": 12.5986265}, {"type": "node", "id": 4432231008, "lat": 41.8724432, "lon": 12.5986239}, {"type": "node", "id": 4432231009, "lat": 41.8724443, "lon": 12.5985716}, {"type": "node", "id": 4485092039, "lat": 41.7331855, "lon": 12.3002012, "tags": {"shop": "greengrocer"}}, {"type": "node", "id": 4578311640, "lat": 42.0001944, "lon": 12.6315411, "tags": {"shop": "greengrocer"}}, {"type": "node", "id": 4578344724, "lat": 41.998812, "lon": 12.6255959, "tags": {"name": "Frutta e verdura", "shop": "greengrocer"}}, {"type": "node", "id": 4609662564, "lat": 41.8774838, "lon": 12.4739518, "tags": {"addr:city": "Roma", "addr:housename": "Nuovo Mercato Testaccio", "addr:unit": "Box 82", "contact:mobile": "+39 339 3767036", "facebook": "https://www.facebook.com/fuoridizuccanuovomercatotestaccio/", "name": "Fuori di zucca", "shop": "greengrocer", "website": "http://www.mercatoditestaccio.it/banco/fuori-di-zucca/"}}, {"type": "node", "id": 4622034985, "lat": 41.8607394, "lon": 12.5542697, "tags": {"addr:city": "Roma", "addr:country": "IT", "addr:housenumber": "14", "addr:street": "Via del Quadraro", "name": "Friends Alimentare", "shop": "greengrocer"}}, {"type": "node", "id": 4622082932, "lat": 41.8618609, "lon": 12.5557704, "tags": {"addr:city": "Roma", "addr:country": "IT", "addr:housenumber": "28", "addr:postcode": "00175", "addr:street": "Via dell'Aeroporto", "shop": "greengrocer"}}, {"type": "node", "id": 4644322989, "lat": 41.7834163, "lon": 12.3615961, "tags": {"addr:housenumber": "80", "addr:street": "Via Angelo Zottoli", "name": "Gazi shop", "name:it": "Gazi shop", "shop": "greengrocer"}}, {"type": "node", "id": 4660810589, "lat": 41.7605291, "lon": 12.3031747, "tags": {"name": "minimarket", "shop": "greengrocer"}}, {"type": "node", "id": 4686056369, "lat": 41.8643723, "lon": 12.5551244, "tags": {"addr:city": "Roma", "addr:country": "IT", "addr:housenumber": "99", "addr:street": "Via Vestricio Spurinna", "name": "MD Supermarket", "shop": "greengrocer"}}, {"type": "node", "id": 4706307612, "lat": 41.6742662, "lon": 12.5000545, "tags": {"addr:housenumber": "136", "addr:street": "Via Roma", "name": "Terra dell'Etna", "shop": "greengrocer"}}, {"type": "node", "id": 4706368229, "lat": 41.672905, "lon": 12.4984214, "tags": {"addr:housenumber": "141", "name": "Fares", "shop": "greengrocer"}}, {"type": "node", "id": 4769740954, "lat": 41.8797236, "lon": 12.5422613, "tags": {"addr:city": "Roma", "addr:housenumber": "17", "addr:postcode": "00177", "addr:street": "Via di Tor Pignattara", "shop": "greengrocer"}}, {"type": "node", "id": 4769796522, "lat": 41.8634446, "lon": 12.4838083, "tags": {"addr:housenumber": "11/12", "addr:postcode": "00154", "addr:street": "Piazza Pantero Pantera", "name": "Fruttamania", "operator": "Cristian Falessi", "phone": "+39 3476598361", "ref:vatin": "IT11291841002", "shop": "greengrocer"}}, {"type": "node", "id": 4862225447, "lat": 41.9149979, "lon": 12.5470007, "tags": {"addr:city": "Roma", "addr:housenumber": "177", "addr:postcode": "00157", "addr:street": "Via Filippo Meda", "level": "0", "shop": "greengrocer"}}, {"type": "node", "id": 4924889614, "lat": 41.8252009, "lon": 12.6892419, "tags": {"name": "Bancarella Fruttivendolo", "shop": "greengrocer"}}, {"type": "node", "id": 4954695178, "lat": 41.8440185, "lon": 12.4874512, "tags": {"shop": "greengrocer"}}, {"type": "node", "id": 4963646474, "lat": 41.8553707, "lon": 12.4844419, "tags": {"addr:housenumber": "40", "addr:street": "Via della Villa di Lucina", "name": "Frutteria", "shop": "greengrocer"}}, {"type": "node", "id": 5168760216, "lat": 41.8919411, "lon": 12.5618518, "tags": {"addr:city": "Roma", "addr:housenumber": "49", "addr:street": "Via Giacomo Bresadola", "shop": "greengrocer"}}, {"type": "node", "id": 5313787098, "lat": 41.8814479, "lon": 12.5093035, "tags": {"name": "Centro Frutta", "shop": "greengrocer"}}, {"type": "node", "id": 5348490621, "lat": 41.9960591, "lon": 12.4861671, "tags": {"name": "Frutteria Marina", "shop": "greengrocer"}}, {"type": "node", "id": 5384442598, "lat": 41.8879864, "lon": 12.5669671, "tags": {"addr:city": "Roma", "addr:housenumber": "18B", "addr:postcode": "00171", "addr:street": "Piazza delle Iris", "description": "Frutta e verdura fresca, bio e responsabile, proveniente da piccoli produttori locali e assemblata con estro dello chef Adriano", "name": "Brutta e Verdura", "opening_hours": "Mo-Su 08:30-19:30", "phone": "+390625394533", "shop": "greengrocer", "website": "https://www.facebook.com/BruttaeVerdura/"}}, {"type": "node", "id": 5407542978, "lat": 41.9833032, "lon": 12.5136122}, {"type": "node", "id": 5407542979, "lat": 41.9832865, "lon": 12.5137245}, {"type": "node", "id": 5407542980, "lat": 41.9832205, "lon": 12.5137068}, {"type": "node", "id": 5407542981, "lat": 41.9832372, "lon": 12.5135944}, {"type": "node", "id": 5409906345, "lat": 41.874999, "lon": 12.4660868, "tags": {"shop": "greengrocer"}}, {"type": "node", "id": 5462737121, "lat": 41.8725182, "lon": 12.5985742}, {"type": "node", "id": 5475644050, "lat": 41.8669695, "lon": 12.4868336, "tags": {"shop": "greengrocer"}}, {"type": "node", "id": 5486538418, "lat": 41.8679858, "lon": 12.5721739, "tags": {"addr:city": "Roma", "addr:housenumber": "73", "addr:postcode": "00169", "addr:street": "Via Mario Lizzani", "name": "Frutta e Verdura", "operator": "Kamal Abd el Rahman Elkot Reda", "phone": "+39 327 9829979", "ref:vatin": "IT11240321007", "shop": "greengrocer"}}, {"type": "node", "id": 5535634425, "lat": 42.0026048, "lon": 12.3826811, "tags": {"name": "Fratelli di", "shop": "greengrocer"}}, {"type": "node", "id": 5552804100, "lat": 41.9141014, "lon": 12.571278, "tags": {"name": "Ortofrutta", "shop": "greengrocer"}}, {"type": "node", "id": 5598320421, "lat": 41.8918586, "lon": 12.4686999, "tags": {"name": "Er cimotto", "shop": "greengrocer"}}, {"type": "node", "id": 5633559024, "lat": 41.7697039, "lon": 12.659574, "tags": {"shop": "greengrocer"}}, {"type": "node", "id": 5810296354, "lat": 41.8775669, "lon": 12.5235971, "tags": {"shop": "greengrocer"}}, {"type": "node", "id": 5810312053, "lat": 41.8769256, "lon": 12.5228118, "tags": {"shop": "greengrocer"}}, {"type": "node", "id": 5922649670, "lat": 41.8670238, "lon": 12.5870988, "tags": {"addr:city": "Roma", "addr:housenumber": "236", "addr:postcode": "00169", "addr:street": "Via di Torre Spaccata", "name": "Habib Frutta", "shop": "greengrocer"}}, {"type": "node", "id": 5963278329, "lat": 41.8561238, "lon": 12.5609976, "tags": {"addr:city": "Roma", "addr:country": "IT", "addr:housenumber": "151", "addr:street": "Via Marco Valerio Corvo", "name": "Fruttamania", "shop": "greengrocer", "wheelchair": "limited"}}, {"type": "node", "id": 6086219558, "lat": 41.7852332, "lon": 12.3597264, "tags": {"addr:city": "Roma", "addr:housenumber": "3", "addr:postcode": "00126", "addr:street": "Via dei Monti di San Paolo", "name": "Ortofrutta IEGRI", "shop": "greengrocer"}}, {"type": "node", "id": 6191791486, "lat": 41.8750535, "lon": 12.2398408, "tags": {"shop": "greengrocer"}}, {"type": "node", "id": 6213770095, "lat": 41.8516493, "lon": 12.590892}, {"type": "node", "id": 6213770096, "lat": 41.8516553, "lon": 12.5909402}, {"type": "node", "id": 6213770097, "lat": 41.8515738, "lon": 12.5909583}, {"type": "node", "id": 6213770098, "lat": 41.8515679, "lon": 12.5909101}, {"type": "node", "id": 6372046005, "lat": 41.7382857, "lon": 12.2663054, "tags": {"addr:city": "Roma", "addr:housenumber": "43", "addr:postcode": "00121", "addr:street": "Via Arduino Forgiarini", "name": "Fruttivendolo", "shop": "greengrocer"}}, {"type": "node", "id": 6401099484, "lat": 41.8838238, "lon": 12.4198748, "tags": {"addr:housenumber": "83", "name": "La Boutique Della Frutta", "shop": "greengrocer"}}, {"type": "node", "id": 6427711121, "lat": 41.8737352, "lon": 12.4806686, "tags": {"name": "Frutta", "shop": "greengrocer"}}, {"type": "node", "id": 6439718201, "lat": 41.7298074, "lon": 12.2848112, "tags": {"addr:city": "Roma", "addr:housenumber": "14", "addr:postcode": "00122", "addr:street": "Via Pietro Rosa", "name": "Frutteria", "shop": "greengrocer", "survey:date": "2019-04-30"}}, {"type": "node", "id": 6782520285, "lat": 41.9014635, "lon": 12.4945687}, {"type": "node", "id": 6816885586, "lat": 41.9735894, "lon": 12.5146718, "tags": {"addr:city": "Roma", "addr:housenumber": "195/c", "addr:postcode": "00138", "addr:street": "Via Radicofani", "name": "Fruttivendolo", "shop": "greengrocer"}}, {"type": "node", "id": 6859268359, "lat": 41.9183374, "lon": 12.3733183}, {"type": "node", "id": 6859268360, "lat": 41.9183017, "lon": 12.3733233}, {"type": "node", "id": 6859268361, "lat": 41.9183064, "lon": 12.3733832}, {"type": "node", "id": 6859268362, "lat": 41.918342, "lon": 12.3733782}, {"type": "node", "id": 7022634988, "lat": 41.7341123, "lon": 12.2853482, "tags": {"name": "Frutteria", "shop": "greengrocer"}}, {"type": "node", "id": 7023477507, "lat": 41.7314562, "lon": 12.2749079, "tags": {"shop": "greengrocer"}}, {"type": "node", "id": 7033319497, "lat": 41.8575197, "lon": 12.4918453, "tags": {"alt_name": "Aldo", "name": "Frutta e Verdura", "note": "part of the market", "ref:vatin": "IT02062250598", "shop": "greengrocer"}}, {"type": "node", "id": 7046008585, "lat": 41.851319, "lon": 12.5869611, "tags": {"shop": "greengrocer"}}, {"type": "node", "id": 7056171526, "lat": 41.8571656, "lon": 12.4921303, "tags": {"addr:city": "Roma", "addr:street": "Via Rosa Guarnieri Carducci", "name": "Giuseppe Mirimich", "nohousenumber": "yes", "phone": "+39 347 8417943", "ref:vatin": "IT05103590583", "shop": "greengrocer"}}, {"type": "node", "id": 7060011321, "lat": 41.8630043, "lon": 12.4997257, "tags": {"addr:city": "Roma", "addr:housenumber": "12", "addr:postcode": "00147", "addr:street": "Via Eusebio Chini", "name": "L'orto delle meraviglie", "shop": "greengrocer"}}, {"type": "node", "id": 7088068669, "lat": 41.8520321, "lon": 12.4781298, "tags": {"shop": "greengrocer"}}, {"type": "node", "id": 7088520763, "lat": 41.9098427, "lon": 12.5201177, "tags": {"addr:city": "Roma", "addr:housenumber": "83", "addr:postcode": "00161", "addr:street": "Via Catania", "shop": "greengrocer"}}, {"type": "node", "id": 7117578550, "lat": 41.8766395, "lon": 12.5294243, "tags": {"addr:city": "Roma", "addr:housenumber": "19", "addr:postcode": "00181", "addr:street": "Piazza San Domenico Savio", "name": "Frutta e verdura", "shop": "greengrocer"}}, {"type": "node", "id": 7132651488, "lat": 41.8104449, "lon": 12.4316519, "tags": {"addr:city": "Roma", "addr:housenumber": "354", "addr:postcode": "00144", "addr:street": "Via Cina", "name": "La Mela", "operator": "Luigino Nanni", "shop": "greengrocer"}}, {"type": "node", "id": 7157112491, "lat": 41.8687199, "lon": 12.5310519, "tags": {"addr:city": "Roma", "addr:housenumber": "36", "addr:postcode": "00179", "addr:street": "Via dei Colli Albani", "name": "Fruttivendolo", "shop": "greengrocer"}}, {"type": "node", "id": 7159105116, "lat": 41.9081486, "lon": 12.538264, "tags": {"addr:housenumber": "5", "addr:street": "Via di San Romano", "name": "Da Tito", "shop": "greengrocer"}}, {"type": "node", "id": 7159105132, "lat": 41.9071519, "lon": 12.5383843, "tags": {"addr:housenumber": "52", "addr:street": "Via Pio Molajoni", "shop": "greengrocer"}}, {"type": "node", "id": 7179639786, "lat": 41.8741489, "lon": 12.5168603, "tags": {"shop": "greengrocer"}}, {"type": "node", "id": 7236624101, "lat": 41.8884528, "lon": 12.5350741, "tags": {"name": "Da Yasmin", "shop": "greengrocer"}}, {"type": "node", "id": 7325084229, "lat": 41.9745014, "lon": 12.5135297, "tags": {"addr:city": "Roma", "addr:housenumber": "172", "addr:postcode": "00138", "addr:street": "Via Radicofani", "name": "Fruttivendolo", "shop": "greengrocer"}}, {"type": "node", "id": 7332238532, "lat": 41.9746026, "lon": 12.5133678, "tags": {"shop": "greengrocer"}}, {"type": "node", "id": 7332238544, "lat": 41.9747373, "lon": 12.5127815, "tags": {"addr:city": "Roma", "addr:housenumber": "1", "addr:postcode": "00138", "addr:street": "Via San Gimignano", "name": "Fruttivendolo", "shop": "greengrocer"}}, {"type": "node", "id": 7350524327, "lat": 41.8691106, "lon": 12.4622076, "tags": {"addr:city": "Roma", "addr:housenumber": "15", "addr:postcode": "00149", "addr:street": "Via Giovanni Caselli", "name": "Orto Gold Frutta", "phone": "+39 327 3118482", "shop": "greengrocer"}}, {"type": "node", "id": 7453596720, "lat": 42.0370514, "lon": 12.3109903}, {"type": "node", "id": 7453596721, "lat": 42.0370543, "lon": 12.3110791}, {"type": "node", "id": 7453596722, "lat": 42.0369449, "lon": 12.3110857}, {"type": "node", "id": 7453596723, "lat": 42.036942, "lon": 12.3109969}, {"type": "node", "id": 7469463535, "lat": 41.8499488, "lon": 12.5914873, "tags": {"addr:city": "Roma", "addr:housenumber": "106", "addr:postcode": "00173", "addr:street": "Viale Antonio Ciamarra", "name": "Frutteria alimentari", "operator": "Hasan Shikder", "phone": "+39348 6136428", "ref:vatin": "IT11128091003", "shop": "greengrocer"}}, {"type": "node", "id": 7469463557, "lat": 41.8489935, "lon": 12.5917093, "tags": {"addr:city": "Roma", "addr:housenumber": "52", "addr:postcode": "00173", "addr:street": "Viale Antonio Ciamarra", "name": "Frutta e verdura", "shop": "greengrocer"}}, {"type": "node", "id": 7537004011, "lat": 42.03768, "lon": 12.3110525, "tags": {"addr:city": "Osteria Nuova", "addr:housenumber": "56", "addr:postcode": "00123", "addr:street": "Via Anguillarese", "name": "Orto dell'Imperatore", "payment:cash": "yes", "shop": "greengrocer"}}, {"type": "node", "id": 7537602110, "lat": 42.0374488, "lon": 12.310842, "tags": {"addr:city": "Osteria Nuova", "addr:housenumber": "25", "addr:postcode": "00123", "addr:street": "Via Anguillarese", "name": "Frutta", "payment:cash": "yes", "shop": "greengrocer"}}, {"type": "node", "id": 7541813429, "lat": 41.8503041, "lon": 12.590033, "tags": {"addr:city": "Roma", "addr:housenumber": "139", "addr:postcode": "00173", "addr:street": "Via Pietro Marchisio", "name": "Frutta e verdura", "shop": "greengrocer"}}, {"type": "node", "id": 7544761705, "lat": 41.8540511, "lon": 12.5621052, "tags": {"addr:city": "Roma", "addr:housenumber": "59", "addr:postcode": "00174", "addr:street": "Viale Anicio Gallo", "name": "Piccola Bottega Merenda", "opening_hours": "Mo-Fr 09:00-18:00", "shop": "greengrocer"}}, {"type": "node", "id": 7572034942, "lat": 41.7408504, "lon": 12.2639392, "tags": {"addr:city": "Roma", "addr:housenumber": "78", "addr:postcode": "00121", "addr:street": "Via dell'Appagliatore", "name": "Lido Frutta", "shop": "greengrocer"}}, {"type": "node", "id": 7574860885, "lat": 41.8540464, "lon": 12.5620789, "tags": {"addr:housenumber": "59", "addr:street": "Viale Anicio Gallo", "name": "Piccola bottega merenda", "opening_hours": "Mo-Su 09:00-14:00, 16:00-19:00", "shop": "greengrocer"}}, {"type": "node", "id": 7606094662, "lat": 42.0885023, "lon": 12.278357, "tags": {"addr:city": "Anguillara Sabazia", "addr:housenumber": "22", "addr:postcode": "00061", "addr:street": "Via Anguillarese", "name": "Boutique Frutta S.A.S.", "operator": "Karim Ait Boudaoud", "payment:cash": "yes", "phone": "+393454511411", "shop": "greengrocer"}}, {"type": "node", "id": 7609016535, "lat": 42.0674721, "lon": 12.2911322, "tags": {"addr:street": "Via della Mainella", "name": "Da Salvatore frutta e verdura", "shop": "greengrocer"}}, {"type": "node", "id": 7609472409, "lat": 42.0682842, "lon": 12.2966999, "tags": {"addr:housenumber": "28", "addr:street": "Via della Sorgente Claudia", "name": "L'orto di Alberto", "shop": "greengrocer"}}, {"type": "node", "id": 7617763670, "lat": 41.7301069, "lon": 12.2879494, "tags": {"check_date:opening_hours": "2023-03-02", "name:signed": "no", "opening_hours:signed": "no", "shop": "greengrocer"}}, {"type": "node", "id": 7642418414, "lat": 41.8431461, "lon": 12.4365442, "tags": {"addr:housenumber": "326a", "addr:street": "Via del Trullo", "name": "La frutteria", "shop": "greengrocer"}}, {"type": "node", "id": 7653435047, "lat": 41.8573828, "lon": 12.4917823, "tags": {"name": "Frutta e Verdura", "operator": "Luigi Guglielmi", "ref:vatin": "IT11421461002", "shop": "greengrocer"}}, {"type": "node", "id": 7709659867, "lat": 41.8843999, "lon": 12.5620545, "tags": {"addr:city": "Roma", "addr:housenumber": "30", "addr:postcode": "00172", "addr:street": "Via delle Albizzie", "name": "Frutta & verdura", "shop": "greengrocer"}}, {"type": "node", "id": 7711271232, "lat": 41.8839762, "lon": 12.561143, "tags": {"addr:city": "Roma", "addr:housenumber": "85", "addr:postcode": "00172", "addr:street": "Viale della Primavera", "name": "La frutteria", "shop": "greengrocer"}}, {"type": "node", "id": 7760790687, "lat": 41.832888, "lon": 12.5998937, "tags": {"addr:city": "Roma", "addr:housenumber": "204", "addr:postcode": "00173", "addr:street": "Via Gasperina", "name": "Peperoncino", "phone": "+39 06 72677321", "shop": "greengrocer"}}, {"type": "node", "id": 7845626568, "lat": 41.7270182, "lon": 12.6175041, "tags": {"addr:housenumber": "68", "addr:street": "Via Nettunense", "name": "Nettunense Funghi", "phone": "+39 0693160034", "shop": "greengrocer"}}, {"type": "node", "id": 7860893614, "lat": 41.7188589, "lon": 12.5887716, "tags": {"addr:housenumber": "44", "addr:street": "Via della Stazione di Pavona", "name": "Frutteria estiva", "phone": "+39 0671302908", "shop": "greengrocer", "website": "https://frutteria-estiva.business.site/"}}, {"type": "node", "id": 7935413993, "lat": 41.9826719, "lon": 12.6167573, "tags": {"shop": "greengrocer"}}, {"type": "node", "id": 7966149764, "lat": 41.820324, "lon": 12.4822044, "tags": {"addr:city": "Roma", "addr:housenumber": "24", "addr:postcode": "00143", "addr:street": "Viale Oscar Sinigaglia", "name": "Frutteria", "phone": "+39 06 5911608", "shop": "greengrocer"}}, {"type": "node", "id": 8000839626, "lat": 41.8559263, "lon": 12.5678952, "tags": {"addr:city": "Roma", "addr:housenumber": "41", "addr:postcode": "00175", "addr:street": "Piazza Quinto Curzio", "name": "Frutta e verdura", "shop": "greengrocer"}}, {"type": "node", "id": 8096933929, "lat": 41.9403319, "lon": 12.4238195, "tags": {"name": "La Manna", "shop": "greengrocer"}}, {"type": "node", "id": 8096933944, "lat": 41.9374915, "lon": 12.4280262, "tags": {"name": "Il cavaliere della frutta", "shop": "greengrocer"}}, {"type": "node", "id": 8096933976, "lat": 41.9437241, "lon": 12.4228923, "tags": {"addr:housenumber": "19", "addr:street": "Via Giannina Milli", "entrance": "yes", "shop": "greengrocer"}}, {"type": "node", "id": 8096934083, "lat": 41.9430801, "lon": 12.4242176, "tags": {"shop": "greengrocer"}}, {"type": "node", "id": 8143889723, "lat": 41.9409654, "lon": 12.4236572, "tags": {"shop": "greengrocer"}}, {"type": "node", "id": 8201983173, "lat": 41.9435095, "lon": 12.4244871, "tags": {"shop": "greengrocer"}}, {"type": "node", "id": 8208649884, "lat": 42.0791508, "lon": 12.2869268, "tags": {"name": "Ciro frutta", "shop": "greengrocer"}}, {"type": "node", "id": 8225872530, "lat": 41.9373323, "lon": 12.4268906, "tags": {"shop": "greengrocer"}}, {"type": "node", "id": 8225872553, "lat": 41.9373898, "lon": 12.4297324, "tags": {"shop": "greengrocer"}}, {"type": "node", "id": 8230830208, "lat": 41.9373058, "lon": 12.4275295, "tags": {"shop": "greengrocer"}}, {"type": "node", "id": 8269650827, "lat": 42.0881076, "lon": 12.2720665, "tags": {"addr:city": "Anguillara Sabazia", "addr:housenumber": "2", "addr:postcode": "00061", "addr:street": "Via Anna Lacometti", "name": "Azienda agricola delle Fratte Marco", "opening_hours": "Mo-Sa 07:00-13:00", "operator": "Marco delle Fratte", "payment:cash": "yes", "shop": "greengrocer", "wheelchair": "yes"}}, {"type": "node", "id": 8276461764, "lat": 41.7318907, "lon": 12.2916153, "tags": {"name": "Urban Food & Fruit", "shop": "greengrocer"}}, {"type": "node", "id": 8305124724, "lat": 41.8670468, "lon": 12.5921523, "tags": {"addr:city": "Roma", "addr:housenumber": "1070/e", "addr:postcode": "00169", "addr:street": "Via Casilina", "name": "Frutta e verdura", "phone": "+39 338 1164545", "shop": "greengrocer"}}, {"type": "node", "id": 8391151050, "lat": 41.9184724, "lon": 12.4632064, "tags": {"addr:city": "Roma", "addr:housenumber": "28", "addr:postcode": "00195", "addr:street": "Via Montello", "name": "Verdemela di Luciana Venditti", "phone": "+39 0637500142", "shop": "greengrocer"}}, {"type": "node", "id": 8410965769, "lat": 41.8632439, "lon": 12.4711892, "tags": {"addr:city": "Roma", "addr:housenumber": "8", "addr:postcode": "00146", "addr:street": "Via Antonino Lo Surdo", "name": "Frutta e Verdura", "shop": "greengrocer"}}, {"type": "node", "id": 8412459198, "lat": 41.8271757, "lon": 12.6490462}, {"type": "node", "id": 8412459199, "lat": 41.8270879, "lon": 12.6489199}, {"type": "node", "id": 8412459200, "lat": 41.8272019, "lon": 12.6487772}, {"type": "node", "id": 8443939622, "lat": 41.8527864, "lon": 12.5031904, "tags": {"shop": "greengrocer"}}, {"type": "node", "id": 8499785327, "lat": 41.7601834, "lon": 12.3023285, "tags": {"shop": "greengrocer"}}, {"type": "node", "id": 8585626437, "lat": 41.8759164, "lon": 12.5267752, "tags": {"addr:city": "Roma", "addr:housenumber": "302", "addr:postcode": "00181", "addr:street": "Via Tuscolana", "name": "Frutteria", "shop": "greengrocer"}}, {"type": "node", "id": 8662395308, "lat": 41.8538013, "lon": 12.559826, "tags": {"name": "Fruttaroma", "shop": "greengrocer"}}, {"type": "node", "id": 8776916487, "lat": 41.8990679, "lon": 12.5113919, "tags": {"shop": "greengrocer"}}, {"type": "node", "id": 8828444508, "lat": 41.8574542, "lon": 12.5582764, "tags": {"addr:city": "Roma", "addr:country": "IT", "addr:housenumber": "52 A", "addr:street": "Via Marco Valerio Corvo", "name": "L'Ananas ortofrutta", "shop": "greengrocer"}}, {"type": "node", "id": 8833503086, "lat": 41.9237197, "lon": 12.4255237, "tags": {"addr:housenumber": "11,13", "addr:street": "Via Vittorio Montiglio", "mobile": "+39 3297879944", "name": "Il Faraone della Frutta", "shop": "greengrocer"}}, {"type": "node", "id": 8996523807, "lat": 41.890695, "lon": 12.5421885, "tags": {"name": "Ortofrutta La Capitale", "shop": "greengrocer"}}, {"type": "node", "id": 9028216459, "lat": 41.8813176, "lon": 12.512124, "tags": {"shop": "greengrocer"}}, {"type": "node", "id": 9172309879, "lat": 42.0915236, "lon": 12.2708473, "tags": {"name": "Frutta e verdura mini market di Singh", "shop": "greengrocer"}}, {"type": "node", "id": 9221073251, "lat": 41.8883267, "lon": 12.5352116, "tags": {"addr:housenumber": "3b", "addr:street": "Piazza dei Condottieri", "name": "Frutta & Verdura A. & A.", "opening_hours": "Tu, We, Fr, Sa 07:00-14:00", "phone": "+39 392 2466762", "shop": "greengrocer"}}, {"type": "node", "id": 9370157851, "lat": 41.867825, "lon": 12.4921517, "tags": {"shop": "greengrocer"}}, {"type": "node", "id": 9370622323, "lat": 41.8640993, "lon": 12.6950942, "tags": {"shop": "greengrocer"}}, {"type": "node", "id": 9684568726, "lat": 41.867501, "lon": 12.6743813, "tags": {"addr:city": "Roma", "addr:housenumber": "326", "addr:postcode": "00132", "addr:street": "Via Borghesiana", "name": "Non solo frutta", "phone": "+39 06 20765314", "shop": "greengrocer"}}, {"type": "node", "id": 9736837196, "lat": 41.8637852, "lon": 12.6764407, "tags": {"addr:city": "Roma", "addr:postcode": "00132", "addr:street": "Via Casilina", "shop": "greengrocer"}}, {"type": "node", "id": 9738021174, "lat": 42.0109015, "lon": 12.3772452, "tags": {"shop": "greengrocer"}}, {"type": "node", "id": 9739126600, "lat": 41.8636168, "lon": 12.6839237, "tags": {"addr:city": "Roma", "addr:housenumber": "40", "addr:postcode": "00132", "addr:street": "Via Bolognetta", "name": "Super Mario frutta", "shop": "greengrocer"}}, {"type": "node", "id": 9785801936, "lat": 41.8666027, "lon": 12.4899113, "tags": {"addr:housenumber": "7", "addr:street": "Piazza Eugenio Biffi", "name": "Frutta & Verdura", "shop": "greengrocer"}}, {"type": "node", "id": 9805940133, "lat": 41.7328948, "lon": 12.2772458, "tags": {"shop": "greengrocer"}}, {"type": "node", "id": 9893021444, "lat": 41.879257, "lon": 12.5438515, "tags": {"name": "Verdura del cannone", "shop": "greengrocer"}}, {"type": "node", "id": 9974286872, "lat": 41.7381668, "lon": 12.2850553, "tags": {"addr:city": "roma", "addr:housenumber": "131", "addr:postcode": "00122", "addr:street": "Via Alessandro Piola Caselli", "name": "Frutteria Imperia", "shop": "greengrocer"}}, {"type": "node", "id": 10178518799, "lat": 41.8802754, "lon": 12.5681525, "tags": {"addr:city": "Roma", "addr:housenumber": "40/a", "addr:postcode": "00172", "addr:street": "Via dei Frassini", "name": "Fruttivendolo", "shop": "greengrocer"}}, {"type": "node", "id": 10220026170, "lat": 41.8955504, "lon": 12.5067144, "tags": {"addr:unit": "Box 132", "shop": "greengrocer"}}, {"type": "node", "id": 10220026171, "lat": 41.8955513, "lon": 12.5066364, "tags": {"addr:unit": "Box 119", "shop": "greengrocer"}}, {"type": "node", "id": 10220026172, "lat": 41.8954898, "lon": 12.5065733, "tags": {"addr:unit": "Box 124", "shop": "greengrocer"}}, {"type": "node", "id": 10220026173, "lat": 41.8954309, "lon": 12.5065962, "tags": {"addr:unit": "Box 125", "shop": "greengrocer"}}, {"type": "node", "id": 10220026174, "lat": 41.8954368, "lon": 12.5065263, "tags": {"addr:unit": "Box 110", "shop": "greengrocer"}}, {"type": "node", "id": 10220026175, "lat": 41.895331, "lon": 12.5068337, "tags": {"addr:unit": "Box 114", "shop": "greengrocer"}}, {"type": "node", "id": 10220026176, "lat": 41.8953941, "lon": 12.5069014, "tags": {"addr:unit": "Box 115", "shop": "greengrocer"}}, {"type": "node", "id": 10220026177, "lat": 41.8954548, "lon": 12.5068864, "tags": {"addr:unit": "Box 129", "shop": "greengrocer"}}, {"type": "node", "id": 10220026185, "lat": 41.8956349, "lon": 12.5067224, "tags": {"addr:unit": "Box 133", "shop": "greengrocer"}}, {"type": "node", "id": 10220026186, "lat": 41.8956674, "lon": 12.5066662, "tags": {"addr:unit": "Box 106", "shop": "greengrocer"}}, {"type": "node", "id": 10220026189, "lat": 41.8954804, "lon": 12.5069851, "tags": {"addr:unit": "Box 103", "shop": "greengrocer"}}, {"type": "node", "id": 10220026190, "lat": 41.8954514, "lon": 12.5070402, "tags": {"addr:unit": "Box 102", "shop": "greengrocer"}}, {"type": "node", "id": 10220026191, "lat": 41.8954146, "lon": 12.5071078, "tags": {"addr:unit": "Box 101", "shop": "greengrocer"}}, {"type": "node", "id": 10220026193, "lat": 41.8953736, "lon": 12.5069404, "tags": {"addr:unit": "Box 99", "shop": "greengrocer"}}, {"type": "node", "id": 10220026194, "lat": 41.8953694, "lon": 12.5070149, "tags": {"addr:unit": "Box 98", "shop": "greengrocer"}}, {"type": "node", "id": 10220026195, "lat": 41.8953122, "lon": 12.5068773, "tags": {"addr:unit": "Box 97", "shop": "greengrocer"}}, {"type": "node", "id": 10220026197, "lat": 41.8952567, "lon": 12.5068979, "tags": {"addr:unit": "Box 95", "shop": "greengrocer"}}, {"type": "node", "id": 10220026198, "lat": 41.8952157, "lon": 12.5068039, "tags": {"addr:unit": "Box 94", "shop": "greengrocer"}}, {"type": "node", "id": 10220026199, "lat": 41.8952456, "lon": 12.5067534, "tags": {"addr:unit": "Box 93", "shop": "greengrocer"}}, {"type": "node", "id": 10220026202, "lat": 41.8954018, "lon": 12.5064872, "tags": {"addr:unit": "Box 90", "shop": "greengrocer"}}, {"type": "node", "id": 10220026203, "lat": 41.8954292, "lon": 12.5064379, "tags": {"addr:unit": "Box 89", "shop": "greengrocer"}}, {"type": "node", "id": 10220026204, "lat": 41.8956221, "lon": 12.506571, "tags": {"addr:unit": "Box 107", "shop": "greengrocer"}}, {"type": "node", "id": 10220026205, "lat": 41.8955735, "lon": 12.5065997, "tags": {"addr:unit": "Box 122", "shop": "greengrocer"}}, {"type": "node", "id": 10220026206, "lat": 41.8955077, "lon": 12.5065343, "tags": {"addr:unit": "Box 123", "shop": "greengrocer"}}, {"type": "node", "id": 10220026210, "lat": 41.8955615, "lon": 12.5064379, "tags": {"addr:unit": "Box 87", "shop": "greengrocer"}}, {"type": "node", "id": 10220026214, "lat": 41.8957007, "lon": 12.5066995, "tags": {"addr:unit": "Box 84", "shop": "greengrocer"}}, {"type": "node", "id": 10220029418, "lat": 41.8955137, "lon": 12.5070321, "tags": {"addr:unit": "Box 80", "shop": "greengrocer"}}, {"type": "node", "id": 10220029419, "lat": 41.8954847, "lon": 12.507078, "tags": {"addr:unit": "Box 79", "shop": "greengrocer"}}, {"type": "node", "id": 10220029420, "lat": 41.8954385, "lon": 12.5071583, "tags": {"addr:unit": "Box 78", "shop": "greengrocer"}}, {"type": "node", "id": 10220029421, "lat": 41.8953173, "lon": 12.5070356, "tags": {"addr:unit": "Box 76", "shop": "greengrocer"}}, {"type": "node", "id": 10220029422, "lat": 41.8952541, "lon": 12.5069748, "tags": {"addr:unit": "Box 75", "shop": "greengrocer"}}, {"type": "node", "id": 10220029424, "lat": 41.8951687, "lon": 12.506883, "tags": {"addr:unit": "Box 73", "shop": "greengrocer"}}, {"type": "node", "id": 10220029429, "lat": 41.8951875, "lon": 12.5067603, "tags": {"addr:unit": "Box 72", "shop": "greengrocer"}}, {"type": "node", "id": 10220029432, "lat": 41.8953677, "lon": 12.506446, "tags": {"addr:unit": "Box 69", "shop": "greengrocer"}}, {"type": "node", "id": 10220029433, "lat": 41.8953941, "lon": 12.5064012, "tags": {"addr:unit": "Box 68", "shop": "greengrocer"}}, {"type": "node", "id": 10220029434, "lat": 41.8954479, "lon": 12.5063106, "tags": {"addr:unit": "Box 67", "shop": "greengrocer"}}, {"type": "node", "id": 10220029435, "lat": 41.8954872, "lon": 12.5063484, "tags": {"addr:unit": "Box 66", "shop": "greengrocer"}}, {"type": "node", "id": 10220029437, "lat": 41.8956452, "lon": 12.506462, "tags": {"addr:unit": "Box 63", "shop": "greengrocer"}}, {"type": "node", "id": 10220029438, "lat": 41.8956913, "lon": 12.5065136, "tags": {"addr:unit": "Box 62", "shop": "greengrocer"}}, {"type": "node", "id": 10220029439, "lat": 41.8957152, "lon": 12.5065813, "tags": {"addr:unit": "Box 61", "shop": "greengrocer"}}, {"type": "node", "id": 10220029440, "lat": 41.8957758, "lon": 12.5066478, "tags": {"addr:unit": "Box 60", "shop": "greengrocer"}}, {"type": "node", "id": 10220029441, "lat": 41.895728, "lon": 12.5067258, "tags": {"addr:unit": "Box 59", "shop": "greengrocer"}}, {"type": "node", "id": 10220029442, "lat": 41.8956998, "lon": 12.506774, "tags": {"addr:unit": "Box 58", "shop": "greengrocer"}}, {"type": "node", "id": 10220029443, "lat": 41.8956699, "lon": 12.5068245, "tags": {"addr:unit": "Box 57", "shop": "greengrocer"}}, {"type": "node", "id": 10220029444, "lat": 41.895646, "lon": 12.5068704, "tags": {"addr:unit": "Box 56", "shop": "greengrocer"}}, {"type": "node", "id": 10220029445, "lat": 41.8955974, "lon": 12.5069576, "tags": {"addr:unit": "Box 55", "shop": "greengrocer"}}, {"type": "node", "id": 10220029446, "lat": 41.8955572, "lon": 12.5070184, "tags": {"addr:unit": "Box 54", "shop": "greengrocer"}}, {"type": "node", "id": 10220029447, "lat": 41.8955214, "lon": 12.5070895, "tags": {"addr:unit": "Box 53", "shop": "greengrocer"}}, {"type": "node", "id": 10220029448, "lat": 41.8954616, "lon": 12.507187, "tags": {"addr:unit": "Box 52", "shop": "greengrocer"}}, {"type": "node", "id": 10220029449, "lat": 41.8953421, "lon": 12.5071182, "tags": {"addr:unit": "Box 51", "shop": "greengrocer"}}, {"type": "node", "id": 10220029450, "lat": 41.8952977, "lon": 12.5070711, "tags": {"addr:unit": "Box 50", "shop": "greengrocer"}}, {"type": "node", "id": 10220029451, "lat": 41.895237, "lon": 12.5070103, "tags": {"addr:unit": "Box 49", "shop": "greengrocer"}}, {"type": "node", "id": 10220029452, "lat": 41.8951892, "lon": 12.506961, "tags": {"addr:unit": "Box 48", "shop": "greengrocer"}}, {"type": "node", "id": 10220029453, "lat": 41.8951311, "lon": 12.5068509, "tags": {"addr:unit": "Box 47", "shop": "greengrocer"}}, {"type": "node", "id": 10220029454, "lat": 41.8951081, "lon": 12.5068256, "tags": {"addr:unit": "Box 46", "shop": "greengrocer"}}, {"type": "node", "id": 10220029455, "lat": 41.895161, "lon": 12.5067339, "tags": {"addr:unit": "Box 45", "shop": "greengrocer"}}, {"type": "node", "id": 10220029456, "lat": 41.8952012, "lon": 12.5066628, "tags": {"addr:unit": "Box 44", "shop": "greengrocer"}}, {"type": "node", "id": 10220029457, "lat": 41.8952319, "lon": 12.5066054, "tags": {"addr:unit": "Box 43", "shop": "greengrocer"}}, {"type": "node", "id": 10220029458, "lat": 41.8952874, "lon": 12.5065125, "tags": {"addr:unit": "Box 42", "shop": "greengrocer"}}, {"type": "node", "id": 10220029459, "lat": 41.8953224, "lon": 12.5064528, "tags": {"addr:unit": "Box 41", "shop": "greengrocer"}}, {"type": "node", "id": 10220029460, "lat": 41.8955376, "lon": 12.5063576, "tags": {"addr:unit": "Box 65", "shop": "greengrocer"}}, {"type": "node", "id": 10220029461, "lat": 41.8953591, "lon": 12.5063875, "tags": {"addr:unit": "Box 40", "shop": "greengrocer"}}, {"type": "node", "id": 10220029462, "lat": 41.8954189, "lon": 12.5062888, "tags": {"addr:unit": "Box 39", "shop": "greengrocer"}}, {"type": "node", "id": 10307193610, "lat": 41.8042303, "lon": 12.6019191, "tags": {"addr:housenumber": "21/23", "addr:street": "Viale John Fitzgerald Kennedy", "level": "0", "name": "La Pergola fruit shop", "name:en": "La pergola fruit shop", "shop": "greengrocer"}}, {"type": "node", "id": 10750429378, "lat": 41.9014745, "lon": 12.4945703}, {"type": "node", "id": 10750429379, "lat": 41.9014809, "lon": 12.4945835}, {"type": "node", "id": 10750429380, "lat": 41.9014769, "lon": 12.4945974}, {"type": "node", "id": 10750429381, "lat": 41.901446, "lon": 12.4946181}, {"type": "node", "id": 10750429382, "lat": 41.9014362, "lon": 12.4946175}, {"type": "node", "id": 10750429383, "lat": 41.9014304, "lon": 12.4946039}, {"type": "node", "id": 10750429384, "lat": 41.9014342, "lon": 12.4945902}, {"type": "way", "id": 162097852, "nodes": [1740324342, 1740324348, 1740324338, 1740324345, 1740324342], "tags": {"shop": "greengrocer"}}, {"type": "way", "id": 390302957, "nodes": [3934554736, 3934554745, 3934554743, 3934554746, 3934554740, 3934554739, 3934554738, 3934554735, 3934554736], "tags": {"building": "retail", "height": "2.8", "name": "\"Er Cocomeraro\"", "shop": "greengrocer"}}, {"type": "way", "id": 445869529, "nodes": [5462737121, 4432231007, 4432231008, 4432231009, 5462737121], "tags": {"building": "yes", "shop": "greengrocer"}}, {"type": "way", "id": 560754285, "nodes": [5407542978, 5407542979, 5407542980, 5407542981, 5407542978], "tags": {"building": "yes", "shop": "greengrocer"}}, {"type": "way", "id": 663862498, "nodes": [6213770095, 6213770096, 6213770097, 6213770098, 6213770095], "tags": {"addr:city": "Roma", "addr:housenumber": "158", "addr:postcode": "00173", "addr:street": "Viale Antonio Ciamarra", "building": "yes", "name": "Frutteria", "operator": "Annamaria Miele", "phone": "+39 338 3965314", "ref:vatin": "IT05936080588", "shop": "greengrocer"}}, {"type": "way", "id": 732492851, "nodes": [6859268362, 6859268361, 6859268360, 6859268359, 6859268362], "tags": {"addr:city": "Roma", "addr:postcode": "00166", "alt_name": "Box 30", "building": "yes", "building:levels": "1", "internet_access": "wlan", "internet_access:fee": "no", "internet_access:ssid": "AGS-Casalotti", "name": "Frutta & Verdura e non solo...", "operator": "Gagliardi Sosia", "payment:coins": "yes", "shop": "greengrocer"}}, {"type": "way", "id": 796973122, "nodes": [7453596720, 7453596721, 7453596722, 7453596723, 7453596720], "tags": {"building": "yes", "shop": "greengrocer"}}, {"type": "way", "id": 905883800, "nodes": [4036104045, 8412459198, 8412459199, 8412459200, 4036104045], "tags": {"addr:city": "Frascati", "addr:housenumber": "14", "addr:postcode": "00044", "addr:street": "Via di Vermicino", "building": "yes", "name": "L'orto di Vermicino", "phone": "+39 335 5449699", "shop": "greengrocer"}}, {"type": "way", "id": 1156001749, "nodes": [6782520285, 10750429378, 10750429379, 10750429380, 10750429381, 10750429382, 10750429383, 10750429384, 6782520285], "tags": {"building": "yes", "name": "Il Capriccio", "shop": "greengrocer"}}]}