{"version": 0.6, "generator": "Overpass API 0.7.60 f4c14d41", "osm3s": {"timestamp_osm_base": "2023-05-02T21:19:24Z", "copyright": "The data included in this document is from www.openstreetmap.org. The data is made available under ODbL."}, "elements": [{"type": "node", "id": 534793205, "lat": 48.849174, "lon": 2.3757476, "tags": {"addr:city": "Paris", "addr:housenumber": "7", "addr:postcode": "75012", "addr:street": "Rue de Prague", "amenity": "ice_cream", "contact:facebook": "https://www.facebook.com/LaTropicaleGlacier/", "contact:instagram": "la_tropicale_glacier", "name": "La Tropicale Glacier", "opening_hours": "Tu-Su 12:00-19:30", "website": "http://www.latropicaleglacier.com/"}}, {"type": "node", "id": 694838966, "lat": 48.852049, "lon": 2.3557542, "tags": {"amenity": "ice_cream", "brand": "Amorino", "brand:wikidata": "Q2843884", "brand:wikipedia": "fr:Amorino", "name": "Amorino", "opening_hours": "Mo-Fr 12:30-23:00, Sa-Su 10:30-24:00", "outdoor_seating": "no", "smoking": "no", "takeaway": "only", "toilets": "no", "wheelchair": "yes"}}, {"type": "node", "id": 713882600, "lat": 48.8632016, "lon": 2.3616579, "tags": {"addr:housenumber": "43", "addr:street": "Rue de Bretagne", "amenity": "ice_cream", "brand": "Amorino", "brand:wikidata": "Q2843884", "brand:wikipedia": "fr:Amorino", "name": "Amorino", "outdoor_seating": "yes", "source": "cadastre-dgi-fr source : Direction G\u00e9n\u00e9rale des Imp\u00f4ts - Cadastre. Mise \u00e0 jour : 2010", "toilets": "no", "wheelchair": "yes"}}, {"type": "node", "id": 1079716165, "lat": 48.8470233, "lon": 2.3414708, "tags": {"amenity": "ice_cream", "brand": "Grom", "brand:wikidata": "Q3776892", "cuisine": "ice_cream", "name": "Grom", "opening_hours": "We-Sa 12:00-23:00; Su 12:00-21:00", "takeaway": "only"}}, {"type": "node", "id": 1079716562, "lat": 48.8473007, "lon": 2.3418313, "tags": {"amenity": "ice_cream", "brand": "Amorino", "brand:wikidata": "Q2843884", "brand:wikipedia": "fr:Amorino", "name": "Amorino", "opening_hours": "11:00-24:00", "website": "http://www.amorino.com/fr/"}}, {"type": "node", "id": 1352878655, "lat": 48.8440852, "lon": 2.2932215, "tags": {"amenity": "ice_cream", "brand": "Amorino", "brand:wikidata": "Q2843884", "brand:wikipedia": "fr:Amorino", "contact:city": "Paris", "contact:housenumber": "90", "contact:phone": "+33 9 81 92 02 12", "contact:postcode": "75015", "contact:street": "Rue du Commerce", "indoor_seating": "yes", "name": "Amorino", "opening_hours": "Mo-Su 12:00-24:00", "outdoor_seating": "yes", "wheelchair": "limited"}}, {"type": "node", "id": 1681555580, "lat": 48.8435991, "lon": 2.3495369, "tags": {"amenity": "ice_cream", "cuisine": "ice_cream", "name": "Gelati d'Alberto", "opening_hours": "Mo-Su 12:00-24:00"}}, {"type": "node", "id": 1696040498, "lat": 48.8443095, "lon": 2.3492103, "tags": {"amenity": "ice_cream", "brand": "Amorino", "brand:wikidata": "Q2843884", "brand:wikipedia": "fr:Amorino", "cuisine": "ice_cream", "name": "Amorino", "opening_hours": "Mo-Su 12:00-24:00", "outdoor_seating": "no", "takeaway": "yes", "toilets": "no", "wheelchair": "limited"}}, {"type": "node", "id": 2179816284, "lat": 48.8533833, "lon": 2.3705439, "tags": {"amenity": "ice_cream", "name": "Glace Room", "source": "survey", "website": "https://www.glaceroom.com"}}, {"type": "node", "id": 2271679222, "lat": 48.8719319, "lon": 2.343424}, {"type": "node", "id": 2271679223, "lat": 48.8719477, "lon": 2.3432779}, {"type": "node", "id": 2271679224, "lat": 48.8719677, "lon": 2.3434306}, {"type": "node", "id": 2271679225, "lat": 48.8719849, "lon": 2.343284}, {"type": "node", "id": 2388388749, "lat": 48.8536358, "lon": 2.36529, "tags": {"amenity": "ice_cream", "name": "B\u00e4ltis", "outdoor_seating": "yes", "source": "survey 2022"}}, {"type": "node", "id": 2389976264, "lat": 48.8563154, "lon": 2.3646381, "tags": {"amenity": "ice_cream", "brand": "Amorino", "brand:wikidata": "Q2843884", "brand:wikipedia": "fr:Amorino", "changing_table": "no", "diet:vegan": "yes", "name": "Amorino", "opening_hours": "Mo-We 11:30-19:30, Th-Su 11:30-20:30", "outdoor_seating": "no", "smoking": "no", "source": "survey 2013", "takeaway": "only", "toilets": "no", "wheelchair": "yes"}}, {"type": "node", "id": 2440497173, "lat": 48.8516756, "lon": 2.3382308, "tags": {"amenity": "ice_cream", "name": "Il Gelato del Marchese", "opening_hours": "Mo-Th,Su 13:00-20:00; Fr-Sa 13:00-21:00", "outdoor_seating": "no", "phone": "+33 1 46 34 75 63", "smoking": "no", "takeaway": "yes", "toilets": "no", "website": "http://www.ilgelatodelmarchese.com/", "wheelchair": "no"}}, {"type": "node", "id": 2446678943, "lat": 48.8447539, "lon": 2.3320323, "tags": {"addr:city": "Paris", "addr:housenumber": "4", "addr:postcode": "75006", "addr:street": "Rue Vavin", "amenity": "ice_cream", "brand": "Amorino", "brand:wikidata": "Q2843884", "brand:wikipedia": "fr:Amorino", "internet_access": "wlan", "internet_access:fee": "no", "name": "Amorino", "opening_hours": "Mo-Th 10:30-21:30, Fr-Su 10:30-23:00", "outdoor_seating": "no", "smoking": "no", "takeaway": "yes", "wheelchair": "yes"}}, {"type": "node", "id": 2529728760, "lat": 48.8530239, "lon": 2.3457647, "tags": {"addr:street": "Rue de la Huchette", "amenity": "ice_cream", "brand": "Amorino", "brand:wikidata": "Q2843884", "brand:wikipedia": "fr:Amorino", "changing_table": "no", "cuisine": "ice_cream", "name": "Amorino", "opening_hours": "Mo-Su 11:30-24:00", "operator": "Amorino", "smoking": "no", "takeaway": "yes", "toilets": "no", "wheelchair": "no"}}, {"type": "node", "id": 2534780345, "lat": 48.8532232, "lon": 2.3449207, "tags": {"addr:street": "Rue de la Huchette", "amenity": "ice_cream", "brand": "H\u00e4agen-Dazs", "brand:wikidata": "Q1143333", "brand:wikipedia": "en:H\u00e4agen-Dazs", "cuisine": "ice_cream", "name": "H\u00e4agen-Dazs", "operator": "H\u00e4agen Dazs", "wheelchair": "no"}}, {"type": "node", "id": 2761697098, "lat": 48.884659, "lon": 2.292997, "tags": {"amenity": "ice_cream", "name": "Fabien Foenix", "takeaway": "only", "wheelchair": "no"}}, {"type": "node", "id": 2927812405, "lat": 48.8548521, "lon": 2.3502976, "tags": {"amenity": "ice_cream", "brand": "H\u00e4agen-Dazs", "brand:wikidata": "Q1143333", "brand:wikipedia": "en:H\u00e4agen-Dazs", "name": "H\u00e4agen-Dazs", "wheelchair": "no"}}, {"type": "node", "id": 3270776769, "lat": 48.8567295, "lon": 2.3558132, "tags": {"amenity": "ice_cream", "craft": "ice", "name": "Re\u00ffs"}}, {"type": "node", "id": 3306561672, "lat": 48.8573408, "lon": 2.3548273, "tags": {"amenity": "ice_cream", "name": "Aleph"}}, {"type": "node", "id": 3354775376, "lat": 48.8337716, "lon": 2.3299047, "tags": {"amenity": "ice_cream", "brand": "Amorino", "brand:wikidata": "Q2843884", "brand:wikipedia": "fr:Amorino", "indoor_seating": "yes", "name": "Amorino", "opening_hours": "Mo 12:00-20:30; Tu-We 12:00-22:00; Th 11:00-22:00; Fr-Su 11:00-22:30", "organic": "yes", "outdoor_seating": "yes"}}, {"type": "node", "id": 3401882593, "lat": 48.8815762, "lon": 2.316377, "tags": {"addr:city": "Paris", "addr:housenumber": "2", "addr:postcode": "75017", "addr:street": "Avenue de Villiers", "amenity": "ice_cream", "brand": "Amorino", "brand:wikidata": "Q2843884", "brand:wikipedia": "fr:Amorino", "cuisine": "ice_cream", "name": "Amorino", "opening_hours": "Tu-Su 13:00-22:30"}}, {"type": "node", "id": 3403997945, "lat": 48.8761003, "lon": 2.3251799}, {"type": "node", "id": 3405498228, "lat": 48.8760842, "lon": 2.325047}, {"type": "node", "id": 3405498229, "lat": 48.8760927, "lon": 2.3251179}, {"type": "node", "id": 3405498230, "lat": 48.87611, "lon": 2.3250393}, {"type": "node", "id": 3405498232, "lat": 48.8761183, "lon": 2.3251062, "tags": {"door": "yes", "level": "0"}}, {"type": "node", "id": 3405498233, "lat": 48.8761266, "lon": 2.325173}, {"type": "node", "id": 3653361131, "lat": 48.8590192, "lon": 2.3535078, "tags": {"amenity": "ice_cream", "brand": "Yogurt Factory", "brand:wikidata": "Q104600544", "cuisine": "frozen_yogurt", "name": "Yogurt Factory", "takeaway": "yes", "wheelchair": "yes"}}, {"type": "node", "id": 3709172919, "lat": 48.83109, "lon": 2.3758715, "tags": {"addr:housenumber": "123", "addr:postcode": "75013", "addr:street": "Avenue de France", "amenity": "ice_cream", "brand": "Amorino", "changing_table": "no", "delivery": "no", "kids_area": "no", "name": "Amorino", "opening_hours": "Mo-Su 10:30-00:00", "operator": "Amorino", "outdoor_seating": "yes", "phone": "+33 9 85 03 36 14", "smoking": "outside", "source": "survey", "takeaway": "yes", "toilets": "no", "wheelchair": "yes"}}, {"type": "node", "id": 3734894825, "lat": 48.8511659, "lon": 2.3427816, "tags": {"amenity": "ice_cream", "brand": "H\u00e4agen-Dazs", "brand:wikidata": "Q1143333", "indoor_seating": "yes", "name": "H\u00e4agen-Dazs", "opening_hours": "12:00-23:00", "outdoor_seating": "no"}}, {"type": "node", "id": 3965473575, "lat": 48.8404572, "lon": 2.3207925}, {"type": "node", "id": 3980173937, "lat": 48.8639666, "lon": 2.3317338, "tags": {"amenity": "ice_cream", "brand": "H\u00e4agen-Dazs", "brand:wikidata": "Q1143333", "brand:wikipedia": "en:H\u00e4agen-Dazs", "name": "H\u00e4agen-Dazs"}}, {"type": "node", "id": 4111497493, "lat": 48.8533657, "lon": 2.337086, "tags": {"amenity": "ice_cream", "brand": "Grom", "brand:wikidata": "Q3776892", "cuisine": "ice_cream", "name": "Grom", "opening_hours": "Apr-Sep: Mo-Th 12:00-23:30; Apr-Sep: Fr 12:00-00:30; Apr-Sep: Sa 11:00-00:30; Apr-Sep: Su 11:00-23:30; Oct-Mar: Mo-Th 12:30-22:30; Oct-Mar: Fr-Sa 12:30-24:00; Oct-Mar: Su 11:30-22:30", "outdoor_seating": "yes", "phone": "+33 1 40 46 92 60", "takeaway": "yes", "url": "http://grom.it", "wheelchair": "no"}}, {"type": "node", "id": 4172451689, "lat": 48.8517166, "lon": 2.356713, "tags": {"amenity": "ice_cream", "check_date": "2022-09-30", "cuisine": "ice_cream", "indoor_seating": "yes", "name": "Berthillon", "opening_hours": "We-Su 10:00-20:00", "outdoor_seating": "no", "wheelchair": "yes"}}, {"type": "node", "id": 4257492889, "lat": 48.8730933, "lon": 2.3630138, "tags": {"amenity": "ice_cream", "cuisine": "ice_cream;frozen_yogurt", "name": "Baci Bisou"}}, {"type": "node", "id": 4263372389, "lat": 48.8632382, "lon": 2.3351445, "tags": {"amenity": "ice_cream", "brand": "H\u00e4agen-Dazs", "brand:wikidata": "Q1143333", "brand:wikipedia": "en:H\u00e4agen-Dazs", "name": "H\u00e4agen-Dazs", "opening_hours": "Su-Th 12:00-24:00, Fr-Sa 12:00-00:30", "phone": "+33 1 40 20 45 88", "takeaway": "only"}}, {"type": "node", "id": 4264645744, "lat": 48.8575588, "lon": 2.3574806, "tags": {"amenity": "ice_cream", "brand": "Amorino", "brand:wikidata": "Q2843884", "brand:wikipedia": "fr:Amorino", "changing_table": "no", "cuisine": "ice_cream", "name": "Amorino", "opening_hours": "Mo-Th 12:00-22:00, Th-Sa 11:00-23:00, Su 11:00-23:45", "phone": "+33 9 50 57 44 76", "smoking": "no", "takeaway": "only", "toilets": "no", "website": "https://www.amorino.com/fr/boutique/paris-vieille-du-temple.3.html", "wheelchair": "no"}}, {"type": "node", "id": 4382307689, "lat": 48.8567366, "lon": 2.3570359, "tags": {"amenity": "ice_cream", "brand": "Grom", "brand:wikidata": "Q3776892", "cuisine": "ice_cream", "name": "Grom", "name:fr": "Grom", "takeaway": "yes"}}, {"type": "node", "id": 4629623995, "lat": 48.8538033, "lon": 2.3379839, "tags": {"amenity": "ice_cream", "brand": "Amorino", "brand:wikidata": "Q2843884", "brand:wikipedia": "fr:Amorino", "name": "Amorino", "opening_hours": "Mo-Su 11:00-24:00", "outdoor_seating": "yes", "smoking": "outside", "takeaway": "only", "toilets": "no", "wheelchair": "no"}}, {"type": "node", "id": 4734296621, "lat": 48.8580969, "lon": 2.3563163, "tags": {"amenity": "ice_cream", "email": "contact@une-glace-a-paris.fr", "level": "0", "name": "Une Glace \u00e0 Paris", "opening_hours": "Su-Th 13:00-20:00; Fr,Sa 13:00-23:00", "outdoor_seating": "no", "phone": "+33 149969833", "smoking": "no", "takeaway": "only", "toilets": "no", "website": "http://www.une-glace-a-paris.fr", "wheelchair": "no"}}, {"type": "node", "id": 4870699230, "lat": 48.866079, "lon": 2.347231, "tags": {"amenity": "ice_cream", "brand": "Grom", "brand:wikidata": "Q3776892", "contact:city": "Paris", "contact:housenumber": "96", "contact:postcode": "75002", "contact:street": "Rue Montorgueil", "cuisine": "ice_cream", "indoor_seating": "yes", "level": "0", "name": "Grom", "outdoor_seating": "yes", "source": "survey 01/2019", "takeaway": "yes", "toilets:wheelchair": "no", "wheelchair": "yes"}}, {"type": "node", "id": 4880492479, "lat": 48.8522484, "lon": 2.3237444, "tags": {"addr:city": "Paris", "addr:housenumber": "109", "addr:postcode": "75007", "addr:street": "Rue du Bac", "amenity": "ice_cream", "description": "Homemade ice creams , Crepes, tea room (Mariages Freres)", "name": "Le Bac \u00e0 Glaces", "opening_hours": "Mo-Su 11:30-19:00", "phone": "+33 1 45 48 87 65", "website": "https://www.bacaglaces.com/"}}, {"type": "node", "id": 4887198095, "lat": 48.8800795, "lon": 2.3404568, "tags": {"amenity": "ice_cream", "name": "Glazed", "opening_hours": "Tu-Fr 13:30-20:30; Sa-Su 11:00-20:30", "phone": "+33 9 81 62 47 06", "takeaway": "yes", "website": "http://www.glaces-glazed.com/"}}, {"type": "node", "id": 4988027680, "lat": 48.8563917, "lon": 2.3583167, "tags": {"amenity": "ice_cream", "contact:city": "Paris", "contact:housenumber": "4", "contact:postcode": "75004", "contact:street": "Rue des \u00c9couffes", "name": "La Paleteria", "outdoor_seating": "no", "wheelchair": "no"}}, {"type": "node", "id": 5036225649, "lat": 48.8315389, "lon": 2.3571441, "tags": {"amenity": "ice_cream", "name": "La Tropicale", "takeaway": "only", "wheelchair": "no"}}, {"type": "node", "id": 5084081635, "lat": 48.8526294, "lon": 2.3359876, "tags": {"amenity": "ice_cream", "name": "Frozen Yoghurt", "outdoor_seating": "no", "takeaway": "yes"}}, {"type": "node", "id": 5127021444, "lat": 48.8617812, "lon": 2.3514536, "tags": {"amenity": "ice_cream", "contact:city": "Paris", "contact:housenumber": "58", "contact:phone": "+33 9 52 79 73 00", "contact:postcode": "75004", "contact:street": "Rue Rambuteau", "contact:website": "https://bachir.fr/", "cuisine": "lebanese", "indoor_seating": "no", "name": "Bachir", "organic": "only", "outdoor_seating": "no", "smoking": "outside", "source": "survey 09/2017", "takeaway": "only", "wheelchair": "no"}}, {"type": "node", "id": 5353492573, "lat": 48.8607423, "lon": 2.351099, "tags": {"amenity": "ice_cream", "brand": "Amorino", "brand:wikidata": "Q2843884", "brand:wikipedia": "fr:Amorino", "indoor_seating": "yes", "name": "Amorino", "outdoor_seating": "yes", "wheelchair": "limited"}}, {"type": "node", "id": 5569363622, "lat": 48.847409, "lon": 2.3413583, "tags": {"addr:housenumber": "26", "addr:postcode": "75005", "addr:street": "Rue Soufflot", "amenity": "ice_cream", "name": "La Fabrique Givr\u00e9e", "opening_hours": "Su-Th 13:00-20:00; Fr 13:00-22:00, Sa 11:00-22:00", "outdoor_seating": "yes", "phone": "+33 9 54 16 73 75", "smoking": "outside", "takeaway": "yes", "toilets": "no", "website": "https://www.lafabriquegivree.com/nos-boutiques/12-", "wheelchair": "yes"}}, {"type": "node", "id": 5655629100, "lat": 48.8572938, "lon": 2.3549222, "tags": {"amenity": "ice_cream", "name": "Michalak"}}, {"type": "node", "id": 5787321094, "lat": 48.8465601, "lon": 2.3813781, "tags": {"addr:city": "Paris", "addr:housenumber": "70", "addr:postcode": "75012", "addr:street": "Boulevard Diderot", "amenity": "ice_cream", "name": "Maison Lebrun", "opening_hours": "Mo-Fr 07:30-16:00; Sa-Su \"sur commande\"", "outdoor_seating": "no"}}, {"type": "node", "id": 5944110686, "lat": 48.8540941, "lon": 2.3497377, "tags": {"amenity": "ice_cream", "brand": "Amorino", "brand:wikidata": "Q2843884", "brand:wikipedia": "fr:Amorino", "indoor_seating": "yes", "name": "Amorino", "opening_hours": "Mo-Th 11:00-23:00, Fr-Su 11:00-23:30", "outdoor_seating": "yes", "wheelchair": "no"}}, {"type": "node", "id": 5955091082, "lat": 48.8635473, "lon": 2.346295, "tags": {"amenity": "ice_cream", "brand": "Amorino", "brand:wikidata": "Q2843884", "brand:wikipedia": "fr:Amorino", "contact:city": "Paris", "contact:housenumber": "9", "contact:phone": "+33 1 42 36 26 83", "contact:postcode": "75001", "contact:street": "Rue Montorgueil", "contact:website": "http://www.amorino.com/fr/boutique/paris-montorgueil", "indoor_seating": "yes", "name": "Amorino", "opening_hours": "Mo-Th 12:30-23:30; Fr,Sa 12:30-24:00; Su 12:30-21:30", "outdoor_seating": "yes", "survey:date": "2022-03-12", "wheelchair": "no"}}, {"type": "node", "id": 6117078242, "lat": 48.8727732, "lon": 2.3637191, "tags": {"amenity": "ice_cream", "brand": "Amorino", "brand:wikidata": "Q2843884", "brand:wikipedia": "fr:Amorino", "check_date": "2023-02-18", "name": "Amorino", "opening_hours": "Mo-Su 11:00-24:00", "source": "survey 12/2018", "takeaway": "yes"}}, {"type": "node", "id": 6134642533, "lat": 48.840498, "lon": 2.3208881}, {"type": "node", "id": 6134642534, "lat": 48.8404511, "lon": 2.3208305}, {"type": "node", "id": 6134642535, "lat": 48.840446, "lon": 2.3208152}, {"type": "node", "id": 6134679174, "lat": 48.8404759, "lon": 2.320861, "tags": {"amenity": "reception_desk"}}, {"type": "node", "id": 6450193421, "lat": 48.871084, "lon": 2.3650219, "tags": {"amenity": "ice_cream", "check_date": "2023-04-09", "level": "0", "name": "Sucre Glace", "opening_hours": "Mo-Th 13:00-21:00, Fr-Su 13:00-24:00", "outdoor_seating": "no", "takeaway": "yes", "toilets": "no", "website": "http://sucre-glace.fr", "wheelchair": "no"}}, {"type": "node", "id": 6694677885, "lat": 48.8519499, "lon": 2.334699, "tags": {"amenity": "ice_cream", "brand": "Amorino", "brand:wikidata": "Q2843884", "changing_table": "no", "name": "Amorino", "opening_hours": "Mo-Fr 12:45-23:45; Sa 12:45-24:00; Su 13:00-23:00", "outdoor_seating": "yes", "smoking": "no", "takeaway": "yes", "toilets": "no", "wheelchair": "no"}}, {"type": "node", "id": 6698179985, "lat": 48.8850627, "lon": 2.3367574, "tags": {"amenity": "ice_cream", "brand": "Amorino", "brand:wikidata": "Q2843884", "brand:wikipedia": "fr:Amorino", "diet:vegan": "yes", "name": "Amorino", "opening_hours": "Mo-Su 11:30-00:00"}}, {"type": "node", "id": 6929661990, "lat": 48.8517984, "lon": 2.3568147, "tags": {"amenity": "ice_cream", "name": "En face... Berthillon", "source": "survey", "wheelchair": "yes"}}, {"type": "node", "id": 7374832528, "lat": 48.845265, "lon": 2.3254553, "tags": {"amenity": "ice_cream", "brand": "Amorino", "brand:wikidata": "Q2843884", "brand:wikipedia": "fr:Amorino", "name": "Amorino", "wheelchair": "yes"}}, {"type": "node", "id": 7545090370, "lat": 48.8861014, "lon": 2.3188691, "tags": {"addr:city": "Paris", "addr:housenumber": "59", "addr:postcode": "75017", "addr:street": "Rue des Batignolles", "amenity": "ice_cream", "brand": "Amorino", "brand:wikidata": "Q2843884", "brand:wikipedia": "fr:Amorino", "name": "Amorino", "opening_hours": "Mo-Su 11:00-23:45"}}, {"type": "node", "id": 7575349863, "lat": 48.8398656, "lon": 2.3562084, "tags": {"amenity": "ice_cream", "contact:email": "charlotte@glaces-glazed.com", "contact:phone": "+33 7 83 93 64 98", "delivery:covid19": "yes", "name": "Glaces Glazed Saint-Hilaire", "opening_hours:covid19": "open", "website": "https://www.epicery.com/epiceries/copie-de-glaces-glazed-429ca058-10d2-4464-9bfb-846dba488f1c"}}, {"type": "node", "id": 7575378791, "lat": 48.8492383, "lon": 2.325013, "tags": {"amenity": "ice_cream", "contact:email": "contact@fruttinibymo.fr", "contact:facebook": "https://fr-fr.facebook.com/fruttinibymo/", "contact:phone": "+33 1 43 20 47 31", "contact:website": "https://shop.fruttinibymo.fr/", "name": "Fruttini by MO", "opening_hours": "Mo-Sa 10:30-19:00; Su 10:30-13:30", "outdoor_seating": "yes", "twitter": "https://twitter.com/FruttiniBymo"}}, {"type": "node", "id": 7598908643, "lat": 48.8562947, "lon": 2.3065211, "tags": {"amenity": "ice_cream", "brand": "Amorino", "brand:wikidata": "Q2843884", "brand:wikipedia": "fr:Amorino", "name": "Amorino", "opening_hours": "Su-Th 10:30-23:50; Fr,Sa 10:30-12:00", "outdoor_seating": "yes", "website": "https://www.amorino.com/fr/boutique/paris-cler.7.html"}}, {"type": "node", "id": 7828700899, "lat": 48.8327949, "lon": 2.3862832, "tags": {"amenity": "ice_cream", "brand": "Amorino", "changing_table": "no", "delivery": "no", "name": "Amorino", "outdoor_seating": "no", "smoking": "no", "takeaway": "only", "toilets": "no", "wheelchair": "yes"}}, {"type": "node", "id": 7995599851, "lat": 48.8846254, "lon": 2.3382689, "tags": {"amenity": "ice_cream", "diet:vegan": "no", "email": "abbesses@une-glace-a-paris.fr", "name": "Une Glace \u00e0 Paris", "outdoor_seating": "yes", "phone": "+33 142573340", "takeaway": "yes", "website": "http://www.une-glace-a-paris.fr"}}, {"type": "node", "id": 8269359956, "lat": 48.8592002, "lon": 2.3474063, "tags": {"amenity": "ice_cream", "name": "Pink More", "takeaway": "only"}}, {"type": "node", "id": 8961420278, "lat": 48.8841544, "lon": 2.3412639, "tags": {"amenity": "ice_cream", "contact:city": "Paris", "contact:housenumber": "9", "contact:postcode": "75018", "contact:street": "Rue des Trois Fr\u00e8res", "name": "Gelato Morice Galka"}}, {"type": "node", "id": 9300017473, "lat": 48.8786062, "lon": 2.3398371, "tags": {"amenity": "ice_cream", "name": "Fruttini", "takeaway": "yes"}}, {"type": "node", "id": 9300017484, "lat": 48.8792139, "lon": 2.3400296, "tags": {"amenity": "ice_cream", "brand": "Amorino", "brand:wikidata": "Q2843884", "name": "Amorino", "takeaway": "yes"}}, {"type": "node", "id": 9540570217, "lat": 48.8544694, "lon": 2.3720371, "tags": {"amenity": "ice_cream", "contact:city": "Paris", "contact:housenumber": "38", "contact:postcode": "75011", "contact:street": "Rue de la Roquette", "name": "La Glace Alain Ducasse"}}, {"type": "node", "id": 9609176617, "lat": 48.8527921, "lon": 2.3540627, "tags": {"amenity": "ice_cream", "name": "Berthillon Esterina"}}, {"type": "node", "id": 9708641337, "lat": 48.8394272, "lon": 2.443961, "tags": {"amenity": "ice_cream", "name": "Mon petit glacier", "outdoor_seating": "no", "takeaway": "only", "toilets": "no", "wheelchair": "yes"}}, {"type": "node", "id": 9733510339, "lat": 48.8404627, "lon": 2.3208052}, {"type": "node", "id": 9733510340, "lat": 48.8405042, "lon": 2.3208503}, {"type": "node", "id": 9733510341, "lat": 48.8405106, "lon": 2.3208644}, {"type": "node", "id": 9733510342, "lat": 48.8404774, "lon": 2.3208173}, {"type": "node", "id": 9733510343, "lat": 48.8404646, "lon": 2.3208016}, {"type": "node", "id": 9733510344, "lat": 48.8404754, "lon": 2.320821}, {"type": "node", "id": 9733510438, "lat": 48.8405022, "lon": 2.320854}, {"type": "node", "id": 9733511158, "lat": 48.8404466, "lon": 2.3208244}, {"type": "node", "id": 9733511159, "lat": 48.8404456, "lon": 2.3208207}, {"type": "node", "id": 9733511160, "lat": 48.8404485, "lon": 2.3208274}, {"type": "node", "id": 9758280742, "lat": 48.8856986, "lon": 2.3348872, "tags": {"amenity": "ice_cream", "name": "Pepone"}}, {"type": "node", "id": 9788520434, "lat": 48.8538909, "lon": 2.3375014, "tags": {"amenity": "ice_cream", "cuisine": "frozen_yogurt;ice_cream;acai_bowl", "diet:gluten_free": "yes", "diet:lactose_free": "yes", "diet:vegan": "yes", "diet:vegetarian": "yes", "name": "California Bliss", "opening_hours": "12:30-19:00", "phone": "+33 1 43 29 92 75", "website": "https://www.california-bliss.com", "wheelchair": "designated"}}, {"type": "node", "id": 9849041610, "lat": 48.8477411, "lon": 2.3403896, "tags": {"amenity": "ice_cream", "brand": "H\u00e4agen-Dazs", "brand:wikidata": "Q1143333", "indoor_seating": "yes", "name": "H\u00e4agen-Dazs", "outdoor_seating": "yes", "smoking": "outside", "takeaway": "yes", "wheelchair": "no"}}, {"type": "node", "id": 9869127873, "lat": 48.8611436, "lon": 2.3513129, "tags": {"amenity": "ice_cream", "name": "Louise", "website": "https://louiseglaces.com/nous-trouver/"}}, {"type": "node", "id": 9884966281, "lat": 48.8439488, "lon": 2.3287472, "tags": {"addr:city": "Paris", "addr:housenumber": "120", "addr:postcode": "75006", "addr:street": "Boulevard Raspail", "amenity": "ice_cream", "email": "contact@girottiparis.com", "name": "Girotti", "opening_hours": "08:00-20:00", "phone": "+33 1 43 35 34 30", "website": "https://www.girottiparis.com/"}}, {"type": "node", "id": 9892290666, "lat": 48.8567069, "lon": 2.3562471, "tags": {"amenity": "ice_cream", "contact:instagram": "pozzettoparis", "name": "Pozzetto", "takeaway": "yes", "website": "http://www.pozzetto.biz"}}, {"type": "node", "id": 9898312901, "lat": 48.8581924, "lon": 2.3530128, "tags": {"amenity": "ice_cream", "indoor_seating": "yes", "name": "La glacerie", "outdoor_seating": "yes"}}, {"type": "node", "id": 9943064221, "lat": 48.8840916, "lon": 2.3419899, "tags": {"amenity": "ice_cream", "name": "Glace Bachir"}}, {"type": "node", "id": 10024650574, "lat": 48.8784334, "lon": 2.2653299, "tags": {"amenity": "ice_cream", "name": "Les d\u00e9lices de la rotonde"}}, {"type": "node", "id": 10106531468, "lat": 48.8569554, "lon": 2.3064261, "tags": {"amenity": "ice_cream", "name": "Martine Lambert"}}, {"type": "node", "id": 10178083067, "lat": 48.8655159, "lon": 2.3342469, "tags": {"amenity": "ice_cream", "brand": "H\u00e4agen-Dazs", "brand:wikidata": "Q1143333", "name": "H\u00e4agen-Dazs", "opening_hours": "12:00-24:00"}}, {"type": "node", "id": 10223454559, "lat": 48.844266, "lon": 2.2832882, "tags": {"amenity": "ice_cream", "contact:city": "Paris", "contact:housenumber": "124", "contact:postcode": "75015", "contact:street": "Rue Saint-Charles", "contact:website": "https://www.lechocolat-alainducasse.com", "name": "La Glace Alain Ducasse", "opening_hours": "Mo-Su 10:00-19:30"}}, {"type": "node", "id": 10605901211, "lat": 48.8641275, "lon": 2.3602312, "tags": {"amenity": "ice_cream", "name": "Moustache"}}, {"type": "node", "id": 10795391247, "lat": 48.854823, "lon": 2.3653565, "tags": {"addr:city": "Paris", "addr:housenumber": "16", "addr:postcode": "75004", "addr:street": "Rue de Birague", "amenity": "ice_cream", "name": "Pedone"}}, {"type": "way", "id": 217860707, "nodes": [2271679223, 2271679222, 2271679224, 2271679225, 2271679223], "tags": {"amenity": "ice_cream", "area": "yes", "brand": "Amorino", "brand:wikidata": "Q2843884", "brand:wikipedia": "fr:Amorino", "name": "Glace room", "old_name": "Change & Or", "source": "survey"}}, {"type": "way", "id": 333438260, "nodes": [3405498230, 3405498228, 3405498229, 3403997945, 3405498233, 3405498232, 3405498230], "tags": {"amenity": "ice_cream", "indoor": "room", "level": "0", "name": "Fred's", "opening_hours": "Mo-Fr 07:30-20:00; Sa 09:00-20:00; Su 10:00-19:00", "takeaway": "only", "wheelchair": "yes"}}, {"type": "way", "id": 654676526, "nodes": [3965473575, 6134642535, 9733511159, 9733511158, 9733511160, 6134642534, 6134679174, 6134642533, 9733510341, 9733510438, 9733510340, 9733510342, 9733510344, 9733510339, 9733510343, 3965473575], "tags": {"amenity": "ice_cream", "brand": "Yogurt Factory", "brand:wikidata": "Q104600544", "cuisine": "frozen_yogurt", "indoor": "room", "level": "2", "name": "Yogurt Factory", "takeaway": "only", "website": "http://yogurtfactory.fr/", "wheelchair": "yes"}}]}