{"version": 0.6, "generator": "Overpass API 0.7.60 f4c14d41", "osm3s": {"timestamp_osm_base": "2023-05-02T21:16:21Z", "copyright": "The data included in this document is from www.openstreetmap.org. The data is made available under ODbL."}, "elements": [{"type": "node", "id": 332516872, "lat": -22.9292266, "lon": -43.1774755, "tags": {"amenity": "bank", "atm": "yes", "brand": "Banco do Brasil", "brand:wikidata": "Q610817", "brand:wikipedia": "en:Banco do Brasil", "name": "Banco do Brasil"}}, {"type": "node", "id": 338511246, "lat": -22.9047671, "lon": -43.1789627, "tags": {"addr:city": "Rio de Janeiro", "addr:housenumber": "50", "addr:street": "Rua Gon\u00e7alves Dias", "addr:suburb": "Centro", "amenity": "bank", "atm": "yes", "brand": "Banco do Brasil", "brand:wikidata": "Q610817", "name": "Banco do Brasil"}}, {"type": "node", "id": 346241029, "lat": -22.9339228, "lon": -43.186342}, {"type": "node", "id": 346241031, "lat": -22.9340416, "lon": -43.1862559}, {"type": "node", "id": 346241032, "lat": -22.9341676, "lon": -43.1864596}, {"type": "node", "id": 346241033, "lat": -22.9340507, "lon": -43.1865435}, {"type": "node", "id": 346244927, "lat": -22.9334494, "lon": -43.1852912, "tags": {"addr:city": "Rio de Janeiro", "addr:housenumber": "183B", "addr:street": "Rua das Laranjeiras", "addr:suburb": "Laranjeiras", "amenity": "bank", "atm": "yes", "brand": "Ita\u00fa Unibanco", "brand:wikidata": "Q1424293", "brand:wikipedia": "pt:Ita\u00fa Unibanco", "drive_through": "no", "name": "Ita\u00fa"}}, {"type": "node", "id": 346245038, "lat": -22.9334415, "lon": -43.1851968, "tags": {"addr:city": "Rio de Janeiro", "addr:housenumber": "183A", "addr:street": "Rua das Laranjeiras", "addr:suburb": "Laranjeiras", "amenity": "bank", "atm": "yes", "brand": "Ita\u00fa Unibanco", "brand:wikidata": "Q1424293", "name": "Ita\u00fa", "operator": "Itau"}}, {"type": "node", "id": 346252475, "lat": -22.9321043, "lon": -43.1806789}, {"type": "node", "id": 376156625, "lat": -23.0039526, "lon": -43.319627}, {"type": "node", "id": 416165995, "lat": -22.9485608, "lon": -43.1826517, "tags": {"addr:city": "Rio de Janeiro", "addr:country": "BR", "addr:housenumber": "428", "addr:street": "Praia de Botafogo", "addr:suburb": "Botafogo", "amenity": "bank", "atm": "yes", "brand": "Bradesco", "brand:wikidata": "Q806181", "brand:wikipedia": "en:Banco Bradesco", "drive_through": "no", "name": "Bradesco"}}, {"type": "node", "id": 430992417, "lat": -22.8942508, "lon": -43.1190843, "tags": {"amenity": "bank", "atm": "yes", "brand": "Banco do Brasil", "brand:wikidata": "Q610817", "name": "Banco do Brasil"}}, {"type": "node", "id": 431750125, "lat": -22.9222325, "lon": -43.1772697, "tags": {"amenity": "bank", "atm": "no", "brand": "Banco BMG", "brand:wikidata": "Q16496437", "name": "Banco BMG"}}, {"type": "node", "id": 452657779, "lat": -22.9282283, "lon": -43.1771687, "tags": {"addr:housenumber": "222A", "addr:street": "Rua do Catete", "amenity": "bank", "atm": "yes", "brand": "Bradesco", "brand:wikidata": "Q806181", "brand:wikipedia": "en:Banco Bradesco", "name": "Bradesco", "url": "http://bradesco.com.br/"}}, {"type": "node", "id": 452657806, "lat": -22.9276191, "lon": -43.1770239, "tags": {"amenity": "bank", "atm": "yes", "brand": "Santander", "brand:wikidata": "Q5835668", "name": "Santander", "url": "http://santander.com.br/"}}, {"type": "node", "id": 452657818, "lat": -22.9273704, "lon": -43.1768969, "tags": {"addr:city": "Rio de Janeiro", "addr:housenumber": "192", "addr:street": "Rua do Catete", "addr:suburb": "Catete", "amenity": "bank", "atm": "yes", "brand": "Ita\u00fa Unibanco", "brand:wikidata": "Q1424293", "name": "Ita\u00fa", "url": "http://itau.com.br/"}}, {"type": "node", "id": 468728528, "lat": -22.9426075, "lon": -43.1813947, "tags": {"addr:city": "Rio de Janeiro", "addr:suburb": "Botafogo", "amenity": "bank", "brand": "Ita\u00fa Unibanco", "brand:wikidata": "Q1424293", "brand:wikipedia": "pt:Ita\u00fa Unibanco", "drive_through": "no", "name": "Ita\u00fa"}}, {"type": "node", "id": 479877093, "lat": -22.9059228, "lon": -43.1738471, "tags": {"amenity": "bank", "atm": "yes", "brand": "Ita\u00fa Unibanco", "brand:wikidata": "Q1424293", "name": "Ita\u00fa"}}, {"type": "node", "id": 479880303, "lat": -22.905488, "lon": -43.1741647, "tags": {"amenity": "bank", "atm": "yes", "brand": "Bradesco", "brand:wikidata": "Q806181", "brand:wikipedia": "en:Banco Bradesco", "name": "Bradesco"}}, {"type": "node", "id": 492360818, "lat": -22.9055004, "lon": -43.1776399, "tags": {"amenity": "bank", "atm": "yes", "brand": "Caixa Econ\u00f4mica Federal", "brand:wikidata": "Q835283", "name": "Caixa Econ\u00f4mica Federal"}}, {"type": "node", "id": 492360968, "lat": -22.9062055, "lon": -43.1774092, "tags": {"amenity": "bank", "atm": "yes", "brand": "Ita\u00fa Unibanco", "brand:wikidata": "Q1424293", "name": "Ita\u00fa", "old_name": "Unibanco"}}, {"type": "node", "id": 492361001, "lat": -22.9059669, "lon": -43.1774425, "tags": {"amenity": "bank", "atm": "yes", "brand": "Banco do Brasil", "brand:wikidata": "Q610817", "name": "Banco do Brasil"}}, {"type": "node", "id": 500964606, "lat": -22.8962915, "lon": -43.1680878, "tags": {"amenity": "bank", "atm": "yes", "brand": "Banco do Brasil", "brand:wikidata": "Q610817", "name": "Banco do Brasil"}}, {"type": "node", "id": 500964607, "lat": -22.8961921, "lon": -43.1684084, "tags": {"amenity": "bank", "atm": "yes", "brand": "Ita\u00fa Unibanco", "brand:wikidata": "Q1424293", "name": "Ita\u00fa"}}, {"type": "node", "id": 509333964, "lat": -22.9062278, "lon": -43.177073, "tags": {"addr:housenumber": "161", "addr:street": "Avenida Rio Branco", "amenity": "bank", "atm": "yes", "brand": "Ita\u00fa Unibanco", "brand:wikidata": "Q1424293", "name": "Ita\u00fa", "operator": "Ita\u00fa"}}, {"type": "node", "id": 509350446, "lat": -22.9074358, "lon": -43.1766111, "tags": {"addr:housenumber": "181a", "addr:street": "Avenida Rio Branco", "amenity": "bank", "atm": "yes", "brand": "Bradesco", "brand:wikidata": "Q806181", "name": "Bradesco"}}, {"type": "node", "id": 509350453, "lat": -22.9075228, "lon": -43.1765768, "tags": {"addr:housenumber": "185a", "addr:street": "Avenida Rio Branco", "amenity": "bank", "atm": "yes", "brand": "Ita\u00fa Unibanco", "brand:wikidata": "Q1424293", "name": "Ita\u00fa"}}, {"type": "node", "id": 509354357, "lat": -22.9076651, "lon": -43.1765253, "tags": {"amenity": "bank", "atm": "yes", "brand": "Santander", "brand:wikidata": "Q5835668", "brand:wikipedia": "en:Santander Bank", "name": "Santander"}}, {"type": "node", "id": 512745078, "lat": -22.9044882, "lon": -43.1753227, "tags": {"amenity": "bank", "atm": "yes", "brand": "Ita\u00fa Unibanco", "brand:wikidata": "Q1424293", "name": "Ita\u00fa"}}, {"type": "node", "id": 512750961, "lat": -22.904591, "lon": -43.1755201, "tags": {"amenity": "bank", "atm": "yes", "brand": "Santander", "brand:wikidata": "Q5835668", "brand:wikipedia": "en:Santander Bank", "name": "Santander"}}, {"type": "node", "id": 512764031, "lat": -22.9057348, "lon": -43.1772326, "tags": {"amenity": "bank", "atm": "yes", "branch": "Personnalit\u00e9", "brand": "Ita\u00fa Unibanco", "brand:wikidata": "Q1424293", "name": "Ita\u00fa"}}, {"type": "node", "id": 512764062, "lat": -22.9054985, "lon": -43.176852, "tags": {"addr:housenumber": "85", "addr:street": "Rua da Assembleia", "amenity": "bank", "atm": "no"}}, {"type": "node", "id": 512775172, "lat": -22.9074768, "lon": -43.1745845, "tags": {"amenity": "bank", "atm": "yes", "branch": "Prime", "brand": "Bradesco", "brand:wikidata": "Q806181", "name": "Bradesco"}}, {"type": "node", "id": 512781937, "lat": -22.9082518, "lon": -43.1762286, "tags": {"addr:city": "Rio de Janeiro", "addr:country": "BR", "addr:housenumber": "193", "addr:street": "Avenida Rio Branco", "amenity": "bank", "atm": "yes", "branch": "Personnalit\u00e9", "brand": "Ita\u00fa Unibanco", "brand:wikidata": "Q1424293", "name": "Ita\u00fa", "source": "survey"}}, {"type": "node", "id": 517737863, "lat": -22.9052077, "lon": -43.1774665, "tags": {"amenity": "bank", "atm": "yes", "brand": "Ita\u00fa Unibanco", "brand:wikidata": "Q1424293", "name": "Ita\u00fa"}}, {"type": "node", "id": 518019604, "lat": -22.9039042, "lon": -43.1782554, "tags": {"amenity": "bank", "atm": "yes", "brand": "Ita\u00fa Unibanco", "brand:wikidata": "Q1424293", "name": "Ita\u00fa", "old_name": "Unibanco"}}, {"type": "node", "id": 518019639, "lat": -22.9042308, "lon": -43.1781202, "tags": {"amenity": "bank", "atm": "yes", "branch": "Personnalit\u00e9", "brand": "Ita\u00fa Unibanco", "brand:wikidata": "Q1424293", "name": "Ita\u00fa"}}, {"type": "node", "id": 527338789, "lat": -22.9494967, "lon": -43.1890984, "tags": {"amenity": "bank", "atm": "yes", "brand": "Bradesco", "brand:wikidata": "Q806181", "brand:wikipedia": "en:Banco Bradesco", "name": "Bradesco"}}, {"type": "node", "id": 545392278, "lat": -22.9058494, "lon": -43.1788721, "tags": {"amenity": "bank", "atm": "no", "name": "Ibi"}}, {"type": "node", "id": 545504525, "lat": -22.9053096, "lon": -43.1780224, "tags": {"addr:housenumber": "99A", "addr:postcode": "20050-005", "addr:street": "Rua Sete de Setembro", "amenity": "bank", "atm": "yes", "bank:agency_name": "Rio Sete de Setembro", "bank:agency_number": "0576", "bank:bank_number": "341", "brand": "Ita\u00fa Unibanco", "brand:wikidata": "Q1424293", "name": "Ita\u00fa", "phone": "+55-21-30034828"}}, {"type": "node", "id": 553450481, "lat": -22.9108312, "lon": -43.1752415, "tags": {"amenity": "bank", "atm": "yes", "brand": "Citibank", "brand:wikidata": "Q857063", "brand:wikipedia": "en:Citibank", "name": "Citibank", "short_name": "Citi", "source": "survey"}}, {"type": "node", "id": 553450501, "lat": -22.9109079, "lon": -43.1746461, "tags": {"addr:city": "Rio de Janeiro", "addr:country": "BR", "addr:housenumber": "760", "addr:street": "Rua Santa Luzia", "amenity": "bank", "atm": "yes", "brand": "Ita\u00fa Unibanco", "brand:wikidata": "Q1424293", "name": "Ita\u00fa", "source": "survey"}}, {"type": "node", "id": 557170191, "lat": -22.9057293, "lon": -43.1767129, "tags": {"amenity": "bank", "atm": "yes", "brand": "Bradesco", "brand:wikidata": "Q806181", "name": "Bradesco"}}, {"type": "node", "id": 557558595, "lat": -22.9744149, "lon": -43.1888332, "tags": {"amenity": "bank", "atm": "yes", "brand": "Caixa Econ\u00f4mica Federal", "brand:wikidata": "Q835283", "name": "Caixa Econ\u00f4mica Federal"}}, {"type": "node", "id": 570371557, "lat": -22.904787, "lon": -43.175145, "tags": {"amenity": "bank", "atm": "yes", "brand": "Ita\u00fa Unibanco", "brand:wikidata": "Q1424293", "name": "Ita\u00fa"}}, {"type": "node", "id": 610621633, "lat": -22.9037896, "lon": -43.1759051, "tags": {"amenity": "bank", "atm": "yes", "brand": "Ita\u00fa Unibanco", "brand:wikidata": "Q1424293", "name": "Ita\u00fa", "operator": "Ita\u00fa", "source": "survey"}}, {"type": "node", "id": 633517983, "lat": -22.9064539, "lon": -43.1830982, "tags": {"amenity": "bank", "atm": "yes", "brand": "Caixa Econ\u00f4mica Federal", "brand:wikidata": "Q835283", "name": "Caixa Econ\u00f4mica Federal"}}, {"type": "node", "id": 634187557, "lat": -22.9252412, "lon": -43.2331003, "tags": {"amenity": "bank", "atm": "yes"}}, {"type": "node", "id": 634187560, "lat": -22.9245191, "lon": -43.2335025, "tags": {"amenity": "bank", "atm": "yes", "brand": "Bradesco", "brand:wikidata": "Q806181", "brand:wikipedia": "en:Banco Bradesco", "name": "Bradesco"}}, {"type": "node", "id": 634187563, "lat": -22.9250367, "lon": -43.2334014, "tags": {"amenity": "bank", "atm": "yes", "brand": "Banco do Brasil", "brand:wikidata": "Q610817", "name": "Banco do Brasil", "source": "survey"}}, {"type": "node", "id": 634187579, "lat": -22.9244506, "lon": -43.2336153, "tags": {"amenity": "bank", "atm": "yes", "brand": "Banrisul", "brand:wikidata": "Q4857098", "name": "Banrisul"}}, {"type": "node", "id": 634187591, "lat": -22.9247076, "lon": -43.2337655, "tags": {"amenity": "bank", "atm": "yes", "brand": "Ita\u00fa Unibanco", "brand:wikidata": "Q1424293", "name": "Ita\u00fa"}}, {"type": "node", "id": 637402535, "lat": -22.9034663, "lon": -43.1766871, "tags": {"amenity": "bank", "atm": "yes", "brand": "Banco do Brasil", "brand:wikidata": "Q610817", "brand:wikipedia": "en:Banco do Brasil", "name": "Banco do Brasil", "source": "survey"}}, {"type": "node", "id": 637402574, "lat": -22.9036523, "lon": -43.1769559, "tags": {"amenity": "bank", "atm": "no", "brand": "Banco BMG", "brand:wikidata": "Q16496437", "name": "Banco BMG", "source": "survey"}}, {"type": "node", "id": 637402777, "lat": -22.9036146, "lon": -43.1766013, "tags": {"amenity": "bank", "atm": "yes", "brand": "BRB", "brand:wikidata": "Q4854119", "name": "Banco de Bras\u00edlia", "source": "survey"}}, {"type": "node", "id": 677584723, "lat": -22.9066979, "lon": -43.1773155, "tags": {"amenity": "bank", "atm": "yes", "brand": "Ita\u00fa Unibanco", "brand:wikidata": "Q1424293", "name": "Ita\u00fa", "old_name": "Unibanco"}}, {"type": "node", "id": 697094868, "lat": -22.911025, "lon": -43.177232, "tags": {"addr:city": "Rio de Janeiro", "addr:country": "BR", "addr:housenumber": "37", "addr:street": "Rua Senador Dantas", "amenity": "bank", "atm": "yes", "brand": "Caixa Econ\u00f4mica Federal", "brand:wikidata": "Q835283", "name": "Caixa Econ\u00f4mica Federal"}}, {"type": "node", "id": 743348943, "lat": -22.9099392, "lon": -43.177344, "tags": {"amenity": "bank", "atm": "yes", "brand": "Ita\u00fa Unibanco", "brand:wikidata": "Q1424293", "name": "Ita\u00fa", "opening_hours": "10:00-18:00", "source": "survey", "website": "https://www.itau.com.br/"}}, {"type": "node", "id": 743618345, "lat": -22.909606, "lon": -43.1768772, "tags": {"addr:city": "Rio de Janeiro", "addr:country": "BR", "addr:housenumber": "16", "addr:street": "Rua Evaristo da Veiga", "addr:suburb": "Centro", "air_conditioning": "yes", "amenity": "bank", "atm": "yes", "brand": "Banco do Brasil", "brand:wikidata": "Q610817", "brand:wikipedia": "en:Banco do Brasil", "drive_through": "no", "name": "Banco do Brasil", "opening_hours:covid19": "Mo-Su 10:00-14:00", "operator": "Banco do Brasil", "source": "survey"}}, {"type": "node", "id": 771839346, "lat": -22.9844186, "lon": -43.1981344, "tags": {"amenity": "bank", "atm": "yes", "brand": "Bradesco", "brand:wikidata": "Q806181", "brand:wikipedia": "en:Banco Bradesco", "name": "Sicoob"}}, {"type": "node", "id": 774642107, "lat": -22.910669, "lon": -43.1774686, "tags": {"amenity": "bank", "atm": "yes", "brand": "Ita\u00fa Unibanco", "brand:wikidata": "Q1424293", "name": "Ita\u00fa", "opening_hours": "08:00 - 16:00", "website": "https://www.itau.com.br/"}}, {"type": "node", "id": 805058281, "lat": -22.9071272, "lon": -43.1764678, "tags": {"addr:city": "Rio de Janeiro", "addr:country": "BR", "addr:housenumber": "35B", "addr:postcode": "20040-000", "addr:street": "Rua da Ajuda", "amenity": "bank", "atm": "yes", "brand": "Banco Mercantil do Brasil", "brand:wikidata": "Q9645252", "name": "Banco Mercantil do Brasil", "phone": "+55-21-30771600", "website": "http://www.mercantildobrasil.com.br/"}}, {"type": "node", "id": 805075039, "lat": -22.9067516, "lon": -43.1743006, "tags": {"addr:city": "Rio de Janeiro", "addr:country": "BR", "addr:housenumber": "80", "addr:street": "Rua Debret", "amenity": "bank", "atm": "yes", "brand": "Ita\u00fa Unibanco", "brand:wikidata": "Q1424293", "name": "Ita\u00fa"}}, {"type": "node", "id": 810378107, "lat": -22.9316046, "lon": -43.1802656, "tags": {"amenity": "bank", "atm": "yes", "brand": "Santander", "brand:wikidata": "Q5835668", "name": "Santander"}}, {"type": "node", "id": 814276684, "lat": -22.9100455, "lon": -43.202273, "tags": {"amenity": "bank", "atm": "yes", "brand": "Santander", "brand:wikidata": "Q5835668", "name": "Santander", "operator": "Santander"}}, {"type": "node", "id": 814334141, "lat": -22.9617708, "lon": -43.2080311, "tags": {"amenity": "bank", "atm": "yes", "brand": "Ita\u00fa Unibanco", "brand:wikidata": "Q1424293", "name": "Ita\u00fa", "operator": "Unibanco/Ita\u00fa"}}, {"type": "node", "id": 816039832, "lat": -22.9093792, "lon": -43.1772991, "tags": {"amenity": "bank", "atm": "yes", "brand": "Ita\u00fa Unibanco", "brand:wikidata": "Q1424293", "name": "Ita\u00fa", "operator": "Unibanco"}}, {"type": "node", "id": 816080427, "lat": -22.9107641, "lon": -43.176103, "tags": {"amenity": "bank", "atm": "yes", "brand": "Caixa Econ\u00f4mica Federal", "brand:wikidata": "Q835283", "name": "Caixa Econ\u00f4mica Federal", "operator": "Caixa"}}, {"type": "node", "id": 847943235, "lat": -23.0534546, "lon": -43.5780614, "tags": {"amenity": "bank", "atm": "yes", "brand": "Banco do Brasil", "brand:wikidata": "Q610817", "name": "Banco do Brasil"}}, {"type": "node", "id": 868656273, "lat": -22.9247437, "lon": -43.1766529, "tags": {"addr:city": "Rio de Janeiro", "addr:country": "BR", "addr:housenumber": "117", "addr:postcode": "22220-000", "addr:street": "Rua do Catete", "addr:suburb": "Catete", "amenity": "bank", "atm": "yes", "brand": "Ita\u00fa Unibanco", "brand:wikidata": "Q1424293", "brand:wikipedia": "pt:Ita\u00fa Unibanco", "drive_through": "no", "name": "Ita\u00fa", "old_name": "Unibanco"}}, {"type": "node", "id": 892159644, "lat": -22.9677017, "lon": -43.1821379, "tags": {"amenity": "bank", "atm": "yes", "brand": "Caixa Econ\u00f4mica Federal", "brand:wikidata": "Q835283", "name": "Caixa Econ\u00f4mica Federal"}}, {"type": "node", "id": 892159811, "lat": -22.968491, "lon": -43.1840417, "tags": {"amenity": "bank", "atm": "yes", "brand": "Santander", "brand:wikidata": "Q5835668", "brand:wikipedia": "en:Santander Bank", "name": "Santander"}}, {"type": "node", "id": 929734571, "lat": -22.9009434, "lon": -43.2767841, "tags": {"amenity": "bank", "atm": "yes", "brand": "Ita\u00fa Unibanco", "brand:wikidata": "Q1424293", "name": "Ita\u00fa", "old_name": "Unibanco"}}, {"type": "node", "id": 964808296, "lat": -22.9115679, "lon": -43.1750385, "tags": {"amenity": "bank", "atm": "yes", "brand": "Santander", "brand:wikidata": "Q5835668", "brand:wikipedia": "en:Santander Bank", "name": "Santander"}}, {"type": "node", "id": 1110773776, "lat": -22.9503438, "lon": -43.1848545, "tags": {"addr:city": "Rio de Janeiro", "addr:country": "BR", "addr:housenumber": "100 Lojas 114 e 115", "addr:postcode": "22260-005", "addr:street": "Rua Nelson Mandela", "amenity": "bank", "atm": "yes", "brand": "Bradesco", "brand:wikidata": "Q806181", "name": "Bradesco", "phone": "+55-21-25270411", "website": "http://www.bradesco.com.br/"}}, {"type": "node", "id": 1179637550, "lat": -22.9044237, "lon": -43.1780664, "tags": {"amenity": "bank", "atm": "yes", "brand": "Bradesco", "brand:wikidata": "Q806181", "name": "Bradesco"}}, {"type": "node", "id": 1180669888, "lat": -22.9358682, "lon": -43.175449, "tags": {"addr:city": "Rio de Janeiro", "addr:housenumber": "98", "addr:postcode": "22230-001", "addr:street": "Rua Senador Vergueiro", "addr:suburb": "Flamengo", "amenity": "bank", "atm": "yes", "brand": "Ita\u00fa Unibanco", "brand:wikidata": "Q1424293", "brand:wikipedia": "pt:Ita\u00fa Unibanco", "drive_through": "no", "name": "Ita\u00fa"}}, {"type": "node", "id": 1185122361, "lat": -22.9037316, "lon": -43.1779645, "tags": {"amenity": "bank", "atm": "yes", "brand": "Ita\u00fa Unibanco", "brand:wikidata": "Q1424293", "name": "Ita\u00fa", "old_name": "Unibanco", "source": "survey"}}, {"type": "node", "id": 1185122365, "lat": -22.903156, "lon": -43.1781777, "tags": {"amenity": "bank", "atm": "yes", "brand": "Ita\u00fa Unibanco", "brand:wikidata": "Q1424293", "name": "Ita\u00fa", "source": "survey"}}, {"type": "node", "id": 1185122374, "lat": -22.9040278, "lon": -43.177831, "tags": {"amenity": "bank", "atm": "yes", "brand": "Caixa Econ\u00f4mica Federal", "brand:wikidata": "Q835283", "name": "Caixa Econ\u00f4mica Federal", "source": "survey"}}, {"type": "node", "id": 1185122380, "lat": -22.9042067, "lon": -43.1777571, "tags": {"amenity": "bank", "atm": "yes", "brand": "Bradesco", "brand:wikidata": "Q806181", "name": "Bradesco", "source": "survey"}}, {"type": "node", "id": 1234306511, "lat": -22.9318908, "lon": -43.1747005, "tags": {"amenity": "bank", "atm": "yes", "brand": "Santander", "brand:wikidata": "Q5835668", "name": "Santander", "old_name": "Real"}}, {"type": "node", "id": 1237814744, "lat": -22.9104818, "lon": -43.1744563, "tags": {"addr:city": "Rio de Janeiro", "addr:housenumber": "70", "addr:street": "Rua M\u00e9xico", "addr:suburb": "Centro", "amenity": "bank", "atm": "yes", "brand": "Bradesco", "brand:wikidata": "Q806181", "name": "Bradesco", "source": "survey"}}, {"type": "node", "id": 1237821526, "lat": -22.9095922, "lon": -43.174805, "tags": {"amenity": "bank", "atm": "yes", "brand": "Santander", "brand:wikidata": "Q5835668", "brand:wikipedia": "en:Santander Bank", "name": "Santander", "source": "survey"}}, {"type": "node", "id": 1237821545, "lat": -22.9098491, "lon": -43.1747031, "tags": {"amenity": "bank", "atm": "yes", "brand": "Banco do Brasil", "brand:wikidata": "Q610817", "description": "Ag\u00eancia Pedro Lessa", "name": "Banco do Brasil", "source": "survey"}}, {"type": "node", "id": 1265049934, "lat": -22.9533537, "lon": -43.1892036, "tags": {"addr:housenumber": "225", "addr:street": "Rua Volunt\u00e1rios da P\u00e1tria", "amenity": "bank", "atm": "yes", "brand": "Bradesco", "brand:wikidata": "Q806181", "brand:wikipedia": "en:Banco Bradesco", "name": "Bradesco", "opening_hours": "Mo-Fr 10:00-16:00", "source": "survey", "wheelchair": "yes"}}, {"type": "node", "id": 1265049946, "lat": -22.9531455, "lon": -43.1886981}, {"type": "node", "id": 1307360958, "lat": -22.9641527, "lon": -43.1721819, "tags": {"addr:street": "Avenida Atl\u00e2ntica", "amenity": "bank", "atm": "yes", "branch": "Atl\u00e2ntica", "brand": "Ita\u00fa Unibanco", "brand:wikidata": "Q1424293", "drive_through": "yes", "name": "Ita\u00fa", "operator": "Ita\u00fa"}}, {"type": "node", "id": 1345391071, "lat": -22.9856903, "lon": -43.2269652, "tags": {"amenity": "bank", "atm": "yes", "brand": "Ita\u00fa Unibanco", "brand:wikidata": "Q1424293", "name": "Ita\u00fa"}}, {"type": "node", "id": 1346432705, "lat": -22.9012915, "lon": -43.1761549, "tags": {"amenity": "bank", "atm": "yes", "brand": "Banco do Brasil", "brand:wikidata": "Q610817", "name": "Banco do Brasil", "operator": "Banco do Brasil"}}, {"type": "node", "id": 1374273904, "lat": -22.9834359, "lon": -43.2175435, "tags": {"addr:city": "Rio de Janeiro", "addr:suburb": "Leblon", "amenity": "bank", "atm": "yes", "brand": "Ita\u00fa Unibanco", "brand:wikidata": "Q1424293", "brand:wikipedia": "pt:Ita\u00fa Unibanco", "drive_through": "no", "name": "Ita\u00fa"}}, {"type": "node", "id": 1401621040, "lat": -22.8992542, "lon": -43.1339121}, {"type": "node", "id": 1401621041, "lat": -22.8993333, "lon": -43.1338581}, {"type": "node", "id": 1401621042, "lat": -22.8992532, "lon": -43.1340099}, {"type": "node", "id": 1401621043, "lat": -22.8994154, "lon": -43.1340043}, {"type": "node", "id": 1401621047, "lat": -22.8994154, "lon": -43.1339049}, {"type": "node", "id": 1401621048, "lat": -22.8993347, "lon": -43.1340586}, {"type": "node", "id": 1401729801, "lat": -22.9323077, "lon": -43.2401673, "tags": {"amenity": "bank", "atm": "yes", "brand": "Banco do Brasil", "brand:wikidata": "Q610817", "name": "Banco do Brasil"}}, {"type": "node", "id": 1438001718, "lat": -22.8994154, "lon": -43.1339494}, {"type": "node", "id": 1438006830, "lat": -22.8992764, "lon": -43.133897}, {"type": "node", "id": 1457107115, "lat": -22.9027824, "lon": -43.1763716, "tags": {"amenity": "bank", "atm": "yes", "brand": "Santander", "brand:wikidata": "Q5835668", "brand:wikipedia": "en:Santander Bank", "drive_through": "no", "name": "Santander"}}, {"type": "node", "id": 1493392238, "lat": -22.9836817, "lon": -43.2047659, "tags": {"amenity": "bank", "atm": "yes", "brand": "Banco do Brasil", "brand:wikidata": "Q610817", "brand:wikipedia": "en:Banco do Brasil", "name": "Banco do Brasil", "operator": "Banco do Brasil"}}, {"type": "node", "id": 1545834076, "lat": -22.9025902, "lon": -43.1788429, "tags": {"amenity": "bank", "atm": "yes", "brand": "Ita\u00fa Unibanco", "brand:wikidata": "Q1424293", "name": "Ita\u00fa"}}, {"type": "node", "id": 1546449460, "lat": -22.925502, "lon": -43.2443442, "tags": {"addr:city": "Rio de Janeiro", "addr:street": "Rua Bar\u00e3o de Mesquita", "amenity": "bank", "atm": "yes", "brand": "Santander", "brand:wikidata": "Q5835668", "name": "Santander"}}, {"type": "node", "id": 1583784559, "lat": -22.9655343, "lon": -43.2375151, "tags": {"amenity": "bank", "atm": "yes", "brand": "Banco do Brasil", "brand:wikidata": "Q610817", "name": "Banco do Brasil"}}, {"type": "node", "id": 1596349780, "lat": -22.9486914, "lon": -43.1826363, "tags": {"addr:city": "Rio de Janeiro", "addr:country": "BR", "addr:housenumber": "440 - Loja A", "addr:street": "Praia de Botafogo", "addr:suburb": "Botafogo", "amenity": "bank", "atm": "yes", "brand": "Santander", "brand:wikidata": "Q5835668", "brand:wikipedia": "en:Santander Bank", "drive_through": "no", "name": "Santander"}}, {"type": "node", "id": 1607075501, "lat": -23.0074443, "lon": -43.3080616}, {"type": "node", "id": 1607075505, "lat": -23.0074317, "lon": -43.3082206}, {"type": "node", "id": 1607075513, "lat": -23.0077005, "lon": -43.3081233}, {"type": "node", "id": 1607075517, "lat": -23.0076615, "lon": -43.3082923}, {"type": "node", "id": 1607625281, "lat": -23.0076454, "lon": -43.3054534, "tags": {"addr:housenumber": "71", "addr:postcode": "22640-020", "addr:street": "Avenida Armando Lombardi", "amenity": "bank", "brand": "Ita\u00fa Unibanco", "brand:wikidata": "Q1424293", "name": "Ita\u00fa", "opening_hours": "Mo-Fr 10:00-16:00", "phone": "+55 21 4004 1427", "website": "https://www.itau.com.br/"}}, {"type": "node", "id": 1607681273, "lat": -23.0079268, "lon": -43.3050996, "tags": {"addr:housenumber": "57", "addr:postcode": "22640-010", "addr:street": "Pra\u00e7a Euvaldo Lodi", "amenity": "bank", "atm": "yes", "brand": "Ita\u00fa Unibanco", "brand:wikidata": "Q1424293", "name": "Ita\u00fa", "opening_hours": "Mo-Fr 10:00-16:00", "phone": "+55-21-30034828", "website": "https://www.itau.com.br/"}}, {"type": "node", "id": 1607686824, "lat": -23.0081243, "lon": -43.3051908, "tags": {"addr:housenumber": "35", "addr:postcode": "22640-010", "addr:street": "Pra\u00e7a Euvaldo Lodi", "amenity": "bank", "atm": "yes", "brand": "Banco do Brasil", "brand:wikidata": "Q610817", "brand:wikipedia": "en:Banco do Brasil", "name": "Banco do Brasil", "opening_hours": "Mo-Fr 10:00-16:00", "phone": "+55-21-31397100", "website": "https://www.bb.com.br/"}}, {"type": "node", "id": 1607719309, "lat": -23.0087958, "lon": -43.30385, "tags": {"addr:housenumber": "60", "addr:postcode": "22640-010", "addr:street": "Pra\u00e7a Euvaldo Lodi", "amenity": "bank", "atm": "yes", "brand": "Ita\u00fa Unibanco", "brand:wikidata": "Q1424293", "name": "Ita\u00fa", "opening_hours": "Mo-Fr 10:00-16:00", "phone": "+55-21-24942185", "website": "https://www.itau.com.br/"}}, {"type": "node", "id": 1607733665, "lat": -23.0094577, "lon": -43.3046756, "tags": {"addr:housenumber": "561", "addr:street": "Avenida Oleg\u00e1rio Maciel", "amenity": "bank", "atm": "yes", "brand": "Santander", "brand:wikidata": "Q5835668", "brand:wikipedia": "en:Santander Bank", "name": "Santander", "opening_hours": "Mo-Fr 10:00-16:00", "phone": "+55-21-31544950", "website": "https://www.santander.com.br/"}}, {"type": "node", "id": 1607733666, "lat": -23.0094203, "lon": -43.3046961}, {"type": "node", "id": 1607738751, "lat": -23.0096745, "lon": -43.3047351, "tags": {"addr:housenumber": "543", "addr:street": "Avenida Oleg\u00e1rio Maciel", "amenity": "bank", "atm": "yes", "brand": "Caixa Econ\u00f4mica Federal", "brand:wikidata": "Q835283", "name": "Caixa Econ\u00f4mica Federal", "opening_hours": "Mo-Fr 10:00-16:00", "phone": "+55-21-34859900", "website": "http://www.caixa.gov.br"}}, {"type": "node", "id": 1611115039, "lat": -22.8278141, "lon": -43.3181419, "tags": {"addr:housenumber": "900", "addr:postcode": "21230-355", "addr:street": "Estrada da \u00c1gua Grande", "agency_name": "Rio Bairro Vista Alegre", "amenity": "bank", "atm": "yes", "brand": "Ita\u00fa Unibanco", "brand:wikidata": "Q1424293", "brand:wikipedia": "pt:Ita\u00fa Unibanco", "name": "Ita\u00fa", "opening_hours": "Mo-Fr 10:00-16:00", "phone": "+55-21-30143317", "ref": "6240", "source": "survey; website", "website": "https://ww46.itau.com.br/itau/redeatendimento/resp_agencias.jsp"}}, {"type": "node", "id": 1617027023, "lat": -22.9012307, "lon": -43.1770461, "tags": {"amenity": "bank", "brand": "Banco Safra", "brand:wikidata": "Q4116096", "name": "Banco Safra"}}, {"type": "node", "id": 1619528690, "lat": -22.9013842, "lon": -43.1775197, "tags": {"amenity": "bank", "atm": "yes", "brand": "Ita\u00fa Unibanco", "brand:wikidata": "Q1424293", "name": "Ita\u00fa"}}, {"type": "node", "id": 1619528692, "lat": -22.9013115, "lon": -43.1772813, "tags": {"amenity": "bank", "atm": "yes", "brand": "Bradesco", "brand:wikidata": "Q806181", "name": "Bradesco"}}, {"type": "node", "id": 1619528694, "lat": -22.9015153, "lon": -43.1787538, "tags": {"amenity": "bank", "atm": "yes", "brand": "Bradesco", "brand:wikidata": "Q806181", "name": "Bradesco"}}, {"type": "node", "id": 1619528696, "lat": -22.9014499, "lon": -43.1785065, "tags": {"amenity": "bank", "atm": "yes", "brand": "Caixa Econ\u00f4mica Federal", "brand:wikidata": "Q835283", "name": "Caixa Econ\u00f4mica Federal"}}, {"type": "node", "id": 1756762475, "lat": -22.7872444, "lon": -43.309023, "tags": {"addr:street": "Avenida Duque de Caxias", "amenity": "bank", "atm": "yes", "brand": "Caixa Econ\u00f4mica Federal", "brand:wikidata": "Q835283", "name": "Caixa Econ\u00f4mica Federal"}}, {"type": "node", "id": 1756762476, "lat": -22.7871406, "lon": -43.3090043, "tags": {"addr:street": "Avenida Duque de Caxias", "amenity": "bank", "atm": "yes", "brand": "Banco do Brasil", "brand:wikidata": "Q610817", "name": "Banco do Brasil"}}, {"type": "node", "id": 1756762478, "lat": -22.7900857, "lon": -43.3074995, "tags": {"addr:street": "Pra\u00e7a Roberto Silveira", "amenity": "bank", "atm": "yes", "brand": "Santander", "brand:wikidata": "Q5835668", "brand:wikipedia": "en:Santander Bank", "name": "Santander"}}, {"type": "node", "id": 1756762479, "lat": -22.7901846, "lon": -43.3075988, "tags": {"addr:street": "Pra\u00e7a Roberto Silveira", "amenity": "bank", "atm": "yes", "brand": "Caixa Econ\u00f4mica Federal", "brand:wikidata": "Q835283", "brand:wikipedia": "pt:Caixa Econ\u00f4mica Federal", "name": "Caixa Econ\u00f4mica Federal"}}, {"type": "node", "id": 1756766801, "lat": -22.7921925, "lon": -43.3026608, "tags": {"addr:street": "Avenida Brigadeiro Lima e Silva", "amenity": "bank", "atm": "yes", "brand": "Caixa Econ\u00f4mica Federal", "brand:wikidata": "Q835283", "name": "Caixa Econ\u00f4mica Federal"}}, {"type": "node", "id": 1756766803, "lat": -22.7917771, "lon": -43.3036988, "tags": {"addr:street": "Avenida Brigadeiro Lima e Silva", "amenity": "bank", "atm": "yes", "brand": "Ita\u00fa Unibanco", "brand:wikidata": "Q1424293", "name": "Ita\u00fa"}}, {"type": "node", "id": 1756766805, "lat": -22.7902712, "lon": -43.3069229, "tags": {"addr:street": "Avenida Brigadeiro Lima e Silva", "amenity": "bank", "atm": "yes", "brand": "Bradesco", "brand:wikidata": "Q806181", "name": "Bradesco"}}, {"type": "node", "id": 1756766806, "lat": -22.7904443, "lon": -43.3085429, "tags": {"amenity": "bank", "brand": "Ita\u00fa Unibanco", "brand:wikidata": "Q1424293", "name": "Ita\u00fa"}}, {"type": "node", "id": 1756766808, "lat": -22.7920343, "lon": -43.3025938, "tags": {"addr:street": "Avenida Brigadeiro Lima e Silva", "amenity": "bank", "atm": "yes", "brand": "Banco do Brasil", "brand:wikidata": "Q610817", "brand:wikipedia": "en:Banco do Brasil", "name": "Banco do Brasil"}}, {"type": "node", "id": 1756773175, "lat": -22.7899497, "lon": -43.3104902, "tags": {"addr:street": "Avenida Governador Leonel de Moura Brizola", "amenity": "bank", "atm": "yes", "brand": "Banco do Brasil", "brand:wikidata": "Q610817", "brand:wikipedia": "en:Banco do Brasil", "name": "Banco do Brasil"}}, {"type": "node", "id": 1756773176, "lat": -22.7903404, "lon": -43.3106297, "tags": {"addr:street": "Rua Almirante Barroso", "amenity": "bank", "atm": "yes", "brand": "Santander", "brand:wikidata": "Q5835668", "brand:wikipedia": "en:Santander Bank", "name": "Santander"}}, {"type": "node", "id": 1756773180, "lat": -22.788921, "lon": -43.3117857, "tags": {"addr:street": "Rua Jos\u00e9 de Alvarenga", "amenity": "bank", "atm": "yes", "brand": "Caixa Econ\u00f4mica Federal", "brand:wikidata": "Q835283", "brand:wikipedia": "pt:Caixa Econ\u00f4mica Federal", "name": "Caixa Econ\u00f4mica Federal"}}, {"type": "node", "id": 1756773182, "lat": -22.7864259, "lon": -43.310804, "tags": {"addr:street": "Avenida Governador Leonel de Moura Brizola", "amenity": "bank", "atm": "yes", "brand": "Ita\u00fa Unibanco", "brand:wikidata": "Q1424293", "brand:wikipedia": "pt:Ita\u00fa Unibanco", "name": "Ita\u00fa"}}, {"type": "node", "id": 1756773184, "lat": -22.7881025, "lon": -43.3109086, "tags": {"addr:street": "Avenida Governador Leonel de Moura Brizola", "amenity": "bank", "atm": "yes", "brand": "Ita\u00fa Unibanco", "brand:wikidata": "Q1424293", "brand:wikipedia": "pt:Ita\u00fa Unibanco", "name": "Ita\u00fa"}}, {"type": "node", "id": 1756777010, "lat": -22.7897123, "lon": -43.3102381, "tags": {"addr:street": "Avenida Doutor Pl\u00ednio Casado", "amenity": "bank", "atm": "yes", "brand": "Bradesco", "brand:wikidata": "Q806181", "brand:wikipedia": "en:Banco Bradesco", "name": "Bradesco"}}, {"type": "node", "id": 1756777011, "lat": -22.7892944, "lon": -43.3102059, "tags": {"addr:street": "Avenida Doutor Pl\u00ednio Casado", "amenity": "bank", "atm": "yes", "brand": "Ita\u00fa Unibanco", "brand:wikidata": "Q1424293", "brand:wikipedia": "pt:Ita\u00fa Unibanco", "name": "Ita\u00fa"}}, {"type": "node", "id": 1756806188, "lat": -22.7873928, "lon": -43.3107692, "tags": {"addr:street": "Avenida Governador Leonel de Moura Brizola", "amenity": "bank", "atm": "yes", "brand": "Ita\u00fa Unibanco", "brand:wikidata": "Q1424293", "brand:wikipedia": "pt:Ita\u00fa Unibanco", "name": "Ita\u00fa"}}, {"type": "node", "id": 1756806196, "lat": -22.7871814, "lon": -43.3107421, "tags": {"addr:street": "Avenida Governador Leonel de Moura Brizola", "amenity": "bank", "atm": "yes", "brand": "Santander", "brand:wikidata": "Q5835668", "brand:wikipedia": "en:Santander Bank", "name": "Santander"}}, {"type": "node", "id": 1756887788, "lat": -22.7871686, "lon": -43.2867334, "tags": {"addr:housenumber": "2895", "addr:street": "Rod. Washington Luiz", "amenity": "bank", "atm": "yes", "brand": "Ita\u00fa Unibanco", "brand:wikidata": "Q1424293", "name": "Ita\u00fa"}}, {"type": "node", "id": 1788113195, "lat": -22.9054361, "lon": -43.17767, "tags": {"addr:housenumber": "134", "addr:street": "Avenida Rio Branco", "amenity": "bank", "name": "Banco de la Nacion Argentina"}}, {"type": "node", "id": 1789060676, "lat": -22.9747472, "lon": -43.1895418, "tags": {"amenity": "bank", "atm": "yes", "brand": "Banco do Brasil", "brand:wikidata": "Q610817", "brand:wikipedia": "en:Banco do Brasil", "name": "Banco do Brasil", "operator": "Banco do Brasil"}}, {"type": "node", "id": 1814202908, "lat": -22.9423295, "lon": -43.1818015, "tags": {"amenity": "bank", "brand": "Santander", "brand:wikidata": "Q5835668", "brand:wikipedia": "en:Santander Bank", "name": "Santander"}}, {"type": "node", "id": 1814202910, "lat": -22.9408218, "lon": -43.1773018, "tags": {"amenity": "bank", "brand": "Ita\u00fa Unibanco", "brand:wikidata": "Q1424293", "name": "Ita\u00fa"}}, {"type": "node", "id": 1823401365, "lat": -22.8972738, "lon": -43.1254617}, {"type": "node", "id": 1823401367, "lat": -22.8970749, "lon": -43.1254165}, {"type": "node", "id": 1823401387, "lat": -22.8972673, "lon": -43.1253946}, {"type": "node", "id": 1823401389, "lat": -22.8970786, "lon": -43.1254549}, {"type": "node", "id": 1823401397, "lat": -22.8971971, "lon": -43.1254705}, {"type": "node", "id": 1823401400, "lat": -22.8971943, "lon": -43.1254417}, {"type": "node", "id": 1869721248, "lat": -22.7914605, "lon": -43.3045651, "tags": {"amenity": "bank", "atm": "yes", "brand": "Bradesco", "brand:wikidata": "Q806181", "name": "Bradesco"}}, {"type": "node", "id": 1869721250, "lat": -22.7904912, "lon": -43.3059277, "tags": {"amenity": "bank", "atm": "yes", "brand": "Banco do Brasil", "brand:wikidata": "Q610817", "name": "Banco do Brasil"}}, {"type": "node", "id": 1963017814, "lat": -22.950151, "lon": -43.1849057, "tags": {"addr:city": "Rio de Janeiro", "addr:country": "BR", "addr:housenumber": "100 Lojas 109, 110 e 111", "addr:street": "Rua Nelson Mandela", "amenity": "bank", "atm": "yes", "brand": "Caixa Econ\u00f4mica Federal", "brand:wikidata": "Q835283", "name": "Caixa Econ\u00f4mica Federal", "opening_hours": "Mo-Fr 10:00-16:00", "phone": "+55-21-25363300", "website": "http://www1.caixa.gov.br/atendimento/asp/resultado_agencias_pontos_atendimento_detalhe.asp?nu_unidade=1343&uf=RJ&no_localidade=RIO%20DE%20JANEIRO&sTipoParametro=agencia_sem_penhor"}}, {"type": "node", "id": 1972461097, "lat": -22.958722, "lon": -43.2003558, "tags": {"addr:housenumber": "234", "addr:street": "Rua Humait\u00e1", "amenity": "bank", "atm": "yes", "brand": "Santander", "brand:wikidata": "Q5835668", "brand:wikipedia": "en:Santander Bank", "name": "Santander", "phone": "+55-21-25281300", "website": "https://www.santander.com.br/"}}, {"type": "node", "id": 2003511568, "lat": -22.9124958, "lon": -43.2367034, "tags": {"amenity": "bank", "brand": "Caixa Econ\u00f4mica Federal", "brand:wikidata": "Q835283", "name": "Caixa Econ\u00f4mica Federal"}}, {"type": "node", "id": 2014093255, "lat": -22.8478095, "lon": -43.3252057, "tags": {"amenity": "bank", "atm": "no", "brand": "Banco BMG", "brand:wikidata": "Q16496437", "name": "Banco BMG", "source": "survey"}}, {"type": "node", "id": 2014138824, "lat": -22.9520151, "lon": -43.1866044, "tags": {"amenity": "bank", "atm": "yes", "brand": "Santander", "brand:wikidata": "Q5835668", "name": "Santander"}}, {"type": "node", "id": 2014139027, "lat": -22.9520651, "lon": -43.1867855, "tags": {"amenity": "bank", "atm": "yes", "brand": "Bradesco", "brand:wikidata": "Q806181", "brand:wikipedia": "en:Banco Bradesco", "name": "Bradesco", "source": "survey"}}, {"type": "node", "id": 2018338511, "lat": -22.9153735, "lon": -43.1959814, "tags": {"amenity": "bank", "atm": "no", "brand": "Ita\u00fa Unibanco", "brand:wikidata": "Q1424293", "name": "Ita\u00fa"}}, {"type": "node", "id": 2038928176, "lat": -22.9539656, "lon": -43.1920399, "tags": {"addr:housenumber": "296", "addr:street": "Rua Volunt\u00e1rios da P\u00e1tria", "amenity": "bank", "atm": "yes", "brand": "Santander", "brand:wikidata": "Q5835668", "name": "Santander", "source": "survey"}}, {"type": "node", "id": 2038928393, "lat": -22.953928, "lon": -43.1917404, "tags": {"addr:housenumber": "286", "addr:street": "Rua Volunt\u00e1rios da P\u00e1tria", "amenity": "bank", "atm": "yes", "brand": "Citibank", "brand:wikidata": "Q857063", "brand:wikipedia": "en:Citibank", "name": "Citibank", "short_name": "Citi", "source": "survey"}}, {"type": "node", "id": 2038928412, "lat": -22.9541456, "lon": -43.191627, "tags": {"amenity": "bank", "atm": "yes", "brand": "Banco do Brasil", "brand:wikidata": "Q610817", "brand:wikipedia": "en:Banco do Brasil", "name": "Banco do Brasil", "source": "survey"}}, {"type": "node", "id": 2039080368, "lat": -22.9533894, "lon": -43.1902462, "tags": {"addr:housenumber": "246", "addr:street": "Rua Volunt\u00e1rios da P\u00e1tria", "amenity": "bank", "atm": "yes", "brand": "Caixa Econ\u00f4mica Federal", "brand:wikidata": "Q835283", "name": "Caixa Econ\u00f4mica Federal", "source": "survey"}}, {"type": "node", "id": 2039081798, "lat": -22.9528027, "lon": -43.1885586}, {"type": "node", "id": 2039081810, "lat": -22.9525398, "lon": -43.1880739, "tags": {"addr:housenumber": "180", "addr:street": "Rua Volunt\u00e1rios da P\u00e1tria", "amenity": "bank", "atm": "yes", "brand": "Ita\u00fa Unibanco", "brand:wikidata": "Q1424293", "name": "Ita\u00fa", "source": "survey"}}, {"type": "node", "id": 2039902275, "lat": -22.9126116, "lon": -43.2156029, "tags": {"amenity": "bank", "atm": "yes", "brand": "Caixa Econ\u00f4mica Federal", "brand:wikidata": "Q835283", "name": "Caixa Econ\u00f4mica Federal", "source": "survey"}}, {"type": "node", "id": 2039931326, "lat": -22.9019016, "lon": -43.1798308, "tags": {"amenity": "bank", "atm": "yes", "brand": "Banrisul", "brand:wikidata": "Q4857098", "brand:wikipedia": "en:Banrisul", "name": "Banrisul", "source": "survey"}}, {"type": "node", "id": 2039931363, "lat": -22.9017588, "lon": -43.1794025, "tags": {"amenity": "bank", "atm": "yes", "brand": "Ita\u00fa Unibanco", "brand:wikidata": "Q1424293", "brand:wikipedia": "pt:Ita\u00fa Unibanco", "name": "Ita\u00fa", "source": "survey"}}, {"type": "node", "id": 2039931368, "lat": -22.9017132, "lon": -43.1791212, "tags": {"amenity": "bank", "atm": "yes", "brand": "Santander", "brand:wikidata": "Q5835668", "brand:wikipedia": "en:Santander Bank", "name": "Santander", "source": "survey"}}, {"type": "node", "id": 2039931370, "lat": -22.9084257, "lon": -43.1680393, "tags": {"amenity": "bank", "atm": "yes", "brand": "Santander", "brand:wikidata": "Q5835668", "brand:wikipedia": "en:Santander Bank", "name": "Santander", "source": "survey"}}, {"type": "node", "id": 2054681156, "lat": -22.9557144, "lon": -43.1967558, "tags": {"amenity": "bank", "branch": "24hs", "brand": "Caixa Econ\u00f4mica Federal", "brand:wikidata": "Q835283", "name": "Caixa Econ\u00f4mica Federal"}}, {"type": "node", "id": 2054688604, "lat": -22.9552043, "lon": -43.1945644, "tags": {"amenity": "bank", "brand": "Santander", "brand:wikidata": "Q5835668", "name": "Santander"}}, {"type": "node", "id": 2054690365, "lat": -22.9547771, "lon": -43.1943553, "tags": {"amenity": "bank", "brand": "Bradesco", "brand:wikidata": "Q806181", "name": "Bradesco"}}, {"type": "node", "id": 2065753181, "lat": -22.9559627, "lon": -43.1652052, "tags": {"amenity": "bank", "atm": "yes", "brand": "Santander", "brand:wikidata": "Q5835668", "brand:wikipedia": "en:Santander Bank", "name": "Santander", "source": "survey"}}, {"type": "node", "id": 2092304095, "lat": -22.9986628, "lon": -43.3554629, "tags": {"amenity": "bank", "atm": "yes", "brand": "Banco do Brasil", "brand:wikidata": "Q610817", "drive_through": "no", "name": "Banco do Brasil", "opening_hours": "Mo-Fr 10:00-16:00", "source": "survey"}}, {"type": "node", "id": 2099879870, "lat": -22.9655542, "lon": -43.2189821, "tags": {"amenity": "bank", "atm": "yes", "brand": "HSBC", "brand:wikidata": "Q190464", "brand:wikipedia": "en:HSBC", "name": "HSBC", "source": "survey"}}, {"type": "node", "id": 2099879871, "lat": -22.9654392, "lon": -43.2188959, "tags": {"amenity": "bank", "atm": "yes", "brand": "Ita\u00fa Unibanco", "brand:wikidata": "Q1424293", "name": "Ita\u00fa", "source": "survey"}}, {"type": "node", "id": 2099879948, "lat": -22.9659603, "lon": -43.2187252, "tags": {"addr:housenumber": "709", "addr:street": "Rua Jardim Bot\u00e2nico", "amenity": "bank", "atm": "yes", "brand": "Banco do Brasil", "brand:wikidata": "Q610817", "brand:wikipedia": "en:Banco do Brasil", "name": "Banco do Brasil", "source": "survey"}}, {"type": "node", "id": 2102041872, "lat": -22.9645329, "lon": -43.2179372, "tags": {"amenity": "bank", "atm": "yes", "brand": "Bradesco", "brand:wikidata": "Q806181", "brand:wikipedia": "en:Banco Bradesco", "name": "Bradesco", "source": "survey"}}, {"type": "node", "id": 2102042178, "lat": -22.9644142, "lon": -43.217463, "tags": {"amenity": "bank", "atm": "yes", "name": "Ita\u00fa Personnalit\u00e9", "source": "survey"}}, {"type": "node", "id": 2102042466, "lat": -22.9640423, "lon": -43.2170902, "tags": {"amenity": "bank", "atm": "yes", "source": "survey"}}, {"type": "node", "id": 2146431263, "lat": -22.8440029, "lon": -43.3231604, "tags": {"addr:housenumber": "644", "addr:postcode": "21235-110", "addr:street": "Avenida Monsenhor F\u00e9lix", "agency_name": "Rio Iraj\u00e1", "amenity": "bank", "atm": "yes", "brand": "Ita\u00fa Unibanco", "brand:wikidata": "Q1424293", "brand:wikipedia": "pt:Ita\u00fa Unibanco", "name": "Ita\u00fa", "opening_hours": "Mo-Fr 10:00-16:00", "phone": "+55-21-30034828", "ref": "6091", "source": "survey, website", "website": "https://ww46.itau.com.br/itau/redeatendimento/resp_agencias.jsp"}}, {"type": "node", "id": 2146431265, "lat": -22.8462967, "lon": -43.3249709, "tags": {"addr:housenumber": "9", "addr:postcode": "21235-070", "addr:street": "Rua Cisplatina", "agency_name": "Rio Cisplatina", "amenity": "bank", "atm": "yes", "brand": "Ita\u00fa Unibanco", "brand:wikidata": "Q1424293", "brand:wikipedia": "pt:Ita\u00fa Unibanco", "name": "Ita\u00fa", "opening_hours": "Mo-Fr 10:00-16:00", "phone": "+55-21-40041457", "ref": "8132", "source": "survey; website", "website": "https://ww46.itau.com.br/itau/redeatendimento/resp_agencias.jsp"}}, {"type": "node", "id": 2146432725, "lat": -22.818234, "lon": -43.3007727, "tags": {"addr:housenumber": "317", "addr:postcode": "21250-371", "addr:street": "Rua Bulh\u00f5es Marcial", "agency_name": "Rio Lucas", "amenity": "bank", "atm": "yes", "brand": "Ita\u00fa Unibanco", "brand:wikidata": "Q1424293", "brand:wikipedia": "pt:Ita\u00fa Unibanco", "name": "Ita\u00fa", "opening_hours": "Mo-Fr 10:00-16:00", "phone": "+55-21-40041453", "ref": "8082", "website": "https://ww46.itau.com.br/itau/redeatendimento/resp_agencias.jsp"}}, {"type": "node", "id": 2146436298, "lat": -22.8397125, "lon": -43.3126943}, {"type": "node", "id": 2146436301, "lat": -22.8396625, "lon": -43.3127512}, {"type": "node", "id": 2146436304, "lat": -22.8393955, "lon": -43.3124107}, {"type": "node", "id": 2146436309, "lat": -22.8395543, "lon": -43.3122813}, {"type": "node", "id": 2146436312, "lat": -22.8395167, "lon": -43.3122898}, {"type": "node", "id": 2146436315, "lat": -22.8397243, "lon": -43.3126493}, {"type": "node", "id": 2146436317, "lat": -22.8395864, "lon": -43.3122893}, {"type": "node", "id": 2146441035, "lat": -22.8378239, "lon": -43.3105003, "tags": {"addr:housenumber": "2591 Loja B", "addr:postcode": "21211-007", "addr:street": "Avenida Meriti", "agency_name": "Rio Vila da Penha", "amenity": "bank", "atm": "yes", "brand": "Ita\u00fa Unibanco", "brand:wikidata": "Q1424293", "brand:wikipedia": "pt:Ita\u00fa Unibanco", "name": "Ita\u00fa", "opening_hours": "Mo-Fr 10:00-16:00", "phone": "+55-21-40047790", "ref": "8987", "source": "survey; website", "website": "https://ww46.itau.com.br/itau/redeatendimento/resp_agencias.jsp"}}, {"type": "node", "id": 2146477129, "lat": -22.8285463, "lon": -43.3192733, "tags": {"addr:housenumber": "2784", "addr:postcode": "21235-605", "addr:street": "Avenida Br\u00e1s de Pina", "agency_name": "Rio Vista Alegre", "amenity": "bank", "atm": "yes", "brand": "Ita\u00fa Unibanco", "brand:wikidata": "Q1424293", "brand:wikipedia": "pt:Ita\u00fa Unibanco", "name": "Ita\u00fa", "opening_hours": "Mo-Fr 10:00-16:00", "phone": "+55-21-40041512", "ref": "8460", "source": "survey; website", "website": "https://ww46.itau.com.br/itau/redeatendimento/resp_agencias.jsp"}}, {"type": "node", "id": 2146481986, "lat": -22.8406064, "lon": -43.2979455, "tags": {"addr:housenumber": "1549 Loja A", "addr:postcode": "21210-002", "addr:street": "Avenida Vicente de Carvalho", "amenity": "bank", "atm": "yes", "brand": "Ita\u00fa Unibanco", "brand:wikidata": "Q1424293", "brand:wikipedia": "pt:Ita\u00fa Unibanco", "name": "Ita\u00fa", "opening_hours": "Mo-Fr 10:00-16:00", "phone": "+55-21-30034828", "source": "survey; website", "website": "https://ww46.itau.com.br/itau/redeatendimento/resp_agencias.jsp"}}, {"type": "node", "id": 2146486369, "lat": -22.8855735, "lon": -43.2984842, "tags": {"addr:housenumber": "671", "addr:postcode": "20755-170", "addr:street": "Rua da Aboli\u00e7\u00e3o", "agency_name": "Rio Aboli\u00e7\u00e3o", "amenity": "bank", "atm": "yes", "brand": "Ita\u00fa Unibanco", "brand:wikidata": "Q1424293", "name": "Ita\u00fa", "opening_hours": "Mo-Fr 10:00-16:00", "phone": "+55-21-30034828", "ref": "0305", "source": "survey; website", "website": "https://ww46.itau.com.br/itau/redeatendimento/resp_agencias.jsp"}}, {"type": "node", "id": 2146513955, "lat": -22.8774622, "lon": -43.462118, "tags": {"addr:housenumber": "409A", "addr:postcode": "21810-051", "addr:street": "Rua Doze de Fevereiro", "agency_name": "Rio Bangu Francisco Real", "amenity": "bank", "atm": "yes", "brand": "Ita\u00fa Unibanco", "brand:wikidata": "Q1424293", "name": "Ita\u00fa", "opening_hours": "Mo-Fr 10:00-16:00", "phone": "+55-21-38398670", "ref": "6289", "source": "survey; website", "website": "https://ww46.itau.com.br/itau/redeatendimento/resp_agencias.jsp"}}, {"type": "node", "id": 2146520836, "lat": -22.8799458, "lon": -43.4646393, "tags": {"addr:housenumber": "461", "addr:postcode": "21810-011", "addr:street": "Avenida C\u00f4nego Vasconcelo", "agency_name": "Rio C\u00f4nego", "amenity": "bank", "atm": "yes", "brand": "Ita\u00fa Unibanco", "brand:wikidata": "Q1424293", "name": "Ita\u00fa", "opening_hours": "Mo-Fr 10:00-16:00", "phone": "+55 21 4004 1473", "ref": "8486", "source": "survey;website", "website": "https://ww46.itau.com.br/itau/redeatendimento/resp_agencias.jsp"}}, {"type": "node", "id": 2174318544, "lat": -22.9049574, "lon": -43.2900648, "tags": {"amenity": "bank", "atm": "yes", "name": "Bradesco Prime"}}, {"type": "node", "id": 2174318545, "lat": -22.9052701, "lon": -43.2903531}, {"type": "node", "id": 2174318644, "lat": -22.9049801, "lon": -43.2904487, "tags": {"amenity": "bank", "atm": "yes", "brand": "Banco do Brasil", "brand:wikidata": "Q610817", "name": "Banco do Brasil"}}, {"type": "node", "id": 2174330397, "lat": -22.9033294, "lon": -43.2826651, "tags": {"amenity": "bank", "atm": "yes", "brand": "Ita\u00fa Unibanco", "brand:wikidata": "Q1424293", "brand:wikipedia": "pt:Ita\u00fa Unibanco", "name": "Ita\u00fa"}}, {"type": "node", "id": 2174330398, "lat": -22.9030576, "lon": -43.2828905, "tags": {"amenity": "bank", "atm": "yes", "brand": "Ita\u00fa Unibanco", "brand:wikidata": "Q1424293", "brand:wikipedia": "pt:Ita\u00fa Unibanco", "name": "Ita\u00fa"}}, {"type": "node", "id": 2174330499, "lat": -22.9018766, "lon": -43.2790817, "tags": {"amenity": "bank", "atm": "yes", "brand": "Banco do Brasil", "brand:wikidata": "Q610817", "brand:wikipedia": "en:Banco do Brasil", "name": "Banco do Brasil"}}, {"type": "node", "id": 2174330627, "lat": -22.9019161, "lon": -43.2788403, "tags": {"amenity": "bank", "atm": "yes", "brand": "Caixa Econ\u00f4mica Federal", "brand:wikidata": "Q835283", "brand:wikipedia": "pt:Caixa Econ\u00f4mica Federal", "name": "Caixa Econ\u00f4mica Federal"}}, {"type": "node", "id": 2174330700, "lat": -22.9017849, "lon": -43.2793092, "tags": {"amenity": "bank", "atm": "yes", "brand": "Ita\u00fa Unibanco", "brand:wikidata": "Q1424293", "brand:wikipedia": "pt:Ita\u00fa Unibanco", "name": "Ita\u00fa"}}, {"type": "node", "id": 2174335258, "lat": -22.9021657, "lon": -43.2788215, "tags": {"amenity": "bank", "atm": "yes", "brand": "Bradesco", "brand:wikidata": "Q806181", "brand:wikipedia": "en:Banco Bradesco", "name": "Bradesco"}}, {"type": "node", "id": 2174335273, "lat": -22.9021731, "lon": -43.2789208, "tags": {"amenity": "bank", "atm": "yes", "brand": "Ita\u00fa Unibanco", "brand:wikidata": "Q1424293", "brand:wikipedia": "pt:Ita\u00fa Unibanco", "name": "Ita\u00fa"}}, {"type": "node", "id": 2174335752, "lat": -22.9045895, "lon": -43.2876621, "tags": {"amenity": "bank", "atm": "yes", "brand": "Ita\u00fa Unibanco", "brand:wikidata": "Q1424293", "name": "Ita\u00fa"}}, {"type": "node", "id": 2174335756, "lat": -22.9042806, "lon": -43.2875736, "tags": {"amenity": "bank", "atm": "yes", "brand": "Santander", "brand:wikidata": "Q5835668", "name": "Santander"}}, {"type": "node", "id": 2174337086, "lat": -22.9045005, "lon": -43.288389, "tags": {"amenity": "bank", "name": "Ita\u00fa Personnalit\u00e9"}}, {"type": "node", "id": 2174337556, "lat": -22.9047006, "lon": -43.288212, "tags": {"amenity": "bank", "brand": "Ita\u00fa Unibanco", "brand:wikidata": "Q1424293", "name": "Ita\u00fa"}}, {"type": "node", "id": 2184276570, "lat": -22.9843863, "lon": -43.1897901, "tags": {"amenity": "bank", "atm": "yes", "brand": "Ita\u00fa Unibanco", "brand:wikidata": "Q1424293", "name": "Ita\u00fa", "source": "survey"}}, {"type": "node", "id": 2197900141, "lat": -22.9496659, "lon": -43.1873895, "tags": {"amenity": "bank", "atm": "yes", "brand": "Ita\u00fa Unibanco", "brand:wikidata": "Q1424293", "name": "Ita\u00fa", "source": "survey", "wheelchair": "yes"}}, {"type": "node", "id": 2197905710, "lat": -22.9591659, "lon": -43.201281, "tags": {"amenity": "bank", "atm": "yes", "brand": "Bradesco", "brand:wikidata": "Q806181", "brand:wikipedia": "en:Banco Bradesco", "name": "Bradesco", "source": "survey"}}, {"type": "node", "id": 2203327803, "lat": -22.9641823, "lon": -43.1792091, "tags": {"addr:housenumber": "194E", "addr:street": "Rua Barata Ribeiro", "agency_name": "Rio Metr\u00f4 Cardeal Arcoverde", "amenity": "bank", "atm": "yes", "brand": "Ita\u00fa Unibanco", "brand:wikidata": "Q1424293", "id": "7770", "name": "Ita\u00fa", "source": "survey"}}, {"type": "node", "id": 2205703377, "lat": -22.8540821, "lon": -43.6016861, "tags": {"amenity": "bank", "brand": "Ita\u00fa Unibanco", "brand:wikidata": "Q1424293", "name": "Ita\u00fa"}}, {"type": "node", "id": 2205703400, "lat": -22.854181, "lon": -43.6016861, "tags": {"amenity": "bank", "brand": "Bradesco", "brand:wikidata": "Q806181", "name": "Bradesco"}}, {"type": "node", "id": 2223016362, "lat": -22.8345818, "lon": -43.3188388, "tags": {"amenity": "bank", "atm": "yes", "brand": "Caixa Econ\u00f4mica Federal", "brand:wikidata": "Q835283", "brand:wikipedia": "pt:Caixa Econ\u00f4mica Federal", "description": "Ag\u00eancia Vista Alegre", "name": "Caixa Econ\u00f4mica Federal", "source": "survey"}}, {"type": "node", "id": 2239147439, "lat": -22.9182389, "lon": -43.36121, "tags": {"amenity": "bank", "atm": "yes", "brand": "Banco do Brasil", "brand:wikidata": "Q610817", "name": "Banco do Brasil"}}, {"type": "node", "id": 2249643554, "lat": -22.9472449, "lon": -43.1828355, "tags": {"addr:city": "Rio de Janeiro", "addr:suburb": "Botafogo", "amenity": "bank", "atm": "yes", "brand": "Banco do Brasil", "brand:wikidata": "Q610817", "brand:wikipedia": "en:Banco do Brasil", "drive_through": "no", "name": "Banco do Brasil", "source": "survey"}}, {"type": "node", "id": 2263498868, "lat": -23.0106465, "lon": -43.3286367, "tags": {"amenity": "bank", "atm": "yes", "brand": "Ita\u00fa Unibanco", "brand:wikidata": "Q1424293", "name": "Ita\u00fa", "source": "survey"}}, {"type": "node", "id": 2265242655, "lat": -23.0040456, "lon": -43.3196643}, {"type": "node", "id": 2284122389, "lat": -22.9246523, "lon": -43.2241801}, {"type": "node", "id": 2300353798, "lat": -22.9141401, "lon": -43.1821371, "tags": {"addr:city": "Rio de Janeiro", "addr:housenumber": "61", "addr:street": "Rua Riachuelo", "addr:suburb": "Lapa", "amenity": "bank", "atm": "yes", "brand": "Caixa Econ\u00f4mica Federal", "brand:wikidata": "Q835283", "drive_through": "no", "name": "Caixa Econ\u00f4mica Federal", "opening_hours": "Mo-Fr 10:00-16:00", "source": "survey"}}, {"type": "node", "id": 2316528728, "lat": -22.9604272, "lon": -43.2024244, "tags": {"amenity": "bank", "atm": "yes", "brand": "Santander", "brand:wikidata": "Q5835668", "brand:wikipedia": "en:Santander Bank", "name": "Santander", "source": "survey"}}, {"type": "node", "id": 2318497670, "lat": -22.9842834, "lon": -43.2233546, "tags": {"addr:city": "Rio de Janeiro", "addr:suburb": "Leblon", "amenity": "bank", "atm": "yes", "brand": "Santander", "brand:wikidata": "Q5835668", "brand:wikipedia": "en:Santander Bank", "drive_through": "no", "name": "Santander", "source": "survey"}}, {"type": "node", "id": 2339803445, "lat": -22.9572785, "lon": -43.1985987, "tags": {"amenity": "bank", "atm": "yes", "brand": "Ita\u00fa Unibanco", "brand:wikidata": "Q1424293", "name": "Ita\u00fa"}}, {"type": "node", "id": 2356792879, "lat": -22.9225572, "lon": -43.2337496, "tags": {"addr:housenumber": "248", "addr:street": "Rua Bar\u00e3o de Mesquita", "amenity": "bank", "atm": "yes", "brand": "Banco do Brasil", "brand:wikidata": "Q610817", "brand:wikipedia": "en:Banco do Brasil", "name": "Banco do Brasil", "source": "survey"}}, {"type": "node", "id": 2387438048, "lat": -22.8474413, "lon": -43.3057693}, {"type": "node", "id": 2387438051, "lat": -22.8477079, "lon": -43.3058279}, {"type": "node", "id": 2387438075, "lat": -22.8475748, "lon": -43.3059463}, {"type": "node", "id": 2387438083, "lat": -22.8475625, "lon": -43.3056459}, {"type": "node", "id": 2412769788, "lat": -22.87234, "lon": -43.4517485, "tags": {"amenity": "bank", "brand": "Bradesco", "brand:wikidata": "Q806181", "name": "Bradesco"}}, {"type": "node", "id": 2412769789, "lat": -22.8723391, "lon": -43.4516303, "tags": {"amenity": "bank", "brand": "Banco do Brasil", "brand:wikidata": "Q610817", "name": "Banco do Brasil"}}, {"type": "node", "id": 2427257995, "lat": -22.8787964, "lon": -43.4504514, "tags": {"amenity": "bank", "brand": "Ita\u00fa Unibanco", "brand:wikidata": "Q1424293", "name": "Ita\u00fa"}}, {"type": "node", "id": 2429156892, "lat": -22.8932812, "lon": -43.1234141, "tags": {"amenity": "bank", "atm": "yes", "brand": "Ita\u00fa Unibanco", "brand:wikidata": "Q1424293", "brand:wikipedia": "pt:Ita\u00fa Unibanco", "name": "Ita\u00fa", "source": "survey"}}, {"type": "node", "id": 2429156996, "lat": -22.8933319, "lon": -43.1227065, "tags": {"amenity": "bank", "atm": "yes", "brand": "Santander", "brand:wikidata": "Q5835668", "brand:wikipedia": "en:Santander Bank", "name": "Santander", "source": "survey"}}, {"type": "node", "id": 2429157393, "lat": -22.8933164, "lon": -43.1219063, "tags": {"amenity": "bank", "atm": "yes", "brand": "Ita\u00fa Unibanco", "brand:wikidata": "Q1424293", "name": "Ita\u00fa", "source": "survey"}}, {"type": "node", "id": 2429157394, "lat": -22.8933122, "lon": -43.1214269, "tags": {"amenity": "bank", "atm": "yes", "brand": "Bradesco", "brand:wikidata": "Q806181", "name": "Bradesco", "source": "survey"}}, {"type": "node", "id": 2429157443, "lat": -22.8934042, "lon": -43.120521, "tags": {"amenity": "bank", "atm": "yes", "brand": "Caixa Econ\u00f4mica Federal", "brand:wikidata": "Q835283", "name": "Caixa Econ\u00f4mica Federal", "source": "survey"}}, {"type": "node", "id": 2429157512, "lat": -22.8934222, "lon": -43.1194611, "tags": {"amenity": "bank", "atm": "yes", "name": "Banco do Brasil", "source": "survey"}}, {"type": "node", "id": 2429157545, "lat": -22.8934403, "lon": -43.1191294, "tags": {"amenity": "bank", "atm": "yes", "name": "Santander", "source": "survey"}}, {"type": "node", "id": 2429157633, "lat": -22.8934297, "lon": -43.118704, "tags": {"amenity": "bank", "atm": "yes", "name": "Safra", "source": "survey"}}, {"type": "node", "id": 2429268091, "lat": -22.8937877, "lon": -43.1194649, "tags": {"amenity": "bank", "atm": "no", "name": "Lucra Empr\u00e9stimos", "phone": "+55-21-26213359", "source": "survey"}}, {"type": "node", "id": 2429268130, "lat": -22.8937289, "lon": -43.1202789, "tags": {"amenity": "bank", "atm": "no", "name": "BMG", "source": "survey"}}, {"type": "node", "id": 2429268793, "lat": -22.8937057, "lon": -43.1215983, "tags": {"amenity": "bank", "atm": "yes", "name": "Ita\u00fa Personnalit\u00e9", "source": "survey"}}, {"type": "node", "id": 2429268853, "lat": -22.8936981, "lon": -43.1218063, "tags": {"amenity": "bank", "atm": "yes", "brand": "Santander", "brand:wikidata": "Q5835668", "name": "Santander", "source": "survey"}}, {"type": "node", "id": 2466746249, "lat": -22.8460166, "lon": -43.3242076, "tags": {"amenity": "bank", "atm": "yes", "brand": "Bradesco", "brand:wikidata": "Q806181", "brand:wikipedia": "en:Banco Bradesco", "name": "Bradesco", "source": "survey"}}, {"type": "node", "id": 2508974490, "lat": -22.9161534, "lon": -43.2221623, "tags": {"amenity": "bank", "atm": "yes", "brand": "Bradesco", "brand:wikidata": "Q806181", "name": "Bradesco", "wheelchair": "yes"}}, {"type": "node", "id": 2536683055, "lat": -22.9389865, "lon": -43.3405394}, {"type": "node", "id": 2536683057, "lat": -22.939157, "lon": -43.3404697}, {"type": "node", "id": 2536683059, "lat": -22.9392138, "lon": -43.3406279}, {"type": "node", "id": 2536683060, "lat": -22.9390606, "lon": -43.3406923}, {"type": "node", "id": 2536683061, "lat": -22.9390359, "lon": -43.3406896}, {"type": "node", "id": 2536683062, "lat": -22.9390211, "lon": -43.3406682}, {"type": "node", "id": 2578257448, "lat": -22.8485503, "lon": -43.2661574, "tags": {"addr:housenumber": "725", "addr:street": "Rua Doutor Alfredo Barcelos", "amenity": "bank", "atm": "yes", "brand": "Bradesco", "brand:wikidata": "Q806181", "brand:wikipedia": "en:Banco Bradesco", "name": "Bradesco", "source": "survey"}}, {"type": "node", "id": 2608930191, "lat": -22.8054004, "lon": -43.2094194, "tags": {"amenity": "bank", "atm": "yes", "brand": "Bradesco", "brand:wikidata": "Q806181", "brand:wikipedia": "en:Banco Bradesco", "name": "Bradesco"}}, {"type": "node", "id": 2608930192, "lat": -22.8055216, "lon": -43.2097684, "tags": {"amenity": "bank", "atm": "yes", "brand": "Ita\u00fa Unibanco", "brand:wikidata": "Q1424293", "brand:wikipedia": "pt:Ita\u00fa Unibanco", "name": "Ita\u00fa"}}, {"type": "node", "id": 2608930194, "lat": -22.80564, "lon": -43.2100966, "tags": {"amenity": "bank", "atm": "yes", "brand": "Santander", "brand:wikidata": "Q5835668", "brand:wikipedia": "en:Santander Bank", "name": "Santander"}}, {"type": "node", "id": 2610114835, "lat": -22.8076706, "lon": -43.1968212, "tags": {"amenity": "bank", "brand": "Banco do Brasil", "brand:wikidata": "Q610817", "name": "Banco do Brasil"}}, {"type": "node", "id": 2610116719, "lat": -22.8117246, "lon": -43.1930203, "tags": {"amenity": "bank", "brand": "Santander", "brand:wikidata": "Q5835668", "name": "Santander"}}, {"type": "node", "id": 2610120130, "lat": -22.8116572, "lon": -43.1907455, "tags": {"amenity": "bank", "brand": "Bradesco", "brand:wikidata": "Q806181", "brand:wikipedia": "en:Banco Bradesco", "name": "Bradesco"}}, {"type": "node", "id": 2610120973, "lat": -22.8111078, "lon": -43.188881, "tags": {"amenity": "bank", "brand": "Ita\u00fa Unibanco", "brand:wikidata": "Q1424293", "brand:wikipedia": "pt:Ita\u00fa Unibanco", "name": "Ita\u00fa"}}, {"type": "node", "id": 2610130021, "lat": -22.8094461, "lon": -43.1954126, "tags": {"amenity": "bank", "brand": "Bradesco", "brand:wikidata": "Q806181", "name": "Bradesco"}}, {"type": "node", "id": 2616040240, "lat": -22.8134338, "lon": -43.2156483, "tags": {"amenity": "bank", "atm": "yes", "brand": "Santander", "brand:wikidata": "Q5835668", "brand:wikipedia": "en:Santander Bank", "name": "Santander"}}, {"type": "node", "id": 2626238812, "lat": -22.8503071, "lon": -43.3093092, "tags": {"amenity": "bank", "atm": "yes", "brand": "Bradesco", "brand:wikidata": "Q806181", "brand:wikipedia": "en:Banco Bradesco", "name": "Bradesco", "opening_hours": "Mo-Fr 10:00-16:00", "wheelchair": "yes"}}, {"type": "node", "id": 2644090422, "lat": -22.9132238, "lon": -43.235108, "tags": {"amenity": "bank", "atm": "yes", "brand": "Ita\u00fa Unibanco", "brand:wikidata": "Q1424293", "name": "Ita\u00fa"}}, {"type": "node", "id": 2661206200, "lat": -22.8759634, "lon": -43.3357146, "tags": {"amenity": "bank", "atm": "yes", "brand": "Ita\u00fa Unibanco", "brand:wikidata": "Q1424293", "brand:wikipedia": "pt:Ita\u00fa Unibanco", "name": "Ita\u00fa", "source": "survey"}}, {"type": "node", "id": 2664043909, "lat": -23.0092654, "lon": -43.4448098, "tags": {"amenity": "bank", "brand": "Bradesco", "brand:wikidata": "Q806181", "name": "Bradesco"}}, {"type": "node", "id": 2664043952, "lat": -23.0093329, "lon": -43.4450626, "tags": {"amenity": "bank", "name": "Santander Prime"}}, {"type": "node", "id": 2664145539, "lat": -23.0118831, "lon": -43.4549629, "tags": {"amenity": "bank", "brand": "Bradesco", "brand:wikidata": "Q806181", "name": "Bradesco"}}, {"type": "node", "id": 2664145708, "lat": -23.0130675, "lon": -43.4595331, "tags": {"amenity": "bank", "brand": "Santander", "brand:wikidata": "Q5835668", "name": "Santander"}}, {"type": "node", "id": 2708072532, "lat": -23.0010342, "lon": -43.3845103, "tags": {"amenity": "bank", "brand": "Ita\u00fa Unibanco", "brand:wikidata": "Q1424293", "name": "Ita\u00fa", "wheelchair": "limited"}}, {"type": "node", "id": 2752505040, "lat": -22.899293, "lon": -43.1780186, "tags": {"amenity": "bank", "atm": "yes", "brand": "Bradesco", "brand:wikidata": "Q806181", "name": "Bradesco"}}, {"type": "node", "id": 2752505057, "lat": -22.8995608, "lon": -43.1795909, "tags": {"amenity": "bank", "atm": "yes", "brand": "Caixa Econ\u00f4mica Federal", "brand:wikidata": "Q835283", "name": "Caixa Econ\u00f4mica Federal"}}, {"type": "node", "id": 2752505402, "lat": -22.8996264, "lon": -43.1770047, "tags": {"amenity": "bank", "atm": "yes", "brand": "Santander", "brand:wikidata": "Q5835668", "name": "Santander"}}, {"type": "node", "id": 2752865676, "lat": -22.9032814, "lon": -43.1781513, "tags": {"amenity": "bank", "atm": "yes", "brand": "Santander", "brand:wikidata": "Q5835668", "name": "Santander"}}, {"type": "node", "id": 2752865688, "lat": -22.9028919, "lon": -43.1782224, "tags": {"amenity": "bank", "atm": "yes", "brand": "Santander", "brand:wikidata": "Q5835668", "name": "Santander"}}, {"type": "node", "id": 2752865699, "lat": -22.9026935, "lon": -43.178385, "tags": {"amenity": "bank", "atm": "yes", "brand": "Alfa"}}, {"type": "node", "id": 2758076694, "lat": -22.9095348, "lon": -43.1715286, "tags": {"amenity": "bank", "brand": "Santander", "brand:wikidata": "Q5835668", "brand:wikipedia": "en:Santander Bank", "name": "Santander"}}, {"type": "node", "id": 2758076720, "lat": -22.9093074, "lon": -43.171083, "tags": {"amenity": "bank", "brand": "Ita\u00fa Unibanco", "brand:wikidata": "Q1424293", "name": "Ita\u00fa"}}, {"type": "node", "id": 2823058105, "lat": -23.006362, "lon": -43.3097929, "tags": {"amenity": "bank", "atm": "yes", "brand": "Caixa Econ\u00f4mica Federal", "brand:wikidata": "Q835283", "name": "Caixa Econ\u00f4mica Federal"}}, {"type": "node", "id": 2836464361, "lat": -22.9997482, "lon": -43.4152069, "tags": {"amenity": "bank", "atm": "yes", "brand": "Banco do Brasil", "brand:wikidata": "Q610817", "name": "Banco do Brasil"}}, {"type": "node", "id": 2837979222, "lat": -22.9258416, "lon": -43.245592, "tags": {"amenity": "bank", "atm": "yes", "brand": "Ita\u00fa Unibanco", "brand:wikidata": "Q1424293", "name": "Ita\u00fa"}}, {"type": "node", "id": 2860339502, "lat": -22.9103144, "lon": -43.2042832, "tags": {"amenity": "bank", "atm": "yes", "brand": "Banco do Brasil", "brand:wikidata": "Q610817", "brand:wikipedia": "en:Banco do Brasil", "name": "Banco do Brasil"}}, {"type": "node", "id": 2860339505, "lat": -22.9099813, "lon": -43.2046464, "tags": {"amenity": "bank", "atm": "yes", "brand": "Santander", "brand:wikidata": "Q5835668", "name": "Santander"}}, {"type": "node", "id": 2913506705, "lat": -22.8285185, "lon": -43.3195715, "tags": {"amenity": "bank", "atm": "yes", "brand": "Ita\u00fa Unibanco", "brand:wikidata": "Q1424293", "brand:wikipedia": "pt:Ita\u00fa Unibanco", "name": "Ita\u00fa"}}, {"type": "node", "id": 2920276302, "lat": -22.9010294, "lon": -43.2803667, "tags": {"amenity": "bank", "atm": "yes", "brand": "Santander", "brand:wikidata": "Q5835668", "brand:wikipedia": "en:Santander Bank", "name": "Santander"}}, {"type": "node", "id": 2920277001, "lat": -22.9010193, "lon": -43.2792611, "tags": {"amenity": "bank", "atm": "yes", "brand": "Caixa Econ\u00f4mica Federal", "brand:wikidata": "Q835283", "brand:wikipedia": "pt:Caixa Econ\u00f4mica Federal", "name": "Caixa Econ\u00f4mica Federal"}}, {"type": "node", "id": 2935859954, "lat": -22.9095254, "lon": -43.1768778, "tags": {"addr:city": "Rio de Janeiro", "addr:street": "Avenida 13 de Maio", "addr:suburb": "Centro", "amenity": "bank", "atm": "yes", "brand": "Ita\u00fa Unibanco", "brand:wikidata": "Q1424293", "name": "Ita\u00fa", "operator": "Ita\u00fa", "source": "survey"}}, {"type": "node", "id": 2936376794, "lat": -22.9160858, "lon": -43.3784899}, {"type": "node", "id": 2936376799, "lat": -22.9161145, "lon": -43.3784294}, {"type": "node", "id": 2936376801, "lat": -22.9161435, "lon": -43.378416}, {"type": "node", "id": 2936376805, "lat": -22.9162403, "lon": -43.3785777}, {"type": "node", "id": 2936376808, "lat": -22.9162358, "lon": -43.3782177}, {"type": "node", "id": 2936376820, "lat": -22.9163669, "lon": -43.3782492}, {"type": "node", "id": 2936376823, "lat": -22.9163778, "lon": -43.3784902}, {"type": "node", "id": 2936376824, "lat": -22.9163849, "lon": -43.3785605}, {"type": "node", "id": 2936376847, "lat": -22.916798, "lon": -43.3779711}, {"type": "node", "id": 2936376851, "lat": -22.916836, "lon": -43.3778149}, {"type": "node", "id": 2936376853, "lat": -22.9170118, "lon": -43.3780885}, {"type": "node", "id": 2936376857, "lat": -22.9170438, "lon": -43.3779756}, {"type": "node", "id": 2936376859, "lat": -22.9171296, "lon": -43.3779969}, {"type": "node", "id": 2936376860, "lat": -22.9171473, "lon": -43.3779036}, {"type": "node", "id": 2936449299, "lat": -22.9191952, "lon": -43.3757796}, {"type": "node", "id": 2936449301, "lat": -22.9192557, "lon": -43.3758764}, {"type": "node", "id": 2936449307, "lat": -22.9194435, "lon": -43.3755985}, {"type": "node", "id": 2936449308, "lat": -22.9194578, "lon": -43.3755929}, {"type": "node", "id": 2936449309, "lat": -22.9194765, "lon": -43.3755922}, {"type": "node", "id": 2936449310, "lat": -22.9194898, "lon": -43.3755992}, {"type": "node", "id": 2936449311, "lat": -22.9195396, "lon": -43.3756769}, {"type": "node", "id": 2938246890, "lat": -22.9212171, "lon": -43.3709995}, {"type": "node", "id": 2938246891, "lat": -22.9212198, "lon": -43.3710624}, {"type": "node", "id": 2938246894, "lat": -22.9212439, "lon": -43.371046}, {"type": "node", "id": 2938246897, "lat": -22.9212798, "lon": -43.3711668}, {"type": "node", "id": 2938246900, "lat": -22.9213026, "lon": -43.3711513}, {"type": "node", "id": 2938247008, "lat": -22.9213656, "lon": -43.3712607}, {"type": "node", "id": 2938247011, "lat": -22.9213832, "lon": -43.3708868}, {"type": "node", "id": 2938247024, "lat": -22.921533, "lon": -43.3711471}, {"type": "node", "id": 2942371543, "lat": -22.8059539, "lon": -43.2115637, "tags": {"amenity": "bank", "brand": "Banco do Brasil", "brand:wikidata": "Q610817", "name": "Banco do Brasil"}}, {"type": "node", "id": 2942371544, "lat": -22.8059304, "lon": -43.2114436, "tags": {"amenity": "bank", "brand": "Ita\u00fa Unibanco", "brand:wikidata": "Q1424293", "name": "Ita\u00fa"}}, {"type": "node", "id": 2942762690, "lat": -22.8059046, "lon": -43.2113135, "tags": {"amenity": "bank", "brand": "Caixa Econ\u00f4mica Federal", "brand:wikidata": "Q835283", "brand:wikipedia": "pt:Caixa Econ\u00f4mica Federal", "name": "Caixa Econ\u00f4mica Federal"}}, {"type": "node", "id": 2942762695, "lat": -22.8060025, "lon": -43.2104842, "tags": {"amenity": "bank", "atm": "yes", "brand": "Ita\u00fa Unibanco", "brand:wikidata": "Q1424293", "brand:wikipedia": "pt:Ita\u00fa Unibanco", "name": "Ita\u00fa"}}, {"type": "node", "id": 2942762699, "lat": -22.8059702, "lon": -43.21019, "tags": {"addr:city": "Rio de Janeiro", "addr:housenumber": "451", "addr:postcode": "21931370", "addr:street": "Rua Rep\u00fablica \u00c1rabe da S\u00edria", "addr:suburb": "Portuguesa", "amenity": "bank", "brand": "Bradesco", "brand:wikidata": "Q806181", "brand:wikipedia": "en:Banco Bradesco", "name": "Bradesco"}}, {"type": "node", "id": 2945833235, "lat": -22.8052058, "lon": -43.2085287, "tags": {"addr:housenumber": "2781", "addr:street": "Estrada do Gale\u00e3o", "amenity": "bank", "name": "Ita\u00fa Personnalit\u00e9"}}, {"type": "node", "id": 2962122249, "lat": -22.9238167, "lon": -43.3721532, "tags": {"amenity": "bank", "atm": "yes", "brand": "Banco do Brasil", "brand:wikidata": "Q610817", "name": "Banco do Brasil"}}, {"type": "node", "id": 2966929773, "lat": -22.9174303, "lon": -43.3770926, "tags": {"addr:city": "Rio de Janeiro", "addr:street": "Estrada do Tindiba", "amenity": "bank", "brand": "Caixa Econ\u00f4mica Federal", "brand:wikidata": "Q835283", "fixme": "completar atributos", "name": "Caixa Econ\u00f4mica Federal"}}, {"type": "node", "id": 2977959220, "lat": -22.908443, "lon": -43.1862971, "tags": {"addr:city": "Rio de Janeiro", "addr:housenumber": "11", "addr:postcode": "20211-350", "addr:street": "Pra\u00e7a da Rep\u00fablica", "amenity": "bank", "atm": "yes", "brand": "Caixa Econ\u00f4mica Federal", "brand:wikidata": "Q835283", "name": "Caixa Econ\u00f4mica Federal", "opening_hours": "Mo-Fr 10:00-16:00", "ref": "2344-2"}}, {"type": "node", "id": 2995005934, "lat": -22.9138536, "lon": -43.5630431, "tags": {"amenity": "bank", "brand": "Caixa Econ\u00f4mica Federal", "brand:wikidata": "Q835283", "brand:wikipedia": "pt:Caixa Econ\u00f4mica Federal", "name": "Caixa Econ\u00f4mica Federal"}}, {"type": "node", "id": 2996745458, "lat": -22.8999346, "lon": -43.5671512, "tags": {"amenity": "bank", "brand": "Ita\u00fa Unibanco", "brand:wikidata": "Q1424293", "name": "Ita\u00fa"}}, {"type": "node", "id": 2997983897, "lat": -22.9274177, "lon": -43.2519006, "tags": {"amenity": "bank", "brand": "Banco do Brasil", "brand:wikidata": "Q610817", "name": "Banco do Brasil"}}, {"type": "node", "id": 2999838833, "lat": -22.9062001, "lon": -43.1778857, "tags": {"amenity": "bank", "brand": "Santander", "brand:wikidata": "Q5835668", "brand:wikipedia": "en:Santander Bank", "name": "Santander"}}, {"type": "node", "id": 3017260733, "lat": -22.8765666, "lon": -43.3398298, "tags": {"amenity": "bank", "brand": "Bradesco", "brand:wikidata": "Q806181", "brand:wikipedia": "en:Banco Bradesco", "name": "Bradesco"}}, {"type": "node", "id": 3017260933, "lat": -22.8768796, "lon": -43.3395564, "tags": {"amenity": "bank", "brand": "Ita\u00fa Unibanco", "brand:wikidata": "Q1424293", "brand:wikipedia": "pt:Ita\u00fa Unibanco", "name": "Ita\u00fa"}}, {"type": "node", "id": 3043132250, "lat": -22.8768594, "lon": -43.3362797, "tags": {"amenity": "bank", "brand": "Bradesco", "brand:wikidata": "Q806181", "brand:wikipedia": "en:Banco Bradesco", "name": "Bradesco", "source": "survey"}}, {"type": "node", "id": 3043226133, "lat": -22.8964083, "lon": -43.3514909, "tags": {"amenity": "bank", "brand": "Ita\u00fa Unibanco", "brand:wikidata": "Q1424293", "name": "Ita\u00fa"}}, {"type": "node", "id": 3070748625, "lat": -22.8944565, "lon": -43.2369817, "tags": {"addr:city": "Rio de Janeiro", "addr:housenumber": "121", "addr:street": "Rua Capit\u00e3o F\u00e9lix", "addr:suburb": "Benfica", "amenity": "bank", "atm": "yes", "brand": "Banco do Brasil", "brand:wikidata": "Q610817", "name": "Banco do Brasil", "opening_hours": "Mo-Fr 10:00-16:00"}}, {"type": "node", "id": 3093546086, "lat": -22.8057364, "lon": -43.3645881, "tags": {"addr:street": "Avenida Sargento de Mil\u00edcias", "amenity": "bank", "atm": "yes", "brand": "Caixa Econ\u00f4mica Federal", "brand:wikidata": "Q835283", "brand:wikipedia": "pt:Caixa Econ\u00f4mica Federal", "name": "Caixa Econ\u00f4mica Federal"}}, {"type": "node", "id": 3093570183, "lat": -22.9201215, "lon": -43.6811481, "tags": {"amenity": "bank", "atm": "yes", "brand": "Caixa Econ\u00f4mica Federal", "brand:wikidata": "Q835283", "brand:wikipedia": "pt:Caixa Econ\u00f4mica Federal", "name": "Caixa Econ\u00f4mica Federal"}}, {"type": "node", "id": 3195613961, "lat": -22.8398335, "lon": -43.3132301, "tags": {"amenity": "bank", "atm": "yes", "brand": "Caixa Econ\u00f4mica Federal", "brand:wikidata": "Q835283", "brand:wikipedia": "pt:Caixa Econ\u00f4mica Federal", "name": "Caixa Econ\u00f4mica Federal"}}, {"type": "node", "id": 3195614564, "lat": -22.8437842, "lon": -43.3225764, "tags": {"amenity": "bank", "atm": "no", "brand": "Banco BMG", "brand:wikidata": "Q16496437", "name": "Banco BMG"}}, {"type": "node", "id": 3203052939, "lat": -22.967023, "lon": -43.1814452, "tags": {"amenity": "bank", "brand": "Bradesco", "brand:wikidata": "Q806181", "brand:wikipedia": "en:Banco Bradesco", "name": "Bradesco"}}, {"type": "node", "id": 3204489756, "lat": -22.9672709, "lon": -43.1813643, "tags": {"amenity": "bank", "brand": "Ita\u00fa Unibanco", "brand:wikidata": "Q1424293", "name": "Ita\u00fa"}}, {"type": "node", "id": 3209693566, "lat": -22.9132008, "lon": -43.190951, "tags": {"amenity": "bank", "atm": "yes", "brand": "Santander", "brand:wikidata": "Q5835668", "brand:wikipedia": "en:Santander Bank", "name": "Santander"}}, {"type": "node", "id": 3215756174, "lat": -23.0204824, "lon": -43.4874665, "tags": {"amenity": "bank", "atm": "yes", "brand": "Caixa Econ\u00f4mica Federal", "brand:wikidata": "Q835283", "level": "1", "name": "Caixa Econ\u00f4mica Federal"}}, {"type": "node", "id": 3219703958, "lat": -23.0172442, "lon": -43.4759574}, {"type": "node", "id": 3219703959, "lat": -23.017204, "lon": -43.4757895}, {"type": "node", "id": 3219703960, "lat": -23.01742, "lon": -43.4757231}, {"type": "node", "id": 3219718461, "lat": -23.0174635, "lon": -43.4758944}, {"type": "node", "id": 3224841426, "lat": -23.0148799, "lon": -43.4667245}, {"type": "node", "id": 3224841431, "lat": -23.0150807, "lon": -43.4666607}, {"type": "node", "id": 3224841458, "lat": -23.0148463, "lon": -43.4665918}, {"type": "node", "id": 3224841459, "lat": -23.015072, "lon": -43.4665158}, {"type": "node", "id": 3224841460, "lat": -23.0150837, "lon": -43.4665584}, {"type": "node", "id": 3224841561, "lat": -23.0150699, "lon": -43.4665629}, {"type": "node", "id": 3224841562, "lat": -23.0150798, "lon": -43.466599}, {"type": "node", "id": 3224841563, "lat": -23.0150689, "lon": -43.4666025}, {"type": "node", "id": 3224841571, "lat": -23.015042, "lon": -43.4665279}, {"type": "node", "id": 3224841590, "lat": -23.0146061, "lon": -43.4655137}, {"type": "node", "id": 3224841591, "lat": -23.0148134, "lon": -43.4654896}, {"type": "node", "id": 3224841597, "lat": -23.0145815, "lon": -43.4653262}, {"type": "node", "id": 3224841598, "lat": -23.0147999, "lon": -43.4653139}, {"type": "node", "id": 3224874245, "lat": -23.0139505, "lon": -43.4628813}, {"type": "node", "id": 3224874246, "lat": -23.0141752, "lon": -43.4627687}, {"type": "node", "id": 3224874247, "lat": -23.0141443, "lon": -43.4626936}, {"type": "node", "id": 3224874248, "lat": -23.0141678, "lon": -43.4626828}, {"type": "node", "id": 3224874249, "lat": -23.0141456, "lon": -43.4626319}, {"type": "node", "id": 3224874250, "lat": -23.0138801, "lon": -43.4627072}, {"type": "node", "id": 3224876875, "lat": -23.0140634, "lon": -43.4626506}, {"type": "node", "id": 3248372079, "lat": -23.0178257, "lon": -43.4774434}, {"type": "node", "id": 3248372080, "lat": -23.0177624, "lon": -43.4772598}, {"type": "node", "id": 3248372081, "lat": -23.0175735, "lon": -43.4773184}, {"type": "node", "id": 3248372082, "lat": -23.0176402, "lon": -43.4775186}, {"type": "node", "id": 3252904102, "lat": -23.0092654, "lon": -43.3049257}, {"type": "node", "id": 3252904103, "lat": -23.0093757, "lon": -43.3049487}, {"type": "node", "id": 3252904105, "lat": -23.0093101, "lon": -43.3046731}, {"type": "node", "id": 3266080906, "lat": -22.9320171, "lon": -43.1806231}, {"type": "node", "id": 3297155548, "lat": -23.0014763, "lon": -43.4217923}, {"type": "node", "id": 3297155549, "lat": -23.0012794, "lon": -43.4216904}, {"type": "node", "id": 3297155550, "lat": -23.001372, "lon": -43.4214792}, {"type": "node", "id": 3297155551, "lat": -23.0015689, "lon": -43.4215811}, {"type": "node", "id": 3298426318, "lat": -23.0099379, "lon": -43.3556013, "tags": {"addr:city": "Rio de Janeiro", "addr:street": "Avenida L\u00facio Costa", "amenity": "bank", "atm": "yes", "brand": "Caixa Econ\u00f4mica Federal", "brand:wikidata": "Q835283", "name": "Caixa Econ\u00f4mica Federal"}}, {"type": "node", "id": 3301346383, "lat": -22.9048056, "lon": -43.5632192}, {"type": "node", "id": 3326866093, "lat": -22.9102703, "lon": -43.177655, "tags": {"amenity": "bank", "atm": "yes", "brand": "Bradesco", "brand:wikidata": "Q806181", "name": "Bradesco", "opening_hours": "Mo-Fr 10:00-16:00", "website": "www.bradesco.com.br"}}, {"type": "node", "id": 3327029371, "lat": -22.974824, "lon": -43.2278538}, {"type": "node", "id": 3327029372, "lat": -22.9752438, "lon": -43.2276365}, {"type": "node", "id": 3327029373, "lat": -22.9754389, "lon": -43.2279664}, {"type": "node", "id": 3327029374, "lat": -22.9749031, "lon": -43.2280201}, {"type": "node", "id": 3337955393, "lat": -22.9150377, "lon": -43.2452935}, {"type": "node", "id": 3337955394, "lat": -22.9150012, "lon": -43.2450966}, {"type": "node", "id": 3337955395, "lat": -22.9154329, "lon": -43.2450023}, {"type": "node", "id": 3337955396, "lat": -22.9154694, "lon": -43.2451992}, {"type": "node", "id": 3357691537, "lat": -22.9258333, "lon": -43.2345674, "tags": {"amenity": "bank", "atm": "yes", "brand": "Ita\u00fa Unibanco", "brand:wikidata": "Q1424293", "name": "Ita\u00fa", "opening_hours": "10:00-16:00", "operator": "Ita\u00fa"}}, {"type": "node", "id": 3357691538, "lat": -22.9269846, "lon": -43.2360149, "tags": {"amenity": "bank", "atm": "yes", "brand": "Ita\u00fa Unibanco", "brand:wikidata": "Q1424293", "name": "Ita\u00fa", "operator": "Ita\u00fa"}}, {"type": "node", "id": 3391965245, "lat": -22.9847433, "lon": -43.2029532, "tags": {"addr:city": "Rio de Janeiro", "addr:housenumber": "71", "addr:street": "Rua Vin\u00edcius de Moraes", "addr:suburb": "Ipanema", "amenity": "bank", "atm": "yes", "brand": "HSBC", "brand:wikidata": "Q190464", "brand:wikipedia": "en:HSBC", "name": "HSBC", "ref": "0310"}}, {"type": "node", "id": 3409729162, "lat": -22.9989602, "lon": -43.3594787, "tags": {"amenity": "bank", "atm": "yes", "brand": "Ita\u00fa Unibanco", "brand:wikidata": "Q1424293", "name": "Ita\u00fa"}}, {"type": "node", "id": 3413461026, "lat": -22.9993766, "lon": -43.3467503}, {"type": "node", "id": 3413461027, "lat": -22.9995346, "lon": -43.3468522}, {"type": "node", "id": 3413461028, "lat": -22.9995642, "lon": -43.3468602}, {"type": "node", "id": 3413461029, "lat": -22.9995963, "lon": -43.3468549}, {"type": "node", "id": 3413461030, "lat": -22.999626, "lon": -43.3468334}, {"type": "node", "id": 3413461031, "lat": -22.9996482, "lon": -43.3468012}, {"type": "node", "id": 3413461032, "lat": -22.9996581, "lon": -43.3467637}, {"type": "node", "id": 3413461033, "lat": -22.9996605, "lon": -43.3465652}, {"type": "node", "id": 3428714993, "lat": -22.8725409, "lon": -43.3397114}, {"type": "node", "id": 3428714994, "lat": -22.8724464, "lon": -43.3396739}, {"type": "node", "id": 3428714995, "lat": -22.8724224, "lon": -43.3396251}, {"type": "node", "id": 3428714996, "lat": -22.8724299, "lon": -43.3395876}, {"type": "node", "id": 3428714997, "lat": -22.8725229, "lon": -43.339446}, {"type": "node", "id": 3428714998, "lat": -22.8725904, "lon": -43.3394899}, {"type": "node", "id": 3428714999, "lat": -22.8717328, "lon": -43.3407423, "tags": {"amenity": "bank", "atm": "yes", "brand": "Bradesco", "brand:wikidata": "Q806181", "brand:wikipedia": "en:Banco Bradesco", "name": "Bradesco"}}, {"type": "node", "id": 3447126894, "lat": -22.9890375, "lon": -43.3595982, "tags": {"amenity": "bank", "atm": "yes", "brand": "Bradesco", "brand:wikidata": "Q806181", "brand:wikipedia": "en:Banco Bradesco", "name": "Bradesco"}}, {"type": "node", "id": 3447126903, "lat": -22.9892265, "lon": -43.3595474, "tags": {"amenity": "bank", "atm": "yes", "brand": "Ita\u00fa Unibanco", "brand:wikidata": "Q1424293", "brand:wikipedia": "pt:Ita\u00fa Unibanco", "name": "Ita\u00fa"}}, {"type": "node", "id": 3504180827, "lat": -22.9161005, "lon": -43.2484991, "tags": {"amenity": "bank", "atm": "yes", "brand": "Ita\u00fa Unibanco", "brand:wikidata": "Q1424293", "name": "Ita\u00fa"}}, {"type": "node", "id": 3626122131, "lat": -22.9887119, "lon": -43.3577632, "tags": {"amenity": "bank", "atm": "yes", "brand": "Santander", "brand:wikidata": "Q5835668", "brand:wikipedia": "en:Santander Bank", "name": "Santander"}}, {"type": "node", "id": 3626339797, "lat": -23.0006975, "lon": -43.3483569, "tags": {"amenity": "bank", "atm": "yes", "name": "BB Estilo", "operator": "Banco do Brasil"}}, {"type": "node", "id": 3626339798, "lat": -23.0008012, "lon": -43.3485822, "tags": {"amenity": "bank", "atm": "yes", "name": "Bradesco Prime", "operator": "Bradesco"}}, {"type": "node", "id": 3631507459, "lat": -22.9154327, "lon": -43.2449046, "tags": {"amenity": "bank", "atm": "yes", "brand": "Caixa Econ\u00f4mica Federal", "brand:wikidata": "Q835283", "brand:wikipedia": "pt:Caixa Econ\u00f4mica Federal", "drive_through": "no", "name": "Caixa Econ\u00f4mica Federal"}}, {"type": "node", "id": 3631507462, "lat": -22.9158187, "lon": -43.244962, "tags": {"amenity": "bank", "atm": "yes", "brand": "Ita\u00fa", "brand:wikidata": "Q2423252", "brand:wikipedia": "en:Ita\u00fa Corpbanca", "drive_through": "no", "name": "Ita\u00fa"}}, {"type": "node", "id": 3702616025, "lat": -22.924869, "lon": -43.22554, "tags": {"addr:city": "Rio de Janeiro", "addr:housenumber": "120", "addr:postcode": "20520-053", "addr:street": "Rua Conde de Bonfim", "amenity": "bank", "atm": "yes", "brand": "Caixa Econ\u00f4mica Federal", "brand:wikidata": "Q835283", "name": "Caixa Econ\u00f4mica Federal", "wheelchair": "yes"}}, {"type": "node", "id": 3702637125, "lat": -22.923876, "lon": -43.228204, "tags": {"addr:city": "Rio de Janeiro", "addr:housenumber": "190", "addr:postcode": "20520-054", "addr:street": "Rua Conde de Bonfim", "amenity": "bank", "atm": "yes", "brand": "Ita\u00fa Unibanco", "brand:wikidata": "Q1424293", "name": "Ita\u00fa"}}, {"type": "node", "id": 3708646526, "lat": -22.9089746, "lon": -43.1937953, "tags": {"amenity": "bank", "brand": "Caixa Econ\u00f4mica Federal", "brand:wikidata": "Q835283", "name": "Caixa Econ\u00f4mica Federal"}}, {"type": "node", "id": 3718079736, "lat": -22.8589872, "lon": -43.2309174, "tags": {"amenity": "bank", "brand": "Banco do Brasil", "brand:wikidata": "Q610817", "name": "Banco do Brasil"}}, {"type": "node", "id": 3740247403, "lat": -22.965564, "lon": -43.181257, "tags": {"addr:city": "Rio de Janeiro", "addr:housenumber": "222", "addr:postcode": "22011-002", "addr:street": "Rua Barata Ribeiro", "amenity": "bank", "atm": "yes", "brand": "Caixa Econ\u00f4mica Federal", "brand:wikidata": "Q835283", "brand:wikipedia": "pt:Caixa Econ\u00f4mica Federal", "name": "Caixa Econ\u00f4mica Federal"}}, {"type": "node", "id": 3753528499, "lat": -22.903044, "lon": -43.1769175, "tags": {"addr:city": "Rio de Janeiro", "addr:housenumber": "91", "addr:street": "Rua do Ouvidor", "addr:suburb": "Centro", "amenity": "bank", "atm": "yes", "brand": "Ita\u00fa Unibanco", "brand:wikidata": "Q1424293", "drive_through": "no", "name": "Ita\u00fa"}}, {"type": "node", "id": 3753528503, "lat": -22.9028389, "lon": -43.1765527, "tags": {"addr:city": "Rio de Janeiro", "addr:housenumber": "71", "addr:street": "Rua do Carmo", "addr:suburb": "Centro", "amenity": "bank", "atm": "yes", "brand": "Bradesco", "brand:wikidata": "Q806181", "brand:wikipedia": "en:Banco Bradesco", "drive_through": "no", "name": "Bradesco"}}, {"type": "node", "id": 3755977425, "lat": -22.9375923, "lon": -43.1904965, "tags": {"addr:city": "Rio de Janeiro", "addr:street": "Rua das Laranjeiras", "addr:suburb": "Laranjeiras", "amenity": "bank", "atm": "yes", "brand": "Banco do Brasil", "brand:wikidata": "Q610817", "brand:wikipedia": "en:Banco do Brasil", "drive_through": "no", "name": "Banco do Brasil"}}, {"type": "node", "id": 3755979525, "lat": -22.9378231, "lon": -43.1905879, "tags": {"addr:city": "Rio de Janeiro", "addr:housenumber": "404", "addr:postcode": "22240-005", "addr:street": "Rua das Laranjeiras", "addr:suburb": "Laranjeiras", "amenity": "bank", "atm": "yes", "brand": "Santander", "brand:wikidata": "Q5835668", "brand:wikipedia": "en:Santander Bank", "drive_through": "no", "name": "Santander"}}, {"type": "node", "id": 3816503274, "lat": -23.0095365, "lon": -43.4456849, "tags": {"amenity": "bank", "atm": "yes", "brand": "Banco do Brasil", "brand:wikidata": "Q610817", "name": "Banco do Brasil"}}, {"type": "node", "id": 3861585395, "lat": -22.828687, "lon": -43.3191609, "tags": {"amenity": "bank", "atm": "yes", "brand": "Bradesco", "brand:wikidata": "Q806181", "brand:wikipedia": "en:Banco Bradesco", "name": "Bradesco"}}, {"type": "node", "id": 3867984726, "lat": -23.0005539, "lon": -43.3294747, "tags": {"addr:street": "Avenida das Am\u00e9ricas", "amenity": "bank", "brand": "Banco do Brasil", "brand:wikidata": "Q610817", "brand:wikipedia": "en:Banco do Brasil", "name": "Banco do Brasil"}}, {"type": "node", "id": 3867984727, "lat": -23.0004565, "lon": -43.3299895, "tags": {"addr:street": "Avenida das Am\u00e9ricas", "amenity": "bank", "brand": "Caixa Econ\u00f4mica Federal", "brand:wikidata": "Q835283", "building": "commercial", "name": "Caixa Econ\u00f4mica Federal"}}, {"type": "node", "id": 3867984735, "lat": -23.0002475, "lon": -43.3309399, "tags": {"addr:street": "Avenida das Am\u00e9ricas", "amenity": "bank", "brand": "Santander", "brand:wikidata": "Q5835668", "brand:wikipedia": "en:Santander Bank", "name": "Santander"}}, {"type": "node", "id": 3867984742, "lat": -23.0002356, "lon": -43.3310914, "tags": {"addr:street": "Avenida das Am\u00e9ricas", "amenity": "bank", "name": "Ita\u00fa Personnalit\u00e9"}}, {"type": "node", "id": 3892451485, "lat": -22.8862721, "lon": -43.5580914, "tags": {"amenity": "bank", "atm": "yes", "brand": "Banco do Brasil", "brand:wikidata": "Q610817", "brand:wikipedia": "en:Banco do Brasil", "name": "Banco do Brasil"}}, {"type": "node", "id": 3892451486, "lat": -22.8876996, "lon": -43.5592699, "tags": {"amenity": "bank", "atm": "yes", "brand": "Caixa Econ\u00f4mica Federal", "brand:wikidata": "Q835283", "brand:wikipedia": "pt:Caixa Econ\u00f4mica Federal", "name": "Caixa Econ\u00f4mica Federal"}}, {"type": "node", "id": 3892451493, "lat": -22.8875195, "lon": -43.5591431, "tags": {"amenity": "bank", "atm": "yes", "brand": "Santander", "brand:wikidata": "Q5835668", "brand:wikipedia": "en:Santander Bank", "name": "Santander"}}, {"type": "node", "id": 3932293005, "lat": -23.0140895, "lon": -43.4628116}, {"type": "node", "id": 3939508299, "lat": -23.0171378, "lon": -43.4753824, "tags": {"amenity": "bank", "name": "Bradesco"}}, {"type": "node", "id": 3958794363, "lat": -22.9111766, "lon": -43.1866324, "tags": {"amenity": "bank", "atm": "yes", "brand": "Caixa Econ\u00f4mica Federal", "brand:wikidata": "Q835283", "name": "Caixa Econ\u00f4mica Federal", "opening_hours": "Mo-Fr 10:00-16:00"}}, {"type": "node", "id": 3987136201, "lat": -22.9329411, "lon": -43.2411077, "tags": {"amenity": "bank", "atm": "yes", "brand": "Ita\u00fa Unibanco", "brand:wikidata": "Q1424293", "drive_through": "no", "name": "Ita\u00fa"}}, {"type": "node", "id": 4024489180, "lat": -22.9032545, "lon": -43.1835904, "tags": {"amenity": "bank", "brand": "Caixa Econ\u00f4mica Federal", "brand:wikidata": "Q835283", "name": "Caixa Econ\u00f4mica Federal"}}, {"type": "node", "id": 4100916481, "lat": -22.9761712, "lon": -43.3351344, "tags": {"amenity": "bank", "brand": "Bradesco", "brand:wikidata": "Q806181", "name": "Bradesco"}}, {"type": "node", "id": 4124906969, "lat": -23.0101917, "lon": -43.4483198}, {"type": "node", "id": 4124906970, "lat": -23.0103561, "lon": -43.4482696}, {"type": "node", "id": 4124906971, "lat": -23.0102855, "lon": -43.4480006}, {"type": "node", "id": 4124906972, "lat": -23.0101458, "lon": -43.4480385}, {"type": "node", "id": 4124906973, "lat": -23.0101309, "lon": -43.44806}, {"type": "node", "id": 4124906974, "lat": -23.0101309, "lon": -43.4480948}, {"type": "node", "id": 4128523778, "lat": -22.8063915, "lon": -43.1826009, "tags": {"amenity": "bank", "atm": "yes", "brand": "Bradesco", "brand:wikidata": "Q806181", "name": "Bradesco"}}, {"type": "node", "id": 4162483971, "lat": -22.868901, "lon": -43.258026}, {"type": "node", "id": 4162483972, "lat": -22.8689152, "lon": -43.2582541}, {"type": "node", "id": 4162483973, "lat": -22.8690232, "lon": -43.2580168}, {"type": "node", "id": 4162483974, "lat": -22.8690416, "lon": -43.2583666}, {"type": "node", "id": 4167726890, "lat": -22.9056788, "lon": -43.1747185, "tags": {"amenity": "bank", "name": "Safra"}}, {"type": "node", "id": 4192442294, "lat": -22.839734, "lon": -43.3119012, "tags": {"amenity": "bank", "atm": "yes", "brand": "Bradesco", "brand:wikidata": "Q806181", "brand:wikipedia": "en:Banco Bradesco", "check_date:opening_hours": "2022-08-17", "drive_through": "no", "name": "Bradesco", "opening_hours": "Mo-Fr 10:00-16:00"}}, {"type": "node", "id": 4192561689, "lat": -22.8386943, "lon": -43.3114261, "tags": {"amenity": "bank", "brand": "Banco do Brasil", "brand:wikidata": "Q610817", "brand:wikipedia": "en:Banco do Brasil", "drive_through": "no", "name": "Banco do Brasil", "opening_hours": "Mo-Fr 10:00-16:00; Sa,Su off"}}, {"type": "node", "id": 4194043349, "lat": -22.9038699, "lon": -43.1762211}, {"type": "node", "id": 4194043350, "lat": -22.903873, "lon": -43.1762282}, {"type": "node", "id": 4194043352, "lat": -22.9038989, "lon": -43.1762863}, {"type": "node", "id": 4194043358, "lat": -22.9039429, "lon": -43.1761726}, {"type": "node", "id": 4194043359, "lat": -22.903956, "lon": -43.1761639}, {"type": "node", "id": 4194043360, "lat": -22.9039754, "lon": -43.1762331}, {"type": "node", "id": 4194043361, "lat": -22.9039893, "lon": -43.1762234}, {"type": "node", "id": 4207985018, "lat": -22.953102, "lon": -43.1731948, "tags": {"amenity": "bank", "brand": "Banco do Brasil", "brand:wikidata": "Q610817", "brand:wikipedia": "en:Banco do Brasil", "name": "Banco do Brasil"}}, {"type": "node", "id": 4257951593, "lat": -22.9112768, "lon": -43.1838588, "tags": {"addr:city": "Rio de Janeiro", "addr:housenumber": "474", "addr:postcode": "20231-015", "addr:street": "Avenida Gomes Freire", "addr:suburb": "Lapa", "amenity": "bank", "brand": "Ita\u00fa Unibanco", "brand:wikidata": "Q1424293", "name": "Ita\u00fa"}}, {"type": "node", "id": 4257951594, "lat": -22.910833, "lon": -43.1845754, "tags": {"amenity": "bank", "brand": "Caixa Econ\u00f4mica Federal", "brand:wikidata": "Q835283", "name": "Caixa Econ\u00f4mica Federal", "opening_hours": "Mo-Fr 08:00-20:00"}}, {"type": "node", "id": 4293342538, "lat": -22.9698616, "lon": -43.1852508, "tags": {"amenity": "bank", "atm": "yes", "brand": "Banco Santander", "brand:en": "Santander Bank", "brand:es": "Banco Santander", "brand:wikidata": "Q6496310", "brand:wikipedia": "es:Banco Santander", "name": "Banco Santander", "name:en": "Santander Bank", "name:es": "Banco Santander", "official_name": "Santander Group"}}, {"type": "node", "id": 4310959452, "lat": -23.0013449, "lon": -43.3529221, "tags": {"amenity": "bank", "atm": "yes", "brand": "Caixa Econ\u00f4mica Federal", "brand:wikidata": "Q835283", "name": "Caixa Econ\u00f4mica Federal"}}, {"type": "node", "id": 4319675337, "lat": -22.9071332, "lon": -43.5618833}, {"type": "node", "id": 4319675354, "lat": -22.9079035, "lon": -43.5638058, "tags": {"amenity": "bank", "atm": "yes", "brand": "Ita\u00fa Unibanco", "brand:wikidata": "Q1424293", "name": "Ita\u00fa"}}, {"type": "node", "id": 4323901928, "lat": -22.9174101, "lon": -43.6827305, "tags": {"amenity": "bank", "brand": "Bradesco", "brand:wikidata": "Q806181", "name": "Bradesco"}}, {"type": "node", "id": 4326298265, "lat": -22.9749147, "lon": -43.2272149, "tags": {"amenity": "bank", "atm": "yes", "brand": "Banco do Brasil", "brand:wikidata": "Q610817", "drive_through": "no", "name": "Banco do Brasil"}}, {"type": "node", "id": 4341205803, "lat": -22.9172503, "lon": -43.6838709, "tags": {"amenity": "bank", "atm": "yes", "brand": "Ita\u00fa Unibanco", "brand:wikidata": "Q1424293", "name": "Ita\u00fa"}}, {"type": "node", "id": 4341205804, "lat": -22.9174776, "lon": -43.6838119, "tags": {"amenity": "bank", "atm": "yes", "brand": "Banco do Brasil", "brand:wikidata": "Q610817", "name": "Banco do Brasil"}}, {"type": "node", "id": 4351309874, "lat": -23.003282, "lon": -43.3261829, "tags": {"amenity": "bank", "brand": "Banco do Brasil", "brand:wikidata": "Q610817", "name": "Banco do Brasil"}}, {"type": "node", "id": 4351309956, "lat": -23.0033306, "lon": -43.3260799, "tags": {"amenity": "bank", "brand": "Ita\u00fa Unibanco", "brand:wikidata": "Q1424293", "name": "Ita\u00fa"}}, {"type": "node", "id": 4363817461, "lat": -22.9269703, "lon": -43.3733812, "tags": {"amenity": "bank", "brand": "Bradesco", "brand:wikidata": "Q806181", "name": "Bradesco"}}, {"type": "node", "id": 4364512613, "lat": -22.9410259, "lon": -43.3426932, "tags": {"amenity": "bank", "atm": "yes", "brand": "Caixa Econ\u00f4mica Federal", "brand:wikidata": "Q835283", "name": "Caixa Econ\u00f4mica Federal"}}, {"type": "node", "id": 4371621861, "lat": -22.8411926, "lon": -43.2769396, "tags": {"amenity": "bank", "atm": "yes", "brand": "Caixa Econ\u00f4mica Federal", "brand:wikidata": "Q835283", "brand:wikipedia": "pt:Caixa Econ\u00f4mica Federal", "name": "Caixa Econ\u00f4mica Federal"}}, {"type": "node", "id": 4371621884, "lat": -22.8416969, "lon": -43.2775779, "tags": {"amenity": "bank", "atm": "yes", "brand": "Banco do Brasil", "brand:wikidata": "Q610817", "brand:wikipedia": "en:Banco do Brasil", "name": "Banco do Brasil"}}, {"type": "node", "id": 4371621993, "lat": -22.8418557, "lon": -43.2792362, "tags": {"amenity": "bank", "atm": "yes", "brand": "Bradesco", "brand:wikidata": "Q806181", "brand:wikipedia": "en:Banco Bradesco", "name": "Bradesco"}}, {"type": "node", "id": 4371622019, "lat": -22.8424168, "lon": -43.2787681, "tags": {"amenity": "bank", "atm": "yes", "brand": "Ita\u00fa Unibanco", "brand:wikidata": "Q1424293", "brand:wikipedia": "pt:Ita\u00fa Unibanco", "name": "Ita\u00fa"}}, {"type": "node", "id": 4386705840, "lat": -22.8975967, "lon": -43.5653964, "tags": {"amenity": "bank", "atm": "yes", "brand": "Bradesco", "brand:wikidata": "Q806181", "name": "Bradesco"}}, {"type": "node", "id": 4396980124, "lat": -22.9057319, "lon": -43.5586703}, {"type": "node", "id": 4396980125, "lat": -22.9057743, "lon": -43.558918}, {"type": "node", "id": 4396980126, "lat": -22.9058079, "lon": -43.5586552}, {"type": "node", "id": 4396980127, "lat": -22.9058201, "lon": -43.5587269}, {"type": "node", "id": 4396980128, "lat": -22.9058593, "lon": -43.5587192}, {"type": "node", "id": 4396980129, "lat": -22.905889, "lon": -43.5588951}, {"type": "node", "id": 4404545926, "lat": -22.9986328, "lon": -43.6314639, "tags": {"addr:street": "Estrada da Matriz", "amenity": "bank", "branch": "(Ag\u00eancia 7942)", "brand": "Ita\u00fa Unibanco", "brand:wikidata": "Q1424293", "drive_through": "yes", "name": "Ita\u00fa", "opening_hours": "10:00-16:00", "wheelchair": "limited"}}, {"type": "node", "id": 4404592933, "lat": -22.997104, "lon": -43.6279659, "tags": {"addr:street": "Estrada da Matriz", "addr:suburb": "Pedra deGuaratiba", "amenity": "bank", "brand": "Caixa Econ\u00f4mica Federal", "brand:wikidata": "Q835283", "name": "Caixa Econ\u00f4mica Federal", "opening_hours": "10:00-16:00"}}, {"type": "node", "id": 4405780851, "lat": -22.9161273, "lon": -43.3784049}, {"type": "node", "id": 4407261314, "lat": -22.9136341, "lon": -43.2363065, "tags": {"amenity": "bank", "atm": "yes", "brand": "Caixa Econ\u00f4mica Federal", "brand:wikidata": "Q835283", "name": "Caixa Econ\u00f4mica Federal"}}, {"type": "node", "id": 4417187135, "lat": -22.9983677, "lon": -43.6301358, "tags": {"addr:city": "Rio de Janeiro", "addr:street": "Estrada da Matriz", "addr:suburb": "Pedra de Guaratiba", "amenity": "bank", "brand": "Banco do Brasil", "brand:wikidata": "Q610817", "name": "Banco do Brasil", "opening_hours": "10:00-16:00"}}, {"type": "node", "id": 4425545630, "lat": -22.9017424, "lon": -43.1818167, "tags": {"amenity": "bank", "atm": "yes", "brand": "Ita\u00fa Unibanco", "brand:wikidata": "Q1424293", "brand:wikipedia": "pt:Ita\u00fa Unibanco", "name": "Ita\u00fa"}}, {"type": "node", "id": 4425545631, "lat": -22.9018487, "lon": -43.1821305, "tags": {"amenity": "bank", "atm": "yes", "brand": "Bradesco", "brand:wikidata": "Q806181", "brand:wikipedia": "en:Banco Bradesco", "name": "Bradesco"}}, {"type": "node", "id": 4451080393, "lat": -22.8115166, "lon": -43.193304, "tags": {"amenity": "bank", "brand": "Caixa Econ\u00f4mica Federal", "brand:wikidata": "Q835283", "name": "Caixa Econ\u00f4mica Federal"}}, {"type": "node", "id": 4483860009, "lat": -22.907076, "lon": -43.1812729, "tags": {"amenity": "bank", "atm": "yes", "brand": "Bradesco", "brand:wikidata": "Q806181", "name": "Bradesco"}}, {"type": "node", "id": 4501721343, "lat": -22.9229565, "lon": -43.222703}, {"type": "node", "id": 4501721348, "lat": -22.9226354, "lon": -43.2230031}, {"type": "node", "id": 4501721355, "lat": -22.9227012, "lon": -43.2230861}, {"type": "node", "id": 4501721370, "lat": -22.9230245, "lon": -43.2227843}, {"type": "node", "id": 4507466989, "lat": -22.9157007, "lon": -43.1882832, "tags": {"amenity": "bank", "brand": "Banco do Brasil", "brand:wikidata": "Q610817", "name": "Banco do Brasil"}}, {"type": "node", "id": 4509633325, "lat": -22.9104063, "lon": -43.172202, "tags": {"amenity": "bank", "brand": "Banco do Brasil", "brand:wikidata": "Q610817", "name": "Banco do Brasil", "operator": "Banco do Brasil"}}, {"type": "node", "id": 4630048002, "lat": -22.9774659, "lon": -43.1905103, "tags": {"amenity": "bank", "brand": "Bradesco", "brand:wikidata": "Q806181", "brand:wikipedia": "en:Banco Bradesco", "name": "Bradesco", "name:pt": "Bradesco"}}, {"type": "node", "id": 4630091893, "lat": -22.9752886, "lon": -43.1898154, "tags": {"amenity": "bank", "brand": "Bradesco", "brand:wikidata": "Q806181", "brand:wikipedia": "en:Banco Bradesco", "name": "Bradesco", "name:pt": "Bradesco"}}, {"type": "node", "id": 4673017262, "lat": -23.0173887, "lon": -43.4757351}, {"type": "node", "id": 4689071523, "lat": -22.8950563, "lon": -43.1214874, "tags": {"addr:street": "Rua Jos\u00e9 Clemente", "amenity": "bank", "brand": "Ita\u00fa Unibanco", "brand:wikidata": "Q1424293", "name": "Ita\u00fa"}}, {"type": "node", "id": 4690568193, "lat": -22.9592657, "lon": -43.388415, "tags": {"amenity": "bank", "brand": "Caixa Econ\u00f4mica Federal", "brand:wikidata": "Q835283", "name": "Caixa Econ\u00f4mica Federal"}}, {"type": "node", "id": 4691122681, "lat": -23.0176845, "lon": -43.4772865}, {"type": "node", "id": 4699574106, "lat": -23.0165936, "lon": -43.4732046, "tags": {"amenity": "bank", "atm": "yes", "brand": "Ita\u00fa Unibanco", "brand:wikidata": "Q1424293", "name": "Ita\u00fa"}}, {"type": "node", "id": 4714127696, "lat": -22.8655182, "lon": -43.2703335, "tags": {"amenity": "bank", "branch": "23", "brand": "Caixa Econ\u00f4mica Federal", "brand:wikidata": "Q835283", "brand:wikipedia": "pt:Caixa Econ\u00f4mica Federal", "name": "Caixa Econ\u00f4mica Federal"}}, {"type": "node", "id": 4763191438, "lat": -23.0133079, "lon": -43.4603506, "tags": {"amenity": "bank", "brand": "Bradesco", "brand:wikidata": "Q806181", "fixme": "confirmar posi\u00e7\u00e3o", "name": "Bradesco"}}, {"type": "node", "id": 4788163143, "lat": -23.0162739, "lon": -43.4717406, "tags": {"amenity": "bank", "brand": "Banco BMG", "brand:wikidata": "Q16496437", "name": "Banco BMG"}}, {"type": "node", "id": 4808979523, "lat": -23.0104542, "lon": -43.3695491, "tags": {"addr:housenumber": "8000", "addr:postcode": "22795-006", "addr:street": "Avenida L\u00facio Costa", "amenity": "bank", "brand": "Banco Santander", "brand:en": "Santander Bank", "brand:es": "Banco Santander", "brand:wikidata": "Q6496310", "brand:wikipedia": "es:Banco Santander", "name": "Banco Santander", "name:en": "Santander Bank", "name:es": "Banco Santander", "name:pt": "Santander", "official_name": "Santander Group", "opening_hours": "Mo-Fr 10:00-16:00", "phone": "+55 (21) 2433-3023"}}, {"type": "node", "id": 4835066321, "lat": -22.9282036, "lon": -43.1777882, "tags": {"addr:city": "Rio de Janeiro", "addr:suburb": "Catete", "amenity": "bank", "atm": "yes", "brand": "Caixa Econ\u00f4mica Federal", "brand:wikidata": "Q835283", "brand:wikipedia": "pt:Caixa Econ\u00f4mica Federal", "drive_through": "no", "level": "0", "name": "Caixa Econ\u00f4mica Federal", "name:pt": "Caixa"}}, {"type": "node", "id": 4864014122, "lat": -22.9397274, "lon": -43.3432053, "tags": {"addr:street": "Estrada dos Tr\u00eas Rios", "amenity": "bank", "brand": "Ita\u00fa Unibanco", "brand:wikidata": "Q1424293", "name": "Ita\u00fa", "name:pt": "Ita\u00fa"}}, {"type": "node", "id": 4864015823, "lat": -22.9397361, "lon": -43.3432458, "tags": {"addr:street": "Estrada dos Tr\u00eas Rios", "amenity": "bank", "brand": "Santander", "brand:wikidata": "Q5835668", "brand:wikipedia": "en:Santander Bank", "name": "Santander", "name:pt": "Santander"}}, {"type": "node", "id": 4864017721, "lat": -22.9389836, "lon": -43.3411912, "tags": {"addr:street": "Estrada dos Tr\u00eas Rios", "amenity": "bank", "brand": "Banco do Brasil", "brand:wikidata": "Q610817", "name": "Banco do Brasil", "name:pt": "Banco do Brasil"}}, {"type": "node", "id": 4866514721, "lat": -22.9372144, "lon": -43.3371827, "tags": {"addr:housenumber": "721", "addr:street": "Estrada dos Tr\u00eas Rios", "amenity": "bank", "brand": "Caixa Econ\u00f4mica Federal", "brand:wikidata": "Q835283", "name": "Caixa Econ\u00f4mica Federal", "name:pt": "Caixa econ\u00f4mica"}}, {"type": "node", "id": 4892939847, "lat": -22.9100037, "lon": -43.168895, "tags": {"amenity": "bank", "atm": "yes", "brand": "Caixa Econ\u00f4mica Federal", "brand:wikidata": "Q835283", "name": "Caixa Econ\u00f4mica Federal"}}, {"type": "node", "id": 4892939866, "lat": -22.9096123, "lon": -43.1690115, "tags": {"amenity": "bank", "atm": "yes", "brand": "Santander", "brand:wikidata": "Q5835668", "brand:wikipedia": "en:Santander Bank", "name": "Santander"}}, {"type": "node", "id": 4916982580, "lat": -22.8504039, "lon": -43.3087214, "tags": {"amenity": "bank", "atm": "yes", "brand": "Ita\u00fa Unibanco", "brand:wikidata": "Q1424293", "brand:wikipedia": "pt:Ita\u00fa Unibanco", "name": "Ita\u00fa", "operator": "Ita\u00fa"}}, {"type": "node", "id": 4919134008, "lat": -22.8400251, "lon": -43.2970875, "tags": {"amenity": "bank", "atm": "yes", "brand": "Banco do Brasil", "brand:wikidata": "Q610817", "brand:wikipedia": "en:Banco do Brasil", "drive_through": "no", "name": "Banco do Brasil", "operator": "Banco do Brasil"}}, {"type": "node", "id": 4932699265, "lat": -23.0045467, "lon": -43.3158295, "tags": {"amenity": "bank", "atm": "yes", "brand": "Caixa Econ\u00f4mica Federal", "brand:wikidata": "Q835283", "name": "Caixa Econ\u00f4mica Federal", "operator": "Caixa Econ\u00f4mica Federal"}}, {"type": "node", "id": 4934434885, "lat": -22.9741897, "lon": -43.4137927, "tags": {"amenity": "bank", "brand": "Caixa Econ\u00f4mica Federal", "brand:wikidata": "Q835283", "brand:wikipedia": "pt:Caixa Econ\u00f4mica Federal", "name": "Caixa Econ\u00f4mica Federal"}}, {"type": "node", "id": 4937705788, "lat": -22.9074134, "lon": -43.169877, "tags": {"amenity": "bank", "atm": "yes", "branch": "Ag\u00eancia Marechal C\u00e2mara", "brand": "Banco do Brasil", "brand:wikidata": "Q610817", "brand:wikipedia": "en:Banco do Brasil", "drive_through": "no", "name": "Banco do Brasil", "opening_hours": "Mo-Fr 8:00-18:00", "operator": "Banco do Brasil"}}, {"type": "node", "id": 4977864448, "lat": -22.9095464, "lon": -43.16974, "tags": {"amenity": "bank", "brand": "Bradesco", "brand:wikidata": "Q806181", "name": "Bradesco"}}, {"type": "node", "id": 4992602921, "lat": -22.9385274, "lon": -43.1910695, "tags": {"addr:city": "Rio de Janeiro", "addr:street": "Rua das Laranjeiras", "addr:suburb": "Laranjeiras", "amenity": "bank", "atm": "yes", "brand": "Banco do Brasil", "brand:wikidata": "Q610817", "brand:wikipedia": "en:Banco do Brasil", "drive_through": "no", "name": "Banco do Brasil", "name:pt": "Banco do Brasil"}}, {"type": "node", "id": 5018153149, "lat": -22.9747309, "lon": -43.4142179, "tags": {"amenity": "bank", "atm": "yes", "brand": "Bradesco", "brand:wikidata": "Q806181", "brand:wikipedia": "en:Banco Bradesco", "name": "Bradesco"}}, {"type": "node", "id": 5033369477, "lat": -23.0220631, "lon": -43.4891169, "tags": {"amenity": "bank", "atm": "yes", "brand": "Santander", "brand:wikidata": "Q5835668", "level": "1", "name": "Santander"}}, {"type": "node", "id": 5038964224, "lat": -22.9049866, "lon": -43.1846076, "tags": {"amenity": "bank", "brand": "Banco do Brasil", "brand:wikidata": "Q610817", "name": "Banco do Brasil", "name:pt": "Banco do Brasil"}}, {"type": "node", "id": 5039545323, "lat": -22.8813754, "lon": -43.2938339, "tags": {"amenity": "bank", "brand": "Santander", "brand:wikidata": "Q5835668", "name": "Santander", "opening_hours": "Mo-Fr 10:00-16:00"}}, {"type": "node", "id": 5052275121, "lat": -22.9847073, "lon": -43.1993035, "tags": {"amenity": "bank", "brand": "Caixa Econ\u00f4mica Federal", "brand:wikidata": "Q835283", "name": "Caixa Econ\u00f4mica Federal"}}, {"type": "node", "id": 5084920494, "lat": -22.9112799, "lon": -43.1866478, "tags": {"addr:city": "Rio de Janeiro", "addr:housenumber": "70 - Lj. A", "addr:postcode": "20231-016", "addr:street": "Rua Ubaldino do Amaral", "addr:suburb": "Centro", "amenity": "bank", "brand": "Caixa Econ\u00f4mica Federal", "brand:wikidata": "Q835283", "name": "Caixa Econ\u00f4mica Federal"}}, {"type": "node", "id": 5092154322, "lat": -22.86981, "lon": -43.335606, "tags": {"addr:city": "Rio de Janeiro", "addr:street": "Avenida Ministro Edgard Romero", "amenity": "bank", "brand": "Ita\u00fa Unibanco", "brand:wikidata": "Q1424293", "name": "Ita\u00fa"}}, {"type": "node", "id": 5093502668, "lat": -22.9136426, "lon": -43.1827604, "tags": {"addr:city": "Rio de Janeiro", "addr:housenumber": "788 - Lojas A e B", "addr:postcode": "20231-015", "addr:street": "Avenida Gomes Freire", "addr:suburb": "Lapa", "amenity": "bank", "brand": "Banco Santander", "brand:en": "Santander Bank", "brand:es": "Banco Santander", "brand:wikidata": "Q6496310", "brand:wikipedia": "es:Banco Santander", "name": "Banco Santander", "name:en": "Santander Bank", "name:es": "Banco Santander", "official_name": "Santander Group"}}, {"type": "node", "id": 5122557918, "lat": -22.8500015, "lon": -43.3086913, "tags": {"amenity": "bank", "atm": "yes", "brand": "Caixa Econ\u00f4mica Federal", "brand:wikidata": "Q835283", "brand:wikipedia": "pt:Caixa Econ\u00f4mica Federal", "name": "Caixa Econ\u00f4mica Federal", "opening_hours": "Mo-Fr 10:00-16:00", "operator": "CEF", "wheelchair": "limited"}}, {"type": "node", "id": 5175619119, "lat": -22.9023408, "lon": -43.2177242, "tags": {"amenity": "bank", "atm": "yes", "brand": "Banco do Brasil", "brand:wikidata": "Q610817", "name": "Banco do Brasil"}}, {"type": "node", "id": 5175619221, "lat": -22.9022461, "lon": -43.2176048, "tags": {"addr:city": "Rio de Janeiro", "addr:housenumber": "600", "addr:postcode": "20940-000", "addr:street": "Rua S\u00e3o Crist\u00f3v\u00e3o", "amenity": "bank", "atm": "yes", "brand": "Bradesco", "brand:wikidata": "Q806181", "brand:wikipedia": "en:Banco Bradesco", "name": "Bradesco"}}, {"type": "node", "id": 5177283720, "lat": -22.9017469, "lon": -43.2172024, "tags": {"addr:city": "Rio de Janeiro", "addr:housenumber": "670", "addr:street": "Rua S\u00e3o Crist\u00f3v\u00e3o", "amenity": "bank", "atm": "yes", "brand": "Caixa Econ\u00f4mica Federal", "brand:wikidata": "Q835283", "brand:wikipedia": "pt:Caixa Econ\u00f4mica Federal", "name": "Caixa Econ\u00f4mica Federal"}}, {"type": "node", "id": 5177284827, "lat": -22.9023828, "lon": -43.2177828, "tags": {"amenity": "bank", "atm": "yes", "brand": "Ita\u00fa Unibanco", "brand:wikidata": "Q1424293", "name": "Ita\u00fa"}}, {"type": "node", "id": 5177284828, "lat": -22.9038116, "lon": -43.2184698, "tags": {"addr:city": "Rio de Janeiro", "addr:housenumber": "356", "addr:street": "Rua S\u00e3o Crist\u00f3v\u00e3o", "amenity": "bank", "atm": "yes", "brand": "Ita\u00fa Unibanco", "brand:wikidata": "Q1424293", "name": "Ita\u00fa"}}, {"type": "node", "id": 5254245729, "lat": -22.9714528, "lon": -43.1873502, "tags": {"amenity": "bank", "brand": "Bradesco", "brand:wikidata": "Q806181", "name": "Bradesco", "name:en": "Bradesco"}}, {"type": "node", "id": 5258706444, "lat": -22.8618742, "lon": -43.2284021, "tags": {"addr:city": "Rio de Janeiro", "addr:street": "Bloco H", "addr:suburb": "Cidade Universit\u00e1ria", "amenity": "bank", "atm": "yes", "brand": "Santander", "brand:wikidata": "Q5835668", "name": "Santander"}}, {"type": "node", "id": 5258744741, "lat": -22.8777452, "lon": -43.4360018, "tags": {"addr:city": "Rio de Janeiro", "addr:postcode": "21715-321", "addr:street": "Avenida de Santa Cruz", "addr:suburb": "Realengo", "amenity": "bank", "atm": "yes", "brand": "Santander", "brand:wikidata": "Q5835668", "name": "Santander"}}, {"type": "node", "id": 5258744742, "lat": -22.8777611, "lon": -43.4345439, "tags": {"addr:city": "Rio de Janeiro", "addr:street": "Avenida de Santa Cruz", "addr:suburb": "Realengo", "amenity": "bank", "atm": "yes", "brand": "Ita\u00fa Unibanco", "brand:wikidata": "Q1424293", "name": "Ita\u00fa"}}, {"type": "node", "id": 5258744743, "lat": -22.8779322, "lon": -43.4331245, "tags": {"addr:city": "Rio de Janeiro", "addr:street": "Avenida de Santa Cruz", "addr:suburb": "Realengo", "amenity": "bank", "atm": "yes", "brand": "Ita\u00fa Unibanco", "brand:wikidata": "Q1424293", "name": "Ita\u00fa"}}, {"type": "node", "id": 5258744744, "lat": -22.8777809, "lon": -43.4342808, "tags": {"addr:city": "Rio de Janeiro", "addr:postcode": "21715-321", "addr:street": "Avenida de Santa Cruz", "addr:suburb": "Realengo", "amenity": "bank", "atm": "yes", "brand": "Bradesco", "brand:wikidata": "Q806181", "name": "Bradesco"}}, {"type": "node", "id": 5262037250, "lat": -22.9425103, "lon": -43.1813087, "tags": {"addr:city": "Rio de Janeiro", "addr:suburb": "Botafogo", "amenity": "bank", "atm": "yes", "brand": "Bradesco", "brand:wikidata": "Q806181", "brand:wikipedia": "en:Banco Bradesco", "drive_through": "no", "name": "Bradesco"}}, {"type": "node", "id": 5264597783, "lat": -22.8536239, "lon": -43.3498743, "tags": {"amenity": "bank"}}, {"type": "node", "id": 5268018792, "lat": -22.8788836, "lon": -43.362902}, {"type": "node", "id": 5268018793, "lat": -22.8790457, "lon": -43.3629115}, {"type": "node", "id": 5268018810, "lat": -22.8788639, "lon": -43.3631587}, {"type": "node", "id": 5268018811, "lat": -22.8790522, "lon": -43.3631682}, {"type": "node", "id": 5278386406, "lat": -22.8784509, "lon": -43.3606424}, {"type": "node", "id": 5278386407, "lat": -22.8781794, "lon": -43.3606078}, {"type": "node", "id": 5278386408, "lat": -22.8781906, "lon": -43.3604818}, {"type": "node", "id": 5278386409, "lat": -22.8782056, "lon": -43.3604249}, {"type": "node", "id": 5278386410, "lat": -22.8782524, "lon": -43.3604188}, {"type": "node", "id": 5278386411, "lat": -22.8782805, "lon": -43.3604493}, {"type": "node", "id": 5278386412, "lat": -22.8784753, "lon": -43.3604757}, {"type": "node", "id": 5286025075, "lat": -22.8771376, "lon": -43.3631581}, {"type": "node", "id": 5286025076, "lat": -22.8771773, "lon": -43.3629394}, {"type": "node", "id": 5286025077, "lat": -22.8775066, "lon": -43.3630195}, {"type": "node", "id": 5286025078, "lat": -22.8774754, "lon": -43.3632228}, {"type": "node", "id": 5286025079, "lat": -22.8775293, "lon": -43.3628716}, {"type": "node", "id": 5286025082, "lat": -22.8775548, "lon": -43.362733}, {"type": "node", "id": 5286025083, "lat": -22.877359, "lon": -43.362696}, {"type": "node", "id": 5286025084, "lat": -22.8773359, "lon": -43.362847}, {"type": "node", "id": 5286029870, "lat": -22.8774897, "lon": -43.3609601}, {"type": "node", "id": 5286029871, "lat": -22.8775527, "lon": -43.3609641}, {"type": "node", "id": 5286029872, "lat": -22.8777294, "lon": -43.360956}, {"type": "node", "id": 5286029873, "lat": -22.8777436, "lon": -43.3608375}, {"type": "node", "id": 5286029874, "lat": -22.8774983, "lon": -43.3608796}, {"type": "node", "id": 5286029875, "lat": -22.8777145, "lon": -43.3612967}, {"type": "node", "id": 5286029876, "lat": -22.877507, "lon": -43.3612779}, {"type": "node", "id": 5286029877, "lat": -22.8775341, "lon": -43.3610687}, {"type": "node", "id": 5286029878, "lat": -22.8777479, "lon": -43.3610928}, {"type": "node", "id": 5286047604, "lat": -22.8773487, "lon": -43.3627632}, {"type": "node", "id": 5286668387, "lat": -23.0103614, "lon": -43.4601211, "tags": {"amenity": "bank", "atm": "yes", "brand": "Ita\u00fa Unibanco", "brand:wikidata": "Q1424293", "name": "Ita\u00fa", "opening_hours": "Mo-Fr 12:00-20:00", "ref": "4102"}}, {"type": "node", "id": 5307294222, "lat": -22.9665663, "lon": -43.1869352, "tags": {"amenity": "bank", "brand": "Ita\u00fa Unibanco", "brand:wikidata": "Q1424293", "name": "Ita\u00fa"}}, {"type": "node", "id": 5320846121, "lat": -22.9843609, "lon": -43.2059601, "tags": {"addr:street": "Rua Visconde de Piraj\u00e1", "amenity": "bank", "brand": "Caixa Econ\u00f4mica Federal", "brand:wikidata": "Q835283", "name": "Caixa Econ\u00f4mica Federal"}}, {"type": "node", "id": 5525763659, "lat": -22.9988331, "lon": -43.355455, "tags": {"amenity": "bank", "brand": "Bradesco", "brand:wikidata": "Q806181", "name": "Bradesco"}}, {"type": "node", "id": 5567027169, "lat": -22.9726198, "lon": -43.397816, "tags": {"amenity": "bank", "atm": "yes", "brand": "Caixa Econ\u00f4mica Federal", "brand:wikidata": "Q835283", "name": "Caixa Econ\u00f4mica Federal"}}, {"type": "node", "id": 5567027170, "lat": -22.9726247, "lon": -43.39758, "tags": {"amenity": "bank", "atm": "yes", "brand": "Banco do Brasil", "brand:wikidata": "Q610817", "name": "Banco do Brasil"}}, {"type": "node", "id": 5581536203, "lat": -22.9017443, "lon": -43.121768}, {"type": "node", "id": 5581536205, "lat": -22.9034389, "lon": -43.1222916, "tags": {"amenity": "bank", "brand": "Ita\u00fa Unibanco", "brand:wikidata": "Q1424293", "name": "Ita\u00fa"}}, {"type": "node", "id": 5614111904, "lat": -23.0005204, "lon": -43.3587652, "tags": {"amenity": "bank", "name": "Ita\u00fa Personnalit\u00e9"}}, {"type": "node", "id": 5618034521, "lat": -22.905406, "lon": -43.2903367}, {"type": "node", "id": 5618034522, "lat": -22.905372, "lon": -43.2900049}, {"type": "node", "id": 5618034523, "lat": -22.9052645, "lon": -43.2900643}, {"type": "node", "id": 5625645822, "lat": -22.9644952, "lon": -43.1756739, "tags": {"addr:city": "Rio de Janeiro", "addr:housenumber": "146", "addr:street": "Rua Belfort Roxo", "addr:suburb": "Copacabana", "amenity": "bank", "atm": "yes", "brand": "Ita\u00fa Unibanco", "brand:wikidata": "Q1424293", "name": "Ita\u00fa"}}, {"type": "node", "id": 5842845964, "lat": -23.0168436, "lon": -43.5172436, "tags": {"amenity": "bank", "brand": "Ita\u00fa Unibanco", "brand:wikidata": "Q1424293", "name": "Ita\u00fa"}}, {"type": "node", "id": 5929806177, "lat": -22.9054742, "lon": -43.5608285}, {"type": "node", "id": 5929806178, "lat": -22.905458, "lon": -43.5608506}, {"type": "node", "id": 5929807946, "lat": -22.9055064, "lon": -43.5608923}, {"type": "node", "id": 5929807947, "lat": -22.9055208, "lon": -43.5608727}, {"type": "node", "id": 5929807948, "lat": -22.9056456, "lon": -43.5609802}, {"type": "node", "id": 5929807949, "lat": -22.9057333, "lon": -43.5608615}, {"type": "node", "id": 5929810382, "lat": -22.9043799, "lon": -43.5612631}, {"type": "node", "id": 5929810383, "lat": -22.9045213, "lon": -43.5610003}, {"type": "node", "id": 5929813192, "lat": -22.9057633, "lon": -43.5608208}, {"type": "node", "id": 5929813193, "lat": -22.9055236, "lon": -43.5605898}, {"type": "node", "id": 5929813194, "lat": -22.9054238, "lon": -43.560504}, {"type": "node", "id": 5929813195, "lat": -22.9052864, "lon": -43.5606903}, {"type": "node", "id": 5929813196, "lat": -22.9053864, "lon": -43.5607762}, {"type": "node", "id": 5929813197, "lat": -22.9053968, "lon": -43.560762}, {"type": "node", "id": 5929813198, "lat": -22.9055124, "lon": -43.560605}, {"type": "node", "id": 5929825724, "lat": -22.9042295, "lon": -43.5611688}, {"type": "node", "id": 5929825733, "lat": -22.9043709, "lon": -43.560906}, {"type": "node", "id": 5929825734, "lat": -22.9042628, "lon": -43.5611069}, {"type": "node", "id": 5939695111, "lat": -22.9039946, "lon": -43.5612274}, {"type": "node", "id": 5939695988, "lat": -22.9041977, "lon": -43.561403}, {"type": "node", "id": 5939696762, "lat": -22.9039371, "lon": -43.5614755}, {"type": "node", "id": 5939696819, "lat": -22.90386, "lon": -43.5614088}, {"type": "node", "id": 5939696820, "lat": -22.9040877, "lon": -43.5615511}, {"type": "node", "id": 5939697093, "lat": -22.9039618, "lon": -43.5614422}, {"type": "node", "id": 5939697186, "lat": -22.9039102, "lon": -43.5613411}, {"type": "node", "id": 5939705732, "lat": -22.9040425, "lon": -43.5616976}, {"type": "node", "id": 5939709417, "lat": -22.9042744, "lon": -43.5618193}, {"type": "node", "id": 5939709568, "lat": -22.9043126, "lon": -43.5615025}, {"type": "node", "id": 5939710455, "lat": -22.9044329, "lon": -43.5616062}, {"type": "node", "id": 5939710474, "lat": -22.904224, "lon": -43.5614535}, {"type": "node", "id": 5939710475, "lat": -22.9043618, "lon": -43.5617018}, {"type": "node", "id": 5939710485, "lat": -22.9043001, "lon": -43.5615194}, {"type": "node", "id": 5939710486, "lat": -22.9042386, "lon": -43.5618675}, {"type": "node", "id": 5939710487, "lat": -22.9043247, "lon": -43.5617513}, {"type": "node", "id": 5939710488, "lat": -22.904409, "lon": -43.5616383}, {"type": "node", "id": 5939721261, "lat": -22.9071677, "lon": -43.5618678}, {"type": "node", "id": 5939721262, "lat": -22.907289, "lon": -43.5618131}, {"type": "node", "id": 5939721284, "lat": -22.9072478, "lon": -43.562122}, {"type": "node", "id": 5939722314, "lat": -22.9071055, "lon": -43.5618102}, {"type": "node", "id": 5939722319, "lat": -22.9072545, "lon": -43.5617304}, {"type": "node", "id": 5939722320, "lat": -22.9071681, "lon": -43.5617798}, {"type": "node", "id": 5939722756, "lat": -22.9071103, "lon": -43.5621482}, {"type": "node", "id": 5939722760, "lat": -22.9073572, "lon": -43.5621011}, {"type": "node", "id": 5939723086, "lat": -22.9072058, "lon": -43.56213}, {"type": "node", "id": 5939723186, "lat": -22.9071183, "lon": -43.5622032}, {"type": "node", "id": 5939723190, "lat": -22.9071331, "lon": -43.5623163}, {"type": "node", "id": 5939723193, "lat": -22.9073867, "lon": -43.5623752}, {"type": "node", "id": 5939745567, "lat": -22.9046663, "lon": -43.5630341}, {"type": "node", "id": 5939745568, "lat": -22.9049025, "lon": -43.5631478}, {"type": "node", "id": 5939745572, "lat": -22.9048615, "lon": -43.5632274}, {"type": "node", "id": 5939745576, "lat": -22.9048467, "lon": -43.5632564}, {"type": "node", "id": 5939745656, "lat": -22.9046263, "lon": -43.5631122}, {"type": "node", "id": 5939745657, "lat": -22.9048564, "lon": -43.5631201}, {"type": "node", "id": 5939745923, "lat": -22.904706, "lon": -43.5630577}, {"type": "node", "id": 5939745925, "lat": -22.9047168, "lon": -43.5630367}, {"type": "node", "id": 5939746000, "lat": -22.9048007, "lon": -43.5632289}, {"type": "node", "id": 5939930272, "lat": -22.9031137, "lon": -43.5574076}, {"type": "node", "id": 5939930273, "lat": -22.903108, "lon": -43.5572986}, {"type": "node", "id": 5939930274, "lat": -22.9030648, "lon": -43.5572214}, {"type": "node", "id": 5939930295, "lat": -22.9030961, "lon": -43.5573011}, {"type": "node", "id": 5939931172, "lat": -22.9030937, "lon": -43.5572156}, {"type": "node", "id": 5939931173, "lat": -22.9030637, "lon": -43.5572147}, {"type": "node", "id": 5939931174, "lat": -22.9029264, "lon": -43.5572431}, {"type": "node", "id": 5939931175, "lat": -22.9028899, "lon": -43.5572673}, {"type": "node", "id": 5939931246, "lat": -22.9029292, "lon": -43.5572592}, {"type": "node", "id": 5939931247, "lat": -22.9030901, "lon": -43.5574124}, {"type": "node", "id": 5939932359, "lat": -22.9029215, "lon": -43.5574469}, {"type": "node", "id": 5939932394, "lat": -22.9029164, "lon": -43.5574183}, {"type": "node", "id": 6123584578, "lat": -22.9351303, "lon": -43.2432822, "tags": {"amenity": "bank", "atm": "yes", "brand": "Ita\u00fa Unibanco", "brand:wikidata": "Q1424293", "brand:wikipedia": "en:Ita\u00fa Corpbanca", "drive_through": "no", "name": "Ita\u00fa"}}, {"type": "node", "id": 6167481345, "lat": -22.8977298, "lon": -43.3508422}, {"type": "node", "id": 6167481346, "lat": -22.8974715, "lon": -43.3511874}, {"type": "node", "id": 6167481347, "lat": -22.8975368, "lon": -43.3512443}, {"type": "node", "id": 6167481348, "lat": -22.8975718, "lon": -43.3512749}, {"type": "node", "id": 6167481349, "lat": -22.8976069, "lon": -43.3513055}, {"type": "node", "id": 6167481350, "lat": -22.8978652, "lon": -43.3509602}, {"type": "node", "id": 6167481388, "lat": -22.8985847, "lon": -43.3517103}, {"type": "node", "id": 6167481389, "lat": -22.8984806, "lon": -43.3516192}, {"type": "node", "id": 6167481390, "lat": -22.8982736, "lon": -43.3518948}, {"type": "node", "id": 6167481391, "lat": -22.8983778, "lon": -43.3519858}, {"type": "node", "id": 6167485254, "lat": -22.8967056, "lon": -43.3524317}, {"type": "node", "id": 6167485255, "lat": -22.8967029, "lon": -43.3524359}, {"type": "node", "id": 6167485256, "lat": -22.8966172, "lon": -43.3523668}, {"type": "node", "id": 6167485257, "lat": -22.8966005, "lon": -43.3523709}, {"type": "node", "id": 6167485258, "lat": -22.8964928, "lon": -43.3525219}, {"type": "node", "id": 6167485259, "lat": -22.8965101, "lon": -43.3525362}, {"type": "node", "id": 6167485260, "lat": -22.8965165, "lon": -43.3525307}, {"type": "node", "id": 6167485261, "lat": -22.8965394, "lon": -43.3525503}, {"type": "node", "id": 6167485262, "lat": -22.896533, "lon": -43.3525589}, {"type": "node", "id": 6167485263, "lat": -22.8965685, "lon": -43.3525894}, {"type": "node", "id": 6167485264, "lat": -22.8965754, "lon": -43.35258}, {"type": "node", "id": 6167485265, "lat": -22.8966067, "lon": -43.3526068}, {"type": "node", "id": 6167485266, "lat": -22.8966011, "lon": -43.3526184}, {"type": "node", "id": 6167485267, "lat": -22.8966172, "lon": -43.3526322}, {"type": "node", "id": 6167485268, "lat": -22.8967419, "lon": -43.3524628}, {"type": "node", "id": 6172047003, "lat": -22.9976636, "lon": -43.3620023, "tags": {"amenity": "bank", "brand": "Bradesco", "brand:wikidata": "Q806181", "brand:wikipedia": "en:Banco Bradesco", "name": "Bradesco"}}, {"type": "node", "id": 6307174388, "lat": -22.9638008, "lon": -43.1738085, "tags": {"amenity": "bank", "brand": "Ita\u00fa Unibanco", "brand:wikidata": "Q1424293", "name": "Ita\u00fa"}}, {"type": "node", "id": 6307174390, "lat": -22.9693294, "lon": -43.1847404, "tags": {"amenity": "bank", "brand": "Ita\u00fa Unibanco", "brand:wikidata": "Q1424293", "name": "Ita\u00fa"}}, {"type": "node", "id": 6307313905, "lat": -22.8471689, "lon": -43.2650255}, {"type": "node", "id": 6307313906, "lat": -22.8470774, "lon": -43.2648523}, {"type": "node", "id": 6307313907, "lat": -22.8468759, "lon": -43.2649778}, {"type": "node", "id": 6307313908, "lat": -22.8469674, "lon": -43.2651509}, {"type": "node", "id": 6314867316, "lat": -22.9117842, "lon": -43.2056117, "tags": {"amenity": "bank", "brand": "Banco Santander", "brand:en": "Santander Bank", "brand:es": "Banco Santander", "brand:wikidata": "Q6496310", "brand:wikipedia": "en:Santander Bank", "name": "Banco Santander", "name:en": "Santander Bank", "name:es": "Banco Santander", "official_name": "Santander Group"}}, {"type": "node", "id": 6314867317, "lat": -22.9104926, "lon": -43.2040377, "tags": {"amenity": "bank", "brand": "Ita\u00fa Unibanco", "brand:wikidata": "Q1424293", "brand:wikipedia": "pt:Ita\u00fa Unibanco", "name": "Ita\u00fa"}}, {"type": "node", "id": 6314867318, "lat": -22.91061, "lon": -43.2044072, "tags": {"amenity": "bank", "brand": "Bradesco", "brand:wikidata": "Q806181", "brand:wikipedia": "en:Banco Bradesco", "name": "Bradesco"}}, {"type": "node", "id": 6314867319, "lat": -22.9102543, "lon": -43.2031509, "tags": {"amenity": "bank", "brand": "Caixa Econ\u00f4mica Federal", "brand:wikidata": "Q835283", "name": "Caixa Econ\u00f4mica Federal"}}, {"type": "node", "id": 6380000469, "lat": -22.904257, "lon": -43.2870557, "tags": {"amenity": "bank", "atm": "yes", "brand": "Banco do Brasil", "brand:wikidata": "Q610817", "brand:wikipedia": "en:Banco do Brasil", "name": "Banco do Brasil"}}, {"type": "node", "id": 6384632512, "lat": -22.8874649, "lon": -43.2815618}, {"type": "node", "id": 6384632513, "lat": -22.887507, "lon": -43.2816724}, {"type": "node", "id": 6384632514, "lat": -22.8877163, "lon": -43.2815787}, {"type": "node", "id": 6384632515, "lat": -22.8876742, "lon": -43.281468}, {"type": "node", "id": 6422094050, "lat": -22.9158425, "lon": -43.2451763, "tags": {"amenity": "bank", "atm": "yes", "brand": "Santander", "brand:wikidata": "Q5835668", "brand:wikipedia": "en:Santander Bank", "drive_through": "no", "name": "Santander"}}, {"type": "node", "id": 6460857738, "lat": -22.9152175, "lon": -43.2452542}, {"type": "node", "id": 6474173853, "lat": -22.9159372, "lon": -43.2474881, "tags": {"amenity": "bank", "brand": "Bradesco", "brand:wikidata": "Q806181", "brand:wikipedia": "en:Banco Bradesco", "name": "Bradesco"}}, {"type": "node", "id": 6541005606, "lat": -22.9572722, "lon": -43.1757962, "tags": {"addr:city": "Rio de Janeiro", "addr:suburb": "Botafogo", "amenity": "bank", "atm": "yes", "brand": "Bradesco", "brand:wikidata": "Q806181", "brand:wikipedia": "en:Banco Bradesco", "drive_through": "no", "level:ref": "1", "name": "Bradesco"}}, {"type": "node", "id": 6541144882, "lat": -22.9641936, "lon": -43.1735379, "tags": {"amenity": "bank", "atm": "yes", "brand": "Bradesco", "brand:wikidata": "Q806181", "brand:wikipedia": "en:Banco Bradesco", "name": "Bradesco"}}, {"type": "node", "id": 6597233254, "lat": -22.9386335, "lon": -43.1782613, "tags": {"addr:city": "Rio de Janeiro", "addr:housenumber": "162", "addr:street": "Rua Marqu\u00eas de Abrantes", "addr:suburb": "Flamengo", "amenity": "bank", "atm": "yes", "brand": "Ita\u00fa Unibanco", "brand:wikidata": "Q1424293", "brand:wikipedia": "pt:Ita\u00fa Unibanco", "drive_through": "no", "name": "Ita\u00fa", "opening_hours": "Mo-Fr 10:00-16:00"}}, {"type": "node", "id": 6597447923, "lat": -22.9350884, "lon": -43.1773388, "tags": {"addr:city": "Rio de Janeiro", "addr:housenumber": "48", "addr:street": "Rua Marqu\u00eas de Abrantes", "addr:suburb": "Flamengo", "amenity": "bank", "atm": "yes", "brand": "Banco do Brasil", "brand:wikidata": "Q610817", "brand:wikipedia": "en:Banco do Brasil", "drive_through": "no", "name": "Banco do Brasil"}}, {"type": "node", "id": 6597447925, "lat": -22.9349183, "lon": -43.1773156, "tags": {"addr:city": "Rio de Janeiro", "addr:housenumber": "44", "addr:street": "Rua Marqu\u00eas de Abrantes", "addr:suburb": "Flamengo", "amenity": "bank", "atm": "yes", "brand": "Bradesco", "brand:wikidata": "Q806181", "brand:wikipedia": "en:Banco Bradesco", "drive_through": "no", "name": "Bradesco"}}, {"type": "node", "id": 6713333712, "lat": -22.9378399, "lon": -43.1905916}, {"type": "node", "id": 6713333715, "lat": -22.9379005, "lon": -43.1907928}, {"type": "node", "id": 6713333716, "lat": -22.9379482, "lon": -43.1908212}, {"type": "node", "id": 6713333717, "lat": -22.937974, "lon": -43.1907733}, {"type": "node", "id": 6713333718, "lat": -22.937888, "lon": -43.1906961}, {"type": "node", "id": 6713333719, "lat": -22.9379195, "lon": -43.1906258}, {"type": "node", "id": 6713659998, "lat": -22.9386121, "lon": -43.1917247}, {"type": "node", "id": 7165248541, "lat": -22.9032565, "lon": -43.1244409}, {"type": "node", "id": 7165248542, "lat": -22.9032859, "lon": -43.1241989}, {"type": "node", "id": 7165278019, "lat": -22.9031717, "lon": -43.1244328}, {"type": "node", "id": 7165278022, "lat": -22.9031966, "lon": -43.1241901}, {"type": "node", "id": 7165278024, "lat": -22.9019178, "lon": -43.1217845}, {"type": "node", "id": 7165278025, "lat": -22.9019234, "lon": -43.1217151}, {"type": "node", "id": 7165278026, "lat": -22.9017689, "lon": -43.1217004}, {"type": "node", "id": 7165278027, "lat": -22.9017485, "lon": -43.1217162}, {"type": "node", "id": 7279499585, "lat": -22.9661495, "lon": -43.7056581, "tags": {"addr:street": "Estrada de Sepetiba", "amenity": "bank", "brand": "Caixa Econ\u00f4mica Federal", "brand:wikidata": "Q835283", "name": "Caixa Econ\u00f4mica Federal"}}, {"type": "node", "id": 7716562291, "lat": -22.9121505, "lon": -43.1746917, "tags": {"amenity": "bank", "atm": "yes", "brand": "Caixa Econ\u00f4mica Federal", "brand:wikidata": "Q835283", "brand:wikipedia": "pt:Caixa Econ\u00f4mica Federal", "name": "Caixa Econ\u00f4mica Federal"}}, {"type": "node", "id": 7716562292, "lat": -22.9119825, "lon": -43.1747265, "tags": {"amenity": "bank", "brand": "Bradesco", "brand:wikidata": "Q806181", "brand:wikipedia": "en:Banco Bradesco", "name": "Bradesco"}}, {"type": "node", "id": 8075645480, "lat": -23.0041042, "lon": -43.3195135}, {"type": "node", "id": 8075645481, "lat": -23.0040118, "lon": -43.319474}, {"type": "node", "id": 8075821585, "lat": -22.9419694, "lon": -43.1808262}, {"type": "node", "id": 8075832337, "lat": -22.9377966, "lon": -43.190729}, {"type": "node", "id": 8077903808, "lat": -22.9386066, "lon": -43.1917763}, {"type": "node", "id": 8077903809, "lat": -22.9386977, "lon": -43.191712}, {"type": "node", "id": 8077903810, "lat": -22.9386858, "lon": -43.1917673}, {"type": "node", "id": 8078008472, "lat": -22.9320423, "lon": -43.1807007}, {"type": "node", "id": 8078008474, "lat": -22.9320776, "lon": -43.1805999}, {"type": "node", "id": 8078178298, "lat": -22.932527, "lon": -43.1772762, "tags": {"amenity": "bank", "brand": "Ita\u00fa Unibanco", "brand:wikidata": "Q1424293", "brand:wikipedia": "pt:Ita\u00fa Unibanco", "name": "Ita\u00fa"}}, {"type": "node", "id": 8078693048, "lat": -22.9571749, "lon": -43.1758328, "tags": {"amenity": "bank", "brand": "Caixa Econ\u00f4mica Federal", "brand:wikidata": "Q835283", "brand:wikipedia": "pt:Caixa Econ\u00f4mica Federal", "level:ref": "1", "name": "Caixa Econ\u00f4mica Federal"}}, {"type": "node", "id": 8078693049, "lat": -22.9571813, "lon": -43.1759223, "tags": {"amenity": "bank", "brand": "Santander", "brand:wikidata": "Q5835668", "brand:wikipedia": "en:Santander Bank", "level:ref": "1", "name": "Santander"}}, {"type": "node", "id": 8079008363, "lat": -22.8147754, "lon": -43.2449416, "tags": {"addr:city": "Rio de Janeiro", "addr:street": "Avenida Vinte de Janeiro", "addr:suburb": "Gale\u00e3o", "amenity": "bank", "atm": "no", "brand": "Banco Safra", "brand:wikidata": "Q4116096", "drive_through": "no", "level": "0", "name": "Banco Safra"}}, {"type": "node", "id": 8137355005, "lat": -22.93864, "lon": -43.1917105, "tags": {"addr:city": "Rio de Janeiro", "addr:housenumber": "495", "addr:street": "Rua das Laranjeiras", "addr:suburb": "Laranjeiras", "door": "manual", "entrance": "main", "wheelchair": "yes"}}, {"type": "node", "id": 8151563219, "lat": -22.9717089, "lon": -43.1875643, "tags": {"addr:city": "Rio de Janeiro", "addr:housenumber": "730", "addr:postcode": "22050-002", "addr:street": "Avenida Nossa Senhora de Copacabana", "addr:suburb": "Copacabana", "amenity": "bank", "brand": "Ita\u00fa Unibanco", "brand:wikidata": "Q1424293", "brand:wikipedia": "pt:Ita\u00fa Unibanco", "description": "6005 - RIO POSTO 4", "name": "Ita\u00fa", "opening_hours:covid19": "off"}}, {"type": "node", "id": 8151563220, "lat": -22.9716924, "lon": -43.1872201, "tags": {"addr:city": "Rio de Janeiro", "addr:housenumber": "709", "addr:postcode": "22050-002", "addr:street": "Avenida Nossa Senhora de Copacabana", "addr:suburb": "Copacabana", "amenity": "bank", "brand": "Bradesco", "brand:wikidata": "Q806181", "brand:wikipedia": "en:Banco Bradesco", "name": "Bradesco"}}, {"type": "node", "id": 8551007562, "lat": -22.835943, "lon": -43.3063125, "tags": {"amenity": "bank", "brand": "Caixa Econ\u00f4mica Federal", "brand:wikidata": "Q835283", "brand:wikipedia": "pt:Caixa Econ\u00f4mica Federal", "name": "Caixa Econ\u00f4mica Federal"}}, {"type": "node", "id": 8677521624, "lat": -22.8775875, "lon": -43.244611, "tags": {"amenity": "bank", "brand": "Banco do Brasil", "brand:wikidata": "Q610817", "brand:wikipedia": "en:Banco do Brasil", "name": "Banco do Brasil"}}, {"type": "node", "id": 9064186569, "lat": -22.8931651, "lon": -43.1197711}, {"type": "node", "id": 9064186570, "lat": -22.8933808, "lon": -43.1197418}, {"type": "node", "id": 9064186571, "lat": -22.8934215, "lon": -43.1197449}, {"type": "node", "id": 9064186572, "lat": -22.8934602, "lon": -43.1197804}, {"type": "node", "id": 9064186573, "lat": -22.89348, "lon": -43.1198322}, {"type": "node", "id": 9064186574, "lat": -22.8934758, "lon": -43.1200556}, {"type": "node", "id": 9064186575, "lat": -22.8931739, "lon": -43.1200469}, {"type": "node", "id": 9095697686, "lat": -22.9107682, "lon": -43.1853061, "tags": {"addr:city": "Rio de Janeiro", "addr:housenumber": "2", "addr:postcode": "20231-030", "addr:street": "Avenida Henrique Valadares", "addr:suburb": "Centro", "amenity": "bank", "brand": "Bradesco", "brand:wikidata": "Q806181", "brand:wikipedia": "en:Banco Bradesco", "description": "Finalizando sua constru\u00e7\u00e3o.", "name": "Bradesco"}}, {"type": "node", "id": 9168571175, "lat": -22.9526509, "lon": -43.1885199}, {"type": "node", "id": 9168571176, "lat": -22.9526755, "lon": -43.1886009}, {"type": "node", "id": 9168571177, "lat": -22.9526993, "lon": -43.1885924}, {"type": "node", "id": 9168571178, "lat": -22.9527059, "lon": -43.1885901}, {"type": "node", "id": 9168571179, "lat": -22.9527088, "lon": -43.1885996}, {"type": "node", "id": 9168571180, "lat": -22.9527408, "lon": -43.1885882}, {"type": "node", "id": 9168571181, "lat": -22.9527437, "lon": -43.1885979}, {"type": "node", "id": 9168571182, "lat": -22.9527962, "lon": -43.1885793}, {"type": "node", "id": 9168571183, "lat": -22.9528077, "lon": -43.1885752}, {"type": "node", "id": 9168571184, "lat": -22.9528264, "lon": -43.1885502}, {"type": "node", "id": 9168571185, "lat": -22.9528387, "lon": -43.1885459}, {"type": "node", "id": 9168571186, "lat": -22.9528082, "lon": -43.1884534}, {"type": "node", "id": 9168571187, "lat": -22.9527953, "lon": -43.188458}, {"type": "node", "id": 9168571188, "lat": -22.9527661, "lon": -43.1884684}, {"type": "node", "id": 9168571189, "lat": -22.9527606, "lon": -43.1884504}, {"type": "node", "id": 9168571190, "lat": -22.952715, "lon": -43.1884666}, {"type": "node", "id": 9168571191, "lat": -22.9527195, "lon": -43.1884812}, {"type": "node", "id": 9168571192, "lat": -22.9527076, "lon": -43.1884854}, {"type": "node", "id": 9168571193, "lat": -22.9526745, "lon": -43.1884972}, {"type": "node", "id": 9168571194, "lat": -22.9526785, "lon": -43.1885101}, {"type": "node", "id": 9218890788, "lat": -22.9420634, "lon": -43.1805553}, {"type": "node", "id": 9218890789, "lat": -22.9420678, "lon": -43.1805514}, {"type": "node", "id": 9218890790, "lat": -22.9421104, "lon": -43.1806044}, {"type": "node", "id": 9218890791, "lat": -22.9421111, "lon": -43.1806052}, {"type": "node", "id": 9218890792, "lat": -22.9421123, "lon": -43.1806067}, {"type": "node", "id": 9218890793, "lat": -22.9421133, "lon": -43.1806083}, {"type": "node", "id": 9218890794, "lat": -22.9421142, "lon": -43.18061}, {"type": "node", "id": 9218890795, "lat": -22.9421149, "lon": -43.1806118}, {"type": "node", "id": 9218890796, "lat": -22.9421154, "lon": -43.1806137}, {"type": "node", "id": 9218890797, "lat": -22.9421157, "lon": -43.1806156}, {"type": "node", "id": 9218890798, "lat": -22.9421159, "lon": -43.1806176}, {"type": "node", "id": 9218890799, "lat": -22.9421159, "lon": -43.1806195}, {"type": "node", "id": 9218890800, "lat": -22.9421157, "lon": -43.1806212}, {"type": "node", "id": 9218890801, "lat": -22.9421154, "lon": -43.1806231}, {"type": "node", "id": 9218890802, "lat": -22.9421149, "lon": -43.180625}, {"type": "node", "id": 9218890803, "lat": -22.9421142, "lon": -43.1806268}, {"type": "node", "id": 9218890804, "lat": -22.9421133, "lon": -43.1806285}, {"type": "node", "id": 9218890805, "lat": -22.9421123, "lon": -43.1806301}, {"type": "node", "id": 9218890806, "lat": -22.9421112, "lon": -43.1806316}, {"type": "node", "id": 9218892436, "lat": -22.9419672, "lon": -43.1808243}, {"type": "node", "id": 9218893210, "lat": -22.9420339, "lon": -43.1805817}, {"type": "node", "id": 9218893211, "lat": -22.9419471, "lon": -43.1806591}, {"type": "node", "id": 9218893214, "lat": -22.9419157, "lon": -43.1806872}, {"type": "node", "id": 9218893215, "lat": -22.9418629, "lon": -43.1807344}, {"type": "node", "id": 9219478804, "lat": -22.9531284, "lon": -43.1886457}, {"type": "node", "id": 9219478805, "lat": -22.9533415, "lon": -43.1887885}, {"type": "node", "id": 9219478806, "lat": -22.9531904, "lon": -43.188844}, {"type": "node", "id": 9219478807, "lat": -22.9531607, "lon": -43.1887494}, {"type": "node", "id": 9219478808, "lat": -22.9531423, "lon": -43.1887561}, {"type": "node", "id": 9219478809, "lat": -22.9531311, "lon": -43.1887206}, {"type": "node", "id": 9219478810, "lat": -22.9531263, "lon": -43.1887052}, {"type": "node", "id": 9219478960, "lat": -22.9533335, "lon": -43.1887652}, {"type": "node", "id": 9219478961, "lat": -22.9533088, "lon": -43.1886929}, {"type": "node", "id": 9219478966, "lat": -22.9532967, "lon": -43.1886576}, {"type": "node", "id": 9219478967, "lat": -22.9532731, "lon": -43.1885888}, {"type": "node", "id": 9438653416, "lat": -22.7626652, "lon": -43.1082463}, {"type": "node", "id": 9438653424, "lat": -22.7626468, "lon": -43.1084504}, {"type": "node", "id": 9438653425, "lat": -22.7625218, "lon": -43.1082884}, {"type": "node", "id": 9438653426, "lat": -22.7625285, "lon": -43.1082712}, {"type": "node", "id": 9438653427, "lat": -22.7625395, "lon": -43.1082569}, {"type": "node", "id": 9438653428, "lat": -22.7625563, "lon": -43.1082455}, {"type": "node", "id": 9438653429, "lat": -22.762573, "lon": -43.108241}, {"type": "node", "id": 9438653432, "lat": -22.7625559, "lon": -43.1084703}, {"type": "node", "id": 9438653433, "lat": -22.7625257, "lon": -43.1083378}, {"type": "node", "id": 9438653434, "lat": -22.76252, "lon": -43.1083057}, {"type": "node", "id": 9516310393, "lat": -22.898478, "lon": -43.1803164, "tags": {"addr:city": "Rio de Janeiro", "addr:street": "Avenida Rio Branco", "amenity": "bank", "atm": "yes", "brand": "Ita\u00fa Unibanco", "brand:wikidata": "Q1424293", "brand:wikipedia": "pt:Ita\u00fa Unibanco", "drive_through": "no", "name": "Ita\u00fa", "operator": "Itau"}}, {"type": "node", "id": 9658108142, "lat": -22.9020209, "lon": -43.1802262, "tags": {"amenity": "bank", "brand": "Ita\u00fa Unibanco", "brand:wikidata": "Q1424293", "brand:wikipedia": "pt:Ita\u00fa Unibanco", "name": "Ita\u00fa"}}, {"type": "node", "id": 9658108143, "lat": -22.9021663, "lon": -43.1806349, "tags": {"amenity": "bank", "brand": "Bradesco", "brand:wikidata": "Q806181", "brand:wikipedia": "en:Banco Bradesco", "name": "Bradesco"}}, {"type": "node", "id": 9665786360, "lat": -22.9140565, "lon": -43.1667985, "tags": {"amenity": "bank", "brand": "Santander", "brand:wikidata": "Q5835668", "brand:wikipedia": "en:Santander Bank", "level": "-1", "name": "Santander"}}, {"type": "node", "id": 9674832269, "lat": -22.9104963, "lon": -43.1670173, "tags": {"amenity": "bank", "brand": "Bradesco", "brand:wikidata": "Q806181", "brand:wikipedia": "en:Banco Bradesco", "name": "Bradesco"}}, {"type": "node", "id": 9674832270, "lat": -22.9140466, "lon": -43.16677, "tags": {"amenity": "bank", "brand": "Ita\u00fa Unibanco", "brand:wikidata": "Q1424293", "brand:wikipedia": "pt:Ita\u00fa Unibanco", "name": "Ita\u00fa"}}, {"type": "node", "id": 9676914079, "lat": -22.9133709, "lon": -43.16681, "tags": {"amenity": "bank", "branch": "Cart\u00f5es Lounge", "brand": "Bradesco", "brand:wikidata": "Q806181", "name": "Bradesco"}}, {"type": "node", "id": 9678752428, "lat": -22.9245599, "lon": -43.224033}, {"type": "node", "id": 9678752429, "lat": -22.9248007, "lon": -43.2237948}, {"type": "node", "id": 9678752430, "lat": -22.9249126, "lon": -43.2239373}, {"type": "node", "id": 9925452282, "lat": -22.9230124, "lon": -43.2227956}, {"type": "node", "id": 9925452285, "lat": -22.9228051, "lon": -43.2229891}, {"type": "node", "id": 9925452286, "lat": -22.9229099, "lon": -43.2228913}, {"type": "node", "id": 9925452289, "lat": -22.9229442, "lon": -43.2228593}, {"type": "node", "id": 10264008173, "lat": -22.9644021, "lon": -43.1754256, "tags": {"amenity": "bank", "name": "Bradesco"}}, {"type": "node", "id": 10265636592, "lat": -22.9842978, "lon": -43.2012624, "tags": {"amenity": "bank", "name": "Bradesco Prime"}}, {"type": "node", "id": 10273745008, "lat": -22.9835511, "lon": -43.2187925, "tags": {"amenity": "bank", "name": "Ita\u00fa"}}, {"type": "node", "id": 10302255995, "lat": -22.9142748, "lon": -43.1882108, "tags": {"amenity": "bank", "brand": "Bradesco", "brand:wikidata": "Q806181", "name": "Bradesco"}}, {"type": "node", "id": 10568233253, "lat": -22.9845038, "lon": -43.1972055, "tags": {"addr:city": "Rio de Janeiro", "addr:housenumber": "66", "addr:street": "Rua Visconde de Piraj\u00e1", "addr:suburb": "Ipanema", "amenity": "bank", "atm": "yes", "brand": "Ita\u00fa Unibanco", "brand:wikidata": "Q1424293", "drive_through": "no", "name": "Ita\u00fa"}}, {"type": "node", "id": 10570292490, "lat": -22.9843577, "lon": -43.1997193, "tags": {"amenity": "bank", "atm": "yes", "brand": "Banco Santander", "brand:wikidata": "Q6496310", "drive_through": "no", "name": "Banco Santander", "official_name": "Santander Group"}}, {"type": "node", "id": 10788200077, "lat": -22.9111192, "lon": -43.1770422, "tags": {"addr:city": "Rio de Janeiro", "addr:housenumber": "37", "addr:street": "Rua Senador Dantas", "addr:suburb": "Centro", "amenity": "bank", "name": "Caixa Econ\u00f4mica Federal", "not:brand:wikidata": "Q835283"}}, {"type": "node", "id": 10799706315, "lat": -22.9076229, "lon": -43.174629, "tags": {"addr:city": "Rio de Janeiro", "addr:housenumber": "226 Lj. A", "addr:postcode": "20030-001", "addr:street": "Avenida Gra\u00e7a Aranha", "addr:suburb": "Centro", "amenity": "bank", "brand": "Bradesco", "brand:wikidata": "Q806181", "name": "Bradesco"}}, {"type": "node", "id": 10840512069, "lat": -22.9494145, "lon": -43.1830619, "tags": {"addr:city": "Rio de Janeiro", "addr:housenumber": "25", "addr:postcode": "22260-001", "addr:street": "Rua S\u00e3o Clemente", "addr:suburb": "Botafogo", "amenity": "bank", "brand": "Banco do Brasil", "brand:wikidata": "Q610817", "name": "Banco do Brasil"}}, {"type": "node", "id": 10857006849, "lat": -22.8859978, "lon": -43.2821938, "tags": {"amenity": "bank", "brand": "Banco Santander", "brand:wikidata": "Q6496310", "name": "Banco Santander", "official_name": "Santander Group"}}, {"type": "way", "id": 31137071, "nodes": [346241029, 346241031, 346241032, 346241033, 346241029], "tags": {"addr:city": "Rio de Janeiro", "addr:housenumber": "233", "addr:street": "Rua das Laranjeiras", "addr:suburb": "Laranjeiras", "amenity": "bank", "atm": "yes", "brand": "Bradesco", "brand:wikidata": "Q806181", "brand:wikipedia": "en:Banco Bradesco", "building": "yes", "drive_through": "no", "name": "Bradesco"}}, {"type": "way", "id": 126445366, "nodes": [1401621042, 1401621048, 1401621043, 1438001718, 1401621047, 1401621041, 1438006830, 1401621040, 1401621042], "tags": {"amenity": "bank", "atm": "yes", "brand": "Santander", "brand:wikidata": "Q5835668", "building": "yes", "drive_through": "no", "name": "Santander", "opening_hours": "Mo-Fr 11:00-16:00", "operator": "Santander"}}, {"type": "way", "id": 147495064, "nodes": [1607075513, 1607075501, 1607075505, 1607075517, 1607075513], "tags": {"addr:housenumber": "351", "addr:street": "Avenida Armando Lombardi", "amenity": "bank", "atm": "yes", "brand": "Santander", "brand:wikidata": "Q5835668", "brand:wikipedia": "en:Santander Bank", "building": "yes", "name": "Santander", "phone": "+55-21-31392500", "source": "Bing", "website": "https://www.santander.com.br/"}}, {"type": "way", "id": 171280926, "nodes": [1823401387, 1823401365, 1823401397, 1823401400, 1823401389, 1823401367, 1823401387], "tags": {"amenity": "bank", "brand": "Ita\u00fa Unibanco", "brand:wikidata": "Q1424293", "building": "yes", "name": "Ita\u00fa"}}, {"type": "way", "id": 204652618, "nodes": [2146436304, 2146436301, 2146436298, 2146436315, 2146436317, 2146436309, 2146436312, 2146436304], "tags": {"addr:housenumber": "2257", "addr:postcode": "21220-202", "addr:street": "Avenida Meriti", "amenity": "bank", "atm": "yes", "brand": "Ita\u00fa Unibanco", "brand:wikidata": "Q1424293", "brand:wikipedia": "pt:Ita\u00fa Unibanco", "building": "yes", "check_date:opening_hours": "2022-08-17", "name": "Ita\u00fa", "opening_hours": "Mo-Fr 10:00-16:00", "phone": "+55-21-30034828", "source": "Bing; survey; website", "website": "https://ww46.itau.com.br/itau/redeatendimento/resp_agencias.jsp"}}, {"type": "way", "id": 230215378, "nodes": [2387438048, 2387438083, 2387438051, 2387438075, 2387438048], "tags": {"amenity": "bank", "atm": "yes", "brand": "Banco do Brasil", "brand:wikidata": "Q610817", "brand:wikipedia": "en:Banco do Brasil", "building": "yes", "name": "Banco do Brasil", "operator": "Banco do Brasil", "wheelchair": "yes"}}, {"type": "way", "id": 246659990, "nodes": [2536683055, 2536683057, 2536683059, 2536683060, 2536683061, 2536683062, 2536683055], "tags": {"amenity": "bank", "brand": "Ita\u00fa Unibanco", "brand:wikidata": "Q1424293", "building": "yes", "name": "Ita\u00fa"}}, {"type": "way", "id": 290100943, "nodes": [2936376847, 2936376851, 2936376860, 2936376859, 2936376857, 2936376853, 2936376847], "tags": {"addr:city": "Rio de Janeiro", "addr:country": "BR", "addr:housenumber": "23", "addr:postcode": "22725-520", "addr:street": "Pra\u00e7a Jauru", "amenity": "bank", "brand": "Santander", "brand:wikidata": "Q5835668", "building": "yes", "name": "Santander", "phone": "+55 21 3116-9300"}}, {"type": "way", "id": 290110873, "nodes": [2936449301, 2936449299, 2936449307, 2936449308, 2936449309, 2936449310, 2936449311, 2936449301], "tags": {"addr:city": "Rio de Janeiro", "addr:housenumber": "2695", "addr:postcode": "22730-261", "addr:street": "Estrada do Tindiba", "amenity": "bank", "atm": "yes", "brand": "Ita\u00fa Unibanco", "brand:wikidata": "Q1424293", "building": "yes", "name": "Ita\u00fa", "opening_hours": "Mo-Fr 10:00-16:00", "phone": "+55 21 3003-4828;+55 21 3413-5468", "ref": "7157", "website": "https://www.itau.com.br/"}}, {"type": "way", "id": 290273671, "nodes": [2938246890, 2938247011, 2938247024, 2938247008, 2938246900, 2938246897, 2938246891, 2938246894, 2938246890], "tags": {"amenity": "bank", "brand": "Bradesco", "brand:wikidata": "Q806181", "building": "yes", "name": "Bradesco"}}, {"type": "way", "id": 291924324, "nodes": [2936376794, 2936376799, 4405780851, 2936376801, 2936376808, 2936376820, 2936376823, 2936376824, 2936376805, 2936376794], "tags": {"addr:city": "Rio de Janeiro", "addr:country": "BR", "addr:housenumber": "26", "addr:postcode": "22720-410", "addr:street": "Avenida dos Mananciais", "amenity": "bank", "brand": "Bradesco", "brand:wikidata": "Q806181", "name": "Bradesco"}}, {"type": "way", "id": 315839999, "nodes": [3219703958, 3219703959, 4673017262, 3219703960, 3219718461, 3219703958], "tags": {"amenity": "bank", "area": "yes", "atm": "yes", "brand": "Ita\u00fa Unibanco", "brand:wikidata": "Q1424293", "building": "yes", "name": "Ita\u00fa"}}, {"type": "way", "id": 316376696, "nodes": [3224841426, 3224841458, 3224841571, 3224841459, 3224841460, 3224841561, 3224841562, 3224841563, 3224841431, 3224841426], "tags": {"addr:city": "Rio de Janeiro", "addr:housenumber": "15799", "addr:street": "Avenida das Am\u00e9ricas", "addr:suburb": "Recreio dos Bandeirantes", "amenity": "bank", "area": "yes", "atm": "yes", "brand": "Ita\u00fa Unibanco", "brand:wikidata": "Q1424293", "building": "yes", "name": "Ita\u00fa"}}, {"type": "way", "id": 316376705, "nodes": [3224841590, 3224841597, 3224841598, 3224841591, 3224841590], "tags": {"amenity": "bank", "atm": "yes", "brand": "Caixa Econ\u00f4mica Federal", "brand:wikidata": "Q835283", "building": "yes", "name": "Caixa Econ\u00f4mica Federal"}}, {"type": "way", "id": 316380385, "nodes": [3224874245, 3932293005, 3224874246, 3224874247, 3224874248, 3224874249, 3224876875, 3224874250, 3224874245], "tags": {"amenity": "bank", "area": "yes", "atm": "yes", "building": "yes", "name": "Ita\u00fa Personnalit\u00e9"}}, {"type": "way", "id": 318432319, "nodes": [3248372079, 3248372080, 4691122681, 3248372081, 3248372082, 3248372079], "tags": {"amenity": "bank", "atm": "yes", "brand": "Caixa Econ\u00f4mica Federal", "brand:wikidata": "Q835283", "building": "yes", "name": "Caixa Econ\u00f4mica Federal"}}, {"type": "way", "id": 318894730, "nodes": [3252904102, 3252904103, 1607733666, 3252904105, 3252904102], "tags": {"addr:housenumber": "567", "addr:postcode": "22621-200", "addr:street": "Avenida Oleg\u00e1rio Maciel", "amenity": "bank", "atm": "yes", "brand": "Ita\u00fa Unibanco", "brand:wikidata": "Q1424293", "building": "yes", "name": "Ita\u00fa", "opening_hours": "Mo-Fr 10:00-16:00", "phone": "+55-21-40041147", "website": "https://www.itau.com.br/"}}, {"type": "way", "id": 322930293, "nodes": [3297155548, 3297155549, 3297155550, 3297155551, 3297155548], "tags": {"amenity": "bank", "brand": "Santander", "brand:wikidata": "Q5835668", "building": "yes", "name": "Santander"}}, {"type": "way", "id": 326082075, "nodes": [3327029371, 3327029372, 3327029373, 3327029374, 3327029371], "tags": {"amenity": "bank", "atm": "yes", "brand": "Bradesco", "brand:wikidata": "Q806181", "building": "yes", "name": "Bradesco"}}, {"type": "way", "id": 327082686, "nodes": [3337955393, 3337955394, 3337955395, 3337955396, 6460857738, 3337955393], "tags": {"addr:city": "Rio de Janeiro", "addr:housenumber": "274", "addr:street": "Boulevard Vinte e Oito de Setembro", "addr:suburb": "Vila Isabel", "amenity": "bank", "atm": "yes", "brand": "Bradesco", "brand:wikidata": "Q806181", "building": "yes", "drive_through": "no", "name": "Bradesco", "opening_hours": "Mo-Fr 10:00-16:00", "phone": "+55 (21) 3003-8059", "website": "www.bradesco.com.br"}}, {"type": "way", "id": 334242582, "nodes": [3413461026, 3413461027, 3413461028, 3413461029, 3413461030, 3413461031, 3413461032, 3413461033, 3413461026], "tags": {"amenity": "bank", "brand": "Bradesco", "brand:wikidata": "Q806181", "building": "yes", "name": "Bradesco", "ref": "3"}}, {"type": "way", "id": 335760869, "nodes": [3428714993, 3428714994, 3428714995, 3428714996, 3428714997, 3428714998, 3428714993], "tags": {"amenity": "bank", "atm": "yes", "brand": "Banco do Brasil", "brand:wikidata": "Q610817", "brand:wikipedia": "en:Banco do Brasil", "building": "yes", "name": "Banco do Brasil"}}, {"type": "way", "id": 410703172, "nodes": [4124906969, 4124906970, 4124906971, 4124906972, 4124906973, 4124906974, 4124906969], "tags": {"amenity": "bank", "brand": "Caixa Econ\u00f4mica Federal", "brand:wikidata": "Q835283", "building": "yes", "name": "Caixa Econ\u00f4mica Federal"}}, {"type": "way", "id": 415191350, "nodes": [4162483974, 4162483972, 4162483971, 4162483973, 4162483974], "tags": {"amenity": "bank", "brand": "Ita\u00fa Unibanco", "brand:wikidata": "Q1424293", "building": "yes", "name": "Ita\u00fa"}}, {"type": "way", "id": 419311443, "nodes": [4194043352, 4194043350]}, {"type": "way", "id": 419311446, "nodes": [4194043359, 4194043361]}, {"type": "way", "id": 419311489, "nodes": [4194043350, 4194043349]}, {"type": "way", "id": 419311497, "nodes": [4194043359, 4194043358, 4194043349]}, {"type": "way", "id": 419311509, "nodes": [4194043361, 4194043360, 4194043352]}, {"type": "way", "id": 442003716, "nodes": [4396980125, 4396980124, 4396980126, 4396980127, 4396980128, 4396980129, 4396980125], "tags": {"amenity": "bank", "atm": "yes", "brand": "Ita\u00fa Unibanco", "brand:wikidata": "Q1424293", "brand:wikipedia": "pt:Ita\u00fa Unibanco", "building": "yes", "ele": "35.76", "height": "8.2", "name": "Ita\u00fa", "wheelchair": "yes"}}, {"type": "way", "id": 453435500, "nodes": [4501721370, 4501721343, 4501721348, 4501721355, 9925452285, 9925452286, 9925452289, 9925452282, 4501721370], "tags": {"addr:city": "Rio de Janeiro", "addr:street": "Rua Conde de Bonfim", "amenity": "bank", "atm": "yes", "brand": "Ita\u00fa Unibanco", "brand:wikidata": "Q1424293", "building": "yes", "drive_through": "no", "name": "Ita\u00fa"}}, {"type": "way", "id": 545019477, "nodes": [5268018810, 5268018811, 5268018793, 5268018792, 5268018810], "tags": {"amenity": "bank", "brand": "Ita\u00fa Unibanco", "brand:wikidata": "Q1424293", "building": "yes", "name": "Ita\u00fa"}}, {"type": "way", "id": 546184060, "nodes": [5278386406, 5278386407, 5278386408, 5278386409, 5278386410, 5278386411, 5278386412, 5278386406], "tags": {"amenity": "bank", "branch": "Valqueire", "brand": "Bradesco", "brand:wikidata": "Q806181", "brand:wikipedia": "en:Banco Bradesco", "building": "yes", "name": "Bradesco"}}, {"type": "way", "id": 547064088, "nodes": [5286025075, 5286025076, 5286025077, 5286025078, 5286025075], "tags": {"amenity": "bank", "branch": "Intendente", "brand": "Ita\u00fa Unibanco", "brand:wikidata": "Q1424293", "brand:wikipedia": "pt:Ita\u00fa Unibanco", "building": "yes", "name": "Ita\u00fa"}}, {"type": "way", "id": 547064090, "nodes": [5286025079, 5286025082, 5286025083, 5286047604, 5286025084, 5286025079], "tags": {"amenity": "bank", "brand": "Caixa Econ\u00f4mica Federal", "brand:wikidata": "Q835283", "brand:wikipedia": "pt:Caixa Econ\u00f4mica Federal", "building": "yes", "name": "Caixa Econ\u00f4mica Federal"}}, {"type": "way", "id": 547065647, "nodes": [5286029870, 5286029871, 5286029872, 5286029873, 5286029874, 5286029870], "tags": {"amenity": "bank", "brand": "Banco do Brasil", "brand:wikidata": "Q610817", "brand:wikipedia": "en:Banco do Brasil", "building": "yes", "name": "Banco do Brasil"}}, {"type": "way", "id": 547065648, "nodes": [5286029875, 5286029876, 5286029877, 5286029878, 5286029875], "tags": {"amenity": "bank", "brand": "Santander", "brand:wikidata": "Q5835668", "brand:wikipedia": "en:Santander Bank", "building": "yes", "name": "Santander"}}, {"type": "way", "id": 588187167, "nodes": [2174318545, 5618034521, 5618034522, 5618034523, 2174318545], "tags": {"amenity": "bank", "atm": "yes", "brand": "Caixa Econ\u00f4mica Federal", "brand:wikidata": "Q835283", "brand:wikipedia": "pt:Caixa Econ\u00f4mica Federal", "building": "yes", "name": "Caixa Econ\u00f4mica Federal"}}, {"type": "way", "id": 628124105, "nodes": [5929813194, 5929813193, 5929813198, 5929813192, 5929807949, 5929807948, 5929807947, 5929807946, 5929806178, 5929806177, 5929813197, 5929813196, 5929813195, 5929813194], "tags": {"addr:city": "Rio de Janeiro", "addr:housenumber": "72", "addr:street": "Rua Amaral Costa", "addr:suburb": "Campo Grande", "amenity": "bank", "atm": "yes", "brand": "Banco do Brasil", "brand:wikidata": "Q610817", "brand:wikipedia": "en:Banco do Brasil", "building": "yes", "drive_through": "no", "ele": "31.01", "height": "17.21999", "layer": "1", "name": "Banco do Brasil", "opening_hours": "Mo-Fr 10:00-16:00", "operator": "Banco do Brasil", "top_ele": "48.23"}}, {"type": "way", "id": 628124324, "nodes": [5929825734, 5929825733, 5929810383, 5929810382, 5929825724, 5929825734], "tags": {"amenity": "bank", "brand": "Ita\u00fa Unibanco", "brand:wikidata": "Q1424293", "brand:wikipedia": "pt:Ita\u00fa Unibanco", "building": "yes", "ele": "29.64", "height": "9.10999", "name": "Ita\u00fa", "top_ele": "38.75"}}, {"type": "way", "id": 629111487, "nodes": [5939695111, 5939695988, 5939696820, 5939697093, 5939696762, 5939696819, 5939697186, 5939695111], "tags": {"amenity": "bank", "brand": "Bradesco", "brand:wikidata": "Q806181", "brand:wikipedia": "en:Banco Bradesco", "building": "yes", "ele": "28.38", "height": "11.85", "layer": "1", "name": "Bradesco", "top_ele": "40.23"}}, {"type": "way", "id": 629111864, "nodes": [5939710488, 5939710475, 5939710487, 5939709417, 5939710486, 5939705732, 5939710474, 5939710485, 5939709568, 5939710455, 5939710488], "tags": {"amenity": "bank", "brand": "Ita\u00fa Unibanco", "brand:wikidata": "Q1424293", "brand:wikipedia": "pt:Ita\u00fa Unibanco", "building": "yes", "ele": "29.52", "height": "7.38999", "name": "Ita\u00fa", "top_ele": "36.91"}}, {"type": "way", "id": 629112489, "nodes": [5939723086, 5939721284, 5939722760, 5939723193, 5939723190, 5939723186, 5939722756, 5939723086], "tags": {"amenity": "bank", "brand": "Caixa Econ\u00f4mica Federal", "brand:wikidata": "Q835283", "building": "yes", "ele": "31.37", "height": "10.44999", "layer": "2", "name": "Caixa Econ\u00f4mica Federal", "top_ele": "41.82"}}, {"type": "way", "id": 629112491, "nodes": [5939722320, 5939722319, 5939721262, 5939721261, 4319675337, 5939722314, 5939722320], "tags": {"amenity": "bank", "atm": "yes", "brand": "Bradesco", "brand:wikidata": "Q806181", "building": "yes", "ele": "31.6", "height": "4.0", "name": "Bradesco", "top_ele": "35.59999"}}, {"type": "way", "id": 629113112, "nodes": [5939745925, 5939745657, 5939745568, 5939745572, 5939745576, 5939746000, 3301346383, 5939745656, 5939745567, 5939745923, 5939745925], "tags": {"amenity": "bank", "atm": "yes", "brand": "Caixa Econ\u00f4mica Federal", "brand:wikidata": "Q835283", "building": "yes", "ele": "30.9", "height": "7.67", "name": "Caixa Econ\u00f4mica Federal", "top_ele": "38.57999"}}, {"type": "way", "id": 629135777, "nodes": [5939931247, 5939932359, 5939932394, 5939931175, 5939931246, 5939931174, 5939931173, 5939930274, 5939931172, 5939930273, 5939930295, 5939930272, 5939931247], "tags": {"amenity": "bank", "atm": "yes", "brand": "Ita\u00fa Unibanco", "brand:wikidata": "Q1424293", "brand:wikipedia": "pt:Ita\u00fa Unibanco", "building": "yes", "ele": "32.24", "height": "8.55", "name": "Ita\u00fa", "top_ele": "40.8"}}, {"type": "way", "id": 658645032, "nodes": [6167485268, 6167485267, 6167485266, 6167485265, 6167485264, 6167485263, 6167485262, 6167485261, 6167485260, 6167485259, 6167485258, 6167485257, 6167485256, 6167485255, 6167485254, 6167485268], "tags": {"IPP:CodEdificio": "613002", "addr:city": "Rio de Janeiro", "addr:housenumber": "4", "addr:postcode": "21321010", "addr:street": "Pra\u00e7a Bar\u00e3o da Taquara", "addr:suburb": "Pra\u00e7a Seca", "amenity": "bank", "brand": "Banco do Brasil", "brand:wikidata": "Q610817", "building": "yes", "ele": "41.37", "height": "8.03999", "name": "Banco do Brasil", "source": "data.rio", "top_ele": "49.41999"}}, {"type": "way", "id": 658649647, "nodes": [6167481391, 6167481390, 6167481389, 6167481388, 6167481391], "tags": {"IPP:CodEdificio": "616446", "amenity": "bank", "atm": "yes", "brand": "Bradesco", "brand:wikidata": "Q806181", "brand:wikipedia": "en:Banco Bradesco", "building": "yes", "ele": "39.37", "height": "6.28999", "name": "Bradesco", "name:en": "Bradesco", "name:pt": "Bradesco", "opening_hours": "Mo-Fr 09:00-23:00; Sa-Su 05:00-23:00", "source": "data.rio", "top_ele": "45.66999"}}, {"type": "way", "id": 658649659, "nodes": [6167481345, 6167481350, 6167481349, 6167481348, 6167481347, 6167481346, 6167481345], "tags": {"IPP:CodEdificio": "616433", "amenity": "bank", "brand": "Caixa Econ\u00f4mica Federal", "brand:wikidata": "Q835283", "brand:wikipedia": "pt:Caixa Econ\u00f4mica Federal", "building": "yes", "ele": "39.37", "height": "10.56", "name": "Caixa Econ\u00f4mica Federal", "source": "data.rio", "top_ele": "49.93"}}, {"type": "way", "id": 673516910, "nodes": [6307313905, 6307313906, 6307313907, 6307313908, 6307313905], "tags": {"addr:city": "Rio de Janeiro", "addr:housenumber": "1727", "addr:postcode": "21031030", "addr:street": "Estrada do Engenho da Pedra", "addr:suburb": "Olaria", "amenity": "bank", "atm": "yes", "brand": "Ita\u00fa Unibanco", "brand:wikidata": "Q1424293", "brand:wikipedia": "pt:Ita\u00fa Unibanco", "building": "yes", "drive_through": "no", "name": "Ita\u00fa", "opening_hours": "Mo-Fr 10:00-16:00", "phone": "0800 970 4828"}}, {"type": "way", "id": 681764426, "nodes": [6384632512, 6384632513, 6384632514, 6384632515, 6384632512], "tags": {"addr:city": "Rio de Janeiro", "addr:housenumber": "5151", "addr:postcode": "20771-001", "addr:street": "Avenida Dom H\u00e9lder C\u00e2mara", "addr:suburb": "Cachambi", "amenity": "bank", "brand": "Banco do Brasil", "brand:wikidata": "Q610817", "brand:wikipedia": "en:Banco do Brasil", "building": "yes", "name": "Banco do Brasil"}}, {"type": "way", "id": 767422869, "nodes": [7165278019, 7165248541, 7165248542, 7165278022, 7165278019], "tags": {"amenity": "bank", "brand": "Caixa Econ\u00f4mica Federal", "brand:wikidata": "Q835283", "building": "yes", "name": "Caixa Econ\u00f4mica Federal"}}, {"type": "way", "id": 767422870, "nodes": [5581536203, 7165278024, 7165278025, 7165278026, 7165278027, 5581536203], "tags": {"amenity": "bank", "brand": "Bradesco", "brand:wikidata": "Q806181", "building": "yes", "name": "Bradesco", "not:brand:wikidata": "Q806181"}}, {"type": "way", "id": 866417206, "nodes": [376156625, 2265242655, 8075645480, 8075645481, 376156625], "tags": {"addr:city": "Rio de Janeiro", "addr:suburb": "Barra da Tijuca", "amenity": "bank", "atm": "yes", "brand": "Ita\u00fa Unibanco", "brand:wikidata": "Q1424293", "brand:wikipedia": "pt:Ita\u00fa Unibanco", "building": "yes", "drive_through": "no", "level": "1", "name": "Ita\u00fa"}}, {"type": "way", "id": 866444017, "nodes": [6713333717, 6713333716, 6713333715, 8075832337, 6713333712, 6713333719, 6713333718, 6713333717], "tags": {"addr:city": "Rio de Janeiro", "addr:street": "Rua das Laranjeiras", "addr:suburb": "Laranjeiras", "amenity": "bank", "atm": "yes", "brand": "Ita\u00fa Unibanco", "brand:wikidata": "Q1424293", "brand:wikipedia": "pt:Ita\u00fa Unibanco", "building": "yes", "drive_through": "no", "name": "Ita\u00fa"}}, {"type": "way", "id": 866645417, "nodes": [8077903808, 6713659998, 8137355005, 8077903809, 8077903810, 8077903808], "tags": {"addr:city": "Rio de Janeiro", "addr:housenumber": "495", "addr:postcode": "22245-120", "addr:street": "Rua das Laranjeiras", "addr:suburb": "Laranjeiras", "amenity": "bank", "atm": "yes", "brand": "Bradesco", "brand:wikidata": "Q806181", "brand:wikipedia": "en:Banco Bradesco", "building": "yes", "drive_through": "no", "level": "0", "name": "Bradesco"}}, {"type": "way", "id": 866656623, "nodes": [3266080906, 8078008472, 346252475, 8078008474, 3266080906], "tags": {"addr:city": "Rio de Janeiro", "addr:street": "Rua das Laranjeiras", "addr:suburb": "Laranjeiras", "amenity": "bank", "atm": "yes", "brand": "Caixa Econ\u00f4mica Federal", "brand:wikidata": "Q835283", "brand:wikipedia": "pt:Caixa Econ\u00f4mica Federal", "building": "yes", "drive_through": "no", "name": "Caixa Econ\u00f4mica Federal"}}, {"type": "way", "id": 979825926, "nodes": [9064186569, 9064186570, 9064186571, 9064186572, 9064186573, 9064186574, 9064186575, 9064186569], "tags": {"amenity": "bank", "atm": "yes", "brand": "Ita\u00fa Unibanco", "brand:wikidata": "Q1424293", "brand:wikipedia": "pt:Ita\u00fa Unibanco", "building": "yes", "name": "Ita\u00fa", "parking": "underground"}}, {"type": "way", "id": 992345912, "nodes": [9168571194, 9168571193, 9168571192, 9168571191, 9168571190, 9168571189, 9168571188, 9168571187, 9168571186, 9168571185, 9168571184, 2039081798, 9168571183, 9168571182, 9168571181, 9168571180, 9168571179, 9168571178, 9168571177, 9168571176, 9168571175, 9168571194], "tags": {"IPP:CodEdificio": "1577264", "amenity": "bank", "atm": "yes", "brand": "Santander", "brand:wikidata": "Q5835668", "building:part": "yes", "ele": "7.28", "height": "10.29", "layer": "1", "name": "Santander", "source": "survey"}}, {"type": "way", "id": 998441278, "nodes": [9218893215, 9218892436, 8075821585, 9218890806, 9218890805, 9218890804, 9218890803, 9218890802, 9218890801, 9218890800, 9218890799, 9218890798, 9218890797, 9218890796, 9218890795, 9218890794, 9218890793, 9218890792, 9218890791, 9218890790, 9218890789, 9218890788, 9218893210, 9218893211, 9218893214, 9218893215], "tags": {"IPP:CodEdificio": "1570362", "addr:city": "Rio de Janeiro", "addr:housenumber": "4;6", "addr:street": "Rua Farani", "addr:suburb": "Botafogo", "amenity": "bank", "atm": "yes", "brand": "Caixa Econ\u00f4mica Federal", "brand:wikidata": "Q835283", "brand:wikipedia": "pt:Caixa Econ\u00f4mica Federal", "building": "yes", "drive_through": "no", "ele": "2.19", "height": "11.11", "name": "Caixa Econ\u00f4mica Federal", "source": "data.rio"}}, {"type": "way", "id": 998511940, "nodes": [9219478810, 9219478809, 9219478808, 9219478807, 9219478806, 9219478805, 9219478960, 9219478961, 9219478966, 9219478967, 9219478804, 1265049946, 9219478810], "tags": {"IPP:CodEdificio": "2220494", "addr:housenumber": "207", "addr:postcode": "22270-000", "addr:street": "Rua Volunt\u00e1rios da P\u00e1tria", "amenity": "bank", "atm": "yes", "brand": "Ita\u00fa Unibanco", "brand:wikidata": "Q1424293", "building": "yes", "ele": "3.09", "height": "9.22", "name": "Ita\u00fa", "source": "data.rio", "website": "https://www.itau.com.br/"}}, {"type": "way", "id": 1023507212, "nodes": [9438653434, 9438653433, 9438653432, 9438653424, 9438653416, 9438653429, 9438653428, 9438653427, 9438653426, 9438653425, 9438653434], "tags": {"IPP:CodLote": "900593", "IPP:CodQuadra": "263A009119", "amenity": "bank", "atm": "yes", "brand": "Ita\u00fa Unibanco", "brand:wikidata": "Q1424293", "building": "yes", "name": "Ita\u00fa", "operator": "Ita\u00fa"}}, {"type": "way", "id": 1053186461, "nodes": [2284122389, 9678752428, 9678752429, 9678752430, 2284122389], "tags": {"amenity": "bank", "brand": "Banco do Brasil", "brand:wikidata": "Q610817", "brand:wikipedia": "en:Banco do Brasil", "building": "yes", "name": "Banco do Brasil"}}, {"type": "relation", "id": 6231548, "members": [{"type": "way", "ref": 419311509, "role": "outer"}, {"type": "way", "ref": 419311443, "role": "outer"}, {"type": "way", "ref": 419311489, "role": "outer"}, {"type": "way", "ref": 419311497, "role": "outer"}, {"type": "way", "ref": 419311446, "role": "outer"}], "tags": {"addr:city": "Rio de Janeiro", "addr:street": "Rua Sete de Setembro", "addr:suburb": "Centro", "amenity": "bank", "brand": "Caixa Econ\u00f4mica Federal", "brand:wikidata": "Q835283", "building": "yes", "ele": "3.5", "height": "9.72", "name": "Caixa Econ\u00f4mica Federal", "type": "multipolygon"}}]}