{"version": 0.6, "generator": "Overpass API 0.7.60.2 e4cf9f7a", "osm3s": {"timestamp_osm_base": "2023-05-02T19:59:26Z", "copyright": "The data included in this document is from www.openstreetmap.org. The data is made available under ODbL."}, "elements": [{"type": "node", "id": 20959052, "lat": -33.8598082, "lon": 151.213016, "tags": {"amenity": "cinema", "brand": "Dendy Cinemas", "brand:wikidata": "Q22907727", "name": "Dendy", "wheelchair": "yes"}}, {"type": "node", "id": 20979630, "lat": -33.894308, "lon": 151.2257818, "tags": {"amenity": "cinema", "created_by": "JOSM", "name": "Paris Cinema"}}, {"type": "node", "id": 20979636, "lat": -33.8945405, "lon": 151.2273103}, {"type": "node", "id": 323333877, "lat": -33.7979086, "lon": 151.1820698, "tags": {"amenity": "cinema", "brand": "Hoyts", "brand:wikidata": "Q5922976", "brand:wikipedia": "en:Hoyts", "level": "3", "name": "Hoyts", "wheelchair": "yes", "wikidata": "Q47002271"}}, {"type": "node", "id": 663888023, "lat": -33.8341498, "lon": 151.0857528, "tags": {"amenity": "cinema", "name": "Reading Cinema", "wheelchair": "yes"}}, {"type": "node", "id": 1080435447, "lat": -33.9655802, "lon": 151.1058069, "tags": {"amenity": "cinema", "branch": "Hurstville", "brand": "Event Cinemas", "brand:wikidata": "Q5416698", "brand:wikipedia": "en:Event Cinemas", "name": "Event Cinemas Hurstville", "wheelchair": "limited", "wikidata": "Q47002336"}}, {"type": "node", "id": 1248155774, "lat": -33.7771232, "lon": 151.1193192, "tags": {"amenity": "cinema", "brand": "Event Cinemas", "brand:wikidata": "Q5416698", "brand:wikipedia": "en:Event Cinemas", "layer": "1", "name": "Event Cinemas  Macquarie", "official_name": "Event Cinemas", "website": "https://www.eventcinemas.com.au/Cinema/Macquarie"}}, {"type": "node", "id": 1268340973, "lat": -33.875158, "lon": 151.2059383, "tags": {"addr:city": "Sydney", "addr:housenumber": "505-525", "addr:postcode": "2000", "addr:street": "George Street", "amenity": "cinema", "brand": "Event Cinemas", "brand:wikidata": "Q5416698", "brand:wikipedia": "en:Event Cinemas", "name": "Event", "official_name": "Event Cinemas", "phone": "+61 2 92737300", "wheelchair": "yes"}}, {"type": "node", "id": 1636148092, "lat": -33.8477293, "lon": 151.0452943}, {"type": "node", "id": 1636148112, "lat": -33.8474501, "lon": 151.0454782}, {"type": "node", "id": 1924155608, "lat": -33.7843679, "lon": 151.1764522}, {"type": "node", "id": 1959171418, "lat": -33.847625, "lon": 151.0458633}, {"type": "node", "id": 1959171425, "lat": -33.8479043, "lon": 151.0456794}, {"type": "node", "id": 2115104778, "lat": -33.828117, "lon": 151.229596, "tags": {"amenity": "cinema", "name": "Orpheum Cinema", "wikidata": "Q47002283"}}, {"type": "node", "id": 2174554883, "lat": -33.7967566, "lon": 151.1830424, "tags": {"amenity": "cinema", "brand": "Hoyts", "brand:wikidata": "Q5922976", "brand:wikipedia": "en:Hoyts", "level:ref": "6", "name": "Hoyts", "wheelchair": "yes", "wikidata": "Q47002272"}}, {"type": "node", "id": 2262381028, "lat": -33.861398, "lon": 151.2211282, "tags": {"amenity": "cinema", "name": "Open Air Cinema", "opening_hours": "Mar-Dec:off;Jan-Feb 18:00-23:00", "outdoor": "yes", "source": "http://www.stgeorgeopenair.com.au/"}}, {"type": "node", "id": 2295479624, "lat": -33.8853436, "lon": 151.2259706, "tags": {"amenity": "cinema", "name": "Chauvel Cinema", "wikidata": "Q47002403"}}, {"type": "node", "id": 2295479625, "lat": -33.88252, "lon": 151.22001, "tags": {"amenity": "cinema", "name": "Palace Verona Cinema"}}, {"type": "node", "id": 2521922485, "lat": -33.8764268, "lon": 151.2215905, "tags": {"amenity": "cinema", "name": "Govindas"}}, {"type": "node", "id": 2610663576, "lat": -33.9201716, "lon": 151.2432906, "tags": {"amenity": "cinema", "name": "Randwick Ritz", "source": "local_knowledge", "toilets:wheelchair": "yes", "website": "https://www.ritzcinemas.com.au/", "wheelchair": "limited"}}, {"type": "node", "id": 2613255835, "lat": -34.0516788, "lon": 151.1533107, "tags": {"amenity": "cinema", "source": "survey", "source:location": "extrapolation"}}, {"type": "node", "id": 3335324091, "lat": -33.8847156, "lon": 151.1572827}, {"type": "node", "id": 3335324517, "lat": -33.884694, "lon": 151.1579004}, {"type": "node", "id": 3335324526, "lat": -33.8850243, "lon": 151.1573094}, {"type": "node", "id": 3335324527, "lat": -33.8849923, "lon": 151.1579326}, {"type": "node", "id": 3388708183, "lat": -33.8947212, "lon": 151.2282018}, {"type": "node", "id": 3388708194, "lat": -33.8948661, "lon": 151.228458}, {"type": "node", "id": 3388708227, "lat": -33.8944478, "lon": 151.2278108}, {"type": "node", "id": 3388708238, "lat": -33.8945162, "lon": 151.227408}, {"type": "node", "id": 3388708241, "lat": -33.8945431, "lon": 151.2278963}, {"type": "node", "id": 3388708242, "lat": -33.8945602, "lon": 151.2272011}, {"type": "node", "id": 3388708243, "lat": -33.8945603, "lon": 151.2264887}, {"type": "node", "id": 3388708246, "lat": -33.8945831, "lon": 151.226451}, {"type": "node", "id": 3388708247, "lat": -33.8945901, "lon": 151.2266642}, {"type": "node", "id": 3388708248, "lat": -33.8945924, "lon": 151.2269371}, {"type": "node", "id": 3388708249, "lat": -33.8945994, "lon": 151.2274368}, {"type": "node", "id": 3388708253, "lat": -33.894645, "lon": 151.2280751}, {"type": "node", "id": 3388708254, "lat": -33.8946598, "lon": 151.2264264}, {"type": "node", "id": 3388708256, "lat": -33.8946716, "lon": 151.2264415}, {"type": "node", "id": 3388708258, "lat": -33.8946873, "lon": 151.2264425}, {"type": "node", "id": 3388708260, "lat": -33.8947115, "lon": 151.2265831}, {"type": "node", "id": 3388708261, "lat": -33.8947146, "lon": 151.2275756}, {"type": "node", "id": 3388708263, "lat": -33.8947202, "lon": 151.2275196}, {"type": "node", "id": 3388708264, "lat": -33.8947209, "lon": 151.2265585}, {"type": "node", "id": 3388708266, "lat": -33.8947241, "lon": 151.2265897}, {"type": "node", "id": 3388708267, "lat": -33.8947343, "lon": 151.2265642}, {"type": "node", "id": 3388708280, "lat": -33.8950018, "lon": 151.2279256}, {"type": "node", "id": 3388708284, "lat": -33.8950616, "lon": 151.2281205}, {"type": "node", "id": 3388708287, "lat": -33.8950815, "lon": 151.2281045}, {"type": "node", "id": 3388708293, "lat": -33.895117, "lon": 151.228254}, {"type": "node", "id": 3388708313, "lat": -33.8953718, "lon": 151.2269406}, {"type": "node", "id": 3977545360, "lat": -33.8830467, "lon": 151.1939487, "tags": {"amenity": "cinema", "brand": "Hoyts", "brand:wikidata": "Q5922976", "brand:wikipedia": "en:Hoyts", "level": "2", "name": "Hoyts", "website": "https://www.hoyts.com.au/", "wikidata": "Q45306053"}}, {"type": "node", "id": 4756190323, "lat": -33.8172719, "lon": 151.0037267, "tags": {"amenity": "cinema", "brand": "Event", "brand:wikidata": "Q5416698", "brand:wikipedia": "en:Event Cinemas", "indoor": "yes", "level": "4", "name": "Event", "name:en": "Event Cinemas Parramatta", "official_name": "Event Cinemas", "wikidata": "Q47002414"}}, {"type": "node", "id": 5209314303, "lat": -33.8749482, "lon": 151.2055242}, {"type": "node", "id": 5209314304, "lat": -33.8749413, "lon": 151.2056816}, {"type": "node", "id": 5300088765, "lat": -33.8961474, "lon": 151.1803973}, {"type": "node", "id": 5300088766, "lat": -33.8958103, "lon": 151.180245}, {"type": "node", "id": 5300088767, "lat": -33.8960608, "lon": 151.180565}, {"type": "node", "id": 5300088768, "lat": -33.8957541, "lon": 151.1804207}, {"type": "node", "id": 5332022921, "lat": -33.91593, "lon": 151.0362413}, {"type": "node", "id": 5344685841, "lat": -33.8754707, "lon": 151.2055271}, {"type": "node", "id": 5344685842, "lat": -33.875484, "lon": 151.2055378}, {"type": "node", "id": 5344685843, "lat": -33.8756277, "lon": 151.2063089}, {"type": "node", "id": 5344685844, "lat": -33.8749763, "lon": 151.206502}, {"type": "node", "id": 5344685845, "lat": -33.8749607, "lon": 151.2064256}, {"type": "node", "id": 5344685846, "lat": -33.8749507, "lon": 151.205468}, {"type": "node", "id": 5452344436, "lat": -33.8751628, "lon": 151.1053599}, {"type": "node", "id": 5452344437, "lat": -33.8750574, "lon": 151.1045597}, {"type": "node", "id": 5452344438, "lat": -33.8754207, "lon": 151.1044919}, {"type": "node", "id": 5452344439, "lat": -33.87545, "lon": 151.1047163}, {"type": "node", "id": 5452344440, "lat": -33.8753952, "lon": 151.1047261}, {"type": "node", "id": 5452344441, "lat": -33.8754665, "lon": 151.105253}, {"type": "node", "id": 5452344442, "lat": -33.8754434, "lon": 151.1052555}, {"type": "node", "id": 5452344443, "lat": -33.8754163, "lon": 151.1053115}, {"type": "node", "id": 5452344445, "lat": -33.875092, "lon": 151.1048135}, {"type": "node", "id": 5452344446, "lat": -33.8751067, "lon": 151.1049079}, {"type": "node", "id": 5465576869, "lat": -33.8845794, "lon": 151.2008592, "tags": {"amenity": "cinema", "name": "Palace Central Cinema Sydney"}}, {"type": "node", "id": 5480170710, "lat": -33.874829, "lon": 151.2057487}, {"type": "node", "id": 5480170711, "lat": -33.8749397, "lon": 151.2057188}, {"type": "node", "id": 5760181575, "lat": -33.9159138, "lon": 151.0366792}, {"type": "node", "id": 5760181576, "lat": -33.9155473, "lon": 151.0366642}, {"type": "node", "id": 5760181577, "lat": -33.9155473, "lon": 151.0366354}, {"type": "node", "id": 5760181578, "lat": -33.915514, "lon": 151.0366292}, {"type": "node", "id": 5760181579, "lat": -33.9154901, "lon": 151.0366166}, {"type": "node", "id": 5760181580, "lat": -33.9154683, "lon": 151.0366029}, {"type": "node", "id": 5760181581, "lat": -33.9154538, "lon": 151.0365966}, {"type": "node", "id": 5760181582, "lat": -33.9154361, "lon": 151.0365941}, {"type": "node", "id": 5760181583, "lat": -33.9154445, "lon": 151.0362162}, {"type": "node", "id": 5760181584, "lat": -33.9154859, "lon": 151.0362184}, {"type": "node", "id": 5760181586, "lat": -33.9154437, "lon": 151.0362524}, {"type": "node", "id": 5760181587, "lat": -33.9154384, "lon": 151.0364929}, {"type": "node", "id": 5760181603, "lat": -33.9159198, "lon": 151.0365175}, {"type": "node", "id": 7456894618, "lat": -33.8848242, "lon": 151.1572925}, {"type": "node", "id": 7456894621, "lat": -33.8850209, "lon": 151.1573694}, {"type": "node", "id": 7456894622, "lat": -33.885014, "lon": 151.1574877}, {"type": "node", "id": 7456894623, "lat": -33.8850045, "lon": 151.1576575}, {"type": "node", "id": 7592045335, "lat": -33.7842534, "lon": 151.1763683}, {"type": "node", "id": 7592045336, "lat": -33.7843593, "lon": 151.1761591}, {"type": "node", "id": 7592045337, "lat": -33.7844738, "lon": 151.176243}, {"type": "node", "id": 10314290914, "lat": -33.8921565, "lon": 151.2405049, "tags": {"air_conditioning": "no", "amenity": "cinema", "name": "Moonlight Cinema", "outdoor": "yes", "screen": "1", "website": "https://www.moonlight.com.au/sydney/centennial-park/program"}}, {"type": "node", "id": 10759304577, "lat": -33.7844279, "lon": 151.1763337}, {"type": "way", "id": 150725249, "nodes": [1636148112, 1636148092, 1959171425, 1959171418, 1636148112], "tags": {"amenity": "cinema", "name": "Reading Cinemas", "website": "https://www.readingcinemas.com.au/"}}, {"type": "way", "id": 326846908, "nodes": [3335324091, 3335324517, 3335324527, 7456894623, 7456894622, 7456894621, 3335324526, 7456894618, 3335324091], "tags": {"addr:city": "Leichhardt", "addr:housenumber": "99", "addr:postcode": "2040", "addr:province": "NSW", "addr:street": "Norton Street", "addr:suburb": "Leichhardt", "amenity": "cinema", "brand": "Palace Cinemas", "brand:wikidata": "Q7126164", "brand:wikipedia": "en:Palace Cinemas (Australia)", "building": "yes", "name": "Palace Cinemas", "website": "https://www.palacecinemas.com.au/", "wikidata": "Q47002348"}}, {"type": "way", "id": 331769914, "nodes": [3388708313, 3388708280, 3388708287, 3388708284, 3388708293, 3388708194, 3388708183, 3388708253, 3388708241, 3388708227, 3388708261, 3388708263, 3388708249, 3388708238, 20979636, 3388708242, 3388708248, 3388708247, 3388708243, 3388708246, 3388708254, 3388708256, 3388708258, 3388708264, 3388708260, 3388708266, 3388708267, 3388708313], "tags": {"amenity": "cinema", "building": "yes", "name": "Hoyts Cinema"}}, {"type": "way", "id": 548632869, "nodes": [5300088765, 5300088767, 5300088768, 5300088766, 5300088765], "tags": {"addr:housenumber": "261-263", "addr:postcode": "2042", "addr:street": "King Street", "amenity": "cinema", "brand": "Dendy Cinemas", "brand:wikidata": "Q22907727", "brand:wikipedia": "en:Dendy Cinemas", "building": "retail", "name": "Dendy Newtown", "phone": "+61 2 9550 5699", "screen": "10", "toilets:wheelchair": "yes", "website": "https://www.dendy.com.au/cinemas/newtown", "wheelchair": "yes", "wikidata": "Q47002393"}}, {"type": "way", "id": 553728585, "nodes": [5344685841, 5344685842, 5344685843, 5344685844, 5344685845, 5480170710, 5480170711, 5209314304, 5209314303, 5344685846, 5344685841], "tags": {"addr:housenumber": "505-523", "addr:street": "George Street", "amenity": "cinema", "brand": "Cinema City", "brand:wikidata": "Q543651", "brand:wikipedia": "en:Cinema City International", "building": "yes", "building:levels": "3", "name": "Cinema City", "source:addr": "LPI Base Map May 2018"}}, {"type": "way", "id": 566226271, "nodes": [5452344436, 5452344446, 5452344445, 5452344437, 5452344438, 5452344439, 5452344440, 5452344441, 5452344442, 5452344443, 5452344436], "tags": {"amenity": "cinema", "brand": "Event Cinemas", "brand:wikidata": "Q5416698", "brand:wikipedia": "en:Event Cinemas", "building": "yes", "building:levels": "4", "layer": "1", "name": "Event", "official_name": "Event Cinemas", "website": "https://www.eventcinemas.com.au/Cinema/Burwood"}}, {"type": "way", "id": 607899151, "nodes": [5332022921, 5760181603, 5760181575, 5760181576, 5760181577, 5760181578, 5760181579, 5760181580, 5760181581, 5760181582, 5760181587, 5760181586, 5760181583, 5760181584, 5332022921], "tags": {"amenity": "cinema", "branch": "Bankstown", "brand": "Hoyts", "brand:wikidata": "Q5922976", "brand:wikipedia": "en:Hoyts", "building": "yes", "building:levels": "3", "name": "Hoyts"}}, {"type": "way", "id": 812806828, "nodes": [1924155608, 10759304577, 7592045337, 7592045336, 7592045335, 1924155608], "tags": {"addr:housenumber": "112", "addr:street": "Pacific Highway", "amenity": "cinema", "building": "yes", "building:levels": "2", "name": "Roseville Cinemas", "old_name": "Roseville Theatre", "payment:cash": "no", "phone": "+612 9416 8555", "screen": "2", "website": "https://rosevillecinemas.com.au/", "wikidata": "Q47002437"}}]}