{"version": 0.6, "generator": "Overpass API 0.7.60.2 e4cf9f7a", "osm3s": {"timestamp_osm_base": "2023-05-02T19:59:26Z", "copyright": "The data included in this document is from www.openstreetmap.org. The data is made available under ODbL."}, "elements": [{"type": "node", "id": 248663946, "lat": 41.8874086, "lon": 12.5339105, "tags": {"amenity": "cinema", "name": "Cineclub Alphaville"}}, {"type": "node", "id": 248674890, "lat": 41.8842185, "lon": 12.4726722, "tags": {"amenity": "cinema", "name": "Nuovo Sacher"}}, {"type": "node", "id": 248676601, "lat": 41.8893204, "lon": 12.4743782, "tags": {"addr:city": "Roma", "addr:country": "IT", "addr:housenumber": "3", "addr:street": "Piazza Sidney Sonnino", "amenity": "cinema", "name": "Reale", "phone": "+39 06 5810234"}}, {"type": "node", "id": 250884088, "lat": 41.8338771, "lon": 12.4684719, "tags": {"addr:housenumber": "32", "addr:postcode": "00144", "addr:street": "Via Liszt", "amenity": "cinema", "name": "EUR Cine"}}, {"type": "node", "id": 250889369, "lat": 41.9014076, "lon": 12.4919881, "tags": {"addr:city": "Roma", "addr:country": "IT", "addr:housenumber": "23", "addr:postcode": "00184", "addr:street": "Via delle Quattro Fontane", "amenity": "cinema", "name": "Quattro Fontane", "wheelchair": "yes", "wikidata": "Q36673428"}}, {"type": "node", "id": 251888861, "lat": 41.8788587, "lon": 12.4741095, "tags": {"addr:city": "Roma", "addr:housenumber": "59", "addr:postcode": "00153", "addr:street": "Via Giovanni Battista Bodoni", "amenity": "cinema", "contact:email": "multisalagreenwich@gmail.com", "contact:facebook": "https://www.facebook.com/greenwichmultisala/", "contact:phone": "+39 06 5745825", "contact:website": "https://www.multisalagreenwichroma.com/", "name": "Greenwich", "operator": "Greenwich Srl", "ref:vatin": "IT04131581003", "screen": "3"}}, {"type": "node", "id": 253710925, "lat": 41.8970088, "lon": 12.5149811}, {"type": "node", "id": 253710926, "lat": 41.8969009, "lon": 12.5150779}, {"type": "node", "id": 255277494, "lat": 41.8970119, "lon": 12.5153007}, {"type": "node", "id": 257352141, "lat": 41.8952366, "lon": 12.4726508, "tags": {"amenity": "cinema", "name": "Farnese", "wheelchair": "limited", "wikidata": "Q37000354"}}, {"type": "node", "id": 260540041, "lat": 41.853415, "lon": 12.4793038, "tags": {"addr:city": "Roma", "addr:country": "IT", "addr:housenumber": "121", "addr:postcode": "00145", "addr:street": "Via Gabriello Chiabrera", "amenity": "cinema", "cinema:3D": "yes", "name": "Madison", "phone": "+39 06 5417926", "url": "http://www.mymovies.it/cinema/roma/4916/", "website": "https://www.cinemamadison.it/"}}, {"type": "node", "id": 266493853, "lat": 41.8607808, "lon": 12.555606, "tags": {"addr:city": "Roma", "addr:housenumber": "745", "addr:postcode": "00174", "addr:street": "Via Tuscolana", "amenity": "cinema", "email": "atlantic@ferrerocinemas.com", "name": "Multisala Atlantic", "phone": "+39 06 76 10 65", "website": "http://www.ferrerocinemas.it/index.php?id_menu=37", "wheelchair": "yes"}}, {"type": "node", "id": 267112900, "lat": 41.8964559, "lon": 12.464133, "tags": {"amenity": "cinema", "name": "Filmstudio"}}, {"type": "node", "id": 276555836, "lat": 41.8898212, "lon": 12.5067479, "tags": {"addr:city": "Roma", "addr:housenumber": "175", "addr:street": "Via Emanuele Filiberto", "amenity": "cinema", "name": "Royal", "website": "www.ferrerocinemas.it/royal/index.php"}}, {"type": "node", "id": 298981642, "lat": 41.9589751, "lon": 12.7090636}, {"type": "node", "id": 298981643, "lat": 41.9588626, "lon": 12.7097051}, {"type": "node", "id": 298981644, "lat": 41.9580533, "lon": 12.7094484}, {"type": "node", "id": 298981645, "lat": 41.9581658, "lon": 12.7088069}, {"type": "node", "id": 301336161, "lat": 41.9112909, "lon": 12.4994424, "tags": {"addr:city": "Roma", "addr:country": "IT", "addr:housenumber": "107", "addr:postcode": "00198", "addr:street": "Corso d'Italia", "amenity": "cinema", "cinema:3D": "yes", "name": "Europa", "operator": "Mycityplex", "screen": "4", "toilets": "yes", "website": "http://www.mycityplex.it/savoy/"}}, {"type": "node", "id": 309569303, "lat": 41.9060169, "lon": 12.4697046, "tags": {"amenity": "cinema", "name": "Adriano", "note": "now multiplex cinema, ex-theatre", "wikidata": "Q3981895"}}, {"type": "node", "id": 330885344, "lat": 41.8905129, "lon": 12.525548, "tags": {"addr:city": "Roma", "addr:country": "IT", "addr:housenumber": "68", "addr:postcode": "00176", "addr:street": "Via L'Aquila", "amenity": "cinema", "name": "Nuovo Cinema Aquila"}}, {"type": "node", "id": 332961868, "lat": 41.8507585, "lon": 12.4905076}, {"type": "node", "id": 367211102, "lat": 41.8158955, "lon": 12.4112029}, {"type": "node", "id": 367211106, "lat": 41.8155583, "lon": 12.4110787}, {"type": "node", "id": 367211111, "lat": 41.8155701, "lon": 12.4110059}, {"type": "node", "id": 367211117, "lat": 41.8149212, "lon": 12.4108092}, {"type": "node", "id": 367211122, "lat": 41.8149086, "lon": 12.4108865}, {"type": "node", "id": 367211127, "lat": 41.8145465, "lon": 12.410781}, {"type": "node", "id": 367211132, "lat": 41.8144407, "lon": 12.4114346}, {"type": "node", "id": 367211136, "lat": 41.8148359, "lon": 12.4115498}, {"type": "node", "id": 367211141, "lat": 41.8146673, "lon": 12.4116818}, {"type": "node", "id": 367211173, "lat": 41.8154012, "lon": 12.4117287}, {"type": "node", "id": 388097156, "lat": 41.7462591, "lon": 12.2869099, "tags": {"addr:city": "Roma", "addr:housenumber": "515", "addr:postcode": "00121", "addr:street": "Viale dei Romagnoli", "amenity": "cinema", "name": "Cineland", "phone": "+39 06 561841", "website": "http://cineland.it/", "wheelchair": "yes"}}, {"type": "node", "id": 422034617, "lat": 41.909533, "lon": 12.4505748, "tags": {"amenity": "cinema", "name": "Doria"}}, {"type": "node", "id": 610928412, "lat": 41.921442, "lon": 12.4166332, "tags": {"amenity": "cinema", "name": "Galaxi", "wheelchair": "no"}}, {"type": "node", "id": 610928685, "lat": 41.9130107, "lon": 12.4180813, "tags": {"amenity": "cinema", "name": "Andromeda", "wheelchair": "yes"}}, {"type": "node", "id": 612601679, "lat": 41.9087349, "lon": 12.4560902, "tags": {"amenity": "cinema", "name": "Giulio Cesare"}}, {"type": "node", "id": 612605225, "lat": 41.9035726, "lon": 12.4891475, "tags": {"amenity": "cinema", "name": "Barberini", "source": "Bing, Local knowledge", "website": "www.multisalabarberini.it", "wikidata": "Q37000295", "wikimedia_commons": "File:Piazza Barberini 1963, il Gattopardo Fortepan 58009.jpg"}}, {"type": "node", "id": 729741148, "lat": 41.8508888, "lon": 12.4903498}, {"type": "node", "id": 729741173, "lat": 41.8510659, "lon": 12.4909402}, {"type": "node", "id": 729741274, "lat": 41.8511961, "lon": 12.4907772}, {"type": "node", "id": 899270724, "lat": 41.8495342, "lon": 12.5744684, "tags": {"addr:city": "Roma", "addr:country": "IT", "addr:street": "Via Tuscolana", "amenity": "cinema", "name": "Cinecitt\u00e0"}}, {"type": "node", "id": 916498660, "lat": 41.9656167, "lon": 12.4443985, "tags": {"addr:housenumber": "20", "addr:street": "Via Vibo Mariano", "amenity": "cinema", "name": "Cinestar Cassia"}}, {"type": "node", "id": 917758920, "lat": 41.9110137, "lon": 12.4872199}, {"type": "node", "id": 917759447, "lat": 41.9109833, "lon": 12.4878467}, {"type": "node", "id": 917759805, "lat": 41.9108195, "lon": 12.4872018}, {"type": "node", "id": 1023823864, "lat": 41.9101282, "lon": 12.5006645, "tags": {"addr:city": "Roma", "addr:country": "IT", "addr:housenumber": "107/a", "addr:postcode": "00198", "addr:street": "Corso d'Italia", "amenity": "cinema", "check_date:opening_hours": "2022-10-18", "cinema:3D": "yes", "name": "Cinema Europa", "opening_hours": "Mo-Su 15:30-24:00", "opening_hours:signed": "no", "operator": "Mycityplex", "phone": "+39 06 44292378", "toilets": "yes", "website": "https://www.mycityplex.it/europa/index.php"}}, {"type": "node", "id": 1099803090, "lat": 41.9116287, "lon": 12.4876505}, {"type": "node", "id": 1099803109, "lat": 41.911683, "lon": 12.4877088}, {"type": "node", "id": 1099803114, "lat": 41.9115471, "lon": 12.4877876}, {"type": "node", "id": 1099803124, "lat": 41.9116014, "lon": 12.4878459}, {"type": "node", "id": 1118787065, "lat": 41.9053817, "lon": 12.4926329, "tags": {"addr:city": "Roma", "addr:country": "IT", "addr:housenumber": "47", "addr:street": "Via Leonida Bissolati", "amenity": "cinema", "name": "Fiamma", "wheelchair": "yes", "wikidata": "Q37000377"}}, {"type": "node", "id": 1160046238, "lat": 41.9086186, "lon": 12.468822, "tags": {"addr:housenumber": "74", "addr:street": "Piazza Cola di Rienzo", "amenity": "cinema", "name": "Eden", "toilets:wheelchair": "yes", "wheelchair": "yes"}}, {"type": "node", "id": 1222037500, "lat": 41.9020746, "lon": 12.4964251, "tags": {"amenity": "cinema", "brand": "The Space Cinema", "brand:wikidata": "Q3989406", "brand:wikipedia": "it:The Space Cinema", "name": "The Space-Moderno", "wikidata": "Q37000649"}}, {"type": "node", "id": 1257246656, "lat": 41.9028706, "lon": 12.4789734, "tags": {"amenity": "cinema", "name": "Nuovo Olimpia", "wikidata": "Q37000496"}}, {"type": "node", "id": 1267228121, "lat": 41.8749391, "lon": 12.5257012}, {"type": "node", "id": 1267228207, "lat": 41.8751675, "lon": 12.5260267}, {"type": "node", "id": 1267228309, "lat": 41.8747419, "lon": 12.5259009}, {"type": "node", "id": 1267228350, "lat": 41.8752418, "lon": 12.5261327}, {"type": "node", "id": 1267228361, "lat": 41.8747639, "lon": 12.5259542}, {"type": "node", "id": 1267228412, "lat": 41.8750412, "lon": 12.5263619}, {"type": "node", "id": 1267228617, "lat": 41.8751413, "lon": 12.5262475}, {"type": "node", "id": 1267228675, "lat": 41.8749778, "lon": 12.5262595}, {"type": "node", "id": 1283216891, "lat": 41.9233361, "lon": 12.5064581, "tags": {"amenity": "cinema", "name": "Admiral"}}, {"type": "node", "id": 1334091777, "lat": 41.9084895, "lon": 12.4582398, "tags": {"addr:city": "Roma", "addr:country": "IT", "addr:housenumber": "82", "addr:postcode": "00192", "addr:street": "Via degli Scipioni", "amenity": "cinema", "name": "Azzurro Scipioni", "phone": "+39 06 39737161", "website": "www.azzurroscipioni.com", "wikidata": "Q37000279"}}, {"type": "node", "id": 1507335546, "lat": 41.9146213, "lon": 12.6605589, "tags": {"amenity": "cinema", "description": "cinema con 8 sale", "name": "UCI", "note": "posizione approssimativa", "source": "survey"}}, {"type": "node", "id": 1528875622, "lat": 41.887269, "lon": 12.4720752, "tags": {"amenity": "cinema", "name": "Alcazar"}}, {"type": "node", "id": 1542593183, "lat": 41.8961719, "lon": 12.4939283, "tags": {"addr:city": "Roma", "addr:country": "IT", "addr:housenumber": "107", "addr:postcode": "00184", "addr:street": "Via Urbana", "amenity": "cinema", "description": "Film indipendenti nella piccola sala cinematografica di un'associazione culturale con spazio espositivo e bar.", "email": "cinedetour@tiscali.it", "name": "Cineclub Detour", "name:zh": "Detour\u7535\u5f71\u9662", "phone": "+39 064871579", "website": "https://www.cinedetour.it/"}}, {"type": "node", "id": 1567603342, "lat": 41.8970663, "lon": 12.5150965}, {"type": "node", "id": 1567603370, "lat": 41.8971019, "lon": 12.5150625}, {"type": "node", "id": 1567603458, "lat": 41.8971543, "lon": 12.5151676}, {"type": "node", "id": 1601383258, "lat": 41.9439294, "lon": 12.5652715, "tags": {"amenity": "cinema", "name": "CineClub Podere Rosa"}}, {"type": "node", "id": 1701670092, "lat": 41.8822396, "lon": 12.5657929, "tags": {"amenity": "cinema", "name": "Brodway"}}, {"type": "node", "id": 1759856900, "lat": 41.8898159, "lon": 12.5262716, "tags": {"amenity": "cinema", "name": "Cineclub Kino"}}, {"type": "node", "id": 2075190114, "lat": 41.8078285, "lon": 12.6776407}, {"type": "node", "id": 2075190120, "lat": 41.807962, "lon": 12.6773001}, {"type": "node", "id": 2075190121, "lat": 41.8079944, "lon": 12.6772176}, {"type": "node", "id": 2075190122, "lat": 41.8080033, "lon": 12.6777694}, {"type": "node", "id": 2075190127, "lat": 41.8081723, "lon": 12.6773432}, {"type": "node", "id": 2112426676, "lat": 41.9108215, "lon": 12.4876644}, {"type": "node", "id": 2112426681, "lat": 41.9108136, "lon": 12.4876791}, {"type": "node", "id": 2112426685, "lat": 41.9107959, "lon": 12.4876621}, {"type": "node", "id": 2112426690, "lat": 41.9108196, "lon": 12.4877308}, {"type": "node", "id": 2112426692, "lat": 41.9108113, "lon": 12.4877214}, {"type": "node", "id": 2112426713, "lat": 41.9108153, "lon": 12.4878331}, {"type": "node", "id": 2315230807, "lat": 41.9108724, "lon": 12.5212995}, {"type": "node", "id": 2315230838, "lat": 41.9110001, "lon": 12.5216821}, {"type": "node", "id": 2315230839, "lat": 41.9109072, "lon": 12.5216927}, {"type": "node", "id": 2315230840, "lat": 41.9109582, "lon": 12.5211496}, {"type": "node", "id": 2315230841, "lat": 41.910861, "lon": 12.5211551}, {"type": "node", "id": 2315230842, "lat": 41.9108728, "lon": 12.5212618}, {"type": "node", "id": 2315230843, "lat": 41.9109957, "lon": 12.5215968}, {"type": "node", "id": 2315230844, "lat": 41.910993, "lon": 12.5215429}, {"type": "node", "id": 2318352905, "lat": 41.9087756, "lon": 12.5230111}, {"type": "node", "id": 2318352906, "lat": 41.9088644, "lon": 12.5226906}, {"type": "node", "id": 2318352907, "lat": 41.9088375, "lon": 12.522641}, {"type": "node", "id": 2318352908, "lat": 41.9088485, "lon": 12.5226034}, {"type": "node", "id": 2318352909, "lat": 41.9088165, "lon": 12.5225632}, {"type": "node", "id": 2318352910, "lat": 41.9087656, "lon": 12.5225377}, {"type": "node", "id": 2318352911, "lat": 41.9087457, "lon": 12.5225645}, {"type": "node", "id": 2318352912, "lat": 41.9087287, "lon": 12.5225605}, {"type": "node", "id": 2318352913, "lat": 41.9086359, "lon": 12.5226879}, {"type": "node", "id": 2318352914, "lat": 41.9086259, "lon": 12.5226759}, {"type": "node", "id": 2318352915, "lat": 41.908549, "lon": 12.5227845}, {"type": "node", "id": 2318352916, "lat": 41.9085441, "lon": 12.5227751}, {"type": "node", "id": 2318352917, "lat": 41.9084971, "lon": 12.5228328}, {"type": "node", "id": 2318352918, "lat": 41.908596, "lon": 12.5229803}, {"type": "node", "id": 2318352919, "lat": 41.9086119, "lon": 12.5230017}, {"type": "node", "id": 2318352920, "lat": 41.9086319, "lon": 12.5230205}, {"type": "node", "id": 2318352921, "lat": 41.9086488, "lon": 12.5230259}, {"type": "node", "id": 2318352922, "lat": 41.9086788, "lon": 12.5230259}, {"type": "node", "id": 2318352923, "lat": 41.9086768, "lon": 12.5230366}, {"type": "node", "id": 2525348033, "lat": 41.8146471, "lon": 12.4118063}, {"type": "node", "id": 2525348041, "lat": 41.8147833, "lon": 12.4117156}, {"type": "node", "id": 2525348042, "lat": 41.8147889, "lon": 12.4116808}, {"type": "node", "id": 2525348043, "lat": 41.8148136, "lon": 12.411688}, {"type": "node", "id": 2525348049, "lat": 41.8149224, "lon": 12.4118866}, {"type": "node", "id": 2525348051, "lat": 41.8149591, "lon": 12.41166}, {"type": "node", "id": 2525348074, "lat": 41.8151023, "lon": 12.4109086}, {"type": "node", "id": 2525348077, "lat": 41.8151095, "lon": 12.4108641}, {"type": "node", "id": 2525348095, "lat": 41.8152239, "lon": 12.4119803}, {"type": "node", "id": 2525348105, "lat": 41.8152615, "lon": 12.4117482}, {"type": "node", "id": 2525348115, "lat": 41.815373, "lon": 12.4119029}, {"type": "node", "id": 2525348118, "lat": 41.8153794, "lon": 12.4109894}, {"type": "node", "id": 2525348119, "lat": 41.8153854, "lon": 12.410952}, {"type": "node", "id": 2525348122, "lat": 41.8154057, "lon": 12.4120333}, {"type": "node", "id": 2525348124, "lat": 41.8154244, "lon": 12.4119179}, {"type": "node", "id": 2525348171, "lat": 41.8156954, "lon": 12.4111446}, {"type": "node", "id": 2525348172, "lat": 41.8156994, "lon": 12.4111198}, {"type": "node", "id": 2525348180, "lat": 41.8157634, "lon": 12.4118343}, {"type": "node", "id": 2525348181, "lat": 41.8157689, "lon": 12.4118004}, {"type": "node", "id": 2525348183, "lat": 41.8157977, "lon": 12.4118088}, {"type": "node", "id": 2525348186, "lat": 41.8158325, "lon": 12.4115941}, {"type": "node", "id": 2525348189, "lat": 41.8158573, "lon": 12.4116013}, {"type": "node", "id": 2525348190, "lat": 41.8158618, "lon": 12.4114111}, {"type": "node", "id": 2525348192, "lat": 41.8158869, "lon": 12.4114185}, {"type": "node", "id": 2936739185, "lat": 41.7137882, "lon": 12.4517695}, {"type": "node", "id": 2936739186, "lat": 41.7135505, "lon": 12.4514936}, {"type": "node", "id": 2936739187, "lat": 41.7132829, "lon": 12.4519074}, {"type": "node", "id": 2936739188, "lat": 41.7135198, "lon": 12.4521823}, {"type": "node", "id": 3180130540, "lat": 41.7134258, "lon": 12.4516864}, {"type": "node", "id": 3180130618, "lat": 41.7136548, "lon": 12.4519781}, {"type": "node", "id": 3248391106, "lat": 41.9583873, "lon": 12.3996099}, {"type": "node", "id": 3248391107, "lat": 41.9586314, "lon": 12.3992587}, {"type": "node", "id": 3248391108, "lat": 41.9587729, "lon": 12.4000947}, {"type": "node", "id": 3248391109, "lat": 41.959017, "lon": 12.3997435}, {"type": "node", "id": 3476234693, "lat": 41.9004038, "lon": 12.427464, "tags": {"addr:city": "Roma", "addr:housenumber": "4/6", "addr:postcode": "00165", "addr:street": "Via Pier delle Vigne", "amenity": "cinema", "name": "Alhambra", "phone": "+39 06 66012154", "wheelchair": "limited", "wheelchair:description": "la sala 1 ha il montacarichi, ma \u00e8 piccolo x le sedie a rotelle motore."}}, {"type": "node", "id": 3588064198, "lat": 41.910818, "lon": 12.4877725, "tags": {"addr:city": "Roma", "addr:housenumber": "1", "addr:street": "Largo Marcello Mastroianni", "entrance": "yes"}}, {"type": "node", "id": 3588064199, "lat": 41.9108211, "lon": 12.4876726}, {"type": "node", "id": 3588064204, "lat": 41.9109963, "lon": 12.487558, "tags": {"entrance": "yes"}}, {"type": "node", "id": 3647220828, "lat": 41.8510194, "lon": 12.4908747}, {"type": "node", "id": 3647220830, "lat": 41.8511502, "lon": 12.4907137}, {"type": "node", "id": 3889651820, "lat": 41.8576523, "lon": 12.5670715, "tags": {"addr:city": "Roma", "addr:housenumber": "63", "addr:street": "Via Publio Valerio", "amenity": "cinema", "name": "Cinema Teatro Don Bosco", "phone": "+39 06 71587612"}}, {"type": "node", "id": 3980678040, "lat": 41.8186478, "lon": 12.4454051}, {"type": "node", "id": 3980678041, "lat": 41.8186761, "lon": 12.4454301}, {"type": "node", "id": 3980678042, "lat": 41.8186768, "lon": 12.4453001}, {"type": "node", "id": 3980678043, "lat": 41.8187066, "lon": 12.4451291}, {"type": "node", "id": 3980678044, "lat": 41.8187156, "lon": 12.4452981}, {"type": "node", "id": 3980678045, "lat": 41.8187253, "lon": 12.4452781}, {"type": "node", "id": 3980678046, "lat": 41.8187417, "lon": 12.4452561}, {"type": "node", "id": 3980678047, "lat": 41.8187551, "lon": 12.4452491}, {"type": "node", "id": 3980678048, "lat": 41.81877, "lon": 12.4454871}, {"type": "node", "id": 3980678049, "lat": 41.8188057, "lon": 12.4450531}, {"type": "node", "id": 3980678050, "lat": 41.8188072, "lon": 12.4449442}, {"type": "node", "id": 3980678051, "lat": 41.8188278, "lon": 12.4455135}, {"type": "node", "id": 3980678052, "lat": 41.818831, "lon": 12.4455545}, {"type": "node", "id": 3980678053, "lat": 41.8188311, "lon": 12.4449202}, {"type": "node", "id": 3980678054, "lat": 41.8188389, "lon": 12.4455715}, {"type": "node", "id": 3980678055, "lat": 41.81886, "lon": 12.4455948}, {"type": "node", "id": 3980678056, "lat": 41.8188895, "lon": 12.4456125}, {"type": "node", "id": 3980678057, "lat": 41.8189153, "lon": 12.4456146}, {"type": "node", "id": 3980678058, "lat": 41.818925, "lon": 12.4449162}, {"type": "node", "id": 3980678059, "lat": 41.8189348, "lon": 12.4456118}, {"type": "node", "id": 3980678060, "lat": 41.8189469, "lon": 12.4456089}, {"type": "node", "id": 3980678061, "lat": 41.8189622, "lon": 12.4455969}, {"type": "node", "id": 3980678062, "lat": 41.8189644, "lon": 12.4451398}, {"type": "node", "id": 3980678063, "lat": 41.8189697, "lon": 12.4449348}, {"type": "node", "id": 3980678064, "lat": 41.8189724, "lon": 12.4451423}, {"type": "node", "id": 3980678065, "lat": 41.8189764, "lon": 12.4455927}, {"type": "node", "id": 3980678066, "lat": 41.8189888, "lon": 12.4455832}, {"type": "node", "id": 3980678067, "lat": 41.8189978, "lon": 12.4455692}, {"type": "node", "id": 3980678068, "lat": 41.819006, "lon": 12.4455482}, {"type": "node", "id": 3980678069, "lat": 41.8190141, "lon": 12.4450343}, {"type": "node", "id": 3980678070, "lat": 41.8190283, "lon": 12.4455422}, {"type": "node", "id": 3980678071, "lat": 41.819032, "lon": 12.4453742}, {"type": "node", "id": 3980678072, "lat": 41.8190343, "lon": 12.4453882}, {"type": "node", "id": 3980678073, "lat": 41.8190454, "lon": 12.4449683}, {"type": "node", "id": 3980678074, "lat": 41.8190477, "lon": 12.4453232}, {"type": "node", "id": 3980678075, "lat": 41.8190685, "lon": 12.4455262}, {"type": "node", "id": 3980678076, "lat": 41.8190693, "lon": 12.4453262}, {"type": "node", "id": 3980678077, "lat": 41.8190924, "lon": 12.4454802}, {"type": "node", "id": 3980678078, "lat": 41.8190998, "lon": 12.4455102}, {"type": "node", "id": 3980678079, "lat": 41.8191475, "lon": 12.4451283}, {"type": "node", "id": 3980678080, "lat": 41.819152, "lon": 12.4453322}, {"type": "node", "id": 3980678081, "lat": 41.8191639, "lon": 12.4450553}, {"type": "node", "id": 3980678082, "lat": 41.8191654, "lon": 12.4453382}, {"type": "node", "id": 3980678083, "lat": 41.8191781, "lon": 12.4454422}, {"type": "node", "id": 3980678084, "lat": 41.819184, "lon": 12.4454202}, {"type": "node", "id": 4257289831, "lat": 41.8038696, "lon": 12.6041789, "tags": {"amenity": "cinema", "name": "Il Piccolissimo"}}, {"type": "node", "id": 4263163054, "lat": 41.7868901, "lon": 12.6688795, "tags": {"addr:city": "Grottaferrata", "addr:housenumber": "82", "addr:postcode": "00046", "addr:street": "Viale Primo Maggio", "amenity": "cinema", "name": "Cinema Alfellini", "phone": "+39 069411664", "website": "http://www.cinemaalfellini.it/alfellini/index.php"}}, {"type": "node", "id": 4644044267, "lat": 41.9264215, "lon": 12.5147436, "tags": {"addr:housenumber": "31", "addr:street": "Via Massaciuccoli", "amenity": "cinema", "entrance": "yes", "name": "Multisala Lux", "phone": "+39 06 86391361"}}, {"type": "node", "id": 4724492648, "lat": 41.9119725, "lon": 12.4754265, "tags": {"amenity": "cinema", "name": "T. D. S. Teatro del Sole Srl"}}, {"type": "node", "id": 5473504103, "lat": 41.8947882, "lon": 12.5045825, "tags": {"amenity": "cinema", "outdoor": "yes", "seasonal": "summer"}}, {"type": "node", "id": 5521093798, "lat": 41.8079333, "lon": 12.6777162, "tags": {"addr:housenumber": "6", "addr:street": "Largo Augusto Panizza", "entrance": "yes"}}, {"type": "node", "id": 5521093799, "lat": 41.8079565, "lon": 12.6777349, "tags": {"addr:housenumber": "6", "addr:street": "Largo Augusto Panizza", "entrance": "yes"}}, {"type": "node", "id": 5521093800, "lat": 41.807907, "lon": 12.6776985, "tags": {"addr:housenumber": "5", "addr:street": "Largo Augusto Panizza", "entrance": "yes"}}, {"type": "node", "id": 6023597888, "lat": 41.8983995, "lon": 12.482186, "tags": {"addr:housenumber": "20", "addr:postcode": "00187", "addr:street": "Via dei Santi Apostoli", "amenity": "cinema", "name": "Time Elevator", "name:it": "Time Elevator"}}, {"type": "node", "id": 6143503366, "lat": 41.929071, "lon": 12.4679184, "tags": {"addr:housenumber": "2", "addr:street": "Via Guido Reni", "amenity": "cinema", "name": "Cinema Tiziano", "name:etymology:wikidata": "Q47551", "phone": "+39 06 323 6588", "website": "https://www.facebook.com/Cinema-Tiziano-sito-ufficiale-159721814065333/", "wheelchair": "yes"}}, {"type": "node", "id": 6153871304, "lat": 41.8849464, "lon": 12.4716375, "tags": {"addr:housenumber": "1", "addr:street": "Via Girolamo Induno", "amenity": "cinema", "name": "Cinema Troisi", "name:etymology:wikidata": "Q53035", "website": "https://cinematroisi.it/"}}, {"type": "node", "id": 6399389247, "lat": 41.9113529, "lon": 12.4872608}, {"type": "node", "id": 6399389248, "lat": 41.9110931, "lon": 12.4873815}, {"type": "node", "id": 6399389254, "lat": 41.9111406, "lon": 12.4871733}, {"type": "node", "id": 6399389261, "lat": 41.9113054, "lon": 12.487469}, {"type": "node", "id": 6513938208, "lat": 41.9584752, "lon": 12.3997204, "tags": {"addr:housenumber": "90", "addr:street": "Via della Lucchina", "entrance": "main"}}, {"type": "node", "id": 6726992581, "lat": 41.9714063, "lon": 12.541205, "tags": {"addr:city": "Roma", "addr:housenumber": "201", "addr:postcode": "00139", "addr:street": "Via Alberto Lionello", "air_conditioning": "yes", "amenity": "cinema", "brand": "UCI Cinemas", "cinema:IMAX": "yes", "layer": "1", "name": "UCI Cinemas", "screen": "14", "website": "https://www.ucicinemas.it/cinema/lazio/roma/uci-cinemas-porta-di-roma-roma/"}}, {"type": "node", "id": 7214132552, "lat": 41.6763338, "lon": 12.496945}, {"type": "node", "id": 7214132553, "lat": 41.676216, "lon": 12.4972398}, {"type": "node", "id": 7214132554, "lat": 41.675989, "lon": 12.4970904}, {"type": "node", "id": 7214132555, "lat": 41.6761045, "lon": 12.4967786}, {"type": "node", "id": 7674590811, "lat": 41.6762645, "lon": 12.4968947}, {"type": "node", "id": 7674590818, "lat": 41.6760524, "lon": 12.4969192, "tags": {"entrance": "main"}}, {"type": "node", "id": 8816323812, "lat": 41.8921527, "lon": 12.468573, "tags": {"addr:city": "Roma", "addr:housenumber": "3", "addr:street": "Vicolo Moroni", "amenity": "cinema", "name": "Cinema Intrastevere"}}, {"type": "node", "id": 9178118666, "lat": 41.8892898, "lon": 12.5265621, "tags": {"amenity": "cinema", "name": "Cinema Avorio", "wikidata": "Q37000265"}}, {"type": "node", "id": 10091745724, "lat": 41.9066414, "lon": 12.5015099, "tags": {"addr:city": "Roma", "addr:housenumber": "101", "addr:postcode": "00185", "addr:street": "Via Montebello", "amenity": "cinema", "name": "Ambasciatori", "phone": "+39 06 4941290"}}, {"type": "node", "id": 10563509087, "lat": 41.8070018, "lon": 12.4862478}, {"type": "node", "id": 10563509163, "lat": 41.8071353, "lon": 12.4867348}, {"type": "node", "id": 10563509164, "lat": 41.8069957, "lon": 12.4867008}, {"type": "node", "id": 10563509165, "lat": 41.8069392, "lon": 12.4866845}, {"type": "node", "id": 10563509166, "lat": 41.8069244, "lon": 12.4867653}, {"type": "node", "id": 10563509167, "lat": 41.8062655, "lon": 12.4865625}, {"type": "node", "id": 10563509168, "lat": 41.8063464, "lon": 12.4860759}, {"type": "node", "id": 10563509169, "lat": 41.8069233, "lon": 12.4862518}, {"type": "node", "id": 10563509170, "lat": 41.8069279, "lon": 12.4862277}, {"type": "node", "id": 10563509171, "lat": 41.807009, "lon": 12.4862496}, {"type": "node", "id": 10563509172, "lat": 41.8071708, "lon": 12.4864319}, {"type": "node", "id": 10563509173, "lat": 41.8071607, "lon": 12.4864497}, {"type": "node", "id": 10563509174, "lat": 41.8071808, "lon": 12.4864703}, {"type": "node", "id": 10563509175, "lat": 41.8071485, "lon": 12.4866618}, {"type": "node", "id": 10563509176, "lat": 41.8071871, "lon": 12.4866745}, {"type": "node", "id": 10563509177, "lat": 41.8071755, "lon": 12.4867419}, {"type": "node", "id": 10563509634, "lat": 41.8062633, "lon": 12.4865647}, {"type": "node", "id": 10563509635, "lat": 41.8063477, "lon": 12.486072}, {"type": "node", "id": 10563509636, "lat": 41.8067328, "lon": 12.4861899}, {"type": "node", "id": 10563509637, "lat": 41.8067198, "lon": 12.4862641}, {"type": "node", "id": 10563509638, "lat": 41.8066874, "lon": 12.4862539}, {"type": "node", "id": 10563509639, "lat": 41.8066631, "lon": 12.4863929}, {"type": "node", "id": 10563509640, "lat": 41.8067006, "lon": 12.4864047}, {"type": "node", "id": 10563509649, "lat": 41.8066878, "lon": 12.4866953}, {"type": "node", "id": 10563509650, "lat": 41.8067068, "lon": 12.4865824}, {"type": "node", "id": 10563509651, "lat": 41.8066727, "lon": 12.4865721}, {"type": "way", "id": 27242290, "nodes": [298981642, 298981643, 298981644, 298981645, 298981642], "tags": {"addr:city": "Guidonia Montecelio", "addr:postcode": "00012", "addr:street": "Via Antonio De Curtis", "amenity": "cinema", "building": "yes", "name": "The Space Cinema Guidonia"}}, {"type": "way", "id": 32659685, "nodes": [2525348033, 2525348049, 2525348051, 2525348105, 2525348095, 2525348122, 2525348124, 2525348115, 367211173, 2525348180, 2525348181, 2525348183, 2525348186, 2525348189, 2525348192, 2525348190, 367211102, 2525348171, 2525348172, 367211106, 367211111, 2525348119, 2525348118, 2525348074, 2525348077, 367211117, 367211122, 367211127, 367211132, 367211136, 2525348043, 2525348042, 2525348041, 367211141, 2525348033], "tags": {"addr:city": "Roma", "addr:housenumber": "3", "addr:postcode": "00148", "addr:street": "Viale Salvatore Rebecchini", "amenity": "cinema", "brand": "The Space Cinema", "brand:wikidata": "Q3989406", "brand:wikipedia": "it:The Space Cinema", "building": "yes", "name": "The Space Cinema", "payment:american_express": "yes", "payment:cash": "yes", "payment:mastercard": "yes", "payment:visa": "yes", "payment:visa_electron": "yes", "screen": "18", "website": "https://www.thespacecinema.it/i-nostri-cinema/roma-parco-de-medici/info-cinema", "wikipedia": "it:The Space Cinema"}}, {"type": "way", "id": 58890871, "nodes": [332961868, 729741148, 3647220830, 729741274, 729741173, 3647220828, 332961868], "tags": {"amenity": "cinema", "building": "cinema", "building:levels": "1", "name": "Cinema Ambassade", "opening_hours": "Mo-Su 15:45-24:00+"}}, {"type": "way", "id": 94720460, "nodes": [1099803109, 1099803090, 1099803114, 1099803124, 1099803109], "tags": {"amenity": "cinema", "building": "yes", "name": "Cinema dei Piccoli", "wikidata": "Q37000332"}}, {"type": "way", "id": 111166275, "nodes": [1267228361, 1267228675, 1267228412, 1267228617, 1267228350, 1267228207, 1267228121, 1267228309, 1267228361], "tags": {"addr:city": "Roma", "addr:housenumber": "99", "addr:postcode": "00181", "addr:street": "Via Muzio Scevola", "amenity": "cinema", "building": "yes", "building:levels": "1", "name": "Trianon", "phone": "+39 06 7858158", "screen": "5"}}, {"type": "way", "id": 143248758, "nodes": [1567603458, 1567603370]}, {"type": "way", "id": 143248767, "nodes": [253710925, 253710926]}, {"type": "way", "id": 143248783, "nodes": [1567603370, 1567603342, 253710925]}, {"type": "way", "id": 143248788, "nodes": [1567603458, 255277494, 253710926]}, {"type": "way", "id": 197242829, "nodes": [2075190114, 5521093800, 5521093798, 5521093799, 2075190122, 2075190127, 2075190121, 2075190120, 2075190114], "tags": {"addr:housenumber": "5", "addr:street": "Largo Augusto Panizza", "amenity": "cinema", "building": "apartments", "building:colour": "red", "building:levels": "8", "name": "Politeama Cityplex", "phone": "+39 06 9760 8149", "roof:shape": "flat", "website": "https://politeama.it/"}}, {"type": "way", "id": 201286882, "nodes": [917758920, 3588064204, 917759447, 2112426713, 3588064198, 2112426690, 2112426692, 2112426681, 3588064199, 2112426676, 2112426685, 917759805, 917758920], "tags": {"amenity": "cinema", "building": "yes", "name": "Casa del Cinema", "tourism": "yes"}}, {"type": "way", "id": 222567495, "nodes": [2315230840, 2315230841, 2315230842, 2315230807, 2315230839, 2315230838, 2315230843, 2315230844, 2315230840], "tags": {"amenity": "cinema", "building": "retail", "building:levels": "1", "name": "Sala delle Provincie d'Essai", "opening_hours:signed": "no", "roof:levels": "0", "roof:shape": "flat"}}, {"type": "way", "id": 222891776, "nodes": [2318352905, 2318352906, 2318352907, 2318352908, 2318352909, 2318352910, 2318352911, 2318352912, 2318352913, 2318352914, 2318352915, 2318352916, 2318352917, 2318352918, 2318352919, 2318352920, 2318352921, 2318352922, 2318352923, 2318352905], "tags": {"addr:city": "Roma", "addr:housename": "Multisala Jolly", "addr:housenumber": "4", "addr:postcode": "00162", "addr:street": "Via Giano della Bella", "amenity": "cinema", "building": "yes", "name": "Multisala Jolly", "website": "http://www.multisalajolly.com"}}, {"type": "way", "id": 290147108, "nodes": [2936739185, 2936739186, 3180130540, 2936739187, 2936739188, 3180130618, 2936739185], "tags": {"amenity": "cinema", "building": "yes", "name": "Volarium", "tourism": "attraction", "website": "https://www.cinecittaworld.it/it/parco/attrazioni/volarium"}}, {"type": "way", "id": 318434482, "nodes": [3248391107, 3248391109, 3248391108, 6513938208, 3248391106, 3248391107], "tags": {"addr:housenumber": "90", "addr:street": "Via della Lucchina", "amenity": "cinema", "building": "yes", "name": "Starplex", "phone": "+39 06 3081 9887", "website": "romaottavia.starplex.it"}}, {"type": "way", "id": 395167011, "nodes": [3980678063, 3980678062, 3980678064, 3980678069, 3980678073, 3980678081, 3980678079, 3980678076, 3980678074, 3980678071, 3980678072, 3980678080, 3980678082, 3980678084, 3980678083, 3980678077, 3980678078, 3980678075, 3980678070, 3980678068, 3980678067, 3980678066, 3980678065, 3980678061, 3980678060, 3980678059, 3980678057, 3980678056, 3980678055, 3980678054, 3980678052, 3980678051, 3980678048, 3980678041, 3980678040, 3980678042, 3980678044, 3980678045, 3980678046, 3980678047, 3980678043, 3980678049, 3980678050, 3980678053, 3980678058, 3980678063], "tags": {"addr:housenumber": "72", "addr:street": "Via di Decima", "amenity": "cinema", "building": "yes", "name": "Stardust Village", "phone": "+39 06 529 1223", "website": "https://stardustvillage.it/"}}, {"type": "way", "id": 683230253, "nodes": [6399389247, 6399389261, 6399389248, 6399389254, 6399389247], "tags": {"amenity": "cinema", "name": "Teatro all'aperto Ettore Scola"}}, {"type": "way", "id": 772708158, "nodes": [7214132552, 7214132553, 7214132554, 7674590818, 7214132555, 7674590811, 7214132552], "tags": {"addr:housenumber": "4", "addr:street": "Via della Motomeccanica", "amenity": "cinema", "building": "yes", "name": "Multiplex Cinema", "website": "http://www.multiplexcinemapomezia.it/"}}, {"type": "way", "id": 1132982024, "nodes": [10563509177, 10563509176, 10563509175, 10563509174, 10563509173, 10563509172, 10563509171, 10563509087, 10563509170, 10563509169, 10563509168, 10563509167, 10563509166, 10563509165, 10563509164, 10563509163, 10563509177], "tags": {"addr:city": "Roma", "addr:postcode": "00143", "addr:street": "Via Laurentina", "amenity": "cinema", "building": "cinema", "indoor": "room", "level": "2", "name": "UCI Luxe"}}, {"type": "way", "id": 1132982092, "nodes": [10563509649, 10563509650, 10563509651, 10563509640, 10563509639, 10563509638, 10563509637, 10563509636, 10563509635, 10563509634, 10563509649], "tags": {"addr:city": "Roma", "addr:postcode": "00143", "addr:street": "Via Laurentina", "amenity": "cinema", "building": "cinema", "indoor": "room", "level": "1", "name": "UCI Luxe"}}, {"type": "relation", "id": 1940222, "members": [{"type": "way", "ref": 143248767, "role": "outer"}, {"type": "way", "ref": 143248783, "role": "outer"}, {"type": "way", "ref": 143248758, "role": "outer"}, {"type": "way", "ref": 143248788, "role": "outer"}], "tags": {"amenity": "cinema", "building": "cinema", "name": "Tibur", "type": "multipolygon"}}]}