{"version": 0.6, "generator": "Overpass API 0.7.60 f4c14d41", "osm3s": {"timestamp_osm_base": "2023-05-02T21:18:20Z", "copyright": "The data included in this document is from www.openstreetmap.org. The data is made available under ODbL."}, "elements": [{"type": "node", "id": 256155025, "lat": 41.871175, "lon": 12.4790787, "tags": {"amenity": "pub", "created_by": "JOSM", "name": "Bar Cornetteria"}}, {"type": "node", "id": 307961799, "lat": 41.8876051, "lon": 12.4771625, "tags": {"addr:city": "Roma", "addr:country": "IT", "addr:housenumber": "31", "addr:postcode": "00153", "addr:street": "Via di Santa Cecilia", "amenity": "pub", "contact:tripadvisor": "https://www.tripadvisor.com/Restaurant_Review-g187791-d11688866-Reviews-404_Name_Not_Found-Rome_Lazio.html", "cuisine": "italian", "internet_access": "wlan", "internet_access:fee": "no", "kids_area": "no", "level": "0", "name": "404 Name Not Found", "opening_hours": "Tu-Th 06:30-23:00; Fr-Su 06:30-25:00", "operator": "SIFE s.r.l.s.", "outdoor_seating": "yes", "phone": "+39 327 094 8005", "ref:vatin": "IT13883021001", "smoking": "no", "toilets": "yes", "toilets:access": "customers", "toilets:wheelchair": "no", "wheelchair": "limited"}}, {"type": "node", "id": 373828266, "lat": 41.945618, "lon": 12.5352074, "tags": {"addr:city": "Roma", "addr:housenumber": "6", "addr:postcode": "00139", "addr:street": "Via dei Monti Lepini", "amenity": "pub", "name": "Batucada"}}, {"type": "node", "id": 394279886, "lat": 41.8809273, "lon": 12.4706688, "tags": {"amenity": "pub", "name": "Fayenas"}}, {"type": "node", "id": 428925940, "lat": 41.9126527, "lon": 12.4434711, "tags": {"amenity": "pub", "name": "Elliot"}}, {"type": "node", "id": 566517017, "lat": 41.8893133, "lon": 12.524452, "tags": {"addr:city": "Roma", "addr:country": "IT", "addr:housenumber": "18", "addr:postcode": "00176", "addr:street": "Via del Pigneto", "amenity": "pub", "loc_name": "eppi auar", "name": "Vini e Olii", "shop": "wine"}}, {"type": "node", "id": 573459313, "lat": 41.8629154, "lon": 12.4899883, "tags": {"addr:housenumber": "3/B", "addr:street": "Via Roberto de Nobili", "amenity": "pub", "name": "Il Tucano", "operator": "Tucano 2000 SNC", "phone": "+39 339 4030804", "ref:vatin": "IT05957801003"}}, {"type": "node", "id": 767939758, "lat": 41.8168719, "lon": 12.4905074, "tags": {"addr:street": "Via Marino Ghetaldi", "amenity": "pub", "name": "8 Pub", "name:it": "8 Pub"}}, {"type": "node", "id": 916548811, "lat": 41.9666518, "lon": 12.4455023, "tags": {"addr:housenumber": "43", "addr:street": "Via Vibio Mariano", "amenity": "pub", "name": "Tennent's Pub", "opening_hours": "Mo-Sa 18:00-02:00", "phone": "+39 06 3326 4609"}}, {"type": "node", "id": 932824988, "lat": 41.8933315, "lon": 12.5110416, "tags": {"addr:city": "Roma", "addr:housenumber": "7a", "addr:street": "Via Pietro Micca", "amenity": "pub", "name": "Micca Club"}}, {"type": "node", "id": 932834430, "lat": 41.8823544, "lon": 12.5154576, "tags": {"addr:city": "Roma", "addr:housenumber": "9", "addr:street": "Via Pinerolo", "amenity": "pub", "name": "Industrie MP2", "phone": "+39 335 7287153"}}, {"type": "node", "id": 945460849, "lat": 41.730053, "lon": 12.2772199, "tags": {"amenity": "pub", "name": "BOA"}}, {"type": "node", "id": 960601630, "lat": 41.8003672, "lon": 12.5980139, "tags": {"amenity": "pub", "name": "DUB'S", "wheelchair": "limited"}}, {"type": "node", "id": 971968063, "lat": 41.9149262, "lon": 12.5608032, "tags": {"addr:city": "Roma", "addr:country": "IT", "addr:housenumber": "812", "addr:street": "Via Tiburtina", "amenity": "pub", "name": "3joli"}}, {"type": "node", "id": 1005384206, "lat": 41.9047348, "lon": 12.4637048, "tags": {"addr:city": "Roma", "addr:country": "IT", "addr:housenumber": "29", "addr:street": "Via Alberico II", "amenity": "pub", "email": "info@theplace.it", "name": "The Place", "phone": "+39 06 68307137", "website": "http://www.theplace.it", "wheelchair": "no"}}, {"type": "node", "id": 1157577755, "lat": 41.9208835, "lon": 12.4601212, "tags": {"addr:city": "Roma", "addr:country": "IT", "addr:housenumber": "36", "addr:street": "Via Euclide Turba", "amenity": "pub", "name": "Down Under", "phone": "+39 06 3701952"}}, {"type": "node", "id": 1234188666, "lat": 41.909346, "lon": 12.4498342, "tags": {"amenity": "pub", "name": "TB&B"}}, {"type": "node", "id": 1253223527, "lat": 41.8962459, "lon": 12.4799884, "tags": {"addr:housenumber": "101/B", "addr:postcode": "00186", "addr:street": "Via del Plebiscito", "amenity": "pub", "brewery": "Guinness", "contact:website": "http://www.scholarsloungerome.com/", "description": "irish pub", "internet_access": "wlan", "name": "Scholars Lounge Irish Pub", "theme": "irish"}}, {"type": "node", "id": 1253979817, "lat": 41.8769694, "lon": 12.4750611, "tags": {"addr:city": "Roma", "addr:country": "IT", "addr:housenumber": "24", "addr:street": "Via Galvani", "amenity": "pub", "name": "Ketumbar", "outdoor_seating": "yes", "phone": "+39  06 57305338", "website": "http://www.ketumbar.it/"}}, {"type": "node", "id": 1293267131, "lat": 41.9074941, "lon": 12.4563347, "tags": {"addr:city": "Roma", "addr:country": "IT", "addr:housenumber": "26", "addr:street": "Via Germanico", "amenity": "pub", "name": "Saxophone Pub", "opening_hours": "Mo-Tu 18:00-02:00; We-Th 17:30-02:00; Fr-Sa 17:30-03:00; Su 18:00-02:00", "operator": "Quattrocci s.r.l.", "phone": "+39 06 39723039"}}, {"type": "node", "id": 1312443019, "lat": 41.8749308, "lon": 12.5202791, "tags": {"addr:housenumber": "45", "addr:street": "Via Gino Capponi", "amenity": "pub", "name": "Blind Pig", "opening_hours": "19:00 - 2:00", "website": "http://www.blindpig.it"}}, {"type": "node", "id": 1358354565, "lat": 41.8729111, "lon": 12.5208841, "tags": {"addr:housenumber": "2", "addr:street": "Piazza Cesare Baronio", "amenity": "pub", "name": "Hopificio", "phone": "+39 06 92597575"}}, {"type": "node", "id": 1514398063, "lat": 41.9975149, "lon": 12.3904538, "tags": {"addr:housenumber": "12", "addr:street": "Via Domenico Falcioni", "addr:unit": "a/b", "amenity": "pub", "name": "Tam O'Shanter", "opening_hours": "Mo-Fr 11:30-02:00; Sa-Su 18:00-02:00", "phone": "+39 06 3089 1236"}}, {"type": "node", "id": 1514424285, "lat": 42.0150181, "lon": 12.3766378, "tags": {"amenity": "pub", "name": "Harrison's Pub", "phone": "+39 06 8982 2118"}}, {"type": "node", "id": 1591520835, "lat": 41.8591253, "lon": 12.4505331, "tags": {"addr:housenumber": "527", "addr:street": "Via Portuense", "amenity": "pub", "cuisine": "pub", "name": "Bodeguita Del Rum", "opening_hours": "Mo-Su 14:00-04:00", "phone": "+39 329 111 1588", "website": "bodeguitadelrum.com"}}, {"type": "node", "id": 1637505502, "lat": 41.8626126, "lon": 12.4898229, "tags": {"addr:city": "Roma", "addr:country": "IT", "addr:housenumber": "5", "addr:street": "Piazza Giovanni da Triora", "amenity": "pub", "name": "La Taverna di Carlotta", "opening_hours": "18:00-2:00, Mo off", "operator": "Die.Pa. s.r.l.", "ref:vatin": "IT10557891008"}}, {"type": "node", "id": 1694694943, "lat": 41.9216587, "lon": 12.5255983, "tags": {"amenity": "pub"}}, {"type": "node", "id": 1697500269, "lat": 41.9161943, "lon": 12.5081664, "tags": {"addr:city": "Roma", "addr:country": "IT", "addr:housenumber": "1", "addr:street": "Vicolo della Fontana", "amenity": "pub", "name": "Foollyk", "opening_hours": "\"By appointment\"", "operator": "Associazione Culturale Villa Paganini", "phone": "+39 06 8546797", "ref:vatin": "IT05099581000"}}, {"type": "node", "id": 1701640645, "lat": 41.9606866, "lon": 12.5367934, "tags": {"addr:housenumber": "6/7", "addr:street": "Largo Fratelli Lumiere", "amenity": "pub", "cuisine": "steak_house;italian_pizza", "name": "Ristorante \"Quelli di Salvatore\"", "website": "www.quellidisalvatore.it"}}, {"type": "node", "id": 1701697720, "lat": 41.9526787, "lon": 12.5481262, "tags": {"amenity": "pub"}}, {"type": "node", "id": 1711542195, "lat": 41.7763744, "lon": 12.3461148, "tags": {"amenity": "pub", "name": "Jack's Pub"}}, {"type": "node", "id": 1716791640, "lat": 41.9093594, "lon": 12.4547717, "tags": {"amenity": "pub", "name": "Stay Rebel"}}, {"type": "node", "id": 1772764791, "lat": 41.9622761, "lon": 12.5186845, "tags": {"amenity": "pub", "name": "ABC"}}, {"type": "node", "id": 1798859081, "lat": 41.8732002, "lon": 12.5260162, "tags": {"addr:city": "Roma", "addr:postcode": "00181", "amenity": "pub", "name": "Pride Pub", "opening_hours": "Closed"}}, {"type": "node", "id": 1919528178, "lat": 41.89224, "lon": 12.5661173, "tags": {"addr:housenumber": "101", "addr:street": "Via dei Ciclamini", "amenity": "pub", "name": "Baraka Bistrot", "opening_hours": "Mo-Sa 19:00-02:00"}}, {"type": "node", "id": 1931825410, "lat": 41.8090983, "lon": 12.6803088, "tags": {"addr:city": "Frascati", "addr:country": "IT", "addr:housenumber": "33", "addr:postcode": "00044", "addr:street": "Via Cernaia", "amenity": "pub", "name": "Spizzicaluna", "wheelchair": "limited"}}, {"type": "node", "id": 1983523038, "lat": 41.8904416, "lon": 12.5266674, "tags": {"addr:city": "Roma", "addr:country": "IT", "addr:housenumber": "58", "addr:street": "Via Macerata", "amenity": "pub", "name": "Razmataz", "note": "position approximative, side of the road is true", "operator": "Metropolis S.n.c.", "phone": "+39 06 99925688", "ref:vatin": "IT11242141007"}}, {"type": "node", "id": 2053202488, "lat": 41.9364153, "lon": 12.4221755, "tags": {"amenity": "pub", "name": "Old Tower"}}, {"type": "node", "id": 2074460376, "lat": 41.9466763, "lon": 12.5338148, "tags": {"amenity": "pub", "name": "CSA Astra 19"}}, {"type": "node", "id": 2135162066, "lat": 41.8916907, "lon": 12.4689935, "tags": {"addr:city": "Roma", "addr:country": "IT", "addr:housenumber": "19", "addr:postcode": "00153", "addr:street": "Via Benedetta", "amenity": "pub", "microbrewery": "yes", "name": "Birreria Trilussa", "phone": "+39 06 5819067", "smoking": "no", "source": "First hand", "website": "www.birreriatrilussa.it", "wheelchair": "yes"}}, {"type": "node", "id": 2231704614, "lat": 41.8602673, "lon": 12.4786643, "tags": {"amenity": "pub", "name": "Angeli Rock", "opening_hours": "24/7"}}, {"type": "node", "id": 2244964954, "lat": 41.9048755, "lon": 12.5044967, "tags": {"addr:city": "Roma", "addr:housenumber": "40", "addr:postcode": "00185", "addr:street": "Via Palestro", "amenity": "pub", "contact:phone": "+39 06 49382682", "contact:website": "http://the-yellow.com/", "name": "The Yellow Bar"}}, {"type": "node", "id": 2274883508, "lat": 41.9008303, "lon": 12.4762727, "tags": {"addr:city": "Roma", "addr:country": "IT", "addr:housenumber": "52", "addr:street": "Piazza delle Coppelle", "amenity": "pub", "name": "Le Coppelle 52", "source": "+39 349 7404620", "website": "http://www.facebook.com/pages/Coppelle52-cocktail-e-wine/142575442456507"}}, {"type": "node", "id": 2299894008, "lat": 41.8404142, "lon": 12.6090178, "tags": {"amenity": "pub", "name": "Caesar's Pub", "wifi": "free"}}, {"type": "node", "id": 2336909331, "lat": 41.893205, "lon": 12.501004, "tags": {"amenity": "pub", "cuisine": "italian", "microbrewery": "no", "name": "Caf\u00e9 Pepe", "takeaway": "yes", "wheelchair": "yes"}}, {"type": "node", "id": 2346585887, "lat": 41.8089489, "lon": 12.6769479, "tags": {"addr:housenumber": "18", "addr:street": "Via San Francesco d'Assisi", "amenity": "pub", "name": "Bronson Vintage Pub", "opening_hours": "Tu-Su 05:30-02:30"}}, {"type": "node", "id": 2428599817, "lat": 41.8887375, "lon": 12.5280458, "tags": {"addr:city": "Roma", "addr:housenumber": "121", "addr:postcode": "00176", "addr:street": "Via del Pigneto", "amenity": "pub", "cuisine": "fast_food", "name": "Spaghetti A Mezzanotte"}}, {"type": "node", "id": 2443622327, "lat": 41.8082142, "lon": 12.6845517}, {"type": "node", "id": 2443622328, "lat": 41.8082077, "lon": 12.6841776}, {"type": "node", "id": 2443622330, "lat": 41.8082769, "lon": 12.6845465}, {"type": "node", "id": 2583779318, "lat": 41.90376, "lon": 12.5349956, "tags": {"amenity": "pub", "name": "Pub+"}}, {"type": "node", "id": 2611558076, "lat": 41.8611028, "lon": 12.605791}, {"type": "node", "id": 2611558077, "lat": 41.8614964, "lon": 12.6060268}, {"type": "node", "id": 2611558079, "lat": 41.8613662, "lon": 12.6066488}, {"type": "node", "id": 2611558080, "lat": 41.8610029, "lon": 12.6065228}, {"type": "node", "id": 2612579219, "lat": 41.863806, "lon": 12.6062501, "tags": {"addr:city": "Roma", "addr:housenumber": "8", "addr:postcode": "00133", "addr:street": "Via Gian Cristoforo Romano", "amenity": "pub", "name": "Il Gatto e la Volpe - Ristopub"}}, {"type": "node", "id": 2652502914, "lat": 41.8099129, "lon": 12.6820123, "tags": {"amenity": "pub", "microbrewery": "yes", "name": "Far Out"}}, {"type": "node", "id": 2663027515, "lat": 41.9011685, "lon": 12.4363226, "tags": {"addr:city": "Roma", "addr:housenumber": "16", "addr:postcode": "00167", "addr:street": "Via Giovan Battista Gandino", "amenity": "pub", "drink": "beer", "name": "Beer Stop"}}, {"type": "node", "id": 2664965220, "lat": 41.889073, "lon": 12.5252091, "tags": {"addr:city": "Roma", "addr:housenumber": "36", "addr:postcode": "00176", "addr:street": "Via del Pigneto", "amenity": "pub", "name": "Malavite", "phone": "+39 06 77200016"}}, {"type": "node", "id": 2689710722, "lat": 41.8833912, "lon": 12.5391328, "tags": {"addr:housenumber": "3", "addr:street": "Via di San Barnaba", "amenity": "pub", "description": "Beershop/Osteria", "internet_access": "wlan", "name": "Hop Corner - birra bistrot", "opening_hours": "Tu-Fr 09:00-23:45; Sa-Su 15:00-23:45; Mo 18:00-23:45", "website": "http://www.hopcorner.com/"}}, {"type": "node", "id": 2712558181, "lat": 41.9214996, "lon": 12.4803374, "tags": {"addr:city": "Roma", "addr:housenumber": "11", "addr:postcode": "00197", "addr:street": "Via Luigi Luciani", "amenity": "pub", "contact:phone": "+39 347 4869685", "drink:beer": "bottled", "name": "Ninkasi Beershop", "shop": "beverages"}}, {"type": "node", "id": 2817589394, "lat": 41.808304, "lon": 12.6841765}, {"type": "node", "id": 2818358459, "lat": 41.891729, "lon": 12.4691779, "tags": {"addr:city": "Roma", "addr:country": "IT", "addr:housenumber": "25", "addr:postcode": "00153", "addr:street": "Via Benedetta", "amenity": "pub", "brewery": "various", "email": "info@football-pub.com", "german_beer": "yes", "internet_access": "wlan", "internet_access:fee": "no", "name": "Ma Che Siete Venuti A F\u00e0", "opening_hours": "Mo-Su 11:00-02:00", "outdoor_seating": "yes", "payment:coins": "yes", "payment:notes": "no", "phone": "+39 3805074938", "smoking": "outside", "takeaway": "yes", "website": "https://www.football-pub.com/"}}, {"type": "node", "id": 2955643337, "lat": 41.8643787, "lon": 12.4732617, "tags": {"addr:city": "Roma", "addr:housenumber": "19", "addr:postcode": "00146", "addr:street": "Via Luca Valerio", "amenity": "pub", "capacity": "50", "cuisine": "english", "name": "Lord Lichfield Pub", "website": "http://www.lordlichfield.it/"}}, {"type": "node", "id": 3115702932, "lat": 41.8793084, "lon": 12.5132699, "tags": {"addr:city": "Roma", "addr:housenumber": "31", "addr:postcode": "00183", "addr:street": "Via Albalonga", "amenity": "pub", "name": "Lattepi\u00f9"}}, {"type": "node", "id": 3190138863, "lat": 41.8606785, "lon": 12.6214346, "tags": {"addr:city": "Roma", "addr:housenumber": "16/F", "addr:postcode": "00133", "addr:street": "Via di Tor Vergata", "amenity": "pub", "name": "Angel's Beer Pub", "phone": "+39 06 20427306"}}, {"type": "node", "id": 3215390961, "lat": 41.87237, "lon": 12.4590583, "tags": {"addr:city": "Roma", "addr:postcode": "84010", "addr:street": "Piazzale Enrico Dunant", "amenity": "pub", "name": "Sott'an treno"}}, {"type": "node", "id": 3631760159, "lat": 41.8775735, "lon": 12.4660827, "tags": {"addr:city": "Roma", "addr:housenumber": "4", "addr:postcode": "00153", "addr:street": "Via Federico Rosazza", "amenity": "pub", "name": "Birrifugio", "opening_hours": "Mo-Su 19:30-02:00", "source": "local knowledge", "website": "http://www.birrifugio.com"}}, {"type": "node", "id": 3635012136, "lat": 41.8569768, "lon": 12.5600984, "tags": {"addr:city": "Roma", "addr:housenumber": "23", "addr:postcode": "00174", "addr:street": "Via Curzio Rufo", "amenity": "pub", "name": "Irish Pub Il Punto", "phone": "+39 06 71544971", "source": "local knowledge", "website": "http://www.irishpubilpunto.it"}}, {"type": "node", "id": 3635012223, "lat": 41.8515022, "lon": 12.5628562, "tags": {"addr:city": "Roma", "addr:housenumber": "115", "addr:postcode": "00174", "addr:street": "Via Caio Canuleio", "amenity": "pub", "cuisine": "pizza;crepe;coffee_shop;hot_dog;burger;sandwich", "name": "Birreria Capo Verde", "opening_hours": "Mo-Su 19:00-02:00", "smoking": "isolated", "source": "local knowledge"}}, {"type": "node", "id": 3650375591, "lat": 41.9495154, "lon": 12.5486846, "tags": {"addr:city": "Roma", "addr:housenumber": "182", "addr:postcode": "00137", "addr:street": "Via Luigi Capuana", "amenity": "pub", "name": "Shelter Music Club", "opening_hours": "19:00-02:00", "phone": "+39 06 8680 2222"}}, {"type": "node", "id": 3661045994, "lat": 41.930009, "lon": 12.5238458, "tags": {"addr:city": "Roma", "addr:housenumber": "190", "addr:postcode": "00199", "addr:street": "Via Tripolitania", "amenity": "pub", "name": "Devil's chair", "phone": "+39 06 83607737"}}, {"type": "node", "id": 3661067950, "lat": 41.9288577, "lon": 12.5178046, "tags": {"amenity": "pub"}}, {"type": "node", "id": 3670898299, "lat": 41.8603713, "lon": 12.5541145, "tags": {"addr:city": "Roma", "addr:country": "IT", "addr:housenumber": "24", "addr:street": "Via del Quadraro", "amenity": "pub", "email": "info@nottinghamroma.it", "name": "Nottingham", "opening_hours": "Mo-Su 19:30-01:30", "phone": "+39 06 764464", "website": "http://nottinghamroma.it/"}}, {"type": "node", "id": 3736269126, "lat": 41.8824916, "lon": 12.4566223, "tags": {"addr:city": "Roma", "addr:housenumber": "54/56", "addr:street": "Viale di Villa Pamphili", "amenity": "pub", "name": "Finn Pub"}}, {"type": "node", "id": 3828478347, "lat": 41.835755, "lon": 12.5068329, "tags": {"addr:city": "Roma", "addr:housenumber": "141", "addr:postcode": "00142", "addr:street": "Via Tazio Nuvolari", "amenity": "pub", "billiards:pool": "8", "billiards:snooker": "1", "leisure": "pinch", "name": "Club 70", "opening_hours": "Mo-Su 09:00-02:00", "phone": "+39 06 5042700", "smoking": "outside", "sport": "billiards"}}, {"type": "node", "id": 3845021090, "lat": 42.0349142, "lon": 12.3102609}, {"type": "node", "id": 3845021091, "lat": 42.0350393, "lon": 12.3103793}, {"type": "node", "id": 3845021092, "lat": 42.0348625, "lon": 12.3107176}, {"type": "node", "id": 3845021093, "lat": 42.0347375, "lon": 12.3105991}, {"type": "node", "id": 3878028940, "lat": 41.8988574, "lon": 12.496925, "tags": {"addr:city": "Roma", "addr:housenumber": "1", "addr:postcode": "00185", "addr:street": "Piazza dell'Esquilino", "amenity": "pub", "disused": "yes", "email": "thedruidspub@yahoo.it", "name": "Druid's Rock Irish Pub", "note": "CHIUSO DEFINITIVAMENTE", "opening_hours": "Mo-Su 12:00-02:00", "phone": "+39 06 4741326", "smoking": "no", "theme": "irish", "website": "http://druidspubrome.com/druids_rock/index.htm"}}, {"type": "node", "id": 3900276688, "lat": 41.8611392, "lon": 12.5535079, "tags": {"addr:city": "Roma", "addr:country": "IT", "addr:housenumber": "12F", "addr:street": "Via dei Fontej", "amenity": "pub", "email": "info@drunkroma.it", "name": "drunk", "phone": "+39 329 0776005", "website": "http://www.drunkroma.it/"}}, {"type": "node", "id": 4071571707, "lat": 41.7266077, "lon": 12.2907365, "tags": {"addr:housenumber": "8", "addr:postcode": "00122", "addr:street": "Piazza Sagona", "amenity": "pub", "name": "Guinness Caf\u00e8"}}, {"type": "node", "id": 4086833684, "lat": 41.8883969, "lon": 12.4780945, "tags": {"addr:city": "Roma", "addr:housenumber": "16", "addr:postcode": "00153", "addr:street": "Via dei Vascellari", "amenity": "pub", "name": "The Hole", "website": "https://www.facebook.com/The-Hole-Trastevere-141126852915526/"}}, {"type": "node", "id": 4092329392, "lat": 41.7303382, "lon": 12.274968, "tags": {"amenity": "pub", "name": "Osteria toscanelli"}}, {"type": "node", "id": 4129650068, "lat": 41.855725, "lon": 12.5563422, "tags": {"addr:city": "Roma", "addr:country": "IT", "addr:housenumber": "35", "addr:street": "Via Fabrizio Luscino", "amenity": "pub", "name": "ZenZero", "opening_hours": "Tu-Su 12:30-14:30,18:00-23:00", "phone": "+39 327 662 0013", "website": "http://www.zenzeroroma.it/"}}, {"type": "node", "id": 4219409996, "lat": 41.9435832, "lon": 12.5171444, "tags": {"addr:city": "Roma", "addr:housenumber": "106", "addr:postcode": "00141", "addr:street": "Via Val Maggia", "amenity": "pub", "name": "Monkeys Island", "ref:vatin": "IT12126591002"}}, {"type": "node", "id": 4269914159, "lat": 41.7722886, "lon": 12.6124268}, {"type": "node", "id": 4269914168, "lat": 41.7723529, "lon": 12.6123369}, {"type": "node", "id": 4269914173, "lat": 41.772378, "lon": 12.6123019}, {"type": "node", "id": 4269914182, "lat": 41.7724319, "lon": 12.6126111}, {"type": "node", "id": 4269914184, "lat": 41.7724792, "lon": 12.6125047}, {"type": "node", "id": 4269914185, "lat": 41.7724942, "lon": 12.6125241}, {"type": "node", "id": 4269914186, "lat": 41.7724997, "lon": 12.6121318}, {"type": "node", "id": 4269914187, "lat": 41.7725301, "lon": 12.6123128}, {"type": "node", "id": 4269914389, "lat": 41.7725751, "lon": 12.6123706}, {"type": "node", "id": 4269914390, "lat": 41.7725829, "lon": 12.6122388}, {"type": "node", "id": 4367948894, "lat": 41.8917617, "lon": 12.4929546, "tags": {"addr:housenumber": "80", "addr:postcode": "00184", "addr:street": "Via delle Terme di Tito", "amenity": "pub", "brand": "BrewDog", "brand:wikidata": "Q911367", "brand:wikipedia": "en:BrewDog", "name": "BrewDog Roma", "name:en": "BrewDog Rome", "name:it": "BrewDog Roma", "opening_hours": "Su-Th 12:00-01:00; Fr-Sa 12 : 00-02 : 00"}}, {"type": "node", "id": 4392873448, "lat": 41.8636471, "lon": 12.5529982, "tags": {"amenity": "pub", "email": "Info@Barleywine.it", "name": "Barley Wine", "opening_hours": "Mo-Su 18:30-01:30", "phone": "+39 06 45687489", "website": "http://www.barleywine.it/"}}, {"type": "node", "id": 4406959030, "lat": 41.8091889, "lon": 12.6795591, "tags": {"amenity": "pub", "name": "Ricky's"}}, {"type": "node", "id": 4406959031, "lat": 41.8092552, "lon": 12.6792506, "tags": {"amenity": "pub"}}, {"type": "node", "id": 4406959034, "lat": 41.8094451, "lon": 12.6792237, "tags": {"addr:housenumber": "4", "addr:street": "Piazza San Rocco", "amenity": "pub", "cuisine": "local", "name": "Cantina Simonetti", "name:it": "Cantina Simonetti"}}, {"type": "node", "id": 4406959035, "lat": 41.8095535, "lon": 12.679132, "tags": {"amenity": "pub"}}, {"type": "node", "id": 4407045147, "lat": 41.8090634, "lon": 12.6817642, "tags": {"amenity": "pub"}}, {"type": "node", "id": 4407056112, "lat": 41.8096443, "lon": 12.6780387, "tags": {"amenity": "pub"}}, {"type": "node", "id": 4407069595, "lat": 41.8054575, "lon": 12.675423, "tags": {"amenity": "pub", "name": "Tarbert", "outdoor_seating": "yes"}}, {"type": "node", "id": 4407796010, "lat": 41.8067353, "lon": 12.6801697, "tags": {"amenity": "pub"}}, {"type": "node", "id": 4408108989, "lat": 41.808416, "lon": 12.6796607, "tags": {"amenity": "pub", "name": "Jonathan"}}, {"type": "node", "id": 4413193895, "lat": 41.8078522, "lon": 12.6757331, "tags": {"amenity": "pub"}}, {"type": "node", "id": 4419393051, "lat": 41.8887158, "lon": 12.5339312, "tags": {"addr:city": "Roma", "addr:country": "IT", "addr:housenumber": "172;174", "addr:postcode": "00176", "addr:street": "Via Gentile da Mogliano", "amenity": "pub", "description": "Wine/Beer/Coffee", "internet_access": "wlan", "name": "Caff\u00e8 Sospeso", "opening_hours": "Sa-Mo 15:00-01:00; tu-fr 11:00-01:00", "outdoor_seating": "no", "phone": "+39 06 83760933", "pub:type": "wine_bar", "website": "https://www.facebook.com/Caff%C3%A8-Sospeso-430526853806720/", "wheelchair": "no"}}, {"type": "node", "id": 4439097392, "lat": 41.8789149, "lon": 12.4685983, "tags": {"addr:housenumber": "82", "addr:street": "Via Portuense", "amenity": "pub", "name": "Brasserie 4:20", "opening_hours": "Mo-We 19:00-02:00; Th 18:00-03:00; Fr 18:00-04:00; Sa 18:00-03:00; Su 20:00-02:00", "phone": "+39 06 58310737", "website": "http://brasserie420.com"}}, {"type": "node", "id": 4455036146, "lat": 41.8963129, "lon": 12.4972782, "tags": {"addr:city": "Roma", "addr:housenumber": "43", "addr:postcode": "00184", "addr:street": "Via dell'Olmata", "amenity": "pub", "name": "Fiddler's Elbow", "opening_hours": "Mo-Fr 17:00-02:00; Sa-Su 15:00-02:00", "phone": "+39 06 4872110", "start_date": "1976", "website": "https://thefiddlerselbow.wordpress.com"}}, {"type": "node", "id": 4464466201, "lat": 41.8982817, "lon": 12.4705855, "tags": {"amenity": "pub", "name": "Abbey Theater", "name:it": "Abbey Theater", "wheelchair": "limited"}}, {"type": "node", "id": 4476904129, "lat": 41.7207424, "lon": 12.303944}, {"type": "node", "id": 4476904130, "lat": 41.7207353, "lon": 12.3040654}, {"type": "node", "id": 4476904131, "lat": 41.721016, "lon": 12.3040948}, {"type": "node", "id": 4476904132, "lat": 41.7210237, "lon": 12.3039629}, {"type": "node", "id": 4476904133, "lat": 41.7209751, "lon": 12.3039578}, {"type": "node", "id": 4476904134, "lat": 41.7209777, "lon": 12.3039123}, {"type": "node", "id": 4476904135, "lat": 41.720902, "lon": 12.3039044}, {"type": "node", "id": 4476904136, "lat": 41.7208987, "lon": 12.3039603}, {"type": "node", "id": 4498214009, "lat": 41.9005158, "lon": 12.5368627, "tags": {"addr:city": "Roma", "addr:housenumber": "106", "addr:postcode": "00159", "addr:street": "Via di Portonaccio", "amenity": "pub", "name": "Ruins Pub"}}, {"type": "node", "id": 4558788241, "lat": 42.0831158, "lon": 12.2739099, "tags": {"addr:city": "Anguillara Sabazia", "addr:housenumber": "796", "addr:postcode": "00061", "addr:street": "Via di San Francesco", "amenity": "pub", "name": "CamelotCaf\u00e8", "phone": "+39 06 999 6605"}}, {"type": "node", "id": 4583832018, "lat": 41.8058846, "lon": 12.6235452}, {"type": "node", "id": 4583832019, "lat": 41.8058366, "lon": 12.6233401}, {"type": "node", "id": 4583832020, "lat": 41.8057323, "lon": 12.623384}, {"type": "node", "id": 4583832021, "lat": 41.8056184, "lon": 12.6233866}, {"type": "node", "id": 4583832022, "lat": 41.8054242, "lon": 12.6234901}, {"type": "node", "id": 4583832023, "lat": 41.8053786, "lon": 12.6233358}, {"type": "node", "id": 4583832024, "lat": 41.8051456, "lon": 12.6234599}, {"type": "node", "id": 4583832025, "lat": 41.8052388, "lon": 12.6237748}, {"type": "node", "id": 4583832026, "lat": 41.8056654, "lon": 12.6235476}, {"type": "node", "id": 4583832027, "lat": 41.8057663, "lon": 12.6235462}, {"type": "node", "id": 4583832028, "lat": 41.8057966, "lon": 12.6235335}, {"type": "node", "id": 4583832029, "lat": 41.805807, "lon": 12.6235779}, {"type": "node", "id": 4644258945, "lat": 41.8911016, "lon": 12.5313104, "tags": {"addr:city": "Roma", "addr:housenumber": "16", "addr:postcode": "00176", "addr:street": "Via Ettore Giovenale", "amenity": "pub", "cuisine": "regional", "description:it": "Bistro/Latteria/Gastronomia", "internet_access": "wlan", "name": "Zazie nel metro", "opening_hours": "Mo-Su 08:00-02:00", "operator": "Zazie Soc.Coop arl", "outdoor_seating": "no", "ref:vatin": "IT13909521000", "toilets:wheelchair": "yes", "website": "https://www.facebook.com/zazienelmetropigneto/", "wheelchair": "yes"}}, {"type": "node", "id": 4656387042, "lat": 41.8628803, "lon": 12.4578232, "tags": {"addr:housenumber": "63-65", "addr:postcode": "00149", "addr:street": "Via Gaetano Astolfi", "amenity": "pub", "live_music": "yes", "name": "Boogie Club", "opening_hours": "Tu-Sa 19:30-02:00; Su 19:30-00:00", "phone": "+39 06 4542 4494", "website": "boogieclub.it"}}, {"type": "node", "id": 4660258385, "lat": 41.892573, "lon": 12.5426683, "tags": {"addr:housenumber": "250", "addr:street": "Via Prenestina", "amenity": "pub", "name": "Arancina Matta", "phone": "+390688939091"}}, {"type": "node", "id": 4663829191, "lat": 41.7255593, "lon": 12.6169891, "tags": {"addr:housenumber": "1", "addr:street": "Via Tiziano", "amenity": "pub", "name": "Cross Road Pub Bowling", "phone": "+39 0683547648", "sport": "10pin", "website": "https://cross-road-bowling-pub.business.site/"}}, {"type": "node", "id": 4691352906, "lat": 41.8593874, "lon": 12.4570438, "tags": {"addr:city": "Roma", "addr:housenumber": "16", "addr:street": "Piazza Piero Puricelli", "amenity": "pub", "name": "Fermento Portuense"}}, {"type": "node", "id": 4718341809, "lat": 41.798191, "lon": 12.6827384}, {"type": "node", "id": 4718341810, "lat": 41.7977025, "lon": 12.6827454}, {"type": "node", "id": 4718341811, "lat": 41.7977644, "lon": 12.6828848}, {"type": "node", "id": 4718341812, "lat": 41.7982382, "lon": 12.6829344}, {"type": "node", "id": 4732206230, "lat": 41.7714819, "lon": 12.7007321}, {"type": "node", "id": 4732206231, "lat": 41.7714296, "lon": 12.7006805}, {"type": "node", "id": 4732206232, "lat": 41.7714015, "lon": 12.7007316}, {"type": "node", "id": 4732206233, "lat": 41.7713083, "lon": 12.7006396}, {"type": "node", "id": 4732206234, "lat": 41.7714315, "lon": 12.7004151}, {"type": "node", "id": 4732206235, "lat": 41.7714986, "lon": 12.7004813}, {"type": "node", "id": 4732206236, "lat": 41.7714859, "lon": 12.7005045}, {"type": "node", "id": 4733710159, "lat": 41.8947342, "lon": 12.4919419, "tags": {"addr:housenumber": "66;67", "addr:postcode": "00186", "addr:street": "Via Leonina", "amenity": "pub", "name": "Finnegan Irish Pub", "operator": "Il Trifoglio SaS. di Zecchino Fabio & C.", "phone": "+39 06 4747026", "ref:vatin": "IT05268961009", "restaurant:type:it": "irish_pub", "theme": "irish", "website": "http://www.finneganpub.com/"}}, {"type": "node", "id": 4816266911, "lat": 41.8095575, "lon": 12.5928681, "tags": {"amenity": "pub", "name": "King Arthur", "outdoor_seating": "yes", "smoking": "outside"}}, {"type": "node", "id": 4861130524, "lat": 41.8995636, "lon": 12.4999602, "tags": {"addr:city": "Roma", "addr:housenumber": "16/b", "addr:postcode": "00185", "addr:street": "Via Daniele Manin", "amenity": "pub", "contact:facebook": "https://www.facebook.com/Imperium-pub-362426901059228/", "name": "Imperium Irish Pub", "opening_hours": "Mo-Su 19:00-04:00", "outdoor_seating": "yes", "phone": "+39 06 481 8316", "wheelchair": "no"}}, {"type": "node", "id": 4866660152, "lat": 41.7703768, "lon": 12.6765947}, {"type": "node", "id": 4866660153, "lat": 41.7705657, "lon": 12.6766615}, {"type": "node", "id": 4866660154, "lat": 41.7706166, "lon": 12.6764023}, {"type": "node", "id": 4866660155, "lat": 41.7704277, "lon": 12.6763356}, {"type": "node", "id": 4937123322, "lat": 41.7715643, "lon": 12.7005819}, {"type": "node", "id": 4982670756, "lat": 41.8996005, "lon": 12.451654, "tags": {"amenity": "pub"}}, {"type": "node", "id": 4990787822, "lat": 41.8876618, "lon": 12.5312058, "tags": {"addr:city": "Roma", "addr:housenumber": "112", "addr:postcode": "00176", "addr:street": "Via del Pigneto", "amenity": "pub", "name": "British Corner"}}, {"type": "node", "id": 5046596464, "lat": 41.9058988, "lon": 12.4724413, "tags": {"addr:housenumber": "44", "addr:street": "Via Marianna Dionigi", "amenity": "pub", "email": "thenaughtymonkey2015@gmail.com", "fixme": "position", "name": "The Naughty Monkey", "phone": "+39392 735 4924", "website": "https://www.facebook.com/The-Naughty-Monkey-1494387420848997/"}}, {"type": "node", "id": 5076200372, "lat": 41.8605524, "lon": 12.4786965, "tags": {"addr:housenumber": "181", "addr:street": "Via Ostiense", "amenity": "pub", "name": "Verde Pistacchio", "phone": "+39 06 45475965", "restaurant:type:it": "bistrot"}}, {"type": "node", "id": 5138689354, "lat": 41.9128069, "lon": 12.5211072, "tags": {"addr:housenumber": "8/9", "addr:street": "Piazza Bologna", "amenity": "pub", "cuisine": "japanese", "name": "Il Bancone", "opening_hours": "Mo-Tu,Su 18:00-01:00; We-Sa 18:00-02:00", "outdoor_seating": "yes", "smoking": "outside", "wheelchair": "limited"}}, {"type": "node", "id": 5197715531, "lat": 41.7119448, "lon": 12.3253883, "tags": {"addr:housenumber": "22", "addr:postcode": "00122", "addr:street": "Via Litoranea", "amenity": "pub", "email": "ilclown.pub@tiacalinet.it", "name": "Il Clown", "phone": "+39 06 56470486"}}, {"type": "node", "id": 5242390714, "lat": 41.9926962, "lon": 12.5079609, "tags": {"amenity": "pub", "name": "Undergra Music Club"}}, {"type": "node", "id": 5247115754, "lat": 41.875264, "lon": 12.4763424, "tags": {"addr:city": "Roma", "addr:housenumber": "65", "addr:postcode": "00153", "addr:street": "Via di Monte Testaccio", "amenity": "pub", "contact:facebook": "https://www.facebook.com/contestaccio/", "live_music": "yes", "name": "Conte Staccio", "opening_hours": "We-Sa 19:00-04:00", "phone": "+39 06 57289712", "takeaway": "no"}}, {"type": "node", "id": 5266242391, "lat": 41.854873, "lon": 12.557583, "tags": {"addr:city": "Roma", "addr:country": "IT", "addr:housenumber": "82", "addr:postcode": "00174", "addr:street": "Via Fabrizio Luscino", "amenity": "pub", "name": "Babylon Caf\u00e9", "phone": "+39 06 8660 8736", "website": "https://www.facebook.com/BabylonFabrizioLuscino"}}, {"type": "node", "id": 5275068358, "lat": 41.8634822, "lon": 12.4838697, "tags": {"addr:city": "Roma", "addr:housenumber": "2", "addr:postcode": "00154", "addr:street": "Via Luigi Fincati", "amenity": "pub", "name": "Why not pub", "start_date": "2016", "wheelchair": "yes"}}, {"type": "node", "id": 5313671765, "lat": 41.8152393, "lon": 12.4120915, "tags": {"amenity": "pub", "name": "Beerland"}}, {"type": "node", "id": 5317130743, "lat": 41.9881032, "lon": 12.4109237}, {"type": "node", "id": 5317130744, "lat": 41.988043, "lon": 12.4110844}, {"type": "node", "id": 5317130745, "lat": 41.9877959, "lon": 12.4109167}, {"type": "node", "id": 5317130746, "lat": 41.9878561, "lon": 12.4107561}, {"type": "node", "id": 5323482011, "lat": 41.8761242, "lon": 12.4739511, "tags": {"addr:city": "Roma", "addr:housenumber": "33", "addr:postcode": "00153", "addr:street": "Via di Monte Testaccio", "amenity": "pub", "live_music": "yes", "name": "Trentatr\u00e9 Testaccio", "outdoor_seating": "no", "smoking": "outside"}}, {"type": "node", "id": 5336733133, "lat": 41.88068, "lon": 12.5074111, "tags": {"addr:housenumber": "8", "addr:street": "Via Cereate", "amenity": "pub", "name": "La Civetta sul Com\u00f2", "opening_hours": "Mo-Th 20:00-01:00; Fr-Sa 20:00-02:00", "phone": "+39 06 700 3752", "website": "asscivetta.it"}}, {"type": "node", "id": 5338606931, "lat": 41.8853439, "lon": 12.5179489, "tags": {"addr:housenumber": "21", "addr:street": "Via Terni", "amenity": "pub", "cuisine": "burger", "name": "La leggenda di Avalon", "opening_hours": "Mo-Su 17:00-02:00", "phone": "+39 06 701 5755", "website": "leggendadiavalonroma.it"}}, {"type": "node", "id": 5350706874, "lat": 41.8877266, "lon": 12.5297552, "tags": {"addr:city": "Roma", "addr:housenumber": "9", "addr:postcode": "00176", "addr:street": "Via Attilio Mori", "amenity": "pub", "name": "Tam Tam", "phone": "+39 06 21704310"}}, {"type": "node", "id": 5369862214, "lat": 41.9186508, "lon": 12.56475}, {"type": "node", "id": 5369862215, "lat": 41.9187232, "lon": 12.5648324}, {"type": "node", "id": 5369862216, "lat": 41.9184891, "lon": 12.5651295}, {"type": "node", "id": 5369862217, "lat": 41.9184562, "lon": 12.5651127}, {"type": "node", "id": 5369862218, "lat": 41.9184223, "lon": 12.5650302}, {"type": "node", "id": 5369862219, "lat": 41.9183829, "lon": 12.5649431}, {"type": "node", "id": 5369862220, "lat": 41.9183719, "lon": 12.5649149}, {"type": "node", "id": 5369862221, "lat": 41.9185675, "lon": 12.5646849}, {"type": "node", "id": 5405088050, "lat": 41.8633381, "lon": 12.5599199, "tags": {"addr:housenumber": "108", "addr:street": "Via Ponzio Cominio", "amenity": "pub", "name": "Le Due Torri", "opening_hours": "Mo-Th 20:00-01:00; Fr-Sa 20:00-02:00; Su 20:00-01:00"}}, {"type": "node", "id": 5405132851, "lat": 41.8800193, "lon": 12.5141286, "tags": {"addr:housenumber": "17", "addr:street": "Via Domodossola", "amenity": "pub", "name": "La Carrozzeria", "opening_hours": "Mo-Su 18:00-02:00", "phone": "+39 06 708 0010"}}, {"type": "node", "id": 5414168653, "lat": 41.8354738, "lon": 12.5063915, "tags": {"addr:housenumber": "165", "addr:street": "Via Tazio Nuvolari", "amenity": "pub", "name": "Gordon Bennet", "opening_hours": "Tu-Su 19:00-01:00", "phone": "+39 06 5195 7868", "website": "https://gordonbennett.it/"}}, {"type": "node", "id": 5435192116, "lat": 41.9092235, "lon": 12.5245505, "tags": {"addr:housenumber": "3", "addr:street": "Via Arduino", "amenity": "pub", "name": "Ave Birra"}}, {"type": "node", "id": 5469139278, "lat": 41.807682, "lon": 12.5217622}, {"type": "node", "id": 5469139279, "lat": 41.8077548, "lon": 12.5219209}, {"type": "node", "id": 5469139280, "lat": 41.8077052, "lon": 12.5219619}, {"type": "node", "id": 5469139281, "lat": 41.8077252, "lon": 12.5220055}, {"type": "node", "id": 5469139282, "lat": 41.8074752, "lon": 12.522212}, {"type": "node", "id": 5469139283, "lat": 41.8074039, "lon": 12.5220565}, {"type": "node", "id": 5469139284, "lat": 41.8074528, "lon": 12.5220161}, {"type": "node", "id": 5469139285, "lat": 41.8074314, "lon": 12.5219693}, {"type": "node", "id": 5469315722, "lat": 41.8995362, "lon": 12.4706567, "tags": {"amenity": "pub", "name": "La Saletta Pub Karaoke"}}, {"type": "node", "id": 5495889621, "lat": 41.8794881, "lon": 12.4852824, "tags": {"amenity": "pub", "name": "Queen Makeda", "name:en": "Qeen Makeda Grand Pub", "opening_hours": "Mo-Su 12:00-01:00"}}, {"type": "node", "id": 5506371670, "lat": 41.8932281, "lon": 12.4889243, "tags": {"addr:city": "Roma", "addr:housenumber": "1", "addr:postcode": "00184", "addr:street": "Via del Colosseo", "addr:unit": "c", "amenity": "pub", "brewery": "yes", "email": "info@shamrockpubroma.it", "name": "Shamrock Pub Roma", "opening_hours": "Mo-Su 12:00-02:00", "operator": "SHAMROCK SAS di Alessandro Corbellini e C.", "phone": "+39 06 679 1729", "ref:vatin": "IT05595481002", "website": "https://www.shamrockpubroma.it/"}}, {"type": "node", "id": 5521093804, "lat": 41.8080986, "lon": 12.6771329, "tags": {"addr:housenumber": "11", "addr:street": "Via Principe Amedeo", "amenity": "pub", "name": "Thayma", "phone": "+39 06 9401 0175"}}, {"type": "node", "id": 5537970223, "lat": 41.9493793, "lon": 12.5407976, "tags": {"addr:housenumber": "131", "addr:postcode": "00139", "addr:street": "Via della Bufalotta", "amenity": "pub", "name": "Route 66 American Bistrot & Bar"}}, {"type": "node", "id": 5552446179, "lat": 41.9067043, "lon": 12.456555, "tags": {"addr:housenumber": "2", "addr:street": "Via Vespasiano", "amenity": "pub", "name": "Be.Re.", "opening_hours": "Mo-Su 11:00-02:00", "phone": "+39 06 9442 1854", "website": "be-re.eu", "wheelchair": "no"}}, {"type": "node", "id": 5597406207, "lat": 41.851076, "lon": 12.4021464, "tags": {"amenity": "pub", "cuisine": "american", "microbrewery": "yes", "name": "Eternal City Brewing", "website": "https://www.eternalcitybrewing.it/"}}, {"type": "node", "id": 5598305549, "lat": 41.8783099, "lon": 12.468101, "tags": {"addr:housenumber": "94", "addr:street": "Via Portuense", "amenity": "pub", "name": "Lochness Pub", "opening_hours": "Mo-Su 18:00-02:00", "phone": "+39 06 9761 0458"}}, {"type": "node", "id": 5598361509, "lat": 41.8709913, "lon": 12.4485407, "tags": {"addr:housenumber": "98", "addr:street": "Via di Monteverde", "amenity": "pub", "name": "The Club 98", "opening_hours": "Mo-Su 17:30-04:00", "phone": "+39 333 207 5540", "website": "theclub98.it"}}, {"type": "node", "id": 5645453393, "lat": 41.9274385, "lon": 12.5111533, "tags": {"addr:housenumber": "86", "addr:street": "Via Nemorense", "addr:unit": "c/d", "amenity": "pub", "name": "Limerick Pub", "opening_hours": "Tu 00:00-01:30, 18:30-01:30; We-Th 18:30-01:30; Fr-Sa 18:30-02:00; Su 19:00-00:00", "phone": "+39 338 364 3765"}}, {"type": "node", "id": 5645460201, "lat": 41.8971761, "lon": 12.4552375, "tags": {"addr:housenumber": "22", "addr:street": "Via della Stazione di San Pietro", "amenity": "pub", "name": "Er Dopolavoro", "opening_hours": "Mo-Sa 12:00-14:00, 18:00-03:00; Su 18:00-03:00"}}, {"type": "node", "id": 5687920026, "lat": 41.818198, "lon": 12.4935833, "tags": {"addr:city": "Roma", "addr:housenumber": "35", "addr:postcode": "00143", "addr:street": "Via Vitaliano Brunelli", "amenity": "pub", "name": "Indian Club"}}, {"type": "node", "id": 5693912101, "lat": 41.8976239, "lon": 12.5143676, "tags": {"addr:housenumber": "77", "addr:street": "Via dei Volsci", "addr:unit": "a", "amenity": "pub", "name": "Lancelot", "opening_hours": "Mo-Su 18:30-02:00", "phone": "+39 06 445 4675"}}, {"type": "node", "id": 5723719833, "lat": 41.8830625, "lon": 12.5080355, "tags": {"addr:city": "Roma", "addr:housenumber": "54", "addr:postcode": "00183", "addr:street": "Via Veio", "amenity": "pub", "name": "Rock Side Pub"}}, {"type": "node", "id": 5730113518, "lat": 41.9373259, "lon": 12.4667183, "tags": {"addr:housenumber": "40-42", "addr:street": "Piazzale di Ponte Milvio", "amenity": "pub", "name": "Roma Beer Company - Ponte Milvio", "opening_hours": "Mo-Sa 10:00-03:00; Su 10:00-00:00", "phone": "+39 06 333 7048", "website": "romabeercompany.it"}}, {"type": "node", "id": 5750258733, "lat": 41.7684806, "lon": 12.6628688, "tags": {"addr:housenumber": "7", "addr:street": "Via Carlo Battisti", "amenity": "pub", "name": "Finnegan's Pub", "opening_hours": "Mo-Su 20:00-02:00", "phone": "+39 06 936 7592", "website": "finneganspub.it"}}, {"type": "node", "id": 5813001253, "lat": 41.8728133, "lon": 12.5316249, "tags": {"amenity": "pub", "name": "St. Mary's Pub"}}, {"type": "node", "id": 5819087817, "lat": 41.8741569, "lon": 12.5227451, "tags": {"amenity": "pub"}}, {"type": "node", "id": 5825531457, "lat": 41.8912789, "lon": 12.4699794, "tags": {"addr:housenumber": "29", "addr:street": "Vicolo del Cinque", "amenity": "pub", "name": "Mr. Brown Pub", "opening_hours": "Mo-Su 17:00-02:00", "website": "https://www.facebook.com/mrbrowntrastevere/"}}, {"type": "node", "id": 5825536041, "lat": 41.8636417, "lon": 12.4809422, "tags": {"addr:housenumber": "13", "addr:street": "Via Giuseppe Libetta", "amenity": "pub", "name": "Il Barone Rosso", "opening_hours": "Fr-Sa 20:30-03:00", "phone": "+39 348 916 2348", "website": "baronerosso.com"}}, {"type": "node", "id": 5901652185, "lat": 41.8917591, "lon": 12.5636585, "tags": {"amenity": "pub", "name": "The Birreria", "outdoor_seating": "yes"}}, {"type": "node", "id": 5983433442, "lat": 41.944196, "lon": 12.5603319, "tags": {"addr:housenumber": "940", "addr:street": "Via Nomentana", "amenity": "pub", "contact:facebook": "https://www.facebook.com/SlainteIrishPubRoma", "name": "Sl\u00e1inte Irish Pub Roma", "opening_hours": "Mo-Su 19:00-02:00", "phone": "+39 06 9208 0315", "theme": "irish"}}, {"type": "node", "id": 6110560420, "lat": 41.8068222, "lon": 12.5162645}, {"type": "node", "id": 6110560421, "lat": 41.8068793, "lon": 12.5165279}, {"type": "node", "id": 6110560422, "lat": 41.8068231, "lon": 12.5165498}, {"type": "node", "id": 6110560423, "lat": 41.8067794, "lon": 12.5163484}, {"type": "node", "id": 6110560424, "lat": 41.806695, "lon": 12.5163814}, {"type": "node", "id": 6110560425, "lat": 41.8066815, "lon": 12.5163194}, {"type": "node", "id": 6181195161, "lat": 41.9354286, "lon": 12.5320657, "tags": {"addr:city": "Roma", "addr:postcode": "00144", "addr:street": "Largo Valsolda", "amenity": "pub", "name": "Deriva Aniene"}}, {"type": "node", "id": 6183285401, "lat": 41.9354523, "lon": 12.5315216, "tags": {"addr:city": "Roma", "addr:housenumber": "37", "addr:postcode": "00141", "addr:street": "Via Valsolda", "amenity": "pub", "name": "Devrock Pub"}}, {"type": "node", "id": 6185600359, "lat": 41.9340481, "lon": 12.5341876, "tags": {"addr:housenumber": "434", "addr:postcode": "00141", "addr:street": "Via Nomentana", "amenity": "pub", "contact:phone": "+39 06 8292261", "name": "Bender Pub", "website": "https://benderpub.it/"}}, {"type": "node", "id": 6253603993, "lat": 41.9053482, "lon": 12.4731953, "tags": {"addr:housenumber": "3", "addr:street": "Via dei Cosmati", "amenity": "pub", "name": "Gus Bar & Social Club", "opening_hours": "Th-Sa 20:00-03:00", "phone": "+39 06 8692 9033", "website": "gusroma.it", "wheelchair": "no"}}, {"type": "node", "id": 6254411052, "lat": 41.8924437, "lon": 12.5660589, "tags": {"addr:housenumber": "115-117", "addr:street": "Via dei Ciclamini", "amenity": "pub", "name": "Spunky Centocelle", "opening_hours": "Tu-Sa 17:30-02:00", "website": "https://spunky-centocelle.business.site/"}}, {"type": "node", "id": 6291917030, "lat": 41.8608331, "lon": 12.4806387, "tags": {"amenity": "pub", "name": "Gentle Boozers"}}, {"type": "node", "id": 6299885385, "lat": 41.8966883, "lon": 12.4985744, "tags": {"amenity": "pub", "cuisine": "italian", "internet_access": "wlan", "name": "Birreria Marconi"}}, {"type": "node", "id": 6313982811, "lat": 41.9160416, "lon": 12.4387508, "tags": {"addr:housenumber": "13", "addr:street": "Largo Giorgio Maccagno", "amenity": "pub", "name": "Opificio Balduina", "phone": "+39 06 4544 1203", "website": "https://www.thefork.it/ristorante/opificio-balduina/440085?cc=18174-54f"}}, {"type": "node", "id": 6314010505, "lat": 41.86287, "lon": 12.4568511, "tags": {"addr:housenumber": "40", "addr:street": "Largo Guglielmo Mengarini", "amenity": "pub", "name": "Momenti Bar Bistrot", "opening_hours": "Mo-Sa 06:00-22:00; Su 07:00-14:00", "phone": "+39 06 9193 4766", "website": "barmomenti.it"}}, {"type": "node", "id": 6314038709, "lat": 41.9089534, "lon": 12.5265973, "tags": {"addr:city": "Roma", "addr:housenumber": "28", "addr:postcode": "00162", "addr:street": "Piazza delle Crociate", "amenity": "pub", "contact:email": "letitbeer2013@gmail.com", "contact:facebook": "https://www.facebook.com/letitbeerRoma", "live_music": "yes", "name": "Let It Beer", "opening_hours": "Mo-Su 19:00-04:00", "phone": "+39 393 9413368", "website": "letitbeer.it"}}, {"type": "node", "id": 6341754374, "lat": 41.9230845, "lon": 12.5152446, "tags": {"addr:housenumber": "35/37/39", "addr:street": "Via Spalato", "amenity": "pub", "name": "White Rabbit", "opening_hours": "Mo-Sa 10:00-02:00; Su 18:00-02:00", "phone": "+39 06 9484 1424", "website": "whiterabbitroma.it"}}, {"type": "node", "id": 6341754376, "lat": 41.9229637, "lon": 12.5152164, "tags": {"addr:housenumber": "29", "addr:street": "Via Spalato", "amenity": "pub", "name": "Hope Beer-House", "opening_hours": "Mo-Sa 18:30-01:30"}}, {"type": "node", "id": 6341768879, "lat": 41.9243649, "lon": 12.4691118, "tags": {"addr:housenumber": "2", "addr:street": "Via Giovanni Battista Tiepolo", "amenity": "pub", "name": "Kilmoon", "opening_hours": "Mo-Fr 18:30-02:00; Sa 11:00-02:00; Su 19:30-00:00", "phone": "+39 06 321 5457"}}, {"type": "node", "id": 6341768881, "lat": 41.9242349, "lon": 12.469356, "tags": {"addr:housenumber": "3", "addr:street": "Via Giovanni Battista Tiepolo", "amenity": "pub", "name": "Tiepolo - Bistrot Bottiglieria", "opening_hours": "Mo-Sa 13:00-15:00, 17:30-01:00; Su 13:00-15:00, 17:30-00:00", "phone": "+39 06 322 7449", "website": "tiepolobistrot.it"}}, {"type": "node", "id": 6483712385, "lat": 41.9005124, "lon": 12.4676091, "tags": {"amenity": "pub", "cuisine": "italian", "name": "coronari"}}, {"type": "node", "id": 6504639539, "lat": 41.8613106, "lon": 12.4846452, "tags": {"addr:housenumber": "56", "addr:street": "Via delle Sette Chiese", "alt_name": "568 Public House Garbatella", "amenity": "pub", "name": "568", "phone": "+39 333 5374223"}}, {"type": "node", "id": 6532060783, "lat": 41.9336416, "lon": 12.5517383, "tags": {"addr:city": "Roma", "addr:housenumber": "53A", "addr:street": "Via Michelangelo Tilli", "amenity": "pub", "brewery": "yes", "name": "The Blacksmith Pub"}}, {"type": "node", "id": 6744749871, "lat": 41.8461851, "lon": 12.6260704, "tags": {"addr:city": "Roma", "addr:housenumber": "341", "addr:postcode": "00133", "addr:street": "Via di Passo Lombardo", "air_conditioning": "yes", "amenity": "pub", "internet_access": "wlan", "level": "0", "name": "Famoso", "outdoor_seating": "yes", "smoking": "outside"}}, {"type": "node", "id": 6862321802, "lat": 41.9061204, "lon": 12.5008351, "tags": {"addr:city": "Roma", "addr:housenumber": "75", "addr:postcode": "00185", "addr:street": "Via Montebello", "amenity": "pub", "name": "The Good Fellas", "phone": "+39064456864", "wheelchair": "no"}}, {"type": "node", "id": 6918951861, "lat": 41.9154798, "lon": 12.4581046, "tags": {"amenity": "pub", "name": "Bar della Salute", "wheelchair": "limited"}}, {"type": "node", "id": 6929534465, "lat": 41.9157909, "lon": 12.4557717, "tags": {"amenity": "pub", "name": "Bar Napoleoni"}}, {"type": "node", "id": 6929538331, "lat": 41.9171045, "lon": 12.4556996, "tags": {"amenity": "pub", "name": "Snack Bar 800"}}, {"type": "node", "id": 7021964107, "lat": 41.8924372, "lon": 12.5285246, "tags": {"addr:city": "Roma", "addr:housenumber": "9", "addr:postcode": "00176", "addr:street": "Via Stefano Colonna", "alt_name": "Klang", "amenity": "pub", "bar": "yes", "concert": "yes", "contact:email": "artdirection@klangroma.com", "contact:facebook": "https://www.facebook.com/klangroma/", "cuisine": "burger;pizza;friture;panino;fried_potatoes;french_fries;jacket_potatoes;hot_dog;cake;dessert", "description": "Community of DreamersKl\u00e0ng (poet. o pop. Kl\u00e0ng) s. m. [lat. Kl\u00e0ng]. \u2013 1. La causa delle deformazioni acustiche, consistente in vibrazioni di un luogo (che possono essere eccitate e trasmesse dalle vibrazioni tramite i corpi (kl\u00e0ngers), e che a loro volta", "drink:beer": "served", "drink:soft_drink": "served", "drink:whisky": "served", "drink:wine": "served", "food": "yes", "live_music": "yes", "music": "yes", "music_venue": "yes", "name": "Klang Roma", "nightclub": "yes", "opening_hours": "Mo-Su 19:00-03:00", "opening_hours:kitchen": "19:00-01:00", "operator": "Black Fist SRLS", "website": "https://www.facebook.com/klangroma/"}}, {"type": "node", "id": 7022634986, "lat": 41.7316112, "lon": 12.2882054, "tags": {"amenity": "pub", "name": "La cantina di Santiago", "opening_hours": "Tu-Su 21:30-02:00; Mo off"}}, {"type": "node", "id": 7053146191, "lat": 41.8732174, "lon": 12.7781385}, {"type": "node", "id": 7053146192, "lat": 41.8730848, "lon": 12.7783225}, {"type": "node", "id": 7053146193, "lat": 41.8729646, "lon": 12.7781663}, {"type": "node", "id": 7053146194, "lat": 41.8730972, "lon": 12.7779823}, {"type": "node", "id": 7104710106, "lat": 41.9085191, "lon": 12.5210821, "tags": {"amenity": "pub"}}, {"type": "node", "id": 7124114166, "lat": 41.9611, "lon": 12.5130419, "tags": {"addr:city": "Roma", "addr:housenumber": "146", "addr:postcode": "00139", "addr:street": "Via Gaspare Pacchiarotti", "amenity": "pub", "name": "Libero Arbitrio Beershop"}}, {"type": "node", "id": 7159105150, "lat": 41.9063801, "lon": 12.5381228, "tags": {"addr:city": "Roma", "addr:housenumber": "51", "addr:postcode": "00159", "addr:street": "Via di San Romano", "amenity": "pub", "name": "New Devil's Kiss", "opening_hours": "Tu-Su 18:00-02:00", "website": "http://www.newdevilskiss.it/", "wheelchair": "yes"}}, {"type": "node", "id": 7166064912, "lat": 41.8817484, "lon": 12.5609754, "tags": {"addr:city": "Roma", "addr:housenumber": "213", "addr:postcode": "00172", "addr:street": "Viale della Primavera", "amenity": "pub", "name": "Highlander", "phone": "+39 06 83547020"}}, {"type": "node", "id": 7237154339, "lat": 41.9110414, "lon": 12.5444156, "tags": {"amenity": "pub"}}, {"type": "node", "id": 7264894320, "lat": 41.8734787, "lon": 12.5214865, "tags": {"amenity": "pub", "name": "Hopificio"}}, {"type": "node", "id": 7529712377, "lat": 41.8477817, "lon": 12.5907036, "tags": {"addr:city": "Roma", "addr:housenumber": "21", "addr:postcode": "00173", "addr:street": "Viale Antonio Ciamarra", "amenity": "pub", "name": "Hop & Pork"}}, {"type": "node", "id": 7529712389, "lat": 41.848829, "lon": 12.5906152, "tags": {"addr:city": "Roma", "addr:housenumber": "57", "addr:postcode": "00173", "addr:street": "Viale Antonio Ciamarra", "amenity": "pub", "contact:facebook": "https://www.facebook.com/Ciamarras-101399408283436", "email": "massimo.volino@gmail.com", "name": "Ciamarras", "phone": "+39 393 2925129"}}, {"type": "node", "id": 7566910050, "lat": 41.7752178, "lon": 12.6097508}, {"type": "node", "id": 7566910051, "lat": 41.7748446, "lon": 12.6093699}, {"type": "node", "id": 7566910052, "lat": 41.7750711, "lon": 12.6090397}, {"type": "node", "id": 7566910053, "lat": 41.7753987, "lon": 12.6094095}, {"type": "node", "id": 7572704586, "lat": 41.8788076, "lon": 12.5350224, "tags": {"addr:city": "Roma", "addr:housenumber": "109", "addr:postcode": "00181", "addr:street": "Via del Mandrione", "amenity": "pub", "name": "Jungle Juice Brewing"}}, {"type": "node", "id": 7575426822, "lat": 42.0934513, "lon": 12.2698912, "tags": {"addr:city": "Anguillara Sabazia", "addr:housenumber": "1", "addr:postcode": "00061", "addr:street": "Via del Forno", "amenity": "pub", "name": "Road House", "opening_hours": "Tu-Th, Su 19:00-01:00; Fr, Sa 19:00-02:00", "phone": "+393297843284"}}, {"type": "node", "id": 7609038468, "lat": 42.0718911, "lon": 12.2912829, "tags": {"addr:housenumber": "121", "addr:street": "Via Anguillarese", "amenity": "pub", "name": "Juke box pub"}}, {"type": "node", "id": 7617753433, "lat": 41.7312367, "lon": 12.2755503, "tags": {"amenity": "pub", "name": "La drogheria"}}, {"type": "node", "id": 7617753434, "lat": 41.7310028, "lon": 12.2750293, "tags": {"amenity": "pub", "name": "The tube pub"}}, {"type": "node", "id": 7617753436, "lat": 41.730518, "lon": 12.2758142, "tags": {"amenity": "pub", "name": "one for all"}}, {"type": "node", "id": 7617753449, "lat": 41.7305259, "lon": 12.2750281}, {"type": "node", "id": 7617753450, "lat": 41.7303278, "lon": 12.2749162}, {"type": "node", "id": 7617753451, "lat": 41.7302527, "lon": 12.275157}, {"type": "node", "id": 7617753452, "lat": 41.7304509, "lon": 12.2752595}, {"type": "node", "id": 7733662529, "lat": 41.807344, "lon": 12.679685, "tags": {"addr:city": "Frascati", "addr:housenumber": "16", "addr:postcode": "00044", "addr:street": "Via Armando Diaz", "amenity": "pub", "name": "Shabby Lab", "phone": "+39 06 9419374", "website": "http://www.shabbylabfrascati.it"}}, {"type": "node", "id": 7912200670, "lat": 41.9073618, "lon": 12.4501684, "tags": {"addr:city": "Roma", "addr:housenumber": "149/a", "addr:postcode": "00192", "addr:street": "Via Candia", "amenity": "pub", "email": "info@mistersongs.it", "live_music": "yes", "name": "Mister Songs", "phone": "+39 06 89513318", "website": "https://mistersongs.it/"}}, {"type": "node", "id": 7966149761, "lat": 41.820266, "lon": 12.482038, "tags": {"addr:city": "Roma", "addr:housenumber": "18", "addr:postcode": "00143", "addr:street": "Viale Oscar Sinigaglia", "amenity": "pub", "live_music": "yes", "name": "Pentatonic", "phone": "+39 351 9674290", "smoking": "outside", "website": "https://www.villaggiocultura.it/"}}, {"type": "node", "id": 8025264381, "lat": 41.8569222, "lon": 12.4788178, "tags": {"amenity": "pub", "name": "Monkey Bar"}}, {"type": "node", "id": 8263811855, "lat": 42.0922198, "lon": 12.2709911, "tags": {"addr:city": "Anguillara Sabazia", "addr:housenumber": "10", "addr:postcode": "00061", "addr:street": "Via Didomenico", "amenity": "pub", "email": "roadhouse1307@hotmail.com", "facebook": "https://m.facebook.com/roadhousepubanguillara/", "name": "Road House Pub", "opening_hours": "Tu-Su 19:00-01:00", "phone": "+393297843284"}}, {"type": "node", "id": 8345305852, "lat": 41.6852137, "lon": 12.4732558, "tags": {"addr:housenumber": "16", "addr:street": "Via Vaccareccia", "amenity": "pub", "name": "Birrificio Oxiana", "opening_hours": "Mo-Fr 11:00-13:00, 15:00-18:00", "phone": "+39 069122309", "website": "https://www.birraoxiana.it/"}}, {"type": "node", "id": 8567325789, "lat": 41.8739579, "lon": 12.4579321, "tags": {"addr:city": "Roma", "addr:housenumber": "265", "addr:postcode": "00152", "addr:street": "Viale dei Quattro Venti", "amenity": "pub", "name": "Twelve Monkeys Beershop", "phone": "+39 06 64562599"}}, {"type": "node", "id": 8615027478, "lat": 41.9126479, "lon": 12.4603176, "tags": {"addr:housenumber": "22", "addr:street": "Via Silvio Pellico", "amenity": "pub", "name": "Four Green Fields", "phone": "063725091", "website": "fourgreenfields.it"}}, {"type": "node", "id": 8679009184, "lat": 41.9108336, "lon": 12.5010686, "tags": {"addr:city": "Roma", "addr:housenumber": "44", "addr:postcode": "00198", "addr:street": "Via Alessandria", "amenity": "pub", "name": "Bandana Republic", "phone": "+39 06 44249751", "website": "http://www.bandanarepublic.it/"}}, {"type": "node", "id": 8874051776, "lat": 41.8916337, "lon": 12.5390518, "tags": {"amenity": "pub", "cuisine": "fast_food", "name": "Mole's Pub", "theme": "english"}}, {"type": "node", "id": 8895929845, "lat": 41.8911554, "lon": 12.5013663, "tags": {"addr:housenumber": "5", "addr:street": "via Carlo Botta", "amenity": "pub", "name": "Cutty Sark"}}, {"type": "node", "id": 8951411551, "lat": 41.8711327, "lon": 12.4758642, "tags": {"addr:city": "Roma", "addr:housenumber": "36", "addr:postcode": "00154", "addr:street": "Via del Commercio", "amenity": "pub", "building": "yes", "name": "Planet Live Club", "phone": "+39065747826", "website": "http://planetliveclub.com"}}, {"type": "node", "id": 9182101309, "lat": 41.7982348, "lon": 12.6828504}, {"type": "node", "id": 9182101310, "lat": 41.7981993, "lon": 12.6828516}, {"type": "node", "id": 9182101311, "lat": 41.798153, "lon": 12.6829313}, {"type": "node", "id": 9182101312, "lat": 41.7981528, "lon": 12.6829222}, {"type": "node", "id": 9182101313, "lat": 41.7979564, "lon": 12.682927}, {"type": "node", "id": 9182101314, "lat": 41.7979566, "lon": 12.6829421}, {"type": "node", "id": 9182101315, "lat": 41.7978951, "lon": 12.6829464}, {"type": "node", "id": 9182101316, "lat": 41.797894, "lon": 12.6829161}, {"type": "node", "id": 9182107917, "lat": 41.7978606, "lon": 12.6829184}, {"type": "node", "id": 9182107918, "lat": 41.7978591, "lon": 12.6828783}, {"type": "node", "id": 9182107919, "lat": 41.797764, "lon": 12.6828764}, {"type": "node", "id": 9182107920, "lat": 41.7977247, "lon": 12.6828791}, {"type": "node", "id": 9182107921, "lat": 41.7977127, "lon": 12.6828611}, {"type": "node", "id": 9182107922, "lat": 41.7977171, "lon": 12.6828729}, {"type": "node", "id": 9182107923, "lat": 41.7977203, "lon": 12.6828772}, {"type": "node", "id": 9182107924, "lat": 41.7977139, "lon": 12.6828676}, {"type": "node", "id": 9182107925, "lat": 41.7977119, "lon": 12.6828436}, {"type": "node", "id": 9182107926, "lat": 41.797707, "lon": 12.682844}, {"type": "node", "id": 9182107927, "lat": 41.7980548, "lon": 12.6827542}, {"type": "node", "id": 9182107928, "lat": 41.798053, "lon": 12.6827166}, {"type": "node", "id": 9182164712, "lat": 41.7977915, "lon": 12.682883}, {"type": "node", "id": 9182168417, "lat": 41.7977995, "lon": 12.6827374}, {"type": "node", "id": 9182168463, "lat": 41.7979057, "lon": 12.6827287}, {"type": "node", "id": 9236172969, "lat": 41.7751297, "lon": 12.6096673}, {"type": "node", "id": 9236172970, "lat": 41.7751635, "lon": 12.6096994}, {"type": "node", "id": 9236172977, "lat": 41.7750496, "lon": 12.6095913}, {"type": "node", "id": 9236172978, "lat": 41.7748873, "lon": 12.609416}, {"type": "node", "id": 9684568758, "lat": 41.8654739, "lon": 12.6752072, "tags": {"addr:city": "Roma", "addr:housenumber": "388", "addr:postcode": "00132", "addr:street": "Via Borghesiana", "amenity": "pub", "contact:facebook": "https://facebook.com/moebiusborghesiana/", "email": "antoniocarmelo.peluso1960@gmail.com", "name": "Moebius", "phone": "+39 06 20765038", "website": "https://www.mooebiuspubroma.it/"}}, {"type": "node", "id": 9777645679, "lat": 41.9522746, "lon": 12.7339682, "tags": {"addr:city": "Guidonia Montecelio", "addr:housenumber": "87", "addr:street": "Via Tiburtina Valeria", "amenity": "pub", "name": "Golden Pot"}}, {"type": "node", "id": 9781001474, "lat": 41.7282432, "lon": 12.2832407, "tags": {"amenity": "pub", "name": "Clandestino"}}, {"type": "node", "id": 9781001483, "lat": 41.7308515, "lon": 12.2775576, "tags": {"amenity": "pub", "name": "Green"}}, {"type": "node", "id": 9862494432, "lat": 41.9011684, "lon": 12.4630833, "tags": {"addr:housenumber": "3", "addr:street": "Lungotevere in Sassia", "amenity": "pub", "name": "Pier 21", "opening_hours": "Mo-Su 17:00-03:00", "phone": "+39 3755742944", "website": "https://www.pier21.it/"}}, {"type": "node", "id": 9918474068, "lat": 41.9036485, "lon": 12.4616883, "tags": {"addr:city": "Roma", "addr:housenumber": "32", "addr:postcode": "00193", "addr:street": "Borgo Pio", "amenity": "pub", "description": "PapoGusto - Neapolitan Excellence", "name": "PapoGusto"}}, {"type": "node", "id": 9919861980, "lat": 41.8958548, "lon": 12.5139257, "tags": {"amenity": "pub", "check_date": "2022-07-29", "name": "Artisan"}}, {"type": "node", "id": 9919861981, "lat": 41.8958663, "lon": 12.5138857, "tags": {"amenity": "pub", "check_date": "2022-07-29", "name": "Artisan"}}, {"type": "node", "id": 10065192472, "lat": 41.8094394, "lon": 12.6800092, "tags": {"addr:housenumber": "15", "addr:street": "Piazza Paolo III", "amenity": "pub", "mobile": "+39 328 649 7226", "name": "Tower Pub", "outdoor_seating": "yes", "takeaway": "yes", "toilets": "yes", "toilets:access": "customers", "wheelchair": "limited"}}, {"type": "node", "id": 10542454604, "lat": 41.8809769, "lon": 12.4852037, "tags": {"amenity": "pub", "brewery": "yes", "name": "So Good!"}}, {"type": "node", "id": 10542458528, "lat": 41.854987, "lon": 12.4790066, "tags": {"amenity": "pub", "brewery": "yes", "name": "Mashroom"}}, {"type": "node", "id": 10606691805, "lat": 41.8753706, "lon": 12.4684587, "tags": {"addr:city": "Roma", "addr:housenumber": "14", "addr:postcode": "00153", "addr:street": "Via Bernardino Passeri", "amenity": "pub", "name": "Johnny's Place"}}, {"type": "node", "id": 10675838160, "lat": 41.9077483, "lon": 12.5364734, "tags": {"addr:city": "Roma", "addr:housenumber": "15/a", "addr:postcode": "00159", "addr:street": "Via Carlo Caneva", "amenity": "pub", "contact:facebook": "https://www.facebook.com/porknrollpub", "name": "Pork'n'Roll", "opening_hours": "Mo-Su 19:00-02:00", "phone": "+39 06 45551271", "website": "http://www.porknroll.com/"}}, {"type": "node", "id": 10678796063, "lat": 41.8093659, "lon": 12.6802402, "tags": {"amenity": "pub", "internet_access": "wlan", "internet_access:fee": "no", "level": "0", "name": "Birreria Point Break", "opening_hours": "Tu-Su 17:00-02:00", "outdoor_seating": "yes", "toilets": "yes", "wheelchair": "limited"}}, {"type": "way", "id": 236324282, "nodes": [2817589394, 2443622328, 2443622327, 2443622330, 2817589394], "tags": {"amenity": "pub", "building": "commercial", "name": "Flanagan's"}}, {"type": "way", "id": 255470257, "nodes": [2611558076, 2611558077, 2611558079, 2611558080, 2611558076], "tags": {"addr:city": "Roma", "addr:housename": "Hotel Capital Inn", "addr:housenumber": "96", "addr:postcode": "00133", "addr:street": "Via Carlo Santarelli", "amenity": "pub", "name": "Hotel Capital Inn", "website": "http://www.capitalinn.it/"}}, {"type": "way", "id": 381273690, "nodes": [3845021090, 3845021091, 3845021092, 3845021093, 3845021090], "tags": {"addr:city": "Roma", "addr:housenumber": "771", "addr:postcode": "00123", "addr:street": "Via Braccianese", "amenity": "pub", "building": "yes", "email": "crossroadsprenotazioni@gmail.com", "live_music": "yes", "name": "Cross Roads Live Club", "phone": "+39 347 1694250", "website": "http://www.crossroadsliveclub.it/"}}, {"type": "way", "id": 427814370, "nodes": [4269914390, 4269914186, 4269914173, 4269914168, 4269914159, 4269914182, 4269914185, 4269914184, 4269914389, 4269914187, 4269914390], "tags": {"addr:city": "Marino", "addr:country": "IT", "addr:housenumber": "57", "addr:postcode": "00047", "addr:street": "Via Appia Nuova Vecchia Sede", "addr:suburb": "Frattocchie", "amenity": "pub", "building": "commercial", "cuisine": "steak_house", "email": "info@geronimospub.com", "live_music": "yes", "name": "Geronimio's Pub", "outdoor_seating": "yes", "smoking": "outside", "website": "http://www.geronimospub.com/", "wheelchair": "yes"}}, {"type": "way", "id": 450785758, "nodes": [4476904129, 4476904130, 4476904131, 4476904132, 4476904133, 4476904134, 4476904135, 4476904136, 4476904129], "tags": {"amenity": "pub", "building": "yes", "name": "ex Rumors"}}, {"type": "way", "id": 463068670, "nodes": [4583832018, 4583832019, 4583832020, 4583832021, 4583832022, 4583832023, 4583832024, 4583832025, 4583832026, 4583832027, 4583832028, 4583832029, 4583832018], "tags": {"addr:city": "Roma", "addr:housenumber": "172", "addr:postcode": "00118", "addr:street": "Via Placanica", "alt_name": "Stazione", "amenity": "pub", "brewery": "yes", "building": "yes", "building:levels": "2", "contact:facebook": "https://www.facebook.com/stazionebirraliveclub", "cuisine": "burger;pizza", "live_music": "yes", "name": "Stazione Birra", "name:en": "Stazione Birra (Beer Station)", "name:it": "Stazione Birra", "outdoor_seating": "no", "phone": "+39 06 79845959", "smoking": "isolated", "website": "http://www.stazionebirra.it"}}, {"type": "way", "id": 478621902, "nodes": [9182107921, 9182107924, 9182107922, 9182107923, 9182107920, 9182107919, 4718341811, 9182164712, 9182107918, 9182107917, 9182101316, 9182101315, 9182101314, 9182101313, 9182101312, 9182101311, 4718341812, 9182101309, 9182101310, 4718341809, 9182107927, 9182107928, 9182168463, 9182168417, 4718341810, 9182107926, 9182107925, 9182107921], "tags": {"amenity": "pub", "building": "commercial"}}, {"type": "way", "id": 480210505, "nodes": [4937123322, 4732206230, 4732206231, 4732206232, 4732206233, 4732206234, 4732206235, 4732206236, 4937123322], "tags": {"addr:city": "Rocca di Papa", "addr:housenumber": "3", "addr:postcode": "00040", "addr:street": "Via delle Barozze", "amenity": "pub", "building": "yes", "cuisine": "italian", "email": "info@hippodrome.it", "live_music": "yes", "name": "Hippodrome", "phone": "+39 06 9497500", "website": "https://www.hippodrome.it/"}}, {"type": "way", "id": 494890884, "nodes": [4866660152, 4866660153, 4866660154, 4866660155, 4866660152], "tags": {"amenity": "pub", "building": "yes", "name": "Eriu's Irish Pub"}}, {"type": "way", "id": 550503184, "nodes": [5317130743, 5317130744, 5317130745, 5317130746, 5317130743], "tags": {"addr:city": "Roma", "addr:housenumber": "1284", "addr:postcode": "00189", "addr:street": "Via Cassia", "amenity": "pub", "building": "yes", "live_music": "yes", "name": "Locanda Blues", "opening_hours": "Tu-Su 19:00-02:30", "outdoor_seating": "yes", "phone": "+39 06 3031 0097", "website": "locandablues.com"}}, {"type": "way", "id": 556692479, "nodes": [5369862214, 5369862215, 5369862216, 5369862217, 5369862218, 5369862219, 5369862220, 5369862221, 5369862214], "tags": {"addr:city": "Roma", "addr:housenumber": "870", "addr:postcode": "00155", "addr:street": "Via Tiburtina", "amenity": "pub", "brewery": "yes", "building": "yes", "contact:facebook": "https://www.facebook.com/jailbreakrestart", "contact:phone": "+39 06 4062768", "email": "info@jailbreakliveclub.it", "live_music": "yes", "name": "Jailbreak", "outdoor_seating": "no", "smoking": "outside", "website": "https://jailbreakliveclub.it/"}}, {"type": "way", "id": 568489042, "nodes": [5469139278, 5469139279, 5469139280, 5469139281, 5469139282, 5469139283, 5469139284, 5469139285, 5469139278], "tags": {"addr:city": "Roma", "addr:housenumber": "371", "addr:postcode": "00144", "addr:street": "Via di Tor Pagnotta", "amenity": "pub", "building": "yes", "name": "Walla Walla", "phone": "+39 345 6566028"}}, {"type": "way", "id": 651673172, "nodes": [6110560420, 6110560421, 6110560422, 6110560423, 6110560424, 6110560425, 6110560420], "tags": {"addr:city": "Roma", "addr:housenumber": "351", "addr:postcode": "00143", "addr:street": "Via di Tor Pagnotta", "amenity": "pub", "building": "yes", "name": "Whiplash Roma", "phone": "+39 339 1691757", "website": "https://www.asdliquid.it/"}}, {"type": "way", "id": 755028060, "nodes": [7053146191, 7053146192, 7053146193, 7053146194, 7053146191], "tags": {"addr:city": "Gallicano nel Lazio", "addr:housenumber": "km 7,300", "addr:postcode": "00010", "addr:street": "Via Prenestina Nuova", "amenity": "pub", "building": "yes", "email": "info@centralebirra.it", "name": "Centrale birra", "phone": "+39 06 9549159", "website": "http://www.centralebirra.it/"}}, {"type": "way", "id": 809269298, "nodes": [7566910050, 9236172970, 9236172969, 9236172977, 9236172978, 7566910051, 7566910052, 7566910053, 7566910050], "tags": {"addr:housenumber": "8", "addr:postcode": "00047", "addr:street": "Via dei Mille", "amenity": "pub", "building": "yes", "email": "info@kirbys.it", "name": "Kirby's Garden", "opening_hours": "Su-Mo, We-Th 19:30-02:00; Fr-Sa 19:30-03:00", "phone": "06 9354 3044", "website": "http://kirbys.it"}}, {"type": "way", "id": 815657374, "nodes": [7617753449, 7617753450, 7617753451, 7617753452, 7617753449], "tags": {"amenity": "pub", "building": "yes"}}]}