{"version": 0.6, "generator": "Overpass API 0.7.60 f4c14d41", "osm3s": {"timestamp_osm_base": "2023-05-02T21:21:23Z", "copyright": "The data included in this document is from www.openstreetmap.org. The data is made available under ODbL."}, "elements": [{"type": "node", "id": 1352425761, "lat": 41.059005, "lon": 28.9490675, "tags": {"addr:city": "S\u00fctl\u00fcce \\ Istanbul", "addr:postcode": "34445", "addr:street": "\u0130mrahor Caddesi", "email": "info@miniaturk.com.tr", "name": "Miniat\u00fcrk A\u00e7\u0131khava M\u00fczesi", "name:en": "Miniature Park", "name:ru": "\u041c\u0438\u043d\u0438\u0430\u0442\u044e\u0440\u043a \u043f\u0430\u0440\u043a \u043c\u0438\u043d\u0438\u0430\u0442\u044e\u0440 \u0422\u0443\u0440\u0446\u0438\u0438", "name:tr": "Miniat\u00fcrk M\u00fczesi", "name:uk": "\u041f\u0430\u0440\u043a \u043c\u0456\u043d\u0456\u0430\u0442\u044e\u0440", "opening_hours": "Mo-Su 09:00-19:00", "phone": "+90 0212 222 28 82", "tourism": "museum", "website": "https://www.miniaturk.com.tr/", "wheelchair": "yes", "wheelchair:description": "Ana giri\u015fte 16 derecelik bir adet rampa vard\u0131r. Engelli tuvaleti bulunmaktad\u0131r.", "wikidata": "Q1085952"}}, {"type": "node", "id": 4031869601, "lat": 41.0607508, "lon": 28.947846, "tags": {"name": "Panorama Zafer M\u00fczesi", "name:en": "Panoramic Victory Museum", "tourism": "museum"}}, {"type": "node", "id": 7580601342, "lat": 41.0673647, "lon": 28.691469, "tags": {"museum": "art", "name": "Discovery Museum", "tourism": "museum"}}, {"type": "node", "id": 8071687535, "lat": 41.2612557, "lon": 28.7411868, "tags": {"charge": "5 EUR", "fee": "yes", "level": "3", "name": "Istanbul Havalimani M\u00fczesi", "name:en": "Istanbul Airport Museum", "opening_hours": "09:00-21:00", "tourism": "museum"}}]}