{"version": 0.6, "generator": "Overpass API 0.7.60 f4c14d41", "osm3s": {"timestamp_osm_base": "2023-05-02T21:16:21Z", "copyright": "The data included in this document is from www.openstreetmap.org. The data is made available under ODbL."}, "elements": [{"type": "node", "id": 4884590231, "lat": 41.0202624, "lon": 28.9472778, "tags": {"addr:city": "\u0130stanbul", "addr:district": "Fatih", "amenity": "food_court", "name": "K\u00f6m\u00fcr Lokantas\u0131", "operator": "K\u00f6m\u00fcr Lokantas\u0131"}}, {"type": "node", "id": 5366015433, "lat": 41.0122898, "lon": 28.930183, "tags": {"addr:city": "\u0130stanbul", "addr:district": "Fatih", "addr:neighbourhood": "\u015eehremini Mahallesi", "addr:street": "Mevlanakap\u0131 Caddesi", "amenity": "food_court", "name": "Odaba\u015f\u0131 \u00c7i\u011fb\u00f6rek\u00e7isi"}}, {"type": "node", "id": 5609788275, "lat": 41.0361053, "lon": 28.7911733}, {"type": "node", "id": 5609788276, "lat": 41.035873, "lon": 28.7912122}, {"type": "node", "id": 5609788277, "lat": 41.0358717, "lon": 28.7910352}, {"type": "node", "id": 5609788278, "lat": 41.0360933, "lon": 28.7910069}, {"type": "node", "id": 6794591409, "lat": 41.0148633, "lon": 28.896334, "tags": {"amenity": "food_court", "name": "Gala Kokore\u00e7"}}, {"type": "node", "id": 7590421063, "lat": 41.0061498, "lon": 28.8809464, "tags": {"amenity": "food_court", "name": "\u0130stanbul Hanzade"}}, {"type": "node", "id": 9547039301, "lat": 41.0026234, "lon": 28.7716091}, {"type": "node", "id": 9547039302, "lat": 41.0028903, "lon": 28.7717717}, {"type": "node", "id": 9547039303, "lat": 41.0031419, "lon": 28.7719384}, {"type": "node", "id": 9547039304, "lat": 41.0033597, "lon": 28.7721416}, {"type": "node", "id": 9547039305, "lat": 41.0035162, "lon": 28.7718123}, {"type": "node", "id": 9547039306, "lat": 41.0033352, "lon": 28.7715115}, {"type": "node", "id": 9547039307, "lat": 41.0031511, "lon": 28.7712229}, {"type": "node", "id": 9547039308, "lat": 41.0029946, "lon": 28.7709911}, {"type": "node", "id": 9547039309, "lat": 41.0027982, "lon": 28.7707106}, {"type": "node", "id": 9547039310, "lat": 41.0027185, "lon": 28.7705927}, {"type": "node", "id": 9742053921, "lat": 40.9772287, "lon": 28.8743663}, {"type": "node", "id": 9742053922, "lat": 40.9770311, "lon": 28.8744269}, {"type": "node", "id": 9742053923, "lat": 40.9770756, "lon": 28.8746818}, {"type": "node", "id": 9742053924, "lat": 40.9771779, "lon": 28.8746504}, {"type": "node", "id": 9742053925, "lat": 40.9772627, "lon": 28.8745608}, {"type": "way", "id": 587280102, "nodes": [5609788275, 5609788276, 5609788277, 5609788278, 5609788275], "tags": {"addr:city": "\u0130stanbul", "addr:district": "K\u00fc\u00e7\u00fck\u00e7ekmece", "addr:housenumber": "19", "addr:neighbourhood": "Halkal\u0131 Merkez Mahallesi", "addr:postcode": "34303", "addr:street": "Mahmutbey Caddesi", "amenity": "food_court", "building": "yes", "internet_access": "no", "name": "F\u0131rat Urfa Ocakba\u015f\u0131", "opening_hours": "12:00-02:00", "opening_hours:covid19": "open"}}, {"type": "way", "id": 1036250246, "nodes": [9547039301, 9547039302, 9547039303, 9547039304, 9547039305, 9547039306, 9547039307, 9547039308, 9547039309, 9547039310, 9547039301], "tags": {"amenity": "food_court", "building": "yes", "name": "K\u00fc\u00e7\u00fck\u00e7ekmece Belediyesi So\u011fuksu Sosyal Tesisleri"}}, {"type": "way", "id": 1060344998, "nodes": [9742053921, 9742053922, 9742053923, 9742053924, 9742053925, 9742053921], "tags": {"amenity": "food_court", "building": "yes"}}]}