{"version": 0.6, "generator": "Overpass API 0.7.60 f4c14d41", "osm3s": {"timestamp_osm_base": "2023-05-02T21:21:23Z", "copyright": "The data included in this document is from www.openstreetmap.org. The data is made available under ODbL."}, "elements": [{"type": "node", "id": 5482189639, "lat": 41.0595777, "lon": 28.9495675, "tags": {"name": "Labirent-maze", "tourism": "attraction"}}, {"type": "node", "id": 5482303122, "lat": 41.0606675, "lon": 28.9478424, "tags": {"name": "Kristal Istanbul", "name:en": "Crystal Istanbul", "tourism": "attraction"}}, {"type": "node", "id": 6811908186, "lat": 41.0585054, "lon": 28.6646441, "tags": {"name": "Pelit \u00c7\u0131kolata M\u00fczesi", "name:ar": "\u0645\u062a\u062d\u0641 \u0627\u0644\u0634\u0648\u0643\u0644\u0627\u0646\u0647", "name:en": "chocolate museum", "tourism": "attraction"}}, {"type": "node", "id": 9056446718, "lat": 41.0752354, "lon": 28.7416881, "tags": {"name:en": "Yar\u0131mburgaz Cave", "name:ru": "\u041f\u0435\u0449\u0435\u0440\u0430-\u043c\u043e\u043d\u0430\u0441\u0442\u044b\u0440\u044c Yar\u0131mburgaz", "tourism": "attraction"}}, {"type": "node", "id": 9202737517, "lat": 41.1852056, "lon": 28.7537389, "tags": {"name": "\u0627\u0628\u0648 \u0627\u0644\u0633\u0641\u0631", "tourism": "attraction"}}, {"type": "node", "id": 10694826335, "lat": 41.1691123, "lon": 28.9371587, "tags": {"name": "\u0410\u043a\u0432\u0435\u0434\u0443\u043a \u041f\u0430\u0448\u0430\u0434\u0435\u0440\u0435", "tourism": "attraction"}}]}