{"version": 0.6, "generator": "Overpass API 0.7.60 f4c14d41", "osm3s": {"timestamp_osm_base": "2023-05-02T21:17:24Z", "copyright": "The data included in this document is from www.openstreetmap.org. The data is made available under ODbL."}, "elements": [{"type": "node", "id": 148916017, "lat": -33.5739394, "lon": 151.1925377, "tags": {"addr:city": "Cowan", "addr:housenumber": "1296", "addr:street": "Pacific Highway", "amenity": "restaurant", "check_date": "2022-07-18", "contact:email": "pieinthesky_cowan@bigpond.com", "contact:phone": "+61 2 9985 7018", "cuisine": "pie;coffee_shop", "level": "0", "name": "Pie in the Sky Cafe", "opening_hours": "Mo-Fr 09:00-17:00; Sa-Su 08:00-17:00; PH 08:00-17:00", "outdoor_seating": "yes", "takeaway": "yes", "website": "http://www.pieintheskycowan.com.au/"}}, {"type": "node", "id": 410058861, "lat": -33.6005988, "lon": 151.1249718, "tags": {"amenity": "restaurant", "cuisine": "regional", "name": "Berowra Waters Garden House - closed"}}, {"type": "node", "id": 744316427, "lat": -33.7714125, "lon": 151.0810009, "tags": {"amenity": "restaurant", "cuisine": "indian", "name": "Rang Mahal Indian Restaurant", "phone": "+61 2 9869 8026", "website": "http://www.rangmahal.net.au"}}, {"type": "node", "id": 747652950, "lat": -33.7613612, "lon": 150.9932497, "tags": {"amenity": "restaurant", "name": "Money Bag Thai"}}, {"type": "node", "id": 762067994, "lat": -33.7533953, "lon": 151.292059, "tags": {"addr:housenumber": "69", "addr:postcode": "2099", "addr:state": "NSW", "addr:street": "Howard Avenue", "addr:suburb": "Dee Why", "amenity": "restaurant", "cuisine": "pizza", "name": "Olive & Peel"}}, {"type": "node", "id": 768558035, "lat": -33.710993, "lon": 151.1372704, "tags": {"addr:street": "Hampden Avenue", "amenity": "restaurant", "cuisine": "thai", "name": "Cozy Thai"}}, {"type": "node", "id": 810068376, "lat": -33.7025346, "lon": 151.096565}, {"type": "node", "id": 810068436, "lat": -33.7024458, "lon": 151.0965828}, {"type": "node", "id": 810068477, "lat": -33.7024226, "lon": 151.0963942}, {"type": "node", "id": 810068507, "lat": -33.702502, "lon": 151.0963724}, {"type": "node", "id": 829661519, "lat": -33.7029693, "lon": 151.0971142, "tags": {"amenity": "restaurant", "cuisine": "thai", "fixme": "Business has closed, new restaurant in its place", "name": "Thai Tables"}}, {"type": "node", "id": 932466491, "lat": -33.7161411, "lon": 151.1089639, "tags": {"amenity": "restaurant", "name": "Mogul Indian Restaurant"}}, {"type": "node", "id": 1170757249, "lat": -33.771295, "lon": 151.0807042, "tags": {"amenity": "restaurant", "name": "Vietnamese restaurant", "wheelchair": "yes"}}, {"type": "node", "id": 1171835447, "lat": -33.7576374, "lon": 150.9930146}, {"type": "node", "id": 1171835448, "lat": -33.7572382, "lon": 150.9929878}, {"type": "node", "id": 1171835449, "lat": -33.7572427, "lon": 150.9925559}, {"type": "node", "id": 1171835451, "lat": -33.7576641, "lon": 150.9926686}, {"type": "node", "id": 1798158413, "lat": -33.7208764, "lon": 151.0822051, "tags": {"addr:housenumber": "1/30", "addr:postcode": "2120", "addr:street": "Sefton Road", "amenity": "restaurant", "cuisine": "thai", "name": "La Thai", "source": "GPS survey", "website": "https://www.lathai.com.au/"}}, {"type": "node", "id": 1861715814, "lat": -33.6233458, "lon": 151.1514323}, {"type": "node", "id": 1861715852, "lat": -33.6234358, "lon": 151.1517218}, {"type": "node", "id": 1861715854, "lat": -33.6234907, "lon": 151.1516378}, {"type": "node", "id": 1861715860, "lat": -33.6235223, "lon": 151.1515894}, {"type": "node", "id": 1870069510, "lat": -33.5994615, "lon": 151.1205836, "tags": {"amenity": "restaurant", "name": "Waterview Restaurant", "website": "https://waterviewrestaurant.com.au"}}, {"type": "node", "id": 1872203556, "lat": -33.5503671, "lon": 151.2742131}, {"type": "node", "id": 2060895637, "lat": -33.7609092, "lon": 151.1287281, "tags": {"amenity": "restaurant", "wheelchair": "yes"}}, {"type": "node", "id": 2060915193, "lat": -33.7040554, "lon": 151.1006766, "tags": {"addr:housename": "Westfield Shoppingtown", "addr:housenumber": "Shop B22", "addr:postcode": "2077", "addr:street": "Florence Street", "amenity": "restaurant", "name": "Blu Watergrill Restaurant", "website": "https://www.bluwatergrill.com.au/"}}, {"type": "node", "id": 2060915194, "lat": -33.7041745, "lon": 151.1007219, "tags": {"amenity": "restaurant", "level": "0", "name": "bluwater eat+drink"}}, {"type": "node", "id": 2108414275, "lat": -33.717005, "lon": 151.2960719, "tags": {"amenity": "restaurant", "cuisine": "seafood", "level": "2", "name": "Lim\u00e1ni", "source": "survey", "source:location": "gps", "wheelchair": "yes"}}, {"type": "node", "id": 2109091749, "lat": -33.5466049, "lon": 151.2280835, "tags": {"amenity": "restaurant", "name": "King Tide Cafe", "outdoor_seating": "yes", "takeaway": "yes"}}, {"type": "node", "id": 2183515636, "lat": -33.7129661, "lon": 151.2970807, "tags": {"addr:city": "Narrabeen", "addr:housenumber": "1431", "addr:postcode": "2101", "addr:state": "NSW", "addr:street": "Pittwater Road", "addr:unit": "Shop 1", "amenity": "restaurant", "cuisine": "indian", "diet:vegetarian": "yes", "name": "Spice Bazaar", "phone": "+61 2 9970 7630", "takeaway": "yes"}}, {"type": "node", "id": 2300968682, "lat": -33.7569607, "lon": 151.0031416, "tags": {"amenity": "restaurant", "cuisine": "thai"}}, {"type": "node", "id": 2328070774, "lat": -33.5915123, "lon": 151.3236868}, {"type": "node", "id": 2328070811, "lat": -33.5915369, "lon": 151.3238016}, {"type": "node", "id": 2328070816, "lat": -33.5915709, "lon": 151.3237648}, {"type": "node", "id": 2328070885, "lat": -33.5913766, "lon": 151.3238335}, {"type": "node", "id": 2328070921, "lat": -33.5914688, "lon": 151.3239563}, {"type": "node", "id": 2347206176, "lat": -33.7295168, "lon": 151.1622702, "tags": {"amenity": "restaurant", "cuisine": "regional"}}, {"type": "node", "id": 2347235413, "lat": -33.671033, "lon": 151.1146632, "tags": {"addr:housename": "Shp5&6", "addr:housenumber": "599", "addr:postcode": "2079", "addr:street": "Pacific Highway", "amenity": "restaurant", "cuisine": "pizza", "delivery": "yes", "designation": "Restaurants", "name": "Mount Colah Pizzeria", "old_name": "Mount Colah Gourmet Pizza", "opening_hours": "Tu-Th 16:30-21:00; Fr-Su 18:30-22:00; Mo off", "phone": "+61 2 9477 5000", "takeaway": "yes", "wheelchair": "yes"}}, {"type": "node", "id": 2362666663, "lat": -33.7562057, "lon": 151.153687, "tags": {"amenity": "restaurant", "cuisine": "chinese", "name": "Choyan", "opening_hours": "Tu-Su 11:30-15:00, Tu-Th,Su,PH 17:00-22:00", "wheelchair": "no"}}, {"type": "node", "id": 2362666668, "lat": -33.7562949, "lon": 151.152775, "tags": {"amenity": "restaurant", "brand": "Pizza Hut", "brand:wikidata": "Q191615", "brand:wikipedia": "en:Pizza Hut", "cuisine": "pizza", "name": "Pizza Hut", "website": "https://www.pizzahut.com.au/"}}, {"type": "node", "id": 2374461216, "lat": -33.7300145, "lon": 151.0822653, "tags": {"amenity": "restaurant", "cuisine": "asian", "name": "Istana"}}, {"type": "node", "id": 2408339141, "lat": -33.6781199, "lon": 151.2931301, "tags": {"addr:housenumber": "82", "addr:street": "Mona Vale Road", "amenity": "restaurant", "cuisine": "international", "name": "Pittwater RSL", "opening_hours": "Mo-Su 09:30-03:30", "phone": "+61 2 9997 3833", "website": "https://www.pittwaterrsl.com.au/"}}, {"type": "node", "id": 2447933175, "lat": -33.717234, "lon": 151.1735136, "tags": {"addr:housenumber": "2/351", "addr:street": "Mona Vale Road", "amenity": "restaurant", "brand": "Nando's", "brand:wikidata": "Q3472954", "brand:wikipedia": "en:Nando's", "cuisine": "chicken;portuguese", "name": "Nando's"}}, {"type": "node", "id": 2614285340, "lat": -33.7692484, "lon": 151.0271266, "tags": {"amenity": "restaurant", "cuisine": "thai", "name": "Basil and Lime"}}, {"type": "node", "id": 2636614889, "lat": -33.6982278, "lon": 151.2164841}, {"type": "node", "id": 2636614890, "lat": -33.698107, "lon": 151.2167529}, {"type": "node", "id": 2636614891, "lat": -33.6975783, "lon": 151.2164097}, {"type": "node", "id": 2636614892, "lat": -33.6976991, "lon": 151.2161409}, {"type": "node", "id": 2636615476, "lat": -33.697433, "lon": 151.2166657}, {"type": "node", "id": 2636615482, "lat": -33.6977729, "lon": 151.2168612}, {"type": "node", "id": 2636615484, "lat": -33.6974886, "lon": 151.216526}, {"type": "node", "id": 2636615486, "lat": -33.6978285, "lon": 151.2167215}, {"type": "node", "id": 2636638689, "lat": -33.6988104, "lon": 151.2150974}, {"type": "node", "id": 2636638690, "lat": -33.6986184, "lon": 151.2151609}, {"type": "node", "id": 2636638691, "lat": -33.6985045, "lon": 151.214691}, {"type": "node", "id": 2636638703, "lat": -33.6986926, "lon": 151.2146213}, {"type": "node", "id": 2694370559, "lat": -33.6978495, "lon": 151.2164412, "tags": {"amenity": "restaurant", "name": "Buddha Belly Restaurant"}}, {"type": "node", "id": 2865680108, "lat": -33.7022258, "lon": 151.0977229}, {"type": "node", "id": 2865680118, "lat": -33.7024921, "lon": 151.097222}, {"type": "node", "id": 2865680119, "lat": -33.7022165, "lon": 151.0976563}, {"type": "node", "id": 2865680120, "lat": -33.702462, "lon": 151.0976096}, {"type": "node", "id": 2865680121, "lat": -33.7024729, "lon": 151.0976806}, {"type": "node", "id": 2865680124, "lat": -33.7021991, "lon": 151.0975045}, {"type": "node", "id": 2865680125, "lat": -33.7024252, "lon": 151.0974626}, {"type": "node", "id": 2865680126, "lat": -33.702193, "lon": 151.0974563}, {"type": "node", "id": 2865680127, "lat": -33.7024194, "lon": 151.0974176}, {"type": "node", "id": 2865680130, "lat": -33.702171, "lon": 151.0973093}, {"type": "node", "id": 2865680131, "lat": -33.7023583, "lon": 151.0972747}, {"type": "node", "id": 2865680132, "lat": -33.702163, "lon": 151.0972469}, {"type": "node", "id": 2865680133, "lat": -33.7022886, "lon": 151.0972208}, {"type": "node", "id": 2865680134, "lat": -33.7022924, "lon": 151.0972404}, {"type": "node", "id": 2865680144, "lat": -33.7022433, "lon": 151.0971146}, {"type": "node", "id": 2865680145, "lat": -33.7022994, "lon": 151.0971209}, {"type": "node", "id": 2865680146, "lat": -33.7024577, "lon": 151.0973181}, {"type": "node", "id": 2865680147, "lat": -33.7024359, "lon": 151.097312}, {"type": "node", "id": 2865680148, "lat": -33.7024126, "lon": 151.0972786}, {"type": "node", "id": 2865680149, "lat": -33.7022951, "lon": 151.0972612}, {"type": "node", "id": 2865680151, "lat": -33.7028482, "lon": 151.0977487}, {"type": "node", "id": 2865680152, "lat": -33.7028687, "lon": 151.0978824}, {"type": "node", "id": 2865680153, "lat": -33.7028004, "lon": 151.0979085}, {"type": "node", "id": 2865680154, "lat": -33.7027782, "lon": 151.0977642}, {"type": "node", "id": 2865694184, "lat": -33.7022546, "lon": 151.0972279}, {"type": "node", "id": 2865694186, "lat": -33.7021635, "lon": 151.0971127}, {"type": "node", "id": 2865694187, "lat": -33.7021485, "lon": 151.0971402}, {"type": "node", "id": 2865694188, "lat": -33.7027521, "lon": 151.09792}, {"type": "node", "id": 2865694189, "lat": -33.7027335, "lon": 151.0978003}, {"type": "node", "id": 2865694190, "lat": -33.7027111, "lon": 151.0979292}, {"type": "node", "id": 2865694191, "lat": -33.7026876, "lon": 151.0977871}, {"type": "node", "id": 3123406332, "lat": -33.6132174, "lon": 151.1395074, "tags": {"amenity": "restaurant", "cuisine": "pizza", "name": "Bambinos Too"}}, {"type": "node", "id": 3147374555, "lat": -33.7017458, "lon": 151.0998102, "tags": {"addr:city": "Hornsby", "addr:housenumber": "86", "addr:postcode": "2077", "addr:street": "George Street", "amenity": "restaurant", "branch": "Hornsby", "brand": "Pizza Hut", "brand:wikidata": "Q191615", "brand:wikipedia": "en:Pizza Hut", "cuisine": "pizza", "delivery": "yes", "name": "Pizza Hut", "opening_hours": "Su-Th 11:00-23:00; Fr-Sa 11:00-00:00", "operator": "Pizza Hut", "phone:AU": "1300 749 924", "takeaway": "only", "website": "https://www.pizzahut.com.au/"}}, {"type": "node", "id": 3162173703, "lat": -33.7018731, "lon": 151.1006842, "tags": {"amenity": "restaurant", "cuisine": "international", "name": "Paradise Restaurant and Supermarket"}}, {"type": "node", "id": 3163849900, "lat": -33.6991296, "lon": 151.1004003, "tags": {"amenity": "restaurant", "cuisine": "pizza", "name": "Crust Pizza"}}, {"type": "node", "id": 3271960301, "lat": -33.7590318, "lon": 151.0939068, "tags": {"amenity": "restaurant", "cuisine": "italian", "name": "Via Roma", "source": "knowledge"}}, {"type": "node", "id": 3301423383, "lat": -33.758716, "lon": 151.093473, "tags": {"amenity": "restaurant", "name": "TaOne Thai"}}, {"type": "node", "id": 3511310745, "lat": -33.5288039, "lon": 151.2019441}, {"type": "node", "id": 3511310746, "lat": -33.5288062, "lon": 151.202045}, {"type": "node", "id": 3511310747, "lat": -33.5288533, "lon": 151.2020434}, {"type": "node", "id": 3511310748, "lat": -33.5288561, "lon": 151.2021674}, {"type": "node", "id": 3511310749, "lat": -33.528947, "lon": 151.2021643}, {"type": "node", "id": 3511310750, "lat": -33.5289483, "lon": 151.2022203}, {"type": "node", "id": 3511310751, "lat": -33.529093, "lon": 151.2021106}, {"type": "node", "id": 3511310752, "lat": -33.5290955, "lon": 151.2022154}, {"type": "node", "id": 3511310753, "lat": -33.5291437, "lon": 151.2019328}, {"type": "node", "id": 3511310754, "lat": -33.5291478, "lon": 151.2021088}, {"type": "node", "id": 3513963777, "lat": -33.6004021, "lon": 151.1249183}, {"type": "node", "id": 3513963778, "lat": -33.6003902, "lon": 151.1250105}, {"type": "node", "id": 3513963781, "lat": -33.6005071, "lon": 151.1250079}, {"type": "node", "id": 3513963782, "lat": -33.6004937, "lon": 151.1249346}, {"type": "node", "id": 3777504172, "lat": -33.7184878, "lon": 151.1175521, "tags": {"amenity": "restaurant", "cuisine": "sushi", "name": "Sushi house"}}, {"type": "node", "id": 3799942317, "lat": -33.6830575, "lon": 151.2303344, "tags": {"amenity": "restaurant", "cuisine": "italian", "fixme": "location! Web used as source of restaurant ."}}, {"type": "node", "id": 4169339789, "lat": -33.7561946, "lon": 151.1528281, "tags": {"amenity": "restaurant", "name": "Mehfil Indian Restaurant"}}, {"type": "node", "id": 4259635193, "lat": -33.5341571, "lon": 151.1573778}, {"type": "node", "id": 4259635194, "lat": -33.5341833, "lon": 151.1573074}, {"type": "node", "id": 4259635196, "lat": -33.5341912, "lon": 151.1573673}, {"type": "node", "id": 4259635203, "lat": -33.5342325, "lon": 151.1573026}, {"type": "node", "id": 4259635204, "lat": -33.5342345, "lon": 151.1576728}, {"type": "node", "id": 4259635205, "lat": -33.5342384, "lon": 151.1573497}, {"type": "node", "id": 4259635224, "lat": -33.5343051, "lon": 151.1576072}, {"type": "node", "id": 4259635225, "lat": -33.5343118, "lon": 151.1576295}, {"type": "node", "id": 4259635227, "lat": -33.5343166, "lon": 151.1576457}, {"type": "node", "id": 4259635230, "lat": -33.5343225, "lon": 151.1576019}, {"type": "node", "id": 4259635233, "lat": -33.5343297, "lon": 151.1576243}, {"type": "node", "id": 4308763578, "lat": -33.7056111, "lon": 151.0996384, "tags": {"amenity": "restaurant", "cuisine": "indian", "name": "Curry House"}}, {"type": "node", "id": 4333271923, "lat": -33.7107759, "lon": 151.104928}, {"type": "node", "id": 4333271925, "lat": -33.7108139, "lon": 151.1048988}, {"type": "node", "id": 4333271935, "lat": -33.7109093, "lon": 151.1051826}, {"type": "node", "id": 4333271941, "lat": -33.7109515, "lon": 151.1051503}, {"type": "node", "id": 4353406493, "lat": -33.7039968, "lon": 151.1017249, "tags": {"amenity": "restaurant", "cuisine": "chinese", "level": "2", "name": "Loong Cheong Restaurant"}}, {"type": "node", "id": 4353444337, "lat": -33.7043286, "lon": 151.1004036}, {"type": "node", "id": 4353444338, "lat": -33.7043368, "lon": 151.1004739}, {"type": "node", "id": 4353444341, "lat": -33.7045897, "lon": 151.1003592}, {"type": "node", "id": 4353444342, "lat": -33.704598, "lon": 151.1004296}, {"type": "node", "id": 4373866348, "lat": -33.6235802, "lon": 151.1515009}, {"type": "node", "id": 4385213888, "lat": -33.7065058, "lon": 151.1093827}, {"type": "node", "id": 4385215591, "lat": -33.7065203, "lon": 151.1094828}, {"type": "node", "id": 4385215592, "lat": -33.7065718, "lon": 151.1093689}, {"type": "node", "id": 4385215593, "lat": -33.7065863, "lon": 151.109469}, {"type": "node", "id": 4385215596, "lat": -33.7066399, "lon": 151.1093547}, {"type": "node", "id": 4385215597, "lat": -33.7066544, "lon": 151.1094548}, {"type": "node", "id": 4651819843, "lat": -33.7624139, "lon": 151.2161742, "tags": {"amenity": "restaurant", "cuisine": "chinese", "name": "Forestville Chinese Restaurant"}}, {"type": "node", "id": 4731339321, "lat": -33.7302145, "lon": 151.081408, "tags": {"amenity": "restaurant", "cuisine": "chinese", "name": "Chiu Chou Garden", "name:zh": "\u5275\u671d\u6a13"}}, {"type": "node", "id": 4733321528, "lat": -33.7474094, "lon": 151.0504392, "tags": {"addr:housenumber": "558B", "addr:postcode": "2125", "addr:street": "Pennant Hills Road", "amenity": "restaurant", "cuisine": "pizza", "name": "Johnny's Pizza & Pasta", "opening_hours": "Su-Th 17:00-23:00; Fr-Sa", "phone": "+61 2 9484 3409", "website": "http://www.johnnyspizzeria.com.au/"}}, {"type": "node", "id": 4737170023, "lat": -33.7301324, "lon": 151.0815, "tags": {"addr:housenumber": "2-4", "addr:postcode": "2120", "addr:street": "Central Avenue", "amenity": "restaurant", "cuisine": "chinese", "name": "Lee Chinese Garden Restaurant", "name:zh": "\u5927\u83ef\u6d77\u9bae\u9152\u6a13", "phone": "+61 2 9480 7942", "website": "http://leechineserestaurant.com.au"}}, {"type": "node", "id": 4956461224, "lat": -33.7108567, "lon": 151.1048819, "tags": {"amenity": "restaurant", "cuisine": "thai", "name": "3 Elephants", "phone": "+61 2 94896671", "takeaway": "yes"}}, {"type": "node", "id": 5028621021, "lat": -33.7694718, "lon": 151.0263787, "tags": {"addr:housenumber": "3", "addr:postcode": "2151", "addr:street": "Lawndale Avenue", "amenity": "restaurant", "cuisine": "pizza;pasta", "name": "North Rocks Gourmet Pizza", "phone": "+61 2 98711843"}}, {"type": "node", "id": 5181444961, "lat": -33.5418795, "lon": 151.1994894}, {"type": "node", "id": 5181444962, "lat": -33.5419451, "lon": 151.1996391}, {"type": "node", "id": 5181444963, "lat": -33.5417197, "lon": 151.1997813}, {"type": "node", "id": 5181444964, "lat": -33.5416541, "lon": 151.1996316}, {"type": "node", "id": 5184858552, "lat": -33.7194274, "lon": 151.0686086, "tags": {"addr:housenumber": "4-8", "addr:postcode": "2120", "addr:state": "NSW", "addr:street": "Eucalyptus Drive", "addr:suburb": "Westleigh", "addr:unit": "Shop 16", "amenity": "restaurant", "email": "westleighmezzebar@gmail.com", "name": "Westleigh Mezze Bar", "opening_hours": "Mo-Fr 07:00-16:00; Sa-Su 07:00-15:00", "outdoor_seating": "yes", "phone": "+61 2 8411 1519", "reservation": "yes", "smoking": "no", "takeaway": "yes", "website": "https://www.westleighmezzebar.com/", "wheelchair": "yes"}}, {"type": "node", "id": 5273428763, "lat": -33.7221628, "lon": 151.0252961, "tags": {"amenity": "restaurant", "name": "Sedici Oakhill", "source": "Survey"}}, {"type": "node", "id": 5274329663, "lat": -33.7267943, "lon": 150.997784, "tags": {"alt_name": "Jin Yan", "amenity": "restaurant", "cuisine": "asian", "name": "Jin Yan Asian Cusine", "source": "Survey"}}, {"type": "node", "id": 5274677890, "lat": -33.7220512, "lon": 151.0253739, "tags": {"amenity": "restaurant", "cuisine": "chinese", "name": "Oakhill Oriental", "source": "Survey"}}, {"type": "node", "id": 5278933537, "lat": -33.7613798, "lon": 150.9928112, "tags": {"amenity": "restaurant", "cuisine": "chinese", "name": "Dumplings Taipei", "opening_hours": "We-Mo 11:30-02:30,05:00-08:30", "source": "Survey"}}, {"type": "node", "id": 5323195454, "lat": -33.7322233, "lon": 151.0050206, "tags": {"amenity": "restaurant", "cuisine": "thai", "name": "Kinn Niyom Thai Restraunt", "source": "Survey"}}, {"type": "node", "id": 5334248435, "lat": -33.6362052, "lon": 151.3315632, "tags": {"amenity": "restaurant"}}, {"type": "node", "id": 5334348025, "lat": -33.7327675, "lon": 151.005361, "tags": {"amenity": "restaurant", "cuisine": "chinese", "name": "Mr. Dim Sim", "source": "Survey"}}, {"type": "node", "id": 5341480448, "lat": -33.7323846, "lon": 151.0046776, "tags": {"alt_name": "Criniti's Castle Hill", "amenity": "restaurant", "cuisine": "italian", "int_name": "Criniti's Australia Castle Hill", "name": "Criniti's Ristorante", "source": "Survey"}}, {"type": "node", "id": 5341480449, "lat": -33.7324417, "lon": 151.0048514, "tags": {"alt_name": "Kaito Castle Hill", "amenity": "restaurant", "cuisine": "sushi", "name": "Kaito Sake Bar", "old_name": "Sushi Bay Castle Hill", "source": "Survey"}}, {"type": "node", "id": 5408547967, "lat": -33.6603166, "lon": 151.3090821, "tags": {"amenity": "restaurant", "name": "Bert's Bar & Brasserie"}}, {"type": "node", "id": 5504660127, "lat": -33.65291, "lon": 151.0465322, "tags": {"amenity": "restaurant", "cuisine": "burger;sandwich", "name": "The Local Collective", "opening_hours": "Mo-Fr 06:00-16:00, Sa 07:00-15:00, Su 08:00-15:00", "outdoor_seating": "yes"}}, {"type": "node", "id": 5681242325, "lat": -33.7079438, "lon": 151.2963068, "tags": {"addr:housenumber": "1493", "addr:street": "Pittwater Road", "amenity": "restaurant", "cuisine": "italian;pizza", "name": "Villaggio Ristorante", "opening_hours": "Mo-Su 17:00-10:00", "phone": "+61 2 9913 3340", "website": "https://villaggioristorante.com.au/"}}, {"type": "node", "id": 5681242326, "lat": -33.7229624, "lon": 151.2990263, "tags": {"addr:city": "Narrabeen", "addr:housenumber": "1200", "addr:postcode": "2101", "addr:state": "NSW", "addr:street": "Pittwater Road", "amenity": "restaurant", "check_date:opening_hours": "2023-01-25", "cuisine": "burger;international;regional;seafood", "name": "Cabana Beach Kiosk", "opening_hours": "We 07:00-15:00; Th-Su 07:00-21:00", "website": "https://www.cabanabeachkiosk.com"}}, {"type": "node", "id": 5681270323, "lat": -33.7623442, "lon": 151.2918223, "tags": {"addr:housenumber": "142", "addr:street": "Pitt Road", "amenity": "restaurant", "cuisine": "mexican", "name": "Muchacha Mexican kitchen", "website": "https://www.muchachamexican.com/"}}, {"type": "node", "id": 5819570615, "lat": -33.5501372, "lon": 151.2739663}, {"type": "node", "id": 5819570616, "lat": -33.5501219, "lon": 151.2739949}, {"type": "node", "id": 5819570617, "lat": -33.5501641, "lon": 151.2740289}, {"type": "node", "id": 5901232293, "lat": -33.7322808, "lon": 151.0051524, "tags": {"alt_name": "Lilong by Taste of Shanghai Castle Hill", "amenity": "restaurant", "cuisine": "chinese", "name": "Taste of Shanghai", "website": "https://tasteofshanghai.com.au/lilong/"}}, {"type": "node", "id": 5901232306, "lat": -33.7206249, "lon": 151.0435724, "tags": {"alt_name": "Li'L Cilantro: Vietnamese-French Flair", "amenity": "restaurant", "cuisine": "vietnamese", "name": "Li'L Cilantro"}}, {"type": "node", "id": 6008784309, "lat": -33.7346634, "lon": 151.0036825}, {"type": "node", "id": 6115021587, "lat": -33.6830662, "lon": 151.2303241, "tags": {"amenity": "restaurant", "name": "Cavallino"}}, {"type": "node", "id": 6174847788, "lat": -33.7066026, "lon": 151.0987074, "tags": {"amenity": "restaurant", "cuisine": "persian", "name": "Jaam-e jam restaurant", "name:fa": "\u0631\u0633\u062a\u0648\u0631\u0627\u0646 \u062c\u0627\u0645 \u062c\u0645"}}, {"type": "node", "id": 6190630406, "lat": -33.7550399, "lon": 151.296037, "tags": {"addr:housenumber": "6", "addr:street": "The Strand", "amenity": "restaurant", "cuisine": "japanese", "name": "Ocean Sushi", "phone": "+61 9972 0277", "website": "https://www.facebook.com/Ocean-Sushi-Deewhy-280525598658878/"}}, {"type": "node", "id": 6280574888, "lat": -33.7057167, "lon": 151.3039087, "tags": {"addr:city": "Narrabeen", "addr:housenumber": "209-211", "addr:postcode": "2101", "addr:street": "Ocean Street", "addr:unit": "Shop 1", "amenity": "restaurant", "check_date:opening_hours": "2021-02-23", "cuisine": "international;mediterranean;regional", "diet:vegetarian": "yes", "name": "Moonlight drive", "opening_hours": "Tu-Su 07:00-23:00", "outdoor_seating": "yes", "phone": "+61 2 9970 8363", "start_date": "2017", "website": "http://moonlightdrive.com.au/"}}, {"type": "node", "id": 6280628157, "lat": -33.7272437, "lon": 151.2870476, "tags": {"addr:street": "Veterans Parade", "amenity": "restaurant", "cuisine": "italian;pizza", "name": "Amo's Pizza", "phone": "+61 2 9981 4487", "takeaway": "yes", "website": "www.amospizza.com.au"}}, {"type": "node", "id": 6280630299, "lat": -33.7129274, "lon": 151.2981869, "tags": {"addr:street": "Waterloo Street", "addr:suburb": "Narrabeen", "amenity": "restaurant", "cuisine": "thai", "name": "Five Star Thai Narrabeen", "opening_hours": "Mo-Th, Su 11:30-15:00, 17:30-21:30; Fr, Sa 11:30-15:00, 17:30-22:00", "phone": "+61 2", "website": "www.fivestarthai.com.au"}}, {"type": "node", "id": 6280632372, "lat": -33.7057526, "lon": 151.3040429, "tags": {"addr:city": "Narrabeen", "addr:housenumber": "209-211", "addr:postcode": "2101", "addr:street": "Ocean Street", "addr:unit": "Shop 2", "amenity": "restaurant", "cuisine": "mexican", "delivery": "yes", "name": "Mexicano", "opening_hours": "Tu-Sa 17:30-23:00; Su 11:30-23:00", "operator": "Mexicano", "phone": "+61-2-9970 8975", "takeaway": "yes", "website": "https://www.mexicano.com.au/"}}, {"type": "node", "id": 6296999656, "lat": -33.7321362, "lon": 151.0048549, "tags": {"alt_name": "PappaRich Malaysian Restruant", "amenity": "restaurant", "cuisine": "asian", "name": "PappaRich", "source": "Survey"}}, {"type": "node", "id": 6308160709, "lat": -33.6569451, "lon": 151.3177449, "tags": {"addr:city": "Newport", "addr:housenumber": "303", "addr:state": "NSW", "addr:street": "Barrenjoey Road", "addr:unit": "Shop 2", "amenity": "restaurant", "cuisine": "italian", "delivery": "yes", "name": "Lucky & Pep's", "opening_hours": "We-Mo 17:00-24:00", "outdoor_seating": "yes", "phone": "+61 2 9997 3180", "start_date": "1979", "takeaway": "yes", "website": "http://www.luckysandpeps.com.au/", "wheelchair": "yes"}}, {"type": "node", "id": 6325242039, "lat": -33.6549804, "lon": 151.3200966, "tags": {"addr:city": "Newport", "addr:housenumber": "3A", "addr:postcode": "2106", "addr:street": "Robertson Road", "amenity": "restaurant", "cuisine": "thai", "delivery": "We-Mo 18:00-20:30", "name": "Chilli Sha Sha Thai Kitchen", "opening_hours": "We-Mo 12:00-20:30;Tu off", "phone": "+61 2 9997 8868", "takeaway": "yes", "website": "https://www.chillishasha.com.au/"}}, {"type": "node", "id": 6325242053, "lat": -33.6555888, "lon": 151.3194401, "tags": {"addr:city": "Newport", "addr:housenumber": "335", "addr:postcode": "2106", "addr:street": "Barrenjoey Road", "addr:unit": "Shop 14", "amenity": "restaurant", "cuisine": "thai", "name": "Monkey King", "opening_hours": "Mo-Fr 11:00-15:00,17:00-22:00; Sa-Su 17:00-22:00", "phone": "+61 2 9997 3450", "takeaway": "yes", "website": "https://www.monkeykingthai.com.au/newport-contact/"}}, {"type": "node", "id": 6325242055, "lat": -33.656133, "lon": 151.3187923, "tags": {"addr:city": "Newport", "addr:postcode": "2106", "addr:street": "Barrenjoey Road", "amenity": "restaurant", "cuisine": "thai", "name": "Newport Thai", "phone": "+61 2 9999 5419", "takeaway": "yes"}}, {"type": "node", "id": 6325242056, "lat": -33.6558791, "lon": 151.319088, "tags": {"addr:city": "Newport", "addr:housenumber": "329", "addr:postcode": "2106", "addr:state": "NSW", "addr:street": "Barrenjoey Road", "amenity": "restaurant", "cuisine": "indian", "name": "The Cheer Factory", "opening_hours": "Mo-Su 17:00-21:30", "phone": "+61 2 9999 4762", "takeaway": "yes", "website": "https://thecheerfactory.com.au/"}}, {"type": "node", "id": 6325242059, "lat": -33.6562625, "lon": 151.3186119, "tags": {"amenity": "restaurant", "cuisine": "italian;pizza", "email": "info@pizzeriaecucina.com.au", "name": "Pizzeria E Cucina", "opening_hours": "Mo off; Tu-Su 17:00-24:00", "outdoor_seating": "yes", "phone": "+61 2 9986 0577", "takeaway": "yes", "website": "http://www.pizzeriaecucina.com.au/"}}, {"type": "node", "id": 6325242060, "lat": -33.6563278, "lon": 151.3185087, "tags": {"addr:city": "Newport", "addr:housenumber": "313", "addr:postcode": "2106", "addr:state": "NSW", "addr:street": "Barrenjoey Road", "amenity": "restaurant", "craft_beer": "yes", "cuisine": "american;regional;steak_house", "email": "publichouse@4pinesbeer.com.au", "name": "4 Pines Public House Newport", "opening_hours": "Mo-Th 16:00-24:00; Fr-Su 12:00-24:00", "operator": "4 Pines Beer", "phone": "+61 2 9997 4014"}}, {"type": "node", "id": 6328599231, "lat": -33.7131289, "lon": 151.2970886, "tags": {"addr:city": "Narrabeen", "addr:postcode": "2101", "addr:state": "NSW", "addr:street": "Pittwater Road", "amenity": "restaurant", "cuisine": "sushi", "name": "Sushi Way", "opening_hours": "Mo-Sa 11:30-21:30", "phone": "+61 2 9913 2159", "takeaway": "yes", "wheelchair": "no"}}, {"type": "node", "id": 6328599232, "lat": -33.713043, "lon": 151.2970832, "tags": {"addr:city": "Narrabeen", "addr:housenumber": "1425", "addr:postcode": "2101", "addr:state": "NSW", "addr:street": "Pittwater Road", "amenity": "restaurant", "cuisine": "italian;pizza", "name": "Pizza Riccardo", "opening_hours": "Tu-Su 17:00-24:00", "phone": "+61 2 9970 5995", "takeaway": "yes", "website": "https://www.pizzariccardo.com/"}}, {"type": "node", "id": 6335009643, "lat": -33.7320857, "lon": 151.0047311, "tags": {"amenity": "restaurant", "brand": "Guzman y Gomez", "brand:wikidata": "Q23019759", "brand:wikipedia": "en:Guzman y Gomez", "cuisine": "mexican", "name": "Guzman y Gomez"}}, {"type": "node", "id": 6335009644, "lat": -33.732315, "lon": 151.0046438, "tags": {"amenity": "restaurant", "cuisine": "chicken", "name": "Gami Chicken and Beer"}}, {"type": "node", "id": 6335009647, "lat": -33.7324507, "lon": 151.0049393, "tags": {"alt_name": "\u713c\u8089\u3053\u305a", "amenity": "restaurant", "cuisine": "japanese", "name": "Yakiniku Kosu"}}, {"type": "node", "id": 6335009649, "lat": -33.7325113, "lon": 151.0050343, "tags": {"alt_name": "Enigma at the Piazza", "amenity": "restaurant", "cuisine": "greek", "name": "Enigma"}}, {"type": "node", "id": 6335024584, "lat": -33.7314968, "lon": 151.0055416, "tags": {"alt_name": "Pizza Hut Express", "amenity": "restaurant", "brand": "Pizza Hut", "brand:wikidata": "Q191615", "brand:wikipedia": "en:Pizza Hut", "cuisine": "pizza", "name": "Pizza Hut"}}, {"type": "node", "id": 6335024786, "lat": -33.7325719, "lon": 151.0048949, "tags": {"amenity": "restaurant", "cuisine": "bavarian", "name": "The Bavarian"}}, {"type": "node", "id": 6354037717, "lat": -33.7635529, "lon": 151.2954518, "tags": {"addr:housenumber": "41", "addr:street": "Griffin Road", "amenity": "restaurant", "description": "@EmeliasVegetarian on insta and FB", "diet:vegetarian": "only", "name": "@EmeliasVegetarian", "opening_hours": "Mo-Su 17:30-21:30", "phone": "+61 2 9939 1317"}}, {"type": "node", "id": 6356029030, "lat": -33.7687056, "lon": 151.0292855, "tags": {"amenity": "restaurant", "brand": "Nando's", "brand:wikidata": "Q3472954", "brand:wikipedia": "en:Nando's", "cuisine": "chicken;portuguese", "name": "Nando's"}}, {"type": "node", "id": 6356029358, "lat": -33.7687156, "lon": 151.0291101, "tags": {"amenity": "restaurant", "cuisine": "mediterranean", "name": "Adanos Grill"}}, {"type": "node", "id": 6356030132, "lat": -33.7687371, "lon": 151.0289433, "tags": {"amenity": "restaurant", "name": "The Rocks Pantry"}}, {"type": "node", "id": 6356031303, "lat": -33.768749, "lon": 151.0278882, "tags": {"amenity": "restaurant", "cuisine": "sushi", "name": "Katsu"}}, {"type": "node", "id": 6380614374, "lat": -33.7133477, "lon": 151.2970954, "tags": {"addr:housenumber": "1421", "addr:street": "Pittwater Road", "amenity": "restaurant", "diet:vegetarian": "yes", "name": "Muchacha", "opening_hours": "Tu-Fr 16:30-21:30; Sa, Su 12:00-21:30", "phone": "+61 2 9913 9135", "website": "https://www.muchachamexican.com/"}}, {"type": "node", "id": 6388458327, "lat": -33.7133909, "lon": 151.2970989, "tags": {"addr:housenumber": "1421", "addr:street": "Pittwater Road", "amenity": "restaurant", "contact:facebook": "facebook.com/SparrowAndCoCafe", "cuisine": "burger", "description": "Shop 1", "name": "J. B & Sons", "outdoor_seating": "yes", "phone": "+61", "takeaway": "yes"}}, {"type": "node", "id": 6417873378, "lat": -33.591531, "lon": 151.3239132}, {"type": "node", "id": 6417873379, "lat": -33.591521, "lon": 151.3238999}, {"type": "node", "id": 6417873380, "lat": -33.5915804, "lon": 151.3238597}, {"type": "node", "id": 6417873383, "lat": -33.5922527, "lon": 151.3217515, "tags": {"amenity": "restaurant", "cuisine": "burger;fish;seafood", "fixme": "location", "name": "Beach Road Dining", "operator": "Palm Beach Golf Club"}}, {"type": "node", "id": 6430889284, "lat": -33.7053151, "lon": 151.303784}, {"type": "node", "id": 6430894085, "lat": -33.7054845, "lon": 151.3037488}, {"type": "node", "id": 6430894086, "lat": -33.7052848, "lon": 151.3036905}, {"type": "node", "id": 6430894087, "lat": -33.7054345, "lon": 151.3036204}, {"type": "node", "id": 6430894088, "lat": -33.7052614, "lon": 151.3038091}, {"type": "node", "id": 6430894089, "lat": -33.7054764, "lon": 151.3037746}, {"type": "node", "id": 6430894090, "lat": -33.70528, "lon": 151.3038665}, {"type": "node", "id": 6438671037, "lat": -33.7083045, "lon": 151.2961344, "tags": {"addr:housenumber": "1481", "addr:street": "Pittwater Road", "amenity": "restaurant", "cuisine": "pizza", "name": "Joe's Italian Restaurant & Pizzeria", "opening_hours": "Tu-Su 17:30-21:00", "phone": "+61 2 9970 7180", "takeaway": "yes", "website": "https://joesitaliannarrabeen.com.au/"}}, {"type": "node", "id": 6482205571, "lat": -33.6775876, "lon": 151.3020834, "tags": {"addr:housenumber": "Waratah Street", "addr:street": "13", "addr:unit": "Shop 7", "alcohol": "yes", "amenity": "restaurant", "cuisine": "pizza", "name": "Caruso's Woodfired Pizzeria", "opening_hours": "Tu-Su 17:00-23:00", "outdoor_seating": "yes", "phone": "+61 2 9999 5858", "takeaway": "yes", "website": "https://www.carusoswoodfiredpizzeria.com.au/"}}, {"type": "node", "id": 6515068396, "lat": -33.6781066, "lon": 151.3033752, "tags": {"amenity": "restaurant", "cuisine": "mexican", "name": "MX", "opening_hours": "Mo-Fr 12:00-15:00,17:00-21:00; Sa,Su 17:00-22:00"}}, {"type": "node", "id": 6515068838, "lat": -33.6767255, "lon": 151.3035262, "tags": {"amenity": "restaurant", "name": "Toro Nero"}}, {"type": "node", "id": 6550789063, "lat": -33.7509297, "lon": 151.2439498, "tags": {"amenity": "restaurant", "cuisine": "thai", "name": "The Thai", "outdoor_seating": "yes", "phone": "+61 02 9451 8868"}}, {"type": "node", "id": 6550789065, "lat": -33.7510045, "lon": 151.2439376, "tags": {"amenity": "restaurant", "cuisine": "chinese", "name": "Skyline Chinese Takeaway", "takeaway": "yes"}}, {"type": "node", "id": 6669138183, "lat": -33.6232623, "lon": 151.1515565}, {"type": "node", "id": 6679985806, "lat": -33.7128211, "lon": 151.2979133, "tags": {"addr:street": "Waterloo Street", "addr:suburb": "Narrabeen", "amenity": "restaurant", "cuisine": "sushi", "name": "Suhi Hiro", "opening_hours": "Mo-Su 11:00-21:30", "phone": "+61 2 9970 6268", "takeaway": "yes"}}, {"type": "node", "id": 6681012085, "lat": -33.6885935, "lon": 151.1074704, "tags": {"amenity": "restaurant", "name": "Il Cibo Mediterranean", "opening_hours": "We-Fr 12:00-20:00; Sa 18:00-20:00; Su 12:00-16:00"}}, {"type": "node", "id": 6693597455, "lat": -33.7194322, "lon": 151.2983812, "tags": {"addr:housenumber": "16", "addr:street": "Ocean Street", "addr:unit": "Shop 5", "amenity": "restaurant", "check_date:opening_hours": "2022-08-21", "name": "Barbuto Restaurant", "opening_hours": "Mo-Su 11:30-21:30", "phone": "+61 2 9970 6171", "website": "https://www.barbutorestaurant.com.au/"}}, {"type": "node", "id": 6698957973, "lat": -33.6373551, "lon": 151.3290117, "tags": {"addr:street": "Old Barrenjoey Road", "amenity": "restaurant", "cuisine": "chinese", "delivery": "yes", "name": "Han Court Chinese Restaurant", "phone": "+61 2 9918 2102", "takeaway": "yes"}}, {"type": "node", "id": 6731747386, "lat": -33.7543556, "lon": 151.2963222, "tags": {"amenity": "restaurant", "name": "Di Stefano"}}, {"type": "node", "id": 6743930714, "lat": -33.6591074, "lon": 151.2979978, "tags": {"amenity": "restaurant", "cuisine": "thai", "email": "bluepearlthai@hotmail.com", "level": "1", "name": "Blue Pearl", "outdoor_seating": "yes"}}, {"type": "node", "id": 6760914886, "lat": -33.7560791, "lon": 151.1537076, "tags": {"wheelchair": "limited"}}, {"type": "node", "id": 6760931485, "lat": -33.7562767, "lon": 151.1533639, "tags": {"amenity": "restaurant", "cuisine": "indian", "name": "Curry Monitor"}}, {"type": "node", "id": 6763959542, "lat": -33.7014014, "lon": 151.3060266, "tags": {"addr:housenumber": "1", "addr:street": "Narrabeen Park Parade", "amenity": "restaurant", "cafe": "yes", "cuisine": "japanese;cafe; Australian", "description": "cafe-restaurant-bar with a bet each way on Mod Oz and Japanese.", "name": "ONE", "outdoor_seating": "yes", "phone": "+61 2 9011 7663"}}, {"type": "node", "id": 6814119280, "lat": -33.7079297, "lon": 151.2961652, "tags": {"amenity": "restaurant", "cuisine": "thai", "delivery": "yes", "diet:vegetarian": "yes", "name": "Monkey King", "operator": "Monkey King", "outdoor_seating": "yes", "phone": "+61 2 9913 7103", "takeaway": "yes", "website": "https://www.monkeykingthai.com.au/"}}, {"type": "node", "id": 6833869841, "lat": -33.7129406, "lon": 151.2968965, "tags": {"addr:housenumber": "1431", "addr:street": "Pittwater Road", "amenity": "restaurant", "diet:vegetarian": "yes", "name": "H2O Cafe Restaurant", "opening_hours": "Mo-Su 07:30-17:00; Fr, Sa 18:00-22:00", "outdoor_seating": "yes", "phone": "+61 2 99131360", "website": "https://h2ocafe.com.au/"}}, {"type": "node", "id": 6960965901, "lat": -33.7529763, "lon": 151.2872336, "tags": {"amenity": "restaurant", "brand": "Guzman y Gomez", "brand:wikidata": "Q23019759", "brand:wikipedia": "en:Guzman y Gomez", "cuisine": "mexican", "name": "Guzman y Gomez"}}, {"type": "node", "id": 6965003267, "lat": -33.7321988, "lon": 151.0044184, "tags": {"amenity": "restaurant", "cuisine": "kebab", "name": "Al Aseel", "source": "survey"}}, {"type": "node", "id": 6984240875, "lat": -33.6374627, "lon": 151.3289451, "tags": {"amenity": "restaurant", "level": "1", "name": "Maestro", "phone": "+61 2 8926 2276"}}, {"type": "node", "id": 7023346869, "lat": -33.7627473, "lon": 151.2291609, "tags": {"addr:housenumber": "20", "addr:street": "Grattan Crescent", "amenity": "restaurant", "name": "Austrian Club Restaurant", "opening_hours": "Fr-Sa 18:00-22:00; Su 12:00-20:00", "operator": "austrian", "outdoor_seating": "yes", "phone": "+61 2 9975 3172", "website": "http://www.austrianclubrestaurant.com/"}}, {"type": "node", "id": 7041669323, "lat": -33.7525848, "lon": 151.2879578, "tags": {"addr:street": "Howard Avenue", "amenity": "restaurant", "cuisine": "chicken", "name": "Chargrill Charlie's"}}, {"type": "node", "id": 7056236722, "lat": -33.7023764, "lon": 151.0971607, "tags": {"addr:housenumber": "282", "addr:street": "Pacific Highway", "addr:suburb": "Hornsby", "amenity": "restaurant", "contact:phone": "+61 2 9477 7158", "cuisine": "indian", "name": "Chaat Corner", "opening_hours": "Fr-Su 12:00-16:00; Tu-Su 17:00-22:00", "website": "https://chaatcornerhornsby.com.au/"}}, {"type": "node", "id": 7062581027, "lat": -33.7020382, "lon": 151.2829847, "tags": {"addr:housenumber": "47-49", "addr:street": "Elanora Road", "amenity": "restaurant", "branch": "Elanora Heights", "cuisine": "pizza", "description": "shop 1", "diet:vegetarian": "yes", "name": "Toro Nero", "opening_hours": "Fr, Sa 17:00-22:00; Tu-Th, Su 17:00-21:30", "operator": "Toro Nero Pty Ltd", "outdoor_seating": "yes", "phone": "+61 2 9970 8775", "takeaway": "yes", "website": "https://toronero.com.au/"}}, {"type": "node", "id": 7076558556, "lat": -33.7320241, "lon": 151.0072643, "tags": {"alt_name": "Kabab Pizza", "amenity": "restaurant", "cuisine": "sushi", "name": "Rokyo Sushi", "website": "https://www.castlehillkebabstation.com.au/"}}, {"type": "node", "id": 7076592011, "lat": -33.7329075, "lon": 151.0056379, "tags": {"amenity": "restaurant", "cuisine": "chinese", "name": "Pancake King"}}, {"type": "node", "id": 7076592017, "lat": -33.7330931, "lon": 151.005929, "tags": {"amenity": "restaurant", "cuisine": "korean", "name": "Ban Sang"}}, {"type": "node", "id": 7076592028, "lat": -33.7307902, "lon": 151.0066639, "tags": {"alt_name": "\u307e\u304b\u306a\u3044", "amenity": "restaurant", "cuisine": "japanese", "name": "Makanai Ramen Noodle House"}}, {"type": "node", "id": 7076592032, "lat": -33.7307545, "lon": 151.006563, "tags": {"amenity": "restaurant", "cuisine": "chinese", "name": "Ms Dumpling"}}, {"type": "node", "id": 7076612342, "lat": -33.733597, "lon": 151.0065858, "tags": {"addr:city": "Castle Hill", "addr:housenumber": "3-9, Unit 7", "addr:postcode": "2154", "addr:street": "Terminus Street", "amenity": "restaurant", "cuisine": "kebab", "name": "Two Brothers Mediterranean", "website": "https://www.twobrothersmediterranean.com/"}}, {"type": "node", "id": 7087422574, "lat": -33.7559025, "lon": 151.2962651, "tags": {"addr:housenumber": "154-158", "addr:street": "Pacific Parade", "amenity": "restaurant", "cuisine": "burger", "name": "JB & Sons", "outdoor_seating": "yes", "takeaway": "yes"}}, {"type": "node", "id": 7087422576, "lat": -33.7551158, "lon": 151.2961205, "tags": {"addr:housenumber": "4", "addr:street": "The Strand", "amenity": "restaurant"}}, {"type": "node", "id": 7125125530, "lat": -33.718742, "lon": 151.1172482, "tags": {"addr:housenumber": "15", "addr:street": "Redleaf Avenue", "amenity": "restaurant", "branch": "Wahroonga", "cuisine": "australian", "name": "The Butcher's Block", "opening_hours": "Mo-Fr 05:00-23:55; Sa 05:30-23:55; Su 06:30-21:30", "phone": "+61 2 9487 8136", "takeaway": "yes", "website": "https://butchersblockgroup.com.au/wahroonga.html"}}, {"type": "node", "id": 7125150042, "lat": -33.7195661, "lon": 151.1170746, "tags": {"amenity": "restaurant", "cuisine": "chinese; malaysian", "name": "Lotus inn", "phone": "+61 2 9489 5740"}}, {"type": "node", "id": 7132262723, "lat": -33.7035825, "lon": 151.025851}, {"type": "node", "id": 7132262726, "lat": -33.7036394, "lon": 151.0260707}, {"type": "node", "id": 7132262728, "lat": -33.7036652, "lon": 151.026061}, {"type": "node", "id": 7132262730, "lat": -33.7036929, "lon": 151.026168}, {"type": "node", "id": 7132262733, "lat": -33.7037663, "lon": 151.0258467}, {"type": "node", "id": 7132262734, "lat": -33.7038357, "lon": 151.0261145}, {"type": "node", "id": 7132262735, "lat": -33.7037314, "lon": 151.0258597}, {"type": "node", "id": 7132262738, "lat": -33.7037162, "lon": 151.025801}, {"type": "node", "id": 7138945118, "lat": -33.7186233, "lon": 151.1172899, "tags": {"addr:housenumber": "11", "addr:street": "Redleaf Avenue", "amenity": "restaurant", "cuisine": "sushi", "name": "Blue Lemon Sushi", "opening_hours": "Mo-Sa 07:30-21:00", "phone": "+61 2 9489 7715", "website": "https://m.facebook.com/Blue-Lemon-Sushi-960625300614150/"}}, {"type": "node", "id": 7155942068, "lat": -33.7536154, "lon": 151.2877248, "tags": {"amenity": "restaurant", "name": "Rashays"}}, {"type": "node", "id": 7155952291, "lat": -33.7534791, "lon": 151.2872772, "tags": {"amenity": "restaurant", "name": "Salt Meats Cheese", "outdoor_seating": "yes"}}, {"type": "node", "id": 7176650138, "lat": -33.7393228, "lon": 151.2100807, "tags": {"amenity": "restaurant", "cuisine": "japanese"}}, {"type": "node", "id": 7234400016, "lat": -33.7648682, "lon": 151.1383113}, {"type": "node", "id": 7234400017, "lat": -33.7648656, "lon": 151.1384955}, {"type": "node", "id": 7234400018, "lat": -33.7649256, "lon": 151.1384962}, {"type": "node", "id": 7234400019, "lat": -33.7649285, "lon": 151.138313}, {"type": "node", "id": 7234400020, "lat": -33.7649791, "lon": 151.1383146}, {"type": "node", "id": 7234400021, "lat": -33.7649732, "lon": 151.1385953}, {"type": "node", "id": 7234400023, "lat": -33.7650273, "lon": 151.138597}, {"type": "node", "id": 7234400024, "lat": -33.7650293, "lon": 151.1384847}, {"type": "node", "id": 7234400025, "lat": -33.7650893, "lon": 151.1384862}, {"type": "node", "id": 7234400026, "lat": -33.7650922, "lon": 151.1383183}, {"type": "node", "id": 7276061161, "lat": -33.7308548, "lon": 151.2922783, "tags": {"addr:street": "Telopea Street", "amenity": "restaurant", "cuisine": "indian", "name": "That Indian joint", "opening_hours": "Tu-Th, Su 17:00-21:30; Fr, Sa 17:00-22:00", "phone": "+61 430 155 007", "website": "www.indianjoint.com.au"}}, {"type": "node", "id": 7472366195, "lat": -33.7080544, "lon": 151.2962864, "tags": {"addr:housenumber": "1489", "addr:street": "Pittwater Road", "amenity": "restaurant", "contact:facebook": "https://facebook.com/RiminiGregorio/", "cuisine": "italian;pizza", "name": "Rimini Gregorio", "opening_hours": "Tu-Sa 17:00-21:30; Su 17:00-21:00", "phone": "+61 2 9970 7395"}}, {"type": "node", "id": 7553028382, "lat": -33.7319567, "lon": 151.004502, "tags": {"amenity": "restaurant", "cuisine": "japanese", "name": "Motto Motto"}}, {"type": "node", "id": 7553028384, "lat": -33.7321539, "lon": 151.0055599, "tags": {"amenity": "restaurant", "cuisine": "Yogurt", "name": "Yogurberry"}}, {"type": "node", "id": 7604153335, "lat": -33.7697583, "lon": 151.0994985}, {"type": "node", "id": 7604153336, "lat": -33.7698137, "lon": 151.0995093}, {"type": "node", "id": 7604153337, "lat": -33.7698082, "lon": 151.0995507}, {"type": "node", "id": 7604153338, "lat": -33.7697527, "lon": 151.09954}, {"type": "node", "id": 7673085925, "lat": -33.7328999, "lon": 151.0064784, "tags": {"amenity": "restaurant", "cuisine": "sushi", "name": "Sushi Motto"}}, {"type": "node", "id": 7798360068, "lat": -33.6770645, "lon": 151.3071469}, {"type": "node", "id": 7798360069, "lat": -33.6771069, "lon": 151.3069598}, {"type": "node", "id": 7798360070, "lat": -33.6770495, "lon": 151.306941}, {"type": "node", "id": 7798360071, "lat": -33.6770071, "lon": 151.3071281}, {"type": "node", "id": 7814840353, "lat": -33.7503235, "lon": 151.2239187, "tags": {"addr:housenumber": "22", "addr:postcode": "2086", "addr:state": "NSW", "addr:street": "Forest Way", "addr:suburb": "Frenchs Forest", "amenity": "restaurant", "cuisine": "fast_food;fried_chicken;fries;burger", "name": "Chargrill Charlie\u2019s", "outdoor_seating": "yes", "phone": "+61 2 9452 6969", "takeaway": "yes", "website": "https://chargrillcharlies.com"}}, {"type": "node", "id": 7860575410, "lat": -33.5504209, "lon": 151.2738667}, {"type": "node", "id": 7860575411, "lat": -33.5502755, "lon": 151.2737331}, {"type": "node", "id": 8119989181, "lat": -33.6919189, "lon": 151.3072909, "tags": {"amenity": "restaurant", "cuisine": "asian;chinese", "name": "Sea Star Chinese Restaurant"}}, {"type": "node", "id": 8326261769, "lat": -33.683119, "lon": 151.230993, "tags": {"addr:housenumber": "205", "addr:street": "Mona Vale Road", "amenity": "restaurant", "cuisine": "austrian", "name": "Kaiser Stub'n", "phone": "+61 2 9450 0300", "website": "www.kaiserstubn.com.au"}}, {"type": "node", "id": 8326368321, "lat": -33.6831218, "lon": 151.2307614, "tags": {"addr:housenumber": "205", "addr:street": "Mona Vale Road", "amenity": "restaurant", "cuisine": "australian", "description": "Whole Foods Cafe", "diet:vegetarian": "yes", "email": "info@tempocafe.com.au", "name": "TEMPO", "opening_hours": "Mo-Su 07:00-15:00", "outdoor_seating": "yes", "phone": "+61 2 8998 6575", "takeaway": "yes", "website": "https://www.tempocafe.com.au/"}}, {"type": "node", "id": 8377190480, "lat": -33.6547707, "lon": 151.3205511, "tags": {"amenity": "restaurant", "cuisine": "vietnamese; seafood", "name": "Saigon City", "outdoor_seating": "yes", "phone": "+61 2 9979 8255"}}, {"type": "node", "id": 8377210899, "lat": -33.6556489, "lon": 151.3194047, "tags": {"addr:street": "Barrenjoey Road", "amenity": "restaurant", "cuisine": "malaysian;asian", "name": "Berempah", "opening_hours": "Mo-Su 11:30-15:00, 17:00-22:00"}}, {"type": "node", "id": 8464924660, "lat": -33.6605374, "lon": 151.3087638, "tags": {"amenity": "restaurant", "name": "The Newport", "outdoor_seating": "yes"}}, {"type": "node", "id": 8465056301, "lat": -33.6604167, "lon": 151.3084216, "tags": {"amenity": "restaurant", "cuisine": "pizza", "name": "Vinnie\u2019s Pizza", "opening_hours": "Mo-Su 12:00-24:00", "operator": "Merivale", "outdoor_seating": "yes", "smoking": "no", "takeaway": "yes"}}, {"type": "node", "id": 8493793529, "lat": -33.7472724, "lon": 151.0505961, "tags": {"addr:housenumber": "560", "addr:street": "Pennant Hills Road", "amenity": "restaurant", "name": "Wai\u2019s Kitchen", "opening_hours": "11:30-14:30,16:30-22:00", "phone": "+61 2 9980 1823"}}, {"type": "node", "id": 8513129904, "lat": -33.750082, "lon": 151.2245361, "tags": {"amenity": "restaurant", "name": "The old civic", "opening_hours": "Mo-Fr 06:00-16:30; Sa 07:00-16:30; Su 08:00-16:00", "outdoor_seating": "yes"}}, {"type": "node", "id": 9007714172, "lat": -33.7453817, "lon": 151.2149432, "tags": {"amenity": "restaurant", "cuisine": "chinese"}}, {"type": "node", "id": 9007714173, "lat": -33.7453644, "lon": 151.2151551, "tags": {"amenity": "restaurant", "cuisine": "indian"}}, {"type": "node", "id": 9015820066, "lat": -33.7135982, "lon": 151.1476794, "tags": {"amenity": "restaurant", "cuisine": "pizza", "name": "Farina Pizzeria"}}, {"type": "node", "id": 9022290916, "lat": -33.7278076, "lon": 151.141426}, {"type": "node", "id": 9022292917, "lat": -33.7276604, "lon": 151.1414576}, {"type": "node", "id": 9022292918, "lat": -33.7276686, "lon": 151.1415158}, {"type": "node", "id": 9022292919, "lat": -33.7278192, "lon": 151.1414846}, {"type": "node", "id": 9022292920, "lat": -33.727685, "lon": 151.1415123}, {"type": "node", "id": 9024297327, "lat": -33.7606497, "lon": 150.9920273}, {"type": "node", "id": 9024297328, "lat": -33.7606389, "lon": 150.9920226}, {"type": "node", "id": 9024297329, "lat": -33.7606271, "lon": 150.9920624}, {"type": "node", "id": 9024297330, "lat": -33.7606401, "lon": 150.992068}, {"type": "node", "id": 9024297331, "lat": -33.7606104, "lon": 150.9921677}, {"type": "node", "id": 9024297332, "lat": -33.7607111, "lon": 150.992211}, {"type": "node", "id": 9024297333, "lat": -33.7607773, "lon": 150.9919883}, {"type": "node", "id": 9024297334, "lat": -33.7606744, "lon": 150.991944}, {"type": "node", "id": 9024297338, "lat": -33.760661, "lon": 150.9921895}, {"type": "node", "id": 9028584877, "lat": -33.7346882, "lon": 151.003725}, {"type": "node", "id": 9028584878, "lat": -33.7346002, "lon": 151.0037951}, {"type": "node", "id": 9028584879, "lat": -33.7345541, "lon": 151.0037172}, {"type": "node", "id": 9028584880, "lat": -33.7345316, "lon": 151.0034529}, {"type": "node", "id": 9028584881, "lat": -33.7345442, "lon": 151.0037253}, {"type": "node", "id": 9028584882, "lat": -33.7344492, "lon": 151.0035611}, {"type": "node", "id": 9028585024, "lat": -33.7346583, "lon": 151.0037489}, {"type": "node", "id": 9036820060, "lat": -33.7344813, "lon": 151.0034958}, {"type": "node", "id": 9036820061, "lat": -33.7344963, "lon": 151.0035216}, {"type": "node", "id": 9036820062, "lat": -33.7345463, "lon": 151.0034786}, {"type": "node", "id": 9074996247, "lat": -33.6782244, "lon": 151.3033092, "tags": {"amenity": "restaurant", "cuisine": "japanese;sushi", "name": "Konnichiwa", "phone": "+61 2 9999 3377"}}, {"type": "node", "id": 9198407122, "lat": -33.7135157, "lon": 151.147008, "tags": {"amenity": "restaurant", "name": "The cooks garden", "start_date": "2009"}}, {"type": "node", "id": 9231727339, "lat": -33.7364138, "lon": 151.3025785, "tags": {"addr:housenumber": "1030-1034", "addr:street": "Pittwater Road", "amenity": "restaurant", "name": "Gurtaj Indian", "outdoor_seating": "yes", "phone": "+61 2 9971 2740", "takeaway": "yes"}}, {"type": "node", "id": 9390908242, "lat": -33.7335673, "lon": 151.3016369, "tags": {"addr:street": "Pittwater Road", "amenity": "restaurant", "name": "Crento Italian Restaurant"}}, {"type": "node", "id": 9391007643, "lat": -33.7332256, "lon": 151.3014897, "tags": {"addr:housenumber": "1085-1087", "addr:street": "Pittwater Road", "amenity": "restaurant", "cuisine": "thai", "name": "Nokkaew Thai", "phone": "+61 2 9982 4738"}}, {"type": "node", "id": 9438161238, "lat": -33.7091571, "lon": 151.2958438, "tags": {"addr:housenumber": "1459", "addr:street": "Pittwater Road", "amenity": "restaurant", "cuisine": "burger", "name": "Sukhralia's The Hustle", "takeaway": "yes"}}, {"type": "node", "id": 9526202717, "lat": -33.718513, "lon": 151.1172927, "tags": {"amenity": "restaurant", "cuisine": "indian", "name": "KarKripa Curry House", "opening_hours": "Tu-Sa 11:30-14:30; Mo-Su 17:00-21:00", "phone": "+61 2 9487 3232", "website": "https://curryhousewahroonga.com.au/"}}, {"type": "node", "id": 9526230399, "lat": -33.7553984, "lon": 151.2960582, "tags": {"addr:housenumber": "3-6", "addr:street": "The Strand", "amenity": "restaurant", "cuisine": "chinese", "name": "Top BBQ & Seafood Restaurant", "opening_hours": "Mo-Su 11:00-15:00,17:00-22:00", "phone": "+61 2 9982 8088", "website": "https://topbbq.com.au/"}}, {"type": "node", "id": 9531022063, "lat": -33.600473, "lon": 151.1248768}, {"type": "node", "id": 9531022064, "lat": -33.6004105, "lon": 151.1248528}, {"type": "node", "id": 9531022065, "lat": -33.6004837, "lon": 151.1250413}, {"type": "node", "id": 9531022066, "lat": -33.6004983, "lon": 151.1248865}, {"type": "node", "id": 9531022067, "lat": -33.6004969, "lon": 151.1248984}, {"type": "node", "id": 9531022068, "lat": -33.6004871, "lon": 151.1250045}, {"type": "node", "id": 9531022070, "lat": -33.6003887, "lon": 151.1250227}, {"type": "node", "id": 9531022072, "lat": -33.6005151, "lon": 151.1249381}, {"type": "node", "id": 9750882734, "lat": -33.7024031, "lon": 151.0974667}, {"type": "node", "id": 9750882738, "lat": -33.7027821, "lon": 151.0977894}, {"type": "node", "id": 9750882739, "lat": -33.702729, "lon": 151.0977773}, {"type": "node", "id": 9750882744, "lat": -33.7023621, "lon": 151.0972517}, {"type": "node", "id": 9750882746, "lat": -33.7023654, "lon": 151.0972734}, {"type": "node", "id": 9750882747, "lat": -33.7023229, "lon": 151.0972357}, {"type": "node", "id": 9750882748, "lat": -33.7024325, "lon": 151.09729}, {"type": "node", "id": 9750882749, "lat": -33.7024165, "lon": 151.0972916}, {"type": "node", "id": 9845918028, "lat": -33.6762094, "lon": 151.3034578, "tags": {"addr:street": "Pittwater Road", "amenity": "restaurant", "cuisine": "vietnamese", "name": "Trang An", "outdoor_seating": "yes", "phone": "+61 2 9979 8838", "takeaway": "yes"}}, {"type": "node", "id": 9894583674, "lat": -33.731484, "lon": 151.1286287, "tags": {"amenity": "restaurant", "check_date": "2022-07-18", "cuisine": "thai", "level": "0", "name": "Hannman Thai"}}, {"type": "node", "id": 9894583675, "lat": -33.7316558, "lon": 151.1285824, "tags": {"amenity": "restaurant", "check_date": "2022-07-18", "cuisine": "tapas", "level": "0", "name": "Kipling's Garage Bar"}}, {"type": "node", "id": 9951573660, "lat": -33.7032686, "lon": 151.2132058, "tags": {"amenity": "restaurant", "cuisine": "asian", "level:ref": "2"}}, {"type": "node", "id": 9979767063, "lat": -33.6953828, "lon": 151.2798597, "tags": {"addr:housenumber": "54", "addr:street": "Kalang Road", "amenity": "restaurant", "name": "California Republic", "phone": "+61 2 8924 3284", "website": "https://www.californiarepublic.com.au/"}}, {"type": "node", "id": 10050601343, "lat": -33.7561852, "lon": 151.1537554}, {"type": "node", "id": 10050601344, "lat": -33.7560946, "lon": 151.1536578}, {"type": "node", "id": 10050601345, "lat": -33.7562007, "lon": 151.1537057}, {"type": "node", "id": 10068034800, "lat": -33.7516815, "lon": 151.2403237, "tags": {"addr:housenumber": "5", "addr:street": "Frenchs Forest Road", "amenity": "restaurant", "name": "Forest Hotel"}}, {"type": "node", "id": 10068063768, "lat": -33.7315274, "lon": 151.3014173, "tags": {"addr:street": "Pittwater Road", "amenity": "restaurant", "name": "the Surfdeck"}}, {"type": "node", "id": 10158284708, "lat": -33.7328971, "lon": 151.2783766, "tags": {"addr:housenumber": "180", "addr:street": "South Creek Road", "amenity": "restaurant", "cuisine": "chinese", "name": "Wheeler Garden Chinese Restaurant"}}, {"type": "node", "id": 10250096809, "lat": -33.6756754, "lon": 151.3031861, "tags": {"amenity": "restaurant", "cuisine": "tapas, wine", "name": "Paddock & Wine"}}, {"type": "node", "id": 10308268837, "lat": -33.7621723, "lon": 151.214738, "tags": {"amenity": "restaurant", "cuisine": "thai", "indoor_seating": "yes", "name": "Thai Garlic", "outdoor_seating": "yes", "takeaway": "yes"}}, {"type": "node", "id": 10308304622, "lat": -33.7620432, "lon": 151.2148373, "tags": {"amenity": "restaurant", "cuisine": "pizza", "name": "Domino\u2018s", "takeaway": "yes"}}, {"type": "node", "id": 10722831105, "lat": -33.7554942, "lon": 151.2963324, "tags": {"amenity": "restaurant", "name": "Beach Burrito Co"}}, {"type": "node", "id": 10724628255, "lat": -33.7323376, "lon": 151.006324, "tags": {"amenity": "restaurant", "cuisine": "lebanese", "name": "Eve's House of Manoush", "website": "https://www.eveshouseofmanoush.com.au/"}}, {"type": "node", "id": 10762340359, "lat": -33.6228519, "lon": 151.1524554, "tags": {"amenity": "restaurant", "cuisine": "chinese", "name": "Golden Phoenix Chinese Restaurant"}}, {"type": "node", "id": 10774431234, "lat": -33.6620496, "lon": 151.1620263, "tags": {"amenity": "restaurant", "brewery": "various", "internet_access": "wlan", "name": "Waterside Bistro", "outdoor_seating": "yes"}}, {"type": "way", "id": 67028807, "nodes": [810068376, 810068436, 810068477, 810068507, 810068376], "tags": {"amenity": "restaurant", "building": "retail"}}, {"type": "way", "id": 101492319, "nodes": [1171835449, 1171835448, 1171835447, 1171835451, 1171835449], "tags": {"amenity": "restaurant", "cuisine": "italian", "name": "Mama and Papas", "opening_hours": "Tu-Su 17:00-22:00+"}}, {"type": "way", "id": 175607328, "nodes": [1861715814, 4373866348, 1861715860, 1861715854, 1861715852, 6669138183, 1861715814], "tags": {"amenity": "restaurant", "building": "commercial", "cuisine": "chinese", "name": "Berowra Chinese Resturant"}}, {"type": "way", "id": 223970339, "nodes": [2328070885, 2328070921, 6417873379, 6417873378, 6417873380, 2328070811, 2328070816, 2328070774, 2328070885], "tags": {"addr:city": "Palm Beach", "addr:housenumber": "1193", "addr:postcode": "2108", "addr:street": "Barrenjoey Road", "amenity": "restaurant", "building": "yes", "name": "Dunes", "opening_hours": "We-Fr 08:00-15:00, Sa-Su 07:00-16:00", "phone": "+61 2 9974 3332", "takeaway": "yes", "website": "https://www.dunespalmbeach.com.au/"}}, {"type": "way", "id": 258275387, "nodes": [2636614892, 2636614891, 2636614890, 2636614889, 2636614892], "tags": {"amenity": "restaurant", "building": "yes"}}, {"type": "way", "id": 258275493, "nodes": [2636615486, 2636615484, 2636615476, 2636615482, 2636615486], "tags": {"amenity": "restaurant", "building": "yes"}}, {"type": "way", "id": 258279140, "nodes": [2636638691, 2636638690, 2636638689, 2636638703, 2636638691], "tags": {"amenity": "restaurant", "building": "yes", "building:levels": "1"}}, {"type": "way", "id": 282626328, "nodes": [2865680108, 2865680119, 2865680120, 2865680121, 2865680108], "tags": {"addr:city": "Hornsby", "addr:housenumber": "18", "addr:postcode": "2077", "addr:street": "Corination", "amenity": "restaurant", "building": "retail", "building:levels": "2", "name": "Bambino's Pizza & Pasta"}}, {"type": "way", "id": 282626331, "nodes": [2865680124, 2865680126, 2865680127, 2865680125, 9750882734, 2865680124], "tags": {"addr:city": "Hornsby", "addr:housenumber": "12", "addr:postcode": "2077", "addr:street": "Coronation", "amenity": "restaurant", "building": "retail", "building:levels": "2", "cuisine": "asian;japanese", "name": "Oki Oki Japanese Restaurant", "opening_hours": "Mo-We 11:00-14:30,17:00-21:00; Th-Sa 11:00-14:30,17:00-21:30", "phone": "+61 2 9476 6900", "website": "http://okioki.com.au/"}}, {"type": "way", "id": 282626334, "nodes": [2865680130, 2865680132, 2865694184, 2865680133, 2865680134, 2865680149, 9750882744, 9750882746, 2865680131, 2865680130], "tags": {"addr:city": "Hornsby", "addr:housenumber": "6", "addr:postcode": "2077", "addr:street": "Corination", "amenity": "restaurant", "building": "retail", "building:levels": "2", "name": "Zi Teresa Pizza and Pasta"}}, {"type": "way", "id": 282626337, "nodes": [2865680145, 2865680118, 2865680146, 2865680147, 9750882748, 9750882749, 2865680148, 9750882744, 9750882747, 2865680134, 2865680133, 2865680145], "tags": {"addr:city": "Hornsby", "addr:housenumber": "274-278", "addr:postcode": "2077", "addr:street": "Pacific Highway", "amenity": "restaurant", "building": "retail", "building:levels": "2", "name": "Asahi Sushi Bar"}}, {"type": "way", "id": 282626339, "nodes": [2865680152, 2865680153, 9750882738, 2865680154, 2865680151, 2865680152], "tags": {"addr:city": "Hornsby", "addr:housenumber": "23-29", "addr:postcode": "2077", "addr:street": "Station Street", "amenity": "restaurant", "building": "yes", "name": "Magic Kebab"}}, {"type": "way", "id": 282627513, "nodes": [2865680144, 2865694186, 2865694187, 2865680132, 2865694184, 2865680144], "tags": {"addr:city": "Hornsby", "addr:housenumber": "288", "addr:postcode": "2077", "addr:street": "Pacific Highway", "amenity": "restaurant", "building": "retail", "building:levels": "2", "name": "Brewhaha Cafe"}}, {"type": "way", "id": 282627514, "nodes": [2865680153, 2865694188, 2865694189, 9750882738, 2865680153], "tags": {"amenity": "restaurant", "building": "retail", "name": "Curry Connection"}}, {"type": "way", "id": 282627515, "nodes": [2865694188, 2865694190, 2865694191, 9750882739, 2865694189, 2865694188], "tags": {"amenity": "restaurant", "building": "retail", "name": "MeeChai"}}, {"type": "way", "id": 344380597, "nodes": [3511310746, 3511310747, 3511310748, 3511310749, 3511310750, 3511310752, 3511310751, 3511310754, 3511310753, 3511310745, 3511310746], "tags": {"amenity": "restaurant", "building": "yes", "cuisine": "local", "name": "Mooney Mooney Club"}}, {"type": "way", "id": 426694134, "nodes": [4259635203, 4259635205, 4259635224, 4259635230, 4259635233, 4259635225, 4259635227, 4259635204, 4259635193, 4259635196, 4259635194, 4259635203], "tags": {"addr:suburb": "Sunny Corner", "amenity": "restaurant", "building": "yes", "cuisine": "seafood", "name": "Peats Bite Restaurant", "phone": "+61 2 9985 9040", "website": "http://peatsbite.com.au"}}, {"type": "way", "id": 435411275, "nodes": [4333271923, 4333271935, 4333271941, 4333271925, 4333271923], "tags": {"addr:housenumber": "10", "addr:street": "Waitara Avenue", "amenity": "restaurant", "building": "yes", "cuisine": "thai", "name": "3 Elephants"}}, {"type": "way", "id": 437531536, "nodes": [4353444342, 4353444341, 4353444337, 4353444338, 4353444342], "tags": {"amenity": "restaurant", "building": "retail", "building:levels": "1", "name": "Firestone"}}, {"type": "way", "id": 440747017, "nodes": [4385215596, 4385215592, 4385215593, 4385215597, 4385215596], "tags": {"amenity": "restaurant", "building": "yes", "cuisine": "italian;pizza", "name": "Balmoral Pizzaria", "opening_hours": "Mo-We 17:00-20:30; Th-Sa 17:00-21:00", "phone": "+61 2 9477 1888", "takeaway": "yes"}}, {"type": "way", "id": 440747023, "nodes": [4385215592, 4385213888, 4385215591, 4385215593, 4385215592], "tags": {"amenity": "restaurant", "building": "yes", "cuisine": "thai", "name": "Ta Wan Thai", "takeaway": "yes"}}, {"type": "way", "id": 534221598, "nodes": [5181444964, 5181444963, 5181444962, 5181444961, 5181444964], "tags": {"amenity": "restaurant", "building": "yes"}}, {"type": "way", "id": 686122537, "nodes": [6430894085, 6430894087, 6430894086, 6430889284, 6430894088, 6430894090, 6430894089, 6430894085], "tags": {"addr:street": "Ocean Street & Malcolm Street", "amenity": "restaurant", "building": "commercial", "building:levels": "1", "diet:vegetarian": "yes", "name": "Oceans Narrabeen", "opening_hours": "Mo 06:00-15:00; Tu-Fr 06:00-22:00; Sa,Su 07:00-22:00", "phone": "+61 2 9970 6262", "roof:shape": "flat", "website": "https://oceansnarrabeen.com.au/"}}, {"type": "way", "id": 763262894, "nodes": [7132262723, 7132262726, 7132262728, 7132262730, 7132262734, 7132262733, 7132262735, 7132262738, 7132262723], "tags": {"addr:housenumber": "243", "addr:postcode": "2158", "addr:state": "NSW", "addr:street": "New Line Road", "addr:suburb": "Dural", "amenity": "restaurant", "building": "yes", "cuisine": "indian", "name": "Dosa Hut", "phone": "+61 2 9651 4155", "website": "https://www.dosahut.net.au/indian-restaurant-dural/"}}, {"type": "way", "id": 775436432, "nodes": [7234400017, 7234400018, 7234400019, 7234400016, 7234400017], "tags": {"addr:housenumber": "9a", "addr:postcode": "2073", "addr:state": "NSW", "addr:street": "Duneba Avenue", "addr:suburb": "West Pymble", "amenity": "restaurant", "building": "retail", "cuisine": "chinese", "name": "Gordon West Chinese Restaurant", "opening_hours": "Mo off; Tu-Th 12:00-14:30,17:00-21:30; Fr-Su 12:00-14:30,17:00-22:30", "phone": "+61 2 9498 7777", "website": "https://gordon-west-chinese-restaurant.business.site/"}}, {"type": "way", "id": 775436434, "nodes": [7234400021, 7234400023, 7234400024, 7234400025, 7234400026, 7234400020, 7234400021], "tags": {"addr:housenumber": "7", "addr:postcode": "2073", "addr:state": "NSW", "addr:street": "Duneba Avenue", "addr:suburb": "West Pymble", "amenity": "restaurant", "building": "retail", "cuisine": "italian;pizza;coffee_shop", "name": "The Sawmill", "opening_hours": "We-Mo 11:30-21:30", "phone": "+61 2 9498 6565", "website": "https://www.thesawmill.com.au"}}, {"type": "way", "id": 814034948, "nodes": [7604153335, 7604153336, 7604153337, 7604153338, 7604153335], "tags": {"amenity": "restaurant", "building": "yes", "cuisine": "pizza", "name": "Pizza oven", "phone": "+61 2 9869 2701", "website": "https://eppingboy-h.schools.nsw.gov.au/"}}, {"type": "way", "id": 835486099, "nodes": [7798360071, 7798360068, 7798360069, 7798360070, 7798360071], "tags": {"amenity": "restaurant", "building": "yes", "cuisine": "mexican", "name": "TexMex"}}, {"type": "way", "id": 842602410, "nodes": [1872203556, 5819570617, 5819570616, 5819570615, 7860575411, 7860575410, 1872203556], "tags": {"amenity": "restaurant", "name": "The Boathouse", "outdoor_seating": "yes", "source": "survey"}}, {"type": "way", "id": 974935035, "nodes": [9022292917, 9022292918, 9022292920, 9022292919, 9022290916, 9022292917], "tags": {"addr:housenumber": "6", "addr:postcode": "2074", "addr:state": "NSW", "addr:street": "Princes Street", "addr:suburb": "Turramurra", "amenity": "restaurant", "building": "yes", "cuisine": "pizza", "name": "Pizza on Princes"}}, {"type": "way", "id": 975158143, "nodes": [9024297327, 9024297328, 9024297329, 9024297330, 9024297331, 9024297338, 9024297332, 9024297333, 9024297334, 9024297327], "tags": {"amenity": "restaurant", "building": "yes"}}, {"type": "way", "id": 975640619, "nodes": [9028584877, 9028585024, 9028584878, 9028584879, 9028584881, 9028584882, 9036820061, 9036820060, 9028584880, 9036820062, 6008784309, 9028584877], "tags": {"amenity": "restaurant", "building": "yes", "name": "Inflames Charcoal Grill"}}, {"type": "way", "id": 1034626708, "nodes": [9531022072, 3513963781, 9531022068]}, {"type": "way", "id": 1034626710, "nodes": [9531022067, 3513963782, 9531022072]}, {"type": "way", "id": 1034626716, "nodes": [3513963778, 3513963777, 9531022064, 9531022063], "tags": {"source": "bing"}}, {"type": "way", "id": 1034626717, "nodes": [9531022068, 9531022065, 9531022070, 3513963778]}, {"type": "way", "id": 1034626718, "nodes": [9531022063, 9531022066, 9531022067]}, {"type": "way", "id": 1097657546, "nodes": [10050601345, 10050601344, 6760914886, 10050601343, 10050601345], "tags": {"addr:housenumber": "7", "addr:street": "St Johns Avenue", "amenity": "restaurant", "building": "retail", "check_date": "2023-03-28", "cuisine": "sushi", "name": "Sushi House", "wheelchair": "no"}}, {"type": "relation", "id": 13845526, "members": [{"type": "way", "ref": 1034626717, "role": "outer"}, {"type": "way", "ref": 1034626718, "role": "outer"}, {"type": "way", "ref": 1034626710, "role": "outer"}, {"type": "way", "ref": 1034626708, "role": "outer"}, {"type": "way", "ref": 1034626716, "role": "outer"}], "tags": {"amenity": "restaurant", "cuisine": "seafood;italian", "name": "A Chef Secrets", "type": "multipolygon", "website": "https://www.achefsecrets.com"}}]}