{"version": 0.6, "generator": "Overpass API 0.7.60.2 e4cf9f7a", "osm3s": {"timestamp_osm_base": "2023-05-02T19:59:26Z", "copyright": "The data included in this document is from www.openstreetmap.org. The data is made available under ODbL."}, "elements": [{"type": "node", "id": 150992420, "lat": -33.7035881, "lon": 151.0974115, "tags": {"addr:housenumber": "155", "addr:postcode": "2077", "addr:state": "NSW", "addr:street": "Peats Ferry Road", "addr:suburb": "Hornsby", "amenity": "cinema", "name": "Hornsby Odeon Cinamas", "screen": "1", "website": "http://www.hornsbyodeoncinema.com.au/Page/Home", "wikidata": "Q47002322"}}, {"type": "node", "id": 709809490, "lat": -33.7320129, "lon": 151.0042695, "tags": {"addr:housenumber": "6-14", "addr:postcode": "2154", "addr:street": "Castle Street", "amenity": "cinema", "brand": "Event", "brand:wikidata": "Q5416698", "brand:wikipedia": "en:Event Cinemas", "name": "Event", "official_name": "Event Cinemas", "opening_hours": "Mo-Su 09:45-22:00", "website": "https://www.eventcinemas.com.au/"}}, {"type": "node", "id": 2060906548, "lat": -33.7035519, "lon": 151.1010678, "tags": {"amenity": "cinema", "brand": "Event Cinemas", "brand:wikidata": "Q5416698", "brand:wikipedia": "en:Event Cinemas", "full_name": "Event Cinemas Hornsby", "level": "4", "name": "Event", "official_name": "Event Cinemas", "website": "https://www.eventcinemas.com.au/", "wikidata": "Q47002321"}}, {"type": "node", "id": 3864723634, "lat": -33.7695899, "lon": 151.2659097, "tags": {"amenity": "cinema", "brand": "Hoyts", "brand:wikidata": "Q5922976", "brand:wikipedia": "en:Hoyts", "name": "Hoyts", "website": "https://www.hoyts.com.au/", "wikidata": "Q47002241"}}, {"type": "node", "id": 5764997697, "lat": -33.6936036, "lon": 151.302058}, {"type": "node", "id": 5764997699, "lat": -33.6938217, "lon": 151.3023628}, {"type": "node", "id": 5764997700, "lat": -33.6939034, "lon": 151.3022986}, {"type": "node", "id": 5764997702, "lat": -33.6937457, "lon": 151.3029408}, {"type": "node", "id": 5764997703, "lat": -33.6935486, "lon": 151.3025783}, {"type": "node", "id": 5764997704, "lat": -33.6936314, "lon": 151.3025133}, {"type": "node", "id": 5764997705, "lat": -33.6934799, "lon": 151.302235}, {"type": "node", "id": 5764997706, "lat": -33.6934828, "lon": 151.3021538}, {"type": "node", "id": 5764997707, "lat": -33.6940052, "lon": 151.3027343}, {"type": "node", "id": 5764997708, "lat": -33.6940326, "lon": 151.302785}, {"type": "node", "id": 5764997709, "lat": -33.693871, "lon": 151.3029118}, {"type": "node", "id": 5764997710, "lat": -33.6938432, "lon": 151.3028626}, {"type": "node", "id": 6335024787, "lat": -33.7315717, "lon": 151.0059546, "tags": {"amenity": "cinema", "brand": "Event", "brand:wikidata": "Q5416698", "brand:wikipedia": "en:Event Cinemas", "name": "Event Cinemas Gold Class", "official_name": "Event Cinemas"}}, {"type": "node", "id": 7825811372, "lat": -33.6936741, "lon": 151.3020914}, {"type": "node", "id": 7825811373, "lat": -33.6941008, "lon": 151.3026616}, {"type": "way", "id": 608506901, "nodes": [5764997697, 7825811372, 5764997699, 5764997700, 7825811373, 5764997707, 5764997708, 5764997709, 5764997710, 5764997702, 5764997703, 5764997704, 5764997705, 5764997706, 5764997697], "tags": {"addr:city": "Warriewood", "addr:housenumber": "4", "addr:postcode": "2102", "addr:street": "Vuko Place", "amenity": "cinema", "branch": "Warriewood", "building": "yes", "email": "warriewood@unitedcinemas.com.au", "name": "United Cinemas, Warriewood", "operator": "United Cinemas Australia", "phone": "+61 2 9970 2666", "website": "https://web.cinematic.unitedcinemas.com.au/home?location=warriewood"}}]}