{"version": 0.6, "generator": "Overpass API 0.7.60 f4c14d41", "osm3s": {"timestamp_osm_base": "2023-05-02T21:20:24Z", "copyright": "The data included in this document is from www.openstreetmap.org. The data is made available under ODbL."}, "elements": [{"type": "node", "id": 1478212931, "lat": 19.3954695, "lon": -99.060754, "tags": {"shop": "alcohol"}}, {"type": "node", "id": 1478223912, "lat": 19.3965642, "lon": -99.068732, "tags": {"shop": "alcohol"}}, {"type": "node", "id": 1478223914, "lat": 19.3968008, "lon": -99.0689949, "tags": {"shop": "alcohol"}}, {"type": "node", "id": 1677160031, "lat": 19.4736198, "lon": -99.1267794, "tags": {"designation": "Craft Beer", "name": "Cervezas Artesanales", "shop": "alcohol"}}, {"type": "node", "id": 1677865144, "lat": 19.4758604, "lon": -99.124229, "tags": {"shop": "alcohol"}}, {"type": "node", "id": 1677865153, "lat": 19.4762461, "lon": -99.1245205, "tags": {"shop": "alcohol"}}, {"type": "node", "id": 1738878713, "lat": 19.3525783, "lon": -99.1448618, "tags": {"name": "Bodegas Alianza", "shop": "alcohol"}}, {"type": "node", "id": 2125797510, "lat": 19.4604412, "lon": -99.127749, "tags": {"addr:postcode": "06250", "addr:street": "Calzada de los Misterios", "name": "La Divina", "shop": "alcohol", "source": "Survey"}}, {"type": "node", "id": 2125820260, "lat": 19.4608597, "lon": -99.1302484, "tags": {"addr:housenumber": "37", "addr:postcode": "06220", "addr:street": "Ricardo Castro", "name": "Ultramarinos El Retiro", "shop": "alcohol", "source": "Survey"}}, {"type": "node", "id": 2682372266, "lat": 19.3934112, "lon": -99.0613862, "tags": {"name": "Modelorama", "shop": "alcohol"}}, {"type": "node", "id": 2682372278, "lat": 19.395618, "lon": -99.0610424, "tags": {"shop": "alcohol"}}, {"type": "node", "id": 2682372280, "lat": 19.3957965, "lon": -99.0608646, "tags": {"shop": "alcohol"}}, {"type": "node", "id": 3409742373, "lat": 19.4149695, "lon": -99.1592254, "tags": {"name": "La Belga", "shop": "alcohol"}}, {"type": "node", "id": 3754914113, "lat": 19.2965924, "lon": -99.1340993, "tags": {"name": "Alianza", "shop": "alcohol"}}, {"type": "node", "id": 3769867840, "lat": 19.4012396, "lon": -99.1455766, "tags": {"shop": "alcohol"}}, {"type": "node", "id": 3769867853, "lat": 19.4014139, "lon": -99.1461228, "tags": {"name": "El Bebian", "shop": "alcohol"}}, {"type": "node", "id": 3769867855, "lat": 19.4011564, "lon": -99.1474414, "tags": {"shop": "alcohol"}}, {"type": "node", "id": 3779168316, "lat": 19.3999681, "lon": -99.153571, "tags": {"name": "El Nuevo Rhin", "shop": "alcohol"}}, {"type": "node", "id": 3779353468, "lat": 19.3991118, "lon": -99.1509821, "tags": {"name": "Bodegas Alianza", "shop": "alcohol"}}, {"type": "node", "id": 4297216375, "lat": 19.3622245, "lon": -99.1481688, "tags": {"name": "La Alianza", "operator": "Alianza", "shop": "alcohol"}}, {"type": "node", "id": 4316213699, "lat": 19.2597631, "lon": -99.1321023, "tags": {"addr:housenumber": "5", "addr:postcode": "16100", "addr:street": "Arboledas", "name": "Cerveza Artesanal", "opening_hours": "24/7", "shop": "alcohol"}}, {"type": "node", "id": 4334385491, "lat": 19.4184979, "lon": -99.1406962, "tags": {"name": "Vinos y Liquores", "shop": "alcohol"}}, {"type": "node", "id": 4345106692, "lat": 19.4306172, "lon": -99.14282, "tags": {"name": "La Europea", "shop": "alcohol"}}, {"type": "node", "id": 4367121989, "lat": 19.361415, "lon": -99.1410697, "tags": {"name": "Abarrotes La Guadalupana", "name:es": "Abarrotes La Guadalupana", "shop": "alcohol"}}, {"type": "node", "id": 4401865748, "lat": 19.3619649, "lon": -99.1545931, "tags": {"name": "Alianza", "shop": "alcohol"}}, {"type": "node", "id": 4405467522, "lat": 19.4880314, "lon": -99.141014, "tags": {"name": "OXXO", "name:es": "OXXO", "shop": "alcohol"}}, {"type": "node", "id": 4521096216, "lat": 19.3524173, "lon": -99.0769056}, {"type": "node", "id": 4521096217, "lat": 19.352336, "lon": -99.0767045}, {"type": "node", "id": 4521096218, "lat": 19.3520506, "lon": -99.0767975}, {"type": "node", "id": 4521096219, "lat": 19.3521606, "lon": -99.0770273}, {"type": "node", "id": 4811776940, "lat": 19.3374221, "lon": -99.1504106, "tags": {"email": "ventas@liquorlab.com.mx", "name": "Liquor Lab", "phone": "55 6821 5593", "shop": "alcohol", "website": "https://liquorlab.com.mx/"}}, {"type": "node", "id": 4921557615, "lat": 19.4214208, "lon": -99.1687281, "tags": {"name": "La Guadalupana", "shop": "alcohol"}}, {"type": "node", "id": 5111484300, "lat": 19.2895464, "lon": -99.177619, "tags": {"addr:housenumber": "33", "addr:street": "La Fama", "alcohol": "pulque", "drive_through": "no", "name": "Los Famosos de La Fama", "shop": "alcohol"}}, {"type": "node", "id": 5260013121, "lat": 19.4271063, "lon": -99.1373255, "tags": {"name:en": "El Deposito - World beer store", "shop": "alcohol"}}, {"type": "node", "id": 5260447526, "lat": 19.3456537, "lon": -99.1711872, "tags": {"name": "La Castellana", "shop": "alcohol"}}, {"type": "node", "id": 5412851111, "lat": 19.3580528, "lon": -99.0881498}, {"type": "node", "id": 5412851112, "lat": 19.3579268, "lon": -99.0882133}, {"type": "node", "id": 5412851113, "lat": 19.3578639, "lon": -99.0881156}, {"type": "node", "id": 5412851114, "lat": 19.357996, "lon": -99.0880521}, {"type": "node", "id": 5441373274, "lat": 19.3588545, "lon": -99.2938861, "tags": {"name": "Bodegas Alianza", "shop": "alcohol"}}, {"type": "node", "id": 5665080821, "lat": 19.4408194, "lon": -99.1909214, "tags": {"addr:street": "Blv. Miguel de Cervantes", "name": "La Europea", "shop": "alcohol"}}, {"type": "node", "id": 6077818085, "lat": 19.4141237, "lon": -99.1645773, "tags": {"addr:housenumber": "225", "addr:street": "Queretaro", "name": "Cigar Point", "shop": "alcohol"}}, {"type": "node", "id": 6138363385, "lat": 19.4249752, "lon": -99.1707188, "tags": {"name": "La Europea", "shop": "alcohol"}}, {"type": "node", "id": 6394848186, "lat": 19.425515, "lon": -99.1637128, "tags": {"name": "La Ciudad de Londres", "shop": "alcohol"}}, {"type": "node", "id": 6415339685, "lat": 19.4524003, "lon": -99.2174058, "tags": {"name": "La Europea", "shop": "alcohol"}}, {"type": "node", "id": 6579380174, "lat": 19.4283751, "lon": -99.1942705, "tags": {"addr:housenumber": "44", "addr:street": "Avenida Emilio Castelar", "name": "La Europea", "opening_hours": "Mo-We 10:00-20:00, Th-Sa 10:00-21:00, Su 11:00-16:00", "shop": "alcohol"}}, {"type": "node", "id": 6879979885, "lat": 19.4334204, "lon": -99.1907543, "tags": {"name": "La Europea", "shop": "alcohol"}}, {"type": "node", "id": 7151518199, "lat": 19.3715775, "lon": -99.1369796, "tags": {"name": "Bodegas Alianza", "shop": "alcohol"}}, {"type": "node", "id": 7253157055, "lat": 19.4138246, "lon": -99.1731233, "tags": {"addr:city": "Ciudad de M\u00e9xico", "addr:housenumber": "24", "addr:street": "Juan Escutia", "name": "El Grifo Mezcal y Cerveza Artesanal", "shop": "alcohol", "website": "https://www.facebook.com/elgrifocondesa/"}}, {"type": "node", "id": 8569892422, "lat": 19.4795381, "lon": -99.1888719, "tags": {"name": "Bodegas Alianza", "shop": "alcohol"}}, {"type": "node", "id": 9556486485, "lat": 19.3386718, "lon": -99.0513609, "tags": {"addr:street": "Av. Insurgentes", "name": "Vinos y licores \"Amy\"", "opening_hours": "24/7", "phone": "55 6113 5046", "shop": "alcohol"}}, {"type": "node", "id": 9659693517, "lat": 19.4336372, "lon": -99.1886992, "tags": {"name": "La Castellana", "shop": "alcohol"}}, {"type": "node", "id": 9681229917, "lat": 19.4293828, "lon": -99.193793, "tags": {"name": "La Europea", "shop": "alcohol"}}, {"type": "node", "id": 9723564624, "lat": 19.4743078, "lon": -99.1392421, "tags": {"shop": "alcohol"}}, {"type": "node", "id": 9848472320, "lat": 19.4825828, "lon": -99.1218407, "tags": {"name": "Abarrotes Lupita", "shop": "alcohol"}}, {"type": "node", "id": 9955914664, "lat": 19.3566097, "lon": -99.0901951, "tags": {"name": "Six", "shop": "alcohol"}}, {"type": "node", "id": 9955916444, "lat": 19.3569857, "lon": -99.071901, "tags": {"name": "Vinos y Licores La Morena", "shop": "alcohol"}}, {"type": "node", "id": 9978871499, "lat": 19.3532545, "lon": -99.1213943, "tags": {"name": "VinoExpress", "shop": "alcohol"}}, {"type": "node", "id": 9980390312, "lat": 19.3555128, "lon": -99.1003981, "tags": {"name": "El Triunfo III", "shop": "alcohol"}}, {"type": "node", "id": 9989248252, "lat": 19.3423737, "lon": -99.1476941, "tags": {"name": "La Central del Sur", "shop": "alcohol"}}, {"type": "node", "id": 10002750141, "lat": 19.3540347, "lon": -99.0744269, "tags": {"name": "Bodega La Pur\u00edsima", "shop": "alcohol"}}, {"type": "node", "id": 10013467352, "lat": 19.3452781, "lon": -99.1350419, "tags": {"name": "La Naval", "shop": "alcohol"}}, {"type": "node", "id": 10176596117, "lat": 19.4380259, "lon": -99.2011881, "tags": {"name": "Alianza Selecto", "shop": "alcohol"}}, {"type": "node", "id": 10229638317, "lat": 19.4113396, "lon": -99.1621439, "tags": {"name": "MisMezcales", "shop": "alcohol"}}, {"type": "node", "id": 10567494881, "lat": 19.3527009, "lon": -99.1866894, "tags": {"check_date": "2023-01-19", "currency:XBT": "yes", "email": "alberto@merito.me", "name": "HodlBeer - Cerveza artesanal", "payment:lightning": "yes", "payment:onchain": "yes", "phone": "525510808010", "shop": "alcohol", "website": "https://linktr.ee/hodlbeer"}}, {"type": "node", "id": 10571805306, "lat": 19.3443704, "lon": -99.1490918, "tags": {"name": "Bodegas Alianza", "shop": "alcohol"}}, {"type": "node", "id": 10675363862, "lat": 19.3512951, "lon": -99.1533838, "tags": {"name": "Bodegas Alianza", "shop": "alcohol"}}, {"type": "way", "id": 455752046, "nodes": [4521096216, 4521096217, 4521096218, 4521096219, 4521096216], "tags": {"building": "yes", "name": "Bodegas Alianza", "shop": "alcohol"}}, {"type": "way", "id": 561334742, "nodes": [5412851111, 5412851112, 5412851113, 5412851114, 5412851111], "tags": {"building": "yes", "name": "Alianza xpress", "shop": "alcohol"}}]}