{"version": 0.6, "generator": "Overpass API 0.7.60 f4c14d41", "osm3s": {"timestamp_osm_base": "2023-05-02T21:17:24Z", "copyright": "The data included in this document is from www.openstreetmap.org. The data is made available under ODbL."}, "elements": [{"type": "node", "id": 318070567, "lat": 19.3790314, "lon": -99.1871094}, {"type": "node", "id": 729787003, "lat": 19.2882677, "lon": -99.1665803, "tags": {"amenity": "bar", "name": "La Jaliscience"}}, {"type": "node", "id": 855780980, "lat": 19.3675608, "lon": -99.1818053, "tags": {"amenity": "bar", "name": "Vor Hal"}}, {"type": "node", "id": 855784861, "lat": 19.367409, "lon": -99.1812366, "tags": {"amenity": "bar", "name": "Max Prime"}}, {"type": "node", "id": 1000644294, "lat": 19.3787357, "lon": -99.1871499}, {"type": "node", "id": 1000644297, "lat": 19.3789704, "lon": -99.1868184}, {"type": "node", "id": 1000644300, "lat": 19.3786789, "lon": -99.1868969}, {"type": "node", "id": 1446234576, "lat": 19.4547768, "lon": -99.1578529, "tags": {"amenity": "bar", "name": "Angus Bar"}}, {"type": "node", "id": 1478218065, "lat": 19.3934962, "lon": -99.0654372, "tags": {"amenity": "bar"}}, {"type": "node", "id": 1478263358, "lat": 19.40043, "lon": -99.064242, "tags": {"amenity": "bar"}}, {"type": "node", "id": 2111503465, "lat": 19.4113021, "lon": -99.1751717, "tags": {"amenity": "bar", "name": "Guadalupe Reyes"}}, {"type": "node", "id": 2111541183, "lat": 19.4110606, "lon": -99.1745697, "tags": {"amenity": "bar", "name": "La Cerveceria"}}, {"type": "node", "id": 2112441733, "lat": 19.4113856, "lon": -99.1736589, "tags": {"amenity": "bar", "name": "Moxie"}}, {"type": "node", "id": 2141839460, "lat": 19.3485506, "lon": -99.1630122, "tags": {"amenity": "bar", "name": "Mes\u00f3n del Buen Tunar", "source": "survey"}}, {"type": "node", "id": 2261607827, "lat": 19.295299, "lon": -99.1332489, "tags": {"amenity": "bar", "name": "El Jaibol"}}, {"type": "node", "id": 2262802944, "lat": 19.4121385, "lon": -99.1731389, "tags": {"addr:city": "Ciudad de M\u00e9xico", "addr:country": "MX", "addr:housename": "\u00a1El Aserr\u00edn!", "addr:housenumber": "18", "addr:postcode": "06100", "addr:street": "Calle Fernando Montes de Oca", "alt_name": "Pulquer\u00eda", "amenity": "bar", "int_name": "Mezcaler\u00eda", "internet_access": "wlan", "name": "\u00a1El Aserr\u00edn!", "old_name": "Mezcaler\u00eda \u00a1El Aserr\u00edn!", "source": "Foursquare", "website": "Facebook - El Aserrin"}}, {"type": "node", "id": 2263356712, "lat": 19.4123566, "lon": -99.1730154, "tags": {"addr:city": "Ciudad de M\u00e9xico", "addr:housename": "Makena", "addr:housenumber": "56", "addr:postcode": "06100", "addr:street": "Avenida Tamaulipas", "amenity": "bar", "internet_access": "wlan", "name": "Makena"}}, {"type": "node", "id": 2263377148, "lat": 19.4104089, "lon": -99.1757031, "tags": {"addr:city": "Ciudad de M\u00e9xico", "addr:housename": "Hotel Mar\u00eda Condesa", "addr:housenumber": "32", "addr:postcode": "06100", "addr:street": "Calle Atlixco", "amenity": "bar", "designation": "Hotel Bar", "internet_access": "wlan", "name": "Maruka"}}, {"type": "node", "id": 2426033191, "lat": 19.2612802, "lon": -99.1027277, "tags": {"amenity": "bar", "name": "Pulqueria Templo de Diana", "wifi": "no"}}, {"type": "node", "id": 2426033203, "lat": 19.259128, "lon": -99.1053539, "tags": {"amenity": "bar", "name": "Pulqueria La Botijona"}}, {"type": "node", "id": 2782636326, "lat": 19.4271085, "lon": -99.1362527, "tags": {"amenity": "bar", "name": "Balagan"}}, {"type": "node", "id": 2933697296, "lat": 19.2892782, "lon": -99.1663387, "tags": {"addr:city": "M\u00e9xico DF", "addr:housenumber": "16", "addr:postcode": "14000", "addr:street": "Francisco I Madero", "amenity": "bar", "name": "Pulquer\u00eda La Santa Solita"}}, {"type": "node", "id": 3157944456, "lat": 19.4279026, "lon": -99.1941828, "tags": {"addr:city": "Ciudad de M\u00e9xico", "addr:country": "MX", "addr:housenumber": "223", "addr:postcode": "11560", "addr:street": "Avenida Campos El\u00edseos", "amenity": "bar", "name": "Prime & Wine", "opening_hours": "Mo 13:00-01:00; Tu 13:00-01:00; We 13:00-01:00; Th 13:00-01:00; Fr 13:00-01:00; Sa closed; Su closed"}}, {"type": "node", "id": 3164056946, "lat": 19.2892057, "lon": -99.1663598, "tags": {"amenity": "bar", "name": "Los Bigotes de Carranza"}}, {"type": "node", "id": 3754914116, "lat": 19.2953191, "lon": -99.1323699, "tags": {"amenity": "bar", "name": "Kiev"}}, {"type": "node", "id": 3754914120, "lat": 19.2960178, "lon": -99.1327575, "tags": {"amenity": "bar", "name": "La Canija"}}, {"type": "node", "id": 3769867827, "lat": 19.4009087, "lon": -99.1472163, "tags": {"amenity": "bar", "name": "Oaxaca"}}, {"type": "node", "id": 3769867850, "lat": 19.4013738, "lon": -99.1471758, "tags": {"amenity": "bar", "name": "La Narvarte"}}, {"type": "node", "id": 3776008584, "lat": 19.3945344, "lon": -99.1429403, "tags": {"amenity": "bar"}}, {"type": "node", "id": 3777143496, "lat": 19.3268059, "lon": -99.1563906, "tags": {"amenity": "bar"}}, {"type": "node", "id": 3779151838, "lat": 19.3891569, "lon": -99.176593, "tags": {"amenity": "bar"}}, {"type": "node", "id": 3779387448, "lat": 19.4003485, "lon": -99.1481204, "tags": {"amenity": "bar"}}, {"type": "node", "id": 3779689203, "lat": 19.3117415, "lon": -99.1623942, "tags": {"amenity": "bar"}}, {"type": "node", "id": 3779760017, "lat": 19.3101473, "lon": -99.1576048, "tags": {"amenity": "bar"}}, {"type": "node", "id": 3789508645, "lat": 19.3962377, "lon": -99.1480446, "tags": {"amenity": "bar"}}, {"type": "node", "id": 3789659762, "lat": 19.3991802, "lon": -99.1509799, "tags": {"amenity": "bar"}}, {"type": "node", "id": 3789659763, "lat": 19.3975688, "lon": -99.1515085, "tags": {"amenity": "bar"}}, {"type": "node", "id": 3803114483, "lat": 19.4172536, "lon": -99.1151598, "tags": {"addr:city": "Venustiano Carranza", "addr:country": "MX", "addr:housenumber": "292", "addr:postcode": "15900", "addr:street": "Lic. Lazaro Pavia", "amenity": "bar", "contact:phone": "+52 55 5764 0372", "level": "4", "name": "Sociales Rose Mary", "website": "https://www.salondefiestasrosemary.com/"}}, {"type": "node", "id": 3803114484, "lat": 19.4171011, "lon": -99.1127296, "tags": {"addr:city": "Venustiano Carranza", "addr:housenumber": "22", "addr:postcode": "15900", "addr:street": "Luis Lara Pardo", "amenity": "bar", "name": "Woaxaca Wings"}}, {"type": "node", "id": 3803163300, "lat": 19.446907, "lon": -99.157966, "tags": {"addr:city": "Ciudad de M\u00e9xico", "addr:housenumber": "92", "addr:postcode": "06400", "addr:street": "Eje 1 Nte.", "amenity": "bar", "name": "Pulqueria La Malquerida"}}, {"type": "node", "id": 3803224957, "lat": 19.4497074, "lon": -99.1635187, "tags": {"amenity": "bar", "name": "Cervecer\u00eda Zacatecas"}}, {"type": "node", "id": 3815873194, "lat": 19.4146924, "lon": -99.1559032, "tags": {"amenity": "bar", "name": "Bar San Luis"}}, {"type": "node", "id": 3984803120, "lat": 19.4086423, "lon": -99.1309795, "tags": {"addr:city": "M\u00e9xico", "addr:housenumber": "87", "addr:street": "Calz. Chabacano", "amenity": "bar", "name": "Bacanal", "smoking": "no"}}, {"type": "node", "id": 4142769112, "lat": 19.2941084, "lon": -99.2415502, "tags": {"amenity": "bar", "name": "El Paraiso", "opening_hours": "Sa,Su", "smoking": "separated"}}, {"type": "node", "id": 4154618989, "lat": 19.4181617, "lon": -99.1705645, "tags": {"addr:city": "Ciudad de M\u00e9xico", "addr:country": "MX", "addr:housenumber": "60", "addr:postcode": "06700", "addr:street": "Cozumel", "amenity": "bar", "cuisine": "mexican", "name": "Dulce Maguey", "opening_hours": "We-Sa 18:00-02:00", "phone": "+01 55 65860402", "smoking": "outside", "website": "http://www.dulcemaguey.com/"}}, {"type": "node", "id": 4156409208, "lat": 19.3560003, "lon": -99.1633352, "tags": {"addr:housenumber": "107", "addr:street": "Calle Centenario", "amenity": "bar", "name": "Centenario 107", "website": "https://www.centenario107.com/"}}, {"type": "node", "id": 4160316090, "lat": 19.4372791, "lon": -99.1376782, "tags": {"amenity": "bar", "name": "R\u00edo de la Plata", "opening_hours": "Mo-Su 08:00-18:00; Apr 10-15,Aug,Dec 25: off; Jun: 08:00-14:00", "operator": "R\u00edo de la Plata", "smoking": "no", "wheelchair": "no"}}, {"type": "node", "id": 4162397591, "lat": 19.4021222, "lon": -99.1530021, "tags": {"amenity": "bar", "name": "Arracheras"}}, {"type": "node", "id": 4164172189, "lat": 19.4117113, "lon": -99.1759308, "tags": {"amenity": "bar", "name": "Barra de Mar"}}, {"type": "node", "id": 4181864725, "lat": 19.4363153, "lon": -99.1355556, "tags": {"addr:city": "Ciudad de M\u00e9xico", "addr:housenumber": "58", "addr:street": "Calle Donceles", "amenity": "bar", "name": "UTA", "opening_hours": "21:00-03:00", "smoking": "isolated"}}, {"type": "node", "id": 4218059719, "lat": 19.384136, "lon": -99.1201381, "tags": {"addr:city": "CDMX", "addr:housenumber": "53", "addr:postcode": "08930", "addr:street": "Miguel Lerdo de Tejada", "amenity": "bar", "description": "Magnifico lugar para pasarla bien viendo eventos deportivos y tomando una deliciosa michelada", "name": "Micheladas Chabenos", "note": "En Cervecentro Chabenos nos esmeramos con los sabores de las micheladas mas ricas del rumbo:-Tamarindo-Mora azul-Fresa-Uva-Mango-Chamoy-Cubana-Maracuya (ocasionalmente) LAS ESPECIALES-Fresissima-Maguisimo-Semen de pitufo. TRAGOS DE A 1 L:", "opening_hours": "Mo-Th 17:00-02:00; Fr-Sa 17:00-03:00", "smoking": "yes", "website": "https://cervecentrochabenos.wordpress.com/"}}, {"type": "node", "id": 4253493989, "lat": 19.4191334, "lon": -99.1566497, "tags": {"addr:housenumber": "39", "amenity": "bar", "name": "El Palenquito"}}, {"type": "node", "id": 4311739535, "lat": 19.4158962, "lon": -99.1412026, "tags": {"addr:housenumber": "291", "addr:postcode": "06800", "addr:street": "Bol\u00edvar", "amenity": "bar", "name": "Barba Azul"}}, {"type": "node", "id": 4316264592, "lat": 19.2494819, "lon": -99.117114, "tags": {"addr:housenumber": "18", "addr:postcode": "16200", "addr:street": "Emiliano Zapata", "amenity": "bar", "cuisine": "burger", "internet_access": "wlan", "name": "Jard\u00edn de Rousse", "opening_hours": "Mo-Fr"}}, {"type": "node", "id": 4333043790, "lat": 19.3576566, "lon": -99.1184761, "tags": {"amenity": "bar", "name": "Black Code", "name:es": "chillord"}}, {"type": "node", "id": 4335488093, "lat": 19.3139745, "lon": -99.1534706, "tags": {"amenity": "bar", "name": "Micheladas Estaci\u00f3n 19"}}, {"type": "node", "id": 4338183695, "lat": 19.4230669, "lon": -99.1716533, "tags": {"addr:city": "Ciudad de M\u00e9xico", "addr:housenumber": "281", "addr:street": "Hamburgo", "amenity": "bar", "name": "La Texcocana"}}, {"type": "node", "id": 4349778989, "lat": 19.3275465, "lon": -99.0537976, "tags": {"addr:postcode": "09760", "addr:street": "Jos\u00e9 L\u00f3pez Portillo #3", "amenity": "bar", "name": "casa"}}, {"type": "node", "id": 4375605205, "lat": 19.43791, "lon": -99.141822, "tags": {"amenity": "bar", "cuisine": "mexican", "name": "La Pelusa", "opening_hours": "Mo-Su 23:00-11:00"}}, {"type": "node", "id": 4375606016, "lat": 19.4373975, "lon": -99.1385915, "tags": {"amenity": "bar", "name": "Las Pecosas"}}, {"type": "node", "id": 4375606017, "lat": 19.4394447, "lon": -99.1373568, "tags": {"amenity": "bar", "name": "La Esperanza"}}, {"type": "node", "id": 4417075790, "lat": 19.4056886, "lon": -99.1763705, "tags": {"addr:housenumber": "375", "addr:street": "Avenida Baja California", "amenity": "bar", "name": "El Dep\u00f3sito", "name:es": "El Dep\u00f3sito"}}, {"type": "node", "id": 4417075791, "lat": 19.40569, "lon": -99.1763813, "tags": {"addr:housenumber": "375", "addr:street": "Avenida Baja California", "amenity": "bar", "name": "El Dep\u00f3sito", "name:es": "El Dep\u00f3sito"}}, {"type": "node", "id": 4419704390, "lat": 19.4149125, "lon": -99.1590493, "tags": {"addr:housenumber": "161", "addr:street": "Orizaba", "amenity": "bar", "name": "Graciela (craft beer/ restaurant)", "name:es": "Graciela (craft beer/ restaurant)"}}, {"type": "node", "id": 4430886246, "lat": 19.3763125, "lon": -99.1585692, "tags": {"amenity": "bar", "name": "El faisan dorado"}}, {"type": "node", "id": 4458634593, "lat": 19.416197, "lon": -99.1637262, "tags": {"amenity": "bar", "name": "Centro de salud", "name:es": "Centro de salud"}}, {"type": "node", "id": 4465914795, "lat": 19.416269, "lon": -99.169187, "tags": {"addr:housenumber": "298", "addr:street": "\u00c1lvaro Obreg\u00f3n", "amenity": "bar", "name": "La Clandestina", "website": "https://www.milagrito.com/"}}, {"type": "node", "id": 4465962689, "lat": 19.4090667, "lon": -99.1772753, "tags": {"addr:city": "Ciudad de M\u00e9xico", "addr:country": "MX", "addr:housenumber": "120", "addr:street": "Calle Alfonso Reyes", "amenity": "bar", "name": "La Botica", "website": "http://www.labotica.com.mx"}}, {"type": "node", "id": 4470120160, "lat": 19.4159413, "lon": -99.1648289, "tags": {"amenity": "bar", "name": "Lvsitano"}}, {"type": "node", "id": 4470120164, "lat": 19.4190665, "lon": -99.1674107, "tags": {"amenity": "bar", "name": "Gin Gin Roma Norte", "opening_hours": "Tu-Sa 18:00 02:00", "website": "https://gingin.mx"}}, {"type": "node", "id": 4510642490, "lat": 19.4115144, "lon": -99.1552704, "tags": {"amenity": "bar", "name": "Wing's Army", "name:es": "Wing's Army"}}, {"type": "node", "id": 4518454687, "lat": 19.4295831, "lon": -99.1694647, "tags": {"addr:city": "Ciudad de M\u00e9xico", "addr:housenumber": "130", "addr:postcode": "06500", "addr:street": "Calle R\u00edo P\u00e1nuco", "amenity": "bar", "name": "Le Tachinomi Desu", "opening_hours": "Mo-Sa 19:00-01:00", "website": "http://www.edokobayashi.com/"}}, {"type": "node", "id": 4523918827, "lat": 19.4033251, "lon": -99.1702658, "tags": {"addr:housenumber": "280", "addr:postcode": "06100", "addr:street": "Tehuantepec", "amenity": "bar", "name": "Santa Leyenda", "website": "http://santaleyendabar.com/"}}, {"type": "node", "id": 4527219351, "lat": 19.3811165, "lon": -99.0819609}, {"type": "node", "id": 4527219352, "lat": 19.3814521, "lon": -99.0819541}, {"type": "node", "id": 4527219353, "lat": 19.3814501, "lon": -99.081841}, {"type": "node", "id": 4527219354, "lat": 19.3811203, "lon": -99.081842}, {"type": "node", "id": 4532835863, "lat": 19.4375982, "lon": -99.1894433, "tags": {"amenity": "bar", "name": "El Deposito"}}, {"type": "node", "id": 4533079189, "lat": 19.4289238, "lon": -99.1389325, "tags": {"addr:housenumber": "20", "addr:street": "Bolivar", "amenity": "bar", "name": "Cantina La Mascota"}}, {"type": "node", "id": 4564177401, "lat": 19.4367668, "lon": -99.1379254, "tags": {"addr:city": "Ciudad de M\u00e9xico", "addr:housenumber": "32", "addr:postcode": "57210", "addr:street": "Calle Ignacio Allende", "amenity": "bar", "cuisine": "regional", "internet_access": "wlan", "name": "Los Jarritos", "name:es": "Los Jarritos", "opening_hours": "Tu-Sa 12:00-02:00"}}, {"type": "node", "id": 4576622594, "lat": 19.4037466, "lon": -99.1528911, "tags": {"amenity": "bar", "name": "Cervecer\u00eda de Barrio", "name:es": "Cervecer\u00eda de Barrio"}}, {"type": "node", "id": 4582036103, "lat": 19.4238223, "lon": -99.1588424, "tags": {"amenity": "bar", "name:en": "Patrick Miller"}}, {"type": "node", "id": 4591422893, "lat": 19.4282703, "lon": -99.1359493, "tags": {"amenity": "bar", "cuisine": "mexican", "name": "La Surianita", "name:es": "La Surianita"}}, {"type": "node", "id": 4593385889, "lat": 19.4143656, "lon": -99.1627268, "tags": {"addr:housenumber": "182", "addr:street": "Avenida Quer\u00e9taro", "amenity": "bar", "internet_access": "wlan", "name": "Cervecer\u00eda Escollo"}}, {"type": "node", "id": 4596044590, "lat": 19.4191994, "lon": -99.1561743, "tags": {"addr:housenumber": "39", "addr:street": "Alvaro Obreg\u00f3n", "amenity": "bar", "name": "El Palenquito"}}, {"type": "node", "id": 4596049996, "lat": 19.414855, "lon": -99.1590846, "tags": {"addr:housenumber": "161", "addr:street": "Orizaba", "amenity": "bar", "name": "La Nacional"}}, {"type": "node", "id": 4596050796, "lat": 19.4184925, "lon": -99.1576341, "tags": {"addr:housenumber": "64", "addr:street": "Alvaro Obreg\u00f3n", "amenity": "bar", "name": "Felix"}}, {"type": "node", "id": 4596050797, "lat": 19.4190978, "lon": -99.1568854, "tags": {"addr:housenumber": "49", "addr:street": "Alvaro Obreg\u00f3n", "amenity": "bar", "name": "Romita Comedor"}}, {"type": "node", "id": 4596053989, "lat": 19.4181496, "lon": -99.1595255, "tags": {"addr:housenumber": "106", "addr:street": "Alvaro Obreg\u00f3n", "amenity": "bar", "name": "Licoreria Limantour"}}, {"type": "node", "id": 4597277989, "lat": 19.4308303, "lon": -99.1564787, "tags": {"addr:city": "Ciudad de M\u00e9xico", "addr:housenumber": "14", "addr:street": "Mil\u00e1n", "amenity": "bar", "name": "Parker & Lenox"}}, {"type": "node", "id": 4613175049, "lat": 19.2953782, "lon": -99.1324941, "tags": {"amenity": "bar", "name": "Dallas"}}, {"type": "node", "id": 4618702045, "lat": 19.2952456, "lon": -99.133357, "tags": {"amenity": "bar", "name": "La del Estribo"}}, {"type": "node", "id": 4618713059, "lat": 19.2952792, "lon": -99.1322558, "tags": {"amenity": "bar", "name": "Cantina La Lupita"}}, {"type": "node", "id": 4618714307, "lat": 19.2961374, "lon": -99.1331114, "tags": {"amenity": "bar", "name": "Tercer Milenio"}}, {"type": "node", "id": 4618714310, "lat": 19.2963602, "lon": -99.1335392, "tags": {"amenity": "bar", "name": "El Villamel\u00f3n"}}, {"type": "node", "id": 4621310279, "lat": 19.2958202, "lon": -99.1319086, "tags": {"amenity": "bar", "name": "Pop Shot"}}, {"type": "node", "id": 4621310288, "lat": 19.2957734, "lon": -99.1322318, "tags": {"amenity": "bar", "name": "Naked City"}}, {"type": "node", "id": 4621311089, "lat": 19.2958544, "lon": -99.1324356, "tags": {"amenity": "bar", "name": "Vauresh"}}, {"type": "node", "id": 4636373803, "lat": 19.2960141, "lon": -99.1340292, "tags": {"amenity": "bar", "name": "Las Acoxpas"}}, {"type": "node", "id": 4636373805, "lat": 19.2962496, "lon": -99.1346086, "tags": {"amenity": "bar", "name": "Cheloc"}}, {"type": "node", "id": 4645790505, "lat": 19.2941546, "lon": -99.1300451, "tags": {"amenity": "bar", "name": "Escaparate"}}, {"type": "node", "id": 4645807760, "lat": 19.2910914, "lon": -99.130886, "tags": {"amenity": "bar", "name": "Vittorius"}}, {"type": "node", "id": 4666017491, "lat": 19.4176015, "lon": -99.1410752, "tags": {"addr:housenumber": "42", "addr:street": "Alfredo Chavero", "amenity": "bar", "internet_access": "wlan", "name": "La Quebrada", "name:es": "La Quebrada"}}, {"type": "node", "id": 4712607389, "lat": 19.4221184, "lon": -99.1636882, "tags": {"amenity": "bar", "name": "Gato Calavera", "name:es": "Gato Calavera"}}, {"type": "node", "id": 4712607489, "lat": 19.4191653, "lon": -99.1645425, "tags": {"amenity": "bar", "name": "El Real Underground", "name:es": "El Real Underground"}}, {"type": "node", "id": 4758061464, "lat": 19.4595948, "lon": -99.1723202, "tags": {"addr:housenumber": "2792", "addr:postcode": "02870", "addr:street": "Poniente 44", "amenity": "bar", "name": "Pepe's", "outdoor_seating": "no", "smoking": "no"}}, {"type": "node", "id": 4774266555, "lat": 19.4117799, "lon": -99.1645967, "tags": {"addr:street": "Medell\u00edn", "amenity": "bar", "name": "La Buena Chela"}}, {"type": "node", "id": 4829550074, "lat": 19.4489573, "lon": -99.1578502, "tags": {"addr:city": "Ciudad de M\u00e9xico", "addr:housenumber": "152", "addr:postcode": "06400", "addr:street": "Jaime Torres Bodet", "amenity": "bar", "name": "Cantina Sal\u00f3n Paris"}}, {"type": "node", "id": 4831645110, "lat": 19.4429288, "lon": -99.1548671, "tags": {"addr:city": "Ciudad de M\u00e9xico", "addr:housenumber": "32", "addr:postcode": "06400", "addr:street": "Avenida Insurgentes Centro", "amenity": "bar", "name": "El Abad"}}, {"type": "node", "id": 4831648430, "lat": 19.4424887, "lon": -99.1549367, "tags": {"addr:city": "Ciudad de M\u00e9xico", "addr:housenumber": "70", "addr:postcode": "06400", "addr:street": "Avenida Insurgentes Centro", "amenity": "bar", "name": "Sanborns", "website": "https://www.sanborns.com.mx"}}, {"type": "node", "id": 4851489721, "lat": 19.4289859, "lon": -99.1550651, "tags": {"addr:city": "Ciudad de M\u00e9xico", "addr:housenumber": "64", "addr:street": "Versalles", "amenity": "bar", "name": "Mono", "name:es": "Mono"}}, {"type": "node", "id": 4866665721, "lat": 19.4142531, "lon": -99.1630965, "tags": {"addr:street": "Avenida Quer\u00e9taro", "amenity": "bar", "name": "Casa Q"}}, {"type": "node", "id": 4878727209, "lat": 19.4434436, "lon": -99.1649983, "tags": {"amenity": "bar", "name": "La Veracruzana"}}, {"type": "node", "id": 4878858890, "lat": 19.4523413, "lon": -99.1567506, "tags": {"amenity": "bar", "name": "Pulquer\u00eda La Xochitl"}}, {"type": "node", "id": 4950056622, "lat": 19.4104118, "lon": -99.1747847, "tags": {"amenity": "bar", "name": "Botell\u00f3n", "name:es": "Botell\u00f3n"}}, {"type": "node", "id": 5010258208, "lat": 19.3428909, "lon": -99.1894915, "tags": {"amenity": "bar", "brewery": "various", "internet_access": "wlan", "min_age": "18", "name": "El Jaibol Insurgentes", "outdoor_seating": "no", "smoking": "outside", "takeaway": "yes", "website": "www.eljaibol.com/", "wheelchair": "no"}}, {"type": "node", "id": 5015283180, "lat": 19.3439818, "lon": -99.1914039, "tags": {"amenity": "bar", "name": "La invencible", "wheelchair": "no"}}, {"type": "node", "id": 5017277721, "lat": 19.4334358, "lon": -99.1507735, "tags": {"amenity": "bar", "name": "Bucardon", "name:es": "Bucardon"}}, {"type": "node", "id": 5018456921, "lat": 19.4281285, "lon": -99.1359729, "tags": {"amenity": "bar", "name": "La Cueva", "name:en": "La Cueva"}}, {"type": "node", "id": 5022545721, "lat": 19.4278066, "lon": -99.1372336, "tags": {"amenity": "bar", "name:en": "100 montaditos"}}, {"type": "node", "id": 5062519822, "lat": 19.4279818, "lon": -99.1696894, "tags": {"amenity": "bar", "name": "Papa Bills Bar & Restaurant", "name:es": "Papa Bills Bar & Restaurant"}}, {"type": "node", "id": 5073024042, "lat": 19.4269037, "lon": -99.1392483, "tags": {"addr:city": "Ciudad de M\u00e9xico", "addr:country": "MX", "addr:housenumber": "104", "addr:postcode": "06080", "addr:street": "Bol\u00edvar", "amenity": "bar", "name": "Noi Soto Bar"}}, {"type": "node", "id": 5087557421, "lat": 19.4129883, "lon": -99.1664805, "tags": {"amenity": "bar", "name:en": "Sixties Bar & Rock"}}, {"type": "node", "id": 5087557425, "lat": 19.4156491, "lon": -99.1635524, "tags": {"amenity": "bar"}}, {"type": "node", "id": 5100869824, "lat": 19.4183854, "lon": -99.1507429, "tags": {"amenity": "bar", "name": "La Audiencia"}}, {"type": "node", "id": 5100870026, "lat": 19.4176431, "lon": -99.1503649, "tags": {"amenity": "bar"}}, {"type": "node", "id": 5109680521, "lat": 19.420154, "lon": -99.1653304, "tags": {"amenity": "bar", "name": "club social Rhodesia", "name:es": "club social Rhodesia"}}, {"type": "node", "id": 5118029192, "lat": 19.4192881, "lon": -99.1613439}, {"type": "node", "id": 5118029193, "lat": 19.4193484, "lon": -99.1611033}, {"type": "node", "id": 5118029194, "lat": 19.4192201, "lon": -99.1610672}, {"type": "node", "id": 5118029195, "lat": 19.4191823, "lon": -99.1612749}, {"type": "node", "id": 5134189641, "lat": 19.3788581, "lon": -99.186846}, {"type": "node", "id": 5135448995, "lat": 19.3903786, "lon": -99.2599401}, {"type": "node", "id": 5135448996, "lat": 19.3903571, "lon": -99.2598851}, {"type": "node", "id": 5135448997, "lat": 19.3902976, "lon": -99.259924}, {"type": "node", "id": 5135448998, "lat": 19.390309, "lon": -99.2599683}, {"type": "node", "id": 5157897621, "lat": 19.3475095, "lon": -99.1630112, "tags": {"addr:housenumber": "95", "addr:street": "Venustiano Carranza", "amenity": "bar", "name": "Quetacoatl"}}, {"type": "node", "id": 5160577280, "lat": 19.4192081, "lon": -99.1611152}, {"type": "node", "id": 5160577281, "lat": 19.4192213, "lon": -99.1611189}, {"type": "node", "id": 5160577282, "lat": 19.4192414, "lon": -99.1612917}, {"type": "node", "id": 5160577283, "lat": 19.4192322, "lon": -99.1613281}, {"type": "node", "id": 5168259421, "lat": 19.4333168, "lon": -99.1451097, "tags": {"amenity": "bar", "name": "B\u00f3sforo"}}, {"type": "node", "id": 5172329023, "lat": 19.423496, "lon": -99.1518626, "tags": {"amenity": "bar", "name": "Pulqueria La Hija de los Apaches", "name:es": "Pulqueria la Hija de los Apaches"}}, {"type": "node", "id": 5218646322, "lat": 19.422494, "lon": -99.1679292, "tags": {"amenity": "bar", "description": "sports bar"}}, {"type": "node", "id": 5220615021, "lat": 19.3486963, "lon": -99.1618119, "tags": {"amenity": "bar", "name": "La Celestina"}}, {"type": "node", "id": 5220615022, "lat": 19.3486121, "lon": -99.1618284, "tags": {"amenity": "bar", "name": "Mezcalero"}}, {"type": "node", "id": 5240466661, "lat": 19.4342783, "lon": -99.1392823, "tags": {"amenity": "bar", "name": "La Gioconda"}}, {"type": "node", "id": 5259976223, "lat": 19.4531314, "lon": -99.1231229, "tags": {"amenity": "bar", "name:en": "Cantina"}}, {"type": "node", "id": 5260013122, "lat": 19.4446208, "lon": -99.1436531, "tags": {"amenity": "bar", "name": "Pulqueria Mi Hermosa Guerrero"}}, {"type": "node", "id": 5262937122, "lat": 19.4207455, "lon": -99.1634584, "tags": {"addr:city": "Ciudad de M\u00e9xico", "addr:housenumber": "23", "addr:street": "Calle Tonal\u00e1", "amenity": "bar", "name": "Maison Artemisia", "name:en": "Loup Bar", "name:es": "Loup Bar", "opening_hours": "Mo-We 16:00-01:00; Th-Sa 13:00-01:00", "website": "https://www.loupbar.mx/"}}, {"type": "node", "id": 5262937124, "lat": 19.4278165, "lon": -99.1639622, "tags": {"addr:city": "Ciudad de M\u00e9xico", "addr:housenumber": "6", "addr:street": "Copenhague", "amenity": "bar", "name": "Xaman"}}, {"type": "node", "id": 5264926321, "lat": 19.4327968, "lon": -99.137483, "tags": {"amenity": "bar", "name": "Nonsolo", "opening_hours": "Mo-Su 09:00-22:00"}}, {"type": "node", "id": 5325167505, "lat": 19.4170072, "lon": -99.0857403}, {"type": "node", "id": 5325167508, "lat": 19.417084, "lon": -99.0856915}, {"type": "node", "id": 5325167519, "lat": 19.4181454, "lon": -99.0848711}, {"type": "node", "id": 5325167522, "lat": 19.4180814, "lon": -99.0847599}, {"type": "node", "id": 5329404822, "lat": 19.4121509, "lon": -99.1640584, "tags": {"addr:housenumber": "173", "addr:postcode": "06700", "addr:street": "Chiapas", "amenity": "bar", "name": "Tasting Room", "phone": "5571598388"}}, {"type": "node", "id": 5329453821, "lat": 19.4332544, "lon": -99.1356127, "tags": {"addr:housenumber": "57", "addr:street": "Francisco I. Madero", "amenity": "bar", "name": "Hilaria Gastrobar", "phone": "5555121559"}}, {"type": "node", "id": 5343164221, "lat": 19.4101729, "lon": -99.1349353, "tags": {"amenity": "bar", "name:en": "Neuroticos"}}, {"type": "node", "id": 5348429046, "lat": 19.4217961, "lon": -99.087167}, {"type": "node", "id": 5348429047, "lat": 19.421763, "lon": -99.0871084}, {"type": "node", "id": 5348429048, "lat": 19.4217725, "lon": -99.0870983}, {"type": "node", "id": 5348429049, "lat": 19.4217174, "lon": -99.0869875}, {"type": "node", "id": 5348429050, "lat": 19.4216823, "lon": -99.0869749}, {"type": "node", "id": 5348429051, "lat": 19.4216677, "lon": -99.0869904}, {"type": "node", "id": 5348429052, "lat": 19.4216429, "lon": -99.0869965}, {"type": "node", "id": 5348429053, "lat": 19.4216254, "lon": -99.0870213}, {"type": "node", "id": 5348429054, "lat": 19.4216021, "lon": -99.0870228}, {"type": "node", "id": 5348429055, "lat": 19.4215985, "lon": -99.0870321}, {"type": "node", "id": 5348429056, "lat": 19.4216079, "lon": -99.0870429}, {"type": "node", "id": 5355876702, "lat": 19.4163931, "lon": -99.0855051}, {"type": "node", "id": 5355876703, "lat": 19.4163497, "lon": -99.0854254}, {"type": "node", "id": 5355876704, "lat": 19.4164387, "lon": -99.0853681}, {"type": "node", "id": 5355876705, "lat": 19.4164852, "lon": -99.0854464}, {"type": "node", "id": 5372132577, "lat": 19.4192467, "lon": -99.0971976}, {"type": "node", "id": 5372132578, "lat": 19.41914, "lon": -99.0969997}, {"type": "node", "id": 5372132579, "lat": 19.419299, "lon": -99.0969033}, {"type": "node", "id": 5372132580, "lat": 19.4194057, "lon": -99.0971012}, {"type": "node", "id": 5381831722, "lat": 19.4258595, "lon": -99.1444152, "tags": {"amenity": "bar"}}, {"type": "node", "id": 5406276371, "lat": 19.4602951, "lon": -99.1753653}, {"type": "node", "id": 5406276372, "lat": 19.4602099, "lon": -99.1748068}, {"type": "node", "id": 5406276373, "lat": 19.4604583, "lon": -99.1751106}, {"type": "node", "id": 5406276374, "lat": 19.4608645, "lon": -99.1752676}, {"type": "node", "id": 5406281401, "lat": 19.4608308, "lon": -99.1750467}, {"type": "node", "id": 5406281402, "lat": 19.4604069, "lon": -99.174773}, {"type": "node", "id": 5423352421, "lat": 19.4272749, "lon": -99.160462, "tags": {"amenity": "bar", "name": "Red City", "name:es": "Red City"}}, {"type": "node", "id": 5436616921, "lat": 19.4070421, "lon": -99.1789179, "tags": {"amenity": "bar", "internet_access": "wlan", "name": "Aduana Cucap\u00e1"}}, {"type": "node", "id": 5436617021, "lat": 19.4071304, "lon": -99.1781464, "tags": {"amenity": "bar", "name": "Barra Gavia"}}, {"type": "node", "id": 5441377369, "lat": 19.4156954, "lon": -99.1607627, "tags": {"addr:city": "Ciudad de M\u00e9xico", "addr:housenumber": "139", "addr:postcode": "06700", "addr:street": "Calle Zacatecas", "amenity": "bar", "name": "Balmori Roofbar", "smoking": "no"}}, {"type": "node", "id": 5497806618, "lat": 19.3425971, "lon": -99.1810662}, {"type": "node", "id": 5497806619, "lat": 19.3426446, "lon": -99.1813459}, {"type": "node", "id": 5497806620, "lat": 19.342476, "lon": -99.1810924}, {"type": "node", "id": 5497806821, "lat": 19.3425246, "lon": -99.1813677}, {"type": "node", "id": 5504256654, "lat": 19.421707, "lon": -99.0872201}, {"type": "node", "id": 5504256656, "lat": 19.4216121, "lon": -99.0870591}, {"type": "node", "id": 5504256663, "lat": 19.4216401, "lon": -99.0871064}, {"type": "node", "id": 5504256664, "lat": 19.4216441, "lon": -99.087113}, {"type": "node", "id": 5507519286, "lat": 19.4224063, "lon": -99.0863241}, {"type": "node", "id": 5507519287, "lat": 19.4223092, "lon": -99.0861546}, {"type": "node", "id": 5507519294, "lat": 19.422397, "lon": -99.0860984}, {"type": "node", "id": 5507519295, "lat": 19.422495, "lon": -99.0862675}, {"type": "node", "id": 5509017055, "lat": 19.4277162, "lon": -99.1364776, "tags": {"addr:housenumber": "27A", "addr:street": "Calle Regina", "amenity": "bar", "name": "Mexicano Bar"}}, {"type": "node", "id": 5509017079, "lat": 19.427457, "lon": -99.134309, "tags": {"amenity": "bar", "name": "Plaza 20"}}, {"type": "node", "id": 5509017082, "lat": 19.4275106, "lon": -99.133279, "tags": {"amenity": "bar", "name": "Barra Blanca Pulqueria"}}, {"type": "node", "id": 5509017100, "lat": 19.4272756, "lon": -99.1314485, "tags": {"amenity": "bar", "name": "La Internacional"}}, {"type": "node", "id": 5509017107, "lat": 19.4276697, "lon": -99.1360884, "tags": {"amenity": "bar"}}, {"type": "node", "id": 5509017237, "lat": 19.427705, "lon": -99.1363839, "tags": {"amenity": "bar"}}, {"type": "node", "id": 5509017240, "lat": 19.4280997, "lon": -99.1378673, "tags": {"amenity": "bar", "name": "The Gallerie"}}, {"type": "node", "id": 5509017250, "lat": 19.4279063, "lon": -99.1363609, "tags": {"amenity": "bar"}}, {"type": "node", "id": 5509017278, "lat": 19.4277011, "lon": -99.1363508, "tags": {"amenity": "bar", "name": "Beerlyn"}}, {"type": "node", "id": 5509017289, "lat": 19.4278978, "lon": -99.1362945, "tags": {"amenity": "bar"}}, {"type": "node", "id": 5509017426, "lat": 19.4278656, "lon": -99.136044, "tags": {"amenity": "bar"}}, {"type": "node", "id": 5519533821, "lat": 19.4146315, "lon": -99.1587889, "tags": {"amenity": "bar", "name": "la chicha"}}, {"type": "node", "id": 5531631048, "lat": 19.3364388, "lon": -99.1926714, "tags": {"amenity": "bar", "name": "UVM SAN ANGEL"}}, {"type": "node", "id": 5539206222, "lat": 19.4138369, "lon": -99.1649618, "tags": {"amenity": "bar", "name": "Mama Rumba"}}, {"type": "node", "id": 5539207021, "lat": 19.4138414, "lon": -99.1653416, "tags": {"amenity": "bar", "name:en": "mama rumba"}}, {"type": "node", "id": 5539207121, "lat": 19.3954916, "lon": -99.1717324, "tags": {"amenity": "bar", "name:en": "mambocafe"}}, {"type": "node", "id": 5547896126, "lat": 19.4127482, "lon": -99.1584658, "tags": {"addr:housenumber": "203", "addr:postcode": "06700", "addr:street": "Orizaba", "amenity": "bar", "name": "Helado Obscuro", "opening_hours": "Mo-Su 11:00-20:00"}}, {"type": "node", "id": 5547896131, "lat": 19.4184861, "lon": -99.1380083, "tags": {"amenity": "bar", "name": "La Catedral Del Pulque", "name:es": "La Catedral Del Pulque"}}, {"type": "node", "id": 5547896222, "lat": 19.427872, "lon": -99.1633628, "tags": {"addr:city": "Ciudad de M\u00e9xico", "addr:housenumber": "3", "addr:postcode": "06600", "addr:street": "Oslo", "amenity": "bar", "name": "El Scary Witches"}}, {"type": "node", "id": 5547896223, "lat": 19.3924425, "lon": -99.1657759, "tags": {"amenity": "bar", "name": "cerveceria la curva", "name:es": "cerveceria la curva"}}, {"type": "node", "id": 5616349523, "lat": 19.4270521, "lon": -99.1642782, "tags": {"addr:city": "Ciudad de M\u00e9xico", "addr:housenumber": "30", "addr:postcode": "06600", "addr:street": "Genova", "amenity": "bar", "name": "Cueva de Lobos"}}, {"type": "node", "id": 5616508221, "lat": 19.4214564, "lon": -99.1404711, "tags": {"addr:housenumber": "44bis", "addr:postcode": "06800", "addr:street": "Lucas Alam\u00e1n", "amenity": "bar", "name": "El Botanero"}}, {"type": "node", "id": 5618803121, "lat": 19.4340038, "lon": -99.1355046, "tags": {"addr:city": "Ciudad de M\u00e9xico", "addr:housenumber": "49", "addr:postcode": "06000", "addr:street": "5 de Mayo", "amenity": "bar", "name": "Pata Negra"}}, {"type": "node", "id": 5619913625, "lat": 19.4329753, "lon": -99.1428568, "tags": {"addr:housenumber": "56", "addr:postcode": "06050", "addr:street": "Independencia", "amenity": "bar", "name": "Cantina El Tio Pepe"}}, {"type": "node", "id": 5620913122, "lat": 19.4126697, "lon": -99.1720401, "tags": {"addr:housenumber": "73", "addr:postcode": "06700", "addr:street": "Avenida Nuevo Le\u00f3n", "amenity": "bar", "name": "Caradura"}}, {"type": "node", "id": 5620913123, "lat": 19.4141535, "lon": -99.1653448, "tags": {"addr:housenumber": "143", "addr:postcode": "06700", "addr:street": "Medell\u00edn", "amenity": "bar", "name": "Starwings La Roma"}}, {"type": "node", "id": 5620926021, "lat": 19.4214478, "lon": -99.1542019, "tags": {"addr:city": "Ciudad de M\u00e9xico", "addr:housenumber": "5 A", "addr:postcode": "06700", "addr:street": "Colima", "amenity": "bar", "name": "Tlachiquero"}}, {"type": "node", "id": 5620928823, "lat": 19.3989403, "lon": -99.17096, "tags": {"addr:housenumber": "573", "addr:postcode": "03810", "addr:street": "Avenida Insurgentes Sur", "amenity": "bar", "name": "McCarthy's Irish Pub"}}, {"type": "node", "id": 5620928824, "lat": 19.4155718, "lon": -99.1618643, "tags": {"addr:housenumber": "132", "addr:postcode": "06700", "addr:street": "Tonal\u00e1", "amenity": "bar", "name": "Barrio Tonala"}}, {"type": "node", "id": 5630903423, "lat": 19.3942208, "lon": -99.1601005, "tags": {"amenity": "bar", "name": "bi\u00e8re artisanal"}}, {"type": "node", "id": 5631519822, "lat": 19.428267, "lon": -99.1691197, "tags": {"amenity": "bar", "name": "Fiebre de Malta"}}, {"type": "node", "id": 5686317021, "lat": 19.386821, "lon": -99.13572, "tags": {"amenity": "bar", "name": "Waterfalls"}}, {"type": "node", "id": 5711927322, "lat": 19.4175545, "lon": -99.1618346, "tags": {"amenity": "bar", "name": "Departamento"}}, {"type": "node", "id": 5718556537, "lat": 19.4273206, "lon": -99.1954723, "tags": {"amenity": "bar", "name": "Living Room Bar", "name:en": "Living Room Bar", "opening_hours": "Mo-Su 16:00-01:00", "phone": "+52 55 9138 1800", "website": "http://www.wmexicocity.com"}}, {"type": "node", "id": 5721562721, "lat": 19.3459756, "lon": -99.1878241, "tags": {"amenity": "bar", "name": "El Dep\u00f3sito"}}, {"type": "node", "id": 5796649873, "lat": 19.421345, "lon": -99.0907836, "tags": {"addr:city": "Ciudad de M\u00e9xico", "addr:postcode": "15730", "addr:street": "Educaci\u00f3n P\u00fablica", "amenity": "bar", "name": "Chocolatte", "outdoor_seating": "yes", "smoking": "isolated"}}, {"type": "node", "id": 5796772678, "lat": 19.4096584, "lon": -99.0898872}, {"type": "node", "id": 5796772679, "lat": 19.4095999, "lon": -99.0897736}, {"type": "node", "id": 5796772680, "lat": 19.4096713, "lon": -99.0897322}, {"type": "node", "id": 5796772681, "lat": 19.4097299, "lon": -99.0898458}, {"type": "node", "id": 5858588365, "lat": 19.4163867, "lon": -99.0854938}, {"type": "node", "id": 5858588367, "lat": 19.4163839, "lon": -99.0854889}, {"type": "node", "id": 5858588368, "lat": 19.416367, "lon": -99.0854587}, {"type": "node", "id": 5858588369, "lat": 19.41648, "lon": -99.0854346}, {"type": "node", "id": 5859751986, "lat": 19.4183384, "lon": -99.0847463}, {"type": "node", "id": 5859751987, "lat": 19.4182744, "lon": -99.084635}, {"type": "node", "id": 5859752199, "lat": 19.4183343, "lon": -99.0855473}, {"type": "node", "id": 5859752202, "lat": 19.4181384, "lon": -99.085668}, {"type": "node", "id": 5859752386, "lat": 19.416908, "lon": -99.0855675}, {"type": "node", "id": 5864574985, "lat": 19.3869554, "lon": -99.1568032, "tags": {"amenity": "bar", "name": "Hop The Beer Experience"}}, {"type": "node", "id": 5872963585, "lat": 19.4227948, "lon": -99.0865584, "tags": {"addr:city": "Ciudad de M\u00e9xico", "addr:postcode": "15700", "addr:street": "Trabajo y Previsi\u00f3n Social", "amenity": "bar", "description": "Bar Patys", "name": "Patys", "outdoor_seating": "no"}}, {"type": "node", "id": 5889786485, "lat": 19.4271949, "lon": -99.1645778, "tags": {"amenity": "bar", "name": "A Dios Le Pido"}}, {"type": "node", "id": 5891977885, "lat": 19.416984, "lon": -99.1596085, "tags": {"amenity": "bar", "name": "Vino Premier"}}, {"type": "node", "id": 5917125685, "lat": 19.419249, "lon": -99.1555852, "tags": {"amenity": "bar", "name": "El deposito"}}, {"type": "node", "id": 5921939685, "lat": 19.412531, "lon": -99.1728154, "tags": {"amenity": "bar", "name": "Peralta"}}, {"type": "node", "id": 5922008285, "lat": 19.4125272, "lon": -99.1727205, "tags": {"amenity": "bar", "name": "Phoenix"}}, {"type": "node", "id": 5924965985, "lat": 19.4256668, "lon": -99.163324, "tags": {"amenity": "bar", "name": "London Blue"}}, {"type": "node", "id": 6006346085, "lat": 19.4613539, "lon": -99.1406025, "tags": {"amenity": "bar", "name": "jidlo"}}, {"type": "node", "id": 6030460186, "lat": 19.4373612, "lon": -99.1379675, "tags": {"amenity": "bar", "name": "La Nueva Excelencia"}}, {"type": "node", "id": 6182569685, "lat": 19.4264735, "lon": -99.1619992, "tags": {"amenity": "bar", "name": "Baby"}}, {"type": "node", "id": 6182570885, "lat": 19.4112435, "lon": -99.1669838, "tags": {"amenity": "bar", "name": "Tom's Leather Bar", "website": "http://toms-mexico.com"}}, {"type": "node", "id": 6185288385, "lat": 19.4270274, "lon": -99.1556903, "tags": {"amenity": "bar", "name:en": "Hanky Panky Bar (Comida A-langa-langa)"}}, {"type": "node", "id": 6267061886, "lat": 19.34978, "lon": -99.1639086, "tags": {"amenity": "bar", "name": "El Hijo del Cuervo"}}, {"type": "node", "id": 6267369698, "lat": 19.3497516, "lon": -99.1638472, "tags": {"amenity": "bar", "name": "Antiguo Palacio"}}, {"type": "node", "id": 6315284703, "lat": 19.4271658, "lon": -99.1371316, "tags": {"amenity": "bar", "name": "El Deposito"}}, {"type": "node", "id": 6370682885, "lat": 19.4149452, "lon": -99.1592731, "tags": {"amenity": "bar", "name": "Pulqueria La Nuclear", "name:en": "La Nuclear Pulqueria"}}, {"type": "node", "id": 6421920687, "lat": 19.412973, "lon": -99.1585031, "tags": {"amenity": "bar", "name": "Helado Obscuro"}}, {"type": "node", "id": 6422135985, "lat": 19.4670884, "lon": -99.1746963, "tags": {"amenity": "bar", "name": "Vancouver Wings"}}, {"type": "node", "id": 6479211186, "lat": 19.3968228, "lon": -99.1664949, "tags": {"amenity": "bar", "name": "Rotterdam"}}, {"type": "node", "id": 6536236185, "lat": 19.4331199, "lon": -99.1394745, "tags": {"amenity": "bar", "cuisine": "mexican", "name": "Gante"}}, {"type": "node", "id": 6561703892, "lat": 19.457416, "lon": -99.1502397, "tags": {"amenity": "bar", "name": "Bar y Karaoke \"Latin Flavor\""}}, {"type": "node", "id": 6566728792, "lat": 19.4198978, "lon": -99.1590368, "tags": {"amenity": "bar", "name": "traspatio"}}, {"type": "node", "id": 6573131287, "lat": 19.4378091, "lon": -99.1949578, "tags": {"amenity": "bar", "name": "Hop 4"}}, {"type": "node", "id": 6604324745, "lat": 19.4339084, "lon": -99.1407364, "tags": {"addr:city": "Ciudad de M\u00e9xico", "addr:housenumber": "2", "addr:postcode": "06000", "addr:street": "L\u00e1zaro C\u00e1rdenas", "amenity": "bar", "description": "On the 40th floor of the Torre Latinoamericana. Take the elevator to the 37th floor and walk up.", "name": "Nivel 40 SkyBar", "outdoor_seating": "no", "website": "https://www.facebook.com/Nivel40Skybar/"}}, {"type": "node", "id": 6679239585, "lat": 19.4259188, "lon": -99.1639046, "tags": {"amenity": "bar", "name": "La Chelestial"}}, {"type": "node", "id": 6783189085, "lat": 19.4143459, "lon": -99.1646272, "tags": {"amenity": "bar", "name": "Biergarten", "name:es": "Biergarten"}}, {"type": "node", "id": 6800780702, "lat": 19.4182882, "lon": -99.0854697}, {"type": "node", "id": 6800780703, "lat": 19.4180933, "lon": -99.0855898}, {"type": "node", "id": 6800780704, "lat": 19.4181065, "lon": -99.0856128}, {"type": "node", "id": 6800780705, "lat": 19.4182339, "lon": -99.0856092}, {"type": "node", "id": 6800780709, "lat": 19.4169642, "lon": -99.0854813}, {"type": "node", "id": 6800780710, "lat": 19.4168876, "lon": -99.085531}, {"type": "node", "id": 6816341285, "lat": 19.4396767, "lon": -99.1373257, "tags": {"addr:street": "Calle Ignacio Allende", "amenity": "bar", "name": "Pulquer\u00eda La Antigua Roma"}}, {"type": "node", "id": 6818154916, "lat": 19.4693898, "lon": -99.1654591, "tags": {"addr:housenumber": "63B", "addr:postcode": "02810", "addr:street": "Calle Yerbabuena", "amenity": "bar", "name": "Pulquer\u00eda La Reforma de la Carambola", "opening_hours": "Mo-Sa 10:30-18:15; Su 10:30-17:00"}}, {"type": "node", "id": 6901268688, "lat": 19.4186951, "lon": -99.1672166, "tags": {"addr:housenumber": "12", "addr:street": "Avenida Oaxaca", "amenity": "bar", "name": "Caf\u00e9 Tacobar", "opening_hours": "Tu-Sa 10:00-02:00"}}, {"type": "node", "id": 6933348285, "lat": 19.4307048, "lon": -99.1961962, "tags": {"amenity": "bar", "name:en": "Jules Basement"}}, {"type": "node", "id": 6935391086, "lat": 19.4338636, "lon": -99.1342446, "tags": {"amenity": "bar", "name": "El Balc\u00f3n del Z\u00f3calo", "name:en": "El Balcon del Zocalo"}}, {"type": "node", "id": 6936313785, "lat": 19.4217636, "lon": -99.1701515, "tags": {"amenity": "bar", "name": "The Clam"}}, {"type": "node", "id": 6958294414, "lat": 19.4307161, "lon": -99.1961987, "tags": {"amenity": "bar", "name:en": "Jules basement"}}, {"type": "node", "id": 7017498648, "lat": 19.3693428, "lon": -99.1494709, "tags": {"addr:housenumber": "145", "addr:street": "Avenida Municipio Libre", "amenity": "bar", "name": "La Libre"}}, {"type": "node", "id": 7122920746, "lat": 19.4060005, "lon": -99.1643316, "tags": {"addr:city": "Mexico City", "addr:housenumber": "158", "addr:postcode": "06760", "addr:street": "Avenida Baja California", "amenity": "bar", "description": "Abre a las 17 horas", "name": "BACAL - apericena", "phone": "+52 55 8663 0114"}}, {"type": "node", "id": 7213002987, "lat": 19.4323899, "lon": -99.1344078, "tags": {"amenity": "bar", "name": "Cocina central 1812"}}, {"type": "node", "id": 7231819885, "lat": 19.3984505, "lon": -99.155245, "tags": {"amenity": "bar", "name": "Cerveza en Punto"}}, {"type": "node", "id": 7235811685, "lat": 19.2612092, "lon": -99.1032257, "tags": {"amenity": "bar", "name": "Pulquer\u00edas Do\u00f1a Cande"}}, {"type": "node", "id": 7259892885, "lat": 19.4194905, "lon": -99.1639968, "tags": {"addr:street": "ManoAv. Insurgentes Sur 219, Roma Nte., Cuauht\u00e9moc, 06700 Ciudad de M\u00e9xico, CDMX", "amenity": "bar", "name": "Mano Santa Mezcal, Av. Insurg", "name:en": "Mano Santa Mezcal", "name:es": "Mano Santa Mezcal"}}, {"type": "node", "id": 7649875997, "lat": 19.3875289, "lon": -99.177249, "tags": {"addr:city": "Ciudad de M\u00e9xico", "addr:housenumber": "241", "addr:street": "Calle Pennsylvania", "amenity": "bar", "description": "Venta de cerveza \"Grupo Cuauht\u00e9moc\": Tecate, Heineken, XX, Sol..", "min_age": "18", "name": "Nabucco's", "opening_hours": "Mo-Su 13:00-02:00", "opening_hours:covid19": "closed", "outdoor_seating": "yes"}}, {"type": "node", "id": 7650346228, "lat": 19.4707096, "lon": -99.1129388, "tags": {"addr:city": "CDMX", "addr:housenumber": "6211", "addr:postcode": "07820", "addr:street": "Calle M\u00e1rmol", "amenity": "bar", "brewery": "various", "min_age": "17", "name": "Hit & Run", "opening_hours": "Mo-Fr 08:00-17:00"}}, {"type": "node", "id": 7924613995, "lat": 19.357039, "lon": -99.1637005, "tags": {"addr:city": "Ciudad de Mexico", "addr:housenumber": "128", "addr:postcode": "04100", "addr:street": "Calle Centenario", "amenity": "bar", "min_age": "18", "name": "Los Paseos de Santa Anita", "opening_hours:covid19": "closed"}}, {"type": "node", "id": 7949460179, "lat": 19.4117283, "lon": -99.1646611, "tags": {"addr:city": "M\u00e9xico, Distrito Federal", "addr:housenumber": "191", "addr:postcode": "06700", "addr:street": "Medell\u00edn", "amenity": "bar", "currency:XBT": "yes", "email": "bitcoin.embassy.bar@gmail.com", "min_age": "18", "name": "Bitcoin Embassy Bar", "payment:cryptocurrencies": "yes", "payment:dogecoin": "yes", "payment:lightning": "yes", "phone": "+52 55 6600 1205", "survey:date": "2022-04-25", "website": "https://bitcoinemb.com/"}}, {"type": "node", "id": 8011447022, "lat": 19.4158091, "lon": -99.0918359, "tags": {"addr:postcode": "15010", "amenity": "bar", "brewery": "Pulque", "min_age": "18", "name": "La Reina Xochitl", "opening_hours": "Mo-Su 09:00-21:00"}}, {"type": "node", "id": 8164047818, "lat": 19.4095506, "lon": -99.1620794, "tags": {"addr:housenumber": "271", "addr:postcode": "06760", "addr:street": "Monterrey", "amenity": "bar", "cuisine": "friture;italian_pizza;local", "email": "revolverbarmx@gmail.com", "internet_access": "wlan", "name": "Revolver bar", "opening_hours": "Tu-Sa 17:00-02:00"}}, {"type": "node", "id": 8236190017, "lat": 19.4338751, "lon": -99.1371396, "tags": {"amenity": "bar", "level": "-1", "name": "Zinco Jazz Club"}}, {"type": "node", "id": 8237660917, "lat": 19.4291763, "lon": -99.1564329, "tags": {"amenity": "bar", "name": "Hop The Beer Experience"}}, {"type": "node", "id": 8237668517, "lat": 19.4286419, "lon": -99.1658234, "tags": {"amenity": "bar", "name:en": "Cityzen Bar Sofitel"}}, {"type": "node", "id": 8237675817, "lat": 19.4228402, "lon": -99.1741607, "tags": {"amenity": "bar", "name": "Fifty Mils"}}, {"type": "node", "id": 8237683219, "lat": 19.4189841, "lon": -99.1576923, "tags": {"amenity": "bar", "name": "Casa Franca"}}, {"type": "node", "id": 8237711217, "lat": 19.4186228, "lon": -99.1663867, "tags": {"amenity": "bar", "name": "Yellow Bird y Yellow Garden"}}, {"type": "node", "id": 8237723118, "lat": 19.4119696, "lon": -99.160083, "tags": {"amenity": "bar", "name:en": "Falling Piano Brewing Co."}}, {"type": "node", "id": 8237730820, "lat": 19.4158966, "lon": -99.1649284, "tags": {"amenity": "bar", "name": "jazzatlan Capital"}}, {"type": "node", "id": 8245792517, "lat": 19.4182508, "lon": -99.1586357, "tags": {"amenity": "bar", "name:en": "Gin Gin"}}, {"type": "node", "id": 8245801017, "lat": 19.4125335, "lon": -99.1732473, "tags": {"amenity": "bar", "name:en": "Gin Gin"}}, {"type": "node", "id": 8447138117, "lat": 19.391234, "lon": -99.1513748, "tags": {"addr:housenumber": "823", "addr:street": "Avenida Doctor Jos\u00e9 Mar\u00eda V\u00e9rtiz", "amenity": "bar", "name": "Saloon Los Cuates", "opening_hours": "Mo-Su 01:00-18:00"}}, {"type": "node", "id": 8541845317, "lat": 19.428216, "lon": -99.1233545, "tags": {"amenity": "bar", "name": "Pulque"}}, {"type": "node", "id": 8542024217, "lat": 19.4299071, "lon": -99.1268754, "tags": {"amenity": "bar", "name": "Pulqueria El Recreo"}}, {"type": "node", "id": 8542120917, "lat": 19.4409827, "lon": -99.1386744, "tags": {"amenity": "bar", "name": "Pulqueria La Hermosa Hortensia"}}, {"type": "node", "id": 8546986921, "lat": 19.4193673, "lon": -99.164043, "tags": {"amenity": "bar", "name": "Pulqueria Los Insurgentes"}}, {"type": "node", "id": 8848911522, "lat": 19.3794095, "lon": -99.1223978, "tags": {"amenity": "bar", "name": "El Pub"}}, {"type": "node", "id": 8880623818, "lat": 19.349572, "lon": -99.172471, "tags": {"amenity": "bar", "name": "Barricas Don Tiburcio"}}, {"type": "node", "id": 8959761096, "lat": 19.4390978, "lon": -99.1561217, "tags": {"addr:city": "Ciudad de M\u00e9xico", "addr:housenumber": "15", "addr:postcode": "06470", "addr:street": "Avenida Insurgentes Centro", "amenity": "bar", "name": "El S\u00f3tano Bar"}}, {"type": "node", "id": 9380863417, "lat": 19.3936346, "lon": -99.152684, "tags": {"amenity": "bar", "name": "Luvina vegan bar"}}, {"type": "node", "id": 9630454283, "lat": 19.4192897, "lon": -99.1602237, "tags": {"addr:city": "Ciudad de M\u00e9xico", "addr:housenumber": "95", "addr:postcode": "06700", "addr:street": "Calle Orizaba", "amenity": "bar", "name": "Terraza 95"}}, {"type": "node", "id": 9664805893, "lat": 19.3485405, "lon": -99.1618533, "tags": {"amenity": "bar", "cocktails": "yes", "drink:beer": "yes", "name": "Mezcalero", "opening_hours": "Mo-Th, Su 13:00-00:00; Fr, Sa 13:00-01:00", "phone": "+52 55 5554 7027"}}, {"type": "node", "id": 9686326517, "lat": 19.4208338, "lon": -99.1634891, "tags": {"amenity": "bar", "name": "Artemisia", "name:es": "Maison Artemisia"}}, {"type": "node", "id": 9706406117, "lat": 19.4365085, "lon": -99.1397534, "tags": {"amenity": "bar", "name": "ProCer"}}, {"type": "node", "id": 9721881144, "lat": 19.33575, "lon": -99.1653341, "tags": {"amenity": "bar", "drink:beer": "yes", "food": "yes", "name": "Speed Beers"}}, {"type": "node", "id": 9749958644, "lat": 19.3356944, "lon": -99.1575455, "tags": {"addr:housenumber": "546", "addr:neighbourhood": "Colonia Los Reyes", "addr:street": "Avenida Pedro Henr\u00edquez Ure\u00f1a", "alt_name": "Sambuca Copilco", "amenity": "bar", "branch": "Copilco", "name": "Bar Sambuca"}}, {"type": "node", "id": 9831152344, "lat": 19.3977471, "lon": -99.0722429, "tags": {"amenity": "bar", "name": "El Barril"}}, {"type": "node", "id": 9960469919, "lat": 19.3982019, "lon": -99.1852003, "tags": {"amenity": "bar", "name": "Revoluci\u00f3n"}}, {"type": "node", "id": 9960470017, "lat": 19.4197114, "lon": -99.1789617, "tags": {"amenity": "bar", "internet_access": "wlan", "name": "El Mirador"}}, {"type": "node", "id": 9965196918, "lat": 19.4199961, "lon": -99.1597454, "tags": {"amenity": "bar", "name": "San To"}}, {"type": "node", "id": 9980421134, "lat": 19.357429, "lon": -99.1223397, "tags": {"amenity": "bar", "name": "Pink House"}}, {"type": "node", "id": 9996037733, "lat": 19.3422554, "lon": -99.1472772, "tags": {"amenity": "bar", "name": "Monas Fun & Food"}}, {"type": "node", "id": 10002723353, "lat": 19.3572558, "lon": -99.1221238, "tags": {"amenity": "bar", "name": "Paradise"}}, {"type": "node", "id": 10110390725, "lat": 19.4243986, "lon": -99.1647551, "tags": {"amenity": "bar", "name:en": "Handshake Speakeasy"}}, {"type": "node", "id": 10110391432, "lat": 19.4284088, "lon": -99.1689644, "tags": {"amenity": "bar", "name": "Fiebre de Malta"}}, {"type": "node", "id": 10127358517, "lat": 19.4095235, "lon": -99.1688382, "tags": {"amenity": "bar", "name": "Baltra"}}, {"type": "node", "id": 10171614530, "lat": 19.4260274, "lon": -99.1673962, "tags": {"amenity": "bar", "name": "La No 20"}}, {"type": "node", "id": 10179938417, "lat": 19.4177812, "lon": -99.1577826, "tags": {"amenity": "bar", "name": "Casa Prunes"}}, {"type": "node", "id": 10205846717, "lat": 19.4212062, "lon": -99.1597909, "tags": {"amenity": "bar", "name": "Bar Las Brujas"}}, {"type": "node", "id": 10544236713, "lat": 19.461063, "lon": -99.1400994, "tags": {"amenity": "bar", "survey:date": "2023-01-12"}}, {"type": "node", "id": 10563569217, "lat": 19.438652, "lon": -99.1532896, "tags": {"amenity": "bar", "name": "Cantina La Flor Asturiana", "survey:date": "2023-01-17"}}, {"type": "node", "id": 10584805631, "lat": 19.4131971, "lon": -99.1631332, "tags": {"addr:city": "Ciudad de M\u00e9xico", "addr:housenumber": "205", "addr:postcode": "06700", "addr:street": "Avenida Monterrey", "amenity": "bar", "brewery": "yes", "min_age": "18", "name": "Malt Bunny", "opening_hours": "24/7"}}, {"type": "node", "id": 10605543007, "lat": 19.5123868, "lon": -99.141103, "tags": {"amenity": "bar", "survey:date": "2023-02-03"}}, {"type": "node", "id": 10685664005, "lat": 19.4181305, "lon": -99.1594087, "tags": {"amenity": "bar", "name": "Licorer\u00eda Limantour"}}, {"type": "node", "id": 10685680005, "lat": 19.410112, "lon": -99.1756643, "tags": {"amenity": "bar", "name": "La Botica"}}, {"type": "node", "id": 10693020773, "lat": 19.3915189, "lon": -99.1605769, "tags": {"addr:city": "Ciudad de M\u00e9xico", "addr:postcode": "03100", "addr:street": "Calle Luz Savi\u00f1\u00f3n", "amenity": "bar", "brewery": "various", "min_age": "18", "name": "Beer bros", "opening_hours": "Mo-Su 14:30-00:00"}}, {"type": "node", "id": 10746952966, "lat": 19.4139788, "lon": -99.1638578, "tags": {"addr:city": "Ciudad de M\u00e9xico", "addr:housenumber": "202", "addr:postcode": "06700", "addr:street": "Avenida Quer\u00e9taro", "amenity": "bar", "min_age": "18", "name": "Casa Romma Social Lounge"}}, {"type": "node", "id": 10754906016, "lat": 19.4246272, "lon": -99.166591, "tags": {"addr:housenumber": "37-A", "addr:postcode": "06600", "addr:street": "Calle Florencia", "amenity": "bar", "brand": "Cabar\u00e9tito", "lgbtq": "primary", "name": "El Taller", "website": "https://www.cabaretito.com.mx/el-taller/"}}, {"type": "node", "id": 10754906029, "lat": 19.4115459, "lon": -99.1798882, "tags": {"amenity": "bar", "food": "yes", "name": "S\u00faper Ette"}}, {"type": "node", "id": 10847153008, "lat": 19.4684652, "lon": -99.1250527, "tags": {"amenity": "bar", "name": "Santa Patrona", "survey:date": "2023-04-28"}}, {"type": "way", "id": 86203649, "nodes": [1000644300, 1000644294, 318070567, 1000644297, 5134189641, 1000644300], "tags": {"addr:city": "M\u00e9xico", "addr:country": "MX", "addr:housenumber": "823", "addr:province": "Benito Ju\u00e1rez", "addr:state": "CDMX", "addr:street": "Avenida Revoluci\u00f3n", "amenity": "bar", "building": "yes", "name": "Warehouse"}}, {"type": "way", "id": 456466331, "nodes": [4527219352, 4527219353, 4527219354, 4527219351, 4527219352], "tags": {"amenity": "bar", "building": "yes", "name": "Olimpo"}}, {"type": "way", "id": 526260592, "nodes": [5118029192, 5118029193, 5118029194, 5160577280, 5160577281, 5118029195, 5160577282, 5160577283, 5118029192], "tags": {"addr:city": "Ciudad de M\u00e9xico", "addr:housenumber": "90", "addr:postcode": "06700", "addr:street": "Calle Jalapa", "amenity": "bar", "building": "yes", "name": "Patio Escondido - Monstruo de Agua", "opening_hours": "We, Th 14:00-22:00; Su 14:00-21:00; Fr, Sa 14:00-00:00", "phone": "+52 55 7571 6304"}}, {"type": "way", "id": 528454535, "nodes": [5135448995, 5135448996, 5135448997, 5135448998, 5135448995], "tags": {"amenity": "bar", "building": "yes", "name": "Frankfurt"}}, {"type": "way", "id": 551399695, "nodes": [5325167505, 5859752386, 6800780710, 6800780709, 5325167508, 5325167505], "tags": {"addr:city": "Ciudad de M\u00e9xico", "addr:housenumber": "56", "addr:street": "Avenida Economia", "amenity": "bar", "building": "yes", "name": "Restaurante Bar", "outdoor_seating": "no", "smoking": "isolated"}}, {"type": "way", "id": 551399697, "nodes": [5325167519, 5859751986, 5859751987, 5325167522, 5325167519], "tags": {"addr:city": "Ciudad de M\u00e9xico", "addr:housenumber": "98", "addr:street": "Avenida Econom\u00eda", "amenity": "bar", "building": "yes", "description": "Buen lugar con m\u00fasica en vivo y micheladas de sabor", "name": "Big Corner", "opening_hours": "Mo-Sa 16:00-23:00", "outdoor_seating": "yes", "smoking": "no"}}, {"type": "way", "id": 554181556, "nodes": [5348429046, 5348429047, 5348429048, 5348429049, 5348429050, 5348429051, 5348429052, 5348429053, 5348429054, 5348429055, 5348429056, 5504256656, 5504256663, 5504256664, 5504256654, 5348429046], "tags": {"addr:city": "Ciudad de M\u00e9xico", "addr:housenumber": "40", "addr:postcode": "15700", "addr:street": "Comunicaciones y Obras P\u00fablicas", "amenity": "bar", "building": "yes", "leisure": "yes", "name": "Restaurante Bar Santoro Grill", "opening_hours": "Mo-Sa 08:00-20:00", "outdoor_seating": "no", "smoking": "isolated"}}, {"type": "way", "id": 555030633, "nodes": [5355876702, 5858588365, 5858588367, 5858588368, 5355876703, 5355876704, 5858588369, 5355876705, 5355876702], "tags": {"addr:city": "Ciudad de M\u00e9xico", "addr:postcode": "15730", "addr:street": "Economia", "amenity": "bar", "brewery": "yes", "building": "yes", "name": "Bar-Salon", "smoking": "outside"}}, {"type": "way", "id": 556965677, "nodes": [5372132577, 5372132578, 5372132579, 5372132580, 5372132577], "tags": {"addr:city": "Ciudad de M\u00e9xico", "addr:street": "Circuito Interior", "amenity": "bar", "building": "yes", "name": "ANTRAX", "smoking": "separated"}}, {"type": "way", "id": 560595306, "nodes": [5406276371, 5406276372, 5406281402, 5406276373, 5406281401, 5406276374, 5406276371], "tags": {"amenity": "bar", "brewery": "various;Poseidon", "building": "yes", "name": "Julio's", "operator": "Julio", "outdoor_seating": "no", "payment:cash": "yes", "smoking": "separated"}}, {"type": "way", "id": 572217159, "nodes": [5497806618, 5497806620, 5497806821, 5497806619, 5497806618], "tags": {"amenity": "bar", "building": "yes", "name": "La Victoria del Indio"}}, {"type": "way", "id": 573445875, "nodes": [5507519287, 5507519294, 5507519295, 5507519286, 5507519287], "tags": {"addr:housenumber": "364", "addr:street": "Trabajo y Previsi\u00f3n Social", "amenity": "bar", "building": "yes"}}, {"type": "way", "id": 612372748, "nodes": [5796772678, 5796772679, 5796772680, 5796772681, 5796772678], "tags": {"addr:street": "Calle 47", "amenity": "bar", "brewery": "yes", "building": "yes", "name": "Cerveceria la Michelada", "outdoor_seating": "yes", "product": "beer", "smoking": "no"}}, {"type": "way", "id": 620182012, "nodes": [5859752199, 6800780702, 6800780703, 6800780704, 5859752202, 6800780705, 5859752199], "tags": {"addr:city": "Ciudad de M\u00e9xico", "addr:housenumber": "57", "addr:postcode": "15730", "addr:street": "Calle Guerra y Marina", "amenity": "bar", "brewery": "various", "building": "yes", "description": "Bar de Mojitos", "name": "Barsito del Barrio", "outdoor_seating": "yes", "smoking": "no"}}]}