{"version": 0.6, "generator": "Overpass API 0.7.60 f4c14d41", "osm3s": {"timestamp_osm_base": "2023-05-02T21:19:24Z", "copyright": "The data included in this document is from www.openstreetmap.org. The data is made available under ODbL."}, "elements": [{"type": "node", "id": 331956591, "lat": -22.9641057, "lon": -43.17646, "tags": {"amenity": "pub"}}, {"type": "node", "id": 332517429, "lat": -22.9297093, "lon": -43.1776872, "tags": {"amenity": "pub", "created_by": "Potlatch 0.10f", "name": "Esquina do Chopp"}}, {"type": "node", "id": 340459666, "lat": -22.9239423, "lon": -43.1777098, "tags": {"addr:postcode": "22211-200", "addr:street": "Rua Pedro Am\u00e9rico", "amenity": "pub"}}, {"type": "node", "id": 344562455, "lat": -22.9360714, "lon": -43.1903342, "tags": {"addr:city": "Rio de Janeiro", "addr:housenumber": "34", "addr:street": "Rua Alice", "addr:suburb": "Laranjeiras", "amenity": "pub", "brewery": "yes", "name": "Tasca do Edgar"}}, {"type": "node", "id": 344563034, "lat": -22.9361502, "lon": -43.190246, "tags": {"addr:city": "Rio de Janeiro", "addr:housenumber": "24", "addr:street": "Rua Alice", "addr:suburb": "Laranjeiras", "amenity": "pub", "brewery": "yes", "name": "Bar do Serafim"}}, {"type": "node", "id": 345971914, "lat": -22.935475, "lon": -43.1889363}, {"type": "node", "id": 346248556, "lat": -22.9333469, "lon": -43.1841151, "tags": {"addr:housenumber": "143G", "addr:street": "Rua das Laranjeiras", "addr:suburb": "Laranjeiras", "amenity": "pub", "name": "Caf\u00e9 e Bar Vila Vi\u00e7osa"}}, {"type": "node", "id": 346248557, "lat": -22.9333155, "lon": -43.1840907, "tags": {"addr:city": "Rio de Janeiro", "addr:housenumber": "143F", "addr:street": "Rua das Laranjeiras", "addr:suburb": "Laranjeiras", "amenity": "pub"}}, {"type": "node", "id": 416166020, "lat": -22.9508357, "lon": -43.1823366, "tags": {"addr:city": "Rio de Janeiro", "addr:country": "BR", "addr:street": "Rua Volunt\u00e1rios da P\u00e1tria", "addr:suburb": "Botafogo", "amenity": "pub", "name": "Rosa de Ouro"}}, {"type": "node", "id": 416166035, "lat": -22.9509442, "lon": -43.1827011, "tags": {"addr:city": "Rio de Janeiro", "addr:country": "BR", "addr:housenumber": "35", "addr:street": "Rua Volunt\u00e1rios da P\u00e1tria", "addr:suburb": "Botafogo", "amenity": "pub", "name": "VOID Botafogo", "phone": "+55 21 2266-3773"}}, {"type": "node", "id": 416166045, "lat": -22.9479073, "lon": -43.183029, "tags": {"addr:postcode": "22251-080", "addr:street": "Rua Professor Alfredo Gomes", "amenity": "pub"}}, {"type": "node", "id": 416979540, "lat": -22.9472803, "lon": -43.1860093, "tags": {"amenity": "pub"}}, {"type": "node", "id": 431013481, "lat": -22.9325128, "lon": -43.1822551, "tags": {"addr:housenumber": "103C", "addr:street": "Rua das Laranjeiras", "amenity": "pub", "name": "Casa da Sardinha"}}, {"type": "node", "id": 431750195, "lat": -22.9233614, "lon": -43.177467, "tags": {"amenity": "pub", "name": "Restaurante Badalado"}}, {"type": "node", "id": 448811932, "lat": -22.9129588, "lon": -43.1819792, "tags": {"addr:housenumber": "88", "addr:street": "Avenida Mem de S\u00e1", "amenity": "pub", "name": "Ant\u00f4nio's Bar", "source": "survey"}}, {"type": "node", "id": 448811935, "lat": -22.9129035, "lon": -43.1822968, "tags": {"addr:housenumber": "92", "addr:street": "Avenida Mem de S\u00e1", "amenity": "pub", "name": "Barbieri Botequim", "source": "survey"}}, {"type": "node", "id": 527333491, "lat": -22.9491831, "lon": -43.1855315, "tags": {"addr:housenumber": "98", "addr:street": "Rua S\u00e3o Clemente", "amenity": "pub", "name": "Boteco 98"}}, {"type": "node", "id": 529749027, "lat": -22.9624392, "lon": -43.1759463, "tags": {"addr:housenumber": "335", "addr:street": "Avenida Prado Junior", "amenity": "pub", "name": "Cervantes", "note": "existem 2 POIs referentes a \"Cervantes\""}}, {"type": "node", "id": 534013728, "lat": -22.9163307, "lon": -43.1914206, "tags": {"amenity": "pub", "name": "Santa Saideira"}}, {"type": "node", "id": 557557663, "lat": -22.9571854, "lon": -43.1959617}, {"type": "node", "id": 570371628, "lat": -22.9045298, "lon": -43.1746137, "tags": {"amenity": "pub", "name": "Bar do Papai"}}, {"type": "node", "id": 605075790, "lat": -22.7545908, "lon": -43.1061207, "tags": {"amenity": "pub", "name": "Bar do Seu Ivo", "source": "survey"}}, {"type": "node", "id": 608717195, "lat": -22.7626705, "lon": -43.1075623, "tags": {"amenity": "pub", "name": "Estrela do Mar", "source": "survey"}}, {"type": "node", "id": 614496023, "lat": -22.9019704, "lon": -43.1748757, "tags": {"amenity": "pub", "source": "survey"}}, {"type": "node", "id": 618268983, "lat": -22.9051707, "lon": -43.1752044, "tags": {"amenity": "pub", "name": "Quiosque da Brahma", "operator": "Brahma", "shop": "kiosk"}}, {"type": "node", "id": 633485300, "lat": -22.9139082, "lon": -43.2464493, "tags": {"amenity": "pub", "name": "Mercearia do Pedrinho"}}, {"type": "node", "id": 633485305, "lat": -22.9135993, "lon": -43.2445026, "tags": {"amenity": "pub", "name": "Bo\u00eamios da Vila"}}, {"type": "node", "id": 633485306, "lat": -22.9135298, "lon": -43.2442662, "tags": {"addr:housenumber": "150", "addr:street": "Rua Torres Homem", "amenity": "pub", "name": "Bar do Costa"}}, {"type": "node", "id": 633485307, "lat": -22.9137722, "lon": -43.2442221, "tags": {"amenity": "pub"}}, {"type": "node", "id": 633485309, "lat": -22.915333, "lon": -43.2441337, "tags": {"amenity": "pub", "name": "Petisco da Vila"}}, {"type": "node", "id": 633517976, "lat": -22.9064144, "lon": -43.1829051, "tags": {"amenity": "pub", "name": "Nova Tiradentes", "source": "survey"}}, {"type": "node", "id": 634171352, "lat": -22.9023137, "lon": -43.1754979, "tags": {"addr:housenumber": "43", "addr:street": "Rua do Ouvidor", "amenity": "pub", "cuisine": "brazilian", "email": "contato@restauranteantigamente.com.br", "internet_access": "wlan", "name": "Bar Antigamente", "opening_hours": "Mo 11:30-22:00; Tu-Fr 11:30-23:30; Sa 11:30-18:00", "phone": "+55 21 2507-5040", "source": "survey", "website": "https://www.restauranteantigamente.com.br/"}}, {"type": "node", "id": 634187559, "lat": -22.9254882, "lon": -43.2327678, "tags": {"amenity": "pub"}}, {"type": "node", "id": 634187607, "lat": -22.9219407, "lon": -43.2371666, "tags": {"amenity": "pub", "name": "Snooker Bar"}}, {"type": "node", "id": 634187611, "lat": -22.9225237, "lon": -43.2373597, "tags": {"amenity": "pub", "name": "Varand'ella"}}, {"type": "node", "id": 634187633, "lat": -22.9169717, "lon": -43.2416013, "tags": {"amenity": "pub"}}, {"type": "node", "id": 634912487, "lat": -22.9159265, "lon": -43.2457171, "tags": {"amenity": "pub"}}, {"type": "node", "id": 635795445, "lat": -22.9113825, "lon": -43.1749363, "tags": {"amenity": "pub"}}, {"type": "node", "id": 635795450, "lat": -22.9112553, "lon": -43.1747312, "tags": {"amenity": "pub", "name": "Lanches \u00c9den"}}, {"type": "node", "id": 678555501, "lat": -22.9147409, "lon": -43.1781229, "tags": {"amenity": "pub", "name": "Caf\u00e9 e Bar Borgado", "source": "survey"}}, {"type": "node", "id": 684475913, "lat": -22.956537, "lon": -43.1759866, "tags": {"amenity": "pub", "name": "Rei dos Sucos", "source": "survey"}}, {"type": "node", "id": 704889605, "lat": -22.9250702, "lon": -43.1783218, "tags": {"addr:city": "Rio de Janeiro", "addr:country": "BR", "addr:housenumber": "42B", "addr:postcode": "22220-010", "addr:street": "Rua Andrade Pertence", "amenity": "pub", "name": "Escondidinho do Catete", "source": "survey"}}, {"type": "node", "id": 704889616, "lat": -22.9253963, "lon": -43.1784827, "tags": {"addr:city": "Rio de Janeiro", "addr:country": "BR", "addr:housenumber": "14A", "addr:postcode": "22220-020", "addr:street": "Travessa Carlos de S\u00e1", "amenity": "pub", "name": "Cant\u00e3o do Catete", "source": "survey"}}, {"type": "node", "id": 704889644, "lat": -22.9248677, "lon": -43.1772382, "tags": {"amenity": "pub"}}, {"type": "node", "id": 704889650, "lat": -22.9246739, "lon": -43.1769665, "tags": {"addr:city": "Rio de Janeiro", "addr:country": "BR", "addr:housenumber": "112", "addr:postcode": "22220-000", "addr:street": "Rua do Catete", "amenity": "pub", "name": "Butec\u00e3o", "source": "survey"}}, {"type": "node", "id": 704970834, "lat": -22.9256789, "lon": -43.1767813, "tags": {"addr:city": "Rio de Janeiro", "addr:country": "BR", "amenity": "pub", "name": "Bar Get\u00falio", "source": "survey"}}, {"type": "node", "id": 704992219, "lat": -22.9284543, "lon": -43.1743759, "tags": {"addr:city": "Rio de Janeiro", "addr:country": "BR", "addr:housenumber": "9B", "addr:postcode": "22210-050", "addr:street": "Rua Corr\u00eaa Dutra", "amenity": "pub", "name": "Caf\u00e9 e Bar Caim\u00e3", "shop": "alcohol", "source": "survey"}}, {"type": "node", "id": 725873016, "lat": -22.9332324, "lon": -43.1767313, "tags": {"amenity": "pub", "name": "Planalto do Chopp", "source": "survey", "website": "https://planaltodochopp.com.br/"}}, {"type": "node", "id": 727630045, "lat": -22.9130412, "lon": -43.181339, "tags": {"addr:city": "Rio de Janeiro", "addr:housenumber": "72B", "addr:postcode": "20202-020", "addr:street": "Avenida Mem de S\u00e1", "addr:suburb": "Lapa", "amenity": "pub", "name": "Arco \u00cdris da Lapa", "phone": "+55 21 2253-8908"}}, {"type": "node", "id": 727632331, "lat": -22.9566219, "lon": -43.1981278, "tags": {"amenity": "pub"}}, {"type": "node", "id": 766016594, "lat": -22.9058252, "lon": -43.1797714, "tags": {"amenity": "pub", "source": "survey"}}, {"type": "node", "id": 771839344, "lat": -22.9843969, "lon": -43.1983547}, {"type": "node", "id": 804611275, "lat": -22.954836, "lon": -43.1969023, "tags": {"amenity": "pub", "name": "Esp\u00edrito do Chopp"}}, {"type": "node", "id": 804611276, "lat": -22.9548064, "lon": -43.1967521, "tags": {"amenity": "pub", "name": "Galeto do Humait\u00e1"}}, {"type": "node", "id": 810362115, "lat": -22.9308973, "lon": -43.1748932, "tags": {"amenity": "pub", "name": "Sinhazinha"}}, {"type": "node", "id": 814311550, "lat": -22.94183, "lon": -43.1808261}, {"type": "node", "id": 814311592, "lat": -22.9419506, "lon": -43.181112, "tags": {"amenity": "pub", "name": "Itaipava"}}, {"type": "node", "id": 814311596, "lat": -22.9418024, "lon": -43.181348, "tags": {"amenity": "pub", "name": "Op\u00e7\u00e3o Farani"}}, {"type": "node", "id": 816080365, "lat": -22.9113664, "lon": -43.1758619, "tags": {"addr:city": "Rio de Janeiro", "addr:country": "BR", "addr:housenumber": "7D", "addr:street": "Pra\u00e7a Floriano Peixoto", "amenity": "pub", "name": "Chopperia Cinel\u00e2ndia"}}, {"type": "node", "id": 816173050, "lat": -22.9168348, "lon": -43.2351828, "tags": {"addr:city": "Rio de Janeiro", "addr:country": "BR", "addr:housenumber": "130", "addr:postcode": "20511-010", "addr:street": "Rua Felipe Camar\u00e3o", "amenity": "pub", "fee": "yes", "name": "Calabou\u00e7o Heavy & Rock Bar"}}, {"type": "node", "id": 816173174, "lat": -22.9189922, "lon": -43.2355377, "tags": {"amenity": "pub", "name": "Moais Snooker Bar"}}, {"type": "node", "id": 816173230, "lat": -22.91917, "lon": -43.2352802, "tags": {"amenity": "pub", "name": "Mr. Davis"}}, {"type": "node", "id": 842284001, "lat": -22.9667386, "lon": -43.1783132, "tags": {"addr:city": "Rio de Janeiro", "addr:country": "BR", "addr:housenumber": "16A", "addr:street": "Rua Rodolfo Dantas", "amenity": "pub", "name": "Mud Bug", "note": "with wifi", "phone": "+55-21-25435052", "start_date": "2003", "website": "http://www.mudbug.com.br/"}}, {"type": "node", "id": 860316052, "lat": -22.9140256, "lon": -43.1826779, "tags": {"amenity": "pub", "name": "Bar do Gomes"}}, {"type": "node", "id": 876647290, "lat": -22.9511095, "lon": -43.184656, "tags": {"addr:city": "Rio de Janeiro", "addr:country": "BR", "addr:housenumber": "100 Loja 127", "addr:street": "Rua Nelson Mandela", "amenity": "pub", "name": "Boteco Colarinho", "website": "https://twitter.com/botecocolarinho"}}, {"type": "node", "id": 880665468, "lat": -22.9507091, "lon": -43.167592, "tags": {"amenity": "pub"}}, {"type": "node", "id": 892159572, "lat": -22.9672859, "lon": -43.1832906, "tags": {"amenity": "pub", "name": "Real Chopp"}}, {"type": "node", "id": 892159598, "lat": -22.9677897, "lon": -43.183355, "tags": {"addr:city": "Rio de Janeiro", "addr:country": "BR", "addr:housenumber": "55", "addr:street": "Rua Paula Freitas", "amenity": "pub", "name": "Mud Bug", "phone": "+55-21-22356847", "website": "http://www.mudbug.com.br/", "wheelchair": "no"}}, {"type": "node", "id": 892159678, "lat": -22.967355, "lon": -43.1821641, "tags": {"amenity": "pub", "name": "Botequim Informal"}}, {"type": "node", "id": 892159749, "lat": -22.9697851, "lon": -43.1839022, "tags": {"amenity": "pub", "name": "Boteco Cevada"}}, {"type": "node", "id": 892159785, "lat": -22.9693998, "lon": -43.1833121, "tags": {"amenity": "pub", "name": "Corujinha"}}, {"type": "node", "id": 892159801, "lat": -22.9692124, "lon": -43.1833887, "tags": {"amenity": "pub", "name": "Pousada"}}, {"type": "node", "id": 892159840, "lat": -22.9675625, "lon": -43.1847068, "tags": {"amenity": "pub", "name": "Pav\u00e3o Azul"}}, {"type": "node", "id": 914639094, "lat": -22.9211001, "lon": -43.186892, "tags": {"amenity": "pub", "name": "Bar do Mineiro", "wheelchair": "limited"}}, {"type": "node", "id": 914639109, "lat": -22.9211034, "lon": -43.1849863, "tags": {"amenity": "pub", "name": "Bar do Arnaudo"}}, {"type": "node", "id": 914652849, "lat": -22.9483387, "lon": -43.1857648, "tags": {"amenity": "pub"}}, {"type": "node", "id": 914652862, "lat": -22.9491509, "lon": -43.1859011, "tags": {"amenity": "pub", "name": "Bar do Italiano"}}, {"type": "node", "id": 916278205, "lat": -22.8760877, "lon": -43.3385785, "tags": {"amenity": "pub", "layer": "1", "name": "Brahma"}}, {"type": "node", "id": 939170976, "lat": -22.9356766, "lon": -43.1808561, "tags": {"addr:city": "Rio de Janeiro", "addr:country": "BR", "addr:housenumber": "117", "addr:street": "Rua Ipiranga", "amenity": "pub", "name": "Bar Ipiranga", "phone": "+55-21-22255271"}}, {"type": "node", "id": 939171013, "lat": -22.9340297, "lon": -43.1826236, "tags": {"amenity": "pub", "name": "Severyna", "wheelchair": "no"}}, {"type": "node", "id": 946673765, "lat": -22.9287336, "lon": -43.1766412, "tags": {"amenity": "pub", "name": "Marc\u00e3o"}}, {"type": "node", "id": 946673792, "lat": -22.9292672, "lon": -43.1750963, "tags": {"addr:city": "Rio de Janeiro", "addr:street": "Rua Buarque de Macedo", "addr:suburb": "Catete", "amenity": "pub", "name": "Guanabara"}}, {"type": "node", "id": 973566292, "lat": -22.9471043, "lon": -43.1946477, "tags": {"amenity": "pub", "name": "Bar do Assis"}}, {"type": "node", "id": 1012821116, "lat": -22.9033839, "lon": -43.1817671, "tags": {"addr:city": "Rio de Janeiro", "addr:country": "BR", "addr:housenumber": "42", "addr:street": "Rua Senhor dos Passos", "amenity": "pub"}}, {"type": "node", "id": 1070939021, "lat": -22.9199287, "lon": -43.2572404, "tags": {"amenity": "pub", "source": "Bing"}}, {"type": "node", "id": 1070939153, "lat": -22.9215347, "lon": -43.2573421, "tags": {"amenity": "pub", "name": "Gato Preto", "wifi": "no"}}, {"type": "node", "id": 1108276059, "lat": -22.9800419, "lon": -43.1891164, "tags": {"amenity": "pub", "name": "Boteco da Orla", "source": "Bing"}}, {"type": "node", "id": 1108276124, "lat": -22.9794351, "lon": -43.188971, "tags": {"amenity": "pub", "name": "Quiosque Chopp Brahma", "source": "Bing"}}, {"type": "node", "id": 1145825489, "lat": -22.8984519, "lon": -43.3524271, "tags": {"amenity": "pub", "name": "Cantinho da Pra\u00e7a"}}, {"type": "node", "id": 1185559958, "lat": -22.944788, "lon": -43.1843161}, {"type": "node", "id": 1198837519, "lat": -22.9138369, "lon": -43.1799709, "tags": {"amenity": "pub", "name": "Bar da Ladeira"}}, {"type": "node", "id": 1198837520, "lat": -22.9137054, "lon": -43.1799253, "tags": {"amenity": "pub", "name": "Lapa Irish Pub"}}, {"type": "node", "id": 1198840531, "lat": -22.9139652, "lon": -43.1801295}, {"type": "node", "id": 1198840534, "lat": -22.9141826, "lon": -43.1799535}, {"type": "node", "id": 1198842689, "lat": -22.9143011, "lon": -43.179193, "tags": {"amenity": "pub", "name": "Bar dos Rob"}}, {"type": "node", "id": 1198845079, "lat": -22.9138023, "lon": -43.1792952, "tags": {"amenity": "pub", "name": "Asa Branca"}}, {"type": "node", "id": 1198850364, "lat": -22.9134511, "lon": -43.1805463}, {"type": "node", "id": 1198865718, "lat": -22.91357, "lon": -43.1811996, "tags": {"amenity": "pub", "name": "Rio Rock & Blues"}}, {"type": "node", "id": 1198865723, "lat": -22.9136642, "lon": -43.1813659, "tags": {"amenity": "pub", "name": "Boteco do Gerson"}}, {"type": "node", "id": 1242183509, "lat": -22.935743, "lon": -43.1773123, "tags": {"addr:city": "Rio de Janeiro", "addr:housenumber": "66", "addr:street": "Rua Marqu\u00eas de Abrantes", "addr:suburb": "Flamengo", "amenity": "pub", "name": "Armaz\u00e9m do Chopp"}}, {"type": "node", "id": 1242183517, "lat": -22.9356539, "lon": -43.1772882, "tags": {"amenity": "pub", "name": "Bar do Osmar"}}, {"type": "node", "id": 1307380763, "lat": -22.9840223, "lon": -43.1892431, "tags": {"amenity": "pub", "name": "Botequim Carioca"}}, {"type": "node", "id": 1325763986, "lat": -22.9132826, "lon": -43.1818281, "tags": {"addr:city": "Rio de Janeiro", "addr:street": "Avenida Mem de S\u00e1", "addr:suburb": "Lapa", "amenity": "pub", "name": "Boteco da Garrafa"}}, {"type": "node", "id": 1325763988, "lat": -22.9135697, "lon": -43.1807565}, {"type": "node", "id": 1325763991, "lat": -22.9130306, "lon": -43.1816404, "tags": {"addr:housenumber": "82", "addr:street": "Avenida Mem de S\u00e1", "amenity": "pub", "name": "Belmonte"}}, {"type": "node", "id": 1325763998, "lat": -22.913332, "lon": -43.1814902, "tags": {"addr:city": "Rio de Janeiro", "addr:housenumber": "69", "addr:postcode": "20230-150", "addr:street": "Avenida Mem de S\u00e1", "addr:suburb": "Lapa", "amenity": "pub", "name": "Bar da Lapa"}}, {"type": "node", "id": 1325775303, "lat": -22.9144339, "lon": -43.1894833, "tags": {"amenity": "pub", "name": "Bar Flor do Recreio"}}, {"type": "node", "id": 1325775304, "lat": -22.9146966, "lon": -43.1893478, "tags": {"amenity": "pub", "name": "Bar Elman (Gabiru)"}}, {"type": "node", "id": 1342811591, "lat": -22.9507538, "lon": -43.1830882, "tags": {"addr:city": "Rio de Janeiro", "addr:housenumber": "36", "addr:street": "Rua Volunt\u00e1rios da P\u00e1tria", "addr:suburb": "Botafogo", "amenity": "pub", "name": "\u00c1guia de Ouro"}}, {"type": "node", "id": 1369518865, "lat": -22.958552, "lon": -43.194599, "tags": {"addr:housenumber": "79", "addr:street": "Rua Pinheiro Guimar\u00e3es", "amenity": "pub", "description": "Live rock'n'roll.", "name": "Saloon 79", "phone": "02132390735", "website": "http://www.saloon79.com.br"}}, {"type": "node", "id": 1393190203, "lat": -22.9313518, "lon": -43.2454223, "tags": {"amenity": "pub", "name": "Cotidiano"}}, {"type": "node", "id": 1443188286, "lat": -22.9028962, "lon": -43.1793438, "tags": {"amenity": "pub", "name": "Barril 80"}}, {"type": "node", "id": 1446751789, "lat": -22.9293802, "lon": -43.2430086, "tags": {"amenity": "pub", "name": "Passe Fique"}}, {"type": "node", "id": 1446751794, "lat": -22.929148, "lon": -43.2434968, "tags": {"amenity": "pub", "name": "Cotrim"}}, {"type": "node", "id": 1463253224, "lat": -22.925833, "lon": -43.2448159, "tags": {"amenity": "pub", "name": "Boteco 8"}}, {"type": "node", "id": 1545832270, "lat": -22.902439, "lon": -43.1772564, "tags": {"amenity": "pub", "name": "Devassa", "website": "https://cervejariadevassa.com.br/"}}, {"type": "node", "id": 1564553595, "lat": -22.9350912, "lon": -43.1744615, "tags": {"addr:housenumber": "300", "addr:postcode": "22210-065", "addr:street": "Praia do Flamengo", "amenity": "pub", "name": "Bar Belmonte", "toilets:wheelchair": "no", "website": "http://www.botecobelmonte.com.br/", "wheelchair": "no"}}, {"type": "node", "id": 1611050905, "lat": -22.8247627, "lon": -43.3089743, "tags": {"addr:housenumber": "565", "addr:street": "Rua Capit\u00e3o Cruz", "amenity": "pub", "name": "Amendoeira", "source": "survey"}}, {"type": "node", "id": 1611096015, "lat": -22.8264537, "lon": -43.3153956, "tags": {"addr:housenumber": "1208", "addr:street": "Estrada da \u00c1gua Grande", "amenity": "pub", "name": "Bar dos Amigos"}}, {"type": "node", "id": 1611114984, "lat": -22.8281574, "lon": -43.3197019, "tags": {"amenity": "pub", "name": "Russo"}}, {"type": "node", "id": 1611115035, "lat": -22.8268295, "lon": -43.3165168, "tags": {"amenity": "pub"}}, {"type": "node", "id": 1611115064, "lat": -22.8274559, "lon": -43.3173319, "tags": {"addr:housenumber": "1034", "addr:street": "Estrada da \u00c1gua Grande", "amenity": "pub", "name": "1020"}}, {"type": "node", "id": 1619533291, "lat": -22.9021012, "lon": -43.1751267, "tags": {"amenity": "pub", "name": "Botequim Casual"}}, {"type": "node", "id": 1619533293, "lat": -22.9020184, "lon": -43.1749958, "tags": {"addr:housenumber": "23", "addr:street": "Rua do Ouvidor", "amenity": "pub", "name": "Samba Rio", "note": "Antigo Lanch\u00e3o"}}, {"type": "node", "id": 1619533296, "lat": -22.9020579, "lon": -43.1750709, "tags": {"amenity": "pub", "name": "Atrevido"}}, {"type": "node", "id": 1622794726, "lat": -22.9243013, "lon": -43.1786844, "tags": {"amenity": "pub", "name": "Bar dos Amigos", "phone": "+55-21-82461330"}}, {"type": "node", "id": 1622794979, "lat": -22.924346, "lon": -43.1787669, "tags": {"amenity": "pub", "name": "Uay Tch\u00ea"}}, {"type": "node", "id": 1694820651, "lat": -22.9539568, "lon": -43.1972993, "tags": {"amenity": "pub", "name": "Palhinha"}}, {"type": "node", "id": 1738679817, "lat": -22.979849, "lon": -43.1905062, "tags": {"amenity": "pub", "name": "Bip Bip"}}, {"type": "node", "id": 1756887790, "lat": -22.7898961, "lon": -43.2865939, "tags": {"addr:housenumber": "2154", "addr:street": "Rod. Washington Luiz", "amenity": "pub", "name": "Rei do Bacalhau", "website": "https://www.reidobacalhaurp.com.br/"}}, {"type": "node", "id": 1786392110, "lat": -22.9653937, "lon": -43.2259749, "tags": {"addr:housenumber": "724D", "addr:street": "Rua Pacheco Le\u00e3o", "amenity": "pub", "name": "Paxeco Bar", "phone": "+55-21-31148710", "website": "http://www.paxecobar.com.br/"}}, {"type": "node", "id": 1790025843, "lat": -22.8275169, "lon": -43.306348, "tags": {"amenity": "pub", "name": "Canarinho de Cordovil"}}, {"type": "node", "id": 1878603353, "lat": -22.9005073, "lon": -43.2047733, "tags": {"amenity": "pub", "name": "Pedro Alves"}}, {"type": "node", "id": 1900553818, "lat": -22.9084157, "lon": -43.1837141, "tags": {"amenity": "pub", "name": "Mangue Seco"}}, {"type": "node", "id": 1910053379, "lat": -22.8287351, "lon": -43.3170661, "tags": {"addr:housenumber": "221", "addr:street": "Rua Santa Luz", "amenity": "pub"}}, {"type": "node", "id": 1910053412, "lat": -22.8306795, "lon": -43.3168051, "tags": {"amenity": "pub", "name": "Muvuca"}}, {"type": "node", "id": 1910053418, "lat": -22.8287054, "lon": -43.3168139, "tags": {"addr:housenumber": "301", "addr:street": "Rua Santa Luz", "amenity": "pub"}}, {"type": "node", "id": 1910053422, "lat": -22.8307092, "lon": -43.3169875, "tags": {"amenity": "pub", "name": "Point Se N\u00e3o Aguenta Por Que Veio"}}, {"type": "node", "id": 1920653763, "lat": -22.9024237, "lon": -43.1349719, "tags": {"amenity": "pub", "name": "Espa\u00e7o Conv\u00e9s"}}, {"type": "node", "id": 1947508106, "lat": -22.8987827, "lon": -43.1305077}, {"type": "node", "id": 1947508109, "lat": -22.8988409, "lon": -43.1305274}, {"type": "node", "id": 1947508111, "lat": -22.8988681, "lon": -43.1301666}, {"type": "node", "id": 1947508112, "lat": -22.8989301, "lon": -43.1301849}, {"type": "node", "id": 1947508126, "lat": -22.8997518, "lon": -43.1302493}, {"type": "node", "id": 1947508127, "lat": -22.8998113, "lon": -43.1302821}, {"type": "node", "id": 1947508129, "lat": -22.899825, "lon": -43.1300925}, {"type": "node", "id": 1947508131, "lat": -22.8998844, "lon": -43.1301292}, {"type": "node", "id": 1951913662, "lat": -22.8231918, "lon": -43.3062627, "tags": {"amenity": "pub"}}, {"type": "node", "id": 1951913663, "lat": -22.824319, "lon": -43.3080677, "tags": {"amenity": "pub", "name": "Recanto da Tia"}}, {"type": "node", "id": 1951913667, "lat": -22.8235672, "lon": -43.3065013, "tags": {"amenity": "pub", "name": "Cantinho da Zo"}}, {"type": "node", "id": 1963006886, "lat": -22.9492808, "lon": -43.1850143, "tags": {"amenity": "pub", "name": "Dino", "phone": "+55 2125790594"}}, {"type": "node", "id": 1963047338, "lat": -22.9499065, "lon": -43.1849566, "tags": {"addr:city": "Rio de Janeiro", "addr:country": "BR", "addr:housenumber": "100 Loja 105", "addr:street": "Rua Nelson Mandela", "amenity": "pub", "name": "Cafofo Pub", "source": "survey"}}, {"type": "node", "id": 1963047339, "lat": -22.949704, "lon": -43.1849888, "tags": {"addr:city": "Rio de Janeiro", "addr:country": "BR", "addr:housenumber": "100 Loja 103", "addr:street": "Rua Nelson Mandela", "amenity": "pub", "name": "Harad", "wheelchair": "limited"}}, {"type": "node", "id": 1972375750, "lat": -22.9503192, "lon": -43.1918401}, {"type": "node", "id": 1972470555, "lat": -22.9632858, "lon": -43.2167653, "tags": {"amenity": "pub", "name": "J\u00f3ia"}}, {"type": "node", "id": 1990750749, "lat": -22.8256969, "lon": -43.3094641, "tags": {"addr:housenumber": "650", "addr:street": "Rua Rio Apa", "amenity": "pub", "source": "survey"}}, {"type": "node", "id": 2000100497, "lat": -22.9552875, "lon": -43.1890411, "tags": {"amenity": "pub", "name": "Alfa"}}, {"type": "node", "id": 2000100513, "lat": -22.954265, "lon": -43.1867341, "tags": {"amenity": "pub", "name": "Boteco Cabidinho"}}, {"type": "node", "id": 2003511571, "lat": -22.9127824, "lon": -43.2363708, "tags": {"amenity": "pub", "name": "Loreninha"}}, {"type": "node", "id": 2003511588, "lat": -22.9130471, "lon": -43.2360291, "tags": {"amenity": "pub", "name": "Rio 40 Graus"}}, {"type": "node", "id": 2003522860, "lat": -22.9157767, "lon": -43.2309581, "tags": {"amenity": "pub"}}, {"type": "node", "id": 2003531278, "lat": -22.9179854, "lon": -43.2378085, "tags": {"amenity": "pub", "name": "Bar do Ad\u00e3o"}}, {"type": "node", "id": 2010056522, "lat": -22.8266866, "lon": -43.3109434, "tags": {"addr:housenumber": "901", "addr:street": "Rua Comandante Coelho", "amenity": "pub", "source": "survey"}}, {"type": "node", "id": 2010074642, "lat": -22.8266421, "lon": -43.3115444, "tags": {"amenity": "pub"}}, {"type": "node", "id": 2010116056, "lat": -22.8280151, "lon": -43.3239775, "tags": {"amenity": "pub", "name": "Bar do Edu"}}, {"type": "node", "id": 2014152147, "lat": -22.9527708, "lon": -43.1872483, "tags": {"amenity": "pub", "name": "Adega da Velha", "source": "survey"}}, {"type": "node", "id": 2014515868, "lat": -22.9661578, "lon": -43.2297965, "tags": {"amenity": "pub", "name": "Bar dos Amigos", "source": "survey"}}, {"type": "node", "id": 2014580268, "lat": -22.9725174, "lon": -43.224805, "tags": {"amenity": "pub", "name": "Bada", "source": "survey"}}, {"type": "node", "id": 2015314139, "lat": -22.9949494, "lon": -43.2355618, "tags": {"amenity": "pub", "name": "Bar do Adilson"}}, {"type": "node", "id": 2015314161, "lat": -22.9948656, "lon": -43.2356475, "tags": {"amenity": "pub"}}, {"type": "node", "id": 2015314181, "lat": -22.9947025, "lon": -43.2354598, "tags": {"amenity": "pub"}}, {"type": "node", "id": 2015314223, "lat": -22.9952457, "lon": -43.2355671, "tags": {"amenity": "pub"}}, {"type": "node", "id": 2015314269, "lat": -22.992446, "lon": -43.2361623, "tags": {"amenity": "pub", "name": "Bar do Carl\u00e3o"}}, {"type": "node", "id": 2015314285, "lat": -22.9936065, "lon": -43.2374675, "tags": {"amenity": "pub", "name": "Bardo Jesus;Recanto do Vidigal", "shop": "hairdresser"}}, {"type": "node", "id": 2015488627, "lat": -22.9238906, "lon": -43.1757318, "tags": {"amenity": "pub", "name": "Bar do Z\u00e9", "source": "survey"}}, {"type": "node", "id": 2021881592, "lat": -22.8254173, "lon": -43.3117018, "tags": {"amenity": "pub", "name": "Bar Varanda", "source": "survey"}}, {"type": "node", "id": 2021881735, "lat": -22.8444558, "lon": -43.3125383, "tags": {"amenity": "pub", "name": "Bar do Gil", "source": "survey"}}, {"type": "node", "id": 2038908497, "lat": -22.9547541, "lon": -43.1925498, "tags": {"addr:housenumber": "167", "addr:street": "Rua Real Grandeza", "amenity": "pub", "name": "Botequim Para\u00edzo", "source": "survey"}}, {"type": "node", "id": 2038908501, "lat": -22.9545681, "lon": -43.1930577, "tags": {"amenity": "pub", "name": "Itu Chopperia", "source": "survey"}}, {"type": "node", "id": 2038908506, "lat": -22.9543927, "lon": -43.1923907, "tags": {"amenity": "pub", "name": "Trilha da Cacha\u00e7a", "source": "survey"}}, {"type": "node", "id": 2039081841, "lat": -22.9527907, "lon": -43.187613, "tags": {"amenity": "pub", "name": "Panoramico", "source": "survey"}}, {"type": "node", "id": 2039278919, "lat": -22.9542317, "lon": -43.196485, "tags": {"amenity": "pub", "name": "Pianense", "wifi": "no"}}, {"type": "node", "id": 2039901976, "lat": -22.9149393, "lon": -43.2330609, "tags": {"amenity": "pub", "name": "Cl\u00e1ssicos do Maraca", "source": "survey"}}, {"type": "node", "id": 2058260044, "lat": -22.9641747, "lon": -43.2171286, "tags": {"addr:city": "Rio de Janeiro", "amenity": "pub", "brand": "Belmonte", "cuisine": "brazilian", "name": "Belmonte", "phone": "+55 (21) 2239-1649", "website": "http://www.botecobelmonte.com.br/"}}, {"type": "node", "id": 2081744456, "lat": -22.9046305, "lon": -43.2990905, "tags": {"amenity": "pub", "name": "Chopp Zero Grau", "source": "survey"}}, {"type": "node", "id": 2082578914, "lat": -22.9024794, "lon": -43.2861217, "tags": {"amenity": "pub", "name": "Dominos Pizza", "source": "survey"}}, {"type": "node", "id": 2084558756, "lat": -22.825434, "lon": -43.3083103, "tags": {"addr:street": "Rua Comandante Coelho", "amenity": "pub", "name": "Bar dos Guerreiros", "source": "survey"}}, {"type": "node", "id": 2084558860, "lat": -22.8261091, "lon": -43.3104111, "tags": {"addr:housenumber": "816", "addr:street": "Rua Comandante Coelho", "amenity": "pub", "source": "survey"}}, {"type": "node", "id": 2084596612, "lat": -22.8254782, "lon": -43.3123318, "tags": {"amenity": "pub", "name": "Berchmans", "source": "survey"}}, {"type": "node", "id": 2087925613, "lat": -22.8441202, "lon": -43.3092188, "tags": {"amenity": "pub", "name": "Cuica's Bar", "source": "survey"}}, {"type": "node", "id": 2087925666, "lat": -22.8409723, "lon": -43.3055165, "tags": {"amenity": "pub", "name": "Olibel", "source": "survey"}}, {"type": "node", "id": 2091588175, "lat": -22.8248637, "lon": -43.3035152, "tags": {"amenity": "pub", "name": "Monteiro Expresso", "source": "survey"}}, {"type": "node", "id": 2096963748, "lat": -22.8698486, "lon": -43.3398641, "tags": {"amenity": "pub", "name": "Samba de Raiz", "source": "survey"}}, {"type": "node", "id": 2102151641, "lat": -22.9606809, "lon": -43.20664, "tags": {"amenity": "pub", "source": "survey"}}, {"type": "node", "id": 2112074036, "lat": -22.8426325, "lon": -43.3252384, "tags": {"amenity": "pub", "name": "Oficina do Vinho", "source": "survey"}}, {"type": "node", "id": 2161827852, "lat": -22.9007397, "lon": -43.2796873, "tags": {"amenity": "pub", "name": "Botequim do Z\u00e9", "source": "survey"}}, {"type": "node", "id": 2161828039, "lat": -22.9012844, "lon": -43.279823, "tags": {"amenity": "pub", "name": "Sardinha", "source": "survey"}}, {"type": "node", "id": 2161828086, "lat": -22.901046, "lon": -43.2800495, "tags": {"amenity": "pub", "name": "Olimp\u00edadas do Chopp", "source": "survey"}}, {"type": "node", "id": 2163857707, "lat": -22.9010584, "lon": -43.2794112, "tags": {"addr:housenumber": "7", "addr:street": "Rua Tenente Cerqueira Leite", "amenity": "pub", "name": "Reza Forte", "source": "survey"}}, {"type": "node", "id": 2163857709, "lat": -22.9011466, "lon": -43.2795455, "tags": {"amenity": "pub", "name": "Varjota", "source": "survey"}}, {"type": "node", "id": 2163857710, "lat": -22.9011994, "lon": -43.2796694, "tags": {"amenity": "pub", "name": "H\u00e1 Controv\u00e9rsia?", "source": "survey"}}, {"type": "node", "id": 2163857712, "lat": -22.9012159, "lon": -43.2797494, "tags": {"amenity": "pub", "name": "Pimenta Rosa", "source": "survey"}}, {"type": "node", "id": 2169948993, "lat": -22.9641514, "lon": -43.1786262, "tags": {"addr:housenumber": "96", "addr:street": "Rua Duvivier", "amenity": "pub", "name": "Duvivier"}}, {"type": "node", "id": 2170087238, "lat": -22.9634662, "lon": -43.1775398, "tags": {"addr:housenumber": "292", "addr:street": "Rua Ronald de Carvalho", "amenity": "pub", "name": "Melade"}}, {"type": "node", "id": 2170087291, "lat": -22.9635378, "lon": -43.1775084, "tags": {"addr:housenumber": "292", "addr:street": "Rua Ronald de Carvalho", "amenity": "pub", "name": "Sereia de Copacabana"}}, {"type": "node", "id": 2174335652, "lat": -22.9042139, "lon": -43.2871793, "tags": {"amenity": "pub", "name": "Cometa Express"}}, {"type": "node", "id": 2182117357, "lat": -22.8378323, "lon": -43.3248349, "tags": {"amenity": "pub", "source": "survey"}}, {"type": "node", "id": 2182536334, "lat": -22.9829283, "lon": -43.2068927, "tags": {"amenity": "pub", "name": "Itahy", "phone": "+55-21-22473356", "phone:2": "+55-21-36845093", "source": "survey"}}, {"type": "node", "id": 2182536362, "lat": -22.976561, "lon": -43.1912734, "tags": {"amenity": "pub", "name": "Tipicamente", "source": "survey"}}, {"type": "node", "id": 2184276225, "lat": -22.9816464, "lon": -43.1901139, "tags": {"amenity": "pub", "name": "Garota de Copacabana", "source": "survey"}}, {"type": "node", "id": 2184276226, "lat": -22.9824702, "lon": -43.190153, "tags": {"amenity": "pub", "name": "Chopperia Atl\u00e2ntica", "source": "survey"}}, {"type": "node", "id": 2184276371, "lat": -22.9825573, "lon": -43.190144, "tags": {"amenity": "pub", "name": "Manoel & Juaquim", "source": "survey"}}, {"type": "node", "id": 2185610371, "lat": -22.8484667, "lon": -43.3231902, "tags": {"amenity": "pub", "name": "Bar da Curvinha", "source": "survey"}}, {"type": "node", "id": 2203247637, "lat": -22.9625939, "lon": -43.1767344, "tags": {"addr:housenumber": "38A", "addr:street": "Rua Barata Ribeiro", "amenity": "pub", "name": "Nosso Cantinho", "phone": "+55-21-22444260", "source": "survey"}}, {"type": "node", "id": 2203304022, "lat": -22.9624411, "lon": -43.1750864, "tags": {"amenity": "pub", "name": "Escol", "source": "survey"}}, {"type": "node", "id": 2209920870, "lat": -22.8385284, "lon": -43.3334612, "tags": {"amenity": "pub", "name": "Bar da Loira", "source": "survey"}}, {"type": "node", "id": 2222974667, "lat": -22.8377164, "lon": -43.3159522, "tags": {"amenity": "pub", "name": "Encontro", "source": "survey"}}, {"type": "node", "id": 2223016056, "lat": -22.8375162, "lon": -43.316929, "tags": {"amenity": "pub", "name": "Tia Helena", "source": "survey"}}, {"type": "node", "id": 2223016062, "lat": -22.8372907, "lon": -43.3169505, "tags": {"amenity": "pub", "name": "Buteco do Gelobol", "source": "survey"}}, {"type": "node", "id": 2259551965, "lat": -22.8915651, "lon": -43.2947936, "tags": {"amenity": "pub", "name": "Churrasquinho do Quinha", "source": "survey"}}, {"type": "node", "id": 2261490722, "lat": -22.8837508, "lon": -43.2478121, "tags": {"amenity": "pub", "name": "A\u00e7ai"}}, {"type": "node", "id": 2262131309, "lat": -22.9094756, "lon": -43.2161509, "tags": {"addr:housenumber": "104", "addr:street": "Rua Cear\u00e1", "amenity": "pub", "name": "Heavy Duty Beer Club", "phone": "+55-21-25678890", "source": "survey", "website": "http://www.heavydutybeerclub.com/"}}, {"type": "node", "id": 2268588520, "lat": -22.9551477, "lon": -43.191902, "tags": {"amenity": "pub", "name": "Salva\u00e7\u00e3o"}}, {"type": "node", "id": 2283434724, "lat": -22.8377381, "lon": -43.3133159, "tags": {"amenity": "pub", "source": "survey"}}, {"type": "node", "id": 2283434742, "lat": -22.8377231, "lon": -43.3135084, "tags": {"amenity": "pub", "source": "survey"}}, {"type": "node", "id": 2283447494, "lat": -22.8375344, "lon": -43.3132596, "tags": {"amenity": "pub", "source": "survey"}}, {"type": "node", "id": 2283447547, "lat": -22.8371871, "lon": -43.3116521, "tags": {"addr:housenumber": "152", "addr:street": "Rua Engenheiro Francelino Mota", "amenity": "pub", "name": "Cantinho do Veigas", "source": "survey"}}, {"type": "node", "id": 2283474503, "lat": -22.8330148, "lon": -43.3093196, "tags": {"amenity": "pub", "source": "survey"}}, {"type": "node", "id": 2283490329, "lat": -22.8297074, "lon": -43.3094257, "tags": {"amenity": "pub", "source": "survey"}}, {"type": "node", "id": 2283490334, "lat": -22.8296384, "lon": -43.3094592, "tags": {"amenity": "pub", "name": "S\u00e3o Jorge", "source": "survey"}}, {"type": "node", "id": 2283490343, "lat": -22.8291662, "lon": -43.3104148, "tags": {"amenity": "pub", "source": "survey"}}, {"type": "node", "id": 2297005518, "lat": -22.8290249, "lon": -43.3072866, "tags": {"amenity": "pub", "name": "D.P.O dos Amigos", "source": "survey"}}, {"type": "node", "id": 2299890774, "lat": -22.839205, "lon": -43.2875366, "tags": {"amenity": "pub", "name": "Boteco do Parque", "source": "survey", "website": "http://boteco-do-parque.webnode.com.br", "wheelchair": "no"}}, {"type": "node", "id": 2307116300, "lat": -22.9578269, "lon": -43.1912519, "tags": {"amenity": "pub", "name": "Real Grandeza", "source": "survey"}}, {"type": "node", "id": 2307116351, "lat": -22.9579233, "lon": -43.1919374, "tags": {"amenity": "pub", "name": "Flora Viva", "source": "survey"}}, {"type": "node", "id": 2318479057, "lat": -22.9664289, "lon": -43.1868506, "tags": {"addr:housenumber": "118", "addr:street": "Rua Siqueira Campos", "amenity": "pub", "name": "Tia Joana", "source": "survey"}}, {"type": "node", "id": 2318491519, "lat": -22.9852383, "lon": -43.202981, "tags": {"addr:city": "Rio de Janeiro", "addr:housenumber": "49", "addr:postcode": "22411-010", "addr:street": "Rua Vin\u00edcius de Moraes", "addr:suburb": "Ipanema", "amenity": "pub", "cuisine": "brazilian;barbecue", "email": "rh@garotadeipanemabrasil.com.br", "name": "Garota de Ipanema", "name:ru": "\u0411\u0430\u0440-\u0440\u0435\u0441\u0442\u043e\u0440\u0430\u043d \u0414\u0435\u0432\u043e\u0447\u043a\u0430 \u0441 \u0418\u043f\u0430\u043d\u0435\u043c\u044b", "opening_hours": "Mo-Fr 11:30-02:00; Sa 11:30-00:00; Su 11:30-01:00", "phone": "+55 21 2522-0340", "website": "http://www.bargarotadeipanema.com/"}}, {"type": "node", "id": 2318491520, "lat": -22.9855464, "lon": -43.2030146, "tags": {"addr:city": "Rio de Janeiro", "addr:housenumber": "39", "addr:postcode": "22411-010", "addr:street": "Rua Vin\u00edcius de Moraes", "addr:suburb": "Ipanema", "amenity": "pub", "name": "Vin\u00edcius Bar", "phone": "+55 21 2287-1497", "smoking": "no", "website": "https://www.viniciusbar.com.br/"}}, {"type": "node", "id": 2322537089, "lat": -22.9574015, "lon": -43.1963202, "tags": {"amenity": "pub", "name": "Encontro dos Amigos", "source": "survey"}}, {"type": "node", "id": 2322551292, "lat": -22.9554714, "lon": -43.1953209, "tags": {"amenity": "pub", "name": "Pr\u00edncipe da Volunt\u00e1rios", "phone": "+55-21-25272515", "source": "survey"}}, {"type": "node", "id": 2322551294, "lat": -22.9568326, "lon": -43.1945385, "tags": {"amenity": "pub", "name": "Belmiro", "source": "survey"}}, {"type": "node", "id": 2322567474, "lat": -22.9554413, "lon": -43.1969165, "tags": {"amenity": "pub", "cuisine": "arab", "name": "Harad", "phone": "+55-21-22862717", "source": "survey"}}, {"type": "node", "id": 2328358848, "lat": -22.9131266, "lon": -43.1808553, "tags": {"addr:housenumber": "64", "addr:street": "Avenida Mem de S\u00e1", "amenity": "pub", "name": "Sarau Rio", "source": "survey"}}, {"type": "node", "id": 2328358926, "lat": -22.9130687, "lon": -43.1812507, "tags": {"addr:city": "Rio de Janeiro", "addr:housenumber": "72A", "addr:street": "Avenida Mem de S\u00e1", "addr:suburb": "Lapa", "amenity": "pub", "name": "Bar do Augusto", "source": "survey"}}, {"type": "node", "id": 2328412161, "lat": -22.9121706, "lon": -43.1823575, "tags": {"addr:housenumber": "170", "addr:street": "Rua do Lavradio", "amenity": "pub", "name": "Barzinho", "source": "survey"}}, {"type": "node", "id": 2328412172, "lat": -22.9120053, "lon": -43.1824056, "tags": {"addr:city": "Rio de Janeiro", "addr:housenumber": "156", "addr:postcode": "20230-070", "addr:street": "Rua do Lavradio", "addr:suburb": "Lapa", "amenity": "pub", "name": "Caf\u00e9 e Bar Rainha Santa Isabel", "source": "survey"}}, {"type": "node", "id": 2333211902, "lat": -22.9084791, "lon": -43.1836735, "tags": {"amenity": "pub", "name": "Quintal Carioca", "source": "survey"}}, {"type": "node", "id": 2372216585, "lat": -22.8521699, "lon": -43.2471765, "tags": {"amenity": "pub", "name": "Bar do Ara\u00fajo", "source": "survey"}}, {"type": "node", "id": 2407927883, "lat": -22.9225755, "lon": -43.1820312, "tags": {"addr:housenumber": "158", "addr:street": "Rua Santo Amaro", "amenity": "pub", "name": "Bar Taverna Santo Amaro", "source": "survey"}}, {"type": "node", "id": 2420826197, "lat": -22.8779806, "lon": -43.4385626, "tags": {"amenity": "pub", "name": "Bar da Tia"}}, {"type": "node", "id": 2439413042, "lat": -22.9061163, "lon": -43.1832243, "tags": {"amenity": "pub", "name": "Bar Imperatriz", "source": "survey"}}, {"type": "node", "id": 2454278384, "lat": -22.8478333, "lon": -43.3244461, "tags": {"amenity": "pub", "name": "Direitos Humano", "note:pt": "\u00c9 \"Direitos Humano\" mesmo, n\u00e3o \"Direitos Humanos\".", "source": "survey"}}, {"type": "node", "id": 2460375967, "lat": -22.8480997, "lon": -43.3237767, "tags": {"amenity": "pub", "name": "Luiz Bar", "source": "survey"}}, {"type": "node", "id": 2460375975, "lat": -22.8481429, "lon": -43.3236985, "tags": {"amenity": "pub", "name": "Bar da Cida", "source": "survey"}}, {"type": "node", "id": 2466746250, "lat": -22.8461176, "lon": -43.3242238, "tags": {"amenity": "pub", "name": "Recreio de Iraj\u00e1", "source": "survey"}}, {"type": "node", "id": 2495565451, "lat": -22.8967469, "lon": -43.1197866, "tags": {"amenity": "pub", "name": "Bar do Miguel"}}, {"type": "node", "id": 2536490844, "lat": -22.939475, "lon": -43.3369805}, {"type": "node", "id": 2536490845, "lat": -22.9394589, "lon": -43.3368786}, {"type": "node", "id": 2536490846, "lat": -22.9392292, "lon": -43.336943}, {"type": "node", "id": 2536490847, "lat": -22.9392502, "lon": -43.3370422}, {"type": "node", "id": 2536683112, "lat": -22.9397081, "lon": -43.3369088}, {"type": "node", "id": 2536683113, "lat": -22.9398279, "lon": -43.3368739}, {"type": "node", "id": 2536683114, "lat": -22.9398032, "lon": -43.3367505}, {"type": "node", "id": 2536683115, "lat": -22.9397118, "lon": -43.3367814}, {"type": "node", "id": 2536683116, "lat": -22.9396995, "lon": -43.3368028}, {"type": "node", "id": 2536683117, "lat": -22.9396933, "lon": -43.3368323}, {"type": "node", "id": 2661168956, "lat": -22.8277412, "lon": -43.3194306, "tags": {"amenity": "pub", "source": "survey"}}, {"type": "node", "id": 2661206220, "lat": -22.8688944, "lon": -43.3419563, "tags": {"amenity": "pub", "name": "Quatro Irm\u00e3os", "source": "survey"}}, {"type": "node", "id": 2670047553, "lat": -22.838466, "lon": -43.3245562, "tags": {"amenity": "pub", "name": "Point Jovem", "source": "survey"}}, {"type": "node", "id": 2815509101, "lat": -22.9109033, "lon": -43.1879593, "tags": {"amenity": "pub", "name": "Bar do Peixe 2"}}, {"type": "node", "id": 2830340238, "lat": -22.9380887, "lon": -43.1885224, "tags": {"amenity": "pub", "name": "Armaz\u00e9m Cardos\u00e3o"}}, {"type": "node", "id": 2857239101, "lat": -22.9846312, "lon": -43.2005777, "tags": {"amenity": "pub", "name": "Bar Popeye"}}, {"type": "node", "id": 2857242501, "lat": -22.9436554, "lon": -43.1857698, "tags": {"amenity": "pub"}}, {"type": "node", "id": 2860840701, "lat": -22.9312135, "lon": -43.1804882, "tags": {"addr:housenumber": "37", "addr:street": "Rua Gago Coutinho", "amenity": "pub", "name": "Gago 37"}}, {"type": "node", "id": 2862594101, "lat": -22.9314033, "lon": -43.1811229, "tags": {"addr:housenumber": "51", "addr:street": "Rua Gago Coutinho", "amenity": "pub", "name": "Baixo Gago", "name:pt": "Baixo Gago, O Rei do Petisco", "website": "https://www.facebook.com/pages/Baixo-Gago-O-Rei-do-Petisco/299922903489922"}}, {"type": "node", "id": 2876042202, "lat": -22.8219481, "lon": -43.3051034, "tags": {"amenity": "pub", "name": "Bar e Lanchonete Serrador"}}, {"type": "node", "id": 2876258803, "lat": -22.802231, "lon": -43.3640861, "tags": {"amenity": "pub"}}, {"type": "node", "id": 2876259101, "lat": -22.8019861, "lon": -43.3631929, "tags": {"amenity": "pub", "name": "Lumear"}}, {"type": "node", "id": 2887249401, "lat": -22.8028019, "lon": -43.3650965, "tags": {"amenity": "pub", "name": "Kiko's Bar"}}, {"type": "node", "id": 2912270601, "lat": -22.8000857, "lon": -43.3601545, "tags": {"amenity": "pub"}}, {"type": "node", "id": 2912270701, "lat": -22.8011677, "lon": -43.3602666, "tags": {"amenity": "pub"}}, {"type": "node", "id": 2912270706, "lat": -22.8014167, "lon": -43.3613369, "tags": {"amenity": "pub"}}, {"type": "node", "id": 2913159249, "lat": -22.7974102, "lon": -43.3551893}, {"type": "node", "id": 2913159250, "lat": -22.7977657, "lon": -43.3555235}, {"type": "node", "id": 2913159251, "lat": -22.7981968, "lon": -43.3549839}, {"type": "node", "id": 2913159252, "lat": -22.7978413, "lon": -43.3546497}, {"type": "node", "id": 2913436801, "lat": -22.8302974, "lon": -43.3193021, "tags": {"amenity": "pub", "name": "Jacques"}}, {"type": "node", "id": 2913437101, "lat": -22.831275, "lon": -43.3194914, "tags": {"amenity": "pub"}}, {"type": "node", "id": 2920276301, "lat": -22.9015677, "lon": -43.281378, "tags": {"amenity": "pub", "name": "Recantos Bar"}}, {"type": "node", "id": 2920276404, "lat": -22.9012863, "lon": -43.2807033, "tags": {"amenity": "pub"}}, {"type": "node", "id": 2920276901, "lat": -22.9008571, "lon": -43.2793561, "tags": {"amenity": "pub", "name": "Espeto M\u00e9ier"}}, {"type": "node", "id": 2921188104, "lat": -22.9009504, "lon": -43.2811667, "tags": {"amenity": "pub", "name": "Fav"}}, {"type": "node", "id": 2933636601, "lat": -22.7995244, "lon": -43.3615727, "tags": {"amenity": "pub", "name": "Bar Bella Braza", "phone": "+55-21-77788547"}}, {"type": "node", "id": 2973399321, "lat": -22.909189, "lon": -43.184614, "tags": {"addr:city": "Rio de Janeiro", "addr:housenumber": "256", "addr:postcode": "20231-013", "addr:street": "Avenida Gomes Freire", "addr:suburb": "Centro", "amenity": "pub", "name": "Armaz\u00e9m Senado", "opening_hours": "Mo-Fr 08:00-20:00;Sa 08:00-16:00", "phone": "+55 21 2509-7201", "start_date": "1907"}}, {"type": "node", "id": 2981981376, "lat": -23.0135959, "lon": -43.3055994, "tags": {"amenity": "pub", "fixme": "completar atributos", "name": "Espetto Carioca"}}, {"type": "node", "id": 2995005737, "lat": -22.9124141, "lon": -43.5605788, "tags": {"amenity": "pub", "name": "Cocomambo"}}, {"type": "node", "id": 2995006336, "lat": -22.9103261, "lon": -43.5615527, "tags": {"amenity": "pub", "name": "Errejota"}}, {"type": "node", "id": 3003540265, "lat": -22.8495229, "lon": -43.2684215, "tags": {"amenity": "pub", "name": "Bar dos Passarinheiros"}}, {"type": "node", "id": 3035804097, "lat": -22.8662243, "lon": -43.2560962, "tags": {"amenity": "pub", "name": "Point de Bonsucesso"}}, {"type": "node", "id": 3035804098, "lat": -22.8664851, "lon": -43.2559876, "tags": {"amenity": "pub"}}, {"type": "node", "id": 3093545049, "lat": -22.8063249, "lon": -43.3647437, "tags": {"amenity": "pub", "name": "Esta\u00e7\u00e3o do Chopp"}}, {"type": "node", "id": 3159865020, "lat": -22.9137132, "lon": -43.2101753, "tags": {"amenity": "pub", "name": "Choperia Bandeira", "source": "survey"}}, {"type": "node", "id": 3195614061, "lat": -22.8404553, "lon": -43.3135669, "tags": {"amenity": "pub", "name": "Resenha Carioca"}}, {"type": "node", "id": 3195614364, "lat": -22.8440915, "lon": -43.3228465, "tags": {"amenity": "pub", "name": "3o Mil\u00eanio"}}, {"type": "node", "id": 3195615661, "lat": -22.8443409, "lon": -43.3230191, "tags": {"amenity": "pub"}}, {"type": "node", "id": 3208364398, "lat": -22.878184, "lon": -43.3373553, "tags": {"amenity": "pub"}}, {"type": "node", "id": 3208365176, "lat": -22.8782903, "lon": -43.3423979, "tags": {"amenity": "pub", "name": "Bar.com"}}, {"type": "node", "id": 3208365177, "lat": -22.8781568, "lon": -43.3425749, "tags": {"amenity": "pub", "name": "Boteco do Baroni"}}, {"type": "node", "id": 3208365179, "lat": -22.8780753, "lon": -43.3427037, "tags": {"amenity": "pub"}}, {"type": "node", "id": 3213290197, "lat": -22.8447555, "lon": -43.3089842, "tags": {"amenity": "pub", "name": "Bar do Helinho"}}, {"type": "node", "id": 3301821797, "lat": -22.9000174, "lon": -43.5629373, "tags": {"amenity": "pub", "name": "Buteco dos Amigos"}}, {"type": "node", "id": 3391965246, "lat": -22.984602, "lon": -43.2029442, "tags": {"addr:city": "Rio de Janeiro", "addr:housenumber": "75", "addr:street": "Rua Vin\u00edcius de Moraes", "addr:suburb": "Ipanema", "amenity": "pub", "name": "Barzin", "opening_hours": "Mo-Th 12:00-02:00;Fr-Su12:00-03:00", "phone": "+55 21 2522-1809", "website": "http://www.barzin.com.br/"}}, {"type": "node", "id": 3402656271, "lat": -22.8991181, "lon": -43.2734603, "tags": {"amenity": "pub"}}, {"type": "node", "id": 3402656273, "lat": -22.8988535, "lon": -43.27357, "tags": {"amenity": "pub"}}, {"type": "node", "id": 3402656292, "lat": -22.8997849, "lon": -43.2756832, "tags": {"amenity": "pub", "name": "Adega do Vinho"}}, {"type": "node", "id": 3626111404, "lat": -22.9830965, "lon": -43.1894182, "tags": {"amenity": "pub", "name": "Botequim Carioca"}}, {"type": "node", "id": 3639549918, "lat": -22.9174035, "lon": -43.2513827, "tags": {"amenity": "pub", "name": "1 Por Todos e Todos Por 1"}}, {"type": "node", "id": 3670529936, "lat": -22.9029434, "lon": -43.1758353, "tags": {"amenity": "pub"}}, {"type": "node", "id": 3727499306, "lat": -22.9158957, "lon": -43.2471699, "tags": {"amenity": "pub"}}, {"type": "node", "id": 3751049225, "lat": -22.975843, "lon": -43.188939, "tags": {"amenity": "pub", "name": "Boteco Belmonte"}}, {"type": "node", "id": 3751067725, "lat": -22.975314, "lon": -43.188468, "tags": {"amenity": "pub", "name": "Botequim Informal"}}, {"type": "node", "id": 3764563783, "lat": -22.9037623, "lon": -43.1775941, "tags": {"addr:city": "Rio de Janeiro", "addr:housenumber": "27", "addr:postcode": "20040-040", "addr:street": "Travessa do Ouvidor", "addr:suburb": "Centro", "amenity": "pub", "name": "Wiskeria Gouveia"}}, {"type": "node", "id": 3798793967, "lat": -22.9105763, "lon": -43.1871883, "tags": {"amenity": "pub", "name": "Ubaldino Bar e Restaurante"}}, {"type": "node", "id": 3826382825, "lat": -22.9298003, "lon": -43.2431359, "tags": {"addr:city": "Rio de Janeiro", "addr:housenumber": "50 - Loja A", "addr:postcode": "20530-500", "addr:street": "Rua General Esp\u00edrito Santo Cardoso", "addr:suburb": "Tijuca", "amenity": "pub", "name": "Bar do Momo", "phone": "+55 (21) 2570-9389"}}, {"type": "node", "id": 3861585417, "lat": -22.8336027, "lon": -43.318598, "tags": {"amenity": "pub", "name": "Barril 8000"}}, {"type": "node", "id": 3867944803, "lat": -23.0016581, "lon": -43.3263336, "tags": {"addr:street": "Avenida das Am\u00e9ricas", "amenity": "pub", "name": "Beco do Alem\u00e3o"}}, {"type": "node", "id": 3870723066, "lat": -22.9831356, "lon": -43.2258622, "tags": {"addr:city": "Rio de Janeiro", "addr:housenumber": "420", "addr:postcode": "22431-050", "addr:street": "Rua Dias Ferreira", "addr:suburb": "Leblon", "amenity": "pub", "brewery": "yes", "contact:facebook": "https://www.facebook.com/Brewteco", "microbrewery": "yes", "name": "Brewteco", "opening_hours": "Mo 09:00-17:00; Tu-Sa 09:00-01:00; Su 15:00-01:00", "outdoor_seating": "yes", "phone": "+55 21 2512-3114", "website": "https://brewteco.com.br/brewteco-leblon/"}}, {"type": "node", "id": 3876708089, "lat": -22.9742545, "lon": -43.2271477, "tags": {"addr:city": "Rio de Janeiro", "addr:housenumber": "126", "addr:postcode": "22470-060", "addr:street": "Pra\u00e7a Santos Dumont", "addr:suburb": "G\u00e1vea", "amenity": "pub", "name": "B.G. Bar", "opening_hours": "Mo-Su 07:00-01:00", "phone": "+55 21 2512-0761", "source": "http://www.timeout.com.br/rio-de-janeiro/na-cidade/venues/811/baixo-gavea", "website": "https://www.facebook.com/BG-Bar-150791775083188/"}}, {"type": "node", "id": 3972583333, "lat": -23.0125463, "lon": -43.4555564}, {"type": "node", "id": 3972583334, "lat": -23.0124167, "lon": -43.4555955}, {"type": "node", "id": 3972583335, "lat": -23.0124773, "lon": -43.4558333}, {"type": "node", "id": 3972583336, "lat": -23.0126068, "lon": -43.4557944}, {"type": "node", "id": 3972588502, "lat": -23.0122995, "lon": -43.455631}, {"type": "node", "id": 3972588503, "lat": -23.0123827, "lon": -43.4559507}, {"type": "node", "id": 3972588504, "lat": -23.0124988, "lon": -43.4559155}, {"type": "node", "id": 3972588506, "lat": -23.0123171, "lon": -43.4556997}, {"type": "node", "id": 3972588507, "lat": -23.012364, "lon": -43.4558757}, {"type": "node", "id": 4004552931, "lat": -22.910968, "lon": -43.1881621, "tags": {"amenity": "pub", "name": "Nosso Bar"}}, {"type": "node", "id": 4011974323, "lat": -23.0184653, "lon": -43.4605388, "tags": {"addr:street": "Rua Carlos Galhardo", "amenity": "pub", "name": "Brook's Pub"}}, {"type": "node", "id": 4011974324, "lat": -23.0186437, "lon": -43.4607585, "tags": {"alt_name": "Bar da Zefa", "amenity": "pub", "name": "Zefa"}}, {"type": "node", "id": 4011974326, "lat": -23.0186987, "lon": -43.460984, "tags": {"amenity": "pub", "level": "0"}}, {"type": "node", "id": 4051989792, "lat": -22.9870338, "lon": -43.2277374, "tags": {"addr:street": "Rua General San Martin", "amenity": "pub", "description": "Tapas bar", "name": "El Gordo"}}, {"type": "node", "id": 4128523777, "lat": -22.806484, "lon": -43.1826492, "tags": {"amenity": "pub"}}, {"type": "node", "id": 4151245042, "lat": -22.9316619, "lon": -43.2012512, "tags": {"amenity": "pub", "name": "Boteco do Jo\u00e3o Mineiro"}}, {"type": "node", "id": 4151344773, "lat": -22.9320948, "lon": -43.2021148, "tags": {"amenity": "pub", "name": "Bar do Marcone"}}, {"type": "node", "id": 4164896090, "lat": -22.9258458, "lon": -43.3570868, "tags": {"addr:street": "Avenida Gerem\u00e1rio Dantas", "amenity": "pub", "name": "Garota do Pechincha"}}, {"type": "node", "id": 4175091289, "lat": -22.9121071, "lon": -43.1832052, "tags": {"amenity": "pub", "name": "Boteco do Pedro"}}, {"type": "node", "id": 4175095300, "lat": -22.9110212, "lon": -43.1853044, "tags": {"amenity": "pub", "name": "Bar e Lanchonete Vit\u00f3ria"}}, {"type": "node", "id": 4175101893, "lat": -22.9116708, "lon": -43.1849615, "tags": {"amenity": "pub", "name": "Boteco PH"}}, {"type": "node", "id": 4192441596, "lat": -22.8356513, "lon": -43.3183238, "tags": {"amenity": "pub"}}, {"type": "node", "id": 4201124990, "lat": -22.9122471, "lon": -43.1831008, "tags": {"addr:housenumber": "625", "addr:street": "Avenida Gomes Freire", "amenity": "pub", "name": "Contempor\u00e2neo Lapa", "phone": "+55 21 2507-1758"}}, {"type": "node", "id": 4231974809, "lat": -22.9500379, "lon": -43.3833307, "tags": {"amenity": "pub", "name": "Bar do Lopes", "smoking": "yes", "wifi": "no"}}, {"type": "node", "id": 4295306164, "lat": -22.9843361, "lon": -43.1984223}, {"type": "node", "id": 4295306172, "lat": -22.9843414, "lon": -43.1983501}, {"type": "node", "id": 4295306453, "lat": -22.9843984, "lon": -43.1983345}, {"type": "node", "id": 4295306608, "lat": -22.9844315, "lon": -43.1983372}, {"type": "node", "id": 4295306634, "lat": -22.9844434, "lon": -43.1984315}, {"type": "node", "id": 4295307028, "lat": -22.9845044, "lon": -43.1983429}, {"type": "node", "id": 4295307045, "lat": -22.9845091, "lon": -43.1984368}, {"type": "node", "id": 4295307053, "lat": -22.9845132, "lon": -43.1983437}, {"type": "node", "id": 4310174932, "lat": -22.9036356, "lon": -43.1757766, "tags": {"addr:housenumber": "38", "addr:street": "Rua do Carmo", "amenity": "pub", "name": "Global Caf\u00e9", "source": "survey"}}, {"type": "node", "id": 4317538757, "lat": -22.9120276, "lon": -43.1825464}, {"type": "node", "id": 4317538782, "lat": -22.9120516, "lon": -43.1826152}, {"type": "node", "id": 4317538905, "lat": -22.9120749, "lon": -43.182529}, {"type": "node", "id": 4317538935, "lat": -22.9121063, "lon": -43.1825173}, {"type": "node", "id": 4317538963, "lat": -22.9121299, "lon": -43.1825086}, {"type": "node", "id": 4317538984, "lat": -22.9121518, "lon": -43.1825728}, {"type": "node", "id": 4318885549, "lat": -22.9134887, "lon": -43.1807856}, {"type": "node", "id": 4318885555, "lat": -22.9134937, "lon": -43.1805314}, {"type": "node", "id": 4318885569, "lat": -22.9135012, "lon": -43.1805305}, {"type": "node", "id": 4318885572, "lat": -22.9135021, "lon": -43.1805334}, {"type": "node", "id": 4318893255, "lat": -22.9134089, "lon": -43.1807694}, {"type": "node", "id": 4318893274, "lat": -22.9134205, "lon": -43.1807055}, {"type": "node", "id": 4318893299, "lat": -22.9134341, "lon": -43.1806318}, {"type": "node", "id": 4318893338, "lat": -22.9134534, "lon": -43.1805348}, {"type": "node", "id": 4318893349, "lat": -22.9134624, "lon": -43.180534}, {"type": "node", "id": 4318893415, "lat": -22.9135293, "lon": -43.1806241}, {"type": "node", "id": 4318893501, "lat": -22.9135519, "lon": -43.1806984}, {"type": "node", "id": 4318893515, "lat": -22.9135624, "lon": -43.1807591}, {"type": "node", "id": 4318897874, "lat": -22.9138445, "lon": -43.1812471}, {"type": "node", "id": 4318950086, "lat": -22.9139311, "lon": -43.1801013}, {"type": "node", "id": 4318950392, "lat": -22.9138711, "lon": -43.1813377}, {"type": "node", "id": 4318950592, "lat": -22.9139391, "lon": -43.1801223}, {"type": "node", "id": 4318950606, "lat": -22.913966, "lon": -43.1813095}, {"type": "node", "id": 4318950627, "lat": -22.9139985, "lon": -43.1812075}, {"type": "node", "id": 4318950634, "lat": -22.9140093, "lon": -43.1799998}, {"type": "node", "id": 4318950646, "lat": -22.9140204, "lon": -43.1812018}, {"type": "node", "id": 4318950647, "lat": -22.9140205, "lon": -43.181263}, {"type": "node", "id": 4318950650, "lat": -22.9140231, "lon": -43.1800126}, {"type": "node", "id": 4318950653, "lat": -22.9140279, "lon": -43.1812911}, {"type": "node", "id": 4318950657, "lat": -22.9140334, "lon": -43.1812481}, {"type": "node", "id": 4318950659, "lat": -22.9140361, "lon": -43.1812579}, {"type": "node", "id": 4318950685, "lat": -22.9141708, "lon": -43.1799221}, {"type": "node", "id": 4318950889, "lat": -22.9140634, "lon": -43.1800501}, {"type": "node", "id": 4318950904, "lat": -22.9140886, "lon": -43.1798967}, {"type": "node", "id": 4318950916, "lat": -22.9140955, "lon": -43.1799164}, {"type": "node", "id": 4318950948, "lat": -22.9141249, "lon": -43.1800002}, {"type": "node", "id": 4318950955, "lat": -22.9141376, "lon": -43.1798339}, {"type": "node", "id": 4318950962, "lat": -22.9141443, "lon": -43.1798517}, {"type": "node", "id": 4326246961, "lat": -22.9695881, "lon": -43.1868942, "tags": {"amenity": "pub", "name": "La Perla"}}, {"type": "node", "id": 4343216291, "lat": -22.8979289, "lon": -43.2095038, "tags": {"amenity": "pub", "internet_access": "wlan", "name": "Seamans club stella maris", "opening_hours": "Mo-Sa 13:00-21:00"}}, {"type": "node", "id": 4409324892, "lat": -22.9009977, "lon": -43.1819479, "tags": {"addr:city": "Rio de Janeiro", "addr:housenumber": "224", "addr:postcode": "20050-092", "addr:street": "Rua Uruguaiana", "addr:suburb": "Centro", "amenity": "pub", "brewery": "yes", "name": "Casa Paladino", "opening_hours": "Mo-Fr 07:00-20:30"}}, {"type": "node", "id": 4522356160, "lat": -23.0152763, "lon": -43.4673345, "tags": {"amenity": "pub", "name": "Specialle Beef"}}, {"type": "node", "id": 4580188395, "lat": -22.9031179, "lon": -43.1256327, "tags": {"amenity": "pub"}}, {"type": "node", "id": 4715948036, "lat": -23.0186075, "lon": -43.4610062, "tags": {"amenity": "pub", "level": "0", "name": "Vintage"}}, {"type": "node", "id": 4741914639, "lat": -22.9693883, "lon": -43.4133461, "tags": {"amenity": "pub", "name": "Cia das Massas"}}, {"type": "node", "id": 4758258327, "lat": -22.9476764, "lon": -43.3398361}, {"type": "node", "id": 4758258328, "lat": -22.947821, "lon": -43.3397132}, {"type": "node", "id": 4758258329, "lat": -22.9477361, "lon": -43.3394844}, {"type": "node", "id": 4758258330, "lat": -22.9476732, "lon": -43.3395322}, {"type": "node", "id": 4758258331, "lat": -22.9476386, "lon": -43.3397303}, {"type": "node", "id": 4822795480, "lat": -22.8453187, "lon": -43.3107298, "tags": {"amenity": "pub", "name": "Man\u00e9"}}, {"type": "node", "id": 4825431921, "lat": -23.0251315, "lon": -43.4816424, "tags": {"amenity": "pub", "level": "0", "name": "R3 Bar"}}, {"type": "node", "id": 4861467121, "lat": -22.9159704, "lon": -43.2471129, "tags": {"addr:street": "Boulevard 28 de Setembro", "amenity": "pub", "name": "Feiti\u00e7o da vila", "name:pt": "Feiti\u00e7o da vila"}}, {"type": "node", "id": 4985896514, "lat": -22.9923411, "lon": -43.4459649, "tags": {"amenity": "pub", "name": "Rainha do Recreio"}}, {"type": "node", "id": 4994882422, "lat": -22.9364112, "lon": -43.1903114, "tags": {"addr:city": "Rio de Janeiro", "addr:street": "Rua Alice", "addr:suburb": "Laranjeiras", "amenity": "pub", "name": "Sonho Lindo"}}, {"type": "node", "id": 5106632512, "lat": -22.9054168, "lon": -43.3668214, "tags": {"addr:city": "Rio de Janeiro", "addr:housenumber": "435", "addr:postcode": "22733040", "addr:street": "Estrada Comandante Luiz Souto", "addr:suburb": "Tanque", "amenity": "pub", "name": "Bar da Nega", "outdoor_seating": "no", "smoking": "yes"}}, {"type": "node", "id": 5108605956, "lat": -22.9914956, "lon": -43.4517742, "tags": {"amenity": "pub"}}, {"type": "node", "id": 5111855350, "lat": -23.0099257, "lon": -43.304403, "tags": {"addr:city": "Rio de Janeiro", "addr:street": "Avenida Oleg\u00e1rio Maciel", "addr:suburb": "Barra da Tijuca", "amenity": "pub", "fixme": "confirmar posi\u00e7\u00e3o", "name": "Olega", "outdoor_seating": "yes"}}, {"type": "node", "id": 5122557916, "lat": -22.8501064, "lon": -43.3088255, "tags": {"amenity": "pub", "name": "Adega Duas Na\u00e7\u00f5es", "wheelchair": "yes"}}, {"type": "node", "id": 5142775690, "lat": -22.9496592, "lon": -43.1563349, "tags": {"amenity": "pub", "internet_access": "wlan", "internet_access:fee": "no", "microbrewery": "no", "name": "Cl\u00e1ssico Beach Club Urca", "outdoor_seating": "yes", "smoking": "no", "surveillance": "outdoor", "surveillance:type": "camera", "wheelchair": "no"}}, {"type": "node", "id": 5203394480, "lat": -22.9757318, "lon": -43.4137015, "tags": {"addr:city": "Rio de Janeiro", "addr:housenumber": "1", "addr:street": "Rua Abrah\u00e3o Jabour", "amenity": "pub", "name": "Point do Irm\u00e3o"}}, {"type": "node", "id": 5230077336, "lat": -23.009291, "lon": -43.3643569, "tags": {"amenity": "pub", "name": "Espeto Ga\u00facho"}}, {"type": "node", "id": 5235439073, "lat": -22.9012102, "lon": -43.2823987, "tags": {"addr:city": "Rio de Janeiro", "addr:housenumber": "45", "addr:street": "Rua Manuela Barbosa", "addr:suburb": "Meier", "amenity": "pub", "name": "Bob\u00f4", "opening_hours": "Mo-Th 17:00-24:00; Fr-Sa 17:00-02:00; Su 15:30-24:00", "phone": "+55 21 3495-8223", "website": "http://bobobar.com.br/", "wheelchair": "yes"}}, {"type": "node", "id": 5235439074, "lat": -22.901003, "lon": -43.2829887, "tags": {"amenity": "pub", "name": "Nova Dire\u00e7\u00e3o"}}, {"type": "node", "id": 5258724838, "lat": -22.9114472, "lon": -43.3621228, "tags": {"amenity": "pub"}}, {"type": "node", "id": 5259111338, "lat": -22.8682858, "lon": -43.2173499, "tags": {"amenity": "pub", "level": "1"}}, {"type": "node", "id": 5259111339, "lat": -22.8683843, "lon": -43.2180585, "tags": {"amenity": "pub"}}, {"type": "node", "id": 5259111340, "lat": -22.8693234, "lon": -43.2173188, "tags": {"amenity": "pub"}}, {"type": "node", "id": 5259111343, "lat": -22.8683706, "lon": -43.2183177, "tags": {"amenity": "pub"}}, {"type": "node", "id": 5262823903, "lat": -22.9774186, "lon": -43.3340629}, {"type": "node", "id": 5262823904, "lat": -22.9773988, "lon": -43.3337867}, {"type": "node", "id": 5262823905, "lat": -22.9775075, "lon": -43.3338711}, {"type": "node", "id": 5262823906, "lat": -22.9775396, "lon": -43.3339167}, {"type": "node", "id": 5262823907, "lat": -22.9775384, "lon": -43.3339623}, {"type": "node", "id": 5262823908, "lat": -22.9775063, "lon": -43.3340079}, {"type": "node", "id": 5262823909, "lat": -22.9774482, "lon": -43.3340468}, {"type": "node", "id": 5299952346, "lat": -22.8819113, "lon": -43.3592026}, {"type": "node", "id": 5299952347, "lat": -22.8820021, "lon": -43.3591194}, {"type": "node", "id": 5299952348, "lat": -22.8819141, "lon": -43.3590147}, {"type": "node", "id": 5299952349, "lat": -22.8818347, "lon": -43.3590917}, {"type": "node", "id": 5299952354, "lat": -22.8819407, "lon": -43.3591757}, {"type": "node", "id": 5300182632, "lat": -22.9122962, "lon": -43.3618974}, {"type": "node", "id": 5300182633, "lat": -22.91228, "lon": -43.3619441}, {"type": "node", "id": 5300182634, "lat": -22.9122575, "lon": -43.3619674}, {"type": "node", "id": 5300182635, "lat": -22.9122295, "lon": -43.3619791}, {"type": "node", "id": 5300182636, "lat": -22.9122161, "lon": -43.3618909}, {"type": "node", "id": 5300182637, "lat": -22.9122088, "lon": -43.361983}, {"type": "node", "id": 5300691137, "lat": -22.9397729, "lon": -43.6588926}, {"type": "node", "id": 5300691138, "lat": -22.9398563, "lon": -43.6588492}, {"type": "node", "id": 5300691139, "lat": -22.9398155, "lon": -43.658757}, {"type": "node", "id": 5300691140, "lat": -22.9397322, "lon": -43.6588004}, {"type": "node", "id": 5300691171, "lat": -22.9375616, "lon": -43.6593144, "tags": {"amenity": "pub"}}, {"type": "node", "id": 5300691172, "lat": -22.9377121, "lon": -43.65934, "tags": {"amenity": "pub"}}, {"type": "node", "id": 5300913371, "lat": -22.9362552, "lon": -43.6604958, "tags": {"amenity": "pub"}}, {"type": "node", "id": 5333884974, "lat": -22.9838457, "lon": -43.1927255, "tags": {"addr:city": "Rio de Janeiro", "addr:housenumber": "108", "addr:street": "Rua Conselheiro Lafaiete", "addr:suburb": "Copacabana", "amenity": "pub"}}, {"type": "node", "id": 5334718482, "lat": -22.9173665, "lon": -43.2513869, "tags": {"amenity": "pub", "name": "Bar da Vila"}}, {"type": "node", "id": 5467478775, "lat": -22.9128075, "lon": -43.1851659, "tags": {"addr:housenumber": "82", "addr:street": "Rua do Rezende", "amenity": "pub", "name": "Ganjah Coffeeshop Lapa", "shop": "tobacco"}}, {"type": "node", "id": 5481479522, "lat": -22.9133558, "lon": -43.2150305, "tags": {"amenity": "pub", "drink": "yes", "name": "NOO", "smoking": "no"}}, {"type": "node", "id": 5482943136, "lat": -22.9112891, "lon": -43.1912614, "tags": {"addr:city": "Rio de Janeiro", "addr:housenumber": "324-A", "addr:postcode": "20230-194", "addr:street": "Rua General Caldwell", "addr:suburb": "Centro", "amenity": "pub", "name": "Caf\u00e9 e Bar Tondela"}}, {"type": "node", "id": 5503060057, "lat": -22.9510552, "lon": -43.182105, "tags": {"addr:city": "Rio de Janeiro", "addr:housenumber": "50", "addr:postcode": "22290-030", "addr:street": "Rua Professor \u00c1lvaro Rodrigues", "addr:suburb": "Botafogo", "amenity": "pub", "name": "Botecp Bunda Forte"}}, {"type": "node", "id": 5580588266, "lat": -22.9705151, "lon": -43.4135438, "tags": {"amenity": "pub", "name": "Sapucaqui"}}, {"type": "node", "id": 5595301024, "lat": -22.8964214, "lon": -43.1946001, "tags": {"addr:housenumber": "89", "addr:street": "Rua Pedro Ernesto", "amenity": "pub", "cuisine": "local", "internet_access": "wlan", "name": "Mississipi Delta Blues Bar Rio de Janeiro", "opening_hours": "Tu-Su 18:00-01:00", "phone": "02125106061", "website": "http://www.msdelta.com.br"}}, {"type": "node", "id": 5670707164, "lat": -22.8685438, "lon": -43.2170632, "tags": {"amenity": "pub"}}, {"type": "node", "id": 5678601604, "lat": -22.9787198, "lon": -43.4168239, "tags": {"amenity": "pub"}}, {"type": "node", "id": 5739923248, "lat": -22.9128525, "lon": -43.1904658, "tags": {"addr:city": "Rio de Janeiro", "addr:housenumber": "143", "addr:postcode": "20231-030", "addr:street": "Avenida Henrique Valadares", "addr:suburb": "Centro", "amenity": "pub", "name": "Gat\u00e3o"}}, {"type": "node", "id": 5903616861, "lat": -22.971688, "lon": -43.3852674, "tags": {"amenity": "pub", "name": "Bar do Ad\u00e3o"}}, {"type": "node", "id": 5907441407, "lat": -22.9821551, "lon": -43.4628254, "tags": {"amenity": "pub", "name": "Nosso Bar"}}, {"type": "node", "id": 5942931186, "lat": -22.9531067, "lon": -43.1899342, "tags": {"addr:housenumber": "594", "addr:postcode": "22271-110", "addr:street": "Rua Sorocaba", "amenity": "pub", "name": "Alice Bar", "phone": "+552130796484"}}, {"type": "node", "id": 5942933287, "lat": -22.9565873, "lon": -43.1848078, "tags": {"addr:housenumber": "26", "addr:postcode": "22280-080", "addr:street": "Rua Assis Bueno", "amenity": "pub", "name": "Caverna", "phone": "+552135075600"}}, {"type": "node", "id": 5942933288, "lat": -22.9214309, "lon": -43.1849073, "tags": {"addr:housenumber": "399", "addr:postcode": "20241-260", "addr:street": "Rua Almirante Alexandrino", "amenity": "pub", "name": "Explorer Bar", "phone": "+552132649665"}}, {"type": "node", "id": 5959909085, "lat": -22.9135424, "lon": -43.1825859, "tags": {"addr:housenumber": "791", "addr:postcode": "20231-024", "addr:street": "Avenida Gomes Freire", "amenity": "pub", "name": "Cazota Bar", "phone": "+55 (21) 2509-0996"}}, {"type": "node", "id": 6123589821, "lat": -22.9346831, "lon": -43.243229, "tags": {"amenity": "pub", "name": "Quins Louz\u00e3"}}, {"type": "node", "id": 6126832615, "lat": -22.9074182, "lon": -43.3542258}, {"type": "node", "id": 6126832616, "lat": -22.9074154, "lon": -43.3542177}, {"type": "node", "id": 6126832617, "lat": -22.9074625, "lon": -43.3541989}, {"type": "node", "id": 6126832618, "lat": -22.9074653, "lon": -43.354208}, {"type": "node", "id": 6126832619, "lat": -22.907415, "lon": -43.3542091}, {"type": "node", "id": 6126832620, "lat": -22.9074172, "lon": -43.3542007}, {"type": "node", "id": 6126832621, "lat": -22.9074216, "lon": -43.3541935}, {"type": "node", "id": 6126832622, "lat": -22.9074279, "lon": -43.3541881}, {"type": "node", "id": 6126832623, "lat": -22.9074354, "lon": -43.3541851}, {"type": "node", "id": 6126832624, "lat": -22.9074433, "lon": -43.3541848}, {"type": "node", "id": 6126832625, "lat": -22.907451, "lon": -43.3541872}, {"type": "node", "id": 6126832626, "lat": -22.9074576, "lon": -43.3541921}, {"type": "node", "id": 6126832627, "lat": -22.9074652, "lon": -43.3542175}, {"type": "node", "id": 6126832628, "lat": -22.907462, "lon": -43.3542264}, {"type": "node", "id": 6126832629, "lat": -22.9074563, "lon": -43.3542336}, {"type": "node", "id": 6126832630, "lat": -22.9074486, "lon": -43.3542382}, {"type": "node", "id": 6126832631, "lat": -22.90744, "lon": -43.3542397}, {"type": "node", "id": 6126832632, "lat": -22.9074314, "lon": -43.354238}, {"type": "node", "id": 6126832633, "lat": -22.9074238, "lon": -43.3542332}, {"type": "node", "id": 6131698518, "lat": -22.8367067, "lon": -43.2907539}, {"type": "node", "id": 6131698519, "lat": -22.8367196, "lon": -43.2908473}, {"type": "node", "id": 6131698520, "lat": -22.8367519, "lon": -43.2908776}, {"type": "node", "id": 6131698521, "lat": -22.8368164, "lon": -43.2908753}, {"type": "node", "id": 6131698522, "lat": -22.8368014, "lon": -43.2907422}, {"type": "node", "id": 6131699126, "lat": -22.8356566, "lon": -43.2912717}, {"type": "node", "id": 6131699127, "lat": -22.8357073, "lon": -43.2912609}, {"type": "node", "id": 6131699128, "lat": -22.8357518, "lon": -43.2912583}, {"type": "node", "id": 6131699129, "lat": -22.8357901, "lon": -43.2912904}, {"type": "node", "id": 6131699130, "lat": -22.8358062, "lon": -43.2913991}, {"type": "node", "id": 6131699131, "lat": -22.8357308, "lon": -43.2914031}, {"type": "node", "id": 6131699132, "lat": -22.8357246, "lon": -43.2913602}, {"type": "node", "id": 6131699133, "lat": -22.8356665, "lon": -43.2913615}, {"type": "node", "id": 6160577167, "lat": -22.8974223, "lon": -43.3440867}, {"type": "node", "id": 6160578214, "lat": -22.8974636, "lon": -43.3440263}, {"type": "node", "id": 6160578302, "lat": -22.8973734, "lon": -43.3440536}, {"type": "node", "id": 6160643107, "lat": -22.8973776, "lon": -43.3440481}, {"type": "node", "id": 6160646912, "lat": -22.8974107, "lon": -43.3439926}, {"type": "node", "id": 6162295339, "lat": -22.8932338, "lon": -43.3470366}, {"type": "node", "id": 6162295340, "lat": -22.8931009, "lon": -43.3470038}, {"type": "node", "id": 6162295341, "lat": -22.893075, "lon": -43.3470168}, {"type": "node", "id": 6162295342, "lat": -22.8930615, "lon": -43.3470423}, {"type": "node", "id": 6162295343, "lat": -22.8932288, "lon": -43.3470457}, {"type": "node", "id": 6162295344, "lat": -22.8931879, "lon": -43.3471185}, {"type": "node", "id": 6166994385, "lat": -22.9129934, "lon": -43.21446, "tags": {"amenity": "pub", "cuisine": "latina", "drink": "beer", "name": "Una", "smoking": "no"}}, {"type": "node", "id": 6277228100, "lat": -22.8982686, "lon": -43.345407, "tags": {"amenity": "pub"}}, {"type": "node", "id": 6379880718, "lat": -22.8835391, "lon": -43.439824}, {"type": "node", "id": 6379880719, "lat": -22.8834959, "lon": -43.4397717}, {"type": "node", "id": 6379880720, "lat": -22.8835663, "lon": -43.4396858}, {"type": "node", "id": 6379880721, "lat": -22.8836194, "lon": -43.4397502}, {"type": "node", "id": 6382383306, "lat": -22.9131351, "lon": -43.2357025, "tags": {"amenity": "pub", "name": "Quiosque Noel Rosa", "smoking": "no"}}, {"type": "node", "id": 6385553523, "lat": -22.913182, "lon": -43.2147962, "tags": {"amenity": "pub", "name": "Bandeira F. C."}}, {"type": "node", "id": 6407760139, "lat": -22.930015, "lon": -43.177266}, {"type": "node", "id": 6445661478, "lat": -22.8109153, "lon": -43.1817431, "tags": {"addr:city": "Rio de Janeiro", "addr:street": "Rua Beni", "addr:suburb": "Praia da Bandeira", "amenity": "pub", "brewery": "yes;various", "name": "Bar do Ivo"}}, {"type": "node", "id": 6460841994, "lat": -22.9163602, "lon": -43.251593, "tags": {"amenity": "pub"}}, {"type": "node", "id": 6566387685, "lat": -22.850463, "lon": -43.3788185, "tags": {"amenity": "pub"}}, {"type": "node", "id": 6592280246, "lat": -22.8513733, "lon": -43.3826533}, {"type": "node", "id": 6592280247, "lat": -22.8513761, "lon": -43.3826071}, {"type": "node", "id": 6592280248, "lat": -22.8514286, "lon": -43.3826055}, {"type": "node", "id": 6592280249, "lat": -22.8514315, "lon": -43.3826548}, {"type": "node", "id": 6592280263, "lat": -22.850128, "lon": -43.3812101, "tags": {"amenity": "pub", "opening_hours": "10:00-22:00"}}, {"type": "node", "id": 6592283617, "lat": -22.8511405, "lon": -43.379163, "tags": {"amenity": "pub"}}, {"type": "node", "id": 6597233256, "lat": -22.9388659, "lon": -43.1781664, "tags": {"amenity": "pub", "name": "Fonte Dainha"}}, {"type": "node", "id": 6597233257, "lat": -22.9387686, "lon": -43.1781448, "tags": {"amenity": "pub", "name": "Rimar Rei dos Petiscos"}}, {"type": "node", "id": 6597233261, "lat": -22.9384209, "lon": -43.1780413, "tags": {"amenity": "pub", "name": "Casa Azul"}}, {"type": "node", "id": 6597447895, "lat": -22.9372649, "lon": -43.177719, "tags": {"amenity": "pub", "name": "Blue"}}, {"type": "node", "id": 6597447926, "lat": -22.9348046, "lon": -43.1773384, "tags": {"amenity": "pub", "name": "Diobar"}}, {"type": "node", "id": 6597447933, "lat": -22.9343231, "lon": -43.1773787, "tags": {"amenity": "pub", "name": "Lunik"}}, {"type": "node", "id": 6600534938, "lat": -22.9382498, "lon": -43.1764514, "tags": {"addr:city": "Rio de Janeiro", "addr:housenumber": "186", "addr:postcode": "22230-001", "addr:street": "Rua Senador Vergueiro", "addr:suburb": "Flamengo", "amenity": "pub"}}, {"type": "node", "id": 6638792345, "lat": -22.9392082, "lon": -43.1768286, "tags": {"amenity": "pub", "name": "Para\u00edso do Flamengo"}}, {"type": "node", "id": 6638792354, "lat": -22.9398405, "lon": -43.1770378, "tags": {"amenity": "pub", "name": "Brasinha Gourmet"}}, {"type": "node", "id": 6638792361, "lat": -22.9406063, "lon": -43.1774804, "tags": {"amenity": "pub", "name": "Sonho do Flamengo", "phone": "+55 21 2551-6944"}}, {"type": "node", "id": 6644707082, "lat": -22.9363901, "lon": -43.177239, "tags": {"amenity": "pub", "name": "Bar Martins"}}, {"type": "node", "id": 6644719995, "lat": -22.9347813, "lon": -43.1770351, "tags": {"amenity": "pub", "name": "Boteco Rio's Soccer"}}, {"type": "node", "id": 6644720009, "lat": -22.9334988, "lon": -43.177189, "tags": {"amenity": "pub", "name": "Bar Vieira"}}, {"type": "node", "id": 6739673403, "lat": -22.9364299, "lon": -43.1903336}, {"type": "node", "id": 6739673404, "lat": -22.9364325, "lon": -43.1903062}, {"type": "node", "id": 6739673405, "lat": -22.9364246, "lon": -43.1902918}, {"type": "node", "id": 6739673406, "lat": -22.9364008, "lon": -43.1902854}, {"type": "node", "id": 6739673407, "lat": -22.9363822, "lon": -43.1902871}, {"type": "node", "id": 6793739289, "lat": -22.9848944, "lon": -43.2070178, "tags": {"addr:postcode": "22410-040", "amenity": "pub", "name": "Barthodomeu"}}, {"type": "node", "id": 6838321648, "lat": -22.938627, "lon": -43.3811861}, {"type": "node", "id": 6838321649, "lat": -22.9386939, "lon": -43.3812752}, {"type": "node", "id": 6838321650, "lat": -22.938727, "lon": -43.3812416}, {"type": "node", "id": 6838321651, "lat": -22.9386601, "lon": -43.3811568}, {"type": "node", "id": 6838321652, "lat": -22.9386805, "lon": -43.3811841}, {"type": "node", "id": 6838321673, "lat": -22.941981, "lon": -43.3812803}, {"type": "node", "id": 6838321674, "lat": -22.9420431, "lon": -43.3813403}, {"type": "node", "id": 6838321675, "lat": -22.9420809, "lon": -43.3812941}, {"type": "node", "id": 6838321676, "lat": -22.9420188, "lon": -43.3812341}, {"type": "node", "id": 6849186139, "lat": -22.8625329, "lon": -43.3463684}, {"type": "node", "id": 6849186140, "lat": -22.8625115, "lon": -43.3462086}, {"type": "node", "id": 6849186141, "lat": -22.8626412, "lon": -43.3462594}, {"type": "node", "id": 6849186142, "lat": -22.8626491, "lon": -43.3463472}, {"type": "node", "id": 6849186143, "lat": -22.8626618, "lon": -43.3462576}, {"type": "node", "id": 6849186144, "lat": -22.8626534, "lon": -43.3461836}, {"type": "node", "id": 6849205594, "lat": -22.8632997, "lon": -43.3454239}, {"type": "node", "id": 6849205595, "lat": -22.8633866, "lon": -43.3453552}, {"type": "node", "id": 6849205596, "lat": -22.863485, "lon": -43.3453968}, {"type": "node", "id": 6849205597, "lat": -22.8633542, "lon": -43.3455069}, {"type": "node", "id": 6853105058, "lat": -22.8633967, "lon": -43.3454763}, {"type": "node", "id": 6853105059, "lat": -22.8634246, "lon": -43.3455158}, {"type": "node", "id": 6853105060, "lat": -22.8635151, "lon": -43.3454449}, {"type": "node", "id": 6853105061, "lat": -22.8635275, "lon": -43.3453622}, {"type": "node", "id": 6853105062, "lat": -22.8633936, "lon": -43.3453651}, {"type": "node", "id": 6853105063, "lat": -22.8634791, "lon": -43.3452948}, {"type": "node", "id": 6856631827, "lat": -22.8668054, "lon": -43.3426525}, {"type": "node", "id": 6856631828, "lat": -22.8668361, "lon": -43.3425665}, {"type": "node", "id": 6856631829, "lat": -22.8669753, "lon": -43.3426317}, {"type": "node", "id": 6856631830, "lat": -22.8669395, "lon": -43.3427121}, {"type": "node", "id": 6856631831, "lat": -22.8668961, "lon": -43.3426941}, {"type": "node", "id": 6856631832, "lat": -22.8668642, "lon": -43.3427648}, {"type": "node", "id": 6856631833, "lat": -22.8667952, "lon": -43.3427329}, {"type": "node", "id": 6856631834, "lat": -22.866822, "lon": -43.3426594}, {"type": "node", "id": 6859383585, "lat": -22.8685002, "lon": -43.3409878}, {"type": "node", "id": 6859383586, "lat": -22.8685954, "lon": -43.3409047}, {"type": "node", "id": 6859383587, "lat": -22.8687006, "lon": -43.3410467}, {"type": "node", "id": 6859383588, "lat": -22.8686054, "lon": -43.3411299}, {"type": "node", "id": 6859383589, "lat": -22.8687078, "lon": -43.3408059}, {"type": "node", "id": 6859383590, "lat": -22.868814, "lon": -43.3409482}, {"type": "node", "id": 6859383591, "lat": -22.8687043, "lon": -43.3410447}, {"type": "node", "id": 6859383592, "lat": -22.868598, "lon": -43.3409025}, {"type": "node", "id": 6868730214, "lat": -22.8680213, "lon": -43.3413221}, {"type": "node", "id": 6868730215, "lat": -22.8680823, "lon": -43.3412705}, {"type": "node", "id": 6868730216, "lat": -22.8681079, "lon": -43.3413062}, {"type": "node", "id": 6868730217, "lat": -22.868121, "lon": -43.3412951}, {"type": "node", "id": 6868730218, "lat": -22.8681469, "lon": -43.3413313}, {"type": "node", "id": 6868730219, "lat": -22.8680729, "lon": -43.3413939}, {"type": "node", "id": 6868731147, "lat": -22.869775, "lon": -43.3398495}, {"type": "node", "id": 6868731148, "lat": -22.8698378, "lon": -43.3397938}, {"type": "node", "id": 6868731149, "lat": -22.8699023, "lon": -43.3398795}, {"type": "node", "id": 6868731150, "lat": -22.8699211, "lon": -43.3398628}, {"type": "node", "id": 6868731151, "lat": -22.8699647, "lon": -43.3399208}, {"type": "node", "id": 6868731152, "lat": -22.8698831, "lon": -43.3399932}, {"type": "node", "id": 6868731154, "lat": -22.8696781, "lon": -43.3399323}, {"type": "node", "id": 6868731155, "lat": -22.8697586, "lon": -43.339864}, {"type": "node", "id": 6868731156, "lat": -22.8698522, "lon": -43.339994}, {"type": "node", "id": 6868731157, "lat": -22.8697716, "lon": -43.3400623}, {"type": "node", "id": 6868731158, "lat": -22.869529, "lon": -43.3400548}, {"type": "node", "id": 6868731159, "lat": -22.8696125, "lon": -43.3399769}, {"type": "node", "id": 6868731160, "lat": -22.8696816, "lon": -43.3400643}, {"type": "node", "id": 6868731161, "lat": -22.8695936, "lon": -43.3401364}, {"type": "node", "id": 6868731162, "lat": -22.869691, "lon": -43.3400609}, {"type": "node", "id": 6868731163, "lat": -22.869737, "lon": -43.3401191}, {"type": "node", "id": 6868731164, "lat": -22.8696223, "lon": -43.3402259}, {"type": "node", "id": 6868731165, "lat": -22.8695694, "lon": -43.340159}, {"type": "node", "id": 6887817940, "lat": -22.8572518, "lon": -43.3507311}, {"type": "node", "id": 6887817941, "lat": -22.8572945, "lon": -43.350629}, {"type": "node", "id": 6887817942, "lat": -22.8573815, "lon": -43.3506725}, {"type": "node", "id": 6887817943, "lat": -22.8573386, "lon": -43.3507739}, {"type": "node", "id": 6887817944, "lat": -22.857338, "lon": -43.3505267}, {"type": "node", "id": 6887817945, "lat": -22.8574249, "lon": -43.3505702}, {"type": "node", "id": 6887817957, "lat": -22.8580134, "lon": -43.3501193}, {"type": "node", "id": 6887817958, "lat": -22.857904, "lon": -43.350138}, {"type": "node", "id": 6887817959, "lat": -22.8579183, "lon": -43.3502359}, {"type": "node", "id": 6887817960, "lat": -22.8580276, "lon": -43.3502172}, {"type": "node", "id": 6887817961, "lat": -22.857796, "lon": -43.3501565}, {"type": "node", "id": 6887817962, "lat": -22.8578102, "lon": -43.3502544}, {"type": "node", "id": 6887824852, "lat": -22.8548728, "lon": -43.3525953}, {"type": "node", "id": 6887824853, "lat": -22.8549594, "lon": -43.3525189}, {"type": "node", "id": 6887824854, "lat": -22.8550172, "lon": -43.352597}, {"type": "node", "id": 6887824855, "lat": -22.8549282, "lon": -43.3526743}, {"type": "node", "id": 6887824856, "lat": -22.8550451, "lon": -43.3524444}, {"type": "node", "id": 6887824857, "lat": -22.8551028, "lon": -43.3525225}, {"type": "node", "id": 6887877797, "lat": -22.8525661, "lon": -43.3549101}, {"type": "node", "id": 6887877798, "lat": -22.8526433, "lon": -43.3548156}, {"type": "node", "id": 6887877799, "lat": -22.8527151, "lon": -43.3548848}, {"type": "node", "id": 6887877800, "lat": -22.8526355, "lon": -43.3549788}, {"type": "node", "id": 6887877801, "lat": -22.8527222, "lon": -43.3547193}, {"type": "node", "id": 6887877802, "lat": -22.852794, "lon": -43.3547886}, {"type": "node", "id": 7482976949, "lat": -22.8881002, "lon": -43.2748634}, {"type": "node", "id": 7482976950, "lat": -22.8880566, "lon": -43.2748053}, {"type": "node", "id": 7482976951, "lat": -22.888274, "lon": -43.2746129}, {"type": "node", "id": 7482976952, "lat": -22.8883176, "lon": -43.2746709}, {"type": "node", "id": 7552001423, "lat": -22.890098, "lon": -43.2739648}, {"type": "node", "id": 7552001424, "lat": -22.8901622, "lon": -43.2739622}, {"type": "node", "id": 7552001425, "lat": -22.8901578, "lon": -43.2737966}, {"type": "node", "id": 7552001426, "lat": -22.8900948, "lon": -43.2737992}, {"type": "node", "id": 7571894797, "lat": -22.950212, "lon": -43.1819575, "tags": {"addr:city": "Rio de Janeiro", "addr:housenumber": "484", "addr:postcode": "22250-040", "addr:street": "Praia de Botafogo", "addr:suburb": "Botafogo", "amenity": "pub", "name": "Bar do Ovo", "smoking": "yes"}}, {"type": "node", "id": 7715270021, "lat": -22.7999609, "lon": -43.3889605, "tags": {"addr:city": "S\u00e3o Jo\u00e3o de Meriti", "addr:postcode": "25525470", "addr:street": "Rua Jorge Nanhay", "addr:suburb": "S\u00e3o Mateus", "amenity": "pub", "name": "Bar do Luis", "smoking": "outside"}}, {"type": "node", "id": 8077931028, "lat": -22.9363605, "lon": -43.1903092}, {"type": "node", "id": 8077931029, "lat": -22.936424, "lon": -43.1903726}, {"type": "node", "id": 8077932848, "lat": -22.9359314, "lon": -43.1895374, "tags": {"addr:postcode": "22240-004", "amenity": "pub", "name": "American Barcele"}}, {"type": "node", "id": 8077932850, "lat": -22.9354957, "lon": -43.1889834}, {"type": "node", "id": 8077932851, "lat": -22.9355391, "lon": -43.1889528}, {"type": "node", "id": 8077932852, "lat": -22.9355117, "lon": -43.1889091}, {"type": "node", "id": 8077932854, "lat": -22.9358888, "lon": -43.1895024, "tags": {"addr:postcode": "22240-004", "amenity": "pub", "name": "Eustakiu's"}}, {"type": "node", "id": 8077932856, "lat": -22.9358135, "lon": -43.1894383, "tags": {"addr:postcode": "22240-004", "amenity": "pub", "name": "Caf\u00e9 e Bar Real Clube Celta"}}, {"type": "node", "id": 8211070681, "lat": -22.8920731, "lon": -43.56622}, {"type": "node", "id": 8211070682, "lat": -22.8921041, "lon": -43.5662085}, {"type": "node", "id": 8211070683, "lat": -22.8920963, "lon": -43.5661625}, {"type": "node", "id": 8211070684, "lat": -22.8920705, "lon": -43.5661696}, {"type": "node", "id": 8211070685, "lat": -22.8920444, "lon": -43.5660957}, {"type": "node", "id": 8211070686, "lat": -22.8920328, "lon": -43.5661016}, {"type": "node", "id": 8211070687, "lat": -22.8920318, "lon": -43.5660986}, {"type": "node", "id": 8211070696, "lat": -22.8920308, "lon": -43.5660957}, {"type": "node", "id": 8211070697, "lat": -22.8920103, "lon": -43.5660343}, {"type": "node", "id": 8211070698, "lat": -22.891988, "lon": -43.5659783}, {"type": "node", "id": 8211070699, "lat": -22.8919794, "lon": -43.5659628}, {"type": "node", "id": 8211070700, "lat": -22.8919309, "lon": -43.5659769}, {"type": "node", "id": 8211070701, "lat": -22.8919314, "lon": -43.5659843}, {"type": "node", "id": 8211070702, "lat": -22.8918971, "lon": -43.5659965}, {"type": "node", "id": 8211070704, "lat": -22.8918838, "lon": -43.5660339}, {"type": "node", "id": 8211070705, "lat": -22.8918756, "lon": -43.5660041}, {"type": "node", "id": 8211070707, "lat": -22.8919152, "lon": -43.5661158}, {"type": "node", "id": 8211070708, "lat": -22.8919089, "lon": -43.5661179}, {"type": "node", "id": 8211070709, "lat": -22.891895, "lon": -43.5660747}, {"type": "node", "id": 8211070715, "lat": -22.8919586, "lon": -43.566264}, {"type": "node", "id": 8429610725, "lat": -22.8468549, "lon": -43.3113318, "tags": {"addr:city": "Rio de Janeiro", "addr:street": "Avenida Meriti", "addr:suburb": "Vila da Penha", "amenity": "pub", "name": "Restaurante e Bar Roberto"}}, {"type": "node", "id": 8430125641, "lat": -22.8408841, "lon": -43.305421, "tags": {"addr:city": "Rio de Janeiro", "addr:housenumber": "1254", "addr:street": "Rua Oliveira Belo", "addr:suburb": "Vila da Penha", "amenity": "pub", "contact:instagram": "https://www.instagram.com/mangarosacafevp/", "name": "Manga Rosa", "opening_hours": "Tu-Su 16:20-01:00"}}, {"type": "node", "id": 8430125644, "lat": -22.846882, "lon": -43.3091738, "tags": {"amenity": "pub", "name": "Bar Tudo Nosso"}}, {"type": "node", "id": 8499653629, "lat": -22.846831, "lon": -43.3117034, "tags": {"addr:city": "Rio de Janeiro", "addr:suburb": "Vila da Penha", "amenity": "pub", "brewery": "yes", "name": "Deckrio Chopperia"}}, {"type": "node", "id": 8509851517, "lat": -22.8465446, "lon": -43.310208, "tags": {"addr:city": "Rio de Janeiro", "addr:street": "Rua Volta", "addr:suburb": "Vila da Penha", "amenity": "pub", "name": "No Quintal Caf\u00e9 e Bar"}}, {"type": "node", "id": 8544632863, "lat": -22.8827084, "lon": -43.2615601}, {"type": "node", "id": 8544632864, "lat": -22.8827146, "lon": -43.2615565}, {"type": "node", "id": 8544632865, "lat": -22.8827231, "lon": -43.2615711}, {"type": "node", "id": 8544632866, "lat": -22.8827179, "lon": -43.2615767}, {"type": "node", "id": 8544632867, "lat": -22.8827369, "lon": -43.2616097}, {"type": "node", "id": 8544632868, "lat": -22.8827556, "lon": -43.2615967}, {"type": "node", "id": 8544632869, "lat": -22.8827636, "lon": -43.2616093}, {"type": "node", "id": 8544632870, "lat": -22.8827448, "lon": -43.2616235}, {"type": "node", "id": 8544632871, "lat": -22.8827624, "lon": -43.261654}, {"type": "node", "id": 8544632872, "lat": -22.8827696, "lon": -43.2616489}, {"type": "node", "id": 8544632873, "lat": -22.8827792, "lon": -43.2616633}, {"type": "node", "id": 8544632874, "lat": -22.8827714, "lon": -43.2616699}, {"type": "node", "id": 8544632875, "lat": -22.8827928, "lon": -43.261707}, {"type": "node", "id": 8544632876, "lat": -22.8828654, "lon": -43.2616559}, {"type": "node", "id": 8544632877, "lat": -22.882992, "lon": -43.2615668}, {"type": "node", "id": 8544632878, "lat": -22.8828818, "lon": -43.2613844}, {"type": "node", "id": 8544632879, "lat": -22.8826841, "lon": -43.2615178}, {"type": "node", "id": 9012748102, "lat": -22.9083171, "lon": -43.5329304, "tags": {"amenity": "pub", "name": "Bar da Lurdinha"}}, {"type": "node", "id": 9163838898, "lat": -22.9503465, "lon": -43.1919412}, {"type": "node", "id": 9163838899, "lat": -22.950353, "lon": -43.1919442}, {"type": "node", "id": 9163838900, "lat": -22.9503603, "lon": -43.1919441}, {"type": "node", "id": 9163839460, "lat": -22.9504221, "lon": -43.1918005}, {"type": "node", "id": 9163839461, "lat": -22.9504562, "lon": -43.1919043}, {"type": "node", "id": 9212587430, "lat": -22.9447986, "lon": -43.1842507}, {"type": "node", "id": 9212587431, "lat": -22.9448294, "lon": -43.1840591}, {"type": "node", "id": 9212587432, "lat": -22.9448955, "lon": -43.1840723}, {"type": "node", "id": 9212587433, "lat": -22.9448812, "lon": -43.1841912}, {"type": "node", "id": 9212587434, "lat": -22.9448834, "lon": -43.1841915}, {"type": "node", "id": 9212587435, "lat": -22.9448745, "lon": -43.1842664}, {"type": "node", "id": 9212587436, "lat": -22.9448411, "lon": -43.1842618}, {"type": "node", "id": 9212587437, "lat": -22.9448394, "lon": -43.1842759}, {"type": "node", "id": 9212587438, "lat": -22.9448599, "lon": -43.1842788}, {"type": "node", "id": 9212588113, "lat": -22.9448222, "lon": -43.1843223}, {"type": "node", "id": 9212588114, "lat": -22.9448542, "lon": -43.1843265}, {"type": "node", "id": 9218891022, "lat": -22.9418744, "lon": -43.1808594}, {"type": "node", "id": 9218892136, "lat": -22.9417846, "lon": -43.1808043}, {"type": "node", "id": 9218892137, "lat": -22.9418245, "lon": -43.1808346}, {"type": "node", "id": 9218892436, "lat": -22.9419672, "lon": -43.1808243}, {"type": "node", "id": 9218892437, "lat": -22.9419523, "lon": -43.1808455}, {"type": "node", "id": 9218892438, "lat": -22.9419541, "lon": -43.1808469}, {"type": "node", "id": 9218892439, "lat": -22.9419316, "lon": -43.1808788}, {"type": "node", "id": 9218892440, "lat": -22.9419298, "lon": -43.1808773}, {"type": "node", "id": 9218892441, "lat": -22.9419199, "lon": -43.1808913}, {"type": "node", "id": 9218892442, "lat": -22.9418768, "lon": -43.1808557}, {"type": "node", "id": 9218893215, "lat": -22.9418629, "lon": -43.1807344}, {"type": "node", "id": 9218893216, "lat": -22.9418048, "lon": -43.1807862}, {"type": "node", "id": 9219252492, "lat": -22.9572279, "lon": -43.1961049}, {"type": "node", "id": 9219252493, "lat": -22.9572212, "lon": -43.1961011}, {"type": "node", "id": 9219253210, "lat": -22.9572899, "lon": -43.1960875}, {"type": "node", "id": 9219254800, "lat": -22.9571962, "lon": -43.1959584}, {"type": "node", "id": 9219254801, "lat": -22.9572459, "lon": -43.1959434}, {"type": "node", "id": 9219254802, "lat": -22.9572525, "lon": -43.195965}, {"type": "node", "id": 9219254803, "lat": -22.9572695, "lon": -43.1960205}, {"type": "node", "id": 9313320584, "lat": -22.9561271, "lon": -43.3387008, "tags": {"amenity": "pub", "name": "Cervejaria Ravache"}}, {"type": "node", "id": 9313404426, "lat": -22.9558551, "lon": -43.3387809, "tags": {"amenity": "pub", "name": "Bar do Zeca"}}, {"type": "node", "id": 9427051020, "lat": -22.878332, "lon": -43.4671655, "tags": {"amenity": "pub", "name": "Boteco do Manolo"}}, {"type": "node", "id": 9448225817, "lat": -22.9222812, "lon": -43.1818121, "tags": {"addr:housenumber": "49", "addr:street": "Rua Santa Cristina", "amenity": "pub", "name": "Felipe"}}, {"type": "node", "id": 9476775417, "lat": -22.9208237, "lon": -43.1895756, "tags": {"addr:housenumber": "2", "addr:postcode": "20240-210", "addr:street": "Rua \u00c1urea", "amenity": "pub", "name": "Bar da Fatinha"}}, {"type": "node", "id": 9622042600, "lat": -22.9299141, "lon": -43.1772489}, {"type": "node", "id": 9622042601, "lat": -22.9299007, "lon": -43.1773648}, {"type": "node", "id": 9622042602, "lat": -22.930017, "lon": -43.1773803}, {"type": "node", "id": 9622042603, "lat": -22.9300304, "lon": -43.1772686}, {"type": "node", "id": 9622042604, "lat": -22.9299722, "lon": -43.1772587}, {"type": "node", "id": 9644407517, "lat": -22.9474431, "lon": -43.3400342, "tags": {"addr:city": "Rio de Janeiro", "addr:housenumber": "26", "addr:postcode": "22765-004", "addr:street": "Av. Tenente Coronel Muniz de Arag\u00e3o", "amenity": "pub", "name": "Emp\u00f3rio Santa Oliva"}}, {"type": "node", "id": 9661617114, "lat": -22.9184072, "lon": -43.2173941}, {"type": "node", "id": 9661637418, "lat": -22.918518, "lon": -43.2173419}, {"type": "node", "id": 9663357921, "lat": -22.9169031, "lon": -43.1952783}, {"type": "node", "id": 9663357922, "lat": -22.9168394, "lon": -43.1953065}, {"type": "node", "id": 9663357923, "lat": -22.9168488, "lon": -43.1954524}, {"type": "node", "id": 9663357924, "lat": -22.9169102, "lon": -43.1954473}, {"type": "node", "id": 9696103934, "lat": -22.9113036, "lon": -43.5336233, "tags": {"amenity": "pub", "name": "Bar do Jo\u00e3o"}}, {"type": "node", "id": 9893352061, "lat": -22.9261447, "lon": -43.576374, "tags": {"amenity": "pub", "microbrewery": "yes", "name": "Cervejaria Ravache"}}, {"type": "node", "id": 10115352083, "lat": -22.9170337, "lon": -43.1953234}, {"type": "node", "id": 10115352084, "lat": -22.9171133, "lon": -43.1953102}, {"type": "node", "id": 10115352085, "lat": -22.9170918, "lon": -43.1951333}, {"type": "node", "id": 10115352086, "lat": -22.9170122, "lon": -43.1951506}, {"type": "node", "id": 10118931324, "lat": -22.8558049, "lon": -43.2461009}, {"type": "node", "id": 10118931325, "lat": -22.8557953, "lon": -43.2459956}, {"type": "node", "id": 10118931326, "lat": -22.8558799, "lon": -43.2459843}, {"type": "node", "id": 10118931327, "lat": -22.8558885, "lon": -43.2460958}, {"type": "node", "id": 10280600723, "lat": -22.914559, "lon": -43.1820059, "tags": {"amenity": "pub", "name": "Bar da Nalva"}}, {"type": "node", "id": 10284483406, "lat": -22.9144266, "lon": -43.188459, "tags": {"amenity": "pub", "name": "Sucos Balas 1001"}}, {"type": "node", "id": 10284483407, "lat": -22.9143516, "lon": -43.1884331, "tags": {"addr:city": "Rio de Janeiro", "addr:housenumber": "22 - Loja D", "addr:street": "Rua Tadeu Kosciusko", "addr:suburb": "Centro", "amenity": "pub"}}, {"type": "node", "id": 10302255986, "lat": -22.9147043, "lon": -43.1882978, "tags": {"amenity": "pub"}}, {"type": "node", "id": 10568039790, "lat": -23.0012325, "lon": -43.3965375, "tags": {"addr:city": "Rio de Janeiro", "addr:housenumber": "8585", "addr:postcode": "22793-081", "addr:street": "Avenida das Am\u00e9ricas", "addr:suburb": "Barra da Tijuca", "amenity": "pub", "name": "Bar do Zeca Pagodinho", "opening_hours": "Mo-Th 18:00-00:00; Fr 12:00-02:00; Sa 12:00-03:00; Su 12:00-23:00"}}, {"type": "node", "id": 10726083938, "lat": -22.9104486, "lon": -43.186804, "tags": {"addr:city": "Rio de Janeiro", "addr:housenumber": "90", "addr:postcode": "20230-130", "addr:street": "Travessa D\u00eddimo", "addr:suburb": "Centro", "amenity": "pub", "name": "Maloka Espa\u00e7o Cultural", "opening_hours": "17:00 - 21:00"}}, {"type": "node", "id": 10726083949, "lat": -22.9136202, "lon": -43.1816089, "tags": {"addr:city": "Rio de Janeiro", "addr:housenumber": "206 Lj. C", "addr:postcode": "20230-070", "addr:street": "Rua do Lavradio", "addr:suburb": "Lapa", "amenity": "pub", "name": "Tribus Gastrobar"}}, {"type": "node", "id": 10751071380, "lat": -23.0011935, "lon": -43.3080074, "tags": {"amenity": "pub", "name": "Cai\u00e7ara"}}, {"type": "node", "id": 10788305775, "lat": -22.9138341, "lon": -43.182695, "tags": {"addr:city": "Rio de Janeiro", "addr:street": "Avenida Gomes Freire", "addr:suburb": "Lapa", "amenity": "pub", "name": "Rio Plaza"}}, {"type": "node", "id": 10799533769, "lat": -22.9184909, "lon": -43.2172777}, {"type": "node", "id": 10799533770, "lat": -22.9184362, "lon": -43.2173043}, {"type": "node", "id": 10799533771, "lat": -22.9184116, "lon": -43.2173228}, {"type": "node", "id": 10799533772, "lat": -22.9183984, "lon": -43.2173556}, {"type": "way", "id": 184291451, "nodes": [1947508106, 1947508111, 1947508112, 1947508109, 1947508106], "tags": {"amenity": "pub", "name": "Caverna do Bin Laden"}}, {"type": "way", "id": 184291453, "nodes": [1947508127, 1947508126, 1947508129, 1947508131, 1947508127], "tags": {"amenity": "pub", "building": "commercial", "name": "S\u00e3o Domdom"}}, {"type": "way", "id": 246639223, "nodes": [2536490844, 2536490845, 2536490846, 2536490847, 2536490844], "tags": {"addr:city": "Rio de Janeiro", "addr:street": "Rua Comandante Rubens Silva", "amenity": "pub", "building": "yes", "name": "Revolution Pub"}}, {"type": "way", "id": 246660000, "nodes": [2536683112, 2536683113, 2536683114, 2536683115, 2536683116, 2536683117, 2536683112], "tags": {"amenity": "pub", "building": "yes", "name": "Bar do Geg\u00ea"}}, {"type": "way", "id": 287749052, "nodes": [2913159249, 2913159250, 2913159251, 2913159252, 2913159249], "tags": {"amenity": "pub", "building": "yes", "name": "Via Music Hall", "website": "www.viashow.com.br/"}}, {"type": "way", "id": 394241607, "nodes": [3972583333, 3972583334, 3972583335, 3972583336, 3972583333], "tags": {"addr:city": "Rio de Janeiro", "addr:housenumber": "83", "addr:postcode": "22790-100", "addr:street": "Avenida Guilherme de Almeida", "addr:suburb": "Recreio dos Bandeirantes", "amenity": "pub", "building": "yes", "name": "Acervo"}}, {"type": "way", "id": 394243858, "nodes": [3972583334, 3972588502, 3972588506, 3972588507, 3972588503, 3972588504, 3972583334], "tags": {"amenity": "pub", "building": "yes", "name": "Espetto Carioca Lounge"}}, {"type": "way", "id": 430260215, "nodes": [4295306172, 771839344, 4295306453, 4295306608, 4295307028, 4295307053, 4295307045, 4295306634, 4295306164, 4295306172], "tags": {"addr:city": "Rio de Janeiro", "addr:housenumber": "112", "addr:street": "Rua Visconde de Piraj\u00e1", "addr:suburb": "Ipanema", "amenity": "pub", "building": "yes", "ele": "9.87", "height": "12.1", "name": "Shenanigan's"}}, {"type": "way", "id": 432802447, "nodes": [4317538905, 4317538935, 4317538963, 4317538984, 4317538782, 4317538757, 4317538905], "tags": {"addr:housenumber": "7", "addr:street": "Rua do Rezende", "amenity": "pub", "building": "yes", "ele": "8.37", "height": "11.76", "name": "Salgado do Fregu\u00eas", "top_ele": "20.13"}}, {"type": "way", "id": 432964050, "nodes": [4318893274, 4318893501, 1325763988, 4318893515, 4318885549, 4318893255, 4318893274], "tags": {"addr:city": "Rio de Janeiro", "addr:housenumber": "49", "addr:street": "Rua Mem de S\u00e1", "addr:suburb": "Lapa", "amenity": "pub", "building": "yes", "building:levels": "2", "ele": "8.37", "height": "9.45", "name": "Leviano Bar", "phone": "+55-21-25075967", "top_ele": "17.82", "website": "http://www.levianobar.com.br/"}}, {"type": "way", "id": 432964153, "nodes": [4318893415, 4318893299, 1198850364, 4318893338, 4318893349, 4318885555, 4318885569, 4318885572, 4318893415], "tags": {"addr:city": "Rio de Janeiro", "addr:housenumber": "45", "addr:street": "Avenida Mem de S\u00e1", "addr:suburb": "Lapa", "amenity": "pub", "building": "yes", "building:levels": "3", "ele": "8.37", "height": "12.75", "name": "Carlito's", "top_ele": "21.12"}}, {"type": "way", "id": 432970070, "nodes": [4318950634, 4318950650, 4318950889, 1198840531, 4318950592, 4318950086, 4318950634], "tags": {"addr:city": "Rio de Janeiro", "addr:housenumber": "141", "addr:street": "Rua Joaquim Silva", "addr:suburb": "Lapa", "amenity": "pub", "building": "yes", "ele": "13.8", "height": "4.67", "top_ele": "18.47"}}, {"type": "way", "id": 432970117, "nodes": [4318950955, 4318950962, 4318950685, 1198840534, 4318950948, 4318950916, 4318950904, 4318950955], "tags": {"addr:city": "Rio de Janeiro", "addr:housenumber": "135", "addr:street": "Rua Joaquim Silva", "addr:suburb": "Lapa", "amenity": "pub", "building": "yes", "ele": "14.44", "height": "3.23", "name": "Bar do Ant\u00f4nio", "top_ele": "17.67"}}, {"type": "way", "id": 432970319, "nodes": [4318950627, 4318950646, 4318950657, 4318950659, 4318950647, 4318950653, 4318950606, 4318950392, 4318897874, 4318950627], "tags": {"addr:city": "Rio de Janeiro", "addr:housenumber": "35", "addr:street": "Rua Riachuelo", "addr:suburb": "Lapa", "amenity": "pub", "building": "yes", "building:levels": "3", "ele": "9.37", "height": "11.21", "name": "Nosso Dep\u00f3sito", "top_ele": "20.58", "website": "https://www.instagram.com/nossodepositoo/"}}, {"type": "way", "id": 483072612, "nodes": [4758258327, 4758258328, 4758258329, 4758258330, 4758258331, 4758258327], "tags": {"amenity": "pub", "building": "yes", "name": "Bar do Tel\u00e3o"}}, {"type": "way", "id": 544427147, "nodes": [5262823903, 5262823904, 5262823905, 5262823906, 5262823907, 5262823908, 5262823909, 5262823903], "tags": {"addr:street": "Avenida Engenheiro Sousa Filho", "amenity": "pub", "building": "yes", "name": "Esta\u00e7\u00e3o Berlin", "smoking": "outside"}}, {"type": "way", "id": 548620014, "nodes": [5299952346, 5299952354, 5299952347, 5299952348, 5299952349, 5299952346], "tags": {"amenity": "pub", "building": "yes"}}, {"type": "way", "id": 548642348, "nodes": [5300182632, 5300182633, 5300182634, 5300182635, 5300182637, 5300182636, 5300182632], "tags": {"IPP:CodEdificio": "633549", "amenity": "pub", "building": "yes", "ele": "26.25", "height": "2.44", "source": "data.rio", "top_ele": "28.68999"}}, {"type": "way", "id": 548698475, "nodes": [5300691137, 5300691138, 5300691139, 5300691140, 5300691137], "tags": {"amenity": "pub", "building": "yes", "name": "Bar do Ari", "opening_hours": "08:00-22:00", "outdoor_seating": "yes"}}, {"type": "way", "id": 653779009, "nodes": [6126832627, 6126832628, 6126832629, 6126832630, 6126832631, 6126832632, 6126832633, 6126832615, 6126832616, 6126832619, 6126832620, 6126832621, 6126832622, 6126832623, 6126832624, 6126832625, 6126832626, 6126832617, 6126832618, 6126832627], "tags": {"amenity": "pub", "building": "yes"}}, {"type": "way", "id": 654362184, "nodes": [6131698518, 6131698519, 6131698520, 6131698521, 6131698522, 6131698518], "tags": {"amenity": "pub", "building": "yes"}}, {"type": "way", "id": 654362215, "nodes": [6131699126, 6131699127, 6131699128, 6131699129, 6131699130, 6131699131, 6131699132, 6131699133, 6131699126], "tags": {"amenity": "pub", "building": "yes"}}, {"type": "way", "id": 657995471, "nodes": [6162295343, 6162295344, 6162295342, 6162295341, 6162295340, 6162295339, 6162295343], "tags": {"IPP:CodEdificio": "614904", "amenity": "pub", "building": "yes", "ele": "39.37", "height": "7.21999", "name": "Cora\u00e7\u00e3o de M\u00e3e", "shop": "beverages", "source": "data.rio", "top_ele": "46.59"}}, {"type": "way", "id": 670295597, "nodes": [6160646912, 6160578214, 6160577167, 6160578302, 6160643107, 6160646912], "tags": {"amenity": "pub", "building": "yes", "name": "Meninas Lanches"}}, {"type": "way", "id": 681286680, "nodes": [6379880718, 6379880719, 6379880720, 6379880721, 6379880718], "tags": {"amenity": "pub", "building": "yes", "name": "Cantina"}}, {"type": "way", "id": 701976837, "nodes": [6592280246, 6592280247, 6592280248, 6592280249, 6592280246], "tags": {"addr:street": "Avenida Sargento Isanor de Campos", "amenity": "pub", "building": "garage", "smoking": "yes"}}, {"type": "way", "id": 729981503, "nodes": [6838321648, 6838321649, 6838321650, 6838321652, 6838321651, 6838321648], "tags": {"addr:city": "Rio de Janeiro", "addr:street": "Rua Ar\u00e1lia", "addr:suburb": "Curicica", "amenity": "pub", "building": "yes", "name": "Leilas Bar"}}, {"type": "way", "id": 729981510, "nodes": [6838321673, 6838321674, 6838321675, 6838321676, 6838321673], "tags": {"amenity": "pub", "building": "yes", "name": "Bar do Z\u00e9 Carlos"}}, {"type": "way", "id": 731240133, "nodes": [6849186139, 6849186140, 6849186144, 6849186143, 6849186141, 6849186142, 6849186139], "tags": {"amenity": "pub", "building": "yes", "drive_through": "no", "name": "Arena Park", "source": "survey"}}, {"type": "way", "id": 731240136, "nodes": [6849205594, 6849205595, 6853105062, 6853105063, 6853105061, 6849205596, 6853105060, 6853105059, 6853105058, 6849205597, 6849205594], "tags": {"amenity": "pub", "building": "yes", "name": "Bella Carioca"}}, {"type": "way", "id": 732249222, "nodes": [6856631827, 6856631828, 6856631829, 6856631830, 6856631831, 6856631832, 6856631833, 6856631834, 6856631827], "tags": {"amenity": "pub", "building": "yes", "name": "Estrela do Parque", "source": "survey"}}, {"type": "way", "id": 732508038, "nodes": [6859383585, 6859383586, 6859383587, 6859383588, 6859383585], "tags": {"amenity": "pub", "building": "yes", "name": "Quiosque da Boa", "source": "survey"}}, {"type": "way", "id": 732508039, "nodes": [6859383589, 6859383592, 6859383591, 6859383590, 6859383589], "tags": {"amenity": "pub", "building": "yes", "name": "Doggis", "source": "survey"}}, {"type": "way", "id": 733446282, "nodes": [6868730214, 6868730215, 6868730216, 6868730217, 6868730218, 6868730219, 6868730214], "tags": {"amenity": "pub", "building": "yes", "name": "Toca do Sabor"}}, {"type": "way", "id": 733446308, "nodes": [6868731147, 6868731148, 6868731149, 6868731150, 6868731151, 6868731152, 6868731147], "tags": {"amenity": "pub", "building": "yes", "name": "Samba de Raiz", "source": "survey"}}, {"type": "way", "id": 733446309, "nodes": [6868731154, 6868731155, 6868731156, 6868731157, 6868731154], "tags": {"amenity": "pub", "building": "yes", "name": "Blumenau Grill", "source": "survey"}}, {"type": "way", "id": 733446310, "nodes": [6868731158, 6868731159, 6868731160, 6868731162, 6868731163, 6868731164, 6868731165, 6868731161, 6868731158], "tags": {"amenity": "pub", "building": "yes", "name": "B Express", "source": "survey"}}, {"type": "way", "id": 735391200, "nodes": [6887817940, 6887817941, 6887817942, 6887817943, 6887817940], "tags": {"amenity": "pub", "building": "yes", "name": "Tito's Bar"}}, {"type": "way", "id": 735391201, "nodes": [6887817941, 6887817944, 6887817945, 6887817942, 6887817941], "tags": {"amenity": "pub", "building": "yes", "name": "Costello"}}, {"type": "way", "id": 735391204, "nodes": [6887817957, 6887817958, 6887817959, 6887817960, 6887817957], "tags": {"amenity": "pub", "building": "yes"}}, {"type": "way", "id": 735391205, "nodes": [6887817958, 6887817961, 6887817962, 6887817959, 6887817958], "tags": {"amenity": "pub", "building": "yes"}}, {"type": "way", "id": 735391233, "nodes": [6887824852, 6887824853, 6887824854, 6887824855, 6887824852], "tags": {"amenity": "pub", "building": "yes"}}, {"type": "way", "id": 735391234, "nodes": [6887824853, 6887824856, 6887824857, 6887824854, 6887824853], "tags": {"amenity": "pub", "building": "yes"}}, {"type": "way", "id": 735395323, "nodes": [6887877797, 6887877798, 6887877799, 6887877800, 6887877797], "tags": {"amenity": "pub", "building": "yes"}}, {"type": "way", "id": 735395324, "nodes": [6887877798, 6887877801, 6887877802, 6887877799, 6887877798], "tags": {"amenity": "pub", "building": "yes"}}, {"type": "way", "id": 800131040, "nodes": [7482976949, 7482976950, 7482976951, 7482976952, 7482976949], "tags": {"addr:city": "Rio de Janeiro", "addr:housenumber": "42", "addr:postcode": "20785-293", "addr:street": "Rua S\u00e3o Gabriel", "addr:suburb": "Cachambi", "amenity": "pub", "building": "yes", "building:levels": "1", "name": "Pagode da Tia Gessy"}}, {"type": "way", "id": 807577349, "nodes": [7552001423, 7552001424, 7552001425, 7552001426, 7552001423], "tags": {"addr:city": "Rio de Janeiro", "addr:housenumber": "253 B", "addr:postcode": "20775181", "addr:street": "Rua Cachambi", "addr:suburb": "Cachambi", "amenity": "pub", "building": "commercial", "name": "Folia de Boi", "phone": "+55 (21) 3689-1613"}}, {"type": "way", "id": 866645423, "nodes": [8077931029, 8077931028, 6739673407, 6739673406, 6739673405, 6739673404, 6739673403, 8077931029], "tags": {"addr:city": "Rio de Janeiro", "addr:suburb": "Laranjeiras", "amenity": "pub", "brewery": "yes", "building": "yes", "name": "Sonho Lindo"}}, {"type": "way", "id": 866646894, "nodes": [8077932850, 8077932851, 8077932852, 345971914, 8077932850], "tags": {"addr:city": "Rio de Janeiro", "addr:housenumber": "335A", "addr:postcode": "22240-004", "addr:street": "Rua das Laranjeiras", "addr:suburb": "Laranjeiras", "amenity": "pub", "brewery": "yes", "name": "Sonho Lindo"}}, {"type": "way", "id": 882950787, "nodes": [8211070702, 8211070701, 8211070700, 8211070699, 8211070698, 8211070697, 8211070696, 8211070687, 8211070686, 8211070685, 8211070684, 8211070683, 8211070682, 8211070681, 8211070715, 8211070707, 8211070708, 8211070709, 8211070704, 8211070705, 8211070702], "tags": {"amenity": "pub", "building": "yes", "ele": "31.11", "height": "3.19", "layer": "1"}}, {"type": "way", "id": 920188562, "nodes": [8544632879, 8544632878, 8544632877, 8544632876, 8544632875, 8544632874, 8544632873, 8544632872, 8544632871, 8544632870, 8544632869, 8544632868, 8544632867, 8544632866, 8544632865, 8544632864, 8544632863, 8544632879], "tags": {"amenity": "pub", "building": "yes", "ele": "12.37", "height": "10.97", "layer": "1", "name": "Lim\u00e3o com Mel"}}, {"type": "way", "id": 991828373, "nodes": [9163839460, 9163839461, 9163838900, 9163838899, 9163838898, 1972375750, 9163839460], "tags": {"IPP:CodEdificio": "1577010", "amenity": "pub", "building": "yes", "ele": "8.41", "height": "9.26", "name": "Palmira"}}, {"type": "way", "id": 997751455, "nodes": [1185559958, 9212588113, 9212588114, 9212587438, 9212587437, 9212587436, 9212587435, 9212587434, 9212587433, 9212587432, 9212587431, 9212587430, 1185559958], "tags": {"IPP:CodEdificio": "1570241", "addr:city": "Rio de Janeiro", "addr:housenumber": "374", "addr:street": "Rua Muniz Barreto", "addr:suburb": "Botafogo", "amenity": "pub", "building": "yes", "ele": "2.88", "height": "3.52", "name": "Big Ben", "phone": "+55-21-22868120", "source": "data.rio;survey", "website": "https://bigbenpub.com.br/"}}, {"type": "way", "id": 998441318, "nodes": [9218892136, 9218892137, 814311550, 9218891022, 9218892442, 9218892441, 9218892440, 9218892439, 9218892438, 9218892437, 9218892436, 9218893215, 9218893216, 9218892136], "tags": {"IPP:CodEdificio": "1570361", "addr:city": "Rio de Janeiro", "addr:housenumber": "8", "addr:street": "Rua Farani", "addr:suburb": "Botafogo", "amenity": "pub", "building": "yes", "ele": "2.41", "height": "4.49", "name": "Casa da Sogra", "source": "data.rio"}}, {"type": "way", "id": 998482059, "nodes": [557557663, 9219252493, 9219252492, 9219253210, 9219254803, 9219254802, 9219254801, 9219254800, 557557663], "tags": {"IPP:CodEdificio": "1578373", "addr:city": "Rio de Janeiro", "addr:housenumber": "45;123", "addr:street": "Rua Capit\u00e3o Salom\u00e3o;Rua Visconde de Caravelas", "addr:suburb": "Botafogo", "amenity": "pub", "building": "yes", "ele": "6.01", "height": "4.27", "name": "Cumpadres", "source": "data.rio;survey"}}, {"type": "way", "id": 1046306534, "nodes": [9622042600, 9622042601, 9622042602, 9622042603, 6407760139, 9622042604, 9622042600], "tags": {"addr:city": "Rio de Janeiro", "addr:postcode": "22220-001", "addr:street": "Rua do Catete", "addr:suburb": "Catete", "amenity": "pub", "building": "yes", "name": "Gambino"}}, {"type": "way", "id": 1051537745, "nodes": [9663357921, 9663357922, 9663357923, 9663357924, 9663357921], "tags": {"amenity": "pub", "building": "yes"}}, {"type": "way", "id": 1105383385, "nodes": [10115352083, 10115352084, 10115352085, 10115352086, 10115352083], "tags": {"amenity": "pub", "building": "yes"}}, {"type": "way", "id": 1105809981, "nodes": [10118931324, 10118931325, 10118931326, 10118931327, 10118931324], "tags": {"amenity": "pub", "building": "yes"}}, {"type": "way", "id": 1161118906, "nodes": [9661617114, 9661637418, 10799533769, 10799533770, 10799533771, 10799533772, 9661617114], "tags": {"addr:city": "Rio de Janeiro", "addr:street": "Rua Doutor Satamini", "addr:suburb": "Tijuca", "amenity": "pub", "building": "yes", "name": "Conversa Fora - Na Brasa"}}]}