{"version": 0.6, "generator": "Overpass API 0.7.60 f4c14d41", "osm3s": {"timestamp_osm_base": "2023-05-02T21:15:23Z", "copyright": "The data included in this document is from www.openstreetmap.org. The data is made available under ODbL."}, "elements": [{"type": "node", "id": 259215759, "lat": 41.9293735, "lon": 12.5157413, "tags": {"amenity": "bank", "created_by": "Potlatch 0.8a", "name": "Banca del Fucino"}}, {"type": "node", "id": 259215846, "lat": 41.9294977, "lon": 12.516173, "tags": {"addr:city": "Roma", "addr:postcode": "00199", "addr:street": "Piazza Santa Emerenziana", "amenity": "bank", "atm": "yes", "drive_through": "no", "name": "Banca Sella", "opening_hours": "Mo-Fr 09:00-17:00", "operator": "Banca Sella"}}, {"type": "node", "id": 259216183, "lat": 41.9245235, "lon": 12.5155771, "tags": {"addr:housenumber": "9", "addr:street": "Piazza Annibaliano", "amenity": "bank", "atm": "yes", "name": "UniCredit"}}, {"type": "node", "id": 259216272, "lat": 41.9288818, "lon": 12.5163078, "tags": {"amenity": "bank", "created_by": "Potlatch 0.8a", "name": "BNL"}}, {"type": "node", "id": 290070311, "lat": 41.776998, "lon": 12.3407742, "tags": {"amenity": "bank", "atm": "yes", "name": "Banca di Roma"}}, {"type": "node", "id": 317818189, "lat": 41.8020147, "lon": 12.600106, "tags": {"amenity": "bank", "atm": "yes", "name": "Banca Popolare Di Milano"}}, {"type": "node", "id": 330481044, "lat": 41.876816, "lon": 12.5293701, "tags": {"addr:city": "Roma", "addr:country": "IT", "addr:housenumber": "3", "addr:postcode": "00181", "addr:street": "Via Norcia", "amenity": "bank", "brand": "UBI Banca", "brand:wikidata": "Q1476162", "brand:wikipedia": "en:UBI Banca", "name": "UBI Banca"}}, {"type": "node", "id": 331615135, "lat": 41.9465616, "lon": 12.4669335, "tags": {"amenity": "bank"}}, {"type": "node", "id": 331618993, "lat": 41.9394516, "lon": 12.4659612, "tags": {"amenity": "bank", "created_by": "Potlatch 0.10f"}}, {"type": "node", "id": 413506166, "lat": 41.9229809, "lon": 12.4936958, "tags": {"amenity": "bank", "atm": "yes", "name": "Deutsche Bank"}}, {"type": "node", "id": 415500627, "lat": 41.8811195, "lon": 12.4838479, "tags": {"amenity": "bank", "atm": "yes", "brand": "BNL", "brand:wikidata": "Q2201225", "name": "BNL", "official_name": "Banca Nazionale del Lavoro"}}, {"type": "node", "id": 430540299, "lat": 41.8706379, "lon": 12.5364476}, {"type": "node", "id": 430540300, "lat": 41.8710848, "lon": 12.537241}, {"type": "node", "id": 430540301, "lat": 41.8715005, "lon": 12.5355466}, {"type": "node", "id": 430540302, "lat": 41.8719591, "lon": 12.5363371}, {"type": "node", "id": 430540303, "lat": 41.8713445, "lon": 12.5360603}, {"type": "node", "id": 430540304, "lat": 41.8715511, "lon": 12.5364153}, {"type": "node", "id": 430540305, "lat": 41.8714658, "lon": 12.535933}, {"type": "node", "id": 430540306, "lat": 41.8716724, "lon": 12.536288}, {"type": "node", "id": 538995411, "lat": 41.9320563, "lon": 12.4660376, "tags": {"amenity": "bank", "atm": "yes", "operator": "Banca Popolare di Lodi"}}, {"type": "node", "id": 538995417, "lat": 41.9328365, "lon": 12.4671471, "tags": {"addr:city": "Roma", "addr:housenumber": "5", "addr:postcode": "00196", "addr:street": "Viale Pinturicchio", "amenity": "bank", "atm": "yes", "brand": "Monte dei Paschi di Siena", "brand:wikidata": "Q46730", "brand:wikipedia": "en:Banca Monte dei Paschi di Siena", "name": "Monte dei Paschi di Siena", "operator": "Monte dei Paschi di Siena"}}, {"type": "node", "id": 539002726, "lat": 41.9318779, "lon": 12.4675214, "tags": {"addr:city": "Roma", "addr:housenumber": "413/a", "addr:postcode": "00196", "addr:street": "Via Flaminia", "amenity": "bank", "atm": "yes", "name": "Banca Assicurazione", "operator": "Veneto Banca"}}, {"type": "node", "id": 583260023, "lat": 41.9094826, "lon": 12.4518507, "tags": {"amenity": "bank", "atm": "yes", "name": "UniCredit"}}, {"type": "node", "id": 611670269, "lat": 41.9025809, "lon": 12.4617029, "tags": {"addr:housenumber": "22", "addr:street": "Via della Conciliazione", "amenity": "bank", "description": "Public Agency of Lazio Region", "name": "Filas S.p.A.", "website": "http://www.filas.it"}}, {"type": "node", "id": 614404568, "lat": 41.928121, "lon": 12.4866858, "tags": {"amenity": "bank", "name": "Monte Paschi Di Siena"}}, {"type": "node", "id": 614407002, "lat": 41.9283412, "lon": 12.4865925, "tags": {"amenity": "bank", "name": "Fideuram"}}, {"type": "node", "id": 614407038, "lat": 41.9287359, "lon": 12.4863454, "tags": {"amenity": "bank", "name": "UniCredit"}}, {"type": "node", "id": 620003237, "lat": 41.8029555, "lon": 12.5998154, "tags": {"amenity": "bank", "atm": "yes", "name": "Uni Credit"}}, {"type": "node", "id": 624694306, "lat": 41.9108768, "lon": 12.4453792, "tags": {"amenity": "bank", "atm": "yes", "brand": "Banca Popolare di Milano", "brand:en": "Popular Bank of Milan", "brand:it": "Banca Popolare di Milano", "brand:wikidata": "Q806154", "brand:wikipedia": "en:Banca Popolare di Milano", "name": "Banca Popolare di Milano", "name:en": "Popular Bank of Milan", "name:it": "Banca Popolare di Milano"}}, {"type": "node", "id": 767202663, "lat": 41.9156374, "lon": 12.4529491, "tags": {"amenity": "bank", "atm": "yes", "brand": "BNL", "brand:wikidata": "Q2201225", "brand:wikipedia": "it:Banca Nazionale del Lavoro", "name": "BNL", "official_name": "Banca Nazionale del Lavoro"}}, {"type": "node", "id": 768430501, "lat": 41.8131596, "lon": 12.6107083, "tags": {"amenity": "bank", "atm": "yes"}}, {"type": "node", "id": 889532290, "lat": 41.7701805, "lon": 12.6663906, "tags": {"amenity": "bank", "atm": "yes", "name": "Banca di Roma", "operator": "Banca di Roma"}}, {"type": "node", "id": 889551278, "lat": 41.7703757, "lon": 12.6596, "tags": {"addr:housenumber": "49", "addr:street": "Via Giuseppe Garibaldi", "amenity": "bank", "atm": "yes", "name": "BCC San Barnaba di Marino", "operator": "BCC", "phone": "+39 06 933991"}}, {"type": "node", "id": 889551283, "lat": 41.7692465, "lon": 12.6632385, "tags": {"amenity": "bank", "atm": "yes", "name": "Banca Popolare di Ancona", "operator": "Banca Popolare di Ancona"}}, {"type": "node", "id": 907077373, "lat": 41.7826415, "lon": 12.6823619, "tags": {"amenity": "bank", "atm": "yes", "name": "BNL"}}, {"type": "node", "id": 929045341, "lat": 41.8618853, "lon": 12.5650275, "tags": {"addr:city": "Roma", "addr:country": "IT", "addr:housenumber": "92", "addr:postcode": "00175", "addr:street": "Via Calpurnio Pisone", "amenity": "bank", "atm": "yes", "brand": "BNL", "brand:wikidata": "Q2201225", "brand:wikipedia": "it:Banca Nazionale del Lavoro", "name": "BNL", "official_name": "Banca Nazionale del Lavoro", "official_name:en": "National Labor Bank", "official_name:it": "Banca Nazionale del Lavoro"}}, {"type": "node", "id": 959980651, "lat": 41.9460207, "lon": 12.5656833}, {"type": "node", "id": 959980664, "lat": 41.9460302, "lon": 12.5652432}, {"type": "node", "id": 959980687, "lat": 41.9458858, "lon": 12.5653482}, {"type": "node", "id": 959980698, "lat": 41.946165, "lon": 12.5655782}, {"type": "node", "id": 977675772, "lat": 41.8193601, "lon": 12.4590671, "tags": {"amenity": "bank", "atm": "yes", "brand": "Monte dei Paschi di Siena", "brand:wikidata": "Q46730", "brand:wikipedia": "en:Banca Monte dei Paschi di Siena", "name": "Monte dei Paschi di Siena", "opening_hours": "Mo-Su 10:00-21:00", "operator": "Monte dei Paschi di Siena", "phone": "+39 06 592 5165", "wheelchair": "yes"}}, {"type": "node", "id": 1009265224, "lat": 41.9141153, "lon": 12.4433465, "tags": {"amenity": "bank", "atm": "yes", "brand": "Intesa Sanpaolo", "brand:wikidata": "Q1343118", "name": "Intesa Sanpaolo"}}, {"type": "node", "id": 1059658526, "lat": 41.9348527, "lon": 12.5320387, "tags": {"amenity": "bank", "brand": "UniCredit Bank", "brand:wikidata": "Q45568", "brand:wikipedia": "en:UniCredit", "name": "UniCredit Bank", "name:it": "UniCredit", "operator": "Unicredit Banca di Roma"}}, {"type": "node", "id": 1154167786, "lat": 41.8068217, "lon": 12.6002175, "tags": {"amenity": "bank", "atm": "yes", "name": "BNP Paribas"}}, {"type": "node", "id": 1166999742, "lat": 41.8916031, "lon": 12.5033379, "tags": {"amenity": "bank", "atm": "yes", "operator": "Banca Popolare di Novara"}}, {"type": "node", "id": 1199851680, "lat": 41.872762, "lon": 12.4487109, "tags": {"amenity": "bank", "atm": "yes", "operator": "Intesa san Paolo", "source": "PCN"}}, {"type": "node", "id": 1222991198, "lat": 41.9363408, "lon": 12.4215096, "tags": {"amenity": "bank", "atm": "yes"}}, {"type": "node", "id": 1229579654, "lat": 41.7972696, "lon": 12.6079475, "tags": {"amenity": "bank", "name": "San Paolo"}}, {"type": "node", "id": 1229579682, "lat": 41.7967111, "lon": 12.6084541, "tags": {"amenity": "bank", "name": "MPS", "wheelchair": "yes"}}, {"type": "node", "id": 1264870175, "lat": 41.9038612, "lon": 12.5174259, "tags": {"amenity": "bank", "atm": "yes", "brand": "UniCredit Bank", "brand:wikidata": "Q45568", "brand:wikipedia": "en:UniCredit", "name": "UniCredit Bank"}}, {"type": "node", "id": 1270745525, "lat": 41.8764634, "lon": 12.5202322, "tags": {"amenity": "bank", "brand": "Intesa Sanpaolo", "brand:wikidata": "Q1343118", "brand:wikipedia": "it:Intesa Sanpaolo", "name": "Intesa Sanpaolo"}}, {"type": "node", "id": 1271631041, "lat": 41.8770518, "lon": 12.5205173, "tags": {"addr:city": "Roma", "addr:housenumber": "3", "addr:postcode": "00181", "addr:street": "Piazza dell'Alberone", "amenity": "bank", "atm": "yes", "brand": "Monte dei Paschi di Siena", "brand:wikidata": "Q46730", "brand:wikipedia": "en:Banca Monte dei Paschi di Siena", "name": "Monte dei Paschi di Siena"}}, {"type": "node", "id": 1278409958, "lat": 41.9038494, "lon": 12.4567739, "tags": {"amenity": "bank", "name": "Banca Vaticana", "name:de": "Vatikanbank", "name:en": "Vatican Bank", "name:it": "Banca Vaticana", "official_name": "Istituto per le Opere di Religione", "official_name:de": "Institut f\u00fcr die religi\u00f6sen Werke", "official_name:en": "Institute for Works of Religion", "official_name:it": "Istituto per le Opere di Religione", "short_name": "IOR", "wikidata": "Q266456", "wikipedia": "it:Istituto per le Opere di Religione"}}, {"type": "node", "id": 1282219535, "lat": 41.8733508, "lon": 12.5139629, "tags": {"amenity": "bank", "name": "BNL"}}, {"type": "node", "id": 1287012003, "lat": 41.8712868, "lon": 12.5357669}, {"type": "node", "id": 1287012791, "lat": 41.8716059, "lon": 12.5367052}, {"type": "node", "id": 1287013209, "lat": 41.8713115, "lon": 12.5357417}, {"type": "node", "id": 1287013260, "lat": 41.8710606, "lon": 12.5371993}, {"type": "node", "id": 1287013927, "lat": 41.8707292, "lon": 12.5366091}, {"type": "node", "id": 1287014375, "lat": 41.8712653, "lon": 12.5357877}, {"type": "node", "id": 1288809862, "lat": 41.8738941, "lon": 12.6292326, "tags": {"amenity": "bank", "wheelchair": "yes"}}, {"type": "node", "id": 1308364661, "lat": 41.8751568, "lon": 12.5227993, "tags": {"addr:city": "Roma", "addr:country": "IT", "addr:housenumber": "365", "addr:postcode": "00181", "addr:street": "Via Appia Nuova", "amenity": "bank", "brand": "Banco di Sicilia", "brand:wikidata": "Q3633842", "brand:wikipedia": "it:Banco di Sicilia", "name": "Banco di Sicilia"}}, {"type": "node", "id": 1312442935, "lat": 41.874206, "lon": 12.5189639, "tags": {"addr:housenumber": "13", "addr:street": "Piazza Scipione Ammirato", "amenity": "bank", "atm": "yes", "brand": "Barclays", "brand:wikidata": "Q245343", "brand:wikipedia": "en:Barclays", "email": "roma.piazzascipioneammirato@barclays.it", "fax": "+39 06 98941810", "name": "Barclays", "phone": "+39 06 98941801"}}, {"type": "node", "id": 1313194846, "lat": 41.8169733, "lon": 12.4897566, "tags": {"amenity": "bank"}}, {"type": "node", "id": 1345260710, "lat": 41.6719298, "lon": 12.495628, "tags": {"amenity": "bank", "name": "Banca Popolare di Aprilla"}}, {"type": "node", "id": 1345260712, "lat": 41.6733232, "lon": 12.4968762, "tags": {"amenity": "bank", "brand": "Banca Popolare di Milano", "brand:en": "Popular Bank of Milan", "brand:it": "Banca Popolare di Milano", "brand:wikidata": "Q806154", "brand:wikipedia": "en:Banca Popolare di Milano", "name": "Banca Popolare di Milano", "name:en": "Popular Bank of Milan", "name:it": "Banca Popolare di Milano"}}, {"type": "node", "id": 1345260737, "lat": 41.674534, "lon": 12.4978172, "tags": {"amenity": "bank", "brand": "UniCredit Bank", "brand:wikidata": "Q45568", "brand:wikipedia": "en:UniCredit", "name": "UniCredit Bank", "name:it": "UniCredit"}}, {"type": "node", "id": 1393834479, "lat": 41.9083942, "lon": 12.5348817, "tags": {"addr:city": "Roma", "addr:country": "IT", "addr:housenumber": "335", "addr:street": "Via Tiburtina", "amenity": "bank", "atm": "yes", "brand": "Intesa Sanpaolo", "brand:wikidata": "Q1343118", "brand:wikipedia": "it:Intesa Sanpaolo", "name": "Intesa Sanpaolo", "operator": "Intesa Sanpaolo S.p.A."}}, {"type": "node", "id": 1441098699, "lat": 41.8969829, "lon": 12.4780007, "tags": {"addr:housenumber": "32", "addr:street": "Via della Pigna", "amenity": "bank", "brand": "Monte dei Paschi di Siena", "brand:wikidata": "Q46730", "brand:wikipedia": "en:Banca Monte dei Paschi di Siena", "name": "Monte dei Paschi di Siena"}}, {"type": "node", "id": 1447439106, "lat": 41.9231923, "lon": 12.4390518, "tags": {"amenity": "bank", "brand": "Cr\u00e9dit Agricole", "brand:wikidata": "Q590952", "name": "Cr\u00e9dit Agricole"}}, {"type": "node", "id": 1455329296, "lat": 41.9192886, "lon": 12.4411712, "tags": {"amenity": "bank"}}, {"type": "node", "id": 1507318181, "lat": 41.9106232, "lon": 12.6532248, "tags": {"addr:city": "Roma", "addr:country": "IT", "addr:housenumber": "325", "addr:postcode": "00132", "addr:street": "Viale Francesco Caltagirone", "amenity": "bank", "brand": "BCC Roma", "brand:wikidata": "Q25060394", "brand:wikipedia": "en:Banca di Credito Cooperativo di Roma", "name": "BCC Roma - Agenzia 142", "official_name": "Banca di Credito Cooperativo di Roma"}}, {"type": "node", "id": 1507331789, "lat": 41.9110969, "lon": 12.6528632, "tags": {"amenity": "bank", "brand": "BNL", "brand:wikidata": "Q2201225", "brand:wikipedia": "it:Banca Nazionale del Lavoro", "name": "BNL", "official_name": "Banca Nazionale del Lavoro"}}, {"type": "node", "id": 1511869380, "lat": 41.9204216, "lon": 12.4421694, "tags": {"amenity": "bank", "brand": "Monte dei Paschi di Siena", "brand:wikidata": "Q46730", "name": "Monte dei Paschi di Siena"}}, {"type": "node", "id": 1514388584, "lat": 42.0091668, "lon": 12.3775658, "tags": {"amenity": "bank", "atm": "yes", "name": "Banca Popolare Di Spoleto"}}, {"type": "node", "id": 1514416112, "lat": 42.0126415, "lon": 12.3768818, "tags": {"amenity": "bank", "atm": "yes", "name": "BNL"}}, {"type": "node", "id": 1542670514, "lat": 41.8670279, "lon": 12.4682037, "tags": {"amenity": "bank", "atm": "yes", "brand": "Deutsche Bank", "name": "Deutsche Bank", "operator": "Deutsche Bank S.p.a.", "wheelchair": "yes"}}, {"type": "node", "id": 1548469105, "lat": 41.8170162, "lon": 12.3437699, "tags": {"addr:housenumber": "1497", "amenity": "bank", "atm": "yes", "name": "Banca di Credito Cooperativo di Roma", "ref": "Agenzia 116"}}, {"type": "node", "id": 1559426329, "lat": 41.9135173, "lon": 12.4394571, "tags": {"addr:city": "Roma", "addr:country": "IT", "addr:housenumber": "20", "addr:street": "Via Appiano", "amenity": "bank", "atm": "yes", "name": "Credito Bergamasco Punto 24", "operator": "Credito Bergamasco - Roma Appiano"}}, {"type": "node", "id": 1591576777, "lat": 41.8555257, "lon": 12.4501635, "tags": {"amenity": "bank", "name": "BPM"}}, {"type": "node", "id": 1591576790, "lat": 41.858746, "lon": 12.4493668, "tags": {"amenity": "bank", "name": "Intesa San Paolo"}}, {"type": "node", "id": 1603294775, "lat": 41.7308579, "lon": 12.6570196, "tags": {"amenity": "bank", "atm": "yes"}}, {"type": "node", "id": 1603795114, "lat": 41.9343912, "lon": 12.5309569, "tags": {"amenity": "bank"}}, {"type": "node", "id": 1603796649, "lat": 41.9366102, "lon": 12.5340359, "tags": {"amenity": "bank"}}, {"type": "node", "id": 1634712849, "lat": 41.941317, "lon": 12.5754508, "tags": {"addr:city": "Roma", "addr:country": "IT", "addr:housenumber": "22", "addr:postcode": "00156", "addr:street": "Via Pollenza", "amenity": "bank", "atm": "yes", "name": "filiale 327", "opening_hours": "Mo-Fr 08:30-13:30,14:45-15:45", "operator": "Banca Popolare di Milano"}}, {"type": "node", "id": 1641654263, "lat": 41.9304547, "lon": 12.5180012, "tags": {"amenity": "bank", "name": "UniCredit"}}, {"type": "node", "id": 1641654437, "lat": 41.9299698, "lon": 12.5184411, "tags": {"amenity": "bank", "atm": "yes", "name": "Banca Popolare Novara ag.6"}}, {"type": "node", "id": 1645060183, "lat": 41.6965075, "lon": 12.5909443, "tags": {"amenity": "bank", "atm": "yes", "name": "Bcc dei Castelli Romani", "not:brand:wikidata": "Q25060394"}}, {"type": "node", "id": 1654329249, "lat": 41.8623789, "lon": 12.4672141, "tags": {"addr:street": "Via Vincenzo Brunacci", "amenity": "bank", "atm": "yes", "name": "BNL"}}, {"type": "node", "id": 1657300710, "lat": 41.7253789, "lon": 12.6129945}, {"type": "node", "id": 1657300714, "lat": 41.7253997, "lon": 12.6132346}, {"type": "node", "id": 1657300741, "lat": 41.725512, "lon": 12.6129738}, {"type": "node", "id": 1657300745, "lat": 41.7255328, "lon": 12.613214}, {"type": "node", "id": 1694608127, "lat": 41.7875702, "lon": 12.5196523, "tags": {"amenity": "bank", "atm": "yes"}}, {"type": "node", "id": 1694664151, "lat": 41.8214258, "lon": 12.5186466, "tags": {"amenity": "bank"}}, {"type": "node", "id": 1714581403, "lat": 41.8397752, "lon": 12.5520038, "tags": {"amenity": "bank", "atm": "yes", "name": "BPM Banca Popolare di Milano"}}, {"type": "node", "id": 1714925944, "lat": 41.843736, "lon": 12.5511049, "tags": {"amenity": "bank", "atm": "yes", "name": "Unicredit Banca"}}, {"type": "node", "id": 1719296530, "lat": 41.8960587, "lon": 12.4762232, "tags": {"amenity": "bank", "atm": "yes", "brand": "Deutsche Bank", "brand:wikidata": "Q66048", "brand:wikipedia": "en:Deutsche Bank", "name": "Deutsche Bank", "operator": "Deutsche Bank", "operator:wikidata": "Q66048", "operator:wikipedia": "en:Deutsche Bank"}}, {"type": "node", "id": 1720353240, "lat": 41.9366426, "lon": 12.4370917, "tags": {"amenity": "bank", "name": "Banca Toscana"}}, {"type": "node", "id": 1720353242, "lat": 41.9345874, "lon": 12.4393984, "tags": {"amenity": "bank", "atm": "yes", "name": "Banca Intesa"}}, {"type": "node", "id": 1720359834, "lat": 41.9341554, "lon": 12.4407865, "tags": {"amenity": "bank", "atm": "yes"}}, {"type": "node", "id": 1720371081, "lat": 41.9345291, "lon": 12.4434452, "tags": {"amenity": "bank", "name": "Credito Artigiano"}}, {"type": "node", "id": 1722151902, "lat": 41.9069303, "lon": 12.4615204, "tags": {"amenity": "bank", "atm": "yes", "name": "Monti dei Paschi di Siena", "website": "https://www.mps.it/", "wheelchair": "no"}}, {"type": "node", "id": 1754696350, "lat": 41.9415894, "lon": 12.6476335, "tags": {"amenity": "bank"}}, {"type": "node", "id": 1754696351, "lat": 41.9430788, "lon": 12.649731, "tags": {"amenity": "bank"}}, {"type": "node", "id": 1772631068, "lat": 41.9645524, "lon": 12.5153732, "tags": {"addr:city": "Roma", "addr:housenumber": "54", "addr:postcode": "00139", "addr:street": "Viale Lina Cavalieri", "amenity": "bank", "atm": "yes", "brand": "BNL", "brand:wikidata": "Q2201225", "brand:wikipedia": "en:Banca Nazionale del Lavoro", "name": "BNL", "official_name": "Banca Nazionale del Lavoro", "official_name:en": "National Labor Bank", "official_name:it": "Banca Nazionale del Lavoro"}}, {"type": "node", "id": 1772631069, "lat": 41.9646296, "lon": 12.5154337, "tags": {"addr:city": "Roma", "addr:housenumber": "236", "addr:postcode": "00139", "addr:street": "Viale Lina Cavalieri", "amenity": "bank", "atm": "yes", "brand": "Intesa Sanpaolo", "brand:wikidata": "Q1343118", "brand:wikipedia": "it:Intesa Sanpaolo", "name": "Intesa Sanpaolo"}}, {"type": "node", "id": 1772632573, "lat": 41.9653036, "lon": 12.5192772, "tags": {"amenity": "bank", "atm": "yes", "brand": "Monte dei Paschi di Siena", "brand:wikidata": "Q46730", "name": "Monte dei Paschi di Siena"}}, {"type": "node", "id": 1786103874, "lat": 41.8787146, "lon": 12.4788594, "tags": {"amenity": "bank", "name": "Deutsche Bank", "operator": "Deutsche Bank S.p.A."}}, {"type": "node", "id": 1798859017, "lat": 41.8732407, "lon": 12.5251329, "tags": {"addr:city": "Roma", "addr:housenumber": "447", "addr:postcode": "00181", "addr:street": "Via Appia Nuova", "amenity": "bank", "brand": "Banca Popolare di Milano", "brand:en": "Popular Bank of Milan", "brand:it": "Banca Popolare di Milano", "brand:wikidata": "Q806154", "brand:wikipedia": "en:Banca Popolare di Milano", "name": "Banca Popolare di Milano", "name:en": "Popular Bank of Milan", "name:it": "Banca Popolare di Milano", "phone": "+39 06 7840311"}}, {"type": "node", "id": 1855240835, "lat": 41.7253532, "lon": 12.6133272}, {"type": "node", "id": 1855240850, "lat": 41.7249752, "lon": 12.613104}, {"type": "node", "id": 1855240887, "lat": 41.7250108, "lon": 12.6133916}, {"type": "node", "id": 1855240888, "lat": 41.7253732, "lon": 12.6132628}, {"type": "node", "id": 1855240898, "lat": 41.7253496, "lon": 12.6130665}, {"type": "node", "id": 1855240904, "lat": 41.7253415, "lon": 12.6132784}, {"type": "node", "id": 1878039425, "lat": 41.8312482, "lon": 12.4639893, "tags": {"amenity": "bank", "atm": "yes", "name": "UGF Banca"}}, {"type": "node", "id": 1880658304, "lat": 41.9026085, "lon": 12.4853015, "tags": {"addr:city": "Roma", "addr:housenumber": "161", "addr:postcode": "00187", "addr:street": "Largo del Tritone", "amenity": "bank", "brand": "Deutsche Bank", "brand:wikidata": "Q66048", "brand:wikipedia": "en:Deutsche Bank", "name": "Deutsche Bank"}}, {"type": "node", "id": 1885246244, "lat": 41.9766747, "lon": 12.7080995, "tags": {"amenity": "bank", "name": "BNL BNP Paribas"}}, {"type": "node", "id": 1909896340, "lat": 41.7256566, "lon": 12.6173548, "tags": {"amenity": "bank", "atm": "yes", "name": "Banca Popolare del Lazio"}}, {"type": "node", "id": 1925496364, "lat": 41.9461246, "lon": 12.5654779, "tags": {"amenity": "atm"}}, {"type": "node", "id": 1925814006, "lat": 41.9454531, "lon": 12.5484736, "tags": {"addr:city": "Roma", "addr:country": "IT", "addr:housenumber": "47", "addr:postcode": "00137", "addr:street": "Via Maria Barbara Tosatti", "amenity": "bank", "atm": "yes", "name": "BNL Paribas"}}, {"type": "node", "id": 1927659536, "lat": 41.9123488, "lon": 12.5745253, "tags": {"amenity": "bank", "atm": "yes", "name": "Banca Popolare di Milano", "source": "local_knowledge", "surveillance": "indoor/outdoor"}}, {"type": "node", "id": 1983622767, "lat": 41.9166998, "lon": 12.4634761, "tags": {"addr:city": "Roma", "addr:postcode": "00195", "addr:street": "Piazza Giuseppe Mazzini", "amenity": "bank", "atm": "yes", "branch": "Ag  n 22", "brand": "BNL", "brand:wikidata": "Q2201225", "brand:wikipedia": "it:Banca Nazionale del Lavoro", "drive_through": "no", "name": "BNL", "official_name": "Banca Nazionale del Lavoro", "official_name:en": "National Labor Bank", "official_name:it": "Banca Nazionale del Lavoro", "opening_hours": "Mo-Fr 08:35-13:35, 14:45-16:15; Sa 08:35-12:05; Su closed", "operator": "Banca Nazionale del Lavoro", "phone": "+39 060060", "ref": "CAB 03222", "wheelchair": "yes"}}, {"type": "node", "id": 1993580436, "lat": 41.8674759, "lon": 12.8264833, "tags": {"amenity": "bank"}}, {"type": "node", "id": 2100060651, "lat": 41.9096249, "lon": 12.45097, "tags": {"amenity": "bank", "atm": "yes", "name": "Intesa Sanpaolo", "wheelchair": "yes"}}, {"type": "node", "id": 2101466799, "lat": 41.9900406, "lon": 12.6609499, "tags": {"amenity": "bank", "name": "Cassa di risparmio di Orvieto", "source": "Local knowledge"}}, {"type": "node", "id": 2101466886, "lat": 41.9895501, "lon": 12.6606676, "tags": {"amenity": "bank", "name": "Banca di Credito Cooperativo di Roma - agenzia 40", "source": "Local knowledge"}}, {"type": "node", "id": 2102881668, "lat": 41.9752417, "lon": 12.6491398, "tags": {"amenity": "bank", "atm": "yes", "name": "Banca Popolare di Spoleto", "source": "Bing"}}, {"type": "node", "id": 2121520747, "lat": 41.8518379, "lon": 12.4979217, "tags": {"addr:city": "Roma", "addr:housenumber": "133", "addr:postcode": "00147", "addr:street": "Viale del Caravaggio", "amenity": "bank", "fax": "+39 06 51607108", "network": "Bipiemme", "operator": "Banca Popolare di Milano", "phone": "+39 06 51435137"}}, {"type": "node", "id": 2121520758, "lat": 41.8501992, "lon": 12.4941027, "tags": {"addr:city": "Roma", "addr:housenumber": "93", "addr:postcode": "00147", "addr:street": "Via del Giorgione", "amenity": "bank", "brand": "Intesa Sanpaolo", "brand:wikidata": "Q1343118", "brand:wikipedia": "it:Intesa Sanpaolo", "fax": "+39 06 5402075", "name": "Intesa Sanpaolo", "operator": "Intesa Sanpaolo", "phone": "+39 06 59472330"}}, {"type": "node", "id": 2125978140, "lat": 42.0009582, "lon": 12.4940398, "tags": {"addr:city": "Roma", "addr:housenumber": "12", "addr:postcode": "00188", "addr:street": "Piazza di Saxa Rubra", "amenity": "bank", "atm": "yes", "brand": "UniCredit Bank", "brand:wikidata": "Q45568", "brand:wikipedia": "en:UniCredit", "name": "UniCredit Bank", "name:it": "UniCredit"}}, {"type": "node", "id": 2125979227, "lat": 42.0050949, "lon": 12.4804371, "tags": {"amenity": "bank", "atm": "yes"}}, {"type": "node", "id": 2125985941, "lat": 41.9920625, "lon": 12.4877138, "tags": {"amenity": "bank", "atm": "yes"}}, {"type": "node", "id": 2140295234, "lat": 41.9047058, "lon": 12.4957223}, {"type": "node", "id": 2140295268, "lat": 41.9047921, "lon": 12.4962434}, {"type": "node", "id": 2140295285, "lat": 41.9048682, "lon": 12.4963619}, {"type": "node", "id": 2140295287, "lat": 41.9048708, "lon": 12.4955311}, {"type": "node", "id": 2140295295, "lat": 41.9048927, "lon": 12.4955056}, {"type": "node", "id": 2140298983, "lat": 41.9045634, "lon": 12.4958874}, {"type": "node", "id": 2140298984, "lat": 41.9047473, "lon": 12.4958713}, {"type": "node", "id": 2140298985, "lat": 41.9048157, "lon": 12.4955949}, {"type": "node", "id": 2140298986, "lat": 41.9048909, "lon": 12.4955624}, {"type": "node", "id": 2140298987, "lat": 41.9048944, "lon": 12.4956845}, {"type": "node", "id": 2140298988, "lat": 41.9048951, "lon": 12.4960815}, {"type": "node", "id": 2140298989, "lat": 41.9049128, "lon": 12.495537}, {"type": "node", "id": 2140298990, "lat": 41.9049393, "lon": 12.4954472}, {"type": "node", "id": 2140298991, "lat": 41.9050422, "lon": 12.4958946}, {"type": "node", "id": 2140298992, "lat": 41.9052562, "lon": 12.4958992}, {"type": "node", "id": 2192567042, "lat": 41.8734165, "lon": 12.4572475, "tags": {"amenity": "bank", "atm": "yes", "name": "Banca Popolare di Milano", "operator": "Banca Popolare di Milano"}}, {"type": "node", "id": 2218549940, "lat": 41.8507145, "lon": 12.5990441}, {"type": "node", "id": 2218549946, "lat": 41.8507201, "lon": 12.598792}, {"type": "node", "id": 2218550006, "lat": 41.8507501, "lon": 12.5987951}, {"type": "node", "id": 2218550007, "lat": 41.8507501, "lon": 12.5988121}, {"type": "node", "id": 2218550016, "lat": 41.8507535, "lon": 12.5990441}, {"type": "node", "id": 2218550056, "lat": 41.8507953, "lon": 12.5988394}, {"type": "node", "id": 2218550059, "lat": 41.8507958, "lon": 12.5988136}, {"type": "node", "id": 2218550122, "lat": 41.8508613, "lon": 12.5989059}, {"type": "node", "id": 2218550124, "lat": 41.8508619, "lon": 12.5988417}, {"type": "node", "id": 2270359689, "lat": 41.9479767, "lon": 12.6006894, "tags": {"amenity": "bank", "atm": "yes", "name": "Banco di Brescia"}}, {"type": "node", "id": 2270359946, "lat": 41.9467199, "lon": 12.6004641, "tags": {"amenity": "bank", "atm": "yes", "brand": "Cr\u00e9dit Agricole", "name": "Cr\u00e9dit Agricole", "old_name": "CARIM", "operator": "Cr\u00e9dit Agricole Cariparma S.p.A.", "website": "https://www.credit-agricole.it/"}}, {"type": "node", "id": 2310262752, "lat": 41.805597, "lon": 12.606813, "tags": {"amenity": "bank", "name": "Banco di Sardegna"}}, {"type": "node", "id": 2315544303, "lat": 41.9371474, "lon": 12.5589717, "tags": {"addr:city": "roma", "addr:housenumber": "179", "addr:postcode": "00137", "addr:street": "Viale Marx", "amenity": "bank", "atm": "yes", "operator": "Unicredit"}}, {"type": "node", "id": 2320248056, "lat": 41.8084915, "lon": 12.6796083, "tags": {"amenity": "bank", "atm": "yes", "email": "info@bancadifrascati.it", "fax": "+39 06 9408516", "image": "http://www.bancadifrascati.it/templates/gk_finance_com/images/style2/logo.png", "name": "Banca di Frascati", "operator": "Banca di Credito Cooperativo", "phone": "+39 06 9422608", "website": "http://www.bancadifrascati.it/"}}, {"type": "node", "id": 2327989020, "lat": 41.9417753, "lon": 12.57441, "tags": {"amenity": "bank", "atm": "yes", "name": "Roma Pollenza", "opening_hours": "Mo-Fr 08:25-13:35,14:30-15:50", "operator": "Unicredit Banca di Roma"}}, {"type": "node", "id": 2346546697, "lat": 41.8067157, "lon": 12.6758697}, {"type": "node", "id": 2346546698, "lat": 41.8067104, "lon": 12.6760909}, {"type": "node", "id": 2346546699, "lat": 41.806824, "lon": 12.6758859}, {"type": "node", "id": 2346546700, "lat": 41.8068367, "lon": 12.6760784}, {"type": "node", "id": 2347295323, "lat": 41.8081227, "lon": 12.6794305, "tags": {"addr:country": "IT", "addr:housenumber": "11", "addr:postcode": "00044", "addr:street": "Piazza Giuseppe Mazzini", "amenity": "bank", "atm": "yes", "brand": "Monte dei Paschi di Siena", "brand:wikidata": "Q46730", "fax": "+39 06 94298287", "name": "Monte dei Paschi di Siena", "operator": "Monte dei Paschi di Siena", "phone": "+39 06 94015186", "website": "https://www.mps.it/"}}, {"type": "node", "id": 2347328777, "lat": 41.8080287, "lon": 12.6793381, "tags": {"addr:city": "Frascati", "addr:country": "IT", "addr:housenumber": "18", "addr:postcode": "00044", "addr:street": "Piazza Giuseppe Mazzini", "amenity": "bank", "atm": "yes", "email": "AG30211-ITALIA@UNICREDIT.EU", "fax": "+39 06 94521066", "name": "Unicredit Banca - Frascati Mazzini", "opening_hours": "Mo-Fr 08:30-13:30; Mo-Fr 14:40-16:10", "operator": "Unicredit", "phone": "+39 06 87827205", "website": "https://www.unicredit.it"}}, {"type": "node", "id": 2347349798, "lat": 41.8094333, "lon": 12.6784429, "tags": {"addr:city": "Frascati", "addr:country": "IT", "addr:housenumber": "2", "addr:postcode": "00044", "addr:street": "Largo Pentini", "amenity": "bank", "atm": "yes", "name": "Banca Etruria - Frascati", "operator": "Banca Etruria", "phone": "+39 06 9417650", "website": "http://www.bancaetruria.it/", "wheelchair": "limited"}}, {"type": "node", "id": 2347385535, "lat": 41.8079153, "lon": 12.6806235, "tags": {"addr:city": "Frascati", "addr:country": "IT", "addr:housenumber": "10", "addr:postcode": "00044", "addr:street": "Piazza San Pietro", "amenity": "bank", "atm": "yes", "brand": "Deutsche Bank", "brand:wikidata": "Q66048", "brand:wikipedia": "en:Deutsche Bank", "fax": "+39 06 94016025", "name": "Deutsche Bank", "opening_hours": "Mo-Fr 08:30-13:30; Mo-Fr 14:45-15:45", "operator": "Deutsche Bank", "phone": "+39 06 94010949", "website": "https://www.db.com"}}, {"type": "node", "id": 2347386938, "lat": 41.8084618, "lon": 12.6805602, "tags": {"addr:city": "Frascati", "addr:country": "IT", "addr:housenumber": "1", "addr:postcode": "00044", "addr:street": "Via Cairoli", "amenity": "bank", "atm": "yes", "fax": "+39 06 9418973", "name": "Banca Popolare di Sondrio - Frascati", "operator": "Banca Popolare di Sondrio", "phone": "+39 06 9401581", "website": "http://www.popso.it/"}}, {"type": "node", "id": 2347406549, "lat": 41.8076512, "lon": 12.6790272, "tags": {"addr:city": "Frascati", "addr:country": "IT", "addr:housenumber": "2", "addr:postcode": "00044", "addr:street": "Piazza Monte Grappa", "amenity": "bank", "atm": "yes", "brand": "UBI Banca", "brand:wikidata": "Q1476162", "brand:wikipedia": "en:UBI Banca", "name": "UBI Banca", "operator": "Banca Marche", "phone": "+39 06 94015242", "website": "http://www.bancamarche.it/"}}, {"type": "node", "id": 2403796760, "lat": 41.9133388, "lon": 12.5748536, "tags": {"amenity": "bank", "atm": "yes", "name": "Banca Di Roma", "surveillance": "indoor/outdoor"}}, {"type": "node", "id": 2403796761, "lat": 41.9124761, "lon": 12.5708561, "tags": {"amenity": "bank", "atm": "yes", "name": "Intesa Sanpaolo", "surveillance": "indoor/outdoor"}}, {"type": "node", "id": 2403796762, "lat": 41.9121158, "lon": 12.57574, "tags": {"addr:housenumber": "49", "addr:street": "Viale Ettore Franceschini", "amenity": "bank", "atm": "yes", "name": "Banca Intesa", "surveillance": "indoor/outdoor"}}, {"type": "node", "id": 2440875348, "lat": 41.8224897, "lon": 12.638196, "tags": {"amenity": "bank", "atm": "yes", "name": "Banca di Frascati", "operator": "BCC"}}, {"type": "node", "id": 2459729740, "lat": 41.818279, "lon": 12.6878822, "tags": {"addr:city": "Frascati", "addr:postcode": "00044", "addr:street": "Via G. Romita", "amenity": "bank", "atm": "yes", "ele": "2", "email": "FilialeCocciano@BccToniolo.it", "fax": "+39 06 93712608", "name": "BCC Giuseppe Toniolo", "nohousenumber": "yes", "phone": "+39 06 93712600", "website": "http://www.bcctoniolo.it/new/cocciano.asp", "wheelchair": "yes"}}, {"type": "node", "id": 2510828947, "lat": 41.8612049, "lon": 12.5547715, "tags": {"addr:city": "Roma", "addr:housenumber": "733", "addr:postcode": "00174", "addr:street": "Via Tuscolana", "amenity": "bank", "atm": "yes", "name": "Agenzia - ROMA TUSCOLANA D", "operator": "Unicredit", "wheelchair": "yes"}}, {"type": "node", "id": 2524481468, "lat": 41.9186224, "lon": 12.4568566, "tags": {"amenity": "bank", "atm": "yes", "name": "Banca Unicredit"}}, {"type": "node", "id": 2566504536, "lat": 41.8546429, "lon": 12.4807477, "tags": {"addr:housenumber": "165", "addr:street": "Viale Leonardo da Vinci", "amenity": "bank", "atm": "yes", "brand": "UniCredit Bank", "brand:wikidata": "Q45568", "brand:wikipedia": "en:UniCredit", "name": "Unicredit"}}, {"type": "node", "id": 2580228127, "lat": 41.8420351, "lon": 12.6228728, "tags": {"addr:city": "Roma", "addr:country": "IT", "addr:housenumber": "263", "addr:street": "Via di Tor Vergata", "amenity": "bank", "atm": "yes", "name": "Banca Popolare Puglia e Basilicata"}}, {"type": "node", "id": 2612572173, "lat": 41.8649146, "lon": 12.6045132, "tags": {"addr:city": "Roma", "addr:postcode": "00133", "addr:street": "Via Casilina", "amenity": "bank", "atm": "no", "name": "BNL BNP Paribas"}}, {"type": "node", "id": 2628450064, "lat": 41.8620287, "lon": 12.5587305, "tags": {"addr:city": "Roma", "addr:country": "IT", "addr:housenumber": "18", "addr:postcode": "00175", "addr:street": "Piazza dei Consoli", "amenity": "bank", "atm": "yes", "brand": "UniCredit Bank", "brand:wikidata": "Q45568", "name": "UniCredit Bank", "opening_hours": "Mo-Fr 08:25-13:35,14:30-15:50", "operator": "Unicredit Banca di Roma"}}, {"type": "node", "id": 2639433790, "lat": 41.9353111, "lon": 12.438394, "tags": {"amenity": "bank", "atm": "yes", "name": "Unicredit Banca"}}, {"type": "node", "id": 2663004143, "lat": 41.9011443, "lon": 12.438068, "tags": {"amenity": "bank", "atm": "yes", "name": "Banca Popolare di Sondrio"}}, {"type": "node", "id": 2666286147, "lat": 41.9212258, "lon": 12.5221433, "tags": {"amenity": "bank", "atm": "yes", "name": "MPS"}}, {"type": "node", "id": 2667791990, "lat": 41.8332416, "lon": 12.4766332, "tags": {"amenity": "bank", "brand": "Monte dei paschi di Siena", "name": "Monte dei Paschi di Siena"}}, {"type": "node", "id": 2705548594, "lat": 41.8267119, "lon": 12.4756784, "tags": {"amenity": "bank", "atm": "yes", "name": "Unicredit Banca"}}, {"type": "node", "id": 2738323933, "lat": 41.8726936, "lon": 12.6182245, "tags": {"amenity": "bank", "atm": "yes", "name": "Banca di Credito Coperativo"}}, {"type": "node", "id": 2738326050, "lat": 41.8725178, "lon": 12.6210033, "tags": {"amenity": "bank", "atm": "yes", "name": "Carifermo"}}, {"type": "node", "id": 2755884350, "lat": 41.8287773, "lon": 12.473657, "tags": {"addr:city": "Roma", "addr:postcode": "00144", "addr:street": "Viale dell'Arte", "amenity": "bank", "description": "Filiale di Roma 01-EUR-451", "name": "Intesa Sanpaolo", "operator": "Intesa Sanpaolo S.p.A.", "phone": "+39 06 59591", "ref": "00451", "ref:vatin": "IT10810700152"}}, {"type": "node", "id": 2796335924, "lat": 41.8338814, "lon": 12.4690482, "tags": {"addr:housenumber": "24", "addr:street": "Piazza Guglielmo Marconi", "amenity": "bank", "name": "UniCredit"}}, {"type": "node", "id": 2819167150, "lat": 41.8657564, "lon": 12.469622, "tags": {"amenity": "bank"}}, {"type": "node", "id": 2833199390, "lat": 41.7385441, "lon": 12.2799142, "tags": {"addr:housenumber": "62", "addr:postcode": "00121", "addr:street": "Via delle Antille", "amenity": "bank", "atm": "yes", "brand": "UniCredit Bank", "brand:wikidata": "Q45568", "brand:wikipedia": "en:UniCredit", "name": "UniCredit Bank", "name:it": "UniCredit", "opening_hours": "Mo-Fr 08:30-13:30,14:30-16:00", "phone": "+39 06 87826702"}}, {"type": "node", "id": 2846114147, "lat": 41.737586, "lon": 12.2732077, "tags": {"addr:city": "Roma", "addr:housenumber": "195", "addr:postcode": "00121", "addr:street": "Via Isole del Capo Verde", "amenity": "bank", "atm": "yes", "name": "Banca Popolare del Lazio", "note": "Banca Popolare del Lazio", "opening_hours": "08:30-18:30", "source": "Bing"}}, {"type": "node", "id": 2857763037, "lat": 41.7367397, "lon": 12.2901917, "tags": {"addr:city": "Roma", "addr:housenumber": "52", "addr:postcode": "00122", "addr:street": "Via Federico Paolini", "amenity": "bank", "atm": "yes", "name": "Banca Popolare di Milano", "opening_hours": "Mo-Fr 08:20-13:20,14:30-15:30", "phone": "+39 06 5685211", "wheelchair": "yes"}}, {"type": "node", "id": 2905413243, "lat": 41.8195545, "lon": 12.6114215, "tags": {"amenity": "bank", "atm": "yes", "brand": "Intesa Sanpaolo", "brand:wikidata": "Q1343118", "brand:wikipedia": "it:Intesa Sanpaolo", "name": "Intesa Sanpaolo"}}, {"type": "node", "id": 3006503140, "lat": 41.9534097, "lon": 12.5230082, "tags": {"amenity": "bank"}}, {"type": "node", "id": 3006506369, "lat": 41.9545513, "lon": 12.5227185, "tags": {"addr:city": "Roma", "addr:housenumber": "7", "addr:postcode": "00139", "addr:street": "Largo Renato Angiolillo", "amenity": "bank", "brand": "UniCredit Bank", "brand:wikidata": "Q45568", "brand:wikipedia": "en:UniCredit", "email": "ag30035-italia@unicredit.eu", "name": "UniCredit Bank", "opening_hours": "Mo-Fr 08:25-12:50, 14:25-16:25", "phone": "+39 06 87828511"}}, {"type": "node", "id": 3013981467, "lat": 41.8577514, "lon": 12.5602484, "tags": {"addr:city": "Roma", "addr:housenumber": "1152", "addr:postcode": "00174", "addr:street": "Via Tuscolana", "amenity": "bank", "atm": "yes", "branch": "Unicredit", "name": "ROMA TUSCOLANA C", "opening_hours": "Mo-Fr 08:25-13:35, 14:30-15:50", "wheelchair": "yes"}}, {"type": "node", "id": 3037863497, "lat": 41.846855, "lon": 12.5970772, "tags": {"addr:city": "Roma", "addr:housenumber": "131", "addr:postcode": "00173", "addr:street": "Via Vincenzo Manzini", "amenity": "bank", "atm": "yes", "brand": "Bcc", "brand:wikidata": "Q25060394", "brand:wikipedia": "en:Banca di Credito Cooperativo di Roma", "name": "Bcc", "phone": "+39 06 52865311"}}, {"type": "node", "id": 3039965594, "lat": 41.8267915, "lon": 12.4785782, "tags": {"amenity": "bank", "name": "Banca Fideuram"}}, {"type": "node", "id": 3052495272, "lat": 41.8889295, "lon": 12.4982843, "tags": {"amenity": "bank", "atm": "yes", "brand": "Banca Popolare di Sondrio", "brand:wikidata": "Q686176", "brand:wikipedia": "en:Banca Popolare di Sondrio", "name": "Banca Popolare di Sondrio"}}, {"type": "node", "id": 3056184804, "lat": 41.8990749, "lon": 12.4764481, "tags": {"amenity": "bank", "atm": "yes", "brand": "Monte dei Paschi di Siena", "brand:wikidata": "Q46730", "brand:wikipedia": "en:Banca Monte dei Paschi di Siena", "name": "Monte dei Paschi di Siena"}}, {"type": "node", "id": 3061631622, "lat": 41.7309579, "lon": 12.2770538, "tags": {"addr:city": "Ostia Lido", "addr:housenumber": "24", "addr:postcode": "00122", "addr:street": "Viale della Marina", "amenity": "bank", "atm": "yes", "brand": "Monte dei Paschi di Siena", "brand:wikidata": "Q46730", "name": "Monte dei Paschi di Siena"}}, {"type": "node", "id": 3080589212, "lat": 41.9098561, "lon": 12.5011812, "tags": {"addr:city": "Roma", "addr:housenumber": "113", "addr:postcode": "00198", "addr:street": "Corso d'Italia", "amenity": "bank", "atm": "yes", "brand": "Intesa Sanpaolo", "brand:wikidata": "Q1343118", "name": "Intesa Sanpaolo"}}, {"type": "node", "id": 3179688597, "lat": 41.8068221, "lon": 12.6760798}, {"type": "node", "id": 3210517371, "lat": 41.9125209, "lon": 12.6080511, "tags": {"amenity": "bank"}}, {"type": "node", "id": 3210518736, "lat": 41.9133062, "lon": 12.6084838, "tags": {"amenity": "bank"}}, {"type": "node", "id": 3212724941, "lat": 41.8668228, "lon": 12.5927384, "tags": {"amenity": "bank", "brand": "BPER Banca", "brand:wikidata": "Q806167", "brand:wikipedia": "it:BPER Banca", "fax": "+39 06 266989", "name": "BPER Banca", "official_name": "Banca Popolare dell'Emilia Romagna", "opening_hours": "Mo-Fr 08:30-13:30, 14:45-16:00", "phone": "+39 06 2674337"}}, {"type": "node", "id": 3244959577, "lat": 41.7953075, "lon": 12.5345069, "tags": {"amenity": "bank", "name": "Cassa di Risparmio di Civitavecchia"}}, {"type": "node", "id": 3246677485, "lat": 41.7143111, "lon": 12.5744992, "tags": {"amenity": "bank", "name": "Banca Popolare del Lazio", "opening_hours": "Mo-Fr 08:30-13:30, 14:45-15:30", "phone": "+39 069194443", "website": "https://www.bplazio.it/"}}, {"type": "node", "id": 3247847343, "lat": 41.9097225, "lon": 12.4601937, "tags": {"addr:city": "Roma", "addr:country": "IT", "addr:housenumber": "101", "addr:street": "Viale Giulio Cesare", "amenity": "bank", "atm": "yes", "brand": "BPER Banca", "brand:wikidata": "Q806167", "brand:wikipedia": "it:BPER Banca", "name": "BPER Banca", "official_name": "Banca Popolare dell'Emilia Romagna", "short_name": "BPER:"}}, {"type": "node", "id": 3269336674, "lat": 41.8640248, "lon": 12.4688882, "tags": {"addr:city": "Roma", "addr:housenumber": "40 / 42", "addr:postcode": "00146", "addr:street": "Piazza Enrico Fermi", "amenity": "bank", "brand": "Intesa Sanpaolo", "brand:wikidata": "Q1343118", "brand:wikipedia": "it:Intesa Sanpaolo", "name": "Intesa Sanpaolo"}}, {"type": "node", "id": 3269345166, "lat": 41.8646856, "lon": 12.4674043, "tags": {"addr:city": "Roma", "addr:housenumber": "43 / 45", "addr:postcode": "00146", "addr:street": "Via Francesco Grimaldi", "amenity": "bank", "atm": "yes"}}, {"type": "node", "id": 3269345167, "lat": 41.8648084, "lon": 12.4667391, "tags": {"addr:city": "Roma", "addr:housenumber": "1 / 5", "addr:postcode": "00146", "addr:street": "Via Giuseppe Bagnera", "amenity": "bank", "atm": "yes", "name": "Credito Artigiano"}}, {"type": "node", "id": 3269345938, "lat": 41.8650731, "lon": 12.4658352, "tags": {"addr:housenumber": "139 / 157", "addr:postcode": "00146", "addr:street": "Via Francesco Grimaldi", "amenity": "bank", "name": "Cariparma Credit Agricole"}}, {"type": "node", "id": 3269345939, "lat": 41.865168, "lon": 12.4654905, "tags": {"addr:city": "Roma", "addr:housenumber": "149", "addr:postcode": "00146", "addr:street": "Via Francesco Grimaldi", "amenity": "bank", "name": "Cassa di Risparmio di Parma e Piacenza Spa"}}, {"type": "node", "id": 3270564261, "lat": 41.8568979, "lon": 12.5625348, "tags": {"amenity": "bank", "brand": "BNL", "brand:wikidata": "Q2201225", "brand:wikipedia": "it:Banca Nazionale del Lavoro", "name": "BNL", "official_name": "Banca Nazionale del Lavoro", "official_name:en": "National Labor Bank", "official_name:it": "Banca Nazionale del Lavoro", "wheelchair": "yes"}}, {"type": "node", "id": 3273385186, "lat": 41.8721652, "lon": 12.5149449, "tags": {"addr:housenumber": "80", "addr:street": "Via Tommaso da Celano", "amenity": "bank", "atm": "yes", "name": "UBI Banca"}}, {"type": "node", "id": 3293556663, "lat": 41.9054404, "lon": 12.4902337}, {"type": "node", "id": 3293556664, "lat": 41.9056346, "lon": 12.4902291}, {"type": "node", "id": 3293556665, "lat": 41.9056554, "lon": 12.4899145}, {"type": "node", "id": 3293556666, "lat": 41.9057038, "lon": 12.4903148}, {"type": "node", "id": 3293556667, "lat": 41.9057043, "lon": 12.4900107}, {"type": "node", "id": 3293556668, "lat": 41.9057114, "lon": 12.4901249}, {"type": "node", "id": 3293556669, "lat": 41.9057182, "lon": 12.490176}, {"type": "node", "id": 3293556670, "lat": 41.9057195, "lon": 12.4900513}, {"type": "node", "id": 3293556671, "lat": 41.9057283, "lon": 12.4899944}, {"type": "node", "id": 3293556672, "lat": 41.905952, "lon": 12.490017}, {"type": "node", "id": 3293556673, "lat": 41.9057426, "lon": 12.4902495}, {"type": "node", "id": 3293556674, "lat": 41.9057436, "lon": 12.490035}, {"type": "node", "id": 3293556675, "lat": 41.9057489, "lon": 12.4903882}, {"type": "node", "id": 3293556676, "lat": 41.9057672, "lon": 12.4903564}, {"type": "node", "id": 3293556677, "lat": 41.905814, "lon": 12.4899293}, {"type": "node", "id": 3293556678, "lat": 41.9058346, "lon": 12.4899789}, {"type": "node", "id": 3293556679, "lat": 41.9058502, "lon": 12.4899022}, {"type": "node", "id": 3293556680, "lat": 41.9058575, "lon": 12.4907377}, {"type": "node", "id": 3293556681, "lat": 41.9058618, "lon": 12.4905211}, {"type": "node", "id": 3293556682, "lat": 41.9058708, "lon": 12.4899517}, {"type": "node", "id": 3293556683, "lat": 41.9059445, "lon": 12.4902337}, {"type": "node", "id": 3293556685, "lat": 41.9059516, "lon": 12.4902454}, {"type": "node", "id": 3293556686, "lat": 41.905952, "lon": 12.490264}, {"type": "node", "id": 3293556687, "lat": 41.9059531, "lon": 12.4896791}, {"type": "node", "id": 3293556688, "lat": 41.9059553, "lon": 12.4902828}, {"type": "node", "id": 3293556689, "lat": 41.9059574, "lon": 12.4903608}, {"type": "node", "id": 3293556690, "lat": 41.905966, "lon": 12.4902972}, {"type": "node", "id": 3293556691, "lat": 41.9059692, "lon": 12.4903824}, {"type": "node", "id": 3293556693, "lat": 41.9059811, "lon": 12.4903045}, {"type": "node", "id": 3293556694, "lat": 41.9059918, "lon": 12.4903261}, {"type": "node", "id": 3293556695, "lat": 41.9061562, "lon": 12.4903362}, {"type": "node", "id": 3300212933, "lat": 41.8262636, "lon": 12.4757169, "tags": {"amenity": "bank", "atm": "yes", "brand": "Deutsche Bank", "brand:wikidata": "Q66048", "name": "Deutsche Bank", "operator": "Deutsche Bank Spa", "ref": "588"}}, {"type": "node", "id": 3302063148, "lat": 41.8498138, "lon": 12.4615696, "tags": {"amenity": "bank"}}, {"type": "node", "id": 3394186923, "lat": 41.9043908, "lon": 12.4962851, "tags": {"addr:city": "Roma", "addr:housenumber": "17", "addr:postcode": "00185", "addr:street": "Via Parigi", "amenity": "bank", "atm": "yes", "name": "Banca Popolare Etica", "opening_hours": "Mo-Fr 08:45-13:15"}}, {"type": "node", "id": 3431490343, "lat": 41.9931, "lon": 12.6197937}, {"type": "node", "id": 3431490344, "lat": 41.9929908, "lon": 12.6199299}, {"type": "node", "id": 3431490345, "lat": 41.9929474, "lon": 12.6198627}, {"type": "node", "id": 3431490346, "lat": 41.9929079, "lon": 12.6197512}, {"type": "node", "id": 3431490347, "lat": 41.9928974, "lon": 12.6196787}, {"type": "node", "id": 3431490348, "lat": 41.99305, "lon": 12.6196556}, {"type": "node", "id": 3505261611, "lat": 41.8598831, "lon": 12.5634646, "tags": {"addr:city": "Roma", "addr:housenumber": "1", "addr:postcode": "00175", "addr:street": "Piazza San Giovanni Bosco", "amenity": "bank", "atm": "no", "brand": "Banco BPM", "brand:wikidata": "Q27331643", "name": "Banco BPM", "opening_hours": "Mo-Fr 08:30-13:30; 14:45-15:45", "operator": "Banca Popolare di Novara", "phone": "+39 06 7108465", "wheelchair": "limited"}}, {"type": "node", "id": 3506873434, "lat": 41.857685, "lon": 12.5633366, "tags": {"addr:city": "Roma", "addr:housenumber": "51", "addr:postcode": "00175", "addr:street": "Viale Marco Fulvio Nobiliore", "amenity": "bank", "name": "IBL FAMILY", "opening_hours": "Mo-Fr 09:00-13:30,14:45-17:30", "operator": "IBL Banca", "phone": "+39 0672654611", "wheelchair": "no"}}, {"type": "node", "id": 3507247426, "lat": 41.7326323, "lon": 12.2897528, "tags": {"addr:city": "Roma", "addr:housenumber": "1", "addr:postcode": "00122", "addr:street": "Via Carlo del Greco", "amenity": "bank", "atm": "yes", "branch": "Ag  23", "brand": "Banca Popolare di Sondrio", "brand:wikidata": "Q686176", "name": "Banca Popolare di Sondrio", "opening_hours": "Mo-Fr 08:30-13:30,14:45-15:45; Sa 09:05-12:00", "website": "http://www.popso.it/"}}, {"type": "node", "id": 3511034056, "lat": 41.7598917, "lon": 12.3022088, "tags": {"amenity": "bank", "atm": "yes", "brand": "UniCredit Bank", "brand:wikidata": "Q45568", "name": "UniCredit Bank"}}, {"type": "node", "id": 3512103330, "lat": 41.9049285, "lon": 12.4929506, "tags": {"amenity": "bank", "brand": "BNL", "brand:wikidata": "Q2201225", "brand:wikipedia": "it:Banca Nazionale del Lavoro", "name": "BNL", "name:zh": "\u4e2d\u570b\u9280\u884c", "official_name": "Banca Nazionale del Lavoro"}}, {"type": "node", "id": 3517484221, "lat": 41.8965963, "lon": 12.4828092, "tags": {"amenity": "bank", "brand": "BNL", "brand:wikidata": "Q2201225", "brand:wikipedia": "it:Banca Nazionale del Lavoro", "name": "BNL", "official_name": "Banca Nazionale del Lavoro", "official_name:en": "National Labor Bank", "official_name:it": "Banca Nazionale del Lavoro"}}, {"type": "node", "id": 3517484224, "lat": 41.8971196, "lon": 12.4831461, "tags": {"amenity": "bank", "atm": "yes", "brand": "Deutsche Bank", "brand:wikidata": "Q66048", "brand:wikipedia": "en:Deutsche Bank", "name": "Deutsche Bank"}}, {"type": "node", "id": 3517497854, "lat": 41.8967018, "lon": 12.4833179, "tags": {"addr:housenumber": "120", "addr:street": "Via Cesare Battisti", "amenity": "bank", "name": "Cassa di Risparmio di Ferrara"}}, {"type": "node", "id": 3544626063, "lat": 41.8534004, "lon": 12.5603523, "tags": {"addr:city": "Roma", "addr:housenumber": "126", "addr:street": "Via Lucio Papirio", "amenity": "bank", "atm": "yes", "brand": "Banca Popolare di Sondrio", "brand:en": "Popular Bank of Sandrio", "brand:it": "Banca Popolare di Sondrio", "brand:wikidata": "Q686176", "brand:wikipedia": "en:Banca Popolare di Sondrio", "name": "Banca Popolare di Sondrio", "name:en": "Popular Bank of Sandrio", "name:it": "Banca Popolare di Sondrio (agenzia 20)", "operator": "Banca Popolare di Sondrio", "phone": "+39 067153921"}}, {"type": "node", "id": 3577531197, "lat": 41.8614989, "lon": 12.5554221, "tags": {"addr:postcode": "00175", "amenity": "bank", "atm": "yes", "operator": "UBI Banca Popolare di Bergamo"}}, {"type": "node", "id": 3577531198, "lat": 41.8616317, "lon": 12.5555648, "tags": {"amenity": "bank", "atm": "yes", "operator": "Intesa San Paolo"}}, {"type": "node", "id": 3606946169, "lat": 41.8808116, "lon": 12.5424661, "tags": {"addr:city": "Roma", "addr:housenumber": "9", "addr:postcode": "00176", "addr:street": "Piazza della Marranella", "amenity": "bank", "atm": "yes", "brand": "Banca Popolare di Sondrio", "brand:en": "Popular Bank of Sandrio", "brand:it": "Banca Popolare di Sondrio", "brand:wikidata": "Q686176", "brand:wikipedia": "en:Banca Popolare di Sondrio", "name": "Banca Popolare di Sondrio", "name:en": "Popular Bank of Sondrio", "name:it": "Banca Popolare di Sondrio"}}, {"type": "node", "id": 3610275773, "lat": 41.8639991, "lon": 12.5498254, "tags": {"amenity": "bank", "brand": "Banca Popolare di Novara", "brand:en": "Popular Bank of Novara", "brand:it": "Banca Popolare di Novara", "brand:wikidata": "Q3633742", "brand:wikipedia": "en:Banca Popolare di Novara", "name": "Banca Popolare di Novara", "name:en": "Popular Bank of Novara", "name:it": "Banca Popolare di Novara"}}, {"type": "node", "id": 3661056972, "lat": 41.9210847, "lon": 12.5108318}, {"type": "node", "id": 3661056981, "lat": 41.9211588, "lon": 12.5107129}, {"type": "node", "id": 3661056996, "lat": 41.9210109, "lon": 12.510742}, {"type": "node", "id": 3661056997, "lat": 41.9210848, "lon": 12.5106256}, {"type": "node", "id": 3678044998, "lat": 41.9170881, "lon": 12.4407223, "tags": {"amenity": "bank", "name": "Cassa di risparmio di Ravenna"}}, {"type": "node", "id": 3679213854, "lat": 41.9165165, "lon": 12.4395739, "tags": {"addr:housenumber": "86D", "addr:street": "Via Ugo De Carolis", "amenity": "bank", "name": "Banca Del Fucino"}}, {"type": "node", "id": 3762462888, "lat": 41.9089995, "lon": 12.4594922, "tags": {"amenity": "bank", "atm": "yes", "brand": "Banca del Fucino", "wheelchair": "no"}}, {"type": "node", "id": 3789238726, "lat": 41.8660857, "lon": 12.4857606, "tags": {"amenity": "bank", "name": "UBI Bank"}}, {"type": "node", "id": 3789241174, "lat": 41.8669674, "lon": 12.4857752, "tags": {"amenity": "bank", "name": "Banca di Credito Cooperativa di Roma"}}, {"type": "node", "id": 3824949255, "lat": 41.8299606, "lon": 12.4901001, "tags": {"addr:street": "Via Duccio di Buoninsegna", "amenity": "bank", "brand": "Monte dei Paschi di Siena", "name": "Monte dei Paschi di Siena", "operator": "Monte dei Paschi di Siena"}}, {"type": "node", "id": 3836026358, "lat": 41.8977058, "lon": 12.4700008, "tags": {"amenity": "bank", "atm": "yes", "brand": "Cariparma", "brand:wikidata": "Q2938832", "brand:wikipedia": "en:Cr\u00e9dit Agricole Italia", "name": "Cariparma"}}, {"type": "node", "id": 3848016386, "lat": 42.0913646, "lon": 12.2705756}, {"type": "node", "id": 3848016387, "lat": 42.0913049, "lon": 12.2707122}, {"type": "node", "id": 3848016388, "lat": 42.0911878, "lon": 12.2706193}, {"type": "node", "id": 3848016389, "lat": 42.0912475, "lon": 12.2704827}, {"type": "node", "id": 3884494701, "lat": 41.7476879, "lon": 12.6481789, "tags": {"addr:city": "Castel Gandolfo", "addr:housenumber": "19", "addr:postcode": "00040", "addr:street": "Via Prati", "amenity": "bank", "atm": "yes", "brand": "Bcc", "brand:wikidata": "Q25060394", "brand:wikipedia": "en:Banca di Credito Cooperativo di Roma", "drive_through": "yes", "name": "Bcc", "name:it": "BBC Castelli Romani"}}, {"type": "node", "id": 3894146881, "lat": 41.8451407, "lon": 12.4840331, "tags": {"addr:city": "Roma", "addr:housenumber": "84", "addr:postcode": "00142", "addr:street": "Viale Pico della Mirandola", "amenity": "bank", "atm": "yes", "brand": "BNL", "drive_through": "no", "name": "Roma Ag. 80", "operator": "BNL"}}, {"type": "node", "id": 3906284037, "lat": 41.9084286, "lon": 12.4664725, "tags": {"addr:city": "Roma", "addr:housenumber": "93", "addr:postcode": "00192", "addr:street": "Via Cola di Rienzo", "amenity": "bank", "atm": "yes", "brand": "Deutsche Bank", "brand:wikidata": "Q66048", "brand:wikipedia": "en:Deutsche Bank", "name": "Deutsche Bank", "operator": "Deutsche Bank", "wheelchair": "no"}}, {"type": "node", "id": 3937947749, "lat": 41.8544086, "lon": 12.5640307, "tags": {"addr:city": "Roma", "addr:country": "IT", "addr:housenumber": "2", "addr:postcode": "00174", "addr:street": "Largo Giulio Capitolino", "amenity": "bank", "atm": "yes", "brand": "BCC Roma", "brand:wikidata": "Q25060394", "name": "BCC Roma", "official_name": "Banca di Credito Cooperativo di Roma", "opening_hours": "Mo-Fr 08:30-13:30, 15:00-15:45", "operator": "Banca di Credito Cooperativo di Roma", "phone": "+39 0652865516", "ref": "ABI: 8327 - CAB: 3223"}}, {"type": "node", "id": 3953117532, "lat": 41.9021304, "lon": 12.461832, "tags": {"amenity": "bank", "atm": "yes", "brand": "UniCredit Bank", "brand:wikidata": "Q45568", "brand:wikipedia": "en:UniCredit", "name": "UniCredit Bank", "operator": "Unicredit"}}, {"type": "node", "id": 4051515183, "lat": 41.8669704, "lon": 12.4849639, "tags": {"amenity": "bank", "brand": "Intesa Sanpaolo", "brand:wikidata": "Q1343118", "name": "Intesa Sanpaolo"}}, {"type": "node", "id": 4101460971, "lat": 41.7264512, "lon": 12.2911178, "tags": {"amenity": "bank", "name": "Credito Artigiano"}}, {"type": "node", "id": 4101460983, "lat": 41.7300332, "lon": 12.2800904, "tags": {"addr:city": "Roma", "addr:housenumber": "21", "addr:postcode": "00122", "addr:street": "Via Claudio", "amenity": "bank", "brand": "UniCredit Bank", "brand:wikidata": "Q45568", "brand:wikipedia": "en:UniCredit", "name": "UniCredit Bank", "name:it": "UniCredit", "wheelchair": "yes"}}, {"type": "node", "id": 4167485263, "lat": 41.9138462, "lon": 12.4552892, "tags": {"addr:city": "Roma", "addr:housenumber": "34", "addr:postcode": "00195", "addr:street": "Via Emilio Fa\u00e0 di Bruno", "amenity": "bank", "atm": "yes", "brand": "Intesa Sanpaolo", "brand:wikidata": "Q1343118", "brand:wikipedia": "it:Intesa Sanpaolo", "name": "Intesa Sanpaolo"}}, {"type": "node", "id": 4183252380, "lat": 41.8989166, "lon": 12.5168175, "tags": {"addr:city": "Roma", "addr:housenumber": "11", "addr:postcode": "00185", "addr:street": "Piazza dei Sanniti", "amenity": "bank", "atm": "yes", "brand": "Banca Popolare di Sondrio", "brand:wikidata": "Q686176", "brand:wikipedia": "en:Banca Popolare di Sondrio", "drive_through": "no", "name": "Banca Popolare di Sondrio"}}, {"type": "node", "id": 4204464789, "lat": 41.9649741, "lon": 12.5136686, "tags": {"amenity": "bank"}}, {"type": "node", "id": 4212333898, "lat": 41.8620979, "lon": 12.6325747, "tags": {"addr:city": "Roma", "addr:housenumber": "16", "addr:postcode": "00133", "addr:street": "Via Cino del Duca", "amenity": "bank", "brand": "BPER Banca", "brand:wikidata": "Q806167", "name": "BPER Banca", "official_name": "Banca Popolare dell'Emilia Romagna", "phone": "+39 06 20434292"}}, {"type": "node", "id": 4213397438, "lat": 41.8634172, "lon": 12.6100525}, {"type": "node", "id": 4213397439, "lat": 41.8634786, "lon": 12.6097913}, {"type": "node", "id": 4213397442, "lat": 41.863532, "lon": 12.6101012}, {"type": "node", "id": 4213397443, "lat": 41.8635367, "lon": 12.6100811}, {"type": "node", "id": 4213397444, "lat": 41.8637238, "lon": 12.6101605}, {"type": "node", "id": 4213397446, "lat": 41.8637805, "lon": 12.6099193}, {"type": "node", "id": 4230222470, "lat": 41.9077456, "lon": 12.4648372, "tags": {"amenity": "bank", "name": "Cariparma Cr\u00e9dit Agricole", "toilets:wheelchair": "no", "wheelchair": "yes"}}, {"type": "node", "id": 4230223698, "lat": 41.9075111, "lon": 12.4638689, "tags": {"amenity": "bank", "atm": "yes", "brand": "UniCredit Bank", "brand:wikidata": "Q45568", "name": "UniCredit Bank", "wheelchair": "no"}}, {"type": "node", "id": 4237302412, "lat": 41.8069051, "lon": 12.6802514, "tags": {"addr:city": "Frascati", "addr:housenumber": "10", "addr:postcode": "00044", "addr:street": "Piazza Roma", "amenity": "bank", "atm": "yes", "email": "AG36053-ITALIA@UNICREDIT.EU", "fax": "+39 06 94521080", "name": "Unicredit Banca - Frascati Piazza Roma", "opening_hours": "Mo-Fr 08:30-13:30, 14:40-16:10", "phone": "+39 06 87827204", "source": "https://locator.unicredit.it", "website": "https://www.unicredit.it/"}}, {"type": "node", "id": 4246055234, "lat": 41.8322826, "lon": 12.4633242, "tags": {"amenity": "bank", "atm": "yes", "name": "UniCredit"}}, {"type": "node", "id": 4252789254, "lat": 41.7869616, "lon": 12.6729306, "tags": {"amenity": "bank", "name": "Banca Popolare di Sonario"}}, {"type": "node", "id": 4284586660, "lat": 41.8625485, "lon": 12.552172, "tags": {"addr:city": "Roma", "addr:country": "IT", "addr:housenumber": "657", "addr:postcode": "00175", "addr:street": "Via Tuscolana", "amenity": "bank", "atm": "yes", "name": "Che banca!"}}, {"type": "node", "id": 4285701717, "lat": 41.90598, "lon": 12.4900858}, {"type": "node", "id": 4288716596, "lat": 41.9154614, "lon": 12.4387655, "tags": {"amenity": "bank", "name": "Banca Popolare di Vicenza"}}, {"type": "node", "id": 4296842158, "lat": 41.8947706, "lon": 12.4761062, "tags": {"amenity": "bank", "operator": "Unipol"}}, {"type": "node", "id": 4296842170, "lat": 41.8962129, "lon": 12.4771312, "tags": {"amenity": "bank", "atm": "yes", "brand": "UniCredit Bank", "brand:wikidata": "Q45568", "brand:wikipedia": "en:UniCredit", "name": "UniCredit Bank", "operator": "Unicredit"}}, {"type": "node", "id": 4311240361, "lat": 41.8970233, "lon": 12.472477, "tags": {"addr:street": "Piazza San Pantaleo", "amenity": "bank", "brand": "UniCredit Bank", "brand:wikidata": "Q45568", "brand:wikipedia": "en:UniCredit", "name": "UniCredit Bank", "source": "Bing, Local knowledge"}}, {"type": "node", "id": 4314194072, "lat": 41.8341427, "lon": 12.4676199, "tags": {"amenity": "bank", "atm": "yes", "name": "Credito Artigiano"}}, {"type": "node", "id": 4326565268, "lat": 41.8622348, "lon": 12.4700765, "tags": {"addr:city": "Roma", "addr:housenumber": "295", "addr:postcode": "00146", "addr:street": "Viale Guglielmo Marconi", "amenity": "bank", "name": "Che Banca!"}}, {"type": "node", "id": 4326602889, "lat": 41.8847763, "lon": 12.5148236, "tags": {"amenity": "bank", "brand": "UniCredit", "brand:wikidata": "Q45568", "brand:wikipedia": "it:UniCredit", "drive_through": "no", "name": "UniCredit"}}, {"type": "node", "id": 4326966489, "lat": 41.8616363, "lon": 12.4707139, "tags": {"addr:city": "Roma", "addr:housenumber": "16", "addr:postcode": "00146", "addr:street": "Piazza Augusto Righi", "amenity": "bank", "brand": "Intesa Sanpaolo", "brand:wikidata": "Q1343118", "brand:wikipedia": "it:Intesa Sanpaolo", "name": "Intesa Sanpaolo", "phone": "+39 06 55343411"}}, {"type": "node", "id": 4327423302, "lat": 41.9062319, "lon": 12.4822407, "tags": {"addr:city": "Roma", "addr:country": "IT", "addr:housenumber": "19", "addr:street": "Piazza di Spagna", "amenity": "bank", "branch": "Unicredit"}}, {"type": "node", "id": 4329383973, "lat": 41.8741941, "lon": 12.5189687, "tags": {"addr:street": "Piazza Scipione Ammirato", "amenity": "bank"}}, {"type": "node", "id": 4331310491, "lat": 41.9400602, "lon": 12.4239801, "tags": {"addr:city": "Roma", "addr:housenumber": "8682", "addr:postcode": "00135", "addr:street": "Via Trionfale", "amenity": "bank", "atm": "yes", "name": "Banca di Credito Cooperativa di Roma-Ag.146", "opening_hours": "Mo-Fr 08:30-13:30"}}, {"type": "node", "id": 4376086295, "lat": 41.8985745, "lon": 12.481315, "tags": {"addr:city": "Roma", "addr:housenumber": "308", "addr:postcode": "00186", "addr:street": "Via del Corso", "amenity": "bank", "brand": "UniCredit Bank", "brand:wikidata": "Q45568", "name": "UniCredit", "wheelchair": "limited"}}, {"type": "node", "id": 4376086297, "lat": 41.9010798, "lon": 12.4769732, "tags": {"amenity": "bank", "name": "Banca Etruria", "name:en": "UBI Banca", "name:it": "UBI Banca"}}, {"type": "node", "id": 4386198213, "lat": 41.9391762, "lon": 12.4248579, "tags": {"addr:street": "Via Trionfale", "amenity": "bank", "name": "UniCredit", "name:it": "Unicredit"}}, {"type": "node", "id": 4406877347, "lat": 41.8076782, "lon": 12.6791606, "tags": {"addr:city": "Frascati", "addr:country": "IT", "addr:housenumber": "7", "addr:postcode": "00044", "addr:street": "Piazza Monte Grappa", "amenity": "bank", "atm": "yes", "brand": "Banco BPM", "brand:wikidata": "Q27331643", "brand:wikipedia": "en:Banco BPM", "name": "Banco BPM", "ref": "00437"}}, {"type": "node", "id": 4447306909, "lat": 41.9049211, "lon": 12.4685826, "tags": {"amenity": "bank", "name": "Banca Popolare"}}, {"type": "node", "id": 4461277289, "lat": 41.8424541, "lon": 12.48186, "tags": {"addr:city": "Roma", "addr:housenumber": "9", "addr:postcode": "00142", "addr:street": "Piazzale Roberto Ardig\u00f2", "amenity": "bank", "atm": "yes", "brand": "UniCredit Bank", "brand:wikidata": "Q45568", "brand:wikipedia": "en:UniCredit", "name": "UniCredit Bank", "name:en": "UniCredit", "name:it": "UniCredit", "opening_hours": "Mo-Fr 08:25-16:25", "phone": "+39 06 8782 5904", "website": "https://www.unicredit.it/it/contatti-e-agenzie/scheda-agenzia.02368.html"}}, {"type": "node", "id": 4494288124, "lat": 41.8985816, "lon": 12.5321754, "tags": {"amenity": "bank", "brand": "UBI Banca", "brand:wikidata": "Q1476162", "brand:wikipedia": "en:UBI Banca", "drive_through": "no", "name": "UBI Banca", "opening_hours": "Mo-Su 09:00-20:30", "phone": "+39 06 43534508"}}, {"type": "node", "id": 4494288125, "lat": 41.8975341, "lon": 12.5357224, "tags": {"amenity": "bank", "name": "Banca Popolare di Sondrio"}}, {"type": "node", "id": 4494288126, "lat": 41.8199095, "lon": 12.4528324, "tags": {"amenity": "bank"}}, {"type": "node", "id": 4494644996, "lat": 41.9097782, "lon": 12.5213377, "tags": {"amenity": "bank", "atm": "yes", "brand": "UniCredit Bank", "brand:wikidata": "Q45568", "brand:wikipedia": "en:UniCredit", "name": "UniCredit Bank", "wheelchair": "yes"}}, {"type": "node", "id": 4494804197, "lat": 41.8979348, "lon": 12.5391065, "tags": {"amenity": "bank", "brand": "Monte dei Paschi di Siena", "brand:wikidata": "Q46730", "brand:wikipedia": "en:Banca Monte dei Paschi di Siena", "name": "Monte dei Paschi di Siena"}}, {"type": "node", "id": 4500833090, "lat": 41.8209183, "lon": 12.4523388, "tags": {"amenity": "bank"}}, {"type": "node", "id": 4503079250, "lat": 41.807792, "lon": 12.4339963, "tags": {"addr:housenumber": "19", "addr:street": "Via della Seta", "amenity": "bank", "name": "Monte dei Paschi di Siena"}}, {"type": "node", "id": 4503079256, "lat": 41.807634, "lon": 12.4338569, "tags": {"amenity": "bank", "name": "Intesa San Paolo"}}, {"type": "node", "id": 4503079262, "lat": 41.817025, "lon": 12.4389343, "tags": {"amenity": "bank", "name": "UBI Banco di Brescia"}}, {"type": "node", "id": 4503123860, "lat": 41.8267603, "lon": 12.4521844, "tags": {"amenity": "bank", "name": "Banca di Credito Cooperativo di Roma"}}, {"type": "node", "id": 4542478591, "lat": 41.8339688, "lon": 12.5792798}, {"type": "node", "id": 4542478592, "lat": 41.833841, "lon": 12.5794}, {"type": "node", "id": 4542478593, "lat": 41.8335947, "lon": 12.5789286}, {"type": "node", "id": 4542478594, "lat": 41.8334681, "lon": 12.5790478}, {"type": "node", "id": 4542478595, "lat": 41.8333295, "lon": 12.5787825}, {"type": "node", "id": 4542478596, "lat": 41.8330005, "lon": 12.5790921}, {"type": "node", "id": 4542478597, "lat": 41.8329395, "lon": 12.5789754}, {"type": "node", "id": 4542478598, "lat": 41.8328843, "lon": 12.5790274}, {"type": "node", "id": 4542478599, "lat": 41.8328089, "lon": 12.578883}, {"type": "node", "id": 4542478600, "lat": 41.8332947, "lon": 12.5784258}, {"type": "node", "id": 4542478601, "lat": 41.8332305, "lon": 12.578303}, {"type": "node", "id": 4542478602, "lat": 41.8333147, "lon": 12.5782237}, {"type": "node", "id": 4542478603, "lat": 41.8332122, "lon": 12.5780274}, {"type": "node", "id": 4542478604, "lat": 41.8335132, "lon": 12.5777442}, {"type": "node", "id": 4542478605, "lat": 41.8338411, "lon": 12.5783719}, {"type": "node", "id": 4542478606, "lat": 41.8337487, "lon": 12.5784589}, {"type": "node", "id": 4542478607, "lat": 41.8341464, "lon": 12.5792201}, {"type": "node", "id": 4542478608, "lat": 41.8340064, "lon": 12.5793519}, {"type": "node", "id": 4556320653, "lat": 42.0591349, "lon": 12.584857, "tags": {"addr:housenumber": "219", "addr:street": "Via Salaria", "amenity": "bank", "atm": "yes", "name": "Banca Popolare del Lazio", "phone": "+39 06 9008 0354", "website": "https://www.bplazio.it/"}}, {"type": "node", "id": 4569759403, "lat": 41.878483, "lon": 12.5184543, "tags": {"addr:city": "Roma", "addr:country": "IT", "addr:housenumber": "275", "addr:street": "Via Appia Nuova", "amenity": "bank", "name": "Roma Appia Nuova A", "operator": "Unicredit"}}, {"type": "node", "id": 4575471359, "lat": 41.8768414, "lon": 12.4739457, "tags": {"addr:city": "Roma", "addr:housenumber": "97", "addr:postcode": "00153", "addr:street": "Via Galvani", "amenity": "bank", "atm": "yes", "name": "imprebanca", "website": "http://www.imprebanca.it/"}}, {"type": "node", "id": 4576272292, "lat": 41.77042, "lon": 12.3312047, "tags": {"addr:city": "Roma", "addr:housenumber": "112", "addr:postcode": "00125", "addr:street": "Viale Enrico Ortolani", "amenity": "bank", "name": "BNL"}}, {"type": "node", "id": 4578344871, "lat": 41.9981443, "lon": 12.6224484, "tags": {"amenity": "bank", "brand": "BNL", "brand:wikidata": "Q2201225", "name": "BNL", "official_name": "Banca Nazionale del Lavoro"}}, {"type": "node", "id": 4578367040, "lat": 41.9973011, "lon": 12.6205869, "tags": {"amenity": "bank", "name": "Banca di Credito Cooperativa di Roma"}}, {"type": "node", "id": 4585572598, "lat": 41.9033966, "lon": 12.5011854, "tags": {"amenity": "bank", "brand": "BNL", "brand:wikidata": "Q2201225", "brand:wikipedia": "it:Banca Nazionale del Lavoro", "name": "BNL", "official_name": "Banca Nazionale del Lavoro", "official_name:en": "National Labor Bank", "official_name:it": "Banca Nazionale del Lavoro", "source": "mapillary"}}, {"type": "node", "id": 4596274892, "lat": 41.8544919, "lon": 12.5905853, "tags": {"addr:city": "Roma", "addr:housenumber": "274", "addr:postcode": "00173", "addr:street": "Viale Antonio Ciamarra", "amenity": "bank", "name": "Unipol"}}, {"type": "node", "id": 4596276093, "lat": 41.8536746, "lon": 12.590642, "tags": {"addr:city": "Roma", "addr:housenumber": "226", "addr:postcode": "00173", "addr:street": "Viale Antonio Ciamarra", "amenity": "bank", "brand": "Intesa Sanpaolo", "brand:wikidata": "Q1343118", "brand:wikipedia": "it:Intesa Sanpaolo", "name": "Intesa Sanpaolo"}}, {"type": "node", "id": 4596276094, "lat": 41.8535202, "lon": 12.5906741, "tags": {"addr:city": "Roma", "addr:housenumber": "218", "addr:postcode": "00173", "addr:street": "Viale Antonio Ciamarra", "amenity": "bank", "brand": "UBI Banca", "brand:wikidata": "Q1476162", "brand:wikipedia": "en:UBI Banca", "name": "UBI Banca", "operator": "UBI Banca"}}, {"type": "node", "id": 4596276192, "lat": 41.8495571, "lon": 12.5915786, "tags": {"addr:city": "Roma", "addr:housenumber": "82", "addr:postcode": "00173", "addr:street": "Viale Antonio Ciamarra", "amenity": "bank", "brand": "Monte dei Paschi di Siena", "brand:wikidata": "Q46730", "brand:wikipedia": "en:Banca Monte dei Paschi di Siena", "name": "Monte dei Paschi di Siena"}}, {"type": "node", "id": 4606174043, "lat": 41.8370018, "lon": 12.5036488, "tags": {"addr:city": "Roma", "addr:housenumber": "100", "addr:postcode": "00142", "addr:street": "Via Mario Rigamonti", "amenity": "bank", "atm": "yes", "name": "Poste"}}, {"type": "node", "id": 4606174044, "lat": 41.8374251, "lon": 12.5015766, "tags": {"addr:city": "Roma", "addr:housenumber": "100", "addr:postcode": "00142", "addr:street": "Via Mario Rigamonti", "amenity": "bank", "atm": "yes", "name": "UniCredit"}}, {"type": "node", "id": 4606871058, "lat": 41.8056695, "lon": 12.6779093, "tags": {"amenity": "bank", "name": "BNL"}}, {"type": "node", "id": 4608392439, "lat": 41.8237255, "lon": 12.6441482, "tags": {"amenity": "bank", "brand": "UBI Banca", "brand:wikidata": "Q1476162", "level": "0", "name": "UBI Banca"}}, {"type": "node", "id": 4610450890, "lat": 41.910295, "lon": 12.4656578, "tags": {"addr:street": "Via degli Scipioni", "amenity": "bank", "name": "Fineco", "wheelchair": "yes"}}, {"type": "node", "id": 4610451989, "lat": 41.9099142, "lon": 12.4660276, "tags": {"amenity": "bank", "brand": "Barclays", "brand:wikidata": "Q245343", "brand:wikipedia": "en:Barclays", "name": "Barclays", "name:it": "Barclays"}}, {"type": "node", "id": 4644271603, "lat": 41.8081281, "lon": 12.4944766, "tags": {"amenity": "bank", "brand": "Monte dei Paschi di Siena", "brand:wikidata": "Q46730", "brand:wikipedia": "en:Banca Monte dei Paschi di Siena", "name": "Monte dei Paschi di Siena", "name:it": "Monte dei Paschi di Siena"}}, {"type": "node", "id": 4644300792, "lat": 41.7776883, "lon": 12.3495227, "tags": {"addr:housenumber": "276", "addr:postcode": "00125", "addr:street": "Via Amedeo Bocchi", "amenity": "bank", "name": "Intesa San Paolo"}}, {"type": "node", "id": 4664316303, "lat": 41.8965783, "lon": 12.5010673, "tags": {"addr:city": "Roma", "addr:housenumber": "6/A", "addr:postcode": "00185", "addr:street": "Via Carlo Alberto", "amenity": "bank", "atm": "yes", "brand": "Banca Popolare di Sondrio", "brand:wikidata": "Q686176", "brand:wikipedia": "en:Banca Popolare di Sondrio", "fax": "+39 06 44 65 584", "name": "Banca Popolare di Sondrio", "opening_hours": "Mo-Fr 08:30-13:30, 14:45-15:45", "phone": "+39 06 49 27 151", "source": "mapillary", "website": "https://www.popso.it/"}}, {"type": "node", "id": 4664316316, "lat": 41.8970583, "lon": 12.5002039, "tags": {"addr:city": "Roma", "addr:housenumber": "2", "addr:postcode": "00185", "addr:street": "Via Carlo Alberto", "amenity": "bank", "atm": "yes", "fax": "+39 06 44 56 772", "name": "Banca Popolare di Milano", "opening_hours": "Mo-Fr 08:30-13:30, 14:45-15:45", "phone": "+39 06 44 65 547", "source": "mapillary", "website": "http://www.bpm.it/it-com/contatti/richiesta-appuntamento.html?sceglifiliale=01013"}}, {"type": "node", "id": 4664316333, "lat": 41.898662, "lon": 12.4977529, "tags": {"addr:city": "Roma", "addr:housenumber": "3", "addr:postcode": "00185", "addr:street": "Piazza dell'Esquilino", "amenity": "bank", "atm": "yes", "brand": "BPER Banca", "brand:wikidata": "Q806167", "name": "BPER Banca", "official_name": "Banca Popolare dell'Emilia Romagna"}}, {"type": "node", "id": 4669026060, "lat": 41.940087, "lon": 12.5362575, "tags": {"amenity": "bank"}}, {"type": "node", "id": 4683334889, "lat": 41.7783939, "lon": 12.3424841, "tags": {"addr:housenumber": "46", "addr:street": "Via Francesco Donati", "amenity": "bank", "name": "BCC"}}, {"type": "node", "id": 4687320197, "lat": 41.8125532, "lon": 12.6809496, "tags": {"addr:city": "Frascati", "addr:housenumber": "28", "addr:postcode": "00044", "addr:street": "Via Sciadonna", "amenity": "bank", "name": "UniCastelli"}}, {"type": "node", "id": 4690579930, "lat": 41.8336708, "lon": 12.6005968, "tags": {"addr:city": "Roma", "addr:housenumber": "248", "addr:postcode": "00173", "addr:street": "Via Gasperina", "amenity": "bank", "brand": "UBI Banca", "brand:wikidata": "Q1476162", "brand:wikipedia": "en:UBI Banca", "name": "UBI Banca", "phone": "+39 06 7232496"}}, {"type": "node", "id": 4704942432, "lat": 41.8308334, "lon": 12.6174095, "tags": {"amenity": "bank", "brand": "UniCredit Bank", "brand:wikidata": "Q45568", "brand:wikipedia": "en:UniCredit", "name": "UniCredit Bank", "name:it": "UniCredit"}}, {"type": "node", "id": 4706311379, "lat": 41.6750037, "lon": 12.4998725, "tags": {"addr:housenumber": "174", "amenity": "bank", "atm": "yes", "brand": "UniCredit Bank", "brand:wikidata": "Q45568", "brand:wikipedia": "en:UniCredit", "name": "UniCredit Bank", "name:it": "UniCredit"}}, {"type": "node", "id": 4706311380, "lat": 41.6755513, "lon": 12.4997047, "tags": {"addr:city": "Pomezia", "addr:housenumber": "198", "addr:postcode": "00071", "addr:street": "Via Roma", "amenity": "bank", "atm": "yes", "brand": "BNL", "brand:wikidata": "Q2201225", "brand:wikipedia": "en:Banca Nazionale del Lavoro", "name": "BNL", "official_name": "Banca Nazionale del Lavoro", "official_name:en": "National Labor Bank", "official_name:it": "Banca Nazionale del Lavoro"}}, {"type": "node", "id": 4706321413, "lat": 41.675297, "lon": 12.4984829, "tags": {"amenity": "bank", "atm": "yes", "brand": "Unipol", "brand:wikidata": "Q1503818", "name": "Unipol"}}, {"type": "node", "id": 4706321414, "lat": 41.6752216, "lon": 12.4991944, "tags": {"addr:city": "Pomezia", "addr:housenumber": "1", "addr:postcode": "00071", "amenity": "bank", "atm": "yes", "name": "Banca Popolare di Puglia e Basilicata"}}, {"type": "node", "id": 4706338194, "lat": 41.675687, "lon": 12.4981065, "tags": {"addr:city": "Pomezia", "addr:housenumber": "26", "addr:postcode": "00071", "amenity": "bank", "atm": "yes", "brand": "Monte dei Paschi di Siena", "brand:wikidata": "Q46730", "brand:wikipedia": "en:Banca Monte dei Paschi di Siena", "name": "Monte dei Paschi di Siena"}}, {"type": "node", "id": 4706338195, "lat": 41.6732002, "lon": 12.4970831, "tags": {"addr:housenumber": "26", "amenity": "bank", "atm": "yes", "name": "Banca di Credito di Roma"}}, {"type": "node", "id": 4712126815, "lat": 42.0032775, "lon": 12.5177687, "tags": {"amenity": "bank", "name": "Intesa Sanpaolo"}}, {"type": "node", "id": 4721656195, "lat": 41.7292195, "lon": 12.281055, "tags": {"addr:city": "Roma", "addr:housenumber": "11", "addr:postcode": "00122", "addr:street": "Piazza Giuliano della Rovere", "amenity": "bank", "name": "IWBank", "wheelchair": "limited"}}, {"type": "node", "id": 4726039993, "lat": 41.8432888, "lon": 12.4872134, "tags": {"addr:housenumber": "12", "addr:street": "Via Francesco Cangiullo", "amenity": "bank", "name": "Banca Popolare di Spoleto"}}, {"type": "node", "id": 4730681432, "lat": 41.9065843, "lon": 12.497231, "tags": {"addr:city": "Roma", "addr:housenumber": "38", "addr:postcode": "00187", "addr:street": "Via Venti Settembre", "amenity": "bank", "atm": "yes", "name": "Blu Banca", "phone": "+39 06 42020548"}}, {"type": "node", "id": 4741563240, "lat": 41.8541593, "lon": 12.4807011, "tags": {"amenity": "bank", "atm": "yes", "name": "Credito Artigiano"}}, {"type": "node", "id": 4747283685, "lat": 41.9355274, "lon": 12.5106103, "tags": {"addr:city": "Roma", "addr:housenumber": "31", "addr:postcode": "00199", "addr:street": "Viale Somalia", "amenity": "bank", "atm": "yes", "name": "Unicredit Banca"}}, {"type": "node", "id": 4772243548, "lat": 41.8502245, "lon": 12.4912332, "tags": {"amenity": "bank", "atm": "yes", "brand": "UniCredit Bank", "brand:wikidata": "Q45568", "name": "UniCredit Bank", "opening_hours": "Mo-Fr 08:25-13:35,14:30-15:50"}}, {"type": "node", "id": 4773605627, "lat": 41.7390644, "lon": 12.2673525, "tags": {"addr:city": "Roma", "addr:housenumber": "2", "addr:postcode": "00121", "addr:street": "Piazza Enrico Baroni", "amenity": "bank", "brand": "UniCredit Bank", "brand:wikidata": "Q45568", "brand:wikipedia": "en:UniCredit", "name": "UniCredit Bank", "name:it": "UniCredit"}}, {"type": "node", "id": 4778999295, "lat": 41.7897734, "lon": 12.6689582, "tags": {"amenity": "bank", "name": "Banca Popolare di Milano"}}, {"type": "node", "id": 4786482025, "lat": 41.871454, "lon": 12.5292433, "tags": {"amenity": "bank", "name": "Unipol", "name:it": "Unipol", "wheelchair": "limited"}}, {"type": "node", "id": 4786491427, "lat": 41.8716671, "lon": 12.5270622, "tags": {"addr:city": "Roma", "addr:postcode": "00181", "addr:street": "Via Appia Nuova", "amenity": "bank", "brand": "BNL", "brand:wikidata": "Q2201225", "brand:wikipedia": "it:Banca Nazionale del Lavoro", "name": "BNL", "name:it": "BNL", "official_name": "Banca Nazionale del Lavoro", "official_name:en": "National Labor Bank", "official_name:it": "Banca Nazionale del Lavoro", "wheelchair": "yes"}}, {"type": "node", "id": 4810094548, "lat": 41.7826271, "lon": 12.6821359, "tags": {"amenity": "bank", "name": "Intesa San Paolo"}}, {"type": "node", "id": 4816385744, "lat": 41.7861575, "lon": 12.6706189, "tags": {"amenity": "bank", "name": "Banca Unicredit"}}, {"type": "node", "id": 4818151782, "lat": 41.7842576, "lon": 12.6759139, "tags": {"amenity": "bank", "name": "Banca del Fucino"}}, {"type": "node", "id": 4840280527, "lat": 41.7415218, "lon": 12.3612638, "tags": {"amenity": "bank", "name": "Banca Popolare di Milano", "name:it": "Banca Popolare di Milano"}}, {"type": "node", "id": 4847967810, "lat": 41.9008881, "lon": 12.4822164, "tags": {"amenity": "bank"}}, {"type": "node", "id": 4847968194, "lat": 41.9030366, "lon": 12.483307, "tags": {"amenity": "bank"}}, {"type": "node", "id": 4847968430, "lat": 41.8802333, "lon": 12.5078322, "tags": {"amenity": "bank"}}, {"type": "node", "id": 4850191754, "lat": 41.8848286, "lon": 12.5096897, "tags": {"amenity": "bank", "name": "Che Banca"}}, {"type": "node", "id": 4863814022, "lat": 41.8512579, "lon": 12.4852281, "tags": {"addr:city": "Roma", "addr:housenumber": "444", "addr:postcode": "00145", "addr:street": "Via Cristoforo Colombo", "amenity": "bank", "atm": "yes", "brand": "UniCredit Bank", "brand:wikidata": "Q45568", "fax": "+39 06 94521360", "name": "UniCredit Bank", "opening_hours": "Mo-Fr 08:25-12:50, 14:25-16:25", "phone": "+39 06 87820403", "website": "https://www.unicredit.it/"}}, {"type": "node", "id": 4863814121, "lat": 41.894255, "lon": 12.4911072, "tags": {"addr:city": "Roma", "addr:housenumber": "251", "addr:postcode": "00184", "addr:street": "Via Cavour", "amenity": "bank", "atm": "yes", "brand": "Cr\u00e9dit Agricole", "brand:wikidata": "Q590952", "brand:wikipedia": "fr:Cr\u00e9dit agricole", "email": "romaviacavour@bancacarim.it", "name": "Cr\u00e9dit Agricole", "old_name": "Banca Carim", "opening_hours": "Mo-Fr 08:25-13:30, 14:35-16:00", "operator": "Cr\u00e9dit Agricole Cariparma S.p.A.", "phone": "+39 06 48930709", "website": "https://www.credit-agricole.it/"}}, {"type": "node", "id": 4863814221, "lat": 41.8571628, "lon": 12.4958335, "tags": {"addr:city": "Roma", "addr:housenumber": "279", "addr:postcode": "00144", "addr:street": "Via Cristoforo Colombo", "amenity": "bank", "atm": "yes", "brand": "BNL", "brand:wikidata": "Q2201225", "brand:wikipedia": "it:Banca Nazionale del Lavoro", "name": "BNL", "official_name": "Banca Nazionale del Lavoro", "official_name:en": "National Labor Bank", "official_name:it": "Banca Nazionale del Lavoro", "website": "https://bnl.it"}}, {"type": "node", "id": 4864437092, "lat": 41.9086064, "lon": 12.5379438, "tags": {"addr:street": "Via Tiburtina", "amenity": "bank"}}, {"type": "node", "id": 4864458494, "lat": 41.9086551, "lon": 12.5395589, "tags": {"addr:housenumber": "493", "addr:street": "Via Tiburtina", "amenity": "bank", "brand": "Carige", "brand:wikidata": "Q3633695", "brand:wikipedia": "en:Banca Carige", "name": "Carige"}}, {"type": "node", "id": 4869726881, "lat": 41.8993035, "lon": 12.4669878, "tags": {"addr:city": "Roma", "addr:housenumber": "299;301", "addr:postcode": "00186", "addr:street": "Corso Vittorio Emanuele II", "amenity": "bank", "atm": "yes", "name": "Banca Popolare di Emilia Romagna", "opening_hours": "Mo-Fr 08:30-13:30, 14:15-15:30", "phone": "+39 06 686 8948", "source": "mapillary", "website": "https://www.bper.it/", "wheelchair": "yes"}}, {"type": "node", "id": 4869726886, "lat": 41.8991809, "lon": 12.4671575, "tags": {"addr:city": "Roma", "addr:housenumber": "293;295;297", "addr:postcode": "00186", "addr:street": "Corso Vittorio Emanuele II", "amenity": "bank", "atm": "yes", "fax": "+39 06 6892958", "name": "UBI Banca Popolare di Bergamo", "opening_hours": "Mo-Fr 08:30-13:30, 14:45-16:15", "phone": "+39 06 6893240", "website": "https://www.ubibanca.com/bpb", "wheelchair": "yes"}}, {"type": "node", "id": 4873933101, "lat": 41.9154507, "lon": 12.5476313, "tags": {"addr:housenumber": "572", "addr:street": "Via dei Monti Tiburtini", "amenity": "bank", "disused:shop": "yes"}}, {"type": "node", "id": 4873933102, "lat": 41.9153675, "lon": 12.5478799, "tags": {"addr:housenumber": "583", "addr:street": "Via dei Monti Tiburtini", "amenity": "bank", "brand": "UniCredit"}}, {"type": "node", "id": 4880226376, "lat": 41.905005, "lon": 12.4724972, "tags": {"amenity": "bank", "atm": "yes", "brand": "Banca Popolare S. Angelo", "name": "AGENZIA ROMA", "phone": "+39 06 68806354", "wheelchair": "no"}}, {"type": "node", "id": 4924136222, "lat": 41.8643226, "lon": 12.4842037, "tags": {"addr:housenumber": "32", "addr:street": "Piazza Augusto Albini", "amenity": "bank", "name": "Intesa San Paolo"}}, {"type": "node", "id": 4943583047, "lat": 41.8504833, "lon": 12.4593799, "tags": {"amenity": "bank"}}, {"type": "node", "id": 4954838011, "lat": 41.8408719, "lon": 12.4820787, "tags": {"addr:city": "Roma", "addr:housenumber": "10", "addr:postcode": "00142", "addr:street": "Via Benedetto Croce", "amenity": "bank", "brand": "UBI Banca", "brand:wikidata": "Q1476162", "brand:wikipedia": "en:UBI Banca", "name": "UBI Banca", "phone": "+39 06 5947431"}}, {"type": "node", "id": 4954838012, "lat": 41.8412192, "lon": 12.4814962, "tags": {"addr:city": "Roma", "addr:housenumber": "45", "addr:postcode": "00142", "addr:street": "Piazzale Roberto Ardig\u00f2", "amenity": "bank", "atm": "yes", "brand": "Banca Popolare di Milano", "brand:en": "Popular Bank of Milan", "brand:it": "Banca Popolare di Milano", "brand:wikidata": "Q806154", "brand:wikipedia": "en:Banca Popolare di Milano", "name": "Banca Popolare di Milano", "name:en": "Popular Bank of Milan", "name:it": "Banca Popolare di Milano", "opening_hours": "Mo-Fr 08:20-12:55,14:30-16:30", "phone": "+39 06 5423601"}}, {"type": "node", "id": 4980029013, "lat": 41.9076992, "lon": 12.6906861, "tags": {"addr:city": "Roma", "addr:housenumber": "322", "addr:postcode": "00132", "addr:street": "Via Massa di San Giuliano", "amenity": "bank", "atm": "yes", "brand": "BCC Roma", "brand:wikidata": "Q25060394", "name": "BCC Roma", "official_name": "Banca di Credito Cooperativo di Roma"}}, {"type": "node", "id": 5016756922, "lat": 41.9129742, "lon": 12.5062974, "tags": {"amenity": "bank", "name": "Deutsche Bank", "name:it": "Deutsche Bank", "wheelchair": "yes"}}, {"type": "node", "id": 5019612927, "lat": 41.8975941, "lon": 12.4817088, "tags": {"addr:housenumber": "84", "addr:street": "Via del Corso", "amenity": "bank", "brand": "Monte dei Paschi di Siena", "brand:wikidata": "Q46730", "brand:wikipedia": "en:Banca Monte dei Paschi di Siena", "name": "Monte dei Paschi di Siena"}}, {"type": "node", "id": 5019615324, "lat": 41.8939363, "lon": 12.4760816, "tags": {"addr:housenumber": "9", "addr:street": "Via Arenula", "amenity": "bank", "brand": "Monte dei Paschi di Siena", "brand:wikidata": "Q46730", "brand:wikipedia": "en:Banca Monte dei Paschi di Siena", "name": "Monte dei Paschi di Siena"}}, {"type": "node", "id": 5019625823, "lat": 41.9090421, "lon": 12.4769819, "tags": {"addr:housenumber": "518", "addr:street": "Via del Corso", "amenity": "bank", "brand": "Monte dei Paschi di Siena", "brand:wikidata": "Q46730", "name": "Monte dei Paschi di Siena"}}, {"type": "node", "id": 5019628422, "lat": 41.8999725, "lon": 12.4913067, "tags": {"addr:housenumber": "3", "addr:street": "Via Genova", "amenity": "bank", "brand": "Monte dei Paschi di Siena", "brand:wikidata": "Q46730", "brand:wikipedia": "en:Banca Monte dei Paschi di Siena", "name": "Monte dei Paschi di Siena"}}, {"type": "node", "id": 5019732021, "lat": 41.9004397, "lon": 12.4936, "tags": {"addr:city": "Roma", "addr:housenumber": "45", "addr:postcode": "00184", "addr:street": "Via Agostino Depretis", "amenity": "bank", "brand": "Monte dei Paschi di Siena", "brand:wikidata": "Q46730", "brand:wikipedia": "en:Banca Monte dei Paschi di Siena", "name": "Monte dei Paschi di Siena"}}, {"type": "node", "id": 5019732121, "lat": 41.9036315, "lon": 12.5022269, "tags": {"addr:city": "Roma", "addr:housenumber": "1", "addr:postcode": "00185", "addr:street": "Via Magenta", "amenity": "bank", "brand": "Monte dei Paschi di Siena", "brand:wikidata": "Q46730", "brand:wikipedia": "en:Banca Monte dei Paschi di Siena", "name": "Monte dei Paschi di Siena"}}, {"type": "node", "id": 5022197021, "lat": 41.8203667, "lon": 12.778171, "tags": {"amenity": "bank", "brand": "Bcc", "brand:wikidata": "Q25060394", "brand:wikipedia": "en:Banca di Credito Cooperativo di Roma", "name": "Bcc", "name:it": "BCC"}}, {"type": "node", "id": 5025278121, "lat": 41.9129165, "lon": 12.5070048, "tags": {"addr:city": "Roma", "addr:housenumber": "38", "addr:postcode": "00198", "addr:street": "Via Nomentana", "amenity": "bank", "atm": "yes", "brand": "UniCredit Bank", "brand:wikidata": "Q45568", "brand:wikipedia": "en:UniCredit", "name": "UniCredit Bank", "name:it": "UniCredit"}}, {"type": "node", "id": 5039447222, "lat": 41.8169347, "lon": 12.470304, "tags": {"addr:city": "Roma", "addr:postcode": "00144", "amenity": "bank", "atm": "yes", "brand": "Banca Popolare di Sondrio", "brand:en": "Popular Bank of Sandrio", "brand:it": "Banca Popolare di Sondrio", "brand:wikidata": "Q686176", "brand:wikipedia": "en:Banca Popolare di Sondrio", "name": "Banca Popolare di Sondrio", "name:en": "Popular Bank of Sandrio", "name:it": "Banca Popolare di Sondrio"}}, {"type": "node", "id": 5040001725, "lat": 41.9290555, "lon": 12.5685576}, {"type": "node", "id": 5040001726, "lat": 41.9290092, "lon": 12.5684592}, {"type": "node", "id": 5040001727, "lat": 41.9288808, "lon": 12.5684316}, {"type": "node", "id": 5040001728, "lat": 41.9288718, "lon": 12.5685921}, {"type": "node", "id": 5040001729, "lat": 41.928936, "lon": 12.5686957}, {"type": "node", "id": 5040478221, "lat": 41.8171217, "lon": 12.4686354, "tags": {"amenity": "bank", "atm": "yes", "brand": "Intesa Sanpaolo", "brand:wikidata": "Q1343118", "brand:wikipedia": "it:Intesa Sanpaolo", "name": "Intesa Sanpaolo", "name:it": "Intesa San Paolo"}}, {"type": "node", "id": 5041556225, "lat": 41.9446296, "lon": 12.5512369, "tags": {"addr:city": "Roma", "addr:housenumber": "149", "addr:postcode": "00137", "addr:street": "Via Ugo Ojetti", "amenity": "bank", "atm": "yes", "name": "UniCredit", "name:it": "Unicredit"}}, {"type": "node", "id": 5041812822, "lat": 41.7385751, "lon": 12.2694176, "tags": {"addr:city": "Roma", "addr:housenumber": "80", "addr:postcode": "00121", "addr:street": "Via Aristide Carabelli", "amenity": "bank", "brand": "UniCredit Bank", "brand:wikidata": "Q45568", "brand:wikipedia": "en:UniCredit", "name": "UniCredit Bank", "name:it": "UniCredit", "phone": "+39 06 87826607", "wheelchair": "yes"}}, {"type": "node", "id": 5042607122, "lat": 41.9448914, "lon": 12.5519514, "tags": {"addr:housenumber": "197/203", "addr:street": "Via Ugo Ojetti", "amenity": "bank", "name": "Deutsche Bank", "name:it": "Deutsche Bank"}}, {"type": "node", "id": 5042650721, "lat": 41.9439579, "lon": 12.5503847, "tags": {"addr:housenumber": "76", "addr:street": "Via Ugo Ojetti", "amenity": "bank", "name": "Banca popolare di Milano", "name:it": "Banca popolare di Milano"}}, {"type": "node", "id": 5042693521, "lat": 41.9520661, "lon": 12.546568, "tags": {"addr:housenumber": "52/58", "addr:street": "Via Renato Fucini", "amenity": "bank", "name": "UBI Banco di Brescia", "name:it": "UBI Banco di Brescia"}}, {"type": "node", "id": 5048014281, "lat": 41.8464988, "lon": 12.4823523, "tags": {"addr:housenumber": "41-45", "addr:street": "Via Vedana", "amenity": "bank", "name": "Credito Artigiano", "phone": "+39 06 5422 5547", "website": "creval.it"}}, {"type": "node", "id": 5048014283, "lat": 41.8452318, "lon": 12.4842218, "tags": {"addr:housenumber": "70", "addr:street": "Viale Pico della Mirandola", "amenity": "bank", "atm": "yes", "drive_through": "no", "name": "Monte dei Paschi di Siena", "operator": "Monte dei Paschi di Siena", "phone": "+39 06 5960 6607"}}, {"type": "node", "id": 5058280721, "lat": 41.8541135, "lon": 12.5905761, "tags": {"addr:city": "Roma", "addr:housenumber": "256", "addr:postcode": "00173", "addr:street": "Viale Antonio Ciamarra", "amenity": "bank", "name": "Banca Popolare del Lazio"}}, {"type": "node", "id": 5083047269, "lat": 41.91026, "lon": 12.4740628, "tags": {"addr:city": "Roma", "addr:housenumber": "6", "addr:postcode": "00196", "addr:street": "Via Ferdinando di Savoia", "amenity": "bank", "entrance": "yes", "name": "UniCredit"}}, {"type": "node", "id": 5083047273, "lat": 41.9101737, "lon": 12.4736948, "tags": {"addr:city": "Roma", "addr:housenumber": "8", "addr:postcode": "00196", "addr:street": "Via Ferdinando di Savoia", "amenity": "bank", "entrance": "yes", "name": "UBI Banca Sede di Roma", "operator": "UBI Banca S.p.a.", "phone": "+39 06 369891", "wheelchair": "no"}}, {"type": "node", "id": 5101274225, "lat": 41.8319785, "lon": 12.4659293, "tags": {"addr:housenumber": "111", "addr:postcode": "00144", "addr:street": "Viale Europa", "amenity": "bank", "atm": "yes", "name": "Banca Popolare di Novara", "name:it": "Banca Popolare di Novara"}}, {"type": "node", "id": 5110172621, "lat": 41.9131828, "lon": 12.521068, "tags": {"addr:city": "Roma", "addr:housenumber": "4/b", "addr:postcode": "00162", "addr:street": "Piazza Bologna", "amenity": "bank", "atm": "yes", "brand": "BNL", "brand:wikidata": "Q2201225", "brand:wikipedia": "it:Banca Nazionale del Lavoro", "name": "BNL", "official_name": "Banca Nazionale del Lavoro", "official_name:en": "National Labor Bank", "official_name:it": "Banca Nazionale del Lavoro", "wheelchair": "yes"}}, {"type": "node", "id": 5124563450, "lat": 41.8755707, "lon": 12.4474578}, {"type": "node", "id": 5124563451, "lat": 41.8754722, "lon": 12.4475678}, {"type": "node", "id": 5124563452, "lat": 41.8753384, "lon": 12.4473515}, {"type": "node", "id": 5124563453, "lat": 41.875437, "lon": 12.4472415}, {"type": "node", "id": 5168760215, "lat": 41.8919034, "lon": 12.5616009, "tags": {"addr:city": "Roma", "addr:housenumber": "80", "addr:street": "Via Giacomo Bresadola", "amenity": "bank", "atm": "yes", "name": "Banca del Fucino"}}, {"type": "node", "id": 5174296116, "lat": 41.8638653, "lon": 12.5486741, "tags": {"amenity": "bank", "brand": "Intesa Sanpaolo", "brand:wikidata": "Q1343118", "brand:wikipedia": "it:Intesa Sanpaolo", "name": "Intesa Sanpaolo"}}, {"type": "node", "id": 5209952255, "lat": 41.8662971, "lon": 12.4857351, "tags": {"amenity": "bank", "brand": "UniCredit Bank", "brand:wikidata": "Q45568", "name": "UniCredit Bank"}}, {"type": "node", "id": 5214004306, "lat": 41.7742779, "lon": 12.6952182, "tags": {"amenity": "bank", "name": "Credito Cooperativo"}}, {"type": "node", "id": 5297890587, "lat": 41.8349379, "lon": 12.4708782, "tags": {"amenity": "bank", "name": "BNL"}}, {"type": "node", "id": 5301980221, "lat": 42.0802147, "lon": 12.3994325, "tags": {"amenity": "bank", "brand": "UniCredit Bank", "brand:wikidata": "Q45568", "brand:wikipedia": "en:UniCredit", "name": "UniCredit Bank", "name:it": "UniCredit"}}, {"type": "node", "id": 5336819423, "lat": 41.853233, "lon": 12.5667625, "tags": {"addr:city": "Roma", "addr:housenumber": "20", "addr:postcode": "00174", "addr:street": "Viale Tito Labieno", "amenity": "bank", "brand": "Monte dei Paschi di Siena", "brand:wikidata": "Q46730", "brand:wikipedia": "en:Banca Monte dei Paschi di Siena", "name": "Monte dei Paschi di Siena"}}, {"type": "node", "id": 5357537756, "lat": 41.9227855, "lon": 12.5114997, "tags": {"addr:city": "Roma", "addr:housenumber": "139", "addr:postcode": "00198", "addr:street": "Corso Trieste", "amenity": "bank", "atm": "yes", "name": "Credito Artigiano"}}, {"type": "node", "id": 5357537757, "lat": 41.9228375, "lon": 12.5119946, "tags": {"addr:city": "Roma", "addr:housenumber": "148", "addr:postcode": "00198", "addr:street": "Corso Trieste", "amenity": "bank", "atm": "yes", "name": "BNL Gruppo BNP Paribas"}}, {"type": "node", "id": 5401680334, "lat": 41.8749909, "lon": 12.4674469, "tags": {"amenity": "bank", "name": "Monte dei Paschi di Siena"}}, {"type": "node", "id": 5402298488, "lat": 41.8644719, "lon": 12.550582, "tags": {"amenity": "bank", "atm": "yes", "brand": "Cr\u00e9dit Agricole", "brand:wikidata": "Q590952", "brand:wikipedia": "fr:Cr\u00e9dit agricole", "name": "Cr\u00e9dit Agricole"}}, {"type": "node", "id": 5434149103, "lat": 41.9093595, "lon": 12.5219403, "tags": {"amenity": "bank", "atm": "yes", "name": "Banca di Credito Cooperativo di Roma"}}, {"type": "node", "id": 5434149112, "lat": 41.9066668, "lon": 12.5173724, "tags": {"amenity": "bank", "atm": "yes", "brand": "BNL", "brand:wikidata": "Q2201225", "brand:wikipedia": "it:Banca Nazionale del Lavoro", "name": "BNL", "official_name": "Banca Nazionale del Lavoro", "official_name:en": "National Labor Bank", "official_name:it": "Banca Nazionale del Lavoro"}}, {"type": "node", "id": 5435192234, "lat": 41.9076074, "lon": 12.5181352, "tags": {"amenity": "bank", "atm": "yes", "brand": "Deutsche Bank", "brand:wikidata": "Q66048", "brand:wikipedia": "en:Deutsche Bank", "name": "Deutsche Bank"}}, {"type": "node", "id": 5435192254, "lat": 41.9039242, "lon": 12.5014886, "tags": {"addr:city": "Roma", "addr:housenumber": "24", "addr:postcode": "00185", "addr:street": "Via Solferino", "amenity": "bank", "atm": "yes", "brand": "Intesa Sanpaolo", "brand:wikidata": "Q1343118", "brand:wikipedia": "it:Intesa Sanpaolo", "name": "Intesa Sanpaolo", "opening_hours": "Mo-Fr 08:30-13:30,14:45-16:15"}}, {"type": "node", "id": 5435192275, "lat": 41.8885436, "lon": 12.4742391, "tags": {"amenity": "bank", "atm": "yes", "branch": "Agenzia 33", "brand": "Banca Popolare di Sondrio", "brand:wikidata": "Q686176", "brand:wikipedia": "en:Banca Popolare di Sondrio", "name": "Banca Popolare di Sondrio"}}, {"type": "node", "id": 5477978822, "lat": 41.9411819, "lon": 12.5522204, "tags": {"amenity": "bank", "name": "Intesa Sanpaolo"}}, {"type": "node", "id": 5478787367, "lat": 41.8935986, "lon": 12.4350634, "tags": {"addr:city": "Roma", "addr:housenumber": "392", "addr:postcode": "00165", "addr:street": "Via Gregorio VII", "amenity": "bank", "atm": "yes", "name": "Banca Fideuram"}}, {"type": "node", "id": 5506236037, "lat": 41.8978437, "lon": 12.4885596, "tags": {"addr:city": "Roma", "addr:housenumber": "183", "addr:postcode": "00184", "addr:street": "Via Nazionale", "amenity": "bank", "brand": "UBI Banca", "brand:wikidata": "Q1476162", "brand:wikipedia": "en:UBI Banca", "name": "UBI Banca"}}, {"type": "node", "id": 5514727799, "lat": 41.9130412, "lon": 12.571354, "tags": {"amenity": "bank", "name": "Banca del Fucino"}}, {"type": "node", "id": 5536375545, "lat": 41.9119493, "lon": 12.4750529, "tags": {"amenity": "bank", "name": "Intesa Sanpaolo"}}, {"type": "node", "id": 5585057727, "lat": 41.8595207, "lon": 12.5654398, "tags": {"amenity": "bank", "name": "Banca del Fucino"}}, {"type": "node", "id": 5588906121, "lat": 41.9029452, "lon": 12.4777579, "tags": {"addr:housenumber": "46", "addr:postcode": "00186", "addr:street": "via Campo Marzio", "amenity": "bank", "name": "IBL", "opening_hours": "Mo-Fr 09:00-13:30,15:00-17:30", "phone": "+39 06684591", "website": "https://www.iblbanca.it/"}}, {"type": "node", "id": 5598361508, "lat": 41.8728169, "lon": 12.4493963, "tags": {"addr:housenumber": "226", "addr:street": "Circonvallazione Gianicolense", "amenity": "bank", "name": "Monte dei Paschi di Siena"}}, {"type": "node", "id": 5613251747, "lat": 41.8609368, "lon": 12.4993196, "tags": {"addr:city": "Roma", "addr:housenumber": "8/b", "addr:postcode": "00147", "addr:street": "Piazza dei Navigatori", "amenity": "bank", "atm": "yes", "brand": "Monte dei Paschi di Siena", "brand:wikidata": "Q46730", "brand:wikipedia": "en:Banca Monte dei Paschi di Siena", "name": "Monte dei Paschi di Siena", "phone": "+39 06 510 7071"}}, {"type": "node", "id": 5643891538, "lat": 41.7865898, "lon": 12.6725478, "tags": {"amenity": "bank", "name": "B.C.C. San Barnaba Di Marino"}}, {"type": "node", "id": 5735233104, "lat": 41.9053134, "lon": 12.457906, "tags": {"amenity": "bank", "brand": "Intesa Sanpaolo", "brand:wikidata": "Q1343118", "brand:wikipedia": "it:Intesa Sanpaolo", "name": "Intesa Sanpaolo", "source": "survey", "wheelchair": "no"}}, {"type": "node", "id": 5746652389, "lat": 41.879458, "lon": 12.4765506, "tags": {"amenity": "bank", "atm": "yes", "brand": "UniCredit Bank", "brand:wikidata": "Q45568", "name": "UniCredit Bank"}}, {"type": "node", "id": 5746652390, "lat": 41.8795278, "lon": 12.4776445, "tags": {"amenity": "bank", "brand": "Che Banca"}}, {"type": "node", "id": 5746652392, "lat": 41.8790085, "lon": 12.4768617, "tags": {"amenity": "bank", "atm": "yes", "brand": "Banca Popolare di Spoleto"}}, {"type": "node", "id": 5758872422, "lat": 41.898903, "lon": 12.4288159, "tags": {"amenity": "bank", "brand": "Cr\u00e9dit Agricole", "brand:wikidata": "Q590952", "brand:wikipedia": "fr:Cr\u00e9dit agricole", "name": "Cr\u00e9dit Agricole", "operator": "Cr\u00e9dit Agricole"}}, {"type": "node", "id": 5774833565, "lat": 41.9393554, "lon": 12.5272496, "tags": {"addr:city": "Roma", "addr:housenumber": "21", "addr:postcode": "00141", "addr:street": "Piazza Conca d'Oro", "amenity": "bank", "atm": "yes", "brand": "Deutsche Bank", "brand:wikidata": "Q66048", "name": "Deutsche Bank"}}, {"type": "node", "id": 5792989980, "lat": 41.9079706, "lon": 12.4882906, "tags": {"addr:housenumber": "68", "addr:postcode": "00187", "addr:street": "Via Emilia", "amenity": "bank", "name": "Banco Desio", "old_name": "Banca Populare di Spoleto"}}, {"type": "node", "id": 5793597647, "lat": 41.9709315, "lon": 12.4341534, "tags": {"amenity": "bank", "name": "Intesa Sanpaolo"}}, {"type": "node", "id": 5793676007, "lat": 41.9832604, "lon": 12.4080126, "tags": {"addr:housenumber": "23", "addr:street": "Via Vittorio Piccinini", "amenity": "bank", "name": "Banco BPM", "phone": "+39 06 3031 6230", "website": "bancobpmspa.com"}}, {"type": "node", "id": 5796917263, "lat": 41.9459844, "lon": 12.5290657, "tags": {"addr:housenumber": "334", "addr:street": "Viale Jonio", "amenity": "bank", "name": "Banca Sella", "opening_hours": "Mo-Fr 08:30-13:30", "phone": "+39 06 818 3631", "website": "https://www.sella.it/"}}, {"type": "node", "id": 5807256153, "lat": 41.9131855, "lon": 12.5060539, "tags": {"addr:city": "Roma", "addr:housenumber": "250", "addr:postcode": "00198", "addr:street": "Viale Regina Margherita", "amenity": "bank", "name": "Banca del Fucino", "wheelchair": "no"}}, {"type": "node", "id": 5812972853, "lat": 41.8709675, "lon": 12.52716, "tags": {"amenity": "bank", "brand": "UniCredit Bank", "brand:wikidata": "Q45568", "brand:wikipedia": "en:UniCredit", "name": "UniCredit Bank", "name:it": "UniCredit", "wheelchair": "yes"}}, {"type": "node", "id": 5813035153, "lat": 41.8756139, "lon": 12.5272183, "tags": {"addr:city": "Roma", "addr:housenumber": "324", "addr:postcode": "00181", "addr:street": "Via Tuscolana", "amenity": "bank", "brand": "Monte dei Paschi di Siena", "brand:wikidata": "Q46730", "brand:wikipedia": "en:Banca Monte dei Paschi di Siena", "name": "Monte dei Paschi di Siena"}}, {"type": "node", "id": 5815705460, "lat": 41.9243177, "lon": 12.4901053, "tags": {"amenity": "bank", "name": "Banca Popular de Sondrio"}}, {"type": "node", "id": 5815788253, "lat": 41.9228929, "lon": 12.4915614, "tags": {"amenity": "bank", "name": "BNL"}}, {"type": "node", "id": 5815788453, "lat": 41.9224604, "lon": 12.4919726, "tags": {"amenity": "bank", "name": "Cr\u00e9dit Agricole"}}, {"type": "node", "id": 5815865853, "lat": 41.9115845, "lon": 12.4920957, "tags": {"amenity": "bank", "name": "Banca Popolare del Frusinate"}}, {"type": "node", "id": 5815876986, "lat": 41.9067954, "lon": 12.4881441, "tags": {"amenity": "bank", "name": "Banca Popolare de Novara"}}, {"type": "node", "id": 5826795291, "lat": 41.8964823, "lon": 12.4734336, "tags": {"amenity": "bank", "brand": "Intesa Sanpaolo", "brand:wikidata": "Q1343118", "brand:wikipedia": "it:Intesa Sanpaolo", "name": "Intesa Sanpaolo"}}, {"type": "node", "id": 5826797890, "lat": 41.8966362, "lon": 12.4738294, "tags": {"amenity": "bank", "name": "Banca Popolare de Sondrio"}}, {"type": "node", "id": 5829894185, "lat": 41.9060704, "lon": 12.4781076, "tags": {"amenity": "bank", "brand": "BNL", "brand:wikidata": "Q2201225", "brand:wikipedia": "it:Banca Nazionale del Lavoro", "name": "BNL", "official_name": "Banca Nazionale del Lavoro", "official_name:en": "National Labor Bank", "official_name:it": "Banca Nazionale del Lavoro", "wheelchair": "limited"}}, {"type": "node", "id": 5831952851, "lat": 41.860335, "lon": 12.4428067, "tags": {"amenity": "bank", "name": "UniCredit Bank"}}, {"type": "node", "id": 5831953541, "lat": 41.9459841, "lon": 12.5195837, "tags": {"amenity": "bank", "brand": "Intesa Sanpaolo", "brand:wikidata": "Q1343118", "name": "Intesa Sanpaolo"}}, {"type": "node", "id": 5871081681, "lat": 41.9498339, "lon": 12.5382327, "tags": {"amenity": "bank"}}, {"type": "node", "id": 5898706684, "lat": 41.9019531, "lon": 12.477495, "tags": {"amenity": "bank", "brand": "Banca Popolare di Novara", "brand:en": "Popular Bank of Novara", "brand:it": "Banca Popolare di Novara", "brand:wikidata": "Q3633742", "brand:wikipedia": "en:Banca Popolare di Novara", "name": "Banca Popolare di Novara", "name:en": "Popular Bank of Novara", "name:it": "Banca Popolare di Novara"}}, {"type": "node", "id": 5951393385, "lat": 41.946149, "lon": 12.5176851, "tags": {"addr:city": "Roma", "addr:housenumber": "225", "addr:postcode": "00141", "addr:street": "Via dei Prati Fiscali", "amenity": "bank", "name": "UniCredit"}}, {"type": "node", "id": 5983166457, "lat": 41.876307, "lon": 12.4144594, "tags": {"addr:city": "Roma", "addr:housenumber": "278", "addr:postcode": "00163", "addr:street": "Via della Pisana", "amenity": "bank", "atm": "yes", "name": "Monte dei Paschi di Siena"}}, {"type": "node", "id": 5983166458, "lat": 41.883142, "lon": 12.4185875, "tags": {"addr:city": "Roma", "addr:housenumber": "112", "addr:postcode": "00163", "addr:street": "Via della Pisana", "amenity": "bank", "atm": "yes", "brand": "Intesa Sanpaolo", "brand:wikidata": "Q1343118", "name": "Intesa Sanpaolo"}}, {"type": "node", "id": 5983393162, "lat": 41.9359041, "lon": 12.5373685, "tags": {"amenity": "bank", "name": "BNL"}}, {"type": "node", "id": 6010342920, "lat": 41.8936391, "lon": 12.4939073}, {"type": "node", "id": 6010342921, "lat": 41.8936021, "lon": 12.4938147}, {"type": "node", "id": 6010342922, "lat": 41.8935706, "lon": 12.4938372}, {"type": "node", "id": 6010342923, "lat": 41.8935509, "lon": 12.493788}, {"type": "node", "id": 6010342924, "lat": 41.8935956, "lon": 12.4939131}, {"type": "node", "id": 6010342925, "lat": 41.8935823, "lon": 12.4938799}, {"type": "node", "id": 6010342926, "lat": 41.893551, "lon": 12.4939023}, {"type": "node", "id": 6010342927, "lat": 41.8935155, "lon": 12.4938134}, {"type": "node", "id": 6010342929, "lat": 41.8936266, "lon": 12.4939196}, {"type": "node", "id": 6010342930, "lat": 41.8936093, "lon": 12.493932}, {"type": "node", "id": 6010342931, "lat": 41.8936004, "lon": 12.4939097}, {"type": "node", "id": 6135162923, "lat": 41.8555697, "lon": 12.562005, "tags": {"amenity": "bank", "brand": "Unipol", "brand:wikidata": "Q1503818", "name": "Unipol", "wheelchair": "limited"}}, {"type": "node", "id": 6138197085, "lat": 41.8769461, "lon": 12.5258786, "tags": {"addr:city": "Roma", "addr:housenumber": "281/c", "addr:postcode": "00181", "addr:street": "Via Tuscolana", "amenity": "bank", "brand": "Intesa Sanpaolo", "brand:wikidata": "Q1343118", "brand:wikipedia": "it:Intesa Sanpaolo", "name": "Intesa Sanpaolo"}}, {"type": "node", "id": 6153140344, "lat": 41.85269, "lon": 12.5661399, "tags": {"addr:city": "Roma", "addr:housenumber": "50", "addr:postcode": "00174", "addr:street": "Viale Tito Labieno", "amenity": "bank", "brand": "Deutsche Bank", "brand:wikidata": "Q66048", "brand:wikipedia": "en:Deutsche Bank", "name": "Deutsche Bank"}}, {"type": "node", "id": 6181195163, "lat": 41.9350383, "lon": 12.5320916, "tags": {"addr:housenumber": "5", "addr:postcode": "00144", "addr:street": "Largo Valsolda", "amenity": "bank", "atm": "yes", "name": "UniCredit", "operator": "Unicredit Banca di Roma"}}, {"type": "node", "id": 6255669271, "lat": 41.9133278, "lon": 12.5194481, "tags": {"amenity": "bank", "brand": "UniCredit Bank", "brand:wikidata": "Q45568", "brand:wikipedia": "en:UniCredit", "name": "UniCredit Bank"}}, {"type": "node", "id": 6260454419, "lat": 41.8709714, "lon": 12.5281019, "tags": {"addr:city": "Roma", "addr:housenumber": "1", "addr:postcode": "00179", "addr:street": "Via Genzano", "amenity": "bank", "atm": "yes", "brand": "Intesa Sanpaolo", "brand:wikidata": "Q1343118", "brand:wikipedia": "it:Intesa Sanpaolo", "name": "Intesa Sanpaolo"}}, {"type": "node", "id": 6393216686, "lat": 41.8753994, "lon": 12.4450613, "tags": {"addr:housenumber": "203", "addr:street": "Circonvallazione Gianicolense", "amenity": "bank", "name": "BNL", "opening_hours": "24/7"}}, {"type": "node", "id": 6403066958, "lat": 41.9299957, "lon": 12.4261428, "tags": {"amenity": "bank", "atm": "no", "brand": "Deutsche Bank", "brand:wikidata": "Q66048", "brand:wikipedia": "en:Deutsche Bank", "name": "Deutsche Bank"}}, {"type": "node", "id": 6446644698, "lat": 41.9203052, "lon": 12.4977364, "tags": {"amenity": "bank", "atm": "yes", "name": "UniCredit"}}, {"type": "node", "id": 6467683806, "lat": 41.8938245, "lon": 12.5882024, "tags": {"addr:city": "Roma", "addr:housenumber": "738", "addr:street": "Via Prenestina", "amenity": "bank", "atm": "yes", "name": "UniCredit"}}, {"type": "node", "id": 6480331186, "lat": 41.750284, "lon": 12.3529581, "tags": {"amenity": "bank", "brand": "UniCredit Bank", "brand:wikidata": "Q45568", "brand:wikipedia": "en:UniCredit", "name": "UniCredit Bank"}}, {"type": "node", "id": 6514904627, "lat": 41.9316403, "lon": 12.5193525, "tags": {"amenity": "bank", "brand": "Monte dei Paschi di Siena", "brand:wikidata": "Q46730", "brand:wikipedia": "en:Banca Monte dei Paschi di Siena", "name": "Monte dei Paschi di Siena"}}, {"type": "node", "id": 6564791883, "lat": 41.9082091, "lon": 12.4925058, "tags": {"amenity": "bank", "atm": "yes", "brand": "Intesa Sanpaolo", "brand:wikidata": "Q1343118", "name": "Intesa Sanpaolo"}}, {"type": "node", "id": 6564791884, "lat": 41.9079358, "lon": 12.4926166, "tags": {"amenity": "bank", "atm": "yes", "brand": "Banco di Sardegna", "brand:wikidata": "Q806205", "name": "Banco di Sardegna"}}, {"type": "node", "id": 6564796886, "lat": 41.9085102, "lon": 12.4945308, "tags": {"amenity": "bank", "atm": "yes", "brand": "UniCredit Bank", "brand:wikidata": "Q45568", "name": "UniCredit Bank"}}, {"type": "node", "id": 6564796887, "lat": 41.9075452, "lon": 12.4979357, "tags": {"amenity": "bank", "atm": "yes", "brand": "Banca Carige"}}, {"type": "node", "id": 6566225643, "lat": 41.9004936, "lon": 12.4808185, "tags": {"amenity": "bank", "brand": "Intesa Sanpaolo", "brand:wikidata": "Q1343118", "brand:wikipedia": "it:Intesa Sanpaolo", "name": "Intesa Sanpaolo", "wheelchair": "limited"}}, {"type": "node", "id": 6566238342, "lat": 41.8999392, "lon": 12.4810671, "tags": {"addr:city": "Roma", "addr:housenumber": "232", "addr:street": "Via del Corso", "amenity": "bank", "brand": "Monte dei Paschi di Siena", "brand:wikidata": "Q46730", "brand:wikipedia": "en:Banca Monte dei Paschi di Siena", "name": "Monte dei Paschi di Siena"}}, {"type": "node", "id": 6571888647, "lat": 41.830198, "lon": 12.4883726, "tags": {"addr:city": "Roma", "addr:country": "IT", "addr:housenumber": "5", "addr:street": "Via Simone Martini", "amenity": "bank", "operator": "UBI Banca"}}, {"type": "node", "id": 6640261765, "lat": 41.879888, "lon": 12.4754436, "tags": {"amenity": "bank", "atm": "yes", "brand": "Monte dei Paschi di Siena", "brand:wikidata": "Q46730", "name": "Monte dei Paschi di Siena"}}, {"type": "node", "id": 6665335666, "lat": 41.944159, "lon": 12.5379509, "tags": {"amenity": "bank", "brand": "UniCredit Bank", "brand:wikidata": "Q45568", "brand:wikipedia": "en:UniCredit", "name": "UniCredit Bank"}}, {"type": "node", "id": 6718198928, "lat": 42.078897, "lon": 12.2878946, "tags": {"addr:city": "Anguillara Sabazia", "addr:housenumber": "km 5.400", "addr:postcode": "00061", "addr:street": "Via Anguillarese", "amenity": "bank", "atm": "yes", "brand": "BNL", "brand:wikidata": "Q2201225", "brand:wikipedia": "it:Banca Nazionale del Lavoro", "drive_through": "no", "name": "BNL", "official_name": "Banca Nazionale del Lavoro", "official_name:en": "National Labor Bank", "official_name:it": "Banca Nazionale del Lavoro", "opening_hours": "Mo-Fr 08:35-13:35, 14:45-16:15", "website": "https://www.bnl.it", "wheelchair": "no"}}, {"type": "node", "id": 6720796385, "lat": 41.8695256, "lon": 12.5302267, "tags": {"addr:city": "Roma", "addr:housenumber": "29", "addr:postcode": "00179", "addr:street": "Largo dei Colli Albani", "amenity": "bank", "brand": "UBI Banca", "brand:wikidata": "Q1476162", "brand:wikipedia": "en:UBI Banca", "name": "UBI Banca", "phone": "+39 06 7821060", "website": "https://www.ubibanca.com/it/", "wheelchair": "no"}}, {"type": "node", "id": 6862838920, "lat": 41.8748274, "lon": 12.4803061, "tags": {"addr:city": "Roma", "addr:housenumber": "16", "addr:postcode": "00154", "addr:street": "Via Ostiense", "amenity": "bank", "brand": "Credem", "brand:wikidata": "Q3696881", "name": "Credem", "official_name": "Credito Emiliano"}}, {"type": "node", "id": 6897079042, "lat": 41.8090605, "lon": 12.5962515, "tags": {"addr:housenumber": "137", "addr:postcode": "00043", "amenity": "bank", "atm": "yes", "mapillary": "833231517291905", "name": "Banca Centro Lazio"}}, {"type": "node", "id": 7049025393, "lat": 41.8545375, "lon": 12.5607388, "tags": {"addr:city": "Roma", "addr:housenumber": "8", "addr:postcode": "00174", "addr:street": "Viale Anicio Gallo", "amenity": "bank", "brand": "Deutsche Bank", "brand:wikidata": "Q66048", "brand:wikipedia": "en:Deutsche Bank", "name": "Deutsche Bank"}}, {"type": "node", "id": 7049025406, "lat": 41.8541837, "lon": 12.561286, "tags": {"addr:city": "Roma", "addr:housenumber": "60", "addr:postcode": "00174", "addr:street": "Via Lucio Papirio", "amenity": "bank", "atm": "yes", "brand": "Intesa Sanpaolo", "brand:wikidata": "Q1343118", "brand:wikipedia": "it:Intesa Sanpaolo", "drive_through": "no", "name": "Intesa Sanpaolo"}}, {"type": "node", "id": 7089278179, "lat": 41.908551, "lon": 12.5364206, "tags": {"addr:city": "Roma", "addr:housenumber": "399", "addr:postcode": "00159", "addr:street": "Via Tiburtina", "amenity": "bank", "brand": "BNL", "brand:wikidata": "Q2201225", "brand:wikipedia": "it:Banca Nazionale del Lavoro", "name": "BNL", "official_name": "Banca Nazionale del Lavoro"}}, {"type": "node", "id": 7090473329, "lat": 41.8606177, "lon": 12.486514, "tags": {"amenity": "bank", "atm": "yes", "brand": "Banca Popolare di Sondrio", "brand:wikidata": "Q686176", "brand:wikipedia": "en:Banca Popolare di Sondrio", "name": "Banca Popolare di Sondrio"}}, {"type": "node", "id": 7092947689, "lat": 41.8444586, "lon": 12.4833016, "tags": {"amenity": "bank", "brand": "Banca Popolare del Lazio", "name": "Banca Popolare del Lazio Roma Agenzia 12"}}, {"type": "node", "id": 7132487861, "lat": 41.971733, "lon": 12.5164715, "tags": {"addr:city": "Roma", "addr:housenumber": "9", "addr:postcode": "00138", "addr:street": "Via Don Giustino Maria Russolillo", "amenity": "bank", "name": "Banca di Credito Cooperativo"}}, {"type": "node", "id": 7194172049, "lat": 41.9020377, "lon": 12.4950133, "tags": {"addr:city": "Roma", "addr:housenumber": "256", "addr:postcode": "00184", "addr:street": "Via Nazionale", "amenity": "bank", "name": "UBI Banca Popolare di Ancona"}}, {"type": "node", "id": 7296399996, "lat": 41.9722917, "lon": 12.5161627, "tags": {"addr:city": "Roma", "addr:housenumber": "7", "addr:postcode": "00138", "addr:street": "Piazza dei Vocazionisti", "amenity": "bank", "brand": "Monte dei Paschi di Siena", "brand:wikidata": "Q46730", "brand:wikipedia": "en:Banca Monte dei Paschi di Siena", "name": "Monte dei Paschi di Siena"}}, {"type": "node", "id": 7572564862, "lat": 41.844819, "lon": 12.4345438, "tags": {"addr:city": "Roma", "addr:housenumber": "18c", "addr:postcode": "00148", "addr:street": "Via Monte delle Capre", "amenity": "bank", "atm": "yes", "brand": "Bcc", "brand:wikidata": "Q25060394", "brand:wikipedia": "en:Banca di Credito Cooperativo di Roma", "drive_through": "no", "email": "agenzia025@roma.bcc.it", "name": "Bcc", "opening_hours": "Mo-Fr 08:30-13:30, 15:00-15:45", "operator": "Banca di Credito Cooperativo di Roma", "phone": "+390652865551"}}, {"type": "node", "id": 7622233108, "lat": 42.0762532, "lon": 12.2903021, "tags": {"amenity": "bank", "atm": "yes", "brand": "UBI Banca", "brand:wikidata": "Q1476162", "brand:wikipedia": "en:UBI Banca", "drive_through": "no", "email": "UBI-3306@ubibanca.it", "name": "UBI Banca", "opening_hours": "Mo-Fr 08:30-13:30, 14:45-15:45; Sa 08:30-12:00", "operator": "UBI Banca S.p.A", "phone": "+390699901152"}}, {"type": "node", "id": 7659408992, "lat": 41.8518624, "lon": 12.4329494, "tags": {"addr:city": "Roma", "addr:housenumber": "718e", "addr:postcode": "00148", "addr:street": "Via Portuense", "amenity": "bank", "brand": "UBI Banca", "brand:wikidata": "Q1476162", "brand:wikipedia": "en:UBI Banca", "name": "UBI Banca"}}, {"type": "node", "id": 7709659814, "lat": 41.8841931, "lon": 12.5611614, "tags": {"addr:city": "Roma", "addr:housenumber": "73", "addr:postcode": "00172", "addr:street": "Viale della Primavera", "amenity": "bank", "brand": "Bcc", "brand:wikidata": "Q25060394", "brand:wikipedia": "en:Banca di Credito Cooperativo di Roma", "name": "Bcc", "phone": "+39 06 52865156"}}, {"type": "node", "id": 7712999207, "lat": 41.9379062, "lon": 12.4671514, "tags": {"addr:city": "Roma", "addr:housenumber": "453", "addr:postcode": "00191", "addr:street": "Via Flaminia", "amenity": "bank", "brand": "Cr\u00e9dit Agricole", "brand:wikidata": "Q590952", "brand:wikipedia": "fr:Cr\u00e9dit agricole", "name": "Cr\u00e9dit Agricole", "phone": "+39 06 33227911"}}, {"type": "node", "id": 7719497205, "lat": 41.8681057, "lon": 12.4946978, "tags": {"amenity": "bank", "brand": "BNL", "name": "BNL BNP Paribas"}}, {"type": "node", "id": 7757180346, "lat": 41.8572687, "lon": 12.4957505, "tags": {"addr:housenumber": "279", "amenity": "bank", "name": "BNL", "opening_hours": "Mo-Fr 08:35-13:35, 14:45-17:00", "ref": "Agenzia Roma 24", "service_times": "Mo-Fr 08:35-13:35, 14:45-16:15"}}, {"type": "node", "id": 7790917146, "lat": 42.0807506, "lon": 12.4002819, "tags": {"amenity": "bank", "brand": "Bcc", "brand:wikidata": "Q25060394", "brand:wikipedia": "en:Banca di Credito Cooperativo di Roma", "name": "Bcc"}}, {"type": "node", "id": 7944558769, "lat": 41.8408783, "lon": 12.4825486, "tags": {"addr:city": "Roma", "addr:housenumber": "18", "addr:postcode": "00142", "addr:street": "Via Benedetto Croce", "amenity": "bank", "name": "Fineco", "phone": "+39 06 59606530"}}, {"type": "node", "id": 7948012867, "lat": 41.8558417, "lon": 12.4458008, "tags": {"amenity": "bank", "name": "UBI Banca"}}, {"type": "node", "id": 7948017231, "lat": 41.8652407, "lon": 12.4649789, "tags": {"amenity": "bank", "name": "UniCredit Bank"}}, {"type": "node", "id": 7958980669, "lat": 42.0906489, "lon": 12.2718067, "tags": {"addr:city": "Anguillara Sabazia", "addr:housenumber": "1", "addr:postcode": "00061", "addr:street": "Via Arturo Toscanini", "amenity": "bank", "atm": "yes", "brand": "UniCredit", "drive_through": "no", "email": "ag30203-italia@unicredit.eu", "name": "UniCredit", "opening_hours": "Mo-Sa 08:30-12:55,14:45-16:45", "opening_hours:covid19": "restricted", "operator": "UniCredit S.p.A.", "phone": "+390687826804", "website": "https://www.unicredit.it/it/contatti-e-agenzie/lista-agenzie/rm/anguillara-sabazia/anguillara-sabazia-ag30203.html", "wheelchair": "no"}}, {"type": "node", "id": 8022281848, "lat": 41.867495, "lon": 12.5305896, "tags": {"addr:city": "Roma", "addr:housenumber": "631/a", "addr:postcode": "00179", "addr:street": "Via Appia Nuova", "amenity": "bank", "brand": "Deutsche Bank", "brand:wikidata": "Q66048", "brand:wikipedia": "en:Deutsche Bank", "name": "Deutsche Bank"}}, {"type": "node", "id": 8042204633, "lat": 41.8913066, "lon": 12.5624012, "tags": {"amenity": "bank", "atm": "yes", "name": "Banca Popolare Milano"}}, {"type": "node", "id": 8102767842, "lat": 41.8657935, "lon": 12.4988137, "tags": {"amenity": "bank", "name": "Monte dei Paschi di Siena"}}, {"type": "node", "id": 8124865146, "lat": 41.9427887, "lon": 12.4238819, "tags": {"amenity": "bank", "atm": "yes", "name": "Banca Populare di Sienna"}}, {"type": "node", "id": 8167281465, "lat": 41.7522269, "lon": 12.3550218, "tags": {"amenity": "bank", "brand": "Banca Popolare di Sondrio", "brand:wikidata": "Q686176", "brand:wikipedia": "en:Banca Popolare di Sondrio", "name": "Banca Popolare di Sondrio"}}, {"type": "node", "id": 8208680833, "lat": 42.0789298, "lon": 12.2870364, "tags": {"addr:city": "Anguillara Sabazia", "addr:housenumber": "km 5.200", "addr:postcode": "00061", "addr:street": "Via Anguillarese", "amenity": "bank", "name": "Banca Di Formello E Trevignano Romano Di Credito Cooperativo", "opening_hours": "Mo-Fr 08:30-13:30, 14:45-15:30", "phone": "+39069994574"}}, {"type": "node", "id": 8208852568, "lat": 41.6815625, "lon": 12.5056157, "tags": {"amenity": "bank", "brand": "Banca Popolare del Lazio", "brand:wikidata": "Q3633725", "brand:wikipedia": "it:Banca Popolare del Lazio", "name": "Banca Popolare del Lazio", "opening_hours": "Mo-Sa 08:30-13:30,14:30-15:30", "website": "https://www.bplazio.it/"}}, {"type": "node", "id": 8230830203, "lat": 41.9370949, "lon": 12.4312072, "tags": {"amenity": "bank", "brand": "BNL", "name": "BNL", "official_name": "Banca Nazionale del Lavoro", "official_name:en": "National Labor Bank", "official_name:it": "Banca Nazionale del Lavoro"}}, {"type": "node", "id": 8258615827, "lat": 41.9014725, "lon": 12.4825948, "tags": {"amenity": "bank", "atm": "yes"}}, {"type": "node", "id": 8390306938, "lat": 41.9140689, "lon": 12.5210716, "tags": {"addr:city": "Roma", "addr:housenumber": "46", "addr:postcode": "00162", "addr:street": "Piazza Bologna", "amenity": "bank", "brand": "Intesa Sanpaolo", "brand:wikidata": "Q1343118", "brand:wikipedia": "it:Intesa Sanpaolo", "name": "Intesa Sanpaolo", "phone": "+39 06 44160711"}}, {"type": "node", "id": 8437277690, "lat": 41.8811584, "lon": 12.5145859, "tags": {"addr:city": "Roma", "addr:housenumber": "174", "addr:postcode": "00183", "addr:street": "Via Appia Nuova", "amenity": "bank", "brand": "Cr\u00e9dit Agricole", "brand:wikidata": "Q590952", "brand:wikipedia": "fr:Cr\u00e9dit agricole", "name": "Cr\u00e9dit Agricole"}}, {"type": "node", "id": 8443122328, "lat": 41.9470822, "lon": 12.5879152, "tags": {"addr:housenumber": "50", "addr:street": "Via Donato Menichella", "amenity": "bank", "atm": "yes", "brand": "Bcc", "brand:wikidata": "Q25060394", "brand:wikipedia": "en:Banca di Credito Cooperativo di Roma", "name": "Banca di Credito Cooperativo di Roma", "phone": "+39 0652865146"}}, {"type": "node", "id": 8484645017, "lat": 41.9522595, "lon": 12.7310112, "tags": {"amenity": "bank", "brand": "UBI Banca", "brand:wikidata": "Q1476162", "brand:wikipedia": "en:UBI Banca", "name": "UBI Banca"}}, {"type": "node", "id": 8488724363, "lat": 41.7324778, "lon": 12.2755319, "tags": {"amenity": "bank", "brand": "UniCredit Bank", "brand:wikidata": "Q45568", "brand:wikipedia": "en:UniCredit", "name": "UniCredit Bank"}}, {"type": "node", "id": 8506281455, "lat": 41.7834751, "lon": 12.3658003, "tags": {"amenity": "bank", "brand": "UniCredit Bank", "brand:wikidata": "Q45568", "brand:wikipedia": "en:UniCredit", "name": "UniCredit Bank"}}, {"type": "node", "id": 8506281457, "lat": 41.7835431, "lon": 12.3649071, "tags": {"amenity": "bank", "brand": "BNL", "brand:wikidata": "Q2201225", "brand:wikipedia": "it:Banca Nazionale del Lavoro", "name": "BNL", "official_name": "Banca Nazionale del Lavoro"}}, {"type": "node", "id": 8527957883, "lat": 41.8753441, "lon": 12.480361, "tags": {"amenity": "bank", "atm": "yes", "brand": "Monte dei Paschi di Siena", "brand:wikidata": "Q46730", "name": "Monte dei Paschi di Siena"}}, {"type": "node", "id": 8571317355, "lat": 41.8113586, "lon": 12.6805966, "tags": {"addr:city": "Frascati", "addr:housenumber": "16", "addr:postcode": "00044", "addr:street": "Via Sciadonna", "amenity": "bank", "brand": "Santander", "brand:wikidata": "Q5835668", "brand:wikipedia": "en:Santander Bank", "name": "Santander", "phone": "+39 06 94446825"}}, {"type": "node", "id": 8704620688, "lat": 41.8664537, "lon": 12.5923495, "tags": {"addr:city": "Roma", "addr:housenumber": "5", "addr:postcode": "00169", "addr:street": "Piazza degli Alcioni", "amenity": "bank", "brand": "Intesa Sanpaolo", "brand:wikidata": "Q1343118", "brand:wikipedia": "it:Intesa Sanpaolo", "name": "Intesa Sanpaolo", "phone": "+39 06 260864"}}, {"type": "node", "id": 8908194255, "lat": 41.8907013, "lon": 12.5400598, "tags": {"addr:city": "Roma", "addr:housenumber": "90", "addr:postcode": "00176", "addr:street": "Via Sampiero di Bastelica", "amenity": "bank", "brand": "UniCredit Bank", "brand:wikidata": "Q45568", "brand:wikipedia": "en:UniCredit", "name": "UniCredit Bank"}}, {"type": "node", "id": 9016970778, "lat": 41.8872297, "lon": 12.539285, "tags": {"addr:city": "Roma", "addr:housenumber": "164", "addr:postcode": "00176", "addr:street": "Via Roberto Malatesta", "amenity": "bank", "atm": "yes", "brand": "UniCredit Bank", "brand:wikidata": "Q45568", "brand:wikipedia": "en:UniCredit", "email": "ag36029-italia@unicredit.eu", "fax": "+39 06 94521106", "name": "UniCredit", "opening_hours": "Mo-Fr 08:20-13:30, 14:25-15:45", "phone": "+39 06 87824703"}}, {"type": "node", "id": 9070367849, "lat": 41.8515004, "lon": 12.4930468, "tags": {"addr:city": "Roma", "addr:housenumber": "8", "addr:postcode": "00147", "addr:street": "Piazzale del Caravaggio", "amenity": "bank", "brand": "Santander", "brand:wikidata": "Q5835668", "brand:wikipedia": "en:Santander Bank", "name": "Santander", "phone": "+39 06 596171"}}, {"type": "node", "id": 9199292616, "lat": 41.8809501, "lon": 12.540603, "tags": {"addr:city": "Roma", "addr:housenumber": "419", "addr:postcode": "00176", "addr:street": "Via Casilina", "amenity": "bank", "atm": "yes", "brand": "UniCredit Bank", "brand:wikidata": "Q45568", "brand:wikipedia": "en:UniCredit", "drive_through": "no", "email": "ag30021-italia@unicredit.eu", "fax": "+390694521357", "name": "UniCredit", "note": "Filiale senza servizio di cassa, sono presenti solo casse automatiche.", "opening_hours": "Mo-Fr 08:20-12:45, 14:20-16:20", "phone": "+390687823701"}}, {"type": "node", "id": 9251801287, "lat": 41.9294482, "lon": 12.5157521, "tags": {"addr:city": "Roma", "addr:postcode": "00199", "addr:street": "Piazza Santa Emerenziana", "amenity": "bank", "name": "Banca del Fucino", "opening_hours": "Mo-Fr 09:00-17:00"}}, {"type": "node", "id": 9260967676, "lat": 41.8797918, "lon": 12.5427223, "tags": {"addr:city": "Roma", "addr:housenumber": "410", "addr:postcode": "00177", "addr:street": "Via Casilina", "amenity": "bank", "atm": "yes", "brand": "Monte dei Paschi di Siena", "brand:wikidata": "Q46730", "brand:wikipedia": "en:Banca Monte dei Paschi di Siena", "drive_through": "no", "name": "Monte dei Paschi di Siena", "opening_hours": "Mo-Fr 08:35-13:35, 14:15-16:00", "phone": "+390687932211"}}, {"type": "node", "id": 9260967683, "lat": 41.8869366, "lon": 12.5395262, "tags": {"addr:city": "Roma", "addr:housenumber": "27", "addr:postcode": "00176", "addr:street": "Piazza Roberto Malatesta", "amenity": "bank", "atm": "yes", "brand": "BNL", "brand:wikidata": "Q2201225", "brand:wikipedia": "it:Banca Nazionale del Lavoro", "name": "BNL", "official_name": "Banca Nazionale del Lavoro", "opening_hours": "Mo-Fr 08:35-17:00"}}, {"type": "node", "id": 9347790521, "lat": 41.8522492, "lon": 12.6297653, "tags": {"addr:city": "Roma", "addr:housenumber": "50", "addr:postcode": "00133", "addr:street": "Via Cracovia", "amenity": "bank", "atm": "yes", "brand": "UniCredit Bank", "brand:wikidata": "Q45568", "brand:wikipedia": "en:UniCredit", "drive_through": "yes", "name": "UniCredit Bank", "name:it": "UniCredit", "opening_hours": "Mo-Fr 09:00-13:35,14:30-15:50", "phone": "+39 06 87823804"}}, {"type": "node", "id": 9365283413, "lat": 41.8644418, "lon": 12.6991558, "tags": {"addr:city": "Roma", "addr:postcode": "00132", "addr:street": "Via Casilina", "amenity": "bank", "brand": "BCC Roma", "brand:wikidata": "Q25060394", "brand:wikipedia": "en:Banca di Credito Cooperativo di Roma", "name": "BCC Roma", "official_name": "Banca di Credito Cooperativo di Roma"}}, {"type": "node", "id": 9453873917, "lat": 41.8917351, "lon": 12.5413626, "tags": {"amenity": "bank", "brand": "Banco BPM", "brand:wikidata": "Q27331643", "brand:wikipedia": "en:Banco BPM", "name": "Banco BPM"}}, {"type": "node", "id": 9492203002, "lat": 41.7253488, "lon": 12.6129976}, {"type": "node", "id": 9497381654, "lat": 41.9699898, "lon": 12.4354926, "tags": {"addr:housenumber": "901I", "addr:street": "Via Cassia", "amenity": "bank", "name": "Banca Popolare di Milano", "opening_hours": "Mo-Fr 08:20-12:55, 14:30-16:30", "phone": "+390630315032", "website": "https://www.bancobpm.it/trova-filiali/tutte-le-filiali/lazio/RM/01621/"}}, {"type": "node", "id": 9710737543, "lat": 41.8677822, "lon": 12.6749264, "tags": {"addr:city": "Roma", "addr:housenumber": "151", "addr:postcode": "00132", "addr:street": "Via Torregrotta", "amenity": "bank", "brand": "BCC Roma", "brand:wikidata": "Q25060394", "name": "BCC Roma", "official_name": "Banca di Credito Cooperativo di Roma", "phone": "+39 06 52865431"}}, {"type": "node", "id": 9784529445, "lat": 41.9042041, "lon": 12.5015021, "tags": {"addr:city": "Roma", "addr:housenumber": "22", "addr:postcode": "00185", "addr:street": "Piazza dell'Indipendenza", "amenity": "bank", "name": "Che banca!"}}, {"type": "node", "id": 9805940128, "lat": 41.7327022, "lon": 12.2783702, "tags": {"amenity": "bank", "name": "findomestic"}}, {"type": "node", "id": 9835480175, "lat": 41.732304, "lon": 12.2746522, "tags": {"amenity": "bank", "brand": "BNL", "brand:wikidata": "Q2201225", "name": "BNL", "official_name": "Banca Nazionale del Lavoro"}}, {"type": "node", "id": 9921057652, "lat": 41.9052185, "lon": 12.4958455, "tags": {"addr:city": "Roma", "addr:housenumber": "97/e", "addr:postcode": "00185", "addr:street": "Via Venti Settembre", "entrance": "main"}}, {"type": "node", "id": 9921057658, "lat": 41.9050291, "lon": 12.4955752}, {"type": "node", "id": 9921057706, "lat": 41.8456219, "lon": 12.6540013, "tags": {"addr:city": "Frascati", "addr:housenumber": "1", "addr:postcode": "00044", "addr:street": "Largo Guido Carli", "amenity": "bank", "atm": "no", "branch": "Roma CDM", "drive_through": "no", "name": "Banca d'Italia - Centro Donato Menichella (CDM)", "operator": "Banca d'Italia", "website": "https://www.bancaditalia.it/chi-siamo/organizzazione/filiali/rm-cdm/index.html"}}, {"type": "node", "id": 9944633452, "lat": 41.8791667, "lon": 12.5666096, "tags": {"addr:city": "Roma", "addr:housenumber": "46/F", "addr:postcode": "00172", "addr:street": "Via dei Castani", "amenity": "bank", "atm": "yes", "brand": "Monte dei Paschi di Siena", "brand:wikidata": "Q46730", "drive_through": "no", "name": "Monte dei Paschi di Siena", "opening_hours": "Mo-Fr 08:35-13:35; 14:15-16:00", "phone": "+390623290211"}}, {"type": "node", "id": 10006118339, "lat": 41.9562737, "lon": 12.4841571, "tags": {"amenity": "bank", "brand": "Carige", "name": "Carige"}}, {"type": "node", "id": 10038518328, "lat": 41.9395882, "lon": 12.5295835, "tags": {"addr:city": "Roma", "addr:housenumber": "134", "addr:postcode": "00141", "addr:street": "Viale Tirreno", "amenity": "bank", "name": "Fineco", "phone": "+39 06 8719611"}}, {"type": "node", "id": 10109077078, "lat": 41.8763214, "lon": 12.4672155, "tags": {"amenity": "bank", "atm": "yes", "name": "Banca Popolare Milano"}}, {"type": "node", "id": 10117169996, "lat": 41.9069576, "lon": 12.496811, "tags": {"addr:housenumber": "56", "addr:postcode": "00187", "addr:street": "Via Flavia", "amenity": "bank", "name": "Banca Popolare di Fondi", "website": "https://www.bpfondi.it/filiali/roma"}}, {"type": "node", "id": 10178518778, "lat": 41.8808253, "lon": 12.5681914, "tags": {"addr:city": "Roma", "addr:housenumber": "58/a", "addr:postcode": "00172", "addr:street": "Via dei Frassini", "amenity": "bank", "brand": "Intesa Sanpaolo", "brand:wikidata": "Q1343118", "name": "Intesa Sanpaolo"}}, {"type": "node", "id": 10200225249, "lat": 41.9048701, "lon": 12.4921194, "tags": {"amenity": "bank", "name": "Bank of China"}}, {"type": "node", "id": 10217108717, "lat": 41.9952205, "lon": 12.4815884, "tags": {"addr:housenumber": "50", "addr:postcode": "00188", "addr:street": "Via Magnano in Riviera", "amenity": "bank", "name": "Intesa San", "name:it": "Intesa Sanpaolo S.p.A.", "opening_hours": "Mo-Fr 09:00-16:55", "phone": "06 332 0855"}}, {"type": "node", "id": 10253642980, "lat": 41.9289932, "lon": 12.5248069, "tags": {"amenity": "bank", "brand": "Deutsche Bank", "name": "Deutsche Bank"}}, {"type": "node", "id": 10253668210, "lat": 41.9207313, "lon": 12.5178698, "tags": {"amenity": "bank", "brand": "Banco BPM", "name": "Banco BPM"}}, {"type": "node", "id": 10285625225, "lat": 41.8986358, "lon": 12.5368964, "tags": {"addr:city": "Roma", "addr:housenumber": "88", "addr:postcode": "00159", "addr:street": "Via di Casal Bertone", "amenity": "bank", "name": "UniCredit", "phone": "0687824705", "website": "https://www.unicredit.it/it/contatti-e-agenzie/lista-agenzie/rm/roma/roma-casal-bertone-ag31446.html"}}, {"type": "node", "id": 10300224596, "lat": 41.904312, "lon": 12.4961644, "tags": {"addr:city": "Roma", "addr:housenumber": "13", "addr:postcode": "00185", "addr:street": "Via Parigi", "amenity": "bank", "brand": "Intesa Sanpaolo", "brand:wikidata": "Q1343118", "name": "Intesa Sanpaolo", "phone": "+39 06 48882311"}}, {"type": "node", "id": 10300224602, "lat": 41.90402, "lon": 12.4957091, "tags": {"addr:city": "Roma", "addr:housenumber": "1", "addr:postcode": "00185", "addr:street": "Via Parigi", "amenity": "bank", "name": "IBL Banca", "phone": "+39 06 466691"}}, {"type": "node", "id": 10300778727, "lat": 41.9061251, "lon": 12.4965612, "tags": {"addr:city": "Roma", "addr:housenumber": "29/a", "addr:postcode": "00187", "addr:street": "Via Venti Settembre", "amenity": "bank", "name": "IBL Banca", "phone": "+39 06 68459690"}}, {"type": "node", "id": 10300778780, "lat": 41.9032157, "lon": 12.4954921, "tags": {"addr:city": "Roma", "addr:postcode": "00185", "addr:street": "Via Vittorio Emanuele Orlando", "amenity": "bank", "brand": "UniCredit Bank", "brand:wikidata": "Q45568", "name": "UniCredit Bank", "name:it": "UniCredit"}}, {"type": "node", "id": 10563509086, "lat": 41.8070149, "lon": 12.486167}, {"type": "node", "id": 10563509087, "lat": 41.8070018, "lon": 12.4862478}, {"type": "node", "id": 10563509170, "lat": 41.8069279, "lon": 12.4862277}, {"type": "node", "id": 10563509178, "lat": 41.8069434, "lon": 12.4861454}, {"type": "node", "id": 10596002578, "lat": 41.8800493, "lon": 12.4607864, "tags": {"addr:city": "Roma", "addr:housenumber": "50", "addr:postcode": "00152", "addr:street": "Via Anton Giulio Barrili", "amenity": "bank", "brand": "Banca Popolare di Sondrio", "brand:wikidata": "Q686176", "name": "Banca Popolare di Sondrio"}}, {"type": "node", "id": 10620025263, "lat": 41.942442, "lon": 12.3686217, "tags": {"addr:city": "Roma", "addr:housenumber": "345", "addr:postcode": "00166", "addr:street": "Via di Selva Nera", "amenity": "bank", "atm": "yes", "brand": "BCC Roma", "brand:wikidata": "Q25060394", "name": "BCC Roma", "note": "it_IT:Bcc di Roma - Agenzia di Roma 20 - Banca di Credito Cooperativo di Roma", "official_name": "Banca di Credito Cooperativo di Roma", "opening_hours": "mo-fr 08:30\u201313:30; mo-fr 15\u201315:45", "phone": "+3963092388", "wikidata": "Q745877", "wikipedia": "it:Credito cooperativo"}}, {"type": "node", "id": 10718826346, "lat": 41.9147911, "lon": 12.5040688, "tags": {"addr:city": "Roma", "addr:housenumber": "188", "addr:postcode": "00198", "addr:street": "Viale Regina Margherita", "amenity": "bank", "atm": "yes", "brand": "Cr\u00e9dit Agricole", "brand:wikidata": "Q590952", "drive_through": "no", "email": "cu00595caitalia@credit-agricole.it", "name": "Cr\u00e9dit Agricole", "opening_hours": "Mo-Fr 08:45-12:45; PH off", "phone": "+39068418060"}}, {"type": "node", "id": 10727898309, "lat": 41.8818053, "lon": 12.4862769, "tags": {"amenity": "bank", "atm": "yes", "name": "Unicredit"}}, {"type": "node", "id": 10745098661, "lat": 41.8998184, "lon": 12.4966133, "tags": {"addr:city": "Roma", "addr:housenumber": "1", "addr:postcode": "00184", "addr:street": "Via Cesare Balbo", "amenity": "bank", "brand": "BCC Roma", "brand:wikidata": "Q25060394", "name": "BCC Roma", "name:it": "BCC", "official_name": "Banca di Credito Cooperativo di Roma", "phone": "+39 06 52865106"}}, {"type": "node", "id": 10831591053, "lat": 41.8981148, "lon": 12.5000549, "tags": {"addr:city": "Roma", "addr:housenumber": "2", "addr:postcode": "00185", "addr:street": "Via Napoleone III", "amenity": "bank", "brand": "Monte dei Paschi di Siena", "brand:wikidata": "Q46730", "name": "Monte dei Paschi di Siena"}}, {"type": "node", "id": 10857677301, "lat": 41.8972058, "lon": 12.5015625, "tags": {"addr:city": "Roma", "addr:housenumber": "18", "addr:postcode": "00185", "addr:street": "Via Napoleone III", "amenity": "bank", "brand": "Intesa Sanpaolo", "brand:wikidata": "Q1343118", "name": "Intesa Sanpaolo"}}, {"type": "way", "id": 37017899, "nodes": [430540301, 430540302, 1287012791, 430540300, 1287013260, 1287013927, 430540299, 1287014375, 1287012003, 1287013209, 430540301]}, {"type": "way", "id": 37017900, "nodes": [430540303, 430540305, 430540306, 430540304, 430540303]}, {"type": "way", "id": 82480605, "nodes": [959980664, 959980687, 959980651, 959980698, 1925496364, 959980664], "tags": {"addr:city": "Roma", "addr:country": "IT", "addr:housenumber": "990", "addr:postcode": "00137", "addr:street": "Via Nomentana", "amenity": "bank", "atm": "yes", "building": "yes", "operator": "Banca Intesa San Paolo"}}, {"type": "way", "id": 204019910, "nodes": [2140295268, 2140298983, 2140295234, 2140298985, 2140295287, 2140298986, 2140298989, 2140295295, 2140298990, 9921057658, 9921057652, 2140298992, 2140295285, 2140295268], "tags": {"source": "Bing, Local knowledge"}}, {"type": "way", "id": 204019911, "nodes": [2140298991, 2140298987, 2140298984, 2140298988, 2140298991]}, {"type": "way", "id": 211927701, "nodes": [2218549946, 2218550006, 2218550007, 2218550059, 2218550056, 2218550124, 2218550122, 2218550016, 2218549940, 2218549946], "tags": {"amenity": "bank", "atm": "yes", "buildingpart": "room", "layer": "1", "name": "Unicredit Banca di Roma"}}, {"type": "way", "id": 225841091, "nodes": [2346546699, 2346546700, 3179688597, 2346546698, 2346546697, 2346546699], "tags": {"addr:city": "Frascati", "addr:country": "IT", "addr:housenumber": "30", "addr:postcode": "00044", "addr:street": "Viale Vittorio Veneto", "amenity": "bank", "atm": "yes", "building": "yes", "fax": "+39 06 9420607", "name": "Intesa San Paolo - Frascati", "operator": "Intesa San Paolo", "phone": "+39 06 94015359", "website": "http://www.intesasanpaolo.com/"}}, {"type": "way", "id": 322582074, "nodes": [3293556679, 3293556682, 3293556678, 3293556677, 3293556679]}, {"type": "way", "id": 322582075, "nodes": [3293556671, 3293556674, 3293556670, 3293556667, 3293556671]}, {"type": "way", "id": 322582076, "nodes": [3293556673, 3293556666, 3293556664, 3293556668, 3293556669, 3293556672, 4285701717, 3293556673]}, {"type": "way", "id": 322582077, "nodes": [3293556683, 3293556676, 3293556675, 3293556681, 3293556691, 3293556689, 3293556694, 3293556693, 3293556690, 3293556688, 3293556686, 3293556685, 3293556683]}, {"type": "way", "id": 322582080, "nodes": [3293556687, 3293556695, 3293556680, 3293556663, 3293556665, 3293556687]}, {"type": "way", "id": 336068579, "nodes": [3431490343, 3431490344, 3431490345, 3431490346, 3431490347, 3431490348, 3431490343], "tags": {"addr:city": "Fonte Nuova", "addr:housenumber": "19", "addr:postcode": "00013", "addr:street": "Via del Brennero", "amenity": "bank", "building": "yes", "name": "UniCredit"}}, {"type": "way", "id": 361650448, "nodes": [3661056981, 3661056972, 3661056996, 3661056997, 3661056981], "tags": {"amenity": "bank", "building": "office", "name": "Banca Finnat (ex Cinema Rex)"}}, {"type": "way", "id": 381620337, "nodes": [3848016386, 3848016387, 3848016388, 3848016389, 3848016386], "tags": {"addr:city": "Anguillara Sabazia", "addr:housenumber": "4", "addr:postcode": "00061", "addr:street": "Via di Santo Stefano", "amenity": "bank", "atm": "yes", "brand": "Intesa Sanpaolo", "brand:wikidata": "Q1343118", "brand:wikipedia": "it:Intesa Sanpaolo", "building": "commercial", "drive_through": "no", "name": "Intesa Sanpaolo", "opening_hours": "Mo-Fr 08:30-13:30, 14:45-16:55", "opening_hours:covid19": "same", "phone": "+390699607470", "wheelchair": "yes"}}, {"type": "way", "id": 421589238, "nodes": [4213397446, 4213397444, 4213397443, 4213397442, 4213397438, 4213397439, 4213397446], "tags": {"addr:city": "Roma", "addr:housenumber": "1330", "addr:postcode": "00133", "addr:street": "Via Casilina", "amenity": "bank", "atm": "yes", "brand": "UniCredit Bank", "brand:wikidata": "Q45568", "brand:wikipedia": "en:UniCredit", "building": "commercial", "building:levels": "1", "name": "UniCredit Bank", "name:it": "UniCredit"}}, {"type": "way", "id": 458210884, "nodes": [4542478591, 4542478592, 4542478593, 4542478594, 4542478595, 4542478596, 4542478597, 4542478598, 4542478599, 4542478600, 4542478601, 4542478602, 4542478603, 4542478604, 4542478605, 4542478606, 4542478607, 4542478608, 4542478591], "tags": {"amenity": "bank", "atm": "no", "building": "yes", "name": "Gruppo bancario ICCREA"}}, {"type": "way", "id": 516250665, "nodes": [5040001725, 5040001726, 5040001727, 5040001728, 5040001729, 5040001725], "tags": {"addr:city": "Roma", "addr:housenumber": "94", "addr:postcode": "00156", "addr:street": "Via di Casal de' Pazzi", "amenity": "bank", "atm": "yes", "brand": "BNL", "brand:wikidata": "Q2201225", "brand:wikipedia": "it:Banca Nazionale del Lavoro", "building": "yes", "name": "BNL", "official_name": "Banca Nazionale del Lavoro", "official_name:en": "National Labor Bank", "official_name:it": "Banca Nazionale del Lavoro"}}, {"type": "way", "id": 527060849, "nodes": [5124563450, 5124563451, 5124563452, 5124563453, 5124563450], "tags": {"addr:housenumber": "20", "addr:street": "Via Federico Ozanam", "amenity": "bank", "building": "yes", "name": "UniCredit", "opening_hours": "Mo-Fr 08:25-13:35, 14:30-15:30", "phone": "+39 06 8782 4700", "website": "https://www.unicredit.it/"}}, {"type": "way", "id": 637555114, "nodes": [6010342926, 6010342927, 6010342923, 6010342922, 6010342921, 6010342920, 6010342929, 6010342930, 6010342931, 6010342924, 6010342925, 6010342926], "tags": {"amenity": "bank", "indoor": "room", "level": "0"}}, {"type": "way", "id": 1029585481, "nodes": [1855240850, 1855240898, 9492203002, 1657300710, 1657300741, 1657300745, 1657300714, 1855240888, 1855240904, 1855240835, 1855240887, 1855240850], "tags": {"amenity": "bank", "building": "no", "name": "BCC dei Castelli Romani", "not:brand:wikidata": "Q25060394"}}, {"type": "way", "id": 1132982012, "nodes": [10563509087, 10563509086, 10563509178, 10563509170, 10563509087], "tags": {"amenity": "bank", "indoor": "room", "level": "2"}}, {"type": "relation", "id": 164594, "members": [{"type": "way", "ref": 37017900, "role": "inner"}, {"type": "way", "ref": 37017899, "role": "outer"}], "tags": {"amenity": "bank", "building": "yes", "name": "Banca d'Italia", "type": "multipolygon"}}, {"type": "relation", "id": 2738754, "members": [{"type": "way", "ref": 204019910, "role": "outer"}, {"type": "way", "ref": 204019911, "role": "inner"}], "tags": {"addr:city": "Roma", "addr:housenumber": "97/e", "addr:postcode": "00187", "addr:street": "Via Venti Settembre", "amenity": "bank", "atm": "no", "branch": "Roma", "building": "yes", "building:levels": "8", "drive_through": "no", "email": "roma.sede.segreteria@bancaditalia.it", "fax": "+390647925351", "name": "Banca d'Italia", "opening_hours": "Mo-Fr 08:15-13:30", "operator": "Banca d'Italia", "phone": "+390647921", "type": "multipolygon", "website": "https://www.bancaditalia.it/chi-siamo/organizzazione/filiali/roma/index.html"}}, {"type": "relation", "id": 4493645, "members": [{"type": "way", "ref": 322582080, "role": "outer"}, {"type": "way", "ref": 322582074, "role": "inner"}, {"type": "way", "ref": 322582075, "role": "inner"}, {"type": "way", "ref": 322582076, "role": "inner"}, {"type": "way", "ref": 322582077, "role": "inner"}], "tags": {"amenity": "bank", "branch": "Gruppo BNP Paribas   Filiale di Roma", "brand": "BNL", "brand:wikidata": "Q2201225", "brand:wikipedia": "it:Banca Nazionale del Lavoro", "building": "yes", "name": "BNL", "official_name": "Banca Nazionale del Lavoro", "type": "multipolygon"}}]}