{"version": 0.6, "generator": "Overpass API 0.7.60.2 e4cf9f7a", "osm3s": {"timestamp_osm_base": "2023-05-02T19:59:26Z", "copyright": "The data included in this document is from www.openstreetmap.org. The data is made available under ODbL."}, "elements": [{"type": "node", "id": 559645105, "lat": -22.9120997, "lon": -43.1778772, "tags": {"amenity": "nightclub", "name": "Clube Six"}}, {"type": "node", "id": 614496013, "lat": -22.9020989, "lon": -43.1747899, "tags": {"addr:housenumber": "25", "addr:street": "Rua do Mercado", "amenity": "nightclub", "name": "Club Mix", "phone": "+55-21-22217892", "website": "http://clubmixbar.com.br/"}}, {"type": "node", "id": 727626612, "lat": -22.9131665, "lon": -43.1801301}, {"type": "node", "id": 727626615, "lat": -22.9130282, "lon": -43.1806051}, {"type": "node", "id": 727626638, "lat": -22.9128671, "lon": -43.1805958}, {"type": "node", "id": 727626640, "lat": -22.9126737, "lon": -43.1804992}, {"type": "node", "id": 892159815, "lat": -22.9686096, "lon": -43.1835911, "tags": {"amenity": "nightclub", "name": "Miami Show Center"}}, {"type": "node", "id": 1317880568, "lat": -22.9550175, "lon": -43.1914073}, {"type": "node", "id": 1674115089, "lat": -22.9131757, "lon": -43.180569}, {"type": "node", "id": 1674115090, "lat": -22.9128143, "lon": -43.1805496}, {"type": "node", "id": 1674115095, "lat": -22.9131974, "lon": -43.1804481}, {"type": "node", "id": 1674115097, "lat": -22.9131912, "lon": -43.1805345}, {"type": "node", "id": 1931096547, "lat": -22.9023195, "lon": -43.1349812}, {"type": "node", "id": 1931096551, "lat": -22.9023404, "lon": -43.1350004}, {"type": "node", "id": 1931096555, "lat": -22.9023945, "lon": -43.1350112}, {"type": "node", "id": 1931096561, "lat": -22.9024629, "lon": -43.1350112}, {"type": "node", "id": 1931096566, "lat": -22.9024861, "lon": -43.1348746}, {"type": "node", "id": 1931096569, "lat": -22.9025093, "lon": -43.1349944}, {"type": "node", "id": 1931096572, "lat": -22.9025303, "lon": -43.13498}, {"type": "node", "id": 2015314274, "lat": -22.9930853, "lon": -43.2375895, "tags": {"amenity": "nightclub", "name": "Espa\u00e7o JP"}}, {"type": "node", "id": 2015314295, "lat": -22.9947275, "lon": -43.235583, "tags": {"amenity": "nightclub"}}, {"type": "node", "id": 2242360286, "lat": -22.7921941, "lon": -43.300426, "tags": {"amenity": "nightclub", "name": "Exclusiva"}}, {"type": "node", "id": 2262437964, "lat": -22.9870465, "lon": -43.2275875, "tags": {"addr:street": "Rua Rita Ludolf", "amenity": "nightclub", "name": "Melt", "website": "http://www.meltbar.com.br/"}}, {"type": "node", "id": 2614624079, "lat": -22.9605185, "lon": -43.3568617}, {"type": "node", "id": 2614624080, "lat": -22.9611468, "lon": -43.35686}, {"type": "node", "id": 2614624081, "lat": -22.9611453, "lon": -43.3562291}, {"type": "node", "id": 2614624082, "lat": -22.960517, "lon": -43.3562308}, {"type": "node", "id": 3638073508, "lat": -22.9130038, "lon": -43.1806034}, {"type": "node", "id": 3874489258, "lat": -22.9067983, "lon": -43.1736836, "tags": {"addr:housenumber": "139F", "addr:street": "Avenida Almirante Barroso", "amenity": "nightclub", "name": "Symbol", "phone": "+55-21-2131-0292;+55-21-3030-3006", "website": "http://www.symbolclub.com.br"}}, {"type": "node", "id": 4086491647, "lat": -22.9845324, "lon": -43.1914426, "tags": {"amenity": "nightclub", "name": "Le Boy", "website": "https://www.leboy.com.br/"}}, {"type": "node", "id": 4117284499, "lat": -22.9693692, "lon": -43.3360546}, {"type": "node", "id": 4117284500, "lat": -22.9694572, "lon": -43.3357573}, {"type": "node", "id": 4117284501, "lat": -22.970311, "lon": -43.3360758}, {"type": "node", "id": 4117284502, "lat": -22.9702197, "lon": -43.3363838}, {"type": "node", "id": 4241701831, "lat": -22.9452313, "lon": -43.3876571, "tags": {"amenity": "nightclub", "name": "Choupana da Calmon", "source": "Casa de Forr\u00f3"}}, {"type": "node", "id": 4446391109, "lat": -22.9069765, "lon": -43.1839101, "tags": {"addr:housenumber": "72", "addr:street": "Pra\u00e7a Tiradentes", "amenity": "nightclub", "name": "Estudantina Musical", "name:pt": "Estudantina Musical"}}, {"type": "node", "id": 4661231467, "lat": -23.0071521, "lon": -43.3124339}, {"type": "node", "id": 4661231468, "lat": -23.0070879, "lon": -43.3124318}, {"type": "node", "id": 4661231469, "lat": -23.0070873, "lon": -43.3125559}, {"type": "node", "id": 4661231470, "lat": -23.0070929, "lon": -43.312572}, {"type": "node", "id": 4661231471, "lat": -23.0071046, "lon": -43.3125834}, {"type": "node", "id": 4661231472, "lat": -23.0071496, "lon": -43.3125854}, {"type": "node", "id": 4691152163, "lat": -23.0072959, "lon": -43.3129809}, {"type": "node", "id": 4691152164, "lat": -23.0073429, "lon": -43.312824}, {"type": "node", "id": 4691152165, "lat": -23.0071429, "lon": -43.3127596}, {"type": "node", "id": 4691152166, "lat": -23.0071145, "lon": -43.3127932}, {"type": "node", "id": 4691152167, "lat": -23.0070935, "lon": -43.3128508}, {"type": "node", "id": 4691152168, "lat": -23.007091, "lon": -43.3129232}, {"type": "node", "id": 4804765007, "lat": -22.9844298, "lon": -43.1946726}, {"type": "node", "id": 4804765008, "lat": -22.9844083, "lon": -43.1946399}, {"type": "node", "id": 4804765009, "lat": -22.9845072, "lon": -43.1945559}, {"type": "node", "id": 4804765010, "lat": -22.9845309, "lon": -43.1946026}, {"type": "node", "id": 4892486357, "lat": -22.882228, "lon": -43.3457397, "tags": {"amenity": "nightclub", "name": "Tradi\u00e7\u00e3o"}}, {"type": "node", "id": 5089011100, "lat": -22.9128328, "lon": -43.1801755}, {"type": "node", "id": 5168242820, "lat": -22.985053, "lon": -43.4602339, "tags": {"addr:city": "Rio de Janeiro", "addr:housenumber": "20120", "addr:street": "Estrada dos Bandeirantes", "addr:suburb": "Vargem Pequena", "amenity": "nightclub", "name": "California Night Club"}}, {"type": "node", "id": 6312993004, "lat": -22.9129427, "lon": -43.1800816, "tags": {"entrance": "main"}}, {"type": "node", "id": 6312993009, "lat": -22.9127131, "lon": -43.1804085}, {"type": "node", "id": 6312993011, "lat": -22.9128328, "lon": -43.1805839}, {"type": "node", "id": 6312993012, "lat": -22.9128897, "lon": -43.1805988}, {"type": "node", "id": 6312993030, "lat": -22.9128813, "lon": -43.1800654}, {"type": "node", "id": 6312993031, "lat": -22.9128788, "lon": -43.1800842}, {"type": "node", "id": 6312993032, "lat": -22.912861, "lon": -43.1801125}, {"type": "node", "id": 6312993033, "lat": -22.9128403, "lon": -43.1801587}, {"type": "node", "id": 6312993034, "lat": -22.9127958, "lon": -43.1802277}, {"type": "node", "id": 6312993035, "lat": -22.9128095, "lon": -43.1802199}, {"type": "node", "id": 6312993036, "lat": -22.912817, "lon": -43.1802038}, {"type": "node", "id": 6312993042, "lat": -22.9127879, "lon": -43.1802279}, {"type": "node", "id": 6312993043, "lat": -22.9128021, "lon": -43.1802255}, {"type": "node", "id": 6312993044, "lat": -22.9128143, "lon": -43.1802129}, {"type": "node", "id": 6312993045, "lat": -22.9128168, "lon": -43.180194, "tags": {"entrance": "exit"}}, {"type": "node", "id": 6312993046, "lat": -22.9128135, "lon": -43.180184}, {"type": "node", "id": 6312993047, "lat": -22.9128241, "lon": -43.1801818}, {"type": "node", "id": 6312993048, "lat": -22.9128385, "lon": -43.1801661}, {"type": "node", "id": 6312993049, "lat": -22.9128401, "lon": -43.1801509, "tags": {"entrance": "exit"}}, {"type": "node", "id": 6312993050, "lat": -22.9128362, "lon": -43.1801394}, {"type": "node", "id": 6312993051, "lat": -22.9128458, "lon": -43.1801363}, {"type": "node", "id": 6312993052, "lat": -22.9128547, "lon": -43.1801287}, {"type": "node", "id": 6312993053, "lat": -22.9128594, "lon": -43.1801198}, {"type": "node", "id": 6312993054, "lat": -22.9128608, "lon": -43.1801039, "tags": {"entrance": "exit"}}, {"type": "node", "id": 6312993055, "lat": -22.9128577, "lon": -43.1800923}, {"type": "node", "id": 6312993056, "lat": -22.9128649, "lon": -43.180093}, {"type": "node", "id": 6312993057, "lat": -22.9128735, "lon": -43.1800898}, {"type": "node", "id": 6312993058, "lat": -22.9128822, "lon": -43.1800747, "tags": {"entrance": "exit"}}, {"type": "node", "id": 6312993059, "lat": -22.9129777, "lon": -43.1800908}, {"type": "node", "id": 6312993060, "lat": -22.9129792, "lon": -43.1800784}, {"type": "node", "id": 6312993061, "lat": -22.9129838, "lon": -43.1800689}, {"type": "node", "id": 6312993062, "lat": -22.9129985, "lon": -43.1800576}, {"type": "node", "id": 6312993063, "lat": -22.9130156, "lon": -43.1800571}, {"type": "node", "id": 6312993064, "lat": -22.9130246, "lon": -43.1800615}, {"type": "node", "id": 6312993065, "lat": -22.9130338, "lon": -43.180072}, {"type": "node", "id": 6312993066, "lat": -22.913038, "lon": -43.1800873}, {"type": "node", "id": 6312993067, "lat": -22.913095, "lon": -43.1800985}, {"type": "node", "id": 6312993068, "lat": -22.9130988, "lon": -43.1801056}, {"type": "node", "id": 6312993069, "lat": -22.9131103, "lon": -43.1801092}, {"type": "node", "id": 6312993070, "lat": -22.913118, "lon": -43.1801068}, {"type": "node", "id": 6312993071, "lat": -22.9131388, "lon": -43.1801086}, {"type": "node", "id": 6312993072, "lat": -22.9131508, "lon": -43.1801133}, {"type": "node", "id": 6312993073, "lat": -22.9131595, "lon": -43.1801211}, {"type": "node", "id": 6312993074, "lat": -22.9127064, "lon": -43.1805156}, {"type": "node", "id": 6312993075, "lat": -22.9127135, "lon": -43.1805067}, {"type": "node", "id": 6312993076, "lat": -22.9128118, "lon": -43.180575}, {"type": "node", "id": 6312993077, "lat": -22.9129125, "lon": -43.1805999}, {"type": "node", "id": 6312993078, "lat": -22.9129217, "lon": -43.1805342}, {"type": "node", "id": 6312993079, "lat": -22.9129346, "lon": -43.1805572}, {"type": "node", "id": 6312993080, "lat": -22.9129455, "lon": -43.1805744}, {"type": "node", "id": 6312993081, "lat": -22.9129587, "lon": -43.1805911}, {"type": "node", "id": 6312993082, "lat": -22.9129724, "lon": -43.180603}, {"type": "node", "id": 6312993083, "lat": -22.912991, "lon": -43.1806148}, {"type": "node", "id": 6312993084, "lat": -22.912997, "lon": -43.1805893}, {"type": "node", "id": 6312994385, "lat": -22.9131716, "lon": -43.1801852}, {"type": "node", "id": 6460841279, "lat": -22.9164931, "lon": -43.2516572}, {"type": "node", "id": 6460841280, "lat": -22.9166001, "lon": -43.2516354}, {"type": "node", "id": 6460841281, "lat": -22.9165787, "lon": -43.2515178}, {"type": "node", "id": 6460841282, "lat": -22.9164736, "lon": -43.2515417}, {"type": "node", "id": 8649285842, "lat": -22.9549391, "lon": -43.1912715}, {"type": "node", "id": 8649285843, "lat": -22.9548634, "lon": -43.1913459}, {"type": "node", "id": 8649285847, "lat": -22.9548886, "lon": -43.1914607}, {"type": "node", "id": 9219479461, "lat": -22.9549102, "lon": -43.1915198}, {"type": "node", "id": 9219479953, "lat": -22.9549912, "lon": -43.1914182}, {"type": "node", "id": 9219479954, "lat": -22.9549022, "lon": -43.1914551}, {"type": "node", "id": 9219479955, "lat": -22.9548488, "lon": -43.191352}, {"type": "node", "id": 9219479956, "lat": -22.9548352, "lon": -43.1913146}, {"type": "node", "id": 9219481108, "lat": -22.9550618, "lon": -43.1915233}, {"type": "node", "id": 9219481112, "lat": -22.9549316, "lon": -43.1915784}, {"type": "node", "id": 9282924117, "lat": -22.9136903, "lon": -43.1805067, "tags": {"addr:housenumber": "13", "addr:postcode": "20230-010", "addr:street": "Rua Riachuelo", "amenity": "nightclub", "name": "Espa\u00e7o Cultural Forr\u00f3 do Rio", "opening_hours": "Mo-Sa 16:30-22:00", "website": "http://forrodorio.com.br"}}, {"type": "node", "id": 9339189817, "lat": -22.8974711, "lon": -43.1869399, "tags": {"amenity": "nightclub", "name": "Sacadura 154"}}, {"type": "node", "id": 9346634817, "lat": -22.9224092, "lon": -43.1807777, "tags": {"addr:housenumber": "110", "addr:street": "Rua Santo Amaro", "amenity": "nightclub", "name": "Bic\u00e3o"}}, {"type": "node", "id": 9349435717, "lat": -22.907032, "lon": -43.1814075, "tags": {"amenity": "nightclub", "name": "A Garagem"}}, {"type": "node", "id": 9461862617, "lat": -22.896299, "lon": -43.2034311, "tags": {"amenity": "nightclub", "name": "NAU Cidades"}}, {"type": "node", "id": 9783311137, "lat": -22.9131573, "lon": -43.1810715, "tags": {"addr:city": "Rio de Janeiro", "addr:housenumber": "66", "addr:postcode": "20230-152", "addr:street": "Avenida Mem de S\u00e1", "addr:suburb": "Lapa", "amenity": "nightclub", "brewery": "yes", "min_age": "18", "name": "Agyto", "opening_hours": "We-Sa 18:00-02:00"}}, {"type": "node", "id": 10799706316, "lat": -22.9131762, "lon": -43.1821564, "tags": {"addr:city": "Rio de Janeiro", "addr:housenumber": "87", "addr:postcode": "20230-150", "addr:street": "Avenida Mem de S\u00e1", "addr:suburb": "Lapa", "amenity": "nightclub", "name": "Insensato"}}, {"type": "way", "id": 154966386, "nodes": [6312993059, 6312993060, 6312993061, 6312993062, 6312993063, 6312993064, 6312993065, 6312993066, 6312993067, 6312993068, 6312993069, 6312993070, 6312993071, 6312993072, 6312993073, 727626612, 6312994385, 1674115095, 1674115097, 1674115089, 727626615, 6312993084, 3638073508, 6312993083, 6312993082, 6312993081, 6312993080, 6312993079, 6312993078, 6312993077, 6312993012, 727626638, 6312993011, 6312993076, 1674115090, 6312993075, 6312993074, 727626640, 6312993009, 6312993042, 6312993034, 6312993043, 6312993035, 6312993044, 6312993036, 6312993045, 6312993046, 6312993047, 5089011100, 6312993048, 6312993033, 6312993049, 6312993050, 6312993051, 6312993052, 6312993053, 6312993032, 6312993054, 6312993055, 6312993056, 6312993057, 6312993031, 6312993058, 6312993030, 6312993004, 6312993059], "tags": {"addr:city": "Rio de Janeiro", "addr:street": "Rua dos Arcos", "addr:suburb": "Lapa", "amenity": "nightclub", "name": "Circo Voador", "phone": "+55 21 2533 0354", "website": "https://circovoador.com.br/", "wikidata": "Q21857414", "wikipedia": "pt:Circo Voador"}}, {"type": "way", "id": 182753558, "nodes": [1931096551, 1931096555, 1931096561, 1931096569, 1931096572, 1931096566, 1931096547, 1931096551], "tags": {"amenity": "nightclub"}}, {"type": "way", "id": 255775515, "nodes": [2614624079, 2614624080, 2614624081, 2614624082, 2614624079], "tags": {"addr:city": "Rio de Janeiro", "addr:housenumber": "5850", "addr:street": "Avenida Ayrton Senna", "addr:suburb": "Gard\u00eania Azul", "amenity": "nightclub", "building": "yes", "name": "Espa\u00e7o Hall", "phone": "+55 21 3303-1000", "website": "http://www.barramusic.art.br/", "wheelchair": "yes"}}, {"type": "way", "id": 409858216, "nodes": [4117284499, 4117284500, 4117284501, 4117284502, 4117284499], "tags": {"amenity": "nightclub", "building": "yes", "name": "Espa\u00e7oTerra\u00e7o"}}, {"type": "way", "id": 471973420, "nodes": [4661231467, 4661231468, 4661231469, 4661231470, 4661231471, 4661231472, 4661231467], "tags": {"amenity": "nightclub", "building": "yes", "building:colour": "black", "name": "Pink Elephant Rio", "source": "survey"}}, {"type": "way", "id": 475359144, "nodes": [4691152163, 4691152164, 4691152165, 4691152166, 4691152167, 4691152168, 4691152163], "tags": {"addr:city": "Rio de Janeiro", "addr:housenumber": "421", "addr:street": "Avenida Armando Lombardi", "addr:suburb": "Barra da Tijuca", "amenity": "nightclub", "building": "yes", "email": "contato@vitrinnilounge.com", "name": "Vitrinni Lounge Beer", "phone": "+55 21 3936 4245;+55 21 3154 0071;+55 21 2492 1954", "short_name": "Vitrinni", "website": "http://vitrinnilounge.com/"}}, {"type": "way", "id": 488124010, "nodes": [4804765007, 4804765008, 4804765009, 4804765010, 4804765007], "tags": {"amenity": "nightclub", "building": "yes"}}, {"type": "way", "id": 688809013, "nodes": [6460841279, 6460841280, 6460841281, 6460841282, 6460841279], "tags": {"amenity": "nightclub", "building": "yes", "name": "Casa de Bamba"}}, {"type": "way", "id": 933091577, "nodes": [9219479956, 9219479955, 8649285843, 9219479954, 9219479953, 8649285842, 9219479956], "tags": {"IPP:CodEdificio": "1575896", "addr:city": "Rio de Janeiro", "addr:housenumber": "123", "addr:street": "Rua Henrique de Novais", "addr:suburb": "Botafogo", "amenity": "nightclub", "building": "yes", "ele": "4.35", "height": "8.35", "name": "Vizinha 123"}}, {"type": "way", "id": 933091578, "nodes": [8649285847, 9219479461, 9219481112, 9219481108, 1317880568, 9219479953, 9219479954, 8649285847], "tags": {"IPP:CodEdificio": "2220342", "addr:city": "Rio de Janeiro", "addr:country": "BR", "addr:housenumber": "107", "addr:street": "Rua Henrique Novaes", "addr:suburb": "Botafogo", "amenity": "nightclub", "building": "yes", "ele": "4.19", "height": "7.62", "name": "Casa da Matriz", "phone": "+55-21-22269691;+55-21-22661014", "source": "data.rio", "website": "http://matrizonline.com.br/"}}]}