{"version": 0.6, "generator": "Overpass API 0.7.60 f4c14d41", "osm3s": {"timestamp_osm_base": "2023-05-02T21:14:21Z", "copyright": "The data included in this document is from www.openstreetmap.org. The data is made available under ODbL."}, "elements": [{"type": "node", "id": 4397187589, "lat": 41.1757894, "lon": 29.6098797, "tags": {"amenity": "atm", "operator": "Ziraat Bankasi"}}, {"type": "node", "id": 6443549985, "lat": 41.1414459, "lon": 29.7897829, "tags": {"amenity": "atm", "operator": "shila"}}, {"type": "node", "id": 9269571244, "lat": 41.1681054, "lon": 29.5639116, "tags": {"amenity": "atm", "brand": "T\u00fcrkiye \u0130\u015f Bankas\u0131", "brand:wikidata": "Q909613", "brand:wikipedia": "en:\u0130\u015fbank", "name": "T\u00fcrkiye \u0130\u015f Bankas\u0131", "operator": "T\u00fcrkiye \u0130\u015f Bankas\u0131", "operator:wikidata": "Q909613", "operator:wikipedia": "en:\u0130\u015fbank"}}, {"type": "node", "id": 9269571245, "lat": 41.1681385, "lon": 29.5639156, "tags": {"amenity": "atm", "brand": "Akbank", "brand:wikidata": "Q416624", "brand:wikipedia": "tr:Akbank", "name": "Akbank", "network": "Akbank", "operator": "Akbank", "operator:wikidata": "Q416624", "operator:wikipedia": "tr:Akbank"}}, {"type": "node", "id": 9269587483, "lat": 41.1684062, "lon": 29.5663157, "tags": {"amenity": "atm", "not:brand:wikidata": "Q909613", "operator": "i\u015f bankas\u0131"}}]}