{"version": 0.6, "generator": "Overpass API 0.7.60 f4c14d41", "osm3s": {"timestamp_osm_base": "2023-05-02T21:18:20Z", "copyright": "The data included in this document is from www.openstreetmap.org. The data is made available under ODbL."}, "elements": [{"type": "node", "id": 257351831, "lat": 41.8890547, "lon": 12.4707375, "tags": {"addr:city": "Roma", "addr:country": "IT", "addr:housenumber": "3/4/5", "addr:postcode": "00153", "addr:street": "Piazza di San Calisto", "amenity": "bar", "name": "Bar San Calisto", "operator": "Marcello Forti", "phone": "+39 06 5895678", "ref:vatin": "IT00795850585", "shop": "beverages"}}, {"type": "node", "id": 330728976, "lat": 41.8686979, "lon": 12.4942834, "tags": {"amenity": "bar", "name": "Quinto's"}}, {"type": "node", "id": 394953061, "lat": 41.9090849, "lon": 12.4536435, "tags": {"amenity": "bar", "music": "live", "music_genre": "jazz", "name": "Alexanderplatz"}}, {"type": "node", "id": 422042472, "lat": 41.9102142, "lon": 12.4478345, "tags": {"addr:city": "Roma", "addr:country": "IT", "addr:housenumber": "1", "addr:postcode": "00136", "addr:street": "Via Carlo Passaglia", "amenity": "bar", "email": "bere@beere.it", "name": "Beere mangiare e co.", "opening_hours": "Mo-Fr 11:00-02:00;Sa-Su 18:00-02:00", "phone": "+39 06 39721153", "website": "www.beere.it"}}, {"type": "node", "id": 443882759, "lat": 41.9417738, "lon": 12.5785202, "tags": {"addr:city": "Roma", "addr:country": "IT", "addr:housenumber": "61", "addr:postcode": "00156", "addr:street": "Via Casal Tidei", "amenity": "bar"}}, {"type": "node", "id": 448931391, "lat": 41.9230468, "lon": 12.4714338, "tags": {"addr:city": "Roma", "addr:country": "IT", "addr:housenumber": "226", "addr:street": "Via Flaminia", "amenity": "bar", "cuisine": "regional", "name": "Tree Bar", "opening_hours": "Mo-Fr 18:30-01:30; Sa-Su 12:30-15:30,18:30-01:30", "phone": "+39 06 3265 2754"}}, {"type": "node", "id": 456328707, "lat": 41.8728375, "lon": 12.5142706, "tags": {"amenity": "bar", "odbl": "clean"}}, {"type": "node", "id": 539006601, "lat": 41.9287841, "lon": 12.4629844, "tags": {"amenity": "bar", "name": "Punto Bar"}}, {"type": "node", "id": 552579747, "lat": 41.8898116, "lon": 12.5256948, "tags": {"addr:city": "Roma", "addr:country": "IT", "addr:housenumber": "20", "addr:postcode": "00176", "addr:street": "Via Perugia", "alt_name": "Keyboards", "amenity": "bar", "name": "Il Tiaso", "note": "Enolibreria", "shop": "books", "vat": "07070341008", "wheelchair": "no"}}, {"type": "node", "id": 573459310, "lat": 41.8627773, "lon": 12.4899263, "tags": {"amenity": "bar", "name": "Bar dei Cesaroni"}}, {"type": "node", "id": 591846786, "lat": 41.7370804, "lon": 12.2891405, "tags": {"addr:city": "Roma", "addr:postcode": "00122", "addr:street": "Via Alessandro Piola Caselli", "amenity": "bar", "name": "Salerno", "smoking": "outside"}}, {"type": "node", "id": 591886004, "lat": 41.7379821, "lon": 12.2865063, "tags": {"addr:city": "Roma", "addr:housenumber": "54", "addr:postcode": "00122", "addr:street": "Via Capo Spartivento", "amenity": "bar", "name": "Bar Dany", "phone": "+39 06 5664311", "smoking": "outside"}}, {"type": "node", "id": 591888377, "lat": 41.733438, "lon": 12.286181, "tags": {"addr:city": "Roma", "addr:housenumber": "32", "addr:postcode": "00122", "addr:street": "Piazza Gregorio Ronca", "amenity": "bar", "name": "Il Sole di Ostia", "opening_hours": "Mo-Sa 5:30-1:00"}}, {"type": "node", "id": 610925924, "lat": 41.9344403, "lon": 12.4190996, "tags": {"amenity": "bar", "name": "dello Studente"}}, {"type": "node", "id": 614403815, "lat": 41.929286, "lon": 12.4860581, "tags": {"amenity": "bar", "name": "Grande Black"}}, {"type": "node", "id": 696475166, "lat": 41.909804, "lon": 12.5379152, "tags": {"amenity": "bar", "name": "Monaco"}}, {"type": "node", "id": 725267537, "lat": 41.8550539, "lon": 12.4893726}, {"type": "node", "id": 734745904, "lat": 41.8609767, "lon": 12.4866138}, {"type": "node", "id": 734745914, "lat": 41.8610027, "lon": 12.4864354}, {"type": "node", "id": 734745922, "lat": 41.8610513, "lon": 12.4864838}, {"type": "node", "id": 734745937, "lat": 41.8609404, "lon": 12.4865834}, {"type": "node", "id": 740890080, "lat": 41.9357417, "lon": 12.4219653, "tags": {"amenity": "bar", "name": "Truzzi"}}, {"type": "node", "id": 740890081, "lat": 41.9361076, "lon": 12.422465, "tags": {"amenity": "bar"}}, {"type": "node", "id": 740890082, "lat": 41.9349655, "lon": 12.4208106, "tags": {"amenity": "bar", "name": "Giglio"}}, {"type": "node", "id": 740890083, "lat": 41.9356892, "lon": 12.4201623, "tags": {"amenity": "bar"}}, {"type": "node", "id": 740890091, "lat": 41.9356354, "lon": 12.4218337, "tags": {"amenity": "bar", "name": "Lory"}}, {"type": "node", "id": 766869078, "lat": 41.909077, "lon": 12.488319, "tags": {"addr:city": "Roma", "addr:housenumber": "150", "addr:postcode": "00187", "addr:street": "Via Vittorio Veneto", "amenity": "bar", "email": "info@harrysbar.it", "historic": "monument", "name": "Harry's Bar", "phone": "+39 06 484643", "website": "http://www.harrysbar.it/", "wikidata": "Q5666672"}}, {"type": "node", "id": 831575749, "lat": 41.9110461, "lon": 12.4123989, "tags": {"amenity": "bar", "name": "Dea & Dea Bar"}}, {"type": "node", "id": 889532281, "lat": 41.7704355, "lon": 12.6664817}, {"type": "node", "id": 889532288, "lat": 41.7704709, "lon": 12.6664717}, {"type": "node", "id": 889532308, "lat": 41.7704979, "lon": 12.6666443}, {"type": "node", "id": 889532322, "lat": 41.7704625, "lon": 12.6666542}, {"type": "node", "id": 914375609, "lat": 41.9059975, "lon": 12.4889086, "tags": {"amenity": "bar"}}, {"type": "node", "id": 962348457, "lat": 41.8940916, "lon": 12.4885583, "tags": {"addr:housenumber": "18/19", "addr:street": "Via della Madonna dei Monti", "amenity": "bar", "email": "info@iceclubroma.it", "name": "Ice Club", "opening_hours": "Mo-Su 17:00-01:00", "phone": "+39 06 9784 5581", "toilets": "yes", "website": "http://iceclubroma.it/"}}, {"type": "node", "id": 1062355173, "lat": 41.9104814, "lon": 12.4542674, "tags": {"amenity": "bar", "name": "Caffetteria Doria"}}, {"type": "node", "id": 1104719276, "lat": 41.8550231, "lon": 12.4894133}, {"type": "node", "id": 1104719295, "lat": 41.8550671, "lon": 12.4894731}, {"type": "node", "id": 1104719297, "lat": 41.8550978, "lon": 12.4894324}, {"type": "node", "id": 1118942865, "lat": 41.9043363, "lon": 12.5169715, "tags": {"amenity": "bar", "name": "Bar punto ristoro Sapienza", "opening_hours": "Mo-Fr 07:00-23:00; Sa 07:00-15:00"}}, {"type": "node", "id": 1222991182, "lat": 41.9366865, "lon": 12.4258013, "tags": {"amenity": "bar"}}, {"type": "node", "id": 1240868979, "lat": 41.9100959, "lon": 12.4618397, "tags": {"amenity": "bar", "toilets:wheelchair": "no", "wheelchair": "yes"}}, {"type": "node", "id": 1253235860, "lat": 41.8988399, "lon": 12.4808093, "tags": {"amenity": "bar", "name": "Trinity College", "wheelchair": "no"}}, {"type": "node", "id": 1271631014, "lat": 41.8777803, "lon": 12.5235036, "tags": {"addr:city": "Roma", "addr:housenumber": "69", "addr:postcode": "00181", "addr:street": "Via Veturia", "amenity": "bar", "name": "Appero' (Lounge Bar Cafe')", "phone": "+39 3386151867"}}, {"type": "node", "id": 1286797433, "lat": 41.9047962, "lon": 12.44736, "tags": {"amenity": "bar", "name": "Old Trafford"}}, {"type": "node", "id": 1289464449, "lat": 41.927325, "lon": 12.4864393, "tags": {"addr:city": "Roma", "addr:country": "IT", "addr:housenumber": "142", "addr:street": "Viale dei Parioli", "amenity": "bar", "name": "Parioli 142"}}, {"type": "node", "id": 1306538373, "lat": 41.8630662, "lon": 12.5478728, "tags": {"amenity": "bar", "name": "Willy's"}}, {"type": "node", "id": 1324874753, "lat": 41.9039788, "lon": 12.4602934, "tags": {"addr:city": "Roma", "addr:country": "IT", "addr:housenumber": "23", "addr:postcode": "00193", "addr:street": "Via Plauto", "amenity": "bar", "name": "Cafe' dei Desideri", "operator": "Effeci Global Service Group s.r.l.", "phone": "+39 06 6893207", "wheelchair": "yes"}}, {"type": "node", "id": 1353915169, "lat": 41.9250616, "lon": 12.4980155, "tags": {"addr:city": "Roma", "addr:country": "IT", "addr:housenumber": "23", "addr:place": "Parco Yitzhak Rabin", "amenity": "bar", "name": "Panamino", "phone": "+39 06 8415561"}}, {"type": "node", "id": 1369879930, "lat": 41.8779515, "lon": 12.4815141}, {"type": "node", "id": 1369879932, "lat": 41.8775377, "lon": 12.4815117}, {"type": "node", "id": 1369879935, "lat": 41.8776499, "lon": 12.481498}, {"type": "node", "id": 1369879937, "lat": 41.8775868, "lon": 12.4815125}, {"type": "node", "id": 1369879939, "lat": 41.8776526, "lon": 12.4814311}, {"type": "node", "id": 1369879940, "lat": 41.8775877, "lon": 12.4814074}, {"type": "node", "id": 1369879942, "lat": 41.877953, "lon": 12.4814473}, {"type": "node", "id": 1369879946, "lat": 41.8775386, "lon": 12.4814067}, {"type": "node", "id": 1402609397, "lat": 41.7337061, "lon": 12.2717971, "tags": {"addr:city": "Roma", "addr:postcode": "00121", "amenity": "bar", "name": "Eden Bar"}}, {"type": "node", "id": 1558150626, "lat": 41.8583532, "lon": 12.4968826}, {"type": "node", "id": 1558150628, "lat": 41.8583761, "lon": 12.4969227}, {"type": "node", "id": 1558150630, "lat": 41.8583843, "lon": 12.4968507}, {"type": "node", "id": 1558150635, "lat": 41.8584071, "lon": 12.4968907}, {"type": "node", "id": 1587508422, "lat": 41.7991037, "lon": 12.5910826, "tags": {"addr:city": "Ciampino", "addr:country": "IT", "addr:housename": "Aeroporto G. B. Pastine", "addr:housenumber": "1651", "addr:postcode": "00043", "addr:street": "Via Appia Nuova", "amenity": "bar", "name": "Chef Express", "note": "bar before security check (public area)", "operator": "Aeroporti di Roma s.p.a.", "ref:vatin": "IT06572251004"}}, {"type": "node", "id": 1634712825, "lat": 41.941222, "lon": 12.5753813, "tags": {"addr:city": "Roma", "addr:country": "IT", "addr:housenumber": "18", "addr:postcode": "00156", "addr:street": "Via Pollenza", "amenity": "bar", "name": "Dani Bar", "phone": "+39 06 4116580"}}, {"type": "node", "id": 1641654292, "lat": 41.9267843, "lon": 12.5155989, "tags": {"air_conditioning": "yes", "amenity": "bar", "name": "Di Persio", "opening_hours": "Mo-Su 07:00-21:00", "payment:cash": "yes", "payment:contactless": "yes", "payment:credit_cards": "yes", "payment:debit_cards": "yes", "payment:mastercard": "yes", "payment:visa": "yes", "payment:visa_debit": "yes"}}, {"type": "node", "id": 1641654313, "lat": 41.9307701, "lon": 12.5187226, "tags": {"amenity": "bar"}}, {"type": "node", "id": 1641654389, "lat": 41.928571, "lon": 12.5181353, "tags": {"amenity": "bar"}}, {"type": "node", "id": 1641654395, "lat": 41.9282397, "lon": 12.5232664, "tags": {"amenity": "bar"}}, {"type": "node", "id": 1641654463, "lat": 41.9282996, "lon": 12.5230541, "tags": {"amenity": "bar"}}, {"type": "node", "id": 1641654472, "lat": 41.9316343, "lon": 12.5202861, "tags": {"amenity": "bar"}}, {"type": "node", "id": 1641666383, "lat": 41.923151, "lon": 12.5143074, "tags": {"amenity": "bar"}}, {"type": "node", "id": 1641666388, "lat": 41.9235302, "lon": 12.5118988, "tags": {"amenity": "bar"}}, {"type": "node", "id": 1641666393, "lat": 41.9255099, "lon": 12.5166892, "tags": {"amenity": "bar"}}, {"type": "node", "id": 1641666407, "lat": 41.924975, "lon": 12.5157075, "tags": {"amenity": "bar"}}, {"type": "node", "id": 1644414779, "lat": 41.8852437, "lon": 12.4615068, "tags": {"amenity": "bar", "name": "All'Arco"}}, {"type": "node", "id": 1649682759, "lat": 41.8886788, "lon": 12.4705705, "tags": {"addr:city": "Roma", "addr:country": "IT", "addr:housenumber": "15", "addr:postcode": "00153", "addr:street": "Piazza di San Calisto", "amenity": "bar", "name": "Laganni Cafe'", "operator": "DTL s.r.l.", "phone": "+39 333 6321386", "ref:vatin": "IT11053521008"}}, {"type": "node", "id": 1664029393, "lat": 41.8640839, "lon": 12.5688822, "tags": {"amenity": "bar"}}, {"type": "node", "id": 1671670447, "lat": 41.889666, "lon": 12.4690788, "tags": {"addr:city": "Roma", "addr:country": "IT", "addr:housenumber": "5", "addr:street": "Largo Maria Domenica Fumasoni Biondi", "alt_name": "Art\u00f9", "amenity": "bar", "email": "info@art-two.it", "name": "Art Two", "operator": "Gestione Ristoranti s.a.s.", "phone": "+39 06 5880398", "ref:vatin": "IT01433371000", "website": "www.art-two.it"}}, {"type": "node", "id": 1695061391, "lat": 41.8444502, "lon": 12.4880713, "tags": {"amenity": "bar", "cuisine": "coffee_shop", "name": "Re del Gelato", "source": "local_knowledge"}}, {"type": "node", "id": 1695279656, "lat": 41.8973551, "lon": 12.4751519, "tags": {"addr:city": "Roma", "addr:country": "IT", "addr:housenumber": "54A", "addr:street": "Via del Teatro Valle", "amenity": "bar", "name": "Chocolat", "operator": "Chocolatini d'Autore s.r.l.", "phone": "+39 06 68135545", "ref:vatin": "IT10419111009", "shop": "pastry"}}, {"type": "node", "id": 1701218666, "lat": 41.8885564, "lon": 12.4950752, "tags": {"amenity": "bar", "name": "Camden Town"}}, {"type": "node", "id": 1701605184, "lat": 41.9152753, "lon": 12.4938507, "tags": {"amenity": "bar"}}, {"type": "node", "id": 1701626486, "lat": 41.9282859, "lon": 12.5195992, "tags": {"amenity": "bar"}}, {"type": "node", "id": 1747005268, "lat": 41.8611449, "lon": 12.485425, "tags": {"addr:city": "Roma", "addr:country": "IT", "addr:housenumber": "80", "addr:postcode": "00154", "addr:street": "Via delle Sette Chiese", "amenity": "bar", "name": "Bar Tholomew", "operator": "Dorotea Cervi", "phone": "+39 06 86661427", "ref:vatin": "IT14456931006"}}, {"type": "node", "id": 1754696156, "lat": 41.9436384, "lon": 12.6513906, "tags": {"amenity": "bar"}}, {"type": "node", "id": 1769167641, "lat": 41.9417879, "lon": 12.5784849, "tags": {"addr:city": "Roma", "addr:country": "IT", "addr:housenumber": "59", "addr:postcode": "00156", "addr:street": "Via Casal Tidei", "amenity": "bar"}}, {"type": "node", "id": 1798362153, "lat": 41.906125, "lon": 12.4582925}, {"type": "node", "id": 1798362154, "lat": 41.9061279, "lon": 12.458262}, {"type": "node", "id": 1798362157, "lat": 41.9061409, "lon": 12.4583223}, {"type": "node", "id": 1798362159, "lat": 41.9061665, "lon": 12.4583275}, {"type": "node", "id": 1798362160, "lat": 41.9061756, "lon": 12.4582416}, {"type": "node", "id": 1798362172, "lat": 41.9061879, "lon": 12.4583063}, {"type": "node", "id": 1798362173, "lat": 41.9061917, "lon": 12.4582718}, {"type": "node", "id": 1826697491, "lat": 41.7883523, "lon": 12.3288911, "tags": {"amenity": "bar", "name": "Bar Sole"}}, {"type": "node", "id": 1826704772, "lat": 41.7859474, "lon": 12.3320427, "tags": {"amenity": "bar"}}, {"type": "node", "id": 1829423506, "lat": 41.9309708, "lon": 12.5537432, "tags": {"addr:city": "Roma", "addr:country": "IT", "addr:housename": "CSA La Torre", "addr:housenumber": "13", "addr:postcode": "00156", "addr:street": "Via Carlo Giuseppe Bertero", "amenity": "bar", "name": "Birreria Csa La Torre", "source": "GPS", "website": "http://csalatorre.net", "wifi": "free"}}, {"type": "node", "id": 1853471049, "lat": 41.752597, "lon": 12.3731106, "tags": {"amenity": "bar"}}, {"type": "node", "id": 1916357887, "lat": 41.9438187, "lon": 12.5687412}, {"type": "node", "id": 1916357891, "lat": 41.9439171, "lon": 12.5685716}, {"type": "node", "id": 1916357903, "lat": 41.9440082, "lon": 12.5691033}, {"type": "node", "id": 1916357917, "lat": 41.9440809, "lon": 12.5686593}, {"type": "node", "id": 1916357921, "lat": 41.9441418, "lon": 12.5693586}, {"type": "node", "id": 1916357922, "lat": 41.944175, "lon": 12.5687203}, {"type": "node", "id": 1916357925, "lat": 41.9441991, "lon": 12.5687391}, {"type": "node", "id": 1916357928, "lat": 41.9442724, "lon": 12.5687962}, {"type": "node", "id": 1916357929, "lat": 41.944414, "lon": 12.5689197}, {"type": "node", "id": 1917232843, "lat": 41.9382776, "lon": 12.5348197, "tags": {"addr:city": "Roma", "addr:country": "IT", "addr:housenumber": "2", "addr:street": "Via Peralba", "amenity": "bar", "name": "iLocale", "website": "http://www.ilocale.it/"}}, {"type": "node", "id": 1921644442, "lat": 41.7954354, "lon": 12.2510729, "tags": {"addr:city": "Fiumicino", "addr:country": "IT", "addr:full": "Aeroporto Leonardo da Vinci;Terminal T3;00050 Fiumicino (RM)", "addr:housename": "Aeroporto Leonardo da Vinci", "addr:postcode": "00050", "amenity": "bar", "name": "Vacanze Romane", "operator": "Caff\u00e8 Colonna s.r.l.", "ref:vatin": "IT07746581003"}}, {"type": "node", "id": 1924068009, "lat": 41.9387077, "lon": 12.5289168, "tags": {"amenity": "bar", "name": "Titanic"}}, {"type": "node", "id": 1933979927, "lat": 41.9388597, "lon": 12.5412554, "tags": {"addr:city": "Roma", "addr:country": "IT", "addr:housenumber": "26", "addr:street": "Via Jacopo Sannazzaro", "amenity": "bar", "name": "Pinguino geloso civico 26"}}, {"type": "node", "id": 1985389193, "lat": 41.9017321, "lon": 12.5366806, "tags": {"amenity": "bar", "cuisine": "ice_cream"}}, {"type": "node", "id": 2042621764, "lat": 41.8599441, "lon": 12.4913992, "tags": {"addr:city": "Roma", "addr:housenumber": "12", "addr:postcode": "00145", "addr:street": "Via Alessandra Macinghi Strozzi", "amenity": "bar", "name": "Bar Orazio Caf\u00e9", "operator": "Aschettino Orazio Elio", "ref:vatin": "IT10819291005", "restaurant:type:it": "bar;caf\u00e9"}}, {"type": "node", "id": 2060768645, "lat": 41.8668527, "lon": 12.4845725, "tags": {"addr:city": "Roma", "addr:housenumber": "112", "addr:postcode": "00154", "addr:street": "Via Giacinto Pullino", "amenity": "bar", "internet_access": "wlan", "name": "Sweet Paoletta", "operator": "Con. Gest. 98 di Concetti R. S.A.S.", "outdoor_seating": "no", "phone": "+39 06 5125707", "ref:vatin": "IT11662031001", "restaurant:type:it": "snack_bar;bar"}}, {"type": "node", "id": 2061849100, "lat": 41.8718746, "lon": 12.5192738, "tags": {"amenity": "bar"}}, {"type": "node", "id": 2092013187, "lat": 41.8898973, "lon": 12.4946166, "tags": {"addr:street": "Via di San Giovanni in Laterano", "amenity": "bar", "contact:instagram": "https://www.instagram.com/mybar.roma/", "lgbtq": "primary", "name": "My Bar", "operator": "Anfiteatro S.r.l.", "phone": "+39 06 7004425", "ref:vatin": "IT06747541008"}}, {"type": "node", "id": 2092415177, "lat": 41.9091454, "lon": 12.5110828, "tags": {"addr:city": "Roma", "addr:housenumber": "310", "addr:postcode": "00198", "addr:street": "Viale Regina Margherita", "amenity": "bar", "name": "Volpini", "operator": "La Volpe S.r.l.", "phone": "+39 06 44249087", "ref:vatin": "IT04792501001", "website": "barvolpini.it/"}}, {"type": "node", "id": 2103418678, "lat": 41.8509558, "lon": 12.4849742, "tags": {"amenity": "bar", "name": "Iacobini", "wifi": "no"}}, {"type": "node", "id": 2104115313, "lat": 41.8565204, "lon": 12.4788002, "tags": {"amenity": "bar", "name": "Super gelo", "source": "local_knowledge"}}, {"type": "node", "id": 2105491945, "lat": 41.9932086, "lon": 12.4868755, "tags": {"amenity": "bar"}}, {"type": "node", "id": 2105831777, "lat": 41.9161835, "lon": 12.4071643, "tags": {"amenity": "bar", "name": "Ghisbi Bar"}}, {"type": "node", "id": 2109265211, "lat": 41.8553417, "lon": 12.4786339, "tags": {"amenity": "bar", "name:signed": "no", "source": "local_knowledge"}}, {"type": "node", "id": 2128214065, "lat": 41.8889284, "lon": 12.4978823, "tags": {"addr:city": "Roma", "addr:country": "IT", "addr:housenumber": "126", "addr:postcode": "00184", "addr:street": "Via di San Giovanni in Laterano", "amenity": "bar", "cuisine": "italian", "internet_access": "wlan", "name": "San Clemente", "outdoor_seating": "yes", "source": "GPS", "website": "http://www.iclementini.it/", "wheelchair": "no"}}, {"type": "node", "id": 2136167076, "lat": 41.8759977, "lon": 12.5057404, "tags": {"amenity": "bar", "name": "Bar Tabacchi"}}, {"type": "node", "id": 2147946539, "lat": 41.8907428, "lon": 12.4692333, "tags": {"addr:city": "Roma", "addr:country": "IT", "addr:housenumber": "11A", "addr:postcode": "00156", "addr:street": "Vicolo del Cinque", "amenity": "bar", "name": "Cioccolata e Vino", "phone": "+39 06 58301868", "wheelchair": "yes"}}, {"type": "node", "id": 2149381718, "lat": 41.8186597, "lon": 12.6849082, "tags": {"addr:city": "Frascati", "addr:housenumber": "24", "addr:postcode": "00044", "addr:street": "Via Quintili", "amenity": "bar", "name": "Hinterland Bar", "note": "Gelati tradizionali e al mosto", "website": "http://www.hinterlandbar.com/"}}, {"type": "node", "id": 2170034174, "lat": 41.8161238, "lon": 12.7150919, "tags": {"amenity": "bar"}}, {"type": "node", "id": 2172054432, "lat": 41.816641, "lon": 12.7171892, "tags": {"addr:city": "Monte Porzio Catone", "addr:housenumber": "40", "addr:postcode": "00078", "addr:street": "Via Aldo Moro", "amenity": "bar", "name": "Bar due pini", "opening_hours": "Mo-Sa 07:00-22:00", "outdoor_seating": "yes", "smoking": "outside"}}, {"type": "node", "id": 2189156343, "lat": 41.8965526, "lon": 12.4746374, "tags": {"amenity": "bar", "name": "Bulldog Inn Rome"}}, {"type": "node", "id": 2219125309, "lat": 41.905567, "lon": 12.4474034, "tags": {"addr:city": "Roma", "addr:housenumber": "18", "addr:street": "Via Marcantonio Bragadin", "amenity": "bar", "name": "Milk and Coffee", "source": "local_knowledge"}}, {"type": "node", "id": 2231708736, "lat": 41.863, "lon": 12.4795038, "tags": {"amenity": "bar", "name": "Erasmus"}}, {"type": "node", "id": 2244935532, "lat": 41.897772, "lon": 12.468306, "tags": {"addr:housenumber": "7", "addr:street": "Via dei Cartari", "amenity": "bar", "name": "Capitan Cosmo", "source": "+39 06 6880 2766", "website": "http://www.facebook.com/CapitanCosmo"}}, {"type": "node", "id": 2244950710, "lat": 41.8973235, "lon": 12.4731474, "tags": {"addr:housenumber": "18", "addr:street": "Via della Cuccagna", "amenity": "bar", "name": "Pub Cuccagna", "phone": "+39 06 6874848", "source": "+39 06 687 4848", "website": "http://www.cucagnapub.it"}}, {"type": "node", "id": 2244977014, "lat": 41.899936, "lon": 12.4799276, "tags": {"addr:housenumber": "89", "addr:street": "Via di Pietra", "amenity": "bar", "name": "Cesari's Terrace", "phone": "+39 06 6749701", "source": "Bing, Local knowledge", "website": "http://www.albergocesari.it/"}}, {"type": "node", "id": 2273997542, "lat": 41.8987739, "lon": 12.4824596, "tags": {"addr:city": "Roma", "addr:country": "IT", "addr:housenumber": "19", "addr:street": "Via di San Marcello", "amenity": "bar", "cuisine": "italian", "email": "info@anticabirreriaperoni.it", "name": "L'Antica Birreria Peroni", "phone": "+39 06 6795310", "source": "Bing, Local knowledge", "website": "https://www.anticabirreriaperoni.net/"}}, {"type": "node", "id": 2274002831, "lat": 41.8976836, "lon": 12.4776021, "tags": {"addr:housenumber": "69", "addr:street": "Piazza della Minerva", "amenity": "bar", "name": "Minerva Roof Garden", "phone": "+39 06 695201", "source": "Bing, Local knowledge", "website": "https://www.minervaroofgarden.it/"}}, {"type": "node", "id": 2279394345, "lat": 41.9087302, "lon": 12.4666155, "tags": {"addr:city": "Roma", "addr:housenumber": "9", "addr:postcode": "00192", "addr:street": "Via Ezio", "amenity": "bar", "name": "Grande Franco", "phone": "+39 06 3213008", "ref:vatin": "IT07452330587", "restaurant:type:it": "bar;latteria"}}, {"type": "node", "id": 2296865963, "lat": 41.9001142, "lon": 12.4793878, "tags": {"addr:housenumber": "42", "addr:street": "Piazza di Pietra", "amenity": "bar", "name": "Salotto 42", "name:it": "Salotto 42 \u0417\u043d\u0430\u043a\u043e\u043c\u0441\u0442\u0432\u0430 \u0445\u043e\u0440\u043e\u0448\u0438\u0435", "phone": "+39 06 6785804", "source": "Bing, Local knowledge", "website": "http://www.salotto42.it", "wheelchair": "no"}}, {"type": "node", "id": 2346380216, "lat": 41.8093647, "lon": 12.680384, "tags": {"amenity": "bar"}}, {"type": "node", "id": 2346385825, "lat": 41.8084834, "lon": 12.6816408, "tags": {"amenity": "bar"}}, {"type": "node", "id": 2346392910, "lat": 41.8085765, "lon": 12.6836188, "tags": {"amenity": "bar"}}, {"type": "node", "id": 2443571585, "lat": 41.8070185, "lon": 12.6815433, "tags": {"amenity": "bar"}}, {"type": "node", "id": 2508346085, "lat": 41.8611134, "lon": 12.554127, "tags": {"addr:housenumber": "998", "addr:street": "Via Tuscolana", "amenity": "bar", "name": "Fornocaff\u00e8"}}, {"type": "node", "id": 2513122725, "lat": 41.869732, "lon": 12.4908976, "tags": {"addr:housenumber": "16", "addr:street": "Via Bartolomeo Diaz", "amenity": "bar", "name": "Privilegio"}}, {"type": "node", "id": 2537266359, "lat": 41.8690636, "lon": 12.4855491, "tags": {"addr:housenumber": "27", "addr:street": "Via della Moletta", "amenity": "bar", "name": "Bar d'Alfonso", "phone": "+39 06 5782781"}}, {"type": "node", "id": 2547132196, "lat": 41.8117709, "lon": 12.6836994, "tags": {"amenity": "bar", "opening_hours": "Mo-Sa 08:30-20:00"}}, {"type": "node", "id": 2572173425, "lat": 41.8924311, "lon": 12.5748349, "tags": {"addr:city": "Roma", "addr:housename": "Viale Palmiro Togliatti", "addr:housenumber": "954/956", "addr:postcode": "00171", "addr:street": "Viale Palmiro Togliatti", "amenity": "bar", "name": "Alexander Bar", "opening_hours": "5:00 - 21:00", "phone": "+39 06 215 6374", "website": "https://www.facebook.com/pages/Alexander-Bar/154151091286798", "wheelchair": "yes"}}, {"type": "node", "id": 2590485571, "lat": 41.9101068, "lon": 12.4518656, "tags": {"amenity": "bar", "name": "Fabrica", "opening_hours": "Mo-Th 08:00-00:30, Fr,Sa 08:00-01:00, Su 09:00-00:30", "wheelchair": "yes"}}, {"type": "node", "id": 2612678829, "lat": 41.8676148, "lon": 12.6330562, "tags": {"addr:city": "Roma", "addr:housenumber": "428", "addr:postcode": "00133", "addr:street": "Via Amico Aspertini", "amenity": "bar", "name": "Pasticceria Pescatore", "website": "http://www.pasticceriapescatore.it/gelateria-roma-dueleoni-tor_bella_monaca.html"}}, {"type": "node", "id": 2626198272, "lat": 41.8128329, "lon": 12.6865058, "tags": {"amenity": "bar"}}, {"type": "node", "id": 2628473466, "lat": 41.8636862, "lon": 12.5571941, "tags": {"amenity": "bar", "name": "Bar La Torretta"}}, {"type": "node", "id": 2628510915, "lat": 41.8613082, "lon": 12.5610761, "tags": {"amenity": "bar", "name": "Ludel"}}, {"type": "node", "id": 2638506151, "lat": 41.8650874, "lon": 12.555013, "tags": {"addr:city": "Roma", "addr:country": "IT", "addr:housenumber": "132", "addr:street": "Via Scribonio Curione", "amenity": "bar", "name": "Airport Caf\u00e8"}}, {"type": "node", "id": 2638512091, "lat": 41.8642301, "lon": 12.5540515, "tags": {"addr:city": "Roma", "addr:country": "IT", "addr:housenumber": "83", "addr:street": "Via Scribonio Curione", "amenity": "bar", "name": "Snack Bar Il Cavallino"}}, {"type": "node", "id": 2639551475, "lat": 41.9326784, "lon": 12.5292649}, {"type": "node", "id": 2639551476, "lat": 41.9326377, "lon": 12.5297448}, {"type": "node", "id": 2639551477, "lat": 41.9324765, "lon": 12.5297201}, {"type": "node", "id": 2639551478, "lat": 41.9324877, "lon": 12.529588}, {"type": "node", "id": 2639551479, "lat": 41.9325442, "lon": 12.5295966}, {"type": "node", "id": 2639551480, "lat": 41.9325737, "lon": 12.5292488}, {"type": "node", "id": 2648230410, "lat": 41.8682614, "lon": 12.4900412, "tags": {"addr:city": "Roma", "addr:country": "IT", "addr:housenumber": "43", "addr:street": "Piazza Giovanni da Verrazzano", "amenity": "bar", "name": "Caff\u00e8 La Gioia Del Gusto"}}, {"type": "node", "id": 2670269327, "lat": 41.856569, "lon": 12.4771207}, {"type": "node", "id": 2670269328, "lat": 41.8565823, "lon": 12.476982}, {"type": "node", "id": 2670269329, "lat": 41.8566331, "lon": 12.4771318}, {"type": "node", "id": 2670269331, "lat": 41.8566464, "lon": 12.476993}, {"type": "node", "id": 2737169803, "lat": 41.9332431, "lon": 12.5983203}, {"type": "node", "id": 2737169805, "lat": 41.9332519, "lon": 12.5983908}, {"type": "node", "id": 2737169810, "lat": 41.9333375, "lon": 12.5982992}, {"type": "node", "id": 2737169812, "lat": 41.9333462, "lon": 12.5983697}, {"type": "node", "id": 2826498318, "lat": 41.7363547, "lon": 12.2731604, "tags": {"addr:city": "Roma", "addr:postcode": "00121", "addr:street": "Piazza di Santa Monica", "amenity": "bar", "smoking": "no", "source": "Bing"}}, {"type": "node", "id": 2835819625, "lat": 41.8737647, "lon": 12.4699893, "tags": {"addr:street": "Lungotevere degli Artigiani", "amenity": "bar", "description": "Cocktail Bar", "internet_access:fee": "yes", "name": "Peso Bistrot", "website": "http://www.pesoroma.it"}}, {"type": "node", "id": 2843429837, "lat": 41.9107319, "lon": 12.5205642, "tags": {"addr:city": "Roma", "addr:country": "IT", "addr:housenumber": "73", "addr:postcode": "00161", "addr:street": "Via Padova", "amenity": "bar", "name": "Oasi", "operator": "Huang Xiuhua", "phone": "+39 06 45421912", "ref:vatin": "IT09557721009", "wheelchair": "limited"}}, {"type": "node", "id": 2857763034, "lat": 41.7371894, "lon": 12.2907043, "tags": {"addr:city": "Roma", "addr:housenumber": "184", "addr:postcode": "00122", "addr:street": "Via Federico Paolini", "amenity": "bar", "phone": "+39 06 5685004", "smoking": "no", "website": "https://www.lacasadeltramezzino.org/", "wheelchair": "yes"}}, {"type": "node", "id": 2857763035, "lat": 41.7366849, "lon": 12.2904912, "tags": {"amenity": "bar", "name": "Bar dello Studente", "opening_hours": "Mo-Sa 05:00-20:00; Su 07:00-13:00", "phone": "+39 06 5662489", "smoking": "no", "wheelchair": "yes"}}, {"type": "node", "id": 2866051043, "lat": 41.7389183, "lon": 12.2870266, "tags": {"addr:city": "Roma", "addr:housenumber": "106", "addr:postcode": "00122", "addr:street": "Via Capo Spartivento", "amenity": "bar", "name": "Dual Caff\u00e8", "phone": "+39 06 56368140", "smoking": "no", "wheelchair": "yes"}}, {"type": "node", "id": 2866063730, "lat": 41.7384683, "lon": 12.2848314, "tags": {"addr:city": "Roma", "addr:housenumber": "136", "addr:postcode": "00122", "addr:street": "Via Alessandro Piola Caselli", "amenity": "bar", "name": "Caff\u00e8 Paradise", "phone": "+39 06 99700004", "smoking": "no", "wheelchair": "yes"}}, {"type": "node", "id": 2897270432, "lat": 41.8345879, "lon": 12.4722334, "tags": {"addr:housenumber": "96", "addr:postcode": "00144", "addr:street": "Viale della Civilt\u00e0 del Lavoro", "amenity": "bar", "cuisine": "italian", "name": "Columbus", "operator": "Gesbar S.r.l.", "phone": "+39 06 5926150", "ref:vatin": "IT00932831001", "sells:tobacco": "yes", "warm_lunch": "yes"}}, {"type": "node", "id": 2927011978, "lat": 41.6761174, "lon": 12.4990738, "tags": {"amenity": "bar"}}, {"type": "node", "id": 2965247814, "lat": 41.8993424, "lon": 12.5360477, "tags": {"addr:city": "Roma", "addr:housenumber": "56", "addr:postcode": "00159", "addr:street": "Via Domenico Cucchiari", "amenity": "bar", "brewery": "various", "name": "Beer Time", "opening_hours": "Mo-Su 17:00-00:00", "phone": "+39 331 4897537", "yelp": "http://www.yelp.com/biz/beer-time-beershop-roma"}}, {"type": "node", "id": 2999940682, "lat": 41.8642484, "lon": 12.4688295, "tags": {"addr:city": "Roma", "addr:housenumber": "46", "addr:postcode": "00146", "addr:street": "Piazza Enrico Fermi", "amenity": "bar", "ice_cream": "yes", "name": "Barberini", "operator": "Barberini S.r.l.", "phone": "+39 06 55300488", "ref:vatin": "IT06958291004", "restaurant:type:it": "gelateria;bar;pasticceria", "shop": "pastry"}}, {"type": "node", "id": 3089752489, "lat": 41.8895447, "lon": 12.5651215, "tags": {"amenity": "bar", "name": "Dopotutto"}}, {"type": "node", "id": 3118261701, "lat": 41.8825889, "lon": 12.5135354, "tags": {"addr:city": "Roma", "addr:country": "IT", "addr:housenumber": "127", "addr:postcode": "00183", "addr:street": "Via Appia Nuova", "amenity": "bar", "internet_access": "wlan", "internet_access:fee": "no", "name": "Picadilly", "smoking": "isolated", "wheelchair": "yes"}}, {"type": "node", "id": 3209697225, "lat": 41.8806533, "lon": 12.4775455, "tags": {"addr:housenumber": "127", "addr:street": "Via Marmorata", "amenity": "bar", "name": "Bar Marmorata", "shop": "ice_cream"}}, {"type": "node", "id": 3269336673, "lat": 41.8637733, "lon": 12.4689442, "tags": {"addr:city": "Roma", "addr:housenumber": "33", "addr:postcode": "00146", "addr:street": "Piazza Enrico Fermi", "amenity": "bar", "name": "Shikaf\u00e8"}}, {"type": "node", "id": 3320437843, "lat": 41.8888415, "lon": 12.4952573, "tags": {"addr:housenumber": "26", "addr:street": "Via Capo d'Africa", "amenity": "bar", "name": "La Follia", "operator": "Dolce Calabria SAS di Morello Alessandra & C.", "phone": "+39 06 45477438", "ref:vatin": "IT11279721002", "restaurant:type:it": "wine_bar", "shop": "pastry"}}, {"type": "node", "id": 3512007466, "lat": 41.8490921, "lon": 12.4880542, "tags": {"addr:city": "Roma", "amenity": "bar", "name": "Bim Bum Bar"}}, {"type": "node", "id": 3519226999, "lat": 41.8942066, "lon": 12.4747437, "tags": {"addr:housenumber": "114", "addr:street": "Piazza Benedetto Cairoli", "amenity": "bar", "operator": "Pietro Luisi", "ref:vatin": "IT10880400584", "shop": "tobacco"}}, {"type": "node", "id": 3537723099, "lat": 41.861394, "lon": 12.5534912, "tags": {"addr:city": "Roma", "addr:housenumber": "6", "addr:street": "Via dei Fontej", "amenity": "bar", "name": "Brutium bar"}}, {"type": "node", "id": 3537723114, "lat": 41.8597934, "lon": 12.5539954, "tags": {"amenity": "bar"}}, {"type": "node", "id": 3551307620, "lat": 41.9069283, "lon": 12.4887487, "tags": {"addr:housenumber": "30-34", "addr:street": "Via Ludovisi", "amenity": "bar", "name": "Bar Ludovisi", "operator": "Doppio Zero Srl.", "phone": "+39 06 42016014", "ref:vatin": "IT11344331001"}}, {"type": "node", "id": 3588064197, "lat": 41.9109667, "lon": 12.4875142, "tags": {"addr:street": "Via della Pineta", "amenity": "bar", "name": "Casina delle Rose", "operator": "Expo 2004 S.r.l.", "outdoor_seating": "yes", "ref:vatin": "IT08142211005"}}, {"type": "node", "id": 3592611846, "lat": 41.7225884, "lon": 12.2958626}, {"type": "node", "id": 3592611847, "lat": 41.7226046, "lon": 12.2958232}, {"type": "node", "id": 3592611848, "lat": 41.7226254, "lon": 12.2958899}, {"type": "node", "id": 3592611850, "lat": 41.7226416, "lon": 12.2958505}, {"type": "node", "id": 3611063782, "lat": 41.8928496, "lon": 12.4648646, "tags": {"addr:housenumber": "24", "addr:postcode": "00153", "addr:street": "Largo Cristina di Svezia", "amenity": "bar", "name": "Vivibistrot", "operator": "Perugia Franco Srl.", "ref:vatin": "IT07602841004"}}, {"type": "node", "id": 3654669693, "lat": 41.8315273, "lon": 12.462311, "tags": {"addr:housenumber": "29", "addr:street": "Viale America", "amenity": "bar", "name": "Conca D'oro"}}, {"type": "node", "id": 3657292376, "lat": 41.8765029, "lon": 12.4759095}, {"type": "node", "id": 3657292377, "lat": 41.8765247, "lon": 12.4760704}, {"type": "node", "id": 3657292378, "lat": 41.8764021, "lon": 12.4760979}, {"type": "node", "id": 3657292379, "lat": 41.8764004, "lon": 12.4760861}, {"type": "node", "id": 3657292380, "lat": 41.8763452, "lon": 12.4760967}, {"type": "node", "id": 3657292381, "lat": 41.8763189, "lon": 12.475913}, {"type": "node", "id": 3661055034, "lat": 41.92872, "lon": 12.5235603, "tags": {"amenity": "bar"}}, {"type": "node", "id": 3661056968, "lat": 41.9214116, "lon": 12.5106867, "tags": {"amenity": "bar", "name": "Paris Bar"}}, {"type": "node", "id": 3661060184, "lat": 41.9188482, "lon": 12.501111, "tags": {"addr:postcode": "00198", "addr:street": "Via Tagliamento", "amenity": "bar", "name": "Crema & Caff\u00e8"}}, {"type": "node", "id": 3661067955, "lat": 41.9311824, "lon": 12.5192704, "tags": {"amenity": "bar", "name": "Osteria Enoteca 20e20"}}, {"type": "node", "id": 3661067960, "lat": 41.9306386, "lon": 12.5184456, "tags": {"amenity": "bar"}}, {"type": "node", "id": 3673160213, "lat": 41.8587839, "lon": 12.5530723, "tags": {"addr:city": "Roma", "addr:housenumber": "1", "addr:street": "Largo Spartaco", "amenity": "bar", "name": "Caff\u00e9 Spartaco"}}, {"type": "node", "id": 3683838553, "lat": 41.861063, "lon": 12.373771}, {"type": "node", "id": 3683838556, "lat": 41.8611072, "lon": 12.3739506}, {"type": "node", "id": 3683838566, "lat": 41.8613116, "lon": 12.3738599}, {"type": "node", "id": 3683838567, "lat": 41.8613202, "lon": 12.3738948}, {"type": "node", "id": 3683838570, "lat": 41.8614008, "lon": 12.3736211}, {"type": "node", "id": 3683838573, "lat": 41.8614535, "lon": 12.3738356}, {"type": "node", "id": 3707882863, "lat": 41.9452274, "lon": 12.515852, "tags": {"addr:city": "Roma", "addr:street": "Via Valsavaranche", "amenity": "bar", "name": "Effe Effe Wine Bar"}}, {"type": "node", "id": 3737958534, "lat": 41.8816408, "lon": 12.460468, "tags": {"amenity": "bar"}}, {"type": "node", "id": 3739059086, "lat": 41.8905648, "lon": 12.4690402, "tags": {"amenity": "bar", "name": "Bar del Cinque", "outdoor_seating": "no"}}, {"type": "node", "id": 3781269001, "lat": 41.8967781, "lon": 12.4764444, "tags": {"addr:city": "Roma", "addr:housenumber": "12", "addr:postcode": "00186", "addr:street": "Via di Torre Argentina", "amenity": "bar", "name": "Vini e Cucina Blasi", "website": "http://viniecucinapantheon.it"}}, {"type": "node", "id": 3790634219, "lat": 41.9001107, "lon": 12.5137816, "tags": {"addr:housenumber": "1", "addr:street": "Via dei Marrucini", "amenity": "bar", "name": "The Apartment", "operator": "Art Core Gallery"}}, {"type": "node", "id": 3902912161, "lat": 41.8634759, "lon": 12.5487062, "tags": {"addr:city": "Roma", "addr:housenumber": "822A", "addr:street": "Via Tuscolana", "amenity": "bar", "name": "Il bosco degli elfi"}}, {"type": "node", "id": 3940791813, "lat": 41.854778, "lon": 12.5644339, "tags": {"addr:city": "Roma", "addr:country": "IT", "addr:housenumber": "366", "addr:postcode": "00174", "addr:street": "Largo Giulio Capitolino", "amenity": "bar", "name": "American bar"}}, {"type": "node", "id": 3957864141, "lat": 41.8797354, "lon": 12.5079964, "tags": {"amenity": "bar", "name": "Bar Britannia"}}, {"type": "node", "id": 3958348749, "lat": 41.8716985, "lon": 12.4797813, "tags": {"addr:housenumber": "54/B", "addr:street": "Via Ostiense", "amenity": "bar", "name": "Pasticceria Andreotti", "operator": "Andreotti S.r.l.", "phone": "+39 06 5750773", "ref:vatin": "IT05436261001", "restaurant:type:it": "pasticceria;caffetteria", "shop": "pastry", "website": "https://www.andreottiroma.it/"}}, {"type": "node", "id": 3982161181, "lat": 41.9391738, "lon": 12.4772202}, {"type": "node", "id": 3982161183, "lat": 41.939185, "lon": 12.4773585}, {"type": "node", "id": 3982161185, "lat": 41.9391969, "lon": 12.4774509}, {"type": "node", "id": 3982161189, "lat": 41.9392014, "lon": 12.4773561}, {"type": "node", "id": 3982161190, "lat": 41.9392023, "lon": 12.477518}, {"type": "node", "id": 3982161193, "lat": 41.9392089, "lon": 12.4774492}, {"type": "node", "id": 3982161194, "lat": 41.9392108, "lon": 12.4775167}, {"type": "node", "id": 3982161197, "lat": 41.9392177, "lon": 12.4776018}, {"type": "node", "id": 3982161295, "lat": 41.9393797, "lon": 12.4771902}, {"type": "node", "id": 3982161297, "lat": 41.9393825, "lon": 12.4773326}, {"type": "node", "id": 3982161301, "lat": 41.9393893, "lon": 12.4774159}, {"type": "node", "id": 3982161302, "lat": 41.939391, "lon": 12.4773313}, {"type": "node", "id": 3982161307, "lat": 41.9393964, "lon": 12.4774149}, {"type": "node", "id": 3982161312, "lat": 41.9394092, "lon": 12.4775739}, {"type": "node", "id": 3997755066, "lat": 41.8971366, "lon": 12.4763166, "tags": {"addr:city": "Roma", "addr:housenumber": "78", "addr:postcode": "00186", "addr:street": "Via di Torre Argentina", "amenity": "bar", "cuisine": "italian", "description": "Club in Rome", "internet_access": "wlan", "name": "Shari Vari", "opening_hours": "08:00-16:00", "phone": "+39.334.253.2673", "smoking": "no", "website": "https://www.sharivari.it/"}}, {"type": "node", "id": 4006026918, "lat": 41.7628131, "lon": 12.6535131, "tags": {"addr:city": "Castel Gandolfo", "addr:country": "IT", "addr:housenumber": "70", "addr:street": "Viale Bruno Buozzi", "amenity": "bar", "name": "Chalet del Lago", "phone": "+39 06 9385005", "wheelchair": "limited"}}, {"type": "node", "id": 4037397510, "lat": 41.7843905, "lon": 12.2356277, "tags": {"amenity": "bar", "opening_hours": "Mo-Fr 08:30-20:00"}}, {"type": "node", "id": 4101374349, "lat": 41.7259444, "lon": 12.2857625}, {"type": "node", "id": 4101374350, "lat": 41.7259415, "lon": 12.2857918}, {"type": "node", "id": 4101374351, "lat": 41.72593, "lon": 12.2858311}, {"type": "node", "id": 4101374352, "lat": 41.7259208, "lon": 12.2858518}, {"type": "node", "id": 4101374353, "lat": 41.7259139, "lon": 12.2858434}, {"type": "node", "id": 4101374354, "lat": 41.7258944, "lon": 12.2858326}, {"type": "node", "id": 4101374355, "lat": 41.7258599, "lon": 12.2858141}, {"type": "node", "id": 4101374356, "lat": 41.7258737, "lon": 12.2857648}, {"type": "node", "id": 4101374357, "lat": 41.7258938, "lon": 12.2857379}, {"type": "node", "id": 4101374358, "lat": 41.725918, "lon": 12.2857255}, {"type": "node", "id": 4101374359, "lat": 41.7259381, "lon": 12.2857371}, {"type": "node", "id": 4101374360, "lat": 41.725945, "lon": 12.2857486}, {"type": "node", "id": 4101503587, "lat": 41.7331891, "lon": 12.2830601, "tags": {"amenity": "bar", "name": "GreeD Lounge Bar"}}, {"type": "node", "id": 4108305221, "lat": 41.9106548, "lon": 12.4640753, "tags": {"addr:city": "Roma", "addr:country": "IT", "addr:housenumber": "59/c", "addr:street": "Viale Giulio Cesare", "amenity": "bar", "name": "Bar Tabacchi Epifani Anita", "operator": "Anita Epifani", "phone": "+39 06 3216080", "sells:tobacco": "yes"}}, {"type": "node", "id": 4131257389, "lat": 41.8584783, "lon": 12.5565679, "tags": {"addr:city": "Roma", "addr:housenumber": "38", "addr:street": "Via Marco Valerio Corvo", "amenity": "bar", "name": "il Mago del cappuccino", "wheelchair": "yes"}}, {"type": "node", "id": 4153893525, "lat": 41.7824323, "lon": 12.6712373}, {"type": "node", "id": 4153893526, "lat": 41.7824325, "lon": 12.6712625}, {"type": "node", "id": 4153893532, "lat": 41.7824502, "lon": 12.6712854}, {"type": "node", "id": 4153893536, "lat": 41.7824614, "lon": 12.6711969}, {"type": "node", "id": 4153893538, "lat": 41.7824688, "lon": 12.6712853}, {"type": "node", "id": 4153893540, "lat": 41.7824782, "lon": 12.6711968}, {"type": "node", "id": 4153893544, "lat": 41.7824963, "lon": 12.6712204}, {"type": "node", "id": 4153893545, "lat": 41.7824966, "lon": 12.6712467}, {"type": "node", "id": 4176683414, "lat": 41.9041576, "lon": 12.4780063, "tags": {"amenity": "bar", "name": "Ciampino bistrot"}}, {"type": "node", "id": 4192923989, "lat": 41.8893924, "lon": 12.4835302, "tags": {"addr:housenumber": "1", "addr:street": "Via del Velabro", "amenity": "bar", "cuisine": "italian", "description": "Lounge, Bar, Lunch, Dinner", "email": "animamundiroma@gmail.com", "internet_access": "wlan", "name": "Anima Mundi", "opening_hours": "Mo-Su 10:00-02:00", "phone": "+39 06 96030061", "website": "animamundiroma.it"}}, {"type": "node", "id": 4202657343, "lat": 41.7711759, "lon": 12.6619358, "tags": {"addr:housenumber": "8", "addr:street": "Piazza Europa", "amenity": "bar", "name": "Panzanera", "opening_hours": "Mo-Su 06:00-00:00", "phone": "+39 06 936 7048"}}, {"type": "node", "id": 4202657344, "lat": 41.7717102, "lon": 12.66278, "tags": {"amenity": "bar"}}, {"type": "node", "id": 4202673894, "lat": 41.7868344, "lon": 12.6668641, "tags": {"amenity": "bar"}}, {"type": "node", "id": 4223684587, "lat": 41.7779337, "lon": 12.6635468, "tags": {"amenity": "bar"}}, {"type": "node", "id": 4226430354, "lat": 41.8750094, "lon": 12.6193958, "tags": {"addr:city": "Roma", "amenity": "bar", "name": "Fornocaf\u00e8 Bar Tavola calda"}}, {"type": "node", "id": 4226491790, "lat": 41.8741116, "lon": 12.6195882, "tags": {"amenity": "bar", "name": "Bar Pasticceria La Bont\u00e0", "phone": "+39 06 2000426"}}, {"type": "node", "id": 4230144617, "lat": 41.9061033, "lon": 12.4631519, "tags": {"amenity": "bar", "name": "Ted", "wheelchair": "yes"}}, {"type": "node", "id": 4243480583, "lat": 41.8095224, "lon": 12.6848911, "tags": {"amenity": "bar"}}, {"type": "node", "id": 4246103194, "lat": 41.8609685, "lon": 12.4865163, "tags": {"addr:housenumber": "21", "addr:postcode": "00154", "addr:street": "Largo delle Sette Chiese", "entrance": "yes"}}, {"type": "node", "id": 4252793593, "lat": 41.7869264, "lon": 12.6729938, "tags": {"amenity": "bar", "name": "Coffea Bar"}}, {"type": "node", "id": 4253117405, "lat": 41.7888974, "lon": 12.6697284, "tags": {"amenity": "bar", "name": "Mini Bar"}}, {"type": "node", "id": 4257491612, "lat": 41.8650966, "lon": 12.6298449, "tags": {"amenity": "bar", "name": "Bar Tabacchi"}}, {"type": "node", "id": 4260275091, "lat": 41.8972902, "lon": 12.4845518, "tags": {"addr:housenumber": "138", "addr:street": "Via Quattro Novembre", "amenity": "bar", "name": "Nag's Head", "opening_hours": "Mo-Su 12:00-04:00"}}, {"type": "node", "id": 4282711096, "lat": 41.8806034, "lon": 12.6164696, "tags": {"amenity": "bar", "name": "Bar C'era una volta ... il caff\u00e8"}}, {"type": "node", "id": 4296842149, "lat": 41.8947125, "lon": 12.4761104, "tags": {"amenity": "bar", "name": "Caff\u00e8 Camerino"}}, {"type": "node", "id": 4305867490, "lat": 41.9003676, "lon": 12.4822941, "tags": {"amenity": "bar", "name": "Le Bar a Huiters", "toilets:wheelchair": "yes", "wheelchair": "yes"}}, {"type": "node", "id": 4311365149, "lat": 41.8912836, "lon": 12.4706695, "tags": {"addr:housenumber": "4", "addr:postcode": "00153", "addr:street": "Via del Politeama", "amenity": "bar", "name": "Freni e Frizioni", "opening_hours": "Mo-Su 18:30-02:00", "phone": "+39 06 4549 7499", "smoking": "outside", "source": "Bing, Local knowledge"}}, {"type": "node", "id": 4313556900, "lat": 41.9099603, "lon": 12.5379321, "tags": {"addr:housenumber": "2", "addr:postcode": "00157", "addr:street": "Largo Antonio Beltramelli", "amenity": "bar", "cuisine": "coffee_shop;breakfast", "name": "Zama bar", "opening_hours": "Mo-Sa 05:15-22:00; Su 06:00-19:40", "phone": "+39 06 4514879"}}, {"type": "node", "id": 4314605702, "lat": 41.8622602, "lon": 12.5518776, "tags": {"addr:city": "Roma", "addr:housenumber": "936A", "addr:street": "Via Tuscolana", "amenity": "bar", "name": "Caffetteria Romana"}}, {"type": "node", "id": 4315471037, "lat": 41.8625428, "lon": 12.5511627, "tags": {"amenity": "bar", "name": "Bar Tabacchi Doppia Sfida"}}, {"type": "node", "id": 4315640902, "lat": 41.8762372, "lon": 12.5189349, "tags": {"amenity": "bar", "name": "Enoteca bonomi wine bar"}}, {"type": "node", "id": 4315654591, "lat": 41.8800293, "lon": 12.514362, "tags": {"amenity": "bar", "name": "La carrot zeros"}}, {"type": "node", "id": 4326734343, "lat": 41.8490934, "lon": 12.4876012, "tags": {"addr:city": "Roma", "addr:housenumber": "41", "addr:postcode": "00147", "addr:street": "Via Mario Musco", "amenity": "bar", "name": "London Bar", "opening_hours": "Mo-Sa 06:30-20:30, Su 06:30-12:00", "phone": "+39 3207658782", "smoking": "outside"}}, {"type": "node", "id": 4362749978, "lat": 41.8243334, "lon": 12.4551972, "tags": {"amenity": "bar", "wheelchair": "yes"}}, {"type": "node", "id": 4392873451, "lat": 41.8636907, "lon": 12.5528943, "tags": {"amenity": "bar", "name": "Ristretto caf\u00e9"}}, {"type": "node", "id": 4394361989, "lat": 41.8833093, "lon": 12.4873351, "tags": {"addr:street": "Viale Aventino", "amenity": "bar", "cuisine": "italian", "name": "Bar Circo Massimo", "name:it": "Bar Circo Massimo"}}, {"type": "node", "id": 4406877346, "lat": 41.8076171, "lon": 12.6793536, "tags": {"addr:city": "Frascati", "addr:country": "IT", "addr:housenumber": "10", "addr:postcode": "00044", "addr:street": "Piazza Monte Grappa", "amenity": "bar", "name": "Frascaff\u00e8"}}, {"type": "node", "id": 4406880674, "lat": 41.807566, "lon": 12.6823253, "tags": {"addr:city": "Frascati", "addr:country": "IT", "addr:housenumber": "36", "addr:postcode": "00044", "addr:street": "Via Cavour", "amenity": "bar"}}, {"type": "node", "id": 4406944425, "lat": 41.8086373, "lon": 12.6806256, "tags": {"amenity": "bar"}}, {"type": "node", "id": 4406959003, "lat": 41.8079785, "lon": 12.6800647, "tags": {"amenity": "bar", "outdoor_seating": "yes"}}, {"type": "node", "id": 4406972114, "lat": 41.8078583, "lon": 12.6789865, "tags": {"addr:city": "Frascati", "addr:country": "IT", "addr:postcode": "00044", "addr:street": "Via Vincenzo del Grande", "amenity": "bar"}}, {"type": "node", "id": 4407056105, "lat": 41.8092858, "lon": 12.6780783, "tags": {"amenity": "bar"}}, {"type": "node", "id": 4407056106, "lat": 41.8093322, "lon": 12.6777136, "tags": {"amenity": "bar"}}, {"type": "node", "id": 4407056118, "lat": 41.8103708, "lon": 12.6781419, "tags": {"amenity": "bar"}}, {"type": "node", "id": 4407144068, "lat": 41.863412, "lon": 12.5525361, "tags": {"addr:city": "Roma", "addr:country": "IT", "addr:housenumber": "21", "addr:street": "Via dei Quinzi", "amenity": "bar"}}, {"type": "node", "id": 4408108884, "lat": 41.8080917, "lon": 12.6756191, "tags": {"amenity": "bar"}}, {"type": "node", "id": 4409802992, "lat": 41.8192842, "lon": 12.6478646, "tags": {"amenity": "bar", "tobacco": "yes"}}, {"type": "node", "id": 4411034315, "lat": 41.8183009, "lon": 12.6854602, "tags": {"amenity": "bar"}}, {"type": "node", "id": 4414032553, "lat": 41.8626116, "lon": 12.5542703, "tags": {"amenity": "bar", "name": "Corsini"}}, {"type": "node", "id": 4429662555, "lat": 41.8644984, "lon": 12.5529317, "tags": {"addr:city": "Roma", "addr:country": "IT", "addr:housenumber": "18", "addr:street": "Via Lucio Calpurnio Bibulo", "amenity": "bar", "name": "Caff\u00e9 & te..."}}, {"type": "node", "id": 4429662584, "lat": 41.8639597, "lon": 12.5532542, "tags": {"addr:city": "Roma", "addr:country": "IT", "addr:housenumber": "106", "addr:street": "Viale dei Consoli", "amenity": "bar", "name": "Vintage Caf\u00e9"}}, {"type": "node", "id": 4432657090, "lat": 41.9034676, "lon": 12.4854642, "tags": {"amenity": "bar", "cuisine": "italian_pizza;italian", "internet_access": "wlan", "name": "Zinzilla"}}, {"type": "node", "id": 4434448298, "lat": 41.9375311, "lon": 12.4246561, "tags": {"addr:street": "Via dell'Acquedotto del Peschiera", "amenity": "bar", "outdoor_seating": "yes"}}, {"type": "node", "id": 4435888575, "lat": 41.8098953, "lon": 12.6805629, "tags": {"amenity": "bar", "name": "Highlander", "wheelchair": "no"}}, {"type": "node", "id": 4438125791, "lat": 41.8852043, "lon": 12.5111613, "tags": {"addr:city": "Roma", "addr:housenumber": "25", "addr:postcode": "00182", "addr:street": "Largo Brindisi", "amenity": "bar", "contact:facebook": "https://www.facebook.com/OfficineSanGiovanniOfficial", "contact:instagram": "https://www.instagram.com/officinesangiovanniofficial/", "cuisine": "burger;breakfast;grill;coffee_shop;friture;pasta;italian;pizza;chicken", "email": "info@officinesangiovannibistrot.it", "internet_access": "wlan", "name": "Officine San Giovanni", "name:en": "Office San Giovanni", "name:it": "Officine San Giovanni", "opening_hours": "Mo-Th,Su 17:00-01:30, Fr,Sa 17:00-02:30", "outdoor_seating": "yes", "phone": "+39 06 4543 3405", "website": "https://www.officinesangiovannibistrot.it"}}, {"type": "node", "id": 4446504987, "lat": 41.8957403, "lon": 12.4723211, "tags": {"amenity": "bar", "name": "Da Gastone a Kampo"}}, {"type": "node", "id": 4447269749, "lat": 41.8622898, "lon": 12.4889103, "tags": {"addr:housenumber": "14", "addr:street": "Piazza Damiano Sauli", "amenity": "bar", "diet:gluten_free": "no", "name": "Baby Bar", "operator": "Francesca Giuliani", "ref:vatin": "IT10007720583", "restaurant:type:it": "bar"}}, {"type": "node", "id": 4447296449, "lat": 41.8773908, "lon": 12.4739284, "tags": {"addr:city": "Roma", "addr:housename": "Nuovo Mercato Testaccio", "addr:housenumber": "65", "addr:postcode": "00153", "addr:street": "Via Alessandro Volta", "amenity": "bar", "fixme": "position estimated", "name": "La Rosa dei 4 Venti", "operator": "La Rosa dei 4 Venti Srl.", "phone": "+39 06 5758983", "ref:vatin": "IT09112471009"}}, {"type": "node", "id": 4455036165, "lat": 41.896442, "lon": 12.496511, "tags": {"amenity": "bar"}}, {"type": "node", "id": 4471160642, "lat": 41.9369196, "lon": 12.4667458, "tags": {"amenity": "bar", "name": "L' Altro Chiosco", "opening_hours": "Mo-Su 07:00-02:00", "phone": "+39 06 333 8210"}}, {"type": "node", "id": 4494644997, "lat": 41.9096844, "lon": 12.5208075, "tags": {"amenity": "bar", "name": "Feffo's bar", "opening_hours": "Mo-Su 04:30-02:00", "wheelchair": "no"}}, {"type": "node", "id": 4494644998, "lat": 41.9091179, "lon": 12.5214795, "tags": {"amenity": "bar", "name": "Stendal Bar"}}, {"type": "node", "id": 4494805066, "lat": 41.8978887, "lon": 12.5361032, "tags": {"addr:city": "Roma", "addr:housenumber": "1", "addr:postcode": "00159", "addr:street": "Via Antonio Baldissera", "amenity": "bar", "name": "Pago's", "phone": "064385009"}}, {"type": "node", "id": 4496885906, "lat": 41.8634516, "lon": 12.4504231}, {"type": "node", "id": 4496885907, "lat": 41.8634256, "lon": 12.4503796}, {"type": "node", "id": 4496885908, "lat": 41.8634851, "lon": 12.4503154}, {"type": "node", "id": 4496885909, "lat": 41.8635111, "lon": 12.4503589}, {"type": "node", "id": 4500174392, "lat": 41.8979593, "lon": 12.5358688, "tags": {"addr:city": "Roma", "addr:housenumber": "13", "addr:postcode": "00159", "addr:street": "Piazza di Santa Maria Consolatrice", "amenity": "bar", "name": "Chiosco Bar"}}, {"type": "node", "id": 4505937391, "lat": 41.9099266, "lon": 12.4480234, "tags": {"amenity": "bar"}}, {"type": "node", "id": 4508113192, "lat": 41.9101025, "lon": 12.4494713, "tags": {"amenity": "bar"}}, {"type": "node", "id": 4556016298, "lat": 41.8895287, "lon": 12.4954434, "tags": {"amenity": "bar", "name": "Divin Ostilia", "name:it": "Divin Ostilia", "opening_hours": "Mo-Su 12:00-01:00"}}, {"type": "node", "id": 4558788242, "lat": 42.0831007, "lon": 12.2742055, "tags": {"addr:city": "Anguillara Sabazia", "addr:housenumber": "798", "addr:postcode": "00061", "addr:street": "Via di San Francesco", "amenity": "bar", "name": "Toro Loco", "phone": "+39 06 9990 0989"}}, {"type": "node", "id": 4566872268, "lat": 41.831068, "lon": 12.4644001, "tags": {"addr:housenumber": "117", "addr:postcode": "00144", "addr:street": "Viale America", "amenity": "bar", "name": "Tiki Bar", "phone": "+39 06 5422 0086", "website": "tikibar.it"}}, {"type": "node", "id": 4575062090, "lat": 41.8983989, "lon": 12.5362778, "tags": {"addr:city": "Roma", "addr:housenumber": "82", "addr:postcode": "00159", "addr:street": "Via di Casal Bertone", "amenity": "bar", "name": "Dama Caf\u00e9", "phone": "0664260391"}}, {"type": "node", "id": 4599713089, "lat": 41.7969881, "lon": 12.255269, "tags": {"amenity": "bar", "level": "1", "name": "Moka", "name:it": "Moka", "wheelchair": "yes"}}, {"type": "node", "id": 4599737890, "lat": 41.7975912, "lon": 12.2559146, "tags": {"amenity": "bar", "level": "1", "name": "Spazio Bollicine", "name:it": "Spazio Bollicine", "wheelchair": "yes"}}, {"type": "node", "id": 4599751191, "lat": 41.7964763, "lon": 12.2538233, "tags": {"amenity": "bar", "name": "Briciole", "name:it": "Briciole", "wheelchair": "yes"}}, {"type": "node", "id": 4599763011, "lat": 41.796755, "lon": 12.2528006, "tags": {"amenity": "bar", "name": "Rosso Intenso", "name:it": "Rosso Intenso", "wheelchair": "yes"}}, {"type": "node", "id": 4599905792, "lat": 41.7955127, "lon": 12.2500928, "tags": {"amenity": "bar", "name": "Assaggio", "name:it": "Assaggio"}}, {"type": "node", "id": 4599974790, "lat": 41.79541, "lon": 12.2506671, "tags": {"amenity": "bar", "name": "BeerCode", "name:it": "BeerCode"}}, {"type": "node", "id": 4599974792, "lat": 41.7955043, "lon": 12.2496507, "tags": {"amenity": "bar", "name": "MichaelAngelo", "name:it": "MichaelAngelo"}}, {"type": "node", "id": 4599974793, "lat": 41.7954556, "lon": 12.2495728, "tags": {"amenity": "bar", "name": "Caffe Kimbo", "name:it": "Caffe Kimbo"}}, {"type": "node", "id": 4599974891, "lat": 41.7956322, "lon": 12.2498631, "tags": {"amenity": "bar", "name": "Rosso Intenso", "name:it": "Rosso Intenso"}}, {"type": "node", "id": 4599974892, "lat": 41.7949212, "lon": 12.249802, "tags": {"amenity": "bar", "name": "Chef Market", "name:it": "Chef Market"}}, {"type": "node", "id": 4599974893, "lat": 41.7953567, "lon": 12.2494015, "tags": {"amenity": "bar", "name": "Bistrot Fiumicino", "name:it": "Bistrot Fiumicino"}}, {"type": "node", "id": 4599974989, "lat": 41.7955537, "lon": 12.2497282, "tags": {"amenity": "bar", "name": "Attimi", "name:it": "Attimi"}}, {"type": "node", "id": 4605603902, "lat": 41.902737, "lon": 12.4734838, "tags": {"amenity": "bar", "name": "L'uliveto", "name:en": "L'uliveto", "name:it": "L'uliveto"}}, {"type": "node", "id": 4610449091, "lat": 41.9072615, "lon": 12.4671882, "tags": {"addr:housenumber": "37", "addr:street": "Via Tacito", "amenity": "bar", "name": "Caff\u00e8 Tacito"}}, {"type": "node", "id": 4610450889, "lat": 41.906381, "lon": 12.4679945, "tags": {"amenity": "bar", "name": "Caff\u00e8 Prati", "name:it": "Caff\u00e8 Prati"}}, {"type": "node", "id": 4657545593, "lat": 41.8892764, "lon": 12.5245491, "tags": {"addr:city": "Roma", "addr:housenumber": "20", "addr:postcode": "00176", "addr:street": "Via del Pigneto", "amenity": "bar", "cuisine": "italian", "name": "Cargo", "name:it": "Cargo"}}, {"type": "node", "id": 4665580289, "lat": 41.8946808, "lon": 12.4722055, "tags": {"addr:housenumber": "12", "addr:street": "Via dei Balestrari", "amenity": "bar", "cuisine": "heuriger;italian", "name": "L' Angolo Divino"}}, {"type": "node", "id": 4698971691, "lat": 41.9181358, "lon": 12.4692752, "tags": {"addr:city": "Roma", "addr:housenumber": "1B", "addr:postcode": "00195", "addr:street": "Piazza Monte Grappa", "amenity": "bar", "name": "Haus garten Bagel Bar", "opening_hours": "Tu-Su 11:00-02:00", "outdoor_seating": "yes"}}, {"type": "node", "id": 4699640688, "lat": 41.8876675, "lon": 12.5380184, "tags": {"amenity": "bar", "name": "Woods"}}, {"type": "node", "id": 4701566485, "lat": 41.855561, "lon": 12.4764718, "tags": {"addr:housenumber": "2", "addr:street": "Via Corinto", "amenity": "bar", "name": "Explusiv Bar"}}, {"type": "node", "id": 4719306350, "lat": 41.9233256, "lon": 12.4584871, "tags": {"amenity": "bar", "name": "chiosco/bar 15"}}, {"type": "node", "id": 4735617823, "lat": 41.8620254, "lon": 12.4659307, "tags": {"amenity": "bar", "name": "Little Coffee", "name:it": "Little Coffee"}}, {"type": "node", "id": 4736290619, "lat": 41.7861589, "lon": 12.6940811}, {"type": "node", "id": 4736290620, "lat": 41.786215, "lon": 12.6941421}, {"type": "node", "id": 4736290628, "lat": 41.7861068, "lon": 12.6941669}, {"type": "node", "id": 4736290629, "lat": 41.7861652, "lon": 12.6942282}, {"type": "node", "id": 4741446726, "lat": 41.8157327, "lon": 12.4125187, "tags": {"addr:city": "Roma", "addr:housenumber": "5", "addr:street": "Viale Salvatore Rebecchini", "amenity": "bar", "live_music": "yes", "name": "Galan 7", "phone": "+39 334 8080069"}}, {"type": "node", "id": 4741720735, "lat": 41.8460783, "lon": 12.4828341, "tags": {"addr:housenumber": "2", "addr:street": "Via Vedana", "amenity": "bar", "name": "Le Tre Isole", "shop": "tobacco"}}, {"type": "node", "id": 4795569206, "lat": 41.7880021, "lon": 12.6714557, "tags": {"amenity": "bar", "name": "Bar dei pini"}}, {"type": "node", "id": 4798279234, "lat": 41.9195621, "lon": 12.4699294, "tags": {"amenity": "bar", "name": "The Magic Bar", "name:en": "The Magic Bar"}}, {"type": "node", "id": 4818151783, "lat": 41.7840798, "lon": 12.6760067, "tags": {"amenity": "bar", "name": "Di Gusto"}}, {"type": "node", "id": 4823028700, "lat": 41.8548731, "lon": 12.4903327, "tags": {"amenity": "bar", "name": "Bar Mal\u00f9", "ref:tobacco": "954", "shop": "tobacco"}}, {"type": "node", "id": 4823053310, "lat": 41.8555339, "lon": 12.4894477, "tags": {"amenity": "bar", "name": "Snackbar"}}, {"type": "node", "id": 4843419123, "lat": 41.8918998, "lon": 12.5087383, "tags": {"amenity": "bar", "name:en": "Leon@rd"}}, {"type": "node", "id": 4847967789, "lat": 41.8897275, "lon": 12.4953425, "tags": {"amenity": "bar"}}, {"type": "node", "id": 4847978579, "lat": 41.8929914, "lon": 12.4717318, "tags": {"amenity": "bar"}}, {"type": "node", "id": 4862102426, "lat": 41.915132, "lon": 12.5473361, "tags": {"addr:city": "Roma", "addr:housenumber": "200", "addr:postcode": "00157", "addr:street": "Via Filippo Meda", "amenity": "bar", "level": "0", "name": "Emma Bar"}}, {"type": "node", "id": 4873933098, "lat": 41.9151222, "lon": 12.5485781, "tags": {"addr:housenumber": "604", "addr:street": "Via dei Monti Tiburtini", "amenity": "bar", "name": "Happy Hours", "shop": "coffee"}}, {"type": "node", "id": 4886058322, "lat": 41.8957583, "lon": 12.4902776, "tags": {"addr:street": "Via dei Serpenti", "amenity": "bar", "cuisine": "sandwich;coffee_shop", "internet_access": "wlan", "name": "Antico Caffe del Brasile - Torrefazione", "name:de": "Antico Caffe del Brasile - Torrefazione"}}, {"type": "node", "id": 4923989582, "lat": 41.8812592, "lon": 12.5021202, "tags": {"amenity": "bar", "fixme": "position"}}, {"type": "node", "id": 4952618121, "lat": 41.9265604, "lon": 12.4805892, "tags": {"addr:housenumber": "2", "addr:postcode": "00197", "addr:street": "Piazza Euclide", "amenity": "bar", "cuisine": "italian;coffee_shop", "name": "Carrot's Caf\u00e8", "name:en": "Carrot's Caf\u00e8", "name:it": "Carrot's Caf\u00e8", "opening_hours": "Mo-Sa 09:00-00:00"}}, {"type": "node", "id": 5020805322, "lat": 41.90615, "lon": 12.4582379}, {"type": "node", "id": 5083514321, "lat": 41.8983367, "lon": 12.4703133, "tags": {"addr:street": "Vicolo del Governo Vecchio", "amenity": "bar", "name": "Fluid", "name:it": "Fluid"}}, {"type": "node", "id": 5111204621, "lat": 41.9098858, "lon": 12.5245609, "tags": {"addr:housenumber": "4", "addr:street": "Piazza Pontida", "amenity": "bar", "name": "Pub 800"}}, {"type": "node", "id": 5112630623, "lat": 41.7959158, "lon": 12.2520311, "tags": {"amenity": "bar", "name": "Sant\u00e9"}}, {"type": "node", "id": 5136329422, "lat": 41.9009833, "lon": 12.4761503, "tags": {"addr:housenumber": "59", "addr:street": "Vicolo delle Coppelle", "amenity": "bar", "name:en": "Club derri\u00e8re"}}, {"type": "node", "id": 5137053421, "lat": 41.8978467, "lon": 12.4679187, "tags": {"addr:housenumber": "30", "addr:street": "Vicolo Cellini", "amenity": "bar", "name": "Jerry Thomas Speakeasy"}}, {"type": "node", "id": 5140753576, "lat": 41.9341724, "lon": 12.5089441}, {"type": "node", "id": 5140753577, "lat": 41.9341138, "lon": 12.508899}, {"type": "node", "id": 5140753578, "lat": 41.9341614, "lon": 12.5088854}, {"type": "node", "id": 5140753579, "lat": 41.9341268, "lon": 12.508962}, {"type": "node", "id": 5158635206, "lat": 41.8092518, "lon": 12.6806126, "tags": {"addr:city": "Frascati", "addr:street": "Via dell'Olmo", "amenity": "bar", "cuisine": "wine;bar", "name": "IL Giusto Gusto"}}, {"type": "node", "id": 5164550788, "lat": 41.8917547, "lon": 12.5603632, "tags": {"addr:housenumber": "364", "addr:street": "Via Tor de' Schiavi", "amenity": "bar"}}, {"type": "node", "id": 5167277432, "lat": 41.8609894, "lon": 12.4865842}, {"type": "node", "id": 5167277433, "lat": 41.8609979, "lon": 12.4865906}, {"type": "node", "id": 5216468121, "lat": 41.9117534, "lon": 12.4534153, "tags": {"amenity": "bar", "name": "Enofficina", "outdoor_seating": "yes"}}, {"type": "node", "id": 5246083917, "lat": 41.8763222, "lon": 12.4759358}, {"type": "node", "id": 5247115783, "lat": 41.8752762, "lon": 12.4747344, "tags": {"amenity": "bar", "name": "Euphoria"}}, {"type": "node", "id": 5250214844, "lat": 41.9010678, "lon": 12.4776652, "tags": {"addr:city": "Roma", "addr:housenumber": "31", "addr:postcode": "00186", "addr:street": "Via degli Uffici del Vicario", "amenity": "bar", "brand": "illy", "name": "espressamente", "operator": "Illy Caff\u00e8 S.p.A.", "phone": "+39 06 6991727", "ref:vatin": "IT00055180327"}}, {"type": "node", "id": 5252861581, "lat": 41.7698622, "lon": 12.6632515}, {"type": "node", "id": 5252861582, "lat": 41.7698981, "lon": 12.6632114}, {"type": "node", "id": 5252861583, "lat": 41.7699317, "lon": 12.6632654}, {"type": "node", "id": 5275149621, "lat": 41.8978572, "lon": 12.4747633, "tags": {"addr:city": "Roma", "addr:housenumber": "11/12", "addr:postcode": "00186", "addr:street": "Via dei Sediari", "amenity": "bar", "email": "mr100tiramisu@gmail.com", "name": "Mr. 100 Tiramisu", "note": "Although one can eat here (tiramisu, cheese, prosciutto), they advertise themselves as wine bar. You can try 100 different types of tiramisu, freshly prepared on the spot.", "opening_hours": "Mo-Su 11:00-23:00", "payment:cards": "yes", "payment:cash": "yes", "payment:contactless": "yes", "phone": "+39 06 8797 9667"}}, {"type": "node", "id": 5275321326, "lat": 41.9507827, "lon": 12.4609914}, {"type": "node", "id": 5275321327, "lat": 41.9507425, "lon": 12.4612922}, {"type": "node", "id": 5275321328, "lat": 41.9506112, "lon": 12.4612605}, {"type": "node", "id": 5275321329, "lat": 41.9506515, "lon": 12.4609597}, {"type": "node", "id": 5287431738, "lat": 41.8919834, "lon": 12.4693815, "tags": {"amenity": "bar", "name": "Beerland Trilussa"}}, {"type": "node", "id": 5288226126, "lat": 41.9063839, "lon": 12.4797506, "tags": {"addr:housenumber": "46", "addr:street": "Via Bocca di Leone", "amenity": "bar", "name": "Hosteria del Mercato", "opening_hours": "Mo-Su 09:00-23:00"}}, {"type": "node", "id": 5323769229, "lat": 41.9075405, "lon": 12.6140023, "tags": {"addr:street": "Via Achille Vertunni", "amenity": "bar"}}, {"type": "node", "id": 5323866332, "lat": 41.9066699, "lon": 12.4700875, "tags": {"addr:city": "Roma", "addr:housenumber": "14/22", "addr:postcode": "00193", "addr:street": "Via Lucrezio Caro", "amenity": "bar", "name:en": "Il Catanese", "name:it": "Il Catanese", "phone": "+39 063208555"}}, {"type": "node", "id": 5327223921, "lat": 41.8870276, "lon": 12.4677639, "tags": {"addr:housenumber": "25", "addr:street": "Via Goffredo Mameli", "amenity": "bar", "name": "Big Star", "name:en": "Big Star"}}, {"type": "node", "id": 5349402622, "lat": 41.8963943, "lon": 12.4703604, "tags": {"addr:housenumber": "93", "addr:postcode": "00186", "addr:street": "Via dei Cappellari", "amenity": "bar", "name": "Argot", "phone": "+39 06 45551966"}}, {"type": "node", "id": 5351330521, "lat": 41.8783274, "lon": 12.5163045, "tags": {"amenity": "bar", "name": "buono Cocktail Bar"}}, {"type": "node", "id": 5355096921, "lat": 41.8995952, "lon": 12.4768012, "tags": {"addr:housenumber": "16", "addr:street": "Piazza della Rotonda", "amenity": "bar", "name": "Tempio Bar"}}, {"type": "node", "id": 5434149113, "lat": 41.9067625, "lon": 12.5170043, "tags": {"amenity": "bar"}}, {"type": "node", "id": 5435192117, "lat": 41.9090666, "lon": 12.5230217, "tags": {"amenity": "bar"}}, {"type": "node", "id": 5435192271, "lat": 41.8892881, "lon": 12.4762402, "tags": {"addr:housenumber": "51", "addr:postcode": "00153", "addr:street": "Piazza in Piscinula", "amenity": "bar", "cuisine": "breakfast;coffee_shop;mediterranean;tea", "internet_access": "wlan", "name": "Alembic", "name:ru": "\u0410\u043b\u0435\u043c\u0431\u0438\u043a", "opening_hours": "Fr-Su 10:30-02:00; Mo-Th 10:30-01:30", "phone": "+39065800681"}}, {"type": "node", "id": 5459176853, "lat": 41.870322, "lon": 12.4552962}, {"type": "node", "id": 5459176854, "lat": 41.8703437, "lon": 12.4551199}, {"type": "node", "id": 5459176855, "lat": 41.8702914, "lon": 12.4551381}, {"type": "node", "id": 5459176865, "lat": 41.8703347, "lon": 12.4552917}, {"type": "node", "id": 5459176868, "lat": 41.8703743, "lon": 12.455278}, {"type": "node", "id": 5466227768, "lat": 41.9429075, "lon": 12.4212778, "tags": {"addr:city": "Roma", "addr:housenumber": "37", "addr:postcode": "00135", "addr:street": "Piazza Pietro Thouar", "amenity": "bar", "name": "Bar Thouar"}}, {"type": "node", "id": 5475143659, "lat": 41.8716191, "lon": 12.4840015, "tags": {"amenity": "bar", "name": "Air Bar", "shop": "tobacco"}}, {"type": "node", "id": 5490554705, "lat": 41.8396657, "lon": 12.4224324}, {"type": "node", "id": 5490554706, "lat": 41.8397046, "lon": 12.4225481}, {"type": "node", "id": 5490554707, "lat": 41.8395981, "lon": 12.4226125}, {"type": "node", "id": 5490554708, "lat": 41.8395593, "lon": 12.4224968}, {"type": "node", "id": 5509334221, "lat": 41.8963446, "lon": 12.4764134, "tags": {"addr:housenumber": "20", "addr:street": "Via di Torre Argentina", "amenity": "bar", "description": "Bar \u2013 Breakfast \u2013 Frullati", "email": "barpascucci@tiscalinet.it", "name": "Pascucci", "opening_hours": "Mo-Sa 06:00-23:55", "phone": "+39 06 6864816", "website": "http://www.pascuccifrullati.it"}}, {"type": "node", "id": 5529125637, "lat": 41.9183352, "lon": 12.5673746, "tags": {"addr:housenumber": "1665", "addr:street": "Viale Palmiro Togliatti", "amenity": "bar", "name": "L'Acchiappasogni Cocktail Bar Restaurant", "opening_hours": "Mo-Su 18:30-04:30", "phone": "+39 06 407 4696"}}, {"type": "node", "id": 5555074109, "lat": 41.8492262, "lon": 12.4464009, "tags": {"addr:housenumber": "139", "addr:street": "Via dell'Imbrecciato", "amenity": "bar", "name": "Bistrot 139", "opening_hours": "Mo-Fr 06:00-00:00; Sa 07:00-01:00", "phone": "+39 06 5527 1002"}}, {"type": "node", "id": 5586080400, "lat": 41.9817627, "lon": 12.5636677}, {"type": "node", "id": 5586080401, "lat": 41.9818384, "lon": 12.5637814}, {"type": "node", "id": 5586080402, "lat": 41.9818036, "lon": 12.5638233}, {"type": "node", "id": 5586080403, "lat": 41.9817279, "lon": 12.5637097}, {"type": "node", "id": 5589301533, "lat": 41.8628587, "lon": 12.4993948, "tags": {"amenity": "bar", "level": "0"}}, {"type": "node", "id": 5598775186, "lat": 41.8904288, "lon": 12.4687357, "tags": {"addr:city": "Roma", "addr:housenumber": "77", "addr:postcode": "00153", "addr:street": "Via della Scala", "amenity": "bar", "email": "almalutrastevere@gmail.com", "name": "Almalu Trastavere", "opening_hours": "Mo-Th 18:00-2:00, Fr-Su 16:00-2:00", "outdoor_seating": "no", "phone": "+39 328 923 4381", "website": "https://www.facebook.com/almalu.trastevere.roma"}}, {"type": "node", "id": 5631961528, "lat": 41.941883, "lon": 12.4349642}, {"type": "node", "id": 5631961529, "lat": 41.9417607, "lon": 12.4350036}, {"type": "node", "id": 5631961530, "lat": 41.9417307, "lon": 12.4348594}, {"type": "node", "id": 5631961531, "lat": 41.9418558, "lon": 12.4348171}, {"type": "node", "id": 5631961532, "lat": 41.9417751, "lon": 12.4348038}, {"type": "node", "id": 5631961533, "lat": 41.9417601, "lon": 12.4347053}, {"type": "node", "id": 5631961534, "lat": 41.9416796, "lon": 12.4347274}, {"type": "node", "id": 5631961535, "lat": 41.9416946, "lon": 12.4348259}, {"type": "node", "id": 5698507621, "lat": 41.7957364, "lon": 12.2479995, "tags": {"amenity": "bar", "name": "Alitalia Lounge"}}, {"type": "node", "id": 5717077022, "lat": 41.872596, "lon": 12.4804953, "tags": {"amenity": "bar", "name": "Redrum"}}, {"type": "node", "id": 5773734153, "lat": 41.8931029, "lon": 12.4771527, "tags": {"amenity": "bar", "name": "Bar Tot\u00f3"}}, {"type": "node", "id": 5792989981, "lat": 41.9076593, "lon": 12.4884119, "tags": {"amenity": "bar", "name": "American Bar"}}, {"type": "node", "id": 5812484080, "lat": 41.7698958, "lon": 12.6633056}, {"type": "node", "id": 5834559085, "lat": 41.9126361, "lon": 12.4761626, "tags": {"amenity": "bar", "name": "Cokatails Bar"}}, {"type": "node", "id": 5942923453, "lat": 41.8736556, "lon": 12.4811684, "tags": {"addr:city": "Roma", "addr:housenumber": "5", "addr:postcode": "00154", "addr:street": "Via Francesco Carletti", "amenity": "bar", "email": "info@elegancecafe.it", "level": "-1", "name": "Elegance Caf\u00e9", "outdoor_seating": "no", "phone": "+390657284458", "smoking": "outside", "website": "https://www.elegancecafe.it"}}, {"type": "node", "id": 5949604086, "lat": 41.8797623, "lon": 12.477474, "tags": {"amenity": "bar", "brewery": "yes", "name": "Oasi della Birra", "outdoor_seating": "yes"}}, {"type": "node", "id": 5973923510, "lat": 41.8828234, "lon": 12.5142249, "tags": {"addr:city": "Roma", "addr:housenumber": "15", "addr:postcode": "00182", "addr:street": "Via Aosta", "amenity": "bar", "name": "Bar Aosta Nouveau Bistrot", "opening_hours": "Mo-Sa 07:00-20:00", "outdoor_seating": "no"}}, {"type": "node", "id": 5983393149, "lat": 41.9343942, "lon": 12.5354008, "tags": {"addr:housenumber": "468", "addr:street": "Via Nomentana", "amenity": "bar", "name": "Mezzo Litro", "opening_hours": "Mo-Su 06:00-02:00", "phone": "+39 06 827 7691"}}, {"type": "node", "id": 6073449034, "lat": 41.9091945, "lon": 12.520531, "tags": {"addr:housenumber": "10", "addr:street": "Viale Ippocrate", "amenity": "bar"}}, {"type": "node", "id": 6103854485, "lat": 41.9213569, "lon": 12.5059275, "tags": {"addr:housenumber": "77", "addr:street": "Via Chiana", "amenity": "bar", "name": "Brylla"}}, {"type": "node", "id": 6103898285, "lat": 41.9215948, "lon": 12.5054, "tags": {"amenity": "bar", "name": "Bar Enjoy", "opening_hours": "Mo-Su 06:30-21:00"}}, {"type": "node", "id": 6124041239, "lat": 41.9025712, "lon": 12.4640276, "tags": {"addr:housenumber": "2", "addr:inclusion": "estimate", "addr:street": "Via della Conciliazione", "amenity": "bar", "name": "Varsity Bisroot Bar", "survey:date": "2018-10-26", "wheelchair": "yes"}}, {"type": "node", "id": 6166428391, "lat": 41.8363545, "lon": 12.4301438, "tags": {"addr:city": "Roma", "addr:housenumber": "39", "addr:postcode": "00148", "addr:street": "Via Fulda", "amenity": "bar", "name": "39 Bar", "opening_hours": "Mo-Sa 06:00-21:00", "wheelchair": "no"}}, {"type": "node", "id": 6174421085, "lat": 41.8824252, "lon": 12.4761713, "tags": {"addr:housenumber": "1-2", "addr:postcode": "00153", "addr:street": "Piazza dell'Emporio", "amenity": "bar", "name": "Rec23 Restaurant Emporio Club"}}, {"type": "node", "id": 6182286987, "lat": 41.9068157, "lon": 12.4808116, "tags": {"amenity": "bar", "name": "Il baretto", "name:es": "Il baretto"}}, {"type": "node", "id": 6185696790, "lat": 41.9216228, "lon": 12.5059702, "tags": {"addr:housenumber": "77", "addr:postcode": "00199", "addr:street": "Via Chiana", "amenity": "bar", "cuisine": "italian", "name": "Brylla", "opening_hours": "Tu-Su 12:00-15:00,18:30-00:00", "phone": "+39685355669", "website": "http://brylla.it"}}, {"type": "node", "id": 6185755385, "lat": 41.9225657, "lon": 12.5127878, "tags": {"addr:housenumber": "47B", "addr:postcode": "00198", "addr:street": "Via San Marino", "amenity": "bar", "name": "Crash Vibes & Wines", "opening_hours": "Tu-Su 18:00-01:00", "phone": "+3932009554655", "website": "http://crashroma.it"}}, {"type": "node", "id": 6188609988, "lat": 41.9224344, "lon": 12.5111215, "tags": {"addr:housenumber": "133", "addr:postcode": "00198", "addr:street": "Corso Trieste", "amenity": "bar", "name": "Ivy Food", "name:it": "Ivy Food Music & Drink", "opening_hours": "Mo-Sa 11:00-02:00; Su 18:00-01:00", "phone": "+393474928727"}}, {"type": "node", "id": 6241215427, "lat": 41.8543999, "lon": 12.4756502, "tags": {"addr:housenumber": "8", "addr:street": "Via Efeso", "amenity": "bar"}}, {"type": "node", "id": 6241263514, "lat": 41.8555827, "lon": 12.4746805, "tags": {"amenity": "bar", "name": "Bar Filippi"}}, {"type": "node", "id": 6262187782, "lat": 41.9037962, "lon": 12.4454391, "tags": {"addr:housenumber": "119", "addr:postcode": "00136", "addr:street": "Via Angelo Emo", "amenity": "bar", "name": "Bar Roma", "operator": "Vanio Bernardini", "phone": "+39 06 39725502", "ref:vatin": "IT05831881007"}}, {"type": "node", "id": 6263388523, "lat": 41.8678654, "lon": 12.5897773, "tags": {"amenity": "bar", "internet_access:fee": "no", "level": "0", "name": "medcaf\u00e8", "opening_hours": "Mo-Sa 08:00-20:00; Su closed", "operator": "Mediterranea Catering s.r.l.", "outdoor_seating": "yes", "smoking": "no", "wheelchair": "designated"}}, {"type": "node", "id": 6268291728, "lat": 41.8855734, "lon": 12.5117699, "tags": {"amenity": "bar", "name": "Bar Brindisi"}}, {"type": "node", "id": 6296292485, "lat": 41.8887547, "lon": 12.4955163, "tags": {"amenity": "bar", "name": "Shamrock Irish bar & restaurant"}}, {"type": "node", "id": 6314038708, "lat": 41.9088775, "lon": 12.5259804, "tags": {"addr:housenumber": "21/23", "addr:street": "Piazza delle Crociate", "amenity": "bar", "name": "Vecchio Franklyn Karaoke", "opening_hours": "Mo-Su 19:30-03:30", "phone": "+39 06 4424 5590", "website": "https://www.vecchiofranklyn.it/"}}, {"type": "node", "id": 6329557185, "lat": 41.8910263, "lon": 12.4704865, "tags": {"amenity": "bar", "name": "8 Millimetro"}}, {"type": "node", "id": 6401099477, "lat": 41.8845017, "lon": 12.4178685, "tags": {"amenity": "bar", "name": "Miani", "outdoor_seating": "yes"}}, {"type": "node", "id": 6401099478, "lat": 41.8837748, "lon": 12.417046, "tags": {"amenity": "bar", "name": "Maurizio"}}, {"type": "node", "id": 6425514387, "lat": 41.9666273, "lon": 12.549436, "tags": {"addr:city": "La Cinquina", "addr:street": "Via della Bufalotta", "amenity": "bar", "name": "Il Break Del Paradiso"}}, {"type": "node", "id": 6462967866, "lat": 41.8810579, "lon": 12.5100846, "tags": {"addr:street": "Piazza Tarquinia", "amenity": "bar", "outdoor_seating": "yes"}}, {"type": "node", "id": 6514655562, "lat": 41.8852437, "lon": 12.4615068, "tags": {"amenity": "bar", "name": "Gli Archi"}}, {"type": "node", "id": 6527837486, "lat": 41.9055941, "lon": 12.468511, "tags": {"amenity": "bar", "name": "enoteca costantini"}}, {"type": "node", "id": 6573371207, "lat": 41.8934174, "lon": 12.4980998, "tags": {"addr:housenumber": "4", "addr:street": "Via delle Terme di Traiano", "addr:unit": "a", "amenity": "bar", "name": "Voodoo Bar", "opening_hours": "Mo-Th 18:00-02:00; Fr-Sa 18:00-03:00; Su 18:00-02:00", "phone": "+39 06 8379 6815", "website": "https://www.facebook.com/voodobar/"}}, {"type": "node", "id": 6573379647, "lat": 41.8934297, "lon": 12.498334, "tags": {"addr:housenumber": "4", "addr:street": "Via delle Terme di Traiano", "addr:unit": "a", "amenity": "bar", "name": "The Sanctuary - Eco Retreat", "opening_hours": "Tu-We 18:00-02:00; Th 18:00-03:00; Fr 18:00-04:00; Sa 11:00-04:00; Su 11:00-02:00", "phone": "+39 06 8379 6820", "website": "http://www.thesanctuaryroma.it/"}}, {"type": "node", "id": 6593093203, "lat": 41.9236326, "lon": 12.4260312, "tags": {"addr:city": "Roma", "addr:housenumber": "2,4", "addr:postcode": "00168", "addr:street": "Via Bernardo Barbiellini Amidei", "amenity": "bar", "brewery": "yes", "name": "Bar Centodolci", "opening_hours": "Mo-Su 05:30-21:00", "outdoor_seating": "yes", "phone": "+39 06 301 0384", "wheelchair": "yes"}}, {"type": "node", "id": 6612973677, "lat": 41.9238998, "lon": 12.4252821, "tags": {"addr:city": "Roma", "addr:housenumber": "1", "addr:postcode": "00167", "addr:street": "Via Vittorio Montiglio", "amenity": "bar", "name": "Caff\u00e8 Van Gogh", "opening_hours": "Mo-Su 06:00-23:00", "outdoor_seating": "yes", "phone": "+39 06 6065 9620", "website": "https://m.facebook.com/vangoghcaffe/?ref=page_internal&mt_nav=1"}}, {"type": "node", "id": 6659441777, "lat": 41.8774594, "lon": 12.5045382, "tags": {"amenity": "bar", "name": "Yeast Coast Bar", "note": "added from note 1801603"}}, {"type": "node", "id": 6695937286, "lat": 41.8955791, "lon": 12.4929538, "tags": {"addr:city": "Roma", "addr:housenumber": "3", "addr:postcode": "00184", "addr:street": "Piazza degli Zingari", "amenity": "bar", "brewery": "yes", "name": "Antigallery", "phone": "+39 06 45472023", "ref:vatin": "IT14286101002"}}, {"type": "node", "id": 6743812039, "lat": 41.9113239, "lon": 12.4215635, "tags": {"amenity": "bar"}}, {"type": "node", "id": 6781569004, "lat": 41.9085443, "lon": 12.4764704, "tags": {"addr:housenumber": "41", "addr:street": "Via del Vantaggio", "amenity": "bar", "name": "Art Beer", "phone": "+33645481016", "website": "http://artbeerroma.it/"}}, {"type": "node", "id": 6783673424, "lat": 41.8095298, "lon": 12.6791156, "tags": {"amenity": "bar", "brewery": "yes", "name": "Garage San Rocco", "outdoor_seating": "yes"}}, {"type": "node", "id": 6832686465, "lat": 41.803764, "lon": 12.6760915, "tags": {"amenity": "bar"}}, {"type": "node", "id": 6846859685, "lat": 41.8926443, "lon": 12.4752038, "tags": {"amenity": "bar", "name": "Tiepolo"}}, {"type": "node", "id": 6859268375, "lat": 41.9183194, "lon": 12.3729843}, {"type": "node", "id": 6859268376, "lat": 41.9182838, "lon": 12.3729893}, {"type": "node", "id": 6859268377, "lat": 41.9182884, "lon": 12.3730492}, {"type": "node", "id": 6859268378, "lat": 41.9183241, "lon": 12.3730442}, {"type": "node", "id": 6862149258, "lat": 41.9166639, "lon": 12.3734949}, {"type": "node", "id": 6862149259, "lat": 41.9166029, "lon": 12.3735056}, {"type": "node", "id": 6862149260, "lat": 41.9166088, "lon": 12.3735707}, {"type": "node", "id": 6862149261, "lat": 41.91667, "lon": 12.373563}, {"type": "node", "id": 6866011649, "lat": 41.9248122, "lon": 12.4688541, "tags": {"addr:housenumber": "46", "addr:street": "Viale del Vignola", "amenity": "bar", "name": "un caff\u00e8 con te"}}, {"type": "node", "id": 6976166287, "lat": 41.8956937, "lon": 12.4715413, "tags": {"amenity": "bar", "name": "Drunken ship", "opening_hours": "PH,Mo-Su 10:00-02:00"}}, {"type": "node", "id": 6993087585, "lat": 41.9058848, "lon": 12.4784992, "tags": {"amenity": "bar", "name": "Dami bistro"}}, {"type": "node", "id": 7021773188, "lat": 41.7370706, "lon": 12.2922877, "tags": {"amenity": "bar", "name": "Tea Room"}}, {"type": "node", "id": 7022428800, "lat": 41.8908471, "lon": 12.4711989, "tags": {"addr:housenumber": "13/14", "addr:street": "Via del Politeama", "amenity": "bar", "name": "Beige Roma", "opening_hours": "Mo-Su 19:00-02:00", "phone": "+39 347 389 1974", "website": "http://www.beige-roma.com/"}}, {"type": "node", "id": 7022635186, "lat": 41.7352714, "lon": 12.2845624, "tags": {"amenity": "bar", "name": "Bar Pegaso"}}, {"type": "node", "id": 7022635285, "lat": 41.7341408, "lon": 12.2850529, "tags": {"amenity": "bar", "name": "Dolcemente"}}, {"type": "node", "id": 7023344385, "lat": 41.7304923, "lon": 12.2781497, "tags": {"amenity": "bar", "name": "Dea c@fe"}}, {"type": "node", "id": 7023461330, "lat": 41.7228261, "lon": 12.2936783}, {"type": "node", "id": 7023461331, "lat": 41.7228306, "lon": 12.2936898}, {"type": "node", "id": 7023461332, "lat": 41.7228322, "lon": 12.2937025}, {"type": "node", "id": 7023461333, "lat": 41.7228306, "lon": 12.2937153}, {"type": "node", "id": 7023461334, "lat": 41.7228262, "lon": 12.2937268}, {"type": "node", "id": 7023461335, "lat": 41.7227765, "lon": 12.2937248}, {"type": "node", "id": 7023461336, "lat": 41.7227724, "lon": 12.2937122}, {"type": "node", "id": 7023461337, "lat": 41.7227717, "lon": 12.2936984}, {"type": "node", "id": 7023461338, "lat": 41.7227745, "lon": 12.2936851}, {"type": "node", "id": 7023461339, "lat": 41.7227805, "lon": 12.2936738}, {"type": "node", "id": 7023461340, "lat": 41.722789, "lon": 12.2936659}, {"type": "node", "id": 7023461341, "lat": 41.7259039, "lon": 12.2857725, "tags": {"amenity": "bar", "name": "Il curvone"}}, {"type": "node", "id": 7023461342, "lat": 41.726738, "lon": 12.2851056, "tags": {"amenity": "bar", "name": "Il marechiaro"}}, {"type": "node", "id": 7023555902, "lat": 41.7346006, "lon": 12.300503}, {"type": "node", "id": 7023555903, "lat": 41.7346794, "lon": 12.30056}, {"type": "node", "id": 7023555904, "lat": 41.7346035, "lon": 12.3007484}, {"type": "node", "id": 7023555905, "lat": 41.7345247, "lon": 12.3006914}, {"type": "node", "id": 7024087599, "lat": 41.7383892, "lon": 12.2935421, "tags": {"amenity": "bar", "name": "Coktayl Bar Se Po Fa"}}, {"type": "node", "id": 7073811268, "lat": 41.865679, "lon": 12.4979715, "tags": {"addr:city": "Roma", "addr:housenumber": "11/13", "addr:postcode": "00147", "addr:street": "Via Cornelio Magni", "air_conditioning": "yes", "amenity": "bar", "name": "Eden", "opening_hours": "Mo-Su 06:30-20:00", "outdoor_seating": "no", "payment:cash": "yes", "payment:credit_cards": "yes", "payment:debit_cards": "yes", "phone": "+39 06 5128801", "website": "http://www.edencaffe.it/"}}, {"type": "node", "id": 7111661665, "lat": 41.8820585, "lon": 12.5088015, "tags": {"amenity": "bar", "name": "Faleria 71"}}, {"type": "node", "id": 7136906468, "lat": 41.7373349, "lon": 12.2917856, "tags": {"addr:housenumber": "148", "addr:street": "Via Angelo Olivieri", "amenity": "bar", "name": "Bar lo spuntino ostia"}}, {"type": "node", "id": 7137029859, "lat": 41.8464339, "lon": 12.4913294, "tags": {"addr:housenumber": "20", "addr:street": "Piazza dell'Accademia Antiquaria", "amenity": "bar", "name": "Bar dell'Accademia"}}, {"type": "node", "id": 7141136999, "lat": 41.7250402, "lon": 12.6469942}, {"type": "node", "id": 7141137000, "lat": 41.7251423, "lon": 12.6471581}, {"type": "node", "id": 7141137001, "lat": 41.7250885, "lon": 12.6472182}, {"type": "node", "id": 7141137002, "lat": 41.7249865, "lon": 12.6470542}, {"type": "node", "id": 7162190068, "lat": 41.734144, "lon": 12.2871582, "tags": {"amenity": "bar", "name": "Bar del Parco"}}, {"type": "node", "id": 7183897062, "lat": 41.8855296, "lon": 12.4589051, "tags": {"addr:city": "Roma", "addr:housenumber": "9", "addr:postcode": "00152", "addr:street": "Piazza Francesco Cucchi", "amenity": "bar", "name": "Lo Zio Caff\u00e8", "opening_hours": "Mo-Sa 07:00-20:00", "outdoor_seating": "yes", "smoking": "no", "wheelchair": "yes"}}, {"type": "node", "id": 7240850881, "lat": 41.8815445, "lon": 12.5835399, "tags": {"entrance": "yes"}}, {"type": "node", "id": 7240850882, "lat": 41.8815135, "lon": 12.5830219}, {"type": "node", "id": 7240850883, "lat": 41.8815871, "lon": 12.583138}, {"type": "node", "id": 7240850884, "lat": 41.8816142, "lon": 12.5832436}, {"type": "node", "id": 7240861985, "lat": 41.8816103, "lon": 12.5833823}, {"type": "node", "id": 7240861986, "lat": 41.8815858, "lon": 12.5834689}, {"type": "node", "id": 7240861990, "lat": 41.8816134, "lon": 12.5832714, "tags": {"entrance": "yes"}}, {"type": "node", "id": 7240862001, "lat": 41.8815194, "lon": 12.58312}, {"type": "node", "id": 7245961913, "lat": 41.9160595, "lon": 12.5458206, "tags": {"amenity": "bar"}}, {"type": "node", "id": 7245962799, "lat": 41.9419924, "lon": 12.5252856, "tags": {"addr:city": "Roma", "addr:postcode": "00141", "addr:street": "Via Valle Vermiglio", "amenity": "bar", "brewery": "various", "name": "Bar siciliano"}}, {"type": "node", "id": 7350214351, "lat": 41.8747834, "lon": 12.506015, "tags": {"amenity": "bar", "name": "Sabores Latino", "opening_hours": "Mo-Fr 01:00-22:00"}}, {"type": "node", "id": 7462814547, "lat": 42.0404496, "lon": 12.3069968}, {"type": "node", "id": 7462814548, "lat": 42.040394, "lon": 12.3068878}, {"type": "node", "id": 7462814549, "lat": 42.0403152, "lon": 12.3069607}, {"type": "node", "id": 7474702236, "lat": 41.970517, "lon": 12.5495976, "tags": {"addr:housenumber": "11", "addr:street": "Via Tasmania", "amenity": "bar", "name": "Australian Bar"}}, {"type": "node", "id": 7474702239, "lat": 41.9581208, "lon": 12.5481, "tags": {"addr:city": "Roma", "addr:postcode": "00137", "addr:street": "Via Ida Baccini", "amenity": "bar", "name": "Caff\u00e8 In Piazza"}}, {"type": "node", "id": 7490522219, "lat": 41.9417031, "lon": 12.5271472, "tags": {"addr:city": "Roma", "addr:housenumber": "49", "addr:postcode": "00141", "addr:street": "Via Val di Lanzo", "amenity": "bar", "description": "Bar ricevitoria", "name": "Bar Di Gennaro"}}, {"type": "node", "id": 7506677123, "lat": 42.0403708, "lon": 12.3070697}, {"type": "node", "id": 7506677124, "lat": 42.0403581, "lon": 12.3069179}, {"type": "node", "id": 7536959880, "lat": 42.0375237, "lon": 12.311261, "tags": {"addr:city": "Osteria Nuova", "addr:housenumber": "4", "addr:postcode": "00123", "addr:street": "Via Sovramonte", "amenity": "bar", "name": "L'Angolo Bar"}}, {"type": "node", "id": 7537442007, "lat": 42.0396349, "lon": 12.308396, "tags": {"addr:city": "Osteria Nuova", "addr:housenumber": "254", "addr:postcode": "00123", "addr:street": "Via Anguillarese", "amenity": "bar", "level": "0", "name": "Bar Carboni", "opening_hours": "Tu-Su 07:00-21:00", "wheelchair": "no"}}, {"type": "node", "id": 7595978610, "lat": 41.8505972, "lon": 12.4222978, "tags": {"addr:city": "Roma", "addr:housenumber": "792", "addr:postcode": "00148", "addr:street": "Via Portuense", "amenity": "bar", "cuisine": "regional", "name": "Mario Tornatora", "opening_hours": "Mo-Su 06:00-20:30", "outdoor_seating": "yes", "payment:cash": "yes", "phone": "+390690215422", "shop": "pastry", "website": "http://www.bartornatora.it/", "wheelchair": "yes"}}, {"type": "node", "id": 7617753457, "lat": 41.730043, "lon": 12.2759273, "tags": {"amenity": "bar", "name": "white cafe"}}, {"type": "node", "id": 7617763652, "lat": 41.7365149, "lon": 12.2684017, "tags": {"amenity": "bar"}}, {"type": "node", "id": 7617763676, "lat": 41.7326419, "lon": 12.2812493, "tags": {"amenity": "bar", "name": "BAR Polo Nord", "opening_hours": "Mo-Sa 05:00-22:00"}}, {"type": "node", "id": 7757262190, "lat": 41.8556404, "lon": 12.4975412, "tags": {"amenity": "bar", "name": "Dolci Pensieri", "shop": "pastry"}}, {"type": "node", "id": 7757543402, "lat": 41.8573673, "lon": 12.4970401, "tags": {"amenity": "bar", "shop": "tobacco"}}, {"type": "node", "id": 7775360886, "lat": 41.9088797, "lon": 12.4600473, "tags": {"addr:housenumber": "118", "addr:postcode": "00192", "addr:street": "Via degli Scipioni", "amenity": "bar", "name": "Enoteca del Frate", "phone": "+39 06 323 6437", "website": "https://ristorante.enotecadelfrate.it/"}}, {"type": "node", "id": 7822067588, "lat": 41.8799368, "lon": 12.4768852, "tags": {"addr:housenumber": "30", "addr:postcode": "00153", "addr:street": "Piazza Testaccio", "amenity": "bar", "name": "Bar Fratelli Capone", "operator": "DI.GA. Srls.", "phone": "+39 06 5755249", "ref:vatin": "IT15376431001"}}, {"type": "node", "id": 7858427886, "lat": 41.8894052, "lon": 12.4757195, "tags": {"addr:housenumber": "164", "addr:postcode": "00153", "addr:street": "Via della Lungaretta", "amenity": "bar", "indoor_seating": "yes", "name": "Milea", "opening_hours": "Fr-Sa 17:00-02:00; Mo-Th 17:00-24:00", "outdoor_seating": "no", "phone": "+390694376374"}}, {"type": "node", "id": 7865242785, "lat": 41.8868918, "lon": 12.4696915, "tags": {"addr:housenumber": "70", "addr:postcode": "00153", "addr:street": "Piazza di San Cosimato", "amenity": "bar", "name": "Enoteca La vite", "opening_hours": "Tu-Sa 18:00-02:00; Mo 18:00-00:30", "phone": "+393669391531"}}, {"type": "node", "id": 7924102507, "lat": 41.8576981, "lon": 12.4906351, "tags": {"amenity": "bar", "building": "kiosk"}}, {"type": "node", "id": 7935401927, "lat": 42.0000484, "lon": 12.6289008, "tags": {"amenity": "bar"}}, {"type": "node", "id": 7947750520, "lat": 41.8556432, "lon": 12.446067, "tags": {"amenity": "bar", "shop": "pastry"}}, {"type": "node", "id": 7958866580, "lat": 41.916127, "lon": 12.4814157, "tags": {"amenity": "bar", "name": "Satyrus Temporary Bar", "opening_hours": "Mo-Su 08:00-02:00", "phone": "+39 3420656530", "website": "https://satyrus.it/"}}, {"type": "node", "id": 8003429296, "lat": 41.8564592, "lon": 12.4791855, "tags": {"addr:housenumber": "30", "addr:postcode": "00145", "addr:street": "Viale Giustiniano Imperatore", "amenity": "bar", "name": "Meli Caff\u00e8", "operator": "Meli Caffe\u2019 Srl.", "ref:vatin": "IT15291641007"}}, {"type": "node", "id": 8084582733, "lat": 41.8892026, "lon": 12.5306295, "tags": {"amenity": "bar", "name": "Spirito"}}, {"type": "node", "id": 8084582734, "lat": 41.8892033, "lon": 12.5309774, "tags": {"amenity": "bar", "name": "Coso"}}, {"type": "node", "id": 8124837494, "lat": 41.942074, "lon": 12.4222257, "tags": {"amenity": "bar"}}, {"type": "node", "id": 8124865084, "lat": 41.941394, "lon": 12.4219116, "tags": {"amenity": "bar"}}, {"type": "node", "id": 8124865095, "lat": 41.9417567, "lon": 12.4212471, "tags": {"amenity": "bar", "name": "l'amico"}}, {"type": "node", "id": 8167281448, "lat": 41.7512534, "lon": 12.3546705, "tags": {"amenity": "bar", "ice_cream": "yes", "name": "I Caruso"}}, {"type": "node", "id": 8167281453, "lat": 41.7520528, "lon": 12.3548837, "tags": {"amenity": "bar", "ice_cream": "yes", "name": "Thomas"}}, {"type": "node", "id": 8167532409, "lat": 41.9252628, "lon": 12.5109926}, {"type": "node", "id": 8167532410, "lat": 41.925251, "lon": 12.5109643}, {"type": "node", "id": 8167532411, "lat": 41.9252332, "lon": 12.5109423}, {"type": "node", "id": 8167532412, "lat": 41.9252112, "lon": 12.5109288}, {"type": "node", "id": 8167532413, "lat": 41.9251872, "lon": 12.5109253}, {"type": "node", "id": 8167532414, "lat": 41.9251635, "lon": 12.510932}, {"type": "node", "id": 8167532415, "lat": 41.9251199, "lon": 12.5110664}, {"type": "node", "id": 8167532416, "lat": 41.9251337, "lon": 12.5110965}, {"type": "node", "id": 8167564417, "lat": 41.9251544, "lon": 12.5111185}, {"type": "node", "id": 8167564418, "lat": 41.9251793, "lon": 12.5111298}, {"type": "node", "id": 8167564419, "lat": 41.9252057, "lon": 12.511129}, {"type": "node", "id": 8167564420, "lat": 41.9252303, "lon": 12.5111164}, {"type": "node", "id": 8167564421, "lat": 41.9251426, "lon": 12.5109483}, {"type": "node", "id": 8167564422, "lat": 41.9251265, "lon": 12.5109725}, {"type": "node", "id": 8167564423, "lat": 41.9251168, "lon": 12.5110023}, {"type": "node", "id": 8167564424, "lat": 41.9251145, "lon": 12.5110347}, {"type": "node", "id": 8167564425, "lat": 41.9252502, "lon": 12.5110932}, {"type": "node", "id": 8167564426, "lat": 41.9252631, "lon": 12.5110624}, {"type": "node", "id": 8167564427, "lat": 41.9252675, "lon": 12.5110275}, {"type": "node", "id": 8194065707, "lat": 41.9230779, "lon": 12.4771149, "tags": {"addr:street": "Via Antonio Gramsci", "amenity": "bar", "name": "Bar Conti", "opening_hours": "Mo-Fr 07:00-18:00"}}, {"type": "node", "id": 8201885119, "lat": 41.6727553, "lon": 12.3932965}, {"type": "node", "id": 8201885120, "lat": 41.6727748, "lon": 12.3933036}, {"type": "node", "id": 8201885121, "lat": 41.67279, "lon": 12.3933215}, {"type": "node", "id": 8201885122, "lat": 41.6727978, "lon": 12.3933464}, {"type": "node", "id": 8201885123, "lat": 41.6727866, "lon": 12.393397}, {"type": "node", "id": 8201885124, "lat": 41.6727699, "lon": 12.3934123}, {"type": "node", "id": 8201885125, "lat": 41.6727498, "lon": 12.3934162}, {"type": "node", "id": 8201885126, "lat": 41.6727305, "lon": 12.3934078}, {"type": "node", "id": 8201885127, "lat": 41.6727093, "lon": 12.3933648}, {"type": "node", "id": 8201885128, "lat": 41.6727108, "lon": 12.3933392}, {"type": "node", "id": 8201885129, "lat": 41.6727201, "lon": 12.3933168}, {"type": "node", "id": 8201885130, "lat": 41.6727966, "lon": 12.3933734}, {"type": "node", "id": 8201885131, "lat": 41.672716, "lon": 12.3933888}, {"type": "node", "id": 8201885132, "lat": 41.6727355, "lon": 12.3933017}, {"type": "node", "id": 8201885134, "lat": 41.6709484, "lon": 12.3957981, "tags": {"amenity": "bar", "name": "Dar Zagaia", "outdoor_seating": "yes"}}, {"type": "node", "id": 8267776677, "lat": 41.7665051, "lon": 12.4574659, "tags": {"amenity": "bar"}}, {"type": "node", "id": 8268292195, "lat": 41.6958261, "lon": 12.5240955, "tags": {"amenity": "bar"}}, {"type": "node", "id": 8321272966, "lat": 41.7316841, "lon": 12.2699002}, {"type": "node", "id": 8321272967, "lat": 41.7316048, "lon": 12.2698548}, {"type": "node", "id": 8321272968, "lat": 41.7315813, "lon": 12.2699284}, {"type": "node", "id": 8321272969, "lat": 41.7316606, "lon": 12.2699738}, {"type": "node", "id": 8321272970, "lat": 41.7316338, "lon": 12.269927, "tags": {"addr:street": "00121", "amenity": "bar", "name": "bahia"}}, {"type": "node", "id": 8467848295, "lat": 41.8799908, "lon": 12.5432, "tags": {"amenity": "bar", "name": "Bar Roma"}}, {"type": "node", "id": 8475970950, "lat": 41.8788878, "lon": 12.5517753, "tags": {"access": "permissive", "amenity": "bar"}}, {"type": "node", "id": 8484630315, "lat": 41.9529168, "lon": 12.7373318, "tags": {"amenity": "bar"}}, {"type": "node", "id": 8511677046, "lat": 41.8876254, "lon": 12.5033537, "tags": {"amenity": "bar", "name": "sMa Bar", "wheelchair": "limited"}}, {"type": "node", "id": 8514867229, "lat": 41.9413588, "lon": 12.5798583, "tags": {"addr:city": "Roma", "addr:housenumber": "135", "addr:postcode": "00156", "addr:street": "Via Fossombrone", "amenity": "bar", "name": "Bally's", "phone": "+39 06 410 3608"}}, {"type": "node", "id": 8561505117, "lat": 41.8901331, "lon": 12.4955767, "tags": {"amenity": "bar", "name:en": "The Court Cocktail Bar"}}, {"type": "node", "id": 8633204545, "lat": 41.8900367, "lon": 12.5059646, "tags": {"amenity": "bar", "name": "Revenge"}}, {"type": "node", "id": 8633204549, "lat": 41.8839998, "lon": 12.5093482, "tags": {"amenity": "bar", "name": "Cagliari"}}, {"type": "node", "id": 8720804742, "lat": 41.8798636, "lon": 12.473966, "tags": {"amenity": "bar", "name": "Caff\u00e8 Testaccio"}}, {"type": "node", "id": 8729768617, "lat": 41.8903652, "lon": 12.4687937, "tags": {"addr:housenumber": "60", "addr:postcode": "00153", "addr:street": "Vicolo del Cinque", "amenity": "bar", "name:en": "G Bar"}}, {"type": "node", "id": 8734371745, "lat": 42.0753196, "lon": 12.291146, "tags": {"addr:housenumber": "3", "addr:street": "Via di Pizzo Morronto", "amenity": "bar", "name": "Ciwi bar"}}, {"type": "node", "id": 8742801118, "lat": 41.8706348, "lon": 12.480494, "tags": {"amenity": "bar", "name": "Sister\u2019s Bar"}}, {"type": "node", "id": 8749551035, "lat": 41.8703155, "lon": 12.4552628, "tags": {"entrance": "yes"}}, {"type": "node", "id": 8749551036, "lat": 41.8703101, "lon": 12.4552348, "tags": {"entrance": "yes", "exit": "only"}}, {"type": "node", "id": 8768856800, "lat": 41.879045, "lon": 12.4657195, "tags": {"addr:city": "Roma", "addr:housenumber": "192", "addr:postcode": "00153", "addr:street": "Viale di Trastevere 192", "amenity": "bar", "name": "Treefolk's Public House"}}, {"type": "node", "id": 8838180303, "lat": 41.7447006, "lon": 12.6510425, "tags": {"addr:housenumber": "88", "addr:street": "Corso della Repubblica", "amenity": "bar", "name": "Borgo Antico"}}, {"type": "node", "id": 8838180313, "lat": 41.7491062, "lon": 12.6485266, "tags": {"amenity": "bar", "ice_cream": "yes", "name": "Salvioni"}}, {"type": "node", "id": 8838515849, "lat": 41.9028119, "lon": 12.4688489, "tags": {"amenity": "bar", "contact:facebook": "https://www.facebook.com/BiblioBarRoma/", "name": "Bibliobar Roma"}}, {"type": "node", "id": 8842400174, "lat": 41.8971926, "lon": 12.4726342, "tags": {"amenity": "bar", "name": "Bistrot Cocktail Bar"}}, {"type": "node", "id": 8842407723, "lat": 41.8960781, "lon": 12.4723675, "tags": {"amenity": "bar", "name": "Bar Farnese"}}, {"type": "node", "id": 8974752139, "lat": 41.8886738, "lon": 12.5267702, "tags": {"amenity": "bar", "name": "Pigneto 66"}}, {"type": "node", "id": 8974752146, "lat": 41.8890008, "lon": 12.5261285, "tags": {"amenity": "bar", "name": "Bar Birreria Nabil"}}, {"type": "node", "id": 8975338299, "lat": 41.8887564, "lon": 12.5262417, "tags": {"amenity": "bar", "name": "KAB Cocktailbar"}}, {"type": "node", "id": 9002134917, "lat": 41.9163473, "lon": 12.481324, "tags": {"addr:postcode": "00197", "addr:street": "Scalea Bruno Zevi", "amenity": "bar", "name": "Satyrus Temporary Bar", "opening_hours": "Mo-Su 08:00-02:00", "phone": "+393272332776", "website": "http://satyrus.it"}}, {"type": "node", "id": 9010644752, "lat": 41.8887325, "lon": 12.534155, "tags": {"amenity": "bar", "cuisine": "italian", "name": "Casa Mangiacotti"}}, {"type": "node", "id": 9028216460, "lat": 41.8812497, "lon": 12.5121723, "tags": {"amenity": "bar"}}, {"type": "node", "id": 9056344484, "lat": 41.8673927, "lon": 12.5240654, "tags": {"addr:street": "Largo Pietro Tacchi Venturi", "amenity": "bar", "name": "Casa del Parco", "operator": "Associazione Culturale Humus - Onlus", "ref:vatin": "IT08529501002"}}, {"type": "node", "id": 9100633017, "lat": 41.9226886, "lon": 12.5062346, "tags": {"amenity": "bar", "name": "Caff\u00e8 Sebino"}}, {"type": "node", "id": 9141504217, "lat": 41.8896639, "lon": 12.4710012, "tags": {"addr:housenumber": "1", "addr:street": "Piazza di Sant'Apollonia", "amenity": "bar", "name": "Antico caffe"}}, {"type": "node", "id": 9144739225, "lat": 41.8067343, "lon": 12.4321563, "tags": {"amenity": "bar", "service:photocopy": "yes"}}, {"type": "node", "id": 9157419355, "lat": 41.9018934, "lon": 12.4712992, "tags": {"addr:city": "Roma", "addr:housenumber": "1", "addr:postcode": "00186", "addr:street": "Lungotevere Tor di Nona", "amenity": "bar", "operator": "Santo Oriendino", "ref:vatin": "IT09014100581"}}, {"type": "node", "id": 9171143948, "lat": 41.8350315, "lon": 12.4805595, "tags": {"amenity": "bar"}}, {"type": "node", "id": 9171561645, "lat": 41.8946329, "lon": 12.5482709, "tags": {"amenity": "bar", "name": "Angel's Bar"}}, {"type": "node", "id": 9172402681, "lat": 41.8889182, "lon": 12.5315742, "tags": {"addr:city": "Roma", "addr:postcode": "00176", "addr:street": "Via Gentile da Mogliano", "amenity": "bar", "name": "KRAM"}}, {"type": "node", "id": 9182541569, "lat": 41.8860627, "lon": 12.5406572, "tags": {"amenity": "bar", "name": "Bar pasticceria Dolc'\u00e9"}}, {"type": "node", "id": 9227318516, "lat": 41.8631582, "lon": 12.4844312, "tags": {"addr:housenumber": "28", "addr:street": "Via Luigi Fincati", "amenity": "bar", "name": "Honkytonk Bar"}}, {"type": "node", "id": 9242554837, "lat": 41.8326133, "lon": 12.751339, "tags": {"addr:city": "Colonna", "addr:housenumber": "76", "addr:postcode": "00030", "addr:street": "Via Frascati", "amenity": "bar", "name": "Carpe Diem", "phone": "+39 06 8365 9299"}}, {"type": "node", "id": 9371115060, "lat": 41.7699205, "lon": 12.6632474}, {"type": "node", "id": 9371115061, "lat": 41.7699272, "lon": 12.6632704}, {"type": "node", "id": 9404905616, "lat": 41.808281, "lon": 12.6797452, "tags": {"addr:city": "Frascati", "addr:housenumber": "33", "addr:postcode": "00044", "addr:street": "Via Bezzecca", "amenity": "bar", "image": "https://goo.gl/maps/h8sHy6PaALEMwDcE9", "internet_access": "yes", "name": "El Tapas"}}, {"type": "node", "id": 9543420771, "lat": 41.8975176, "lon": 12.5123867}, {"type": "node", "id": 9543420772, "lat": 41.8974969, "lon": 12.5123461}, {"type": "node", "id": 9543420773, "lat": 41.8975288, "lon": 12.5123155}, {"type": "node", "id": 9543420774, "lat": 41.8975491, "lon": 12.5123532}, {"type": "node", "id": 9543420775, "lat": 41.8976173, "lon": 12.5124128}, {"type": "node", "id": 9543420776, "lat": 41.8976121, "lon": 12.5124028}, {"type": "node", "id": 9543420777, "lat": 41.8976072, "lon": 12.5123729}, {"type": "node", "id": 9543420778, "lat": 41.8976018, "lon": 12.5123781}, {"type": "node", "id": 9543420779, "lat": 41.8975894, "lon": 12.5123544}, {"type": "node", "id": 9543420780, "lat": 41.8975938, "lon": 12.5123501}, {"type": "node", "id": 9543420781, "lat": 41.8975832, "lon": 12.5123298}, {"type": "node", "id": 9543420782, "lat": 41.897578, "lon": 12.5123347}, {"type": "node", "id": 9543420783, "lat": 41.8975755, "lon": 12.5123299}, {"type": "node", "id": 9543420784, "lat": 41.8976193, "lon": 12.5123959}, {"type": "node", "id": 9543420785, "lat": 41.8975861, "lon": 12.5124424}, {"type": "node", "id": 9543420786, "lat": 41.8975431, "lon": 12.5123621}, {"type": "node", "id": 9638730177, "lat": 41.8972047, "lon": 12.4603797, "tags": {"addr:city": "Roma", "addr:housenumber": "4", "addr:street": "Piazza di Sant'Onofrio", "amenity": "bar", "operator": "Domus Caff\u00e8 Srl", "ref:vatin": "IT15259501003"}}, {"type": "node", "id": 9646132328, "lat": 41.7228193, "lon": 12.2937358}, {"type": "node", "id": 9646132329, "lat": 41.7228106, "lon": 12.2937415}, {"type": "node", "id": 9646132330, "lat": 41.722801, "lon": 12.2937431}, {"type": "node", "id": 9646132331, "lat": 41.7227915, "lon": 12.2937407}, {"type": "node", "id": 9646132332, "lat": 41.7227831, "lon": 12.2937344}, {"type": "node", "id": 9646132333, "lat": 41.7227989, "lon": 12.2936622}, {"type": "node", "id": 9646132334, "lat": 41.7228092, "lon": 12.2936632}, {"type": "node", "id": 9646132335, "lat": 41.7228186, "lon": 12.2936688}, {"type": "node", "id": 9655096717, "lat": 41.8951436, "lon": 12.4978655, "tags": {"addr:housenumber": "8", "addr:street": "Piazza di San Martino ai Monti", "amenity": "bar", "name:en": "Drink Kong", "opening_hours": "Mo-Su 18:30-02:00", "website": "https://www.drinkkong.com/"}}, {"type": "node", "id": 9678320624, "lat": 41.9107709, "lon": 12.439293, "tags": {"addr:housenumber": "9A", "addr:street": "Largo Lucio Apuleio", "amenity": "bar"}}, {"type": "node", "id": 9709939342, "lat": 41.7270426, "lon": 12.292449, "tags": {"amenity": "bar", "name": "Cartarancia"}}, {"type": "node", "id": 9736327027, "lat": 41.7343455, "lon": 12.2872107}, {"type": "node", "id": 9736327028, "lat": 41.7342788, "lon": 12.2873249}, {"type": "node", "id": 9736327029, "lat": 41.7343266, "lon": 12.2873732}, {"type": "node", "id": 9736327030, "lat": 41.7343931, "lon": 12.2872556}, {"type": "node", "id": 9736327031, "lat": 41.7343398, "lon": 12.2873499}, {"type": "node", "id": 9736327032, "lat": 41.7343936, "lon": 12.2873949}, {"type": "node", "id": 9736327033, "lat": 41.7344193, "lon": 12.2873449}, {"type": "node", "id": 9736327034, "lat": 41.7344004, "lon": 12.2873293}, {"type": "node", "id": 9736327035, "lat": 41.734418, "lon": 12.2872751}, {"type": "node", "id": 9737654166, "lat": 41.7324787, "lon": 12.2928876}, {"type": "node", "id": 9737654167, "lat": 41.7323958, "lon": 12.2929538}, {"type": "node", "id": 9737654168, "lat": 41.7323689, "lon": 12.2928026}, {"type": "node", "id": 9737654169, "lat": 41.7323965, "lon": 12.2927652}, {"type": "node", "id": 9738519034, "lat": 41.8706207, "lon": 12.478498, "tags": {"amenity": "bar"}}, {"type": "node", "id": 9740749158, "lat": 41.737189, "lon": 12.2841015, "tags": {"addr:housenumber": "3", "addr:street": "Via Raffaele de Cosa", "amenity": "bar", "name": "Bar Romeo di Anetta Klich S.A.S.", "tipo": "Bar"}}, {"type": "node", "id": 9740749159, "lat": 41.7272763, "lon": 12.2916322, "tags": {"addr:housenumber": "99", "addr:street": "Viale Desiderato Pietri", "amenity": "bar", "name": "Bar latteria \"Bar latteria \"Walter\"Bar latteria \"\"Walter\""}}, {"type": "node", "id": 9745056730, "lat": 41.758857, "lon": 12.2447314, "tags": {"amenity": "bar", "name": "Baci e Abbracci"}}, {"type": "node", "id": 9757867720, "lat": 41.9451488, "lon": 12.4651218, "tags": {"addr:housenumber": "58", "addr:street": "Via Luigi Bodio", "amenity": "bar", "name": "Bar One", "operator": "Andrea Barone", "ref:vatin": "IT14825271001"}}, {"type": "node", "id": 9768607417, "lat": 41.8999388, "lon": 12.4752724, "tags": {"amenity": "bar", "name": "Bar Milano"}}, {"type": "node", "id": 9779572710, "lat": 41.9088958, "lon": 12.4589427, "tags": {"amenity": "bar", "name": "CaF\u00e9 M\u00e9M\u00e9", "outdoor_seating": "yes"}}, {"type": "node", "id": 9779572714, "lat": 41.9088531, "lon": 12.4587557, "tags": {"addr:city": "Roma", "addr:housenumber": "107", "addr:postcode": "00192", "addr:street": "Via degli Scipioni", "amenity": "bar", "name": "Mozart Caffe", "outdoor_seating": "yes"}}, {"type": "node", "id": 9785868253, "lat": 41.8674721, "lon": 12.4901952, "tags": {"amenity": "bar", "name": "Bar Mauro"}}, {"type": "node", "id": 9805940129, "lat": 41.7328304, "lon": 12.2784627, "tags": {"amenity": "bar", "name": "bar budapest"}}, {"type": "node", "id": 9805940146, "lat": 41.7328427, "lon": 12.2753609, "tags": {"amenity": "bar", "name": "caffetteria Lido", "opening_hours": "Mo-Su 05:30-20:00"}}, {"type": "node", "id": 9811670970, "lat": 41.7473198, "lon": 12.2575629, "tags": {"amenity": "bar", "name": "Nautilus Marina"}}, {"type": "node", "id": 9817866908, "lat": 41.7398238, "lon": 12.2632888, "tags": {"amenity": "bar"}}, {"type": "node", "id": 9835480147, "lat": 41.7341875, "lon": 12.264611, "tags": {"amenity": "bar", "name": "Bar via delle Zattere"}}, {"type": "node", "id": 9948859387, "lat": 41.8759918, "lon": 12.5641682}, {"type": "node", "id": 9948859388, "lat": 41.8759924, "lon": 12.5642432}, {"type": "node", "id": 9948859389, "lat": 41.8759262, "lon": 12.564244}, {"type": "node", "id": 9948859390, "lat": 41.8759257, "lon": 12.5641691}, {"type": "node", "id": 9985849517, "lat": 41.891063, "lon": 12.4696869, "tags": {"amenity": "bar", "name": "Sciscia"}}, {"type": "node", "id": 10012023318, "lat": 41.8719466, "lon": 12.4701729, "tags": {"amenity": "bar", "name": "St\u00e4dlin", "outdoor_seating": "yes", "website": "http://www.stadlin.club"}}, {"type": "node", "id": 10031005738, "lat": 41.848404, "lon": 12.4195467, "tags": {"addr:housenumber": "834A", "amenity": "bar", "name": "Golosit\u00e0", "shop": "pastry"}}, {"type": "node", "id": 10074601411, "lat": 41.8798684, "lon": 12.539757, "tags": {"addr:city": "Roma", "addr:postcode": "00176", "addr:street": "Via Francesco Laparelli", "amenity": "bar", "name": "Mastico", "outdoor_seating": "yes"}}, {"type": "node", "id": 10115166325, "lat": 41.9083556, "lon": 12.4881303, "tags": {"amenity": "bar", "name": "Paris Piano Bar"}}, {"type": "node", "id": 10117169998, "lat": 41.9064673, "lon": 12.4960298, "tags": {"amenity": "bar", "name": "I Colori del Vino"}}, {"type": "node", "id": 10127870938, "lat": 41.9046299, "lon": 12.5122738}, {"type": "node", "id": 10127870939, "lat": 41.90463, "lon": 12.5123501}, {"type": "node", "id": 10127870940, "lat": 41.9046089, "lon": 12.5122862}, {"type": "node", "id": 10127870941, "lat": 41.9046514, "lon": 12.5123383}, {"type": "node", "id": 10130881986, "lat": 41.893625, "lon": 12.5050922, "tags": {"amenity": "bar", "name": "Horti In", "outdoor_seating": "yes", "smoking": "outside", "toilets": "yes", "toilets:access": "yes", "toilets:wheelchair": "limited", "wheelchair": "limited"}}, {"type": "node", "id": 10131046455, "lat": 41.9032828, "lon": 12.5080226, "tags": {"amenity": "bar", "name": "Caffetteria universitaria"}}, {"type": "node", "id": 10138347317, "lat": 41.8603691, "lon": 12.4932335, "tags": {"addr:housenumber": "107E", "addr:postcode": "00145", "addr:street": "Via delle Sette Chiese", "amenity": "bar", "cuisine": "beer", "email": "sgarbatoroma@gmail.com", "facebook": "@sgarbatoroma", "name": "Sgarbato", "opening_hours": "Tu-Su 17:30-02:00", "phone": "+39 3515016718", "start_date": "2022-10-06"}}, {"type": "node", "id": 10209513699, "lat": 41.7582848, "lon": 12.2714335, "tags": {"amenity": "bar", "name": "Carlo"}}, {"type": "node", "id": 10217108718, "lat": 41.9951655, "lon": 12.4812698, "tags": {"addr:postcode": "00188", "addr:street": "Via Magnano in Riviera", "amenity": "bar", "name": "Bar \"L' incontro\"", "opening_hours": "Mo-Sa 06:00-20:00"}}, {"type": "node", "id": 10229024520, "lat": 41.8898894, "lon": 12.5768042, "tags": {"amenity": "bar"}}, {"type": "node", "id": 10248834662, "lat": 41.850069, "lon": 12.4860088, "tags": {"amenity": "bar", "level": "1", "name": "To Live", "outdoor_seating": "yes"}}, {"type": "node", "id": 10263200821, "lat": 41.8948922, "lon": 12.4910994, "tags": {"addr:housenumber": "7", "addr:street": "Piazza della Madonna dei Monti", "amenity": "bar", "operator": "Zaro Srl. unipersonale", "outdoor_seating": "no", "phone": "+39 06 4741578", "ref:vatin": "IT08516811000"}}, {"type": "node", "id": 10268293109, "lat": 41.9019065, "lon": 12.4753023, "tags": {"addr:housenumber": "26/a", "addr:street": "Via d'Ascanio", "amenity": "bar", "name": "RetroVino"}}, {"type": "node", "id": 10285405577, "lat": 41.8323274, "lon": 12.5374033}, {"type": "node", "id": 10285405578, "lat": 41.832269, "lon": 12.5374931}, {"type": "node", "id": 10285405579, "lat": 41.8320211, "lon": 12.5371344}, {"type": "node", "id": 10285405580, "lat": 41.8320954, "lon": 12.5370915}, {"type": "node", "id": 10285625223, "lat": 41.8992969, "lon": 12.5356143, "tags": {"addr:city": "Roma", "addr:housenumber": "70", "addr:postcode": "00159", "addr:street": "Via Domenico Cucchiari", "amenity": "bar", "name": "Happy Bar Gima"}}, {"type": "node", "id": 10307209109, "lat": 41.8043157, "lon": 12.6017855, "tags": {"addr:housenumber": "27/29", "addr:street": "Viale John Fitzgerald Kennedy", "amenity": "bar", "cuisine": "breakfast;cake", "level": "0", "name": "Bar Pasticceria Rinaldi", "name:en": "Bar Confectioner's Rinaldi", "opening_hours": "Mo-Sa 06:30-20:00; Su 06:30-19:00", "phone": "067915758", "website": "http://www.pasticceriarinaldi.it"}}, {"type": "node", "id": 10554788991, "lat": 41.916363, "lon": 12.3788324, "tags": {"addr:city": "Roma", "addr:housenumber": "589", "addr:postcode": "00166", "addr:street": "Via di Boccea", "amenity": "bar"}}, {"type": "node", "id": 10556730611, "lat": 41.9181324, "lon": 12.3767066, "tags": {"addr:city": "Roma", "addr:housenumber": "40", "addr:postcode": "00166", "addr:street": "Via di Casalotti", "amenity": "bar", "name": "Pasticceria Il Giglio", "opening_hours": "Mo-Sa 06:00-21:30", "phone": "+39661564223"}}, {"type": "node", "id": 10556870315, "lat": 41.9187878, "lon": 12.3770528, "tags": {"addr:city": "Roma", "addr:housenumber": "4", "addr:postcode": "00166", "addr:street": "Via di Casalotti", "amenity": "bar", "name": "Zucchero & Sale (BAR REGGINA)", "opening_hours": "Mo-Su 06:00-20:00", "phone": "+39684388604", "website": "https://restaurantguru.it/Zucchero-and-Sale-Rome-2"}}, {"type": "node", "id": 10559266248, "lat": 41.8947538, "lon": 12.5020665, "tags": {"addr:city": "Roma", "addr:housenumber": "62", "addr:postcode": "00185", "addr:street": "Via Leopardi", "amenity": "bar", "name": "Bar Allo Statuto", "outdoor_seating": "yes", "ref:vatin": "IT15125451003"}}, {"type": "node", "id": 10608553461, "lat": 41.8883491, "lon": 12.4709409, "tags": {"addr:city": "Roma", "addr:housenumber": "164", "addr:postcode": "00153", "addr:street": "Via di San Francesco a Ripa", "amenity": "bar", "brewery": "yes", "name": "Delirium Caf\u00e8", "opening_hours": "Tu-Fr 18:00-02:00; Sa-Su 16:30-02:00", "phone": "+39 06 43687476", "ref:vatin": "IT14455361007", "website": "https://www.deliriumcaferoma.com/"}}, {"type": "node", "id": 10692773572, "lat": 41.8916391, "lon": 12.4691049, "tags": {"addr:city": "Roma", "addr:housenumber": "17", "addr:postcode": "00153", "addr:street": "Via Benedetta", "amenity": "bar", "brewery": "yes", "name": "Mate Bar", "opening_hours": "Mo-Su 18:00-02:00", "operator": "MUDDLER s.r.l.", "outdoor_seating": "yes", "phone": "+39 06 5833 1645", "ref:vatin": "IT10334291001", "website": "http://www.m8bar.com/", "website:menu": "http://www.m8bar.com/menu/"}}, {"type": "node", "id": 10751254228, "lat": 41.9402577, "lon": 12.3482838, "tags": {"addr:city": "Roma", "addr:housenumber": "147", "addr:postcode": "00123", "addr:street": "Via della Storta", "amenity": "bar", "name": "Smile Bar", "opening_hours": "Mo-Sa 06:00-20:30; Su 06:30-13:30"}}, {"type": "node", "id": 10797762152, "lat": 41.8871647, "lon": 12.4682359, "tags": {"addr:housenumber": "13", "addr:street": "Via Luigi Santini", "amenity": "bar", "contact:facebook": "https://www.facebook.com/fullmoonclubroma", "name": "Full Moon Club", "opening_hours": "Tu-Fr, Su 20:30-02:00; Sa 17:00-02:00", "phone": "+393395821511", "website": "https://fullmoonclub.org/"}}, {"type": "node", "id": 10853534244, "lat": 41.9057924, "lon": 12.4469916, "tags": {"addr:housenumber": "26", "addr:street": "Via Marcantonio Bragadin", "amenity": "bar", "name": "CAFFETTINO il Bar Che Non C\u2019era", "opening_hours": "Mo-Sa 06:30-21:00", "website": "https://www.facebook.com/CAFFETTINO"}}, {"type": "node", "id": 10855611971, "lat": 41.9072481, "lon": 12.4540694, "tags": {"amenity": "bar", "name": "Snack Bar"}}, {"type": "node", "id": 10858236826, "lat": 41.7775383, "lon": 12.3969392, "tags": {"amenity": "bar", "changing_table": "yes", "changing_table:fee": "no", "internet_access": "yes", "internet_access:fee": "no", "kids_area": "yes", "kids_area:fee": "no", "kids_area:indoor": "yes", "kids_area:outdoor": "yes", "kids_area:supervised": "no", "level": "0", "name": "magma", "opening_hours": "07:00-11:00,18:30-22:30", "operator": "hu fabulous village", "outdoor_seating": "yes", "smoking": "yes", "toilets": "yes", "toilets:access": "customers", "toilets:wheelchair": "yes", "wheelchair": "yes"}}, {"type": "way", "id": 59232092, "nodes": [734745914, 734745922, 5167277433, 5167277432, 734745904, 734745937, 4246103194, 734745914], "tags": {"building": "retail", "building:levels": "1"}}, {"type": "way", "id": 75354752, "nodes": [889532288, 889532308, 889532322, 889532281, 889532288], "tags": {"amenity": "bar", "building": "yes", "name": "Bar"}}, {"type": "way", "id": 95236880, "nodes": [725267537, 1104719276, 1104719295, 1104719297, 725267537], "tags": {"amenity": "bar", "building": "yes", "name": "Centro Sportivo G. Fiorini"}}, {"type": "way", "id": 122650309, "nodes": [1369879939, 1369879942, 1369879930, 1369879935, 1369879939], "tags": {"amenity": "bar", "building": "yes"}}, {"type": "way", "id": 122650311, "nodes": [1369879940, 1369879937, 1369879932, 1369879946, 1369879940], "tags": {"amenity": "bar", "building": "yes"}}, {"type": "way", "id": 142373652, "nodes": [1558150630, 1558150635, 1558150628, 1558150626, 1558150630], "tags": {"amenity": "bar", "building": "kiosk", "building:levels": "1", "name": "Gazebo Bar", "start_date": "1990"}}, {"type": "way", "id": 168597192, "nodes": [5020805322, 1798362160, 1798362173, 1798362172, 1798362159, 1798362157, 1798362153, 1798362154, 5020805322], "tags": {"addr:housenumber": "62", "addr:street": "Piazza del Risorgimento", "amenity": "bar", "building": "yes", "name": "Bar L'ottagono"}}, {"type": "way", "id": 181186377, "nodes": [1916357903, 1916357921, 1916357929, 1916357928, 1916357925, 1916357922, 1916357917, 1916357891, 1916357887, 1916357903], "tags": {"amenity": "bar", "name": "Caff\u00e8 del parco"}}, {"type": "way", "id": 258621339, "nodes": [2639551475, 2639551476, 2639551477, 2639551478, 2639551479, 2639551480, 2639551475], "tags": {"addr:city": "Roma", "addr:housenumber": "1", "addr:postcode": "00153", "addr:street": "Via Generale Roberto Bencivenga", "amenity": "bar", "building": "yes", "name": "ZooBar", "website": "http://www.zoobar.roma.it/"}}, {"type": "way", "id": 261412203, "nodes": [2670269329, 2670269331, 2670269328, 2670269327, 2670269329], "tags": {"addr:street": "Viale Ferdinando Baldelli", "amenity": "bar", "building": "retail", "building:levels": "1", "name": "El Chiringuito Libre", "phone": "06 5960 4222"}}, {"type": "way", "id": 268378590, "nodes": [2737169810, 2737169812, 2737169805, 2737169803, 2737169810], "tags": {"amenity": "bar", "building": "yes", "name": "derby bar"}}, {"type": "way", "id": 353477262, "nodes": [3592611850, 3592611848, 3592611846, 3592611847, 3592611850], "tags": {"amenity": "bar", "building": "yes"}}, {"type": "way", "id": 361223966, "nodes": [3657292376, 3657292377, 3657292378, 3657292379, 3657292380, 5246083917, 3657292381, 3657292376], "tags": {"amenity": "bar", "building": "yes", "name": "Caff\u00e8 Latino"}}, {"type": "way", "id": 364346079, "nodes": [3683838570, 3683838573, 3683838567, 3683838566, 3683838556, 3683838553, 3683838570], "tags": {"addr:housenumber": "km 65,500", "addr:street": "Grande Raccordo Anulare", "amenity": "cafe", "building": "yes", "building:levels": "1", "cuisine": "coffee_shop;donut;breakfast", "name": "Punto bar", "operator": "Dan OIL srl", "phone": "+39 06 65771422"}}, {"type": "way", "id": 395307201, "nodes": [3982161302, 3982161295, 3982161181, 3982161183, 3982161189, 3982161193, 3982161185, 3982161190, 3982161194, 3982161197, 3982161312, 3982161307, 3982161301, 3982161297, 3982161302], "tags": {"addr:city": "Roma", "addr:housenumber": "55", "addr:postcode": "00191", "addr:street": "Viale di Tor di Quinto", "amenity": "bar", "building": "yes", "name": "Blume Lounge"}}, {"type": "way", "id": 408137025, "nodes": [4101374349, 4101374350, 4101374351, 4101374352, 4101374353, 4101374354, 4101374355, 4101374356, 4101374357, 4101374358, 4101374359, 4101374360, 4101374349], "tags": {"amenity": "bar", "building": "yes", "name": "Il Curvone"}}, {"type": "way", "id": 414220074, "nodes": [4153893544, 4153893545, 4153893538, 4153893532, 4153893526, 4153893525, 4153893536, 4153893540, 4153893544], "tags": {"amenity": "bar", "building": "yes", "name": "Bar degli Ulivi"}}, {"type": "way", "id": 452873796, "nodes": [4496885909, 4496885906, 4496885907, 4496885908, 4496885909], "tags": {"amenity": "bar", "building": "yes"}}, {"type": "way", "id": 480655026, "nodes": [4736290619, 4736290628, 4736290629, 4736290620, 4736290619], "tags": {"amenity": "bar", "building": "yes"}}, {"type": "way", "id": 529131700, "nodes": [5140753578, 5140753576, 5140753579, 5140753577, 5140753578], "tags": {"amenity": "bar", "building": "yes"}}, {"type": "way", "id": 543379539, "nodes": [5252861581, 5252861582, 9371115060, 5252861583, 9371115061, 5812484080, 5252861581], "tags": {"amenity": "bar", "building": "yes", "contact:facebook": "https://www.facebook.com/A-MI-ME-PIACE-853768551351933/", "layer": "0", "name": "A mi me piace"}}, {"type": "way", "id": 545850281, "nodes": [5275321326, 5275321327, 5275321328, 5275321329, 5275321326], "tags": {"addr:housenumber": "1", "addr:street": "Via di Villa Lauchli", "amenity": "bar", "building": "yes", "name": "Profumo Spazio Sensoriale", "opening_hours": "Mo-Su 18:30-02:00", "phone": "+39 3512767173", "website": "http://www.profumoroma.com/"}}, {"type": "way", "id": 567021297, "nodes": [5459176868, 5459176865, 5459176853, 8749551035, 8749551036, 5459176855, 5459176854, 5459176868], "tags": {"building": "yes", "building:levels": "1"}}, {"type": "way", "id": 571244216, "nodes": [5490554705, 5490554706, 5490554707, 5490554708, 5490554705], "tags": {"addr:city": "Roma", "addr:housenumber": "90", "addr:postcode": "00148", "addr:street": "Via delle Vigne", "amenity": "bar", "building": "retail", "building:levels": "1", "changing_table": "no", "level": "0", "name": "Novezero", "opening_hours": "Mo-Su 08:30-13:30,16:00-24:00", "outdoor_seating": "yes", "roof:levels": "0", "takeaway": "yes", "wheelchair": "yes"}}, {"type": "way", "id": 584378817, "nodes": [5586080400, 5586080401, 5586080402, 5586080403, 5586080400], "tags": {"addr:city": "Roma", "addr:housenumber": "175", "addr:postcode": "00139", "addr:street": "Via di Tor San Giovanni", "amenity": "bar", "building": "yes", "name": "I Lecci"}}, {"type": "way", "id": 589786059, "nodes": [5631961528, 5631961529, 5631961530, 5631961531, 5631961528], "tags": {"amenity": "bar", "building": "yes", "name": "Mondi", "outdoor_seating": "yes"}}, {"type": "way", "id": 589786062, "nodes": [5631961532, 5631961533, 5631961534, 5631961535, 5631961532], "tags": {"amenity": "bar", "building": "yes", "name": "Mondi", "outdoor_seating": "yes"}}, {"type": "way", "id": 732492855, "nodes": [6859268378, 6859268377, 6859268376, 6859268375, 6859268378], "tags": {"addr:city": "Roma", "addr:postcode": "00166", "amenity": "bar", "building": "yes", "building:levels": "1", "internet_access": "wlan", "internet_access:fee": "no", "internet_access:ssid": "AGS-Casalotti", "name": "Box 26", "payment:coins": "yes", "shop": "tobacco"}}, {"type": "way", "id": 732821848, "nodes": [6862149261, 6862149260, 6862149259, 6862149258, 6862149261], "tags": {"amenity": "bar", "building": "commercial", "building:levels": "1"}}, {"type": "way", "id": 751278382, "nodes": [9646132333, 9646132334, 9646132335, 7023461330, 7023461331, 7023461332, 7023461333, 7023461334, 9646132328, 9646132329, 9646132330, 9646132331, 9646132332, 7023461335, 7023461336, 7023461337, 7023461338, 7023461339, 7023461340, 9646132333], "tags": {"amenity": "bar", "building": "yes"}}, {"type": "way", "id": 751287760, "nodes": [7023555902, 7023555903, 7023555904, 7023555905, 7023555902], "tags": {"amenity": "bar", "building": "yes", "check_date": "2022-05-12", "name": "Circolo del tennis", "opening_hours": "8am-9pm"}}, {"type": "way", "id": 764391808, "nodes": [7141136999, 7141137000, 7141137001, 7141137002, 7141136999], "tags": {"amenity": "bar", "building": "yes"}}, {"type": "way", "id": 776063026, "nodes": [7240850881, 7240862001, 7240850882, 7240850883, 7240850884, 7240861990, 7240861985, 7240861986, 7240850881], "tags": {"amenity": "bar", "building": "yes", "name": "Terzo Tempo"}}, {"type": "way", "id": 797899726, "nodes": [7506677123, 7462814547, 7462814548, 7506677124, 7462814549, 7506677123], "tags": {"addr:city": "Osteria Nuova", "addr:housenumber": "197", "addr:postcode": "00123", "addr:street": "Via Anguillarese", "amenity": "bar", "building": "yes", "cuisine": "regional;italian", "name": "Ronchetti Tiziana", "opening_hours": "Mo-Fr 06:30-19:00; Sa 07:00-15:00", "phone": "+39063046243"}}, {"type": "way", "id": 877844359, "nodes": [8167564425, 8167564426, 8167564427, 8167532409, 8167532410, 8167532411, 8167532412, 8167532413, 8167532414, 8167564421, 8167564422, 8167564423, 8167564424, 8167532415, 8167532416, 8167564417, 8167564418, 8167564419, 8167564420, 8167564425], "tags": {"amenity": "bar", "building": "yes", "name": "Caffe' nemorense"}}, {"type": "way", "id": 881942013, "nodes": [8201885132, 8201885129, 8201885128, 8201885127, 8201885131, 8201885126, 8201885125, 8201885124, 8201885123, 8201885130, 8201885122, 8201885121, 8201885120, 8201885119, 8201885132], "tags": {"amenity": "bar", "building": "yes", "kids_area": "yes", "kids_area:outdoor": "yes", "name": "Bud Beach"}}, {"type": "way", "id": 895216353, "nodes": [8321272966, 8321272967, 8321272968, 8321272969, 8321272966], "tags": {"addr:city": "Roma", "addr:housenumber": "159", "addr:postcode": "00121", "addr:street": "Lungomare Paolo Toscanelli", "amenity": "bar", "building": "yes", "name": "bahia"}}, {"type": "way", "id": 1035813302, "nodes": [9543420786, 9543420771, 9543420772, 9543420773, 9543420774, 9543420783, 9543420782, 9543420781, 9543420780, 9543420779, 9543420778, 9543420777, 9543420784, 9543420776, 9543420775, 9543420785, 9543420786], "tags": {"amenity": "bar", "building": "yes", "name": "Caff\u00e8 del Parco"}}, {"type": "way", "id": 1059743544, "nodes": [9736327027, 9736327028, 9736327029, 9736327031, 9736327030, 9736327027], "tags": {"amenity": "bar", "building": "yes", "name": "Bar del fusco"}}, {"type": "way", "id": 1059743545, "nodes": [9736327031, 9736327032, 9736327033, 9736327034, 9736327035, 9736327030, 9736327031], "tags": {"amenity": "bar", "building": "yes"}}, {"type": "way", "id": 1059867390, "nodes": [9737654166, 9737654167, 9737654168, 9737654169, 9737654166], "tags": {"amenity": "bar", "building": "yes", "name": "MA.GA."}}, {"type": "way", "id": 1085762162, "nodes": [9948859387, 9948859388, 9948859389, 9948859390, 9948859387], "tags": {"amenity": "bar", "building": "yes"}}, {"type": "way", "id": 1106806564, "nodes": [10127870941, 10127870939, 10127870940, 10127870938, 10127870941], "tags": {"amenity": "bar", "building": "kiosk", "name": "Chiosco Caff\u00e8", "opening_hours": "Mo-Fr 06:00-17:00", "outdoor_seating": "yes", "shop": "kiosk", "wheelchair": "yes"}}, {"type": "way", "id": 1124733578, "nodes": [10285405577, 10285405578, 10285405579, 10285405580, 10285405577], "tags": {"amenity": "bar", "building": "yes"}}, {"type": "relation", "id": 5417134, "members": [{"type": "way", "ref": 364346079, "role": "outer"}], "tags": {"amenity": "bar", "name": "Area di Servizio Pisana Esterna", "operator": "Dan Oil Srl.", "phone": "+39 06 65771422", "ref:vatin": "IT12845611008", "shop": "convenience", "type": "multipolygon"}}, {"type": "relation", "id": 6319190, "members": [{"type": "way", "ref": 59232092, "role": "outer"}], "tags": {"addr:housenumber": "21/22", "addr:postcode": "00154", "addr:street": "Largo delle Sette Chiese", "amenity": "bar", "name": "Arbar", "operator": "Settechiese Srl.", "ref:vatin": "IT12968901004", "type": "multipolygon"}}, {"type": "relation", "id": 12734868, "members": [{"type": "way", "ref": 567021297, "role": "outer"}], "tags": {"amenity": "bar", "type": "multipolygon"}}]}