{"version": 0.6, "generator": "Overpass API 0.7.60 f4c14d41", "osm3s": {"timestamp_osm_base": "2023-05-02T21:17:24Z", "copyright": "The data included in this document is from www.openstreetmap.org. The data is made available under ODbL."}, "elements": [{"type": "node", "id": 458690695, "lat": -33.7643176, "lon": 150.6631528, "tags": {"amenity": "cafe", "brand": "The Coffee Club", "brand:wikidata": "Q7726599", "brand:wikipedia": "en:The Coffee Club", "cuisine": "coffee_shop", "name": "The Coffee Club", "takeaway": "yes"}}, {"type": "node", "id": 1127285820, "lat": -33.6051278, "lon": 150.8227272, "tags": {"amenity": "cafe", "name": "Windsor Ice Cream Cafe"}}, {"type": "node", "id": 1169791684, "lat": -33.7133568, "lon": 150.9721202, "tags": {"amenity": "cafe", "name": "Caffe Cherry Beans", "outdoor_seating": "yes", "smoking": "no"}}, {"type": "node", "id": 1169791686, "lat": -33.7132624, "lon": 150.9720739, "tags": {"amenity": "cafe", "name": "Pasqualina's Deli Cafe"}}, {"type": "node", "id": 1370767228, "lat": -33.7230182, "lon": 150.6715402, "tags": {"amenity": "cafe"}}, {"type": "node", "id": 1670202189, "lat": -33.7633305, "lon": 150.8696477, "tags": {"amenity": "cafe", "name": "Charcoal House Cafe", "source": "survey"}}, {"type": "node", "id": 1778674196, "lat": -33.6946583, "lon": 150.9279505, "tags": {"amenity": "cafe", "cuisine": "coffee_shop", "name": "The Local Shed Cafe", "website": "https://thelocalshed.com.au/"}}, {"type": "node", "id": 1828203683, "lat": -33.7208987, "lon": 150.6850044, "tags": {"amenity": "cafe"}}, {"type": "node", "id": 1860094893, "lat": -33.7579441, "lon": 150.6917927, "tags": {"amenity": "cafe", "brand": "The Coffee Club", "brand:wikidata": "Q7726599", "brand:wikipedia": "en:The Coffee Club", "cuisine": "coffee_shop", "name": "The Coffee Club", "takeaway": "yes"}}, {"type": "node", "id": 1875563998, "lat": -33.7583441, "lon": 150.6644913}, {"type": "node", "id": 1875564019, "lat": -33.7582041, "lon": 150.6647014}, {"type": "node", "id": 1875564020, "lat": -33.7582136, "lon": 150.6645339}, {"type": "node", "id": 1875564034, "lat": -33.7581175, "lon": 150.6646241}, {"type": "node", "id": 1875564038, "lat": -33.7583088, "lon": 150.6644397}, {"type": "node", "id": 1875564076, "lat": -33.7582939, "lon": 150.664527, "tags": {"addr:housenumber": "86", "addr:postcode": "2750", "addr:street": "River Road", "amenity": "cafe", "cuisine": "australian", "name": "Cafe at Lewers", "website": "https://www.penrithregionalgallery.com.au/cafe-at-lewers/"}}, {"type": "node", "id": 1875564096, "lat": -33.7582497, "lon": 150.6646567}, {"type": "node", "id": 1875564098, "lat": -33.758223, "lon": 150.6646828}, {"type": "node", "id": 1875564101, "lat": -33.7581826, "lon": 150.6645592}, {"type": "node", "id": 1875564117, "lat": -33.7582489, "lon": 150.6645855}, {"type": "node", "id": 2147519860, "lat": -33.7271475, "lon": 150.7256066, "tags": {"amenity": "cafe", "email": "info@hcafe.com.au", "name": "HCAFE", "phone": "+61 450 552 468", "website": "http://www.hcafe.com.au/", "wheelchair": "yes"}}, {"type": "node", "id": 2456431860, "lat": -33.6021883, "lon": 150.8202476, "tags": {"amenity": "cafe", "name": "Macquarie Park Boathouse Cafe"}}, {"type": "node", "id": 2465369618, "lat": -33.7275837, "lon": 150.7260213, "tags": {"amenity": "cafe", "wheelchair": "yes"}}, {"type": "node", "id": 2784732668, "lat": -33.6820822, "lon": 150.9165059, "tags": {"amenity": "cafe", "name": "La Piazza Cafe", "source": "survey"}}, {"type": "node", "id": 2798176529, "lat": -33.7671969, "lon": 150.9524819, "tags": {"amenity": "cafe", "brand": "McCaf\u00e9", "brand:wikidata": "Q3114287", "brand:wikipedia": "en:McCaf\u00e9", "cuisine": "coffee_shop", "name": "McCaf\u00e9", "source": "survey", "takeaway": "yes", "website": "https://www.mcdonalds.com.au/mccafe"}}, {"type": "node", "id": 2817378159, "lat": -33.7442248, "lon": 150.916274, "tags": {"amenity": "cafe", "brand": "McCaf\u00e9", "brand:wikidata": "Q3114287", "brand:wikipedia": "en:McCaf\u00e9", "cuisine": "coffee_shop", "name": "McCaf\u00e9", "source": "survey", "takeaway": "yes"}}, {"type": "node", "id": 2905141120, "lat": -33.7051298, "lon": 150.9350135, "tags": {"amenity": "cafe", "name": "Nest Cafe", "source": "survey"}}, {"type": "node", "id": 2908674806, "lat": -33.6055646, "lon": 150.8213812, "tags": {"amenity": "cafe", "name": "Cafe Red", "source": "survey"}}, {"type": "node", "id": 3283142628, "lat": -33.3801376, "lon": 150.9872926}, {"type": "node", "id": 3283142629, "lat": -33.3801723, "lon": 150.987419}, {"type": "node", "id": 3283142630, "lat": -33.3802196, "lon": 150.9872603}, {"type": "node", "id": 3283142631, "lat": -33.3802543, "lon": 150.9873868}, {"type": "node", "id": 3283150192, "lat": -33.3854608, "lon": 150.9865706}, {"type": "node", "id": 3283150194, "lat": -33.3855296, "lon": 150.9864567}, {"type": "node", "id": 3283150197, "lat": -33.3855658, "lon": 150.9866615}, {"type": "node", "id": 3283150201, "lat": -33.3855769, "lon": 150.9864963}, {"type": "node", "id": 3283150202, "lat": -33.3856348, "lon": 150.9865497}, {"type": "node", "id": 3479931442, "lat": -33.766042, "lon": 150.8842355, "tags": {"amenity": "cafe", "name": "Billabong Cafe", "source": "estimation; survey"}}, {"type": "node", "id": 3762078857, "lat": -33.7457464, "lon": 150.9523207, "tags": {"amenity": "cafe", "name": "Cafe McKel's", "note": "position? Within mall... but where?", "outdoor_seating": "yes"}}, {"type": "node", "id": 3998772843, "lat": -33.7280105, "lon": 150.6832444}, {"type": "node", "id": 3998772844, "lat": -33.7280275, "lon": 150.6833772}, {"type": "node", "id": 3998772845, "lat": -33.7278949, "lon": 150.6834017}, {"type": "node", "id": 3998772846, "lat": -33.7278887, "lon": 150.6833537}, {"type": "node", "id": 3998772847, "lat": -33.7278621, "lon": 150.6833587}, {"type": "node", "id": 3998772848, "lat": -33.7278569, "lon": 150.6833185}, {"type": "node", "id": 3998772849, "lat": -33.7278862, "lon": 150.6833131}, {"type": "node", "id": 3998772850, "lat": -33.7278805, "lon": 150.6832684}, {"type": "node", "id": 4012101189, "lat": -33.7651651, "lon": 150.7741179, "tags": {"addr:city": "St Marys", "addr:housenumber": "93", "addr:postcode": "2760", "addr:street": "Queen Street", "amenity": "cafe", "cuisine": "burger", "internet_access": "no", "name": "Luckys Cafe", "smoking": "no"}}, {"type": "node", "id": 4292109897, "lat": -33.7663118, "lon": 150.9121351, "tags": {"amenity": "cafe", "brand": "McCaf\u00e9", "brand:wikidata": "Q3114287", "brand:wikipedia": "en:McCaf\u00e9", "cuisine": "coffee_shop", "name": "McCaf\u00e9", "source": "survey", "takeaway": "yes"}}, {"type": "node", "id": 4307260286, "lat": -33.5539607, "lon": 150.6667729, "tags": {"addr:housenumber": "83", "addr:street": "Old Bells Line of Road", "amenity": "cafe", "contact:phone": "+61 2 4573 0988", "contact:website": "www.sassafrascreek.com.au", "name": "The Village Kitchen Kurrajong", "source": "survey", "source:position": "NSW LPI Imagery"}}, {"type": "node", "id": 4595569997, "lat": -33.6073029, "lon": 150.8195021, "tags": {"amenity": "cafe", "brand": "Gloria Jean's", "brand:wikidata": "Q2666365", "cuisine": "coffee_shop", "name": "Gloria Jean's", "name:en": "Gloria Jeans", "official_name": "Gloria Jean's Coffees", "takeaway": "yes"}}, {"type": "node", "id": 4789547563, "lat": -33.7131171, "lon": 150.9719795, "tags": {"amenity": "cafe", "brand": "Michel's Patisserie", "brand:wikidata": "Q6836235", "cuisine": "coffee_shop", "internet_access": "no", "name": "Michel's Patisserie", "outdoor_seating": "no", "smoking": "no", "takeaway": "yes"}}, {"type": "node", "id": 4954082731, "lat": -33.7130002, "lon": 150.9730013, "tags": {"amenity": "cafe", "cuisine": "coffee_shop", "name": "The Local Trade", "outdoor_seating": "yes"}}, {"type": "node", "id": 5174209149, "lat": -33.6855337, "lon": 150.9523792, "tags": {"amenity": "cafe", "name": "Gustoso", "wheelchair": "yes"}}, {"type": "node", "id": 5174209150, "lat": -33.6858806, "lon": 150.9516114, "tags": {"amenity": "cafe", "name": "Leaf Cafe & Co", "wheelchair": "yes"}}, {"type": "node", "id": 5419235722, "lat": -33.385322, "lon": 150.9860555, "tags": {"amenity": "cafe"}}, {"type": "node", "id": 5562104551, "lat": -33.7661038, "lon": 150.8174184}, {"type": "node", "id": 5562104552, "lat": -33.766119, "lon": 150.8175118}, {"type": "node", "id": 5562104553, "lat": -33.7660779, "lon": 150.8175192}, {"type": "node", "id": 5562104554, "lat": -33.7660809, "lon": 150.8175595}, {"type": "node", "id": 5562104555, "lat": -33.7659484, "lon": 150.8175851}, {"type": "node", "id": 5562104556, "lat": -33.7659301, "lon": 150.8174532}, {"type": "node", "id": 5666335626, "lat": -33.3802509, "lon": 150.9873743}, {"type": "node", "id": 5666335654, "lat": -33.3802391, "lon": 150.9873928}, {"type": "node", "id": 5809896190, "lat": -33.7687504, "lon": 150.912067, "tags": {"amenity": "cafe", "name": "Lovely Sweets"}}, {"type": "node", "id": 6122570626, "lat": -33.7186014, "lon": 150.8448137}, {"type": "node", "id": 6122570627, "lat": -33.7187096, "lon": 150.8448298}, {"type": "node", "id": 6122570628, "lat": -33.7186661, "lon": 150.8450591}, {"type": "node", "id": 6122570629, "lat": -33.7185601, "lon": 150.845043}, {"type": "node", "id": 6124214995, "lat": -33.5954569, "lon": 150.7496865, "tags": {"amenity": "cafe", "brand": "Michel's Patisserie", "brand:wikidata": "Q6836235", "brand:wikipedia": "en:Michel's Patisserie", "cuisine": "coffee_shop", "name": "Michel's Patisserie", "takeaway": "yes"}}, {"type": "node", "id": 6253267285, "lat": -33.6080047, "lon": 150.8189811, "tags": {"addr:housenumber": "250", "addr:street": "George Street", "amenity": "cafe", "internet_access": "wlan", "name": "Lime & Coconut Cafe", "phone": "+61 408 316 157", "website": "https://www.limeandcoconutcafe.com.au/"}}, {"type": "node", "id": 6502002734, "lat": -33.7314212, "lon": 150.944598, "tags": {"amenity": "cafe", "name": "Stage Door"}}, {"type": "node", "id": 6744951785, "lat": -33.7435794, "lon": 150.6546157, "tags": {"amenity": "cafe", "name": "Russel Street Lunch Stop"}}, {"type": "node", "id": 6747648760, "lat": -33.7044151, "lon": 150.8746464, "tags": {"addr:state": "NSW", "addr:suburb": "Schofields", "amenity": "cafe", "name": "HCafe Schofields"}}, {"type": "node", "id": 6796103237, "lat": -33.5508853, "lon": 150.6895322, "tags": {"amenity": "cafe", "cuisine": "cafe;deli", "name": "The Deli Lana Kurmond"}}, {"type": "node", "id": 7174215192, "lat": -33.7643643, "lon": 150.6630894, "tags": {"amenity": "cafe", "name": "Tella Balls Dessert Bar", "opening_hours": "Mo-Su 10:00-21:30", "website": "http://www.tellaballsdessertbar.com"}}, {"type": "node", "id": 7174219325, "lat": -33.7429666, "lon": 150.6506174, "tags": {"amenity": "cafe", "name": "Morgan's Coffee"}}, {"type": "node", "id": 7176556380, "lat": -33.7466235, "lon": 150.6747159, "tags": {"addr:housenumber": "71", "addr:street": "Great Western Highway", "amenity": "cafe", "name": "Nutrition Station"}}, {"type": "node", "id": 7176946438, "lat": -33.751238, "lon": 150.6944211, "tags": {"amenity": "cafe", "name": "San Churro Cafe"}}, {"type": "node", "id": 7176946444, "lat": -33.7518098, "lon": 150.6942114, "tags": {"amenity": "cafe", "brand": "Starbucks", "brand:wikidata": "Q37158", "brand:wikipedia": "en:Starbucks", "cuisine": "coffee_shop", "name": "Starbucks", "official_name": "Starbucks Coffee", "takeaway": "yes"}}, {"type": "node", "id": 7176946445, "lat": -33.7516539, "lon": 150.6942204, "tags": {"amenity": "cafe", "name": "Jack Little"}}, {"type": "node", "id": 7178732237, "lat": -33.7532561, "lon": 150.6952864, "tags": {"addr:housenumber": "496", "addr:street": "High Street", "addr:unit": "1", "amenity": "cafe", "name": "Polmarket Deli & Cafe"}}, {"type": "node", "id": 7178732239, "lat": -33.753323, "lon": 150.6956053, "tags": {"addr:housenumber": "488-490", "addr:street": "High Street", "amenity": "cafe", "name": "High St Depot", "opening_hours": "Mo-Su 06:00-15:00", "website": "https://highstdepot.com.au"}}, {"type": "node", "id": 7183896550, "lat": -33.7493434, "lon": 150.6970427, "tags": {"amenity": "cafe", "name": "Platform T8", "opening_hours": "Mo-Fr 05:00-15:00; Sa 07:00-15:00; Su 08:00-15:00"}}, {"type": "node", "id": 7183896748, "lat": -33.7532725, "lon": 150.6965674, "tags": {"addr:housenumber": "467", "addr:postcode": "2750", "addr:state": "NSW", "addr:street": "High Street", "addr:suburb": "Penrith", "amenity": "cafe", "cuisine": "coffee;breakfast", "name": "Mr Watkins Bar", "outdoor_seating": "yes", "phone": "+61 2  4708 0605", "website": "https://www.mrwatkins.com.au"}}, {"type": "node", "id": 7185292372, "lat": -33.7538499, "lon": 150.6978887, "tags": {"addr:housenumber": "396", "addr:street": "High Street", "addr:unit": "3", "amenity": "cafe", "cuisine": "coffee_shop;breakfast", "name": "Screaming Beans Coffee Bar"}}, {"type": "node", "id": 7185312294, "lat": -33.7540518, "lon": 150.6989648, "tags": {"addr:housenumber": "354", "addr:street": "High Street", "addr:unit": "7", "amenity": "cafe", "name": "Cafe Fred", "opening_hours": "Mo-Fr 06:30-15:30", "outdoor_seating": "yes", "website": "http://www.cafefred.com.au"}}, {"type": "node", "id": 7187432668, "lat": -33.6713184, "lon": 150.9561919, "tags": {"amenity": "cafe", "cuisine": "burger;breakfast;coffee", "name": "Vespa Cafe"}}, {"type": "node", "id": 7213420325, "lat": -33.7571493, "lon": 150.6914471, "tags": {"addr:housenumber": "146", "addr:street": "Station Street", "amenity": "cafe", "name": "Percy Plunkett", "opening_hours": "Mo-Su 07:00-15:00", "outdoor_seating": "yes", "website": "http://www.percyplunkett.com.au"}}, {"type": "node", "id": 7213624277, "lat": -33.7561745, "lon": 150.710339, "tags": {"addr:housenumber": "135", "addr:street": "High Street", "amenity": "cafe", "name": "Yogo Cafe", "opening_hours": "Mo-Sa 09:30-21:30"}}, {"type": "node", "id": 7215870545, "lat": -33.758185, "lon": 150.6646738}, {"type": "node", "id": 7215870546, "lat": -33.7581653, "lon": 150.6646934}, {"type": "node", "id": 7221980789, "lat": -33.7615308, "lon": 150.7140008, "tags": {"addr:housenumber": "48", "addr:street": "Derby Street", "amenity": "cafe", "name": "Mandesa Florist Cafe", "opening_hours": "Mo-Fr 06:00-14:30; Sa 08:00-13:00"}}, {"type": "node", "id": 7221980939, "lat": -33.7608322, "lon": 150.7111057, "tags": {"amenity": "cafe", "name": "Quality Food Takeaway"}}, {"type": "node", "id": 7221981020, "lat": -33.7591247, "lon": 150.7210633, "tags": {"addr:housenumber": "178", "addr:street": "Great Western Highway", "addr:unit": "4", "amenity": "cafe", "cuisine": "italian", "name": "Gravity Cafe", "outdoor_seating": "yes", "website": "https://gravitycafe.com.au"}}, {"type": "node", "id": 7236403367, "lat": -33.5546646, "lon": 150.6653735, "tags": {"addr:housenumber": "1147", "addr:street": "Grose Vale Road", "addr:unit": "2", "amenity": "cafe", "name": "Goodie Goodie Gum Drops"}}, {"type": "node", "id": 7236403427, "lat": -33.5537706, "lon": 150.6672395, "tags": {"addr:housenumber": "77", "addr:street": "Old Bells Line of Road", "amenity": "cafe", "name": "Seasons of Kurrajong"}}, {"type": "node", "id": 7236403463, "lat": -33.5504034, "lon": 150.6723884, "tags": {"addr:housenumber": "16", "addr:street": "Old Bells Line of Road", "amenity": "cafe", "name": "Cafe BCM"}}, {"type": "node", "id": 7305079525, "lat": -33.5820282, "lon": 150.7212989, "tags": {"addr:housenumber": "15", "addr:street": "Bells Line of Road", "addr:unit": "6", "amenity": "cafe", "name": "North Cafe"}}, {"type": "node", "id": 7305079526, "lat": -33.5823805, "lon": 150.7216042, "tags": {"amenity": "cafe", "name": "4 Beans Cafe"}}, {"type": "node", "id": 7305079827, "lat": -33.5792803, "lon": 150.7196165, "tags": {"amenity": "cafe", "name": "Momo's Pitstop"}}, {"type": "node", "id": 7314351014, "lat": -33.4061101, "lon": 150.9721869, "tags": {"amenity": "cafe", "name": "Carinya Cafe"}}, {"type": "node", "id": 7758641507, "lat": -33.7247385, "lon": 150.8454782, "tags": {"amenity": "cafe", "name": "Hobng Greenway Cafe"}}, {"type": "node", "id": 7758641509, "lat": -33.7247628, "lon": 150.8453906, "tags": {"amenity": "cafe", "name": "Greenway Kebab"}}, {"type": "node", "id": 8598542748, "lat": -33.7527947, "lon": 150.7055252, "tags": {"amenity": "cafe", "cuisine": "organic", "name": "The Shack", "website": "https://www.theshack.com.au/"}}, {"type": "node", "id": 8630987990, "lat": -33.7319672, "lon": 150.9462765, "tags": {"amenity": "cafe", "name": "Good Fella Coffee", "outdoor_seating": "no"}}, {"type": "node", "id": 8748534305, "lat": -33.7454813, "lon": 150.6915998}, {"type": "node", "id": 8748534306, "lat": -33.7455819, "lon": 150.6915692}, {"type": "node", "id": 8748534307, "lat": -33.7456342, "lon": 150.6918182}, {"type": "node", "id": 8748534308, "lat": -33.7455672, "lon": 150.6918386}, {"type": "node", "id": 8748534309, "lat": -33.7455631, "lon": 150.6918189}, {"type": "node", "id": 8748534310, "lat": -33.7455294, "lon": 150.6918291}, {"type": "node", "id": 8838437697, "lat": -33.7199469, "lon": 150.8409835, "tags": {"amenity": "cafe", "name": "The Baristas' Shed"}}, {"type": "node", "id": 8909270076, "lat": -33.746515, "lon": 150.7414635, "tags": {"addr:housenumber": "11", "addr:postcode": "2747", "addr:state": "NSW", "addr:street": "Dunheved Road", "addr:suburb": "Werrington County", "addr:unit": "Shop 6", "amenity": "cafe", "cuisine": "cafe;fast_food", "internet_access": "no", "name": "County Cafe and Takeaway", "opening_hours": "Mo-Th 09:30-19:30; Fr 09:30-20:00; Sa 09:30-19:30; Su 10:00-15:00", "opening_hours:covid19": "same", "outdoor_seating": "yes", "phone": "+61 2 9833 7722"}}, {"type": "node", "id": 9259000106, "lat": -33.7457747, "lon": 150.62142, "tags": {"amenity": "cafe", "name": "Euphoric Coffee"}}, {"type": "node", "id": 9259022023, "lat": -33.7460994, "lon": 150.6225385, "tags": {"amenity": "cafe", "brand": "Pie Face", "brand:wikidata": "Q18166370", "brand:wikipedia": "en:Pie Face", "cuisine": "coffee_shop", "name": "Pie Face", "takeaway": "yes"}}, {"type": "node", "id": 9318680832, "lat": -33.7574376, "lon": 150.6925454, "tags": {"amenity": "cafe", "name": "Hot Lips Cafe"}}, {"type": "node", "id": 9318680833, "lat": -33.7574671, "lon": 150.6925052, "tags": {"amenity": "cafe", "cuisine": "bubble_tea", "name": "The Little Cha"}}, {"type": "node", "id": 9351509097, "lat": -33.7506256, "lon": 150.6909468, "tags": {"amenity": "cafe", "email": "customercare@cafelelunar.com.au", "name": "Cafe LeLunar", "website": "https://www.cafelelunar.com/"}}, {"type": "node", "id": 9351509107, "lat": -33.7509622, "lon": 150.6907885, "tags": {"amenity": "cafe", "name": "Heritage Terrace Cafe"}}, {"type": "node", "id": 9354608735, "lat": -33.7527051, "lon": 150.6939984, "tags": {"amenity": "cafe", "name": "The Brew Lab Cafe"}}, {"type": "node", "id": 9354608736, "lat": -33.7527349, "lon": 150.6941581, "tags": {"amenity": "cafe", "name": "Natural Choice Cafe"}}, {"type": "node", "id": 9364661961, "lat": -33.7660858, "lon": 150.7739635, "tags": {"amenity": "cafe", "name": "Cassandra's on the Park"}}, {"type": "node", "id": 9365266936, "lat": -33.7642235, "lon": 150.7746459, "tags": {"amenity": "cafe", "name": "Sip 'N' Dip"}}, {"type": "node", "id": 9387254864, "lat": -33.7552322, "lon": 150.6932141, "tags": {"amenity": "cafe"}}, {"type": "node", "id": 9491471841, "lat": -33.7202024, "lon": 150.7101344, "tags": {"addr:unit": "8", "amenity": "cafe", "branch": "Cranebrook", "name": "Leaf Caf\u00e9", "opening_hours": "Mo-Fr 07:00-15:00; Sa,Su 07:30-15:00", "phone": "+61 452 630 285", "website": "https://www.leafcafe.com.au/our-stores/cranebrook/", "wheelchair": "yes"}}, {"type": "node", "id": 9491813159, "lat": -33.7436031, "lon": 150.8090575, "tags": {"addr:housenumber": "40", "addr:street": "Jersey Road", "addr:unit": "6", "amenity": "cafe", "cuisine": "bubble_tea", "name": "My Modern Tea", "phone": "+61 2 9835 3253", "website": "http://www.mymodern.com.au/"}}, {"type": "node", "id": 9491813164, "lat": -33.7436163, "lon": 150.8093792, "tags": {"addr:housenumber": "40", "addr:street": "Jersey Road", "addr:unit": "1", "amenity": "cafe", "name": "Leaf Caf\u00e9", "phone": "+61 2 8632 3408", "website": "https://www.leafcafe.com.au/our-stores/emerton/"}}, {"type": "node", "id": 9492200618, "lat": -33.7455165, "lon": 150.835599, "tags": {"amenity": "cafe", "brand": "Gong Cha", "brand:wikidata": "Q5581670", "brand:wikipedia": "en:Gong Cha", "brand:zh": "\u8ca2\u8336", "cuisine": "bubble_tea", "int_name": "Gong Cha", "name": "Gong Cha", "name:zh": "\u8ca2\u8336", "takeaway": "yes"}}, {"type": "node", "id": 9572594364, "lat": -33.7644539, "lon": 150.6828737, "tags": {"addr:housenumber": "72-82", "addr:postcode": "2750", "addr:state": "NSW", "addr:street": "Mulgoa Road", "addr:suburb": "Jamisontown", "amenity": "cafe", "name": "Three Sugars Cafe", "opening_hours": "Mo-Sa 08:30-16:00; Su 09:30-16:00"}}, {"type": "node", "id": 9574230392, "lat": -33.7661268, "lon": 150.9026369, "tags": {"amenity": "cafe", "name": "The Grounds Keeper", "opening_hours": "Mo-Fr 09:00-15:00; Sa-Su 08:00-16:00", "outdoor_seating": "yes", "website": "https://www.groundskeepercafe.com.au/", "wheelchair": "yes"}}, {"type": "node", "id": 9589195253, "lat": -33.7258375, "lon": 150.9764903, "tags": {"amenity": "cafe", "facebook": "https://www.facebook.com/harvestbowlaus", "name": "Harvest Bowl", "opening_hours": "Mo-Su 08:00-16:00", "phone": "+61 2 8787 7951", "website": "https://www.harvestbowl.com.au/"}}, {"type": "node", "id": 9619978486, "lat": -33.766412, "lon": 150.8271778, "tags": {"amenity": "cafe", "brand": "Gloria Jean's", "brand:wikidata": "Q2666365", "brand:wikipedia": "en:Gloria Jean's Coffees", "cuisine": "coffee_shop", "name": "Gloria Jean's", "official_name": "Gloria Jean's Coffees", "takeaway": "yes"}}, {"type": "node", "id": 9689096274, "lat": -33.7469672, "lon": 150.6787837, "tags": {"amenity": "cafe", "name": "Laughin' Boy Cafe", "outdoor_seating": "yes"}}, {"type": "node", "id": 9860469373, "lat": -33.6425637, "lon": 150.7357391, "tags": {"amenity": "cafe", "name": "Kate's Cafe"}}, {"type": "node", "id": 10090068341, "lat": -33.7578455, "lon": 150.7121264, "tags": {"addr:housenumber": "84-88", "addr:postcode": "2747", "addr:street": "Parker Street", "amenity": "cafe", "cuisine": "breakfast;cake;coffee_shop", "name:en": "The T-Spoon Cafe", "opening_hours": "Mo-Su 07:00-05:00", "website": "http://www.thetspooncafe.com.au"}}, {"type": "node", "id": 10250134541, "lat": -33.7545514, "lon": 150.7051387, "tags": {"amenity": "cafe", "name": "exclusive car and cafe"}}, {"type": "node", "id": 10251607741, "lat": -33.690663, "lon": 150.9259086, "tags": {"amenity": "cafe", "name": "Moss Bros Dessert & Brunch Cafe"}}, {"type": "node", "id": 10251607742, "lat": -33.6905366, "lon": 150.9257881, "tags": {"amenity": "cafe", "brand": "The Coffee Club", "brand:wikidata": "Q7726599", "cuisine": "coffee_shop", "name": "The Coffee Club", "takeaway": "yes"}}, {"type": "node", "id": 10251749416, "lat": -33.690503, "lon": 150.9262078, "tags": {"amenity": "cafe", "name": "Caf\u00e9 L\u00e9lunar"}}, {"type": "node", "id": 10252926564, "lat": -33.6903253, "lon": 150.9256075, "tags": {"amenity": "cafe", "brand": "Boost Juice", "brand:wikidata": "Q4943789", "cuisine": "juice", "name": "Boost Juice", "takeaway": "yes"}}, {"type": "node", "id": 10252926575, "lat": -33.6896093, "lon": 150.9266833, "tags": {"amenity": "cafe", "name": "Caffe Cherry Beans"}}, {"type": "node", "id": 10253960717, "lat": -33.7056268, "lon": 150.9113577, "tags": {"addr:housenumber": "8", "addr:street": "Riverbank Drive", "addr:unit": "Shop", "amenity": "cafe", "name": "Oliver Brown Belgian Chocolate Cafe"}}, {"type": "node", "id": 10253960720, "lat": -33.7058203, "lon": 150.9112711, "tags": {"addr:unit": "Shop 4", "amenity": "cafe", "name": "Just Cakes"}}, {"type": "node", "id": 10253960726, "lat": -33.7057103, "lon": 150.9116454, "tags": {"addr:unit": "Shop 12", "amenity": "cafe", "name": "Leaf Cafe"}}, {"type": "node", "id": 10254148494, "lat": -33.7003289, "lon": 150.9275824, "tags": {"amenity": "cafe", "name": "The Borrowed Table"}}, {"type": "node", "id": 10254148495, "lat": -33.7004971, "lon": 150.9270766, "tags": {"amenity": "cafe", "name": "Hills Cake & Coffee"}}, {"type": "node", "id": 10585963101, "lat": -33.598293, "lon": 150.7464488, "tags": {"addr:housenumber": "137", "addr:street": "Lennox Street", "addr:suburb": "Richmond", "amenity": "cafe", "name": "Lennox Street Social", "opening_hours": "Mo-Fr 07:00-12:45; Sa-Su 07:30-13:00", "outdoor_seating": "yes"}}, {"type": "node", "id": 10586312875, "lat": -33.5966441, "lon": 150.7501911, "tags": {"amenity": "cafe", "name": "Bank Bazaar and Bank Bar & Caf\u00e9"}}, {"type": "node", "id": 10586312942, "lat": -33.5958296, "lon": 150.7484887, "tags": {"amenity": "cafe", "name": "CRAZIES cafe"}}, {"type": "node", "id": 10586317861, "lat": -33.5966441, "lon": 150.7501911, "tags": {"amenity": "cafe", "name": "Bank Bazaar and Bank Bar & Caf\u00e9"}}, {"type": "node", "id": 10586317928, "lat": -33.5958296, "lon": 150.7484887, "tags": {"amenity": "cafe", "name": "CRAZIES cafe"}}, {"type": "node", "id": 10587982186, "lat": -33.5967998, "lon": 150.7511991, "tags": {"amenity": "cafe", "name": "The Second Home Cafe"}}, {"type": "node", "id": 10587986806, "lat": -33.5970671, "lon": 150.7517878, "tags": {"amenity": "cafe", "name": "Liva's Cafe & Restaurant"}}, {"type": "node", "id": 10587986876, "lat": -33.5967582, "lon": 150.7510945, "tags": {"amenity": "cafe", "name": "Ugly Mug Coffee House"}}, {"type": "node", "id": 10587986877, "lat": -33.5966347, "lon": 150.7508891, "tags": {"amenity": "cafe", "name": "Da-Wish Food Station"}}, {"type": "node", "id": 10588123479, "lat": -33.598229, "lon": 150.7527542, "tags": {"amenity": "cafe", "name": "The Rail Cafe"}}, {"type": "node", "id": 10590373689, "lat": -33.605088, "lon": 150.8227865, "tags": {"amenity": "cafe", "name": "Crepe Escape"}}, {"type": "node", "id": 10590373690, "lat": -33.6051722, "lon": 150.8226568, "tags": {"amenity": "cafe", "name": "NaNa\u2019s Cafe"}}, {"type": "node", "id": 10591053656, "lat": -33.6051202, "lon": 150.8232058, "tags": {"amenity": "cafe", "name": "The Bridge Cafe"}}, {"type": "node", "id": 10591064156, "lat": -33.6064999, "lon": 150.8232724, "tags": {"amenity": "cafe", "name": "Pit-Stop Cafe"}}, {"type": "node", "id": 10591064211, "lat": -33.6057103, "lon": 150.8223497, "tags": {"amenity": "cafe", "name": "The Second Home Cafe"}}, {"type": "node", "id": 10591095263, "lat": -33.6056795, "lon": 150.8219145, "tags": {"amenity": "cafe", "name": "Delicious Desserts"}}, {"type": "node", "id": 10591343299, "lat": -33.6067575, "lon": 150.8207961, "tags": {"amenity": "cafe", "name": "The Cake Gallery"}}, {"type": "node", "id": 10592541978, "lat": -33.6081446, "lon": 150.8187447, "tags": {"amenity": "cafe", "name": "George St Loft"}}, {"type": "node", "id": 10593128668, "lat": -33.6071919, "lon": 150.8201037, "tags": {"amenity": "cafe", "name": "Cassiopeia Coffee"}}, {"type": "node", "id": 10747005505, "lat": -33.7304982, "lon": 150.705944, "tags": {"amenity": "cafe", "name": "Baby Doll Bakery"}}, {"type": "node", "id": 10776699305, "lat": -33.7614056, "lon": 150.7154883, "tags": {"amenity": "cafe", "name": "Somerset Eatery"}}, {"type": "node", "id": 10785546305, "lat": -33.7491299, "lon": 150.697114, "tags": {"amenity": "cafe", "name": "Mad Toppings"}}, {"type": "way", "id": 177081891, "nodes": [1875564101, 1875564096, 1875564098, 1875564019, 7215870545, 7215870546, 1875564034, 1875564101], "tags": {"amenity": "cafe", "building": "yes"}}, {"type": "way", "id": 177081904, "nodes": [1875564020, 1875564038, 1875563998, 1875564117, 1875564020], "tags": {"amenity": "cafe", "building": "yes"}}, {"type": "way", "id": 321554513, "nodes": [3283150194, 3283150201, 3283150202, 3283150197, 3283150192, 3283150194], "tags": {"amenity": "cafe", "building": "yes", "name": "Heritage Valley Cafe", "source": "bing", "website": "https://www.facebook.com/HeritageValleyCafe/"}}, {"type": "way", "id": 321554514, "nodes": [3283142628, 3283142630, 5666335626, 3283142631, 5666335654, 3283142629, 3283142628], "tags": {"addr:housenumber": "5602", "addr:street": "Old Northern Road", "amenity": "cafe", "building": "yes", "name": "Convict Road Kiosk", "opening_hours": "Mo-Fr 10:00-15:00; Sa, Su 11:00-17:00", "source": "survey", "source:geometry": "NSW LPI Imagery"}}, {"type": "way", "id": 397050075, "nodes": [3998772843, 3998772844, 3998772845, 3998772846, 3998772847, 3998772848, 3998772849, 3998772850, 3998772843], "tags": {"amenity": "cafe", "building": "yes", "name": "Long's Cottage", "source": "Upper Castlereagh Group\u2014Conservation Management Plan, Penrith Lakes Webpage, Muru Mittigar Web Page"}}, {"type": "way", "id": 581264836, "nodes": [5562104551, 5562104552, 5562104553, 5562104554, 5562104555, 5562104556, 5562104551], "tags": {"amenity": "cafe", "brand": "Starbucks", "brand:wikidata": "Q37158", "brand:wikipedia": "en:Starbucks", "building": "retail", "building:levels": "1", "cuisine": "coffee_shop", "name": "Starbucks", "official_name": "Starbucks Coffee", "opening_hours": "Mo-Th 05:30-23:00; Fr 05:30-23:30; Sa 06:00-23:30; Su 07:00-23:00", "operator": "Starbucks Coffee Australia Pty. Ltd", "takeaway": "yes"}}, {"type": "way", "id": 653289133, "nodes": [6122570626, 6122570627, 6122570628, 6122570629, 6122570626], "tags": {"amenity": "cafe", "brand": "Starbucks", "brand:wikidata": "Q37158", "brand:wikipedia": "en:Starbucks", "building": "yes", "cuisine": "coffee_shop", "name": "Starbucks", "official_name": "Starbucks Coffee", "takeaway": "yes"}}, {"type": "way", "id": 944981617, "nodes": [8748534305, 8748534306, 8748534307, 8748534308, 8748534309, 8748534310, 8748534305], "tags": {"amenity": "cafe", "brand": "Starbucks", "brand:wikidata": "Q37158", "brand:wikipedia": "en:Starbucks", "building": "yes", "cuisine": "coffee_shop", "name": "Starbucks", "official_name": "Starbucks Coffee", "takeaway": "yes"}}]}