{"version": 0.6, "generator": "Overpass API 0.7.60 f4c14d41", "osm3s": {"timestamp_osm_base": "2023-05-02T21:22:25Z", "copyright": "The data included in this document is from www.openstreetmap.org. The data is made available under ODbL."}, "elements": [{"type": "node", "id": 795613946, "lat": 40.9887304, "lon": 28.8368394, "tags": {"amenity": "police"}}, {"type": "node", "id": 835972984, "lat": 41.0383197, "lon": 28.6789888, "tags": {"amenity": "police", "name": "Esenyurt \u0130l\u00e7e Polis Karakolu", "name:ar": "\u0645\u0631\u0643\u0632 \u0634\u0631\u0637\u0629 \u0627\u0633\u0646\u064a\u0648\u0631\u062a"}}, {"type": "node", "id": 899180673, "lat": 41.0175886, "lon": 28.9296946, "tags": {"amenity": "police", "name": "\u015eehremini Polis Merkezi", "name:ar": "\u0645\u0631\u0643\u0632 \u0628\u0648\u0644\u064a\u0633 \u0634\u0647\u0631\u064a\u0645\u064a\u0646\u064a"}}, {"type": "node", "id": 976953148, "lat": 40.9934728, "lon": 28.8315299, "tags": {"amenity": "police", "name": "Adli T\u0131p Kurumu", "name:ar": "\u0645\u0631\u0643\u0632 \u0627\u0644\u0637\u0628 \u0627\u0644\u0639\u062f\u0644\u064a", "operator": "T.C. Adalet Bakanl\u0131\u011f\u0131 Adli T\u0131p Kurumu Ba\u015fkanl\u0131\u011f\u0131"}}, {"type": "node", "id": 1000041993, "lat": 41.0409179, "lon": 28.9402271, "tags": {"amenity": "police"}}, {"type": "node", "id": 1025950001, "lat": 41.0126333, "lon": 28.8476928, "tags": {"amenity": "police", "name": "Kocasinan Polis Merkezi", "name:ar": "\u0645\u0631\u0643\u0632 \u0628\u0648\u0644\u064a\u0633 \u0643\u0648\u062c\u0627\u0633\u064a\u0646\u0627\u0646"}}, {"type": "node", "id": 1217323225, "lat": 41.0327483, "lon": 28.9112899, "tags": {"amenity": "police", "name": "\u00c7evik Kuvvet \u015eube M\u00fcd\u00fcrl\u00fc\u011f\u00fc"}}, {"type": "node", "id": 1407273032, "lat": 41.007165, "lon": 28.7996918, "tags": {"amenity": "police"}}, {"type": "node", "id": 2361021997, "lat": 41.0360205, "lon": 28.8231152}, {"type": "node", "id": 2361022004, "lat": 41.0357218, "lon": 28.8230727}, {"type": "node", "id": 2361022005, "lat": 41.0356841, "lon": 28.8235383}, {"type": "node", "id": 2361022006, "lat": 41.0359829, "lon": 28.8235808}, {"type": "node", "id": 2856474663, "lat": 40.9823002, "lon": 28.6582906}, {"type": "node", "id": 2856474664, "lat": 40.982144, "lon": 28.6582767}, {"type": "node", "id": 2856474665, "lat": 40.982129, "lon": 28.6585731}, {"type": "node", "id": 2856474666, "lat": 40.9822852, "lon": 28.658587}, {"type": "node", "id": 3119989870, "lat": 41.0030388, "lon": 28.864781}, {"type": "node", "id": 3119989872, "lat": 41.0029414, "lon": 28.864589}, {"type": "node", "id": 3119989878, "lat": 41.0028637, "lon": 28.8646583}, {"type": "node", "id": 3119989879, "lat": 41.0029611, "lon": 28.8648502}, {"type": "node", "id": 3128898836, "lat": 41.0177246, "lon": 28.8761232, "tags": {"amenity": "police", "name": "G\u00fcng\u00f6ren \u0130l\u00e7e Emniyet M\u00fcd\u00fcrl\u00fc\u011f\u00fc"}}, {"type": "node", "id": 3498778662, "lat": 41.0131253, "lon": 28.9567417}, {"type": "node", "id": 3498778663, "lat": 41.0130385, "lon": 28.9569456}, {"type": "node", "id": 3498778664, "lat": 41.0131393, "lon": 28.9570347}, {"type": "node", "id": 3498778665, "lat": 41.0131639, "lon": 28.9569717}, {"type": "node", "id": 3498778666, "lat": 41.0131665, "lon": 28.9568886}, {"type": "node", "id": 3498778667, "lat": 41.0131608, "lon": 28.9568492}, {"type": "node", "id": 3498778668, "lat": 41.0131463, "lon": 28.9567943}, {"type": "node", "id": 3499094106, "lat": 41.0220121, "lon": 28.945398}, {"type": "node", "id": 3499094107, "lat": 41.0220765, "lon": 28.9455087}, {"type": "node", "id": 3499094108, "lat": 41.022134, "lon": 28.9454499}, {"type": "node", "id": 3499094109, "lat": 41.0220696, "lon": 28.9453392}, {"type": "node", "id": 3499136685, "lat": 41.0131689, "lon": 28.9569255, "tags": {"amenity": "police", "wheelchair": "no"}}, {"type": "node", "id": 4111206577, "lat": 41.0111958, "lon": 28.7855958}, {"type": "node", "id": 4111206578, "lat": 41.0113753, "lon": 28.7860908}, {"type": "node", "id": 4508276879, "lat": 41.0128326, "lon": 28.5417577}, {"type": "node", "id": 4508276880, "lat": 41.0123806, "lon": 28.5419659}, {"type": "node", "id": 4508276882, "lat": 41.0129393, "lon": 28.5421645}, {"type": "node", "id": 4552349355, "lat": 41.0124872, "lon": 28.5423726}, {"type": "node", "id": 4603522879, "lat": 40.981111, "lon": 28.8800882}, {"type": "node", "id": 4603522880, "lat": 40.9810111, "lon": 28.8801172}, {"type": "node", "id": 4603522881, "lat": 40.9810478, "lon": 28.8803387}, {"type": "node", "id": 4603522882, "lat": 40.9811477, "lon": 28.8803096}, {"type": "node", "id": 4615859788, "lat": 40.9804142, "lon": 28.8621914}, {"type": "node", "id": 4615859789, "lat": 40.9803503, "lon": 28.8621849}, {"type": "node", "id": 4615859790, "lat": 40.9803413, "lon": 28.8623403}, {"type": "node", "id": 4615859791, "lat": 40.9804052, "lon": 28.8623468}, {"type": "node", "id": 4704338091, "lat": 40.9566072, "lon": 28.8309306, "tags": {"addr:housenumber": "5", "addr:postcode": "34149", "addr:street": "Mehmet Akif Ersoy", "amenity": "police", "name": "Ye\u015filk\u00f6y Polis Karakolu", "name:tr": "Ye\u015filk\u00f6y Polis Karakolu", "opening_hours": "24/7", "phone": "+902126632525"}}, {"type": "node", "id": 4719094313, "lat": 41.0299021, "lon": 28.5539913}, {"type": "node", "id": 4719094314, "lat": 41.0297756, "lon": 28.5540491}, {"type": "node", "id": 4976726865, "lat": 40.981094, "lon": 28.7938048}, {"type": "node", "id": 4976726866, "lat": 40.980969, "lon": 28.7937843}, {"type": "node", "id": 4976726867, "lat": 40.9809538, "lon": 28.793947}, {"type": "node", "id": 4976726868, "lat": 40.9810789, "lon": 28.7939675}, {"type": "node", "id": 5076115925, "lat": 40.9936519, "lon": 28.9241552, "tags": {"addr:city": "Istanbul", "addr:district": "Fatih", "addr:street": "Yedikule meydani sokagi", "amenity": "police", "name": "Yedikule Ilce Emniyet Mudurlugu Asayis Buro Amirlig", "name:ar": "\u0645\u0631\u0643\u0632 \u0634\u0631\u0637\u0629 \u064a\u062f\u064a \u0643\u0648\u0644\u064a", "phone": "02125308166"}}, {"type": "node", "id": 5078846503, "lat": 41.0192929, "lon": 28.9381273}, {"type": "node", "id": 5078846504, "lat": 41.0193457, "lon": 28.9381631}, {"type": "node", "id": 5078846505, "lat": 41.0192817, "lon": 28.9381562}, {"type": "node", "id": 5078846506, "lat": 41.0193345, "lon": 28.938192}, {"type": "node", "id": 5078846507, "lat": 41.0195547, "lon": 28.9376317}, {"type": "node", "id": 5078846508, "lat": 41.0194991, "lon": 28.937594}, {"type": "node", "id": 5078846509, "lat": 41.0195679, "lon": 28.9375975}, {"type": "node", "id": 5078846510, "lat": 41.0195123, "lon": 28.9375598}, {"type": "node", "id": 5078846511, "lat": 41.0196188, "lon": 28.9376319}, {"type": "node", "id": 5078846512, "lat": 41.0194623, "lon": 28.9375259}, {"type": "node", "id": 5078846513, "lat": 41.0194348, "lon": 28.9375972}, {"type": "node", "id": 5078846514, "lat": 41.0195913, "lon": 28.9377032}, {"type": "node", "id": 5078846515, "lat": 41.0194064, "lon": 28.9381738}, {"type": "node", "id": 5078846516, "lat": 41.0194259, "lon": 28.938187}, {"type": "node", "id": 5078846517, "lat": 41.0192312, "lon": 28.938122}, {"type": "node", "id": 5078846518, "lat": 41.0192522, "lon": 28.9380676}, {"type": "node", "id": 5078846519, "lat": 41.0194107, "lon": 28.9375808}, {"type": "node", "id": 5078846520, "lat": 41.0192289, "lon": 28.9380518}, {"type": "node", "id": 5078846621, "lat": 41.0193859, "lon": 28.9382268}, {"type": "node", "id": 5078846622, "lat": 41.0196082, "lon": 28.9377147}, {"type": "node", "id": 5081445065, "lat": 41.0262749, "lon": 28.9585734, "tags": {"addr:city": "Istanbul", "addr:district": "Fatih", "addr:street": "Abd\u00fclezelpa\u015fa Caddesi", "amenity": "police", "name": "Cibali Karakolu", "name:ar": "\u0645\u062e\u0641\u0631 \u062c\u064a\u0628\u0627\u0644\u064a", "operator": "Govermental"}}, {"type": "node", "id": 5088869111, "lat": 41.0449945, "lon": 28.8945685}, {"type": "node", "id": 5088869112, "lat": 41.0448532, "lon": 28.8945456}, {"type": "node", "id": 5088869113, "lat": 41.0448466, "lon": 28.8946221}, {"type": "node", "id": 5088869114, "lat": 41.0447545, "lon": 28.8946086}, {"type": "node", "id": 5088869115, "lat": 41.0447523, "lon": 28.8946892}, {"type": "node", "id": 5088869116, "lat": 41.0447788, "lon": 28.8947266}, {"type": "node", "id": 5088869117, "lat": 41.0448209, "lon": 28.8947491}, {"type": "node", "id": 5088869118, "lat": 41.0448232, "lon": 28.8947733}, {"type": "node", "id": 5088869119, "lat": 41.044836, "lon": 28.8947916}, {"type": "node", "id": 5088869120, "lat": 41.044851, "lon": 28.8948024}, {"type": "node", "id": 5088869821, "lat": 41.0448717, "lon": 28.8948083}, {"type": "node", "id": 5088869822, "lat": 41.0449029, "lon": 28.8948042}, {"type": "node", "id": 5088869823, "lat": 41.0449392, "lon": 28.8947886}, {"type": "node", "id": 5088869824, "lat": 41.0449729, "lon": 28.8947253}, {"type": "node", "id": 5088869826, "lat": 41.0449585, "lon": 28.8947623}, {"type": "node", "id": 5088869827, "lat": 41.044915, "lon": 28.8948016}, {"type": "node", "id": 5088869828, "lat": 41.0448874, "lon": 28.8948071}, {"type": "node", "id": 5103395912, "lat": 41.0130626, "lon": 28.956889}, {"type": "node", "id": 5112732260, "lat": 41.010515, "lon": 28.9620415, "tags": {"addr:city": "Istanbul", "addr:district": "Fatih", "addr:street": "Dar\u00fclf\u00fcnun Caddesi", "amenity": "police", "name": "Beyaz\u0131t Polis Merkezi", "name:ar": "\u0645\u0631\u0643\u0632 \u0634\u0631\u0637\u0629 \u0628\u064a\u0627\u0632\u064a\u062f"}}, {"type": "node", "id": 5112732261, "lat": 41.0104333, "lon": 28.9620445, "tags": {"addr:city": "Istanbul", "addr:district": "Fatih", "addr:street": "Dar\u00fclf\u00fcnun Caddesi", "amenity": "police", "name": "Beyaz\u0131t Polis Merkezi Amirli\u011fi", "name:ar": "\u0642\u064a\u0627\u062f\u0629 \u0645\u0631\u0643\u0632 \u0634\u0631\u0637\u0629 \u0628\u064a\u0627\u0632\u064a\u062f"}}, {"type": "node", "id": 5112833317, "lat": 41.0077521, "lon": 28.9532399, "tags": {"addr:city": "Istanbul", "addr:district": "Fatih", "addr:street": "Gazi kemalpa\u015fa caddesi", "amenity": "police", "name": "Aksaray polis merkezi", "name:ar": "\u0645\u0631\u0643\u0632 \u0634\u0631\u0637\u0629 \u0623\u0643\u0633\u0631\u0627\u064a"}}, {"type": "node", "id": 5113486737, "lat": 41.0287782, "lon": 28.9343913, "tags": {"addr:city": "Istanbul", "addr:district": "Fatih", "addr:street": "Kaleboyu caddesi", "amenity": "police", "name": "Fatih il\u00e7e emniyet m\u00fcd\u00fcrl\u00fc\u011f\u00fc \u00e7ocuk polisi", "name:ar": "\u0641\u0627\u062a\u062d \u0627\u0644\u062c\u064a \u0627\u0645\u0646\u064a\u0627\u062a \u0645\u0648\u062f\u0648\u0631\u0644\u0648\u063a\u0648 \u062c\u0648\u062c\u0643 \u0628\u0648\u0644\u064a\u0633\u064a"}}, {"type": "node", "id": 5113500733, "lat": 41.0221636, "lon": 28.9452978, "tags": {"addr:city": "Istanbul", "addr:district": "Turkey", "addr:street": "Fevzi pa\u015fa caddesi", "amenity": "police", "military": "Office", "name": "Fatih ilce emniyet m\u00fcd\u00fcrl\u00fc\u011f\u00fc polis merkezi", "name:ar": "\u0645\u0631\u0643\u0632 \u0634\u0631\u0637\u0629 \u0641\u0627\u062a\u062d"}}, {"type": "node", "id": 5115939256, "lat": 41.0094981, "lon": 28.9343486, "tags": {"addr:city": "Istanbul", "addr:district": "Fatih", "addr:street": "Cevdetpa\u015fa Caddesi", "amenity": "police", "name": "Zab\u0131ta M\u00fcd\u00fcrl\u00fc\u011f\u00fc A B\u00f6lgesi Ekipler Amirli\u011fi", "name:ar": "\u0625\u062f\u0627\u0631\u0629 \u0627\u0644\u0634\u0631\u0637\u0629 \u0648\u0647\u064a\u0626\u0629 \u0631\u0626\u0627\u0633\u0629 \u0627\u0644\u0645\u0646\u0637\u0642\u0629"}}, {"type": "node", "id": 5197966621, "lat": 40.9912986, "lon": 28.6138629, "tags": {"amenity": "police"}}, {"type": "node", "id": 5283668039, "lat": 41.0326217, "lon": 28.9097141}, {"type": "node", "id": 5283668040, "lat": 41.0323439, "lon": 28.9102448}, {"type": "node", "id": 5283668041, "lat": 41.0322956, "lon": 28.9102004}, {"type": "node", "id": 5283668042, "lat": 41.0322468, "lon": 28.9102935}, {"type": "node", "id": 5283668043, "lat": 41.0322898, "lon": 28.9103331}, {"type": "node", "id": 5283668044, "lat": 41.0320646, "lon": 28.9107626}, {"type": "node", "id": 5283668045, "lat": 41.0334521, "lon": 28.9120408}, {"type": "node", "id": 5283668046, "lat": 41.0336364, "lon": 28.9116892}, {"type": "node", "id": 5283668047, "lat": 41.0336759, "lon": 28.9117256}, {"type": "node", "id": 5283668048, "lat": 41.0337275, "lon": 28.9116272}, {"type": "node", "id": 5283668049, "lat": 41.0336879, "lon": 28.9115908}, {"type": "node", "id": 5283668050, "lat": 41.0340048, "lon": 28.9109861}, {"type": "node", "id": 5283668051, "lat": 41.0339166, "lon": 28.9109049}, {"type": "node", "id": 5283668052, "lat": 41.0339441, "lon": 28.9108525}, {"type": "node", "id": 5283668053, "lat": 41.0339083, "lon": 28.9108195}, {"type": "node", "id": 5283668054, "lat": 41.0338832, "lon": 28.9108674}, {"type": "node", "id": 5283668055, "lat": 41.0327639, "lon": 28.9098382}, {"type": "node", "id": 5283668056, "lat": 41.0327957, "lon": 28.9097775}, {"type": "node", "id": 5283668057, "lat": 41.0327295, "lon": 28.9097166}, {"type": "node", "id": 5283668058, "lat": 41.0326954, "lon": 28.9097818}, {"type": "node", "id": 5283668059, "lat": 41.0326532, "lon": 28.9099389}, {"type": "node", "id": 5283668060, "lat": 41.0322278, "lon": 28.9107431}, {"type": "node", "id": 5283668061, "lat": 41.0334108, "lon": 28.9118153}, {"type": "node", "id": 5283668062, "lat": 41.0338338, "lon": 28.9110142}, {"type": "node", "id": 5297919192, "lat": 40.9941037, "lon": 28.9058128}, {"type": "node", "id": 5297919193, "lat": 40.994056, "lon": 28.9061614}, {"type": "node", "id": 5297919194, "lat": 40.9938899, "lon": 28.9060839}, {"type": "node", "id": 5297919195, "lat": 40.9939525, "lon": 28.9057765}, {"type": "node", "id": 5456197484, "lat": 41.0126084, "lon": 28.9026287}, {"type": "node", "id": 5456197485, "lat": 41.0124789, "lon": 28.9027172}, {"type": "node", "id": 5456197486, "lat": 41.0120194, "lon": 28.9024731}, {"type": "node", "id": 5456197487, "lat": 41.0122158, "lon": 28.9018509}, {"type": "node", "id": 5456197488, "lat": 41.0127582, "lon": 28.902154}, {"type": "node", "id": 5477419997, "lat": 41.038923, "lon": 28.9551598}, {"type": "node", "id": 5477419998, "lat": 41.0388441, "lon": 28.9550847}, {"type": "node", "id": 5477419999, "lat": 41.0387429, "lon": 28.9552322}, {"type": "node", "id": 5477420000, "lat": 41.0388279, "lon": 28.9553073}, {"type": "node", "id": 5509611717, "lat": 40.9940295, "lon": 28.9061483}, {"type": "node", "id": 5562056071, "lat": 40.9818186, "lon": 28.8737458}, {"type": "node", "id": 5562056072, "lat": 40.9816308, "lon": 28.8738096}, {"type": "node", "id": 5562056073, "lat": 40.9817103, "lon": 28.8742019}, {"type": "node", "id": 5562056074, "lat": 40.9818836, "lon": 28.8741318}, {"type": "node", "id": 5667640738, "lat": 41.0060243, "lon": 28.9001658, "tags": {"addr:city": "Istanbul", "addr:district": "Zeytinburnu", "addr:street": "Demirciler sitesi Cd", "amenity": "police", "military": "office", "name": "Trafik Denetleme Ekipler amirli\u011fi", "name:ar": "\u0634\u0631\u0637\u0629 \u0645\u0631\u0648\u0631"}}, {"type": "node", "id": 5667661788, "lat": 40.9907839, "lon": 28.9140133, "tags": {"addr:city": "Istanbul", "addr:district": "Zeytinburnu", "amenity": "police", "name": "G\u00fcven Timleri Zeytinburnu Devriye Ekip Amirli\u011fi", "name:ar": "\u0645\u0628\u0646\u0649 \u0623\u0645\u0646 \u0648\u0627\u062f\u0627\u0631\u0629 \u0641\u0631\u0642 \u0627\u0644\u062f\u0648\u0631\u064a\u0627\u062a"}}, {"type": "node", "id": 5667662158, "lat": 40.9940608, "lon": 28.9060861, "tags": {"addr:city": "Istanbul", "addr:district": "Zeytinburnu", "addr:street": "pro. Muammer Aksoy Cd", "amenity": "police", "name": "\u015eehit B\u00fclent \u00dcst\u00fcn Polis Merkezi Amirli\u011fi", "name:ar": "\u0645\u0631\u0643\u0632 \u0634\u0631\u0637\u0629 \u0627\u0644\u0634\u0647\u064a\u062f \u0628\u0648\u0644\u0646\u062a"}}, {"type": "node", "id": 5667702758, "lat": 41.0438535, "lon": 28.8455057, "tags": {"addr:city": "Istanbul", "addr:district": "Ba\u011fc\u0131lar", "addr:street": "Birlik caddesi", "amenity": "police", "name": "100. Y\u0131l Kemalpa\u015fa Polis Merkezi", "name:ar": "\u0645\u0631\u0643\u0632 \u064a\u0648\u0632\u0648\u0646\u062c\u0648 \u064a\u0644 \u0643\u0645\u0627\u0644 \u0628\u0627\u0634\u0627 \u0644\u0644\u0634\u0631\u0637\u0647"}}, {"type": "node", "id": 5667727316, "lat": 41.0348785, "lon": 28.8596693, "tags": {"addr:city": "Istanbul", "addr:district": "Ba\u011fc\u0131lar", "addr:street": "861 hsokak", "amenity": "police", "name": "Ba\u011fc\u0131lar \u0130l\u00e7e Emniyet M\u00fcd\u00fcrl\u00fc\u011f\u00fc", "name:ar": "\u0627\u0645\u0646\u064a\u0627\u062a \u0628\u0627\u063a\u062c\u0644\u0627\u0631"}}, {"type": "node", "id": 6752791264, "lat": 41.0175876, "lon": 28.8971507, "tags": {"amenity": "police", "name": "G\u00fcng\u00f6ren \u0130l\u00e7e Emniyet M\u00fcd\u00fcrl\u00fc\u011f\u00fc Asayi\u015f B\u00fcro Amirli\u011fi", "operator": "T.C. \u0130stanbul Emniyet M\u00fcd\u00fcrl\u00fc\u011f\u00fc"}}, {"type": "node", "id": 6752791265, "lat": 41.0175876, "lon": 28.8972321, "tags": {"amenity": "police", "name": "G\u00fcng\u00f6ren \u0130l\u00e7e Emniyet M\u00fcd\u00fcrl\u00fc\u011f\u00fc \u00c7ocuk B\u00fcro Amirli\u011fi", "operator": "T.C. \u0130stanbul Emniyet M\u00fcd\u00fcrl\u00fc\u011f\u00fc"}}, {"type": "node", "id": 6753294499, "lat": 41.0199464, "lon": 28.9072266, "tags": {"amenity": "police", "name": "Merkez Efendi Polis Merkezi"}}, {"type": "node", "id": 6755667699, "lat": 41.0168975, "lon": 28.8842528}, {"type": "node", "id": 6755667700, "lat": 41.0168623, "lon": 28.8844115}, {"type": "node", "id": 6755667701, "lat": 41.016591, "lon": 28.8843742}, {"type": "node", "id": 6755667702, "lat": 41.0166438, "lon": 28.884052}, {"type": "node", "id": 6912561729, "lat": 40.9843731, "lon": 28.7213248, "tags": {"amenity": "police", "name": "AVCILAR KARAKOLU", "operator": "\u0130EM"}}, {"type": "node", "id": 7085480348, "lat": 41.0388618, "lon": 28.9549542}, {"type": "node", "id": 7086594662, "lat": 41.0388725, "lon": 28.9555885}, {"type": "node", "id": 7086594663, "lat": 41.0389919, "lon": 28.9554008}, {"type": "node", "id": 7086594664, "lat": 41.0390742, "lon": 28.9552339}, {"type": "node", "id": 7086594665, "lat": 41.0386492, "lon": 28.9552795}, {"type": "node", "id": 7477322685, "lat": 41.0165004, "lon": 28.8825812, "tags": {"addr:housenumber": "3", "addr:street": "K\u00f6knar Soka\u011f\u0131", "amenity": "police", "name": "G\u00fcng\u00f6ren \u0130l\u00e7e Emniyet M\u00fcd\u00fcrl\u00fc\u011f\u00fc", "name:en": "G\u00fcng\u00f6ren Police Center", "opening_hours": "24/7"}}, {"type": "node", "id": 8219894829, "lat": 41.0131689, "lon": 28.9569255}, {"type": "node", "id": 8704840504, "lat": 41.0466861, "lon": 28.9309869, "tags": {"amenity": "police", "name": "Ey\u00fcpsultan Polis Merkezi"}}, {"type": "node", "id": 8722917302, "lat": 41.0181689, "lon": 28.5931062, "tags": {"addr:city": "\u0130stanbul", "addr:district": "B\u00fcy\u00fck\u00e7ekmece", "addr:neighbourhood": "Fatih Mahallesi", "addr:street": "Vehbi Ko\u00e7 Caddesi", "amenity": "police", "name": "B\u00fcy\u00fck\u00e7ekmece \u0130l\u00e7e Emniyet M\u00fcd\u00fcrl\u00fc\u011f\u00fc", "operator": "Emniyet Genel M\u00fcd\u00fcrl\u00fc\u011f\u00fc"}}, {"type": "node", "id": 8852632143, "lat": 41.0500816, "lon": 28.6862504}, {"type": "node", "id": 8852632144, "lat": 41.0499881, "lon": 28.6863585}, {"type": "node", "id": 8852632145, "lat": 41.0499159, "lon": 28.6862486}, {"type": "node", "id": 8852632146, "lat": 41.0500095, "lon": 28.6861405}, {"type": "node", "id": 8852752397, "lat": 41.0546391, "lon": 28.6766028}, {"type": "node", "id": 8852752398, "lat": 41.0546455, "lon": 28.676718}, {"type": "node", "id": 8852752399, "lat": 41.0545641, "lon": 28.6767259}, {"type": "node", "id": 8852752400, "lat": 41.0545577, "lon": 28.6766107}, {"type": "node", "id": 8852753118, "lat": 41.0531966, "lon": 28.6741442}, {"type": "node", "id": 8852753119, "lat": 41.0531953, "lon": 28.6742642}, {"type": "node", "id": 8852753120, "lat": 41.053111, "lon": 28.6742625}, {"type": "node", "id": 8852753121, "lat": 41.0531124, "lon": 28.6741425}, {"type": "node", "id": 8853238932, "lat": 41.0298822, "lon": 28.553915}, {"type": "node", "id": 8853238933, "lat": 41.0297558, "lon": 28.5539727}, {"type": "node", "id": 8950855096, "lat": 41.0359458, "lon": 28.8231346}, {"type": "node", "id": 8950855097, "lat": 41.035932, "lon": 28.8234}, {"type": "node", "id": 8950855098, "lat": 41.035727, "lon": 28.8233812}, {"type": "node", "id": 8950855099, "lat": 41.0357408, "lon": 28.8231158}, {"type": "node", "id": 9395282052, "lat": 41.0482135, "lon": 28.9195794}, {"type": "node", "id": 9395282053, "lat": 41.0482618, "lon": 28.9196964}, {"type": "node", "id": 9395282054, "lat": 41.0483008, "lon": 28.9196681}, {"type": "node", "id": 9395282055, "lat": 41.0483367, "lon": 28.9197551}, {"type": "node", "id": 9395282056, "lat": 41.0482945, "lon": 28.9197857}, {"type": "node", "id": 9395282057, "lat": 41.0483055, "lon": 28.9198124}, {"type": "node", "id": 9395282058, "lat": 41.048225, "lon": 28.9198708}, {"type": "node", "id": 9395282059, "lat": 41.0481688, "lon": 28.9197347}, {"type": "node", "id": 9395282060, "lat": 41.0481526, "lon": 28.9197465}, {"type": "node", "id": 9395282061, "lat": 41.0481135, "lon": 28.919652}, {"type": "node", "id": 9404529715, "lat": 41.0449928, "lon": 28.8946462}, {"type": "node", "id": 9404529716, "lat": 41.0449802, "lon": 28.894651}, {"type": "node", "id": 9675425027, "lat": 41.017412, "lon": 28.8970198}, {"type": "node", "id": 9675425028, "lat": 41.0174021, "lon": 28.8972372}, {"type": "node", "id": 9675425029, "lat": 41.0176136, "lon": 28.8972531}, {"type": "node", "id": 9675425030, "lat": 41.0176217, "lon": 28.8970347}, {"type": "node", "id": 9897747838, "lat": 41.0200254, "lon": 28.9072454}, {"type": "node", "id": 9897747839, "lat": 41.0198571, "lon": 28.907241}, {"type": "node", "id": 9897747840, "lat": 41.0198588, "lon": 28.9071221}, {"type": "node", "id": 9897747841, "lat": 41.0200271, "lon": 28.9071265}, {"type": "node", "id": 10147550878, "lat": 41.0113009, "lon": 28.7860961}, {"type": "node", "id": 10147550879, "lat": 41.0109002, "lon": 28.7859339}, {"type": "node", "id": 10147550880, "lat": 41.0109204, "lon": 28.7858252}, {"type": "way", "id": 227441206, "nodes": [2361021997, 2361022004, 2361022005, 2361022006, 2361021997], "tags": {"addr:city": "Istanbul", "addr:district": "Ba\u011fc\u0131lar", "addr:street": "Favzi\u00e7akmak Caddesi", "amenity": "police", "name": "G\u00fcne\u015fli Polis Merkez Amirli\u011fi", "name:ar": "\u0643\u0648\u0646\u0627\u0634\u0644\u064a \u0628\u0648\u0644\u064a\u0633 \u0645\u0631\u0643\u0632\u064a"}}, {"type": "way", "id": 281661897, "nodes": [2856474663, 2856474664, 2856474665, 2856474666, 2856474663], "tags": {"amenity": "police", "building": "yes", "name": "Beylikd\u00fcz\u00fc \u0130l\u00e7e Emniyet M\u00fcd\u00fcrl\u00fc\u011f\u00fc"}}, {"type": "way", "id": 306970281, "nodes": [3119989872, 3119989878, 3119989879, 3119989870, 3119989872], "tags": {"amenity": "police", "building": "yes", "name": "Bah\u00e7elievler Emniyet M\u00fcd\u00fcrl\u00fc\u011f\u00fc"}}, {"type": "way", "id": 342930767, "nodes": [3498778662, 5103395912, 3498778663, 3498778664, 3498778665, 8219894829, 3498778666, 3498778667, 3498778668, 3498778662], "tags": {"amenity": "police", "building": "yes", "name": "Zab\u0131ta Daire Ba\u015fkanl\u0131\u011f\u0131", "name:ar": "\u0642\u0633\u0645 \u0625\u062f\u0627\u0631\u0629 \u0627\u0644\u0634\u0631\u0637\u0629", "wheelchair": "yes"}}, {"type": "way", "id": 342973792, "nodes": [3499094106, 3499094107, 3499094108, 3499094109, 3499094106], "tags": {"amenity": "police", "building": "yes", "name": "T.C. Fatih kaymakaml\u0131\u011f\u0131 il\u00e7e emniyet m\u00fcd\u00fcrl\u00fc\u011f\u00fc Fatih \u015eehit Tevfik Fikret Erciyas Polis Merkez Amirli\u011fi", "wheelchair": "no"}}, {"type": "way", "id": 454243979, "nodes": [4508276879, 4508276880, 4552349355, 4508276882, 4508276879], "tags": {"amenity": "police", "name": "M\u0130MAROBA POL\u0130S MERKEZ\u0130 AM\u0130RL\u0130\u011e\u0130"}}, {"type": "way", "id": 465384491, "nodes": [4603522879, 4603522880, 4603522881, 4603522882, 4603522879], "tags": {"amenity": "police", "building": "yes", "name": "Yenimahalle Polis Karakolu", "roof:material": "roof_tiles", "roof:shape": "hipped"}}, {"type": "way", "id": 466873021, "nodes": [4615859788, 4615859789, 4615859790, 4615859791, 4615859788], "tags": {"amenity": "police", "building": "yes", "name": "Atak\u00f6y Polis Merkezi Amirli\u011fi"}}, {"type": "way", "id": 508350095, "nodes": [4976726865, 4976726866, 4976726867, 4976726868, 4976726865], "tags": {"addr:city": "\u0130stanbul", "amenity": "police", "building": "yes", "name": "\u015eenlikk\u00f6y Polis Karakolu"}}, {"type": "way", "id": 521232060, "nodes": [5078846622, 5078846516, 5078846515, 5078846621, 5078846506, 5078846504, 5078846503, 5078846505, 5078846517, 5078846518, 5078846520, 5078846519, 5078846513, 5078846512, 5078846510, 5078846508, 5078846507, 5078846509, 5078846511, 5078846514, 5078846622], "tags": {"addr:housenumber": "No:58", "addr:street": "Adnan Menderes Vatan Bulvar\u0131", "amenity": "police", "building": "yes", "fax": "+90 212 636 14 44", "name": "\u0130stanbul Emniyet M\u00fcd\u00fcrl\u00fc\u011f\u00fc", "operator": "T.C. \u0130\u00e7i\u015fleri Bakanl\u0131\u011f\u0131", "phone": "+90 212 636 10 00", "website": "https://www.istanbul.pol.tr/"}}, {"type": "way", "id": 522501132, "nodes": [5088869111, 5088869112, 5088869113, 5088869114, 5088869115, 5088869116, 5088869117, 5088869118, 5088869119, 5088869120, 5088869821, 5088869828, 5088869822, 5088869827, 5088869823, 5088869826, 5088869824, 9404529716, 9404529715, 5088869111], "tags": {"addr:city": "\u0130stanbul", "addr:district": "Bayrampa\u015fa", "addr:housenumber": "1/1", "addr:neighbourhood": "Kocatepe Mahallesi", "addr:postcode": "34045", "addr:street": "Yorum Sokak", "amenity": "police", "building": "yes", "name": "Bayrampa\u015fa Zab\u0131ta M\u00fcd\u00fcrl\u00fc\u011f\u00fc"}}, {"type": "way", "id": 546785620, "nodes": [5283668059, 5283668060, 5283668061, 5283668062, 5283668059]}, {"type": "way", "id": 546785621, "nodes": [5283668058, 5283668039, 5283668040, 5283668041, 5283668042, 5283668043, 5283668044, 5283668045, 5283668046, 5283668047, 5283668048, 5283668049, 5283668050, 5283668051, 5283668052, 5283668053, 5283668054, 5283668055, 5283668056, 5283668057, 5283668058]}, {"type": "way", "id": 548397725, "nodes": [5297919192, 5297919193, 5509611717, 5297919194, 5297919195, 5297919192], "tags": {"addr:city": "Istanbul", "addr:district": "Zeytinburnu", "addr:street": "Prof. Muammer Aksoy Caddesi", "amenity": "police", "building": "yes", "name": "ZEYT\u0130NBURNU \u0130L\u00c7E EMN\u0130YET M\u00dcD\u00dcRL\u00dc\u011e\u00dc", "name:ar": "\u0627\u0644\u0623\u0645\u0646\u064a\u0627\u062a \u0632\u064a\u062a\u0648\u0646 \u0628\u0648\u0631\u0646\u0648"}}, {"type": "way", "id": 566606001, "nodes": [5456197488, 5456197487, 5456197486, 5456197485, 5456197484, 5456197488], "tags": {"amenity": "police", "building": "yes", "name": "T.C. \u0130stanbul Emniyet M\u00fcd\u00fcrl\u00fc\u011f\u00fc E\u011fitim Ve Kongre Merkezi", "operator": "T.C. \u0130stanbul Emniyet M\u00fcd\u00fcrl\u00fc\u011f\u00fc"}}, {"type": "way", "id": 569571214, "nodes": [5477419997, 5477419998, 5477419999, 5477420000, 5477419997], "tags": {"addr:city": "Camiikebir Mahallesi", "addr:district": "Beyo\u011flu", "addr:housenumber": "16", "addr:postcode": "34440", "addr:street": "Donanma Caddesi", "amenity": "police", "building": "yes", "name": "Hali\u00e7 Polis Merkezi Amirli\u011fi", "operator": "\u0130stanbul Polis"}}, {"type": "way", "id": 581257400, "nodes": [5562056071, 5562056072, 5562056073, 5562056074, 5562056071], "tags": {"addr:city": "Bak\u0131rk\u00f6y/\u0130stanbul", "addr:housenumber": "4", "addr:street": "\u0130ncirli Caddesi", "amenity": "police", "building": "yes", "name": "Bak\u0131rk\u00f6y \u0130l\u00e7e Emniyet M\u00fcd\u00fcrl\u00fc\u011f\u00fc", "name:en": "Bakirkoy County Police Department"}}, {"type": "way", "id": 719662424, "nodes": [6755667699, 6755667700, 6755667701, 6755667702, 6755667699], "tags": {"amenity": "police", "building": "yes", "name": "G\u00fcng\u00f6ren \u0130l\u00e7e Emniyet M\u00fcd\u00fcrl\u00fc\u011f\u00fc Merter Polis Merkezi", "operator": "T.C. \u0130stanbul Emniyet M\u00fcd\u00fcrl\u00fc\u011f\u00fc"}}, {"type": "way", "id": 758754879, "nodes": [7086594662, 7086594663, 7086594664, 7085480348, 7086594665, 7086594662], "tags": {"addr:city": "Camiikebir Mahallesi", "addr:district": "Beyo\u011flu", "addr:housenumber": "16", "addr:postcode": "34440", "addr:street": "Donanma Caddesi", "amenity": "police", "building": "yes", "name": "Hali\u00e7 Polis Merkezi Amirli\u011fi", "operator": "\u0130stanbulPolis"}}, {"type": "way", "id": 956544883, "nodes": [8852632143, 8852632144, 8852632145, 8852632146, 8852632143], "tags": {"amenity": "police", "building": "yes", "name": "T.C.K. 1. B\u00f6lge M\u00fcd\u00fcrl\u00fc\u011f\u00fc Avc\u0131lar \u0130stasyonu"}}, {"type": "way", "id": 956556740, "nodes": [8852752397, 8852752398, 8852752399, 8852752400, 8852752397], "tags": {"amenity": "police", "building": "yes", "name": "T. C. K. 1. B\u00f6lge M\u00fcd\u00fcrl\u00fc\u011f\u00fc Esenyurt \u0130stasyonu"}}, {"type": "way", "id": 956556742, "nodes": [8852753118, 8852753119, 8852753120, 8852753121, 8852753118], "tags": {"amenity": "police", "building": "yes", "name": "T. C. K. 1. B\u00f6lge M\u00fcd\u00fcrl\u00fc\u011f\u00fc Esenyurt \u0130stasyonu"}}, {"type": "way", "id": 956611171, "nodes": [4719094313, 8853238932, 8853238933, 4719094314, 4719094313], "tags": {"amenity": "police", "building": "yes", "name": "Tepecik Zab\u0131ta Merkezi"}}, {"type": "way", "id": 967508375, "nodes": [8950855096, 8950855097, 8950855098, 8950855099, 8950855096], "tags": {"amenity": "police", "building": "yes"}}, {"type": "way", "id": 1018624790, "nodes": [9395282052, 9395282053, 9395282054, 9395282055, 9395282056, 9395282057, 9395282058, 9395282059, 9395282060, 9395282061, 9395282052], "tags": {"addr:city": "\u0130stanbul", "addr:district": "Ey\u00fcpsultan", "addr:housenumber": "8", "addr:neighbourhood": "Rami Cuma", "addr:postcode": "34055", "addr:street": "Talimhane Caddesi", "amenity": "police", "building": "yes", "name": "Ey\u00fcpsultan \u0130l\u00e7e Emniyet M\u00fcd\u00fcrl\u00fc\u011f\u00fc Trafik Tescil B\u00fcro Amirli\u011fi"}}, {"type": "way", "id": 1052810446, "nodes": [9675425030, 9675425029, 9675425028, 9675425027, 9675425030], "tags": {"amenity": "police", "building": "yes", "building:levels": "5", "height": "16.7", "type": "government"}}, {"type": "way", "id": 1079802871, "nodes": [9897747838, 9897747839, 9897747840, 9897747841, 9897747838], "tags": {"amenity": "police", "building": "yes"}}, {"type": "way", "id": 1109040920, "nodes": [4111206577, 10147550880, 10147550879, 10147550878, 4111206578, 4111206577], "tags": {"amenity": "police"}}, {"type": "relation", "id": 7810413, "members": [{"type": "way", "ref": 546785621, "role": "outer"}, {"type": "way", "ref": 546785620, "role": "inner"}], "tags": {"amenity": "police", "building": "yes", "name": "Bayrampa\u015fa Polis Merkezi", "type": "multipolygon"}}]}