{"version": 0.6, "generator": "Overpass API 0.7.60 f4c14d41", "osm3s": {"timestamp_osm_base": "2023-05-02T21:16:21Z", "copyright": "The data included in this document is from www.openstreetmap.org. The data is made available under ODbL."}, "elements": [{"type": "node", "id": 2279958698, "lat": 41.0669806, "lon": 29.000747, "tags": {"amenity": "fast_food", "cuisine": "turkish", "name": "D\u00f6nerci"}}, {"type": "node", "id": 3255005410, "lat": 41.2150503, "lon": 29.0319247}, {"type": "node", "id": 3688962010, "lat": 41.1876162, "lon": 29.0398832, "tags": {"amenity": "fast_food", "brand": "Little Caesars", "brand:wikidata": "Q1393809", "brand:wikipedia": "en:Little Caesars", "cuisine": "pizza", "name": "Little Caesars", "takeaway": "yes"}}, {"type": "node", "id": 4043707285, "lat": 41.0727916, "lon": 29.0281076, "tags": {"amenity": "fast_food", "brand": "Domino's", "brand:wikidata": "Q839466", "brand:wikipedia": "en:Domino's Pizza", "cuisine": "pizza", "name": "Domino's", "takeaway": "yes"}}, {"type": "node", "id": 4044269476, "lat": 41.0723896, "lon": 29.0289527, "tags": {"amenity": "fast_food", "brand": "Little Caesars", "brand:wikidata": "Q1393809", "brand:wikipedia": "en:Little Caesars", "cuisine": "pizza", "name": "Little Caesars", "takeaway": "yes"}}, {"type": "node", "id": 4053651180, "lat": 41.0758173, "lon": 29.0198432, "tags": {"amenity": "fast_food", "brand": "Papa John's", "brand:wikidata": "Q2759586", "brand:wikipedia": "en:Papa John's Pizza", "cuisine": "pizza", "name": "Papa John's", "takeaway": "yes"}}, {"type": "node", "id": 4053740055, "lat": 41.0757092, "lon": 29.0192746, "tags": {"addr:postcode": "34340", "amenity": "fast_food", "cuisine": "turkish", "name": "Etiler Marmaris"}}, {"type": "node", "id": 4053774739, "lat": 41.075871, "lon": 29.0150823, "tags": {"alt_name": "Kentucky Fried Chicken", "amenity": "fast_food", "brand": "KFC", "brand:wikidata": "Q524757", "brand:wikipedia": "en:KFC", "cuisine": "chicken", "name": "KFC", "takeaway": "yes"}}, {"type": "node", "id": 4053781501, "lat": 41.0761035, "lon": 29.0148141, "tags": {"amenity": "fast_food", "brand": "McDonald's", "brand:wikidata": "Q38076", "brand:wikipedia": "en:McDonald's", "cuisine": "burger", "name": "McDonald's", "takeaway": "yes"}}, {"type": "node", "id": 4053860156, "lat": 41.0770248, "lon": 29.0278024, "tags": {"amenity": "fast_food", "brand": "Burger King", "brand:wikidata": "Q177054", "brand:wikipedia": "en:Burger King", "cuisine": "burger", "name": "Burger King", "takeaway": "yes"}}, {"type": "node", "id": 4053862156, "lat": 41.0761734, "lon": 29.0122614, "tags": {"amenity": "fast_food", "brand": "Burger King", "brand:wikidata": "Q177054", "brand:wikipedia": "en:Burger King", "cuisine": "burger", "name": "Burger King", "takeaway": "yes"}}, {"type": "node", "id": 4053862157, "lat": 41.0757707, "lon": 29.0126845, "tags": {"amenity": "fast_food", "brand": "McDonald's", "brand:wikidata": "Q38076", "brand:wikipedia": "en:McDonald's", "cuisine": "burger", "name": "McDonald's", "takeaway": "yes"}}, {"type": "node", "id": 4124660799, "lat": 41.0653713, "lon": 29.0069026, "tags": {"addr:city": "\u0130stanbul", "addr:housenumber": "4/A", "addr:street": "S\u00fcleymanbey Sokak", "amenity": "fast_food", "cuisine": "burger", "delivery": "yes", "name": "Durak B\u00fcfe", "smoking": "outside", "takeaway": "yes", "website": "http://www.durakbufe.com.tr"}}, {"type": "node", "id": 4124666996, "lat": 41.0656585, "lon": 29.0077636, "tags": {"addr:street": "S\u00fcleymanbey Sokak", "amenity": "fast_food", "building": "yes", "cuisine": "burger", "delivery": "yes", "name": "RTR80 Retro Burger", "smoking": "outside", "takeaway": "yes", "website": "https://www.facebook.com/rtr80retroburger/"}}, {"type": "node", "id": 4371188636, "lat": 41.1024732, "lon": 29.2907296, "tags": {"amenity": "fast_food", "brand": "Burger King", "brand:wikidata": "Q177054", "brand:wikipedia": "en:Burger King", "cuisine": "burger", "name": "Burger King", "takeaway": "yes"}}, {"type": "node", "id": 4371188643, "lat": 41.0899632, "lon": 29.286834, "tags": {"amenity": "fast_food", "cuisine": "burger", "name": "K\u00f6fteci Yusuf"}}, {"type": "node", "id": 4580140514, "lat": 41.0780046, "lon": 29.0100523, "tags": {"amenity": "fast_food", "brand": "Burger King", "brand:wikidata": "Q177054", "brand:wikipedia": "en:Burger King", "cuisine": "burger", "name": "Burger King", "takeaway": "yes"}}, {"type": "node", "id": 4580178643, "lat": 41.0771036, "lon": 29.0105076, "tags": {"alt_name": "Kentucky Fried Chicken", "amenity": "fast_food", "brand": "KFC", "brand:wikidata": "Q524757", "brand:wikipedia": "en:KFC", "cuisine": "chicken", "name": "KFC", "takeaway": "yes"}}, {"type": "node", "id": 4580179030, "lat": 41.0775878, "lon": 29.0127843, "tags": {"amenity": "fast_food", "brand": "Carl's Jr.", "brand:wikidata": "Q1043486", "brand:wikipedia": "en:Carl's Jr.", "cuisine": "burger", "name": "Carl's Jr.", "takeaway": "yes"}}, {"type": "node", "id": 4580180679, "lat": 41.0770117, "lon": 29.0102149, "tags": {"amenity": "fast_food", "brand": "Burger King", "brand:wikidata": "Q177054", "brand:wikipedia": "en:Burger King", "cuisine": "burger", "name": "Burger King", "takeaway": "yes"}}, {"type": "node", "id": 4580181442, "lat": 41.0771343, "lon": 29.011898, "tags": {"amenity": "fast_food", "brand": "Sbarro", "brand:wikidata": "Q2589409", "brand:wikipedia": "en:Sbarro", "cuisine": "pizza", "name": "Sbarro", "takeaway": "yes"}}, {"type": "node", "id": 4581125972, "lat": 41.0936509, "lon": 29.0911221, "tags": {"amenity": "fast_food", "cuisine": "pizza", "name": "habil pizza"}}, {"type": "node", "id": 4581887996, "lat": 41.0932998, "lon": 29.089235, "tags": {"addr:housenumber": "20", "addr:street": "Fatih Sultan Mehmet Cd.", "amenity": "fast_food", "brand": "Burger King", "brand:wikidata": "Q177054", "brand:wikipedia": "en:Burger King", "cuisine": "burger", "name": "Burger King", "takeaway": "yes"}}, {"type": "node", "id": 4581967247, "lat": 41.0936629, "lon": 29.0914067, "tags": {"amenity": "fast_food", "name": "define b\u00fcfe"}}, {"type": "node", "id": 4582025341, "lat": 41.0945567, "lon": 29.0881132, "tags": {"alt_name": "Kentucky Fried Chicken", "amenity": "fast_food", "brand": "KFC", "brand:wikidata": "Q524757", "brand:wikipedia": "en:KFC", "cuisine": "chicken", "name": "KFC", "takeaway": "yes"}}, {"type": "node", "id": 4583084666, "lat": 41.0936179, "lon": 29.0896604}, {"type": "node", "id": 4583084667, "lat": 41.0935915, "lon": 29.0896732}, {"type": "node", "id": 4583084668, "lat": 41.0935932, "lon": 29.0897362}, {"type": "node", "id": 4583084669, "lat": 41.0936293, "lon": 29.0897176}, {"type": "node", "id": 4583710418, "lat": 41.094547, "lon": 29.0894627, "tags": {"addr:housenumber": "88", "addr:street": "Orhan Veli Kan\u0131k Cd.", "amenity": "fast_food", "name": "marmaris b\u00fcfe"}}, {"type": "node", "id": 4583755625, "lat": 41.0951005, "lon": 29.0973808, "tags": {"addr:housenumber": "39", "addr:street": "Cumhuriyet Caddesi", "amenity": "fast_food", "brand": "McDonald's", "brand:wikidata": "Q38076", "brand:wikipedia": "en:McDonald's", "cuisine": "burger", "name": "McDonald's", "takeaway": "yes"}}, {"type": "node", "id": 4583816369, "lat": 41.09513, "lon": 29.0984622, "tags": {"addr:housenumber": "65D", "addr:street": "Cumhuriyet Caddesi", "amenity": "fast_food", "cuisine": "burger", "name": "Marmaris B\u00fcfe"}}, {"type": "node", "id": 4583816408, "lat": 41.0948758, "lon": 29.098837, "tags": {"addr:housenumber": "22C", "amenity": "fast_food", "cuisine": "steak_house", "name": "D\u00f6ner Stop"}}, {"type": "node", "id": 4583816409, "lat": 41.0948561, "lon": 29.0989048, "tags": {"addr:housenumber": "22C", "amenity": "fast_food", "cuisine": "burger", "name": "carlos jr"}}, {"type": "node", "id": 4592348593, "lat": 41.0648571, "lon": 29.0093525, "tags": {"alt_name": "Kentucky Fried Chicken", "amenity": "fast_food", "brand": "KFC", "brand:wikidata": "Q524757", "cuisine": "chicken", "name": "KFC", "opening_hours": "PH,Mo-Su 11:00-23:45", "takeaway": "yes"}}, {"type": "node", "id": 4691931897, "lat": 41.0938784, "lon": 29.0867308, "tags": {"amenity": "fast_food", "name": "lagash"}}, {"type": "node", "id": 4691931905, "lat": 41.093717, "lon": 29.0869929, "tags": {"amenity": "fast_food", "name": "ad\u0131yaman \u00e7i\u011fk\u00f6fte"}}, {"type": "node", "id": 5137236787, "lat": 41.1088774, "lon": 29.0188386, "tags": {"amenity": "fast_food", "brand": "Carl's Jr.", "brand:wikidata": "Q1043486", "brand:wikipedia": "en:Carl's Jr.", "cuisine": "burger", "name": "Carl's Jr.", "takeaway": "yes"}}, {"type": "node", "id": 5303275103, "lat": 41.0592074, "lon": 28.9842628, "tags": {"amenity": "fast_food", "brand": "Pizza Hut", "brand:wikidata": "Q191615", "brand:wikipedia": "en:Pizza Hut", "cuisine": "pizza", "delivery": "yes", "name": "Pizza Hut Delivery", "takeaway": "yes"}}, {"type": "node", "id": 5303275110, "lat": 41.059666, "lon": 28.984355, "tags": {"amenity": "fast_food", "brand": "Papa John's", "brand:wikidata": "Q2759586", "brand:wikipedia": "en:Papa John's Pizza", "cuisine": "pizza", "name": "Papa John's", "takeaway": "yes"}}, {"type": "node", "id": 5303716778, "lat": 41.0592031, "lon": 28.9841271, "tags": {"amenity": "fast_food", "name": "Kokore\u00e7"}}, {"type": "node", "id": 5310780815, "lat": 41.0619225, "lon": 28.9839381, "tags": {"amenity": "fast_food", "name": "K\u00f6fte Miss"}}, {"type": "node", "id": 5311712759, "lat": 41.0620936, "lon": 28.9840956, "tags": {"amenity": "fast_food", "name": "B\u00fcfetti"}}, {"type": "node", "id": 5483132723, "lat": 41.0798347, "lon": 29.0074853, "tags": {"addr:street": "Talatpa\u015fa Caddesi", "amenity": "fast_food", "name": "Reis D\u00f6ner"}}, {"type": "node", "id": 5483147421, "lat": 41.0797251, "lon": 29.0072289, "tags": {"addr:street": "Talatpa\u015fa Caddesi", "amenity": "fast_food", "name": "Ad\u0131yaman \u00e7ig K\u00f6ftecisi", "name:tr": "Ad\u0131yaman \u00c7i\u011f K\u00f6ftecisi", "phone": "2844061"}}, {"type": "node", "id": 5483155222, "lat": 41.0797871, "lon": 29.0073889, "tags": {"addr:street": "Talatpa\u015fa Caddesi", "amenity": "fast_food", "name": "Pide & B\u00f6rek Salonu"}}, {"type": "node", "id": 5483155223, "lat": 41.0798144, "lon": 29.0074434, "tags": {"addr:street": "Talatpa\u015fa Caddesi", "amenity": "fast_food"}}, {"type": "node", "id": 5483533025, "lat": 41.0798434, "lon": 29.0072526, "tags": {"addr:street": "Talatpa\u015fa Caddesi", "amenity": "fast_food", "name": "Kahta \u00c7igk\u00f6fte"}}, {"type": "node", "id": 5483584221, "lat": 41.0796425, "lon": 29.0068534, "tags": {"addr:street": "Talatpa\u015fa Caddesi", "amenity": "fast_food", "name": "Mevlana Pide"}}, {"type": "node", "id": 5630294821, "lat": 41.1184749, "lon": 29.0095783, "tags": {"amenity": "fast_food", "cuisine": "burger", "name": "Hopdaddy"}}, {"type": "node", "id": 5715663821, "lat": 41.0510683, "lon": 28.9874258, "tags": {"amenity": "fast_food", "brand": "McDonald's", "brand:wikidata": "Q38076", "brand:wikipedia": "en:McDonald's", "cuisine": "burger", "internet_access": "wlan", "name": "McDonald's", "takeaway": "yes"}}, {"type": "node", "id": 5726854221, "lat": 41.0522237, "lon": 28.9873218, "tags": {"addr:street": "Halaskargazi Caddesi", "amenity": "fast_food", "cuisine": "tea;turkish;kebab;coffee_shop", "name": "YMC D\u00f6ner"}}, {"type": "node", "id": 5751400929, "lat": 41.0513328, "lon": 28.9957848, "tags": {"addr:housenumber": "26", "addr:street": "Hac\u0131 Emin Efendi sokak;Hac\u0131 Emin Efendi Sokak", "amenity": "fast_food", "name:en": "Burgerhood"}}, {"type": "node", "id": 5751933735, "lat": 41.0513596, "lon": 28.9901781, "tags": {"addr:city": "\u0130STANBUL", "addr:district": "\u015ei\u015fli", "addr:housenumber": "8", "addr:neighbourhood": "Halaskargazi Mahallesi", "addr:postcode": "34371", "addr:street": "Kuyumcu \u0130rfan Sokak", "amenity": "fast_food", "cuisine": "steak;burger", "delivery": "yes", "internet_access": "yes", "name:en": "Virginia Angus", "opening_hours": "Mo-Su 11:30-22:30", "outdoor_seating": "yes", "phone": "0212 234 15 25", "website": "virginiaangus.com.tr"}}, {"type": "node", "id": 5751934722, "lat": 41.0531688, "lon": 28.9946105, "tags": {"amenity": "fast_food", "name": "Piknik B\u00fcfe", "name:tr": "Piknik B\u00fcfe"}}, {"type": "node", "id": 5780443055, "lat": 41.1097515, "lon": 29.0311419, "tags": {"amenity": "fast_food", "brand": "Shake Shack", "brand:wikidata": "Q1058722", "brand:wikipedia": "en:Shake Shack", "cuisine": "burger", "name": "Shake Shack", "takeaway": "yes"}}, {"type": "node", "id": 5893489086, "lat": 41.0794786, "lon": 29.0313813, "tags": {"amenity": "fast_food", "name": "Akali", "name:tr": "Akali"}}, {"type": "node", "id": 6137563378, "lat": 41.0859854, "lon": 29.0048602, "tags": {"addr:city": "Istanbul", "addr:district": "Ka\u011f\u0131thane", "addr:housenumber": "No:2/E", "addr:neighbourhood": "Emniyetevleri Mahallesi", "addr:postcode": "34415", "addr:street": "Seyir Caddesi", "amenity": "fast_food", "cuisine": "turkish", "delivery": "yes", "name": "Ta\u015f F\u0131r\u0131n", "opening_hours": "Mo-Su 12:00-22:00", "smoking": "no", "takeaway": "yes"}}, {"type": "node", "id": 6137620677, "lat": 41.086149, "lon": 29.0055856, "tags": {"addr:city": "\u0130stanbul", "addr:district": "Ka\u011f\u0131thane", "addr:housenumber": "No:2/A", "addr:neighbourhood": "Emniyetevleri Mahallesi", "addr:postcode": "34415", "addr:street": "Akarsu Caddesi", "amenity": "fast_food", "cuisine": "turkish", "delivery": "yes", "name": "H\u0131\u015f\u0131m B\u00f6rek&Pide Salonu", "opening_hours": "24/7", "smoking": "no", "takeaway": "yes", "wheelchair": "limited"}}, {"type": "node", "id": 6137634287, "lat": 41.0860963, "lon": 29.0058715, "tags": {"addr:city": "\u0130stanbul", "addr:district": "Ka\u011f\u0131thane", "addr:housenumber": "No:1", "addr:neighbourhood": "Emniyetevleri Mahallesi", "addr:postcode": "34415", "addr:street": "Lalapa\u015fa Sokak", "amenity": "fast_food", "cuisine": "turkish", "delivery": "yes", "name": "B\u00fclent B\u00f6rek", "opening_hours": "Mo-Su 09:00-22:00", "smoking": "no"}}, {"type": "node", "id": 6137649804, "lat": 41.0865239, "lon": 29.0060686, "tags": {"addr:city": "\u0130stanbul", "addr:district": "Ka\u011f\u0131thane", "addr:housenumber": "7/1", "addr:neighbourhood": "Emniyetevleri Mahallesi", "addr:postcode": "34415", "addr:street": "Lalapa\u015fa Sokak", "amenity": "fast_food", "brand": "McDonald's", "brand:wikidata": "Q38076", "brand:wikipedia": "en:McDonald's", "cuisine": "burger", "delivery": "yes", "name": "McDonald's", "opening_hours": "Mo-Su 10:00-01:00", "smoking": "isolated", "takeaway": "yes"}}, {"type": "node", "id": 6197917831, "lat": 41.0635383, "lon": 28.9982507, "tags": {"amenity": "fast_food", "cuisine": "burger", "name": "Acun kasap Burger"}}, {"type": "node", "id": 6241253007, "lat": 41.0629176, "lon": 28.9928255, "tags": {"amenity": "fast_food", "brand": "Carl's Jr.", "brand:wikidata": "Q1043486", "brand:wikipedia": "en:Carl's Jr.", "cuisine": "burger", "level": "5", "name": "Carl's Jr.", "smoking": "no", "takeaway": "yes"}}, {"type": "node", "id": 6243912487, "lat": 41.1056334, "lon": 28.9861025, "tags": {"amenity": "fast_food", "name": "Fat Fingers"}}, {"type": "node", "id": 6267213833, "lat": 41.134486, "lon": 29.092349, "tags": {"amenity": "fast_food", "name": "\u00c7i\u011fk\u00f6fteci \u00d6mer Usta"}}, {"type": "node", "id": 6267213835, "lat": 41.134471, "lon": 29.092301, "tags": {"amenity": "fast_food", "name": "Reis D\u00f6ner"}}, {"type": "node", "id": 6569243614, "lat": 41.0606455, "lon": 28.9878294}, {"type": "node", "id": 6569243615, "lat": 41.0605444, "lon": 28.9877703}, {"type": "node", "id": 6569243616, "lat": 41.0604979, "lon": 28.988052}, {"type": "node", "id": 6569243617, "lat": 41.0605666, "lon": 28.9880922}, {"type": "node", "id": 6569248523, "lat": 41.2365227, "lon": 28.984399, "tags": {"amenity": "fast_food", "name": "Klasik"}}, {"type": "node", "id": 6746087944, "lat": 41.2150895, "lon": 29.0314738}, {"type": "node", "id": 6746087945, "lat": 41.2150155, "lon": 29.0314514}, {"type": "node", "id": 6746087946, "lat": 41.2149701, "lon": 29.0319265}, {"type": "node", "id": 6829989195, "lat": 41.1515774, "lon": 29.0897866, "tags": {"amenity": "fast_food", "cuisine": "turkish", "name": "Afra G\u00f6zleme Evi"}}, {"type": "node", "id": 6829991417, "lat": 41.1511558, "lon": 29.0901802, "tags": {"amenity": "fast_food", "cuisine": "turkish", "name": "Adakl\u0131 Pide & B\u00f6rek Salonu"}}, {"type": "node", "id": 6857217211, "lat": 41.1263181, "lon": 29.0997188}, {"type": "node", "id": 6857217212, "lat": 41.126306, "lon": 29.0996182}, {"type": "node", "id": 6857217213, "lat": 41.1262989, "lon": 29.0997617}, {"type": "node", "id": 6857217214, "lat": 41.1262181, "lon": 29.0996973}, {"type": "node", "id": 6857217215, "lat": 41.1262726, "lon": 29.0995766}, {"type": "node", "id": 6866813854, "lat": 41.1251109, "lon": 29.102108, "tags": {"amenity": "fast_food", "cuisine": "turkish"}}, {"type": "node", "id": 6866813860, "lat": 41.1250553, "lon": 29.1018578, "tags": {"amenity": "fast_food", "cuisine": "turkish", "name": "Yengenin Yeri"}}, {"type": "node", "id": 6866813865, "lat": 41.1249927, "lon": 29.1016192, "tags": {"amenity": "fast_food", "cuisine": "turkish", "name": "Kanl\u0131c\u0131 B\u00f6rek\u00e7isi"}}, {"type": "node", "id": 6893539440, "lat": 41.0664879, "lon": 29.0030334, "tags": {"amenity": "fast_food", "brand": "Burger King", "brand:wikidata": "Q177054", "brand:wikipedia": "en:Burger King", "cuisine": "burger", "drive_through": "no", "name": "Burger King", "takeaway": "yes"}}, {"type": "node", "id": 6893539441, "lat": 41.0664177, "lon": 29.0030463, "tags": {"amenity": "fast_food", "brand": "Popeyes", "brand:wikidata": "Q1330910", "brand:wikipedia": "en:Popeyes", "cuisine": "chicken", "drive_through": "no", "name": "Popeyes", "official_name": "Popeyes Louisiana Kitchen", "takeaway": "yes"}}, {"type": "node", "id": 6893539442, "lat": 41.0663468, "lon": 29.0030371, "tags": {"amenity": "fast_food", "cuisine": "turkish", "drive_through": "no", "name": "Usta D\u00f6ner"}}, {"type": "node", "id": 6920056294, "lat": 41.134879, "lon": 29.090099, "tags": {"amenity": "fast_food", "name": "Pilav Battalbey", "takeaway": "yes"}}, {"type": "node", "id": 6920056295, "lat": 41.1348838, "lon": 29.0900722, "tags": {"amenity": "fast_food", "name": "\u00c7i\u011fk\u00f6fteci Sait", "phone": "+90 555 324 84 23", "takeaway": "yes"}}, {"type": "node", "id": 6920231379, "lat": 41.1345108, "lon": 29.0921663, "tags": {"amenity": "fast_food", "name": "Emek Cafe"}}, {"type": "node", "id": 6922027267, "lat": 41.1416057, "lon": 29.087268, "tags": {"amenity": "fast_food", "contact:phone": "+902163234541", "name": "\u00c7ay\u0131r K\u00f6ftecisi"}}, {"type": "node", "id": 6922027278, "lat": 41.1423521, "lon": 29.0871969, "tags": {"amenity": "fast_food", "name": "Da\u011f O\u011flu \u00c7i\u011fk\u00f6fte"}}, {"type": "node", "id": 7010852885, "lat": 41.093846, "lon": 28.969156, "tags": {"addr:street": "Hamidiye", "amenity": "fast_food", "cuisine": "turkish", "name": "Hamidiye, Nur Pasta B\u00f6rek Cafe, Girne Cd. 1-1, 34408 K\u00e2\u011f\u0131thane/\u0130stanbul, Turkey"}}, {"type": "node", "id": 7027838985, "lat": 41.1138644, "lon": 29.0224518, "tags": {"addr:street": "Ahi Evran Caddesi", "amenity": "fast_food", "brand": "McDonald's", "brand:wikidata": "Q38076", "brand:wikipedia": "en:McDonald's", "cuisine": "burger", "name": "McDonald's", "opening_hours": "24/7", "takeaway": "yes"}}, {"type": "node", "id": 7131212033, "lat": 41.1964303, "lon": 29.0289422, "tags": {"amenity": "fast_food", "name": "Zekeriyak\u00f6y K\u00f6ftecisi"}}, {"type": "node", "id": 7527157610, "lat": 41.1212211, "lon": 29.0697125, "tags": {"addr:city": "istanbul", "addr:district": "sar\u0131yer", "addr:housenumber": "No:88", "addr:neighbourhood": "Yenik\u00f6y mahallesi", "addr:street": "K\u00f6yba\u015f\u0131 Caddesi", "amenity": "fast_food", "cuisine": "burger", "delivery": "yes", "internet_access": "yes", "name": "Burger Hopdaddy", "opening_hours": "Mo-Su 12:00-23:00", "outdoor_seating": "yes", "phone": "0212 400 00 60", "website": "https://hopdaddyburger.com/"}}, {"type": "node", "id": 7527281437, "lat": 41.1180877, "lon": 29.0657364, "tags": {"addr:city": "istanbul", "addr:district": "sar\u0131yer", "addr:housenumber": "No:1", "addr:neighbourhood": "Yenik\u00f6y mahallesi", "addr:street": "K\u00f6yba\u015f\u0131 Caddesi", "amenity": "fast_food", "name": "Yenik\u00f6y Tost\u00e7usu", "opening_hours": "Mo-Su 09:00-01:00", "outdoor_seating": "yes"}}, {"type": "node", "id": 7527325259, "lat": 41.1148099, "lon": 29.0583194, "tags": {"addr:city": "Istanbul", "addr:housenumber": "No:36", "addr:neighbourhood": "\u0130stinye", "addr:street": "\u0130stinye Caddesi", "amenity": "fast_food", "name": "Me\u015fhur \u015e\u0131k\u0131d\u0131m Kokore\u00e7", "opening_hours": "24/7", "outdoor_seating": "yes", "phone": "0212 323 55 60"}}, {"type": "node", "id": 7537158147, "lat": 41.0882872, "lon": 29.0567842, "tags": {"addr:city": "istanbul", "addr:district": "sar\u0131yer", "addr:housenumber": "No:2", "addr:neighbourhood": "rumeli hisar\u0131 mahallesi", "addr:street": "Yahya Kemal Caddesi", "amenity": "fast_food", "name": "\u0130skele B\u00fcfe", "opening_hours": "Mo-Su 09:00-00:00", "opening_hours:covid19": "open", "phone": "0532 360 83 99"}}, {"type": "node", "id": 7552247762, "lat": 41.0769145, "lon": 29.0428145, "tags": {"addr:city": "\u0130stanbul", "addr:district": "Be\u015fikta\u015f", "addr:neighbourhood": "Bebek", "addr:street": "Ne\u015fe Soka\u011f\u0131", "amenity": "fast_food", "name": "Bebek Midyecisi"}}, {"type": "node", "id": 7552296729, "lat": 41.0760203, "lon": 29.0429479, "tags": {"addr:city": "\u0130stanbul", "addr:district": "Be\u015fikta\u015f", "addr:housenumber": "No:43", "addr:neighbourhood": "Bebek", "addr:street": "Cevdetpa\u015fa Caddesi", "amenity": "fast_food", "cuisine": "baked_potato;doner", "name": "Farmet D\u00f6ner", "opening_hours": "Mo-Su 11:00-00:00", "outdoor_seating": "yes", "phone": "0212 257 03 03"}}, {"type": "node", "id": 7552298997, "lat": 41.0760657, "lon": 29.0429461, "tags": {"addr:city": "\u0130stanbul", "addr:district": "Be\u015fikta\u015f", "addr:housenumber": "No:43/C", "addr:neighbourhood": "Bebek", "addr:street": "Cevdetpa\u015fa Caddesi", "amenity": "fast_food", "cuisine": "hot_dog", "name": "New Frank's Hot Dog", "opening_hours": "Mo-Su 09:00-01:00", "outdoor_seating": "yes", "phone": "0212 265 00 89", "website": "newfranks.com"}}, {"type": "node", "id": 7560258855, "lat": 41.055135, "lon": 28.9957419, "tags": {"addr:city": "\u0130stanbul", "addr:district": "\u015ei\u015fli", "addr:housenumber": "No:94/A", "addr:neighbourhood": "Te\u015fvikiye", "addr:postcode": "34365", "addr:street": "Valikona\u011f\u0131 Caddesi", "amenity": "fast_food", "brand": "Papa John's", "brand:wikidata": "Q2759586", "brand:wikipedia": "en:Papa John's Pizza", "cuisine": "pizza", "delivery": "yes", "name": "Papa John's", "opening_hours": "Mo-Su 10:30-02:00", "outdoor_seating": "yes", "payment:cash": "yes", "payment:credit_cards": "yes", "payment:yemek_kartlar\u0131": "yes", "phone": "0212 942 51 00", "takeaway": "yes", "website": "https://www.papajohns.com.tr/"}}, {"type": "node", "id": 7568792220, "lat": 41.0522635, "lon": 28.9922895, "tags": {"addr:city": "\u0130stanbul", "addr:district": "\u015ei\u015fli", "addr:housenumber": "No:48/C", "addr:neighbourhood": "Te\u015fvikiye Mahallesi", "addr:postcode": "34365", "addr:street": "Valikona\u011f\u0131 Caddesi", "amenity": "fast_food", "contact:email": "info@etilermarmaris.com.tr", "contact:instagram": "https://instagram.com/etilermarmaris/", "contact:phone": "+90 212 234 1556", "contact:website": "https://www.etilermarmaris.com.tr/", "cuisine": "kebab;burger;sandwich", "name": "Etiler Marmaris B\u00fcfe Ni\u015fanta\u015f\u0131", "opening_hours": "24/7", "outdoor_seating": "no"}}, {"type": "node", "id": 7573384875, "lat": 41.1393682, "lon": 29.0550799, "tags": {"amenity": "fast_food", "brand": "Domino's", "brand:wikidata": "Q839466", "brand:wikipedia": "en:Domino's Pizza", "cuisine": "pizza", "name": "Domino's", "takeaway": "yes"}}, {"type": "node", "id": 7740144972, "lat": 41.0619233, "lon": 28.9876633, "tags": {"amenity": "fast_food", "name": "Pa\u015fa D\u00f6ner"}}, {"type": "node", "id": 8944741217, "lat": 41.0601543, "lon": 28.9876934, "tags": {"amenity": "fast_food", "brand": "Burger King", "brand:wikidata": "Q177054", "cuisine": "burger", "name": "Burger King", "name:en": "Burger king", "takeaway": "yes"}}, {"type": "node", "id": 8945179818, "lat": 41.0647949, "lon": 28.9871827, "tags": {"amenity": "fast_food", "brand": "McDonald's", "brand:en": "McDonald's", "brand:ru": "\u041c\u0430\u043a\u0414\u043e\u043d\u0430\u043b\u0434\u0441", "brand:uk": "\u041c\u0430\u043a\u0414\u043e\u043d\u0430\u043b\u044c\u0434\u0437", "brand:wikidata": "Q38076", "brand:wikipedia": "en:McDonald's", "cuisine": "burger", "name": "McDonald's", "name:en": "McDonald's", "name:ru": "\u041c\u0430\u043a\u0414\u043e\u043d\u0430\u043b\u0434\u0441", "name:uk": "\u041c\u0430\u043a\u0414\u043e\u043d\u0430\u043b\u044c\u0434\u0437", "takeaway": "yes"}}, {"type": "node", "id": 9002990216, "lat": 41.0936998, "lon": 29.0913726, "tags": {"amenity": "fast_food", "name": "Saloon Burger"}}, {"type": "node", "id": 9003035922, "lat": 41.0940218, "lon": 29.0932253, "tags": {"amenity": "fast_food", "brand": "Domino's", "brand:wikidata": "Q839466", "cuisine": "pizza", "name": "Domino's", "takeaway": "yes"}}, {"type": "node", "id": 9164286591, "lat": 41.1154739, "lon": 28.9983498, "tags": {"amenity": "fast_food", "name": "D\u00f6ner City"}}, {"type": "node", "id": 9164297476, "lat": 41.1149137, "lon": 28.9984085, "tags": {"amenity": "fast_food", "name": "Midyeci"}}, {"type": "node", "id": 9164297477, "lat": 41.114898, "lon": 28.9983589, "tags": {"amenity": "fast_food", "name": "Oses \u00c7i\u011fk\u00f6fte"}}, {"type": "node", "id": 9164297480, "lat": 41.114873, "lon": 28.9983375, "tags": {"amenity": "fast_food", "name": "Meydan Pilav"}}, {"type": "node", "id": 9164297481, "lat": 41.1148961, "lon": 28.9985425, "tags": {"amenity": "fast_food", "name": "O B\u00fcfe Fast Food"}}, {"type": "node", "id": 9164297483, "lat": 41.1149071, "lon": 28.9984447, "tags": {"amenity": "fast_food", "name": "Upper Burger"}}, {"type": "node", "id": 9164297487, "lat": 41.1146677, "lon": 28.9979661, "tags": {"amenity": "fast_food", "name": "C\u0131zb\u0131z"}}, {"type": "node", "id": 9164320458, "lat": 41.1147791, "lon": 28.9980769, "tags": {"amenity": "fast_food", "name": "\u0130kram D\u00f6ner"}}, {"type": "node", "id": 9164320461, "lat": 41.1152721, "lon": 28.9983556, "tags": {"amenity": "fast_food", "name": "Saray D\u00f6ner"}}, {"type": "node", "id": 9164320462, "lat": 41.1152972, "lon": 28.9983606, "tags": {"amenity": "fast_food", "name": "\u00d6z Ad\u0131yamanl\u0131 \u00c7i\u011f K\u00f6ftecisi"}}, {"type": "node", "id": 9164320468, "lat": 41.1145415, "lon": 28.997972, "tags": {"amenity": "fast_food", "name": "\u00dcnl\u00fc Kokore\u00e7"}}, {"type": "node", "id": 9164320469, "lat": 41.1140092, "lon": 28.9977221, "tags": {"amenity": "fast_food", "name": "Boots & Spurs Burger"}}, {"type": "node", "id": 9166902586, "lat": 41.1154601, "lon": 28.9991518, "tags": {"amenity": "fast_food", "name": "Etiler Marmaris"}}, {"type": "node", "id": 9166902590, "lat": 41.1150193, "lon": 28.9994205, "tags": {"amenity": "fast_food", "name": "Gala Kokore\u00e7"}}, {"type": "node", "id": 9166929199, "lat": 41.115724, "lon": 28.9981757, "tags": {"amenity": "fast_food", "name": "Ali Baba D\u00fcr\u00fcm Evi"}}, {"type": "node", "id": 9553787770, "lat": 41.1685178, "lon": 29.056289, "tags": {"amenity": "fast_food", "name": "Pa\u015fa D\u00f6ner"}}, {"type": "node", "id": 9553840747, "lat": 41.16834, "lon": 29.0573234, "tags": {"amenity": "fast_food", "name": "Midyeci Ahmet"}}, {"type": "node", "id": 9553841166, "lat": 41.1558731, "lon": 29.0351528, "tags": {"amenity": "fast_food", "name": "Kahta \u00c7i\u011fk\u00f6fte"}}, {"type": "node", "id": 9553842142, "lat": 41.1683723, "lon": 29.0571488, "tags": {"amenity": "fast_food", "brand": "Burger King", "brand:wikidata": "Q177054", "cuisine": "burger", "name": "Burger King", "takeaway": "yes"}}, {"type": "node", "id": 9727903544, "lat": 41.0600482, "lon": 28.9876476, "tags": {"amenity": "fast_food", "name": "Hakkio\u011flu"}}, {"type": "node", "id": 9883516756, "lat": 41.0644257, "lon": 28.9932575, "tags": {"amenity": "fast_food", "brand": "Burger King", "brand:wikidata": "Q177054", "brand:wikipedia": "en:Burger King", "cuisine": "burger", "name": "Burger King", "takeaway": "yes"}}, {"type": "node", "id": 9933649603, "lat": 41.0807201, "lon": 28.973269, "tags": {"amenity": "fast_food", "name": "Erzincan \u00c7ay Oca\u011f\u0131 ve Tost \u00c7e\u015fitleri"}}, {"type": "node", "id": 9933666276, "lat": 41.0809626, "lon": 28.972918, "tags": {"amenity": "fast_food", "name": "Sar\u0131yer B\u00f6rek\u00e7isi"}}, {"type": "node", "id": 9933668477, "lat": 41.0816929, "lon": 28.9714844, "tags": {"amenity": "fast_food", "name": "Me\u015fhur Ad\u0131yaman \u00c7i\u011fk\u00f6ftecisi \u00d6mer Aybak"}}, {"type": "node", "id": 9933668479, "lat": 41.0807958, "lon": 28.9728172, "tags": {"amenity": "fast_food", "name": "Beren B\u00fcfe"}}, {"type": "node", "id": 9933670144, "lat": 41.0816972, "lon": 28.9714348, "tags": {"amenity": "fast_food", "name": "Tost Station"}}, {"type": "node", "id": 9933676002, "lat": 41.0814965, "lon": 28.9717795, "tags": {"amenity": "fast_food", "name": "Pozcu Tantuni"}}, {"type": "node", "id": 9933678401, "lat": 41.0813794, "lon": 28.9720379, "tags": {"amenity": "fast_food", "name": "\u00c7i\u011fk\u00f6fteci Mehmet Usta"}}, {"type": "node", "id": 9933682163, "lat": 41.0815036, "lon": 28.9717274, "tags": {"amenity": "fast_food", "name": "Taner B\u00fcfe"}}, {"type": "node", "id": 9933684914, "lat": 41.0818101, "lon": 28.9737534, "tags": {"amenity": "fast_food", "name": "Pa\u015fa D\u00f6ner"}}, {"type": "node", "id": 9933686054, "lat": 41.0816651, "lon": 28.974047, "tags": {"amenity": "fast_food", "name": "Gala Kokore\u00e7"}}, {"type": "node", "id": 9933688918, "lat": 41.0811911, "lon": 28.9734438, "tags": {"amenity": "fast_food", "name": "Komagene"}}, {"type": "node", "id": 9939299547, "lat": 41.1785397, "lon": 28.9917238, "tags": {"amenity": "fast_food", "name": "Komagene"}}, {"type": "node", "id": 9939299568, "lat": 41.1777031, "lon": 28.9912365, "tags": {"amenity": "fast_food", "name": "Oses \u00c7i\u011fk\u00f6fte"}}, {"type": "node", "id": 9991127073, "lat": 41.1902257, "lon": 29.0370718, "tags": {"amenity": "fast_food", "brand": "Little Caesars", "brand:wikidata": "Q1393809", "cuisine": "pizza", "name": "Little Caesars", "takeaway": "yes"}}, {"type": "node", "id": 10255825950, "lat": 41.1436022, "lon": 29.1015113, "tags": {"amenity": "fast_food", "level:ref": "0", "name": "Kantin"}}, {"type": "node", "id": 10255825951, "lat": 41.142518, "lon": 29.101903, "tags": {"amenity": "fast_food", "level:ref": "2", "name": "Kantin"}}, {"type": "node", "id": 10276567124, "lat": 41.0835946, "lon": 28.9774428, "tags": {"alt_name": "Kentucky Fried Chicken", "amenity": "fast_food", "brand": "KFC", "brand:wikidata": "Q524757", "cuisine": "chicken", "name": "KFC", "operator": "KFC", "takeaway": "yes"}}, {"type": "node", "id": 10276567126, "lat": 41.0835294, "lon": 28.9773838, "tags": {"amenity": "fast_food", "cuisine": "burger", "name": "Ercan Burger"}}, {"type": "node", "id": 10311734132, "lat": 41.0761314, "lon": 29.0662099, "tags": {"amenity": "fast_food", "fast_food": "cafeteria", "name": "Sevda Tepesi Cafe Restoran"}}, {"type": "node", "id": 10316962028, "lat": 41.0739759, "lon": 29.0586, "tags": {"amenity": "fast_food", "fast_food": "cafeteria", "name": "Cafe Kandilli"}}, {"type": "node", "id": 10553145626, "lat": 41.070005, "lon": 29.0566888, "tags": {"amenity": "fast_food", "fast_food": "cafeteria", "name": "Vanik\u00f6y Cafe Restoran"}}, {"type": "node", "id": 10563443259, "lat": 41.0742888, "lon": 29.0701569, "tags": {"amenity": "fast_food", "cuisine": "kebab", "name": "Keyf-i D\u00fcr\u00fcm Kebap"}}, {"type": "node", "id": 10707306552, "lat": 41.2313653, "lon": 29.110947}, {"type": "node", "id": 10707306553, "lat": 41.2311464, "lon": 29.1109881}, {"type": "node", "id": 10707306554, "lat": 41.2311546, "lon": 29.1110647}, {"type": "node", "id": 10707306555, "lat": 41.2313734, "lon": 29.1110235}, {"type": "way", "id": 462988165, "nodes": [4583084666, 4583084667, 4583084668, 4583084669, 4583084666], "tags": {"amenity": "fast_food", "building": "yes", "name": "Reis D\u00f6ner"}}, {"type": "way", "id": 699553256, "nodes": [6569243614, 6569243615, 6569243616, 6569243617, 6569243614], "tags": {"addr:housenumber": "224", "addr:neighbourhood": "19 May\u0131s Mahallesi", "addr:street": "Halaskargazi Caddesi", "amenity": "fast_food", "brand": "McDonald's", "brand:wikidata": "Q38076", "brand:wikipedia": "en:McDonald's", "building": "yes", "cuisine": "burger", "name": "McDonald's", "opening_hours:covid19": "open", "takeaway": "yes"}}, {"type": "way", "id": 718363244, "nodes": [6746087944, 6746087945, 6746087946, 3255005410, 6746087944], "tags": {"amenity": "fast_food", "brand": "Burger King", "brand:wikidata": "Q177054", "brand:wikipedia": "en:Burger King", "building": "yes", "cuisine": "burger", "name": "Burger King", "takeaway": "yes"}}, {"type": "way", "id": 732301414, "nodes": [6857217215, 6857217212, 6857217211, 6857217213, 6857217214, 6857217215], "tags": {"addr:city": "\u0130stanbul", "addr:country": "TR", "addr:district": "Beykoz", "addr:housenumber": "1", "addr:neighbourhood": "G\u00fcm\u00fc\u015fsuyu Mahallesi", "addr:postcode": "34820", "addr:street": "Fatin Hoca Soka\u011f\u0131", "amenity": "fast_food", "building": "yes", "building:levels": "1", "cuisine": "turkish", "name": "D\u00f6nerci Ali Baba"}}, {"type": "way", "id": 1151008823, "nodes": [10707306552, 10707306553, 10707306554, 10707306555, 10707306552], "tags": {"amenity": "fast_food", "building": "yes", "fast_food": "cafeteria", "name": "Bah\u00e7e Cafe"}}]}