{"version": 0.6, "generator": "Overpass API 0.7.60 f4c14d41", "osm3s": {"timestamp_osm_base": "2023-05-02T21:15:23Z", "copyright": "The data included in this document is from www.openstreetmap.org. The data is made available under ODbL."}, "elements": [{"type": "node", "id": 3807174975, "lat": 19.4367222, "lon": -99.1384504, "tags": {"amenity": "bureau_de_change", "name": "La Casa de la Moneda"}}, {"type": "node", "id": 4162398394, "lat": 19.3504468, "lon": -99.1626519, "tags": {"amenity": "bureau_de_change", "name": "Centro Cambiaro Coyoac\u00e1n"}}, {"type": "node", "id": 4162398889, "lat": 19.3555723, "lon": -99.1634087, "tags": {"amenity": "bureau_de_change", "name": "Banca Mifel"}}, {"type": "node", "id": 5625100221, "lat": 19.4336808, "lon": -99.1381706, "tags": {"amenity": "bureau_de_change", "name": "Casa de cambio", "name:en": "Change", "name:es": "CI Banco", "name:fr": "Change"}}, {"type": "node", "id": 6476672488, "lat": 19.431476, "lon": -99.1378723, "tags": {"amenity": "bureau_de_change"}}, {"type": "node", "id": 6476672588, "lat": 19.4319335, "lon": -99.1366105, "tags": {"amenity": "bureau_de_change"}}, {"type": "node", "id": 6555521886, "lat": 19.4220146, "lon": -99.0783924, "tags": {"amenity": "bureau_de_change"}}, {"type": "node", "id": 6555531585, "lat": 19.4225033, "lon": -99.0780863, "tags": {"amenity": "bureau_de_change", "name": "Ci Banco"}}, {"type": "node", "id": 6555534687, "lat": 19.4226732, "lon": -99.0779661, "tags": {"amenity": "bureau_de_change", "name": "EXE"}}, {"type": "node", "id": 9718730217, "lat": 19.424662, "lon": -99.171196, "tags": {"amenity": "bureau_de_change"}}]}