{"version": 0.6, "generator": "Overpass API 0.7.60 f4c14d41", "osm3s": {"timestamp_osm_base": "2023-05-02T21:15:23Z", "copyright": "The data included in this document is from www.openstreetmap.org. The data is made available under ODbL."}, "elements": [{"type": "node", "id": 1362797653, "lat": 41.901638, "lon": 12.502667, "tags": {"addr:city": "Roma", "addr:postcode": "00185", "amenity": "bureau_de_change", "covered": "yes", "layer": "-1", "level": "-1"}}, {"type": "node", "id": 1514278654, "lat": 41.9016439, "lon": 12.4972896, "tags": {"amenity": "bureau_de_change"}}, {"type": "node", "id": 1521818481, "lat": 41.9048912, "lon": 12.4579207, "tags": {"amenity": "bureau_de_change", "name": "change", "wheelchair": "no"}}, {"type": "node", "id": 1542758952, "lat": 41.8892718, "lon": 12.4939673, "tags": {"amenity": "bureau_de_change", "name": "Change"}}, {"type": "node", "id": 4599712389, "lat": 41.796469, "lon": 12.2549625, "tags": {"amenity": "bureau_de_change", "name": "Yex", "name:it": "Yex", "wheelchair": "yes"}}, {"type": "node", "id": 4599739904, "lat": 41.7967174, "lon": 12.251744, "tags": {"amenity": "bureau_de_change", "wheelchair": "yes"}}, {"type": "node", "id": 4599945192, "lat": 41.7946714, "lon": 12.248224, "tags": {"amenity": "bureau_de_change", "name": "Yex", "name:it": "Yex"}}, {"type": "node", "id": 4599975410, "lat": 41.7963019, "lon": 12.2418987, "tags": {"amenity": "bureau_de_change", "name": "Yex", "name:it": "Yex"}}, {"type": "node", "id": 4599990492, "lat": 41.7956221, "lon": 12.2419569, "tags": {"amenity": "bureau_de_change", "name": "Yex", "name:it": "Yex"}}, {"type": "node", "id": 4616512992, "lat": 41.89734, "lon": 12.4702317, "tags": {"amenity": "bureau_de_change", "name": "Cambio", "name:en": "Change", "name:it": "Cambio"}}, {"type": "node", "id": 5112592321, "lat": 41.7934919, "lon": 12.2519569, "tags": {"amenity": "bureau_de_change"}}, {"type": "node", "id": 5112711841, "lat": 41.7952922, "lon": 12.2509197, "tags": {"amenity": "bureau_de_change"}}, {"type": "node", "id": 5325598321, "lat": 41.899165, "lon": 12.4772502, "tags": {"addr:housenumber": "68", "addr:street": "Piazza della Rotonda", "amenity": "bureau_de_change", "name": "Tax free"}}, {"type": "node", "id": 5325884122, "lat": 41.8993976, "lon": 12.4807715, "tags": {"addr:housenumber": "5", "addr:street": "Via del Caravita", "amenity": "bureau_de_change", "name": "Tax free"}}, {"type": "node", "id": 5552446183, "lat": 41.9066807, "lon": 12.4570115, "tags": {"amenity": "bureau_de_change", "wheelchair": "limited"}}, {"type": "node", "id": 5604857821, "lat": 41.9026636, "lon": 12.5020793, "tags": {"addr:city": "Roma", "addr:housenumber": "36/a", "addr:postcode": "00185", "addr:street": "Via Marsala", "amenity": "bureau_de_change", "name": "Cambio"}}, {"type": "node", "id": 5731353290, "lat": 41.9020704, "lon": 12.4601711, "tags": {"amenity": "bureau_de_change", "source": "survey"}}, {"type": "node", "id": 5825451155, "lat": 41.9025588, "lon": 12.461611, "tags": {"amenity": "bureau_de_change", "name": "xChange"}}, {"type": "node", "id": 5825454655, "lat": 41.9025466, "lon": 12.4640566, "tags": {"amenity": "bureau_de_change", "toilets:wheelchair": "no", "wheelchair": "no"}}, {"type": "node", "id": 5826797889, "lat": 41.896626, "lon": 12.4740463, "tags": {"amenity": "bureau_de_change", "name": "Yex Change"}}, {"type": "node", "id": 6076109690, "lat": 41.8995008, "lon": 12.5018426, "tags": {"addr:city": "Roma", "addr:housenumber": "97", "addr:postcode": "00185", "addr:street": "Via Giovanni Giolitti", "amenity": "bureau_de_change", "name": "Cambio"}}, {"type": "node", "id": 6167913484, "lat": 41.9038999, "lon": 12.4874689, "tags": {"amenity": "bureau_de_change", "name": "Il Fiorino"}}, {"type": "node", "id": 6782516464, "lat": 41.9009135, "lon": 12.4937571, "tags": {"addr:city": "Roma", "addr:housenumber": "19", "addr:postcode": "00184", "addr:street": "Via Nazionale", "amenity": "bureau_de_change", "name": "Best and Fast Change"}}, {"type": "node", "id": 6782520311, "lat": 41.9005816, "lon": 12.4928039, "tags": {"addr:city": "Roma", "addr:housenumber": "222", "addr:postcode": "00184", "addr:street": "Via Nazionale", "amenity": "bureau_de_change", "name": "Fin Change", "shop": "ticket"}}, {"type": "node", "id": 7054912154, "lat": 41.9563907, "lon": 12.5232831, "tags": {"addr:city": "Roma", "addr:housenumber": "189", "addr:postcode": "00139", "addr:street": "Via Monte Cervialto", "amenity": "bureau_de_change", "name": "Money Transfert"}}, {"type": "node", "id": 9206918193, "lat": 41.7958605, "lon": 12.2483974, "tags": {"amenity": "bureau_de_change", "name": "Change"}}, {"type": "node", "id": 9809569225, "lat": 41.7995846, "lon": 12.590653, "tags": {"amenity": "bureau_de_change"}}, {"type": "node", "id": 10186278574, "lat": 41.9079366, "lon": 12.4991766, "tags": {"addr:city": "Roma", "addr:housenumber": "64", "addr:postcode": "00187", "addr:street": "Via Venti Settembre", "amenity": "bureau_de_change", "name": "Trans Fast", "phone": "+39 06 42016931"}}, {"type": "node", "id": 10289227961, "lat": 41.8989485, "lon": 12.5008414, "tags": {"addr:city": "Roma", "addr:housenumber": "30/d", "addr:postcode": "00185", "addr:street": "Via Gioberti", "amenity": "bureau_de_change", "name": "Change Net.it"}}, {"type": "node", "id": 10773645868, "lat": 41.8990309, "lon": 12.4976869, "tags": {"addr:city": "Roma", "addr:housenumber": "73", "addr:postcode": "00184", "addr:street": "Via Cavour", "amenity": "bureau_de_change", "name": "Change"}}]}