{"version": 0.6, "generator": "Overpass API 0.7.60 f4c14d41", "osm3s": {"timestamp_osm_base": "2023-05-02T21:22:25Z", "copyright": "The data included in this document is from www.openstreetmap.org. The data is made available under ODbL."}, "elements": [{"type": "node", "id": 315551593, "lat": -22.8845326, "lon": -43.1223053}, {"type": "node", "id": 326347583, "lat": -22.9238523, "lon": -43.1775, "tags": {"addr:housenumber": "1", "addr:postcode": "22211-200", "addr:street": "Rua Pedro Am\u00e9rico", "amenity": "police", "created_by": "Potlatch 0.10f", "layer": "1", "name": "9\u00aa Delegacia de Pol\u00edcia - Catete"}}, {"type": "node", "id": 330961123, "lat": -22.9283262, "lon": -43.1841391, "tags": {"amenity": "police", "name": "Batalh\u00e3o de Opera\u00e7\u00f5es Policiais Especiais (BOPE)"}}, {"type": "node", "id": 340332720, "lat": -22.8970907, "lon": -43.1824084}, {"type": "node", "id": 340332721, "lat": -22.8960973, "lon": -43.1820217}, {"type": "node", "id": 340332722, "lat": -22.8956594, "lon": -43.1832679}, {"type": "node", "id": 340332723, "lat": -22.8966506, "lon": -43.1836868}, {"type": "node", "id": 383306799, "lat": -22.8847437, "lon": -43.1212352}, {"type": "node", "id": 383306807, "lat": -22.8844023, "lon": -43.1202092}, {"type": "node", "id": 383306814, "lat": -22.8851141, "lon": -43.1200671}, {"type": "node", "id": 383306818, "lat": -22.885416, "lon": -43.1211171}, {"type": "node", "id": 412272169, "lat": -22.9346243, "lon": -43.1718615, "tags": {"amenity": "police", "name": "Posto de Pol\u00edcia Militar - 2\u00ba BPM"}}, {"type": "node", "id": 448811939, "lat": -22.9131614, "lon": -43.1913321, "tags": {"addr:city": "Rio de Janeiro", "addr:street": "Rua Riachuelo", "addr:suburb": "Centro", "amenity": "police", "source": "survey"}}, {"type": "node", "id": 557557984, "lat": -22.9791483, "lon": -43.2249937, "tags": {"amenity": "police", "name": "23\u00ba BPM"}}, {"type": "node", "id": 559645182, "lat": -22.9104632, "lon": -43.1942709, "tags": {"amenity": "police", "name": "Academia de Pol\u00edcia"}}, {"type": "node", "id": 568894877, "lat": -22.9461245, "lon": -43.1935421, "tags": {"amenity": "police", "name": "Unidade de Pol\u00edcia Pacificadora Santa Marta"}}, {"type": "node", "id": 605071739, "lat": -22.7531944, "lon": -43.1045011, "tags": {"amenity": "police", "name": "Guarda Municipal", "source": "survey"}}, {"type": "node", "id": 628093418, "lat": -22.820023, "lon": -43.1783445}, {"type": "node", "id": 633042472, "lat": -22.8003982, "lon": -43.2010016, "tags": {"amenity": "police"}}, {"type": "node", "id": 633485275, "lat": -22.9248771, "lon": -43.2378662, "tags": {"amenity": "police", "name": "Pol\u00edcia do Ex\u00e9rcito - 1\u00ba BPE"}}, {"type": "node", "id": 639295785, "lat": -22.8135358, "lon": -43.2072107, "tags": {"amenity": "police", "name": "Cabine da PMERJ"}}, {"type": "node", "id": 650834131, "lat": -22.8149707, "lon": -43.1960619, "tags": {"amenity": "police"}}, {"type": "node", "id": 823958795, "lat": -22.8279842, "lon": -43.2760788, "tags": {"IPP:Codigo": "17", "addr:housenumber": "750", "addr:street": "Avenida Lobo Junior", "amenity": "police", "name": "22\u00ba DP - Penha", "phone": "+55-21-33996220", "source": "IPP"}}, {"type": "node", "id": 823958799, "lat": -22.9100202, "lon": -43.184346, "tags": {"IPP:Codigo": "3", "addr:city": "Rio de Janeiro", "addr:country": "BR", "addr:housenumber": "320", "addr:street": "Avenida Gomes Freire", "amenity": "police", "name": "5\u00ba DP - Mem de S\u00e1", "phone": "+55-21-33995050", "source": "IPP"}}, {"type": "node", "id": 823958803, "lat": -22.8405673, "lon": -43.3490292, "tags": {"IPP:Endereco": "Rua Guarama, 40 - n. porta= 15", "addr:housenumber": "40", "addr:street": "Rua Guarama", "amenity": "police", "name": "40\u00ba DP - Honorio Gurgel", "phone": "+55 21 3399-6400", "source": "IPP"}}, {"type": "node", "id": 823958808, "lat": -23.0108853, "lon": -43.2969455, "tags": {"IPP:Codigo": "47", "addr:street": "Pra\u00e7a Desembargador Ara\u00fajo Jorge", "amenity": "police", "name": "DMMA - Delegacia M\u00f3vel de Meio Ambiente", "note": "Local sem n\u00famero", "phone": "+55-21-23997191", "source": "IPP"}}, {"type": "node", "id": 823958810, "lat": -22.893336, "lon": -43.190745, "tags": {"IPP:Codigo": "38.000000000", "addr:housenumber": "1, 3\u00ba andar", "addr:street": "Rua Silvino Montenegro", "addr:suburb": "Gamboa", "amenity": "police", "name": "Delegacia Especial de Atendimento a Mulher", "phone": "+55 21 2399-3690", "short_name": "DEAM", "source": "IPP"}}, {"type": "node", "id": 823958815, "lat": -22.9133609, "lon": -43.2147586, "tags": {"entrance": "main"}}, {"type": "node", "id": 823958818, "lat": -22.9819231, "lon": -43.2182944, "tags": {"IPP:Codigo": "42.000000000", "addr:street": "Avenida Afr\u00e2nio de Melo Franco", "amenity": "police", "name": "DEAT - Delegacia de Atendimento ao Turista", "note": "S/N", "phone": "+55-21-23997170; +55-21-25115767; +55-21-25115881", "source": "IPP"}}, {"type": "node", "id": 823958825, "lat": -22.8626402, "lon": -43.3769556, "tags": {"IPP:Codigo": "24", "addr:city": "Rio de Janeiro", "addr:country": "BR", "addr:housenumber": "340", "addr:street": "Rua General Oswaldo Cordeiro de Faria", "amenity": "police", "name": "30\u00ba DP - Marechal Hermes", "phone": "+55-21-33996300", "source": "IPP"}}, {"type": "node", "id": 823958829, "lat": -22.808228, "lon": -43.1968822, "tags": {"IPP:Codigo": "25.000000000", "IPP:Endereco": "Estrada do Galeao, 1.365", "IPP:Telefone": "3393-5211", "amenity": "police", "name": "37\u00ba DP - Ilha do Governador", "source": "IPP"}}, {"type": "node", "id": 823958836, "lat": -22.8932168, "lon": -43.1906932, "tags": {"IPP:Codigo": "36.000000000", "addr:housenumber": "1, 2\u00ba andar", "addr:street": "Rua Silvino Montenegro", "addr:suburb": "Gamboa", "amenity": "police", "name": "DC Polinter - Divis\u00e3o de Captura de Pol\u00edcia", "phone": "+55 21 2399-3780", "source": "IPP"}}, {"type": "node", "id": 823958841, "lat": -22.9082176, "lon": -43.1897681, "tags": {"IPP:Codigo": "2", "addr:city": "Rio de Janeiro", "addr:country": "BR", "addr:housenumber": "111", "addr:street": "Pra\u00e7a da Rep\u00fablica", "amenity": "police", "name": "4\u00ba DP - Pra\u00e7a da Rep\u00fablica", "phone": "+55-21-33995010", "source": "IPP"}}, {"type": "node", "id": 823958850, "lat": -22.9827615, "lon": -43.1910814, "tags": {"IPP:Codigo": "8", "addr:city": "Rio de Janeiro", "addr:country": "BR", "addr:housenumber": "1260", "addr:street": "Avenida Nossa Senhora de Copacabana", "amenity": "police", "name": "13\u00ba DP - Ipanema", "phone": "+55-21-33997090", "source": "IPP"}}, {"type": "node", "id": 823958851, "lat": -22.8246476, "lon": -43.4034822, "tags": {"IPP:Codigo": "32.000000000", "IPP:Endereco": "Avenida Marechal Alencastro, 4933 - QD. B", "IPP:Telefone": "3399-6310", "amenity": "police", "name": "31\u00ba DP - Ricardo de Albuquerque", "source": "IPP"}}, {"type": "node", "id": 823958855, "lat": -22.9124931, "lon": -43.1817986, "tags": {"addr:city": "Rio de Janeiro", "addr:country": "BR", "addr:housenumber": "155", "addr:postcode": "20230-070", "addr:street": "Rua do Lavradio", "addr:suburb": "Lapa", "amenity": "police", "name": "Delegacia da Crian\u00e7a ao Adolescente V\u00edtima (DCAV)", "source": "IPP"}}, {"type": "node", "id": 823958861, "lat": -22.8934204, "lon": -43.1907816, "tags": {"IPP:Codigo": "43.000000000", "addr:housenumber": "1, 4\u00ba andar", "addr:street": "Rua Silvino Montenegro", "addr:suburb": "Gamboa", "amenity": "police", "name": "Delegacia de Pol\u00edcia Fazendaria", "phone": "+55 21 2399-3658", "short_name": "DELFAZ", "source": "IPP"}}, {"type": "node", "id": 823958862, "lat": -22.9144504, "lon": -43.6844945, "tags": {"IPP:Codigo": "34.000000000", "addr:housenumber": "67", "addr:street": "Rua Dom Jo\u00e3o VI", "amenity": "police", "name": "36\u00ba DP - Santa Cruz", "phone": "+55-21-33995660", "source": "IPP"}}, {"type": "node", "id": 823958870, "lat": -22.972285, "lon": -43.2258357, "tags": {"IPP:Codigo": "9.000000000", "IPP:Endereco": "Rua Major Rubens Vaz, 170", "IPP:Telefone": "3399-7040", "amenity": "police", "name": "15\u00ba DP - Gavea", "source": "IPP"}}, {"type": "node", "id": 823958871, "lat": -22.9102718, "lon": -43.184373, "tags": {"IPP:Codigo": "54", "addr:city": "Rio de Janeiro", "addr:country": "BR", "addr:housenumber": "42", "addr:street": "Rua da Rela\u00e7\u00e3o", "amenity": "police", "name": "DSD - Delegacia Supervisora de Dia", "phone": "+55-21-23993024", "source": "IPP"}}, {"type": "node", "id": 823958873, "lat": -22.9024231, "lon": -43.2903068, "tags": {"IPP:Codigo": "20.000000000", "IPP:Endereco": "Rua Adriano, 304", "IPP:Telefone": "3399-6260", "amenity": "police", "name": "24\u00ba DP - Todos os Santos", "source": "IPP"}}, {"type": "node", "id": 823958881, "lat": -22.9479167, "lon": -43.1859914}, {"type": "node", "id": 823958882, "lat": -22.9043229, "lon": -43.5664877, "tags": {"IPP:Codigo": "30.000000000", "IPP:Endereco": "Avenida Maria Tereza, Lt 8/9/10", "IPP:Telefone": "3399-5650", "amenity": "police", "name": "35\u00ba DP - Campo Grande", "source": "IPP"}}, {"type": "node", "id": 823958888, "lat": -22.8932797, "lon": -43.1907205, "tags": {"IPP:Codigo": "37.000000000", "addr:housenumber": "1, 4\u00ba andar", "addr:street": "Rua Silvino Montenegro", "addr:suburb": "Gamboa", "amenity": "police", "name": "Delegacia de Defrauda\u00e7\u00f5es", "phone": "+55 21 2399-3671", "short_name": "DDEF", "source": "IPP"}}, {"type": "node", "id": 823958891, "lat": -22.910236, "lon": -43.1844155, "tags": {"IPP:Codigo": "41", "addr:city": "Rio de Janeiro", "addr:country": "BR", "addr:housenumber": "42", "addr:street": "Rua da Rela\u00e7\u00e3o", "amenity": "police", "name": "DEAPTI - Delegacia Especial de Atendimento a Pessoas da Terceira Idade", "phone": "+55-21-22321262", "source": "IPP"}}, {"type": "node", "id": 823958893, "lat": -22.8726347, "lon": -43.2583036, "tags": {"IPP:Codigo": "16.000000000", "IPP:Endereco": "Avenida dos Democraticos, 1322", "IPP:Telefone": "3399-6110", "amenity": "police", "name": "21\u00ba DP - Bonsucesso", "source": "IPP"}}, {"type": "node", "id": 823958899, "lat": -22.8170839, "lon": -43.3547861, "tags": {"IPP:Codigo": "52.000000000", "IPP:Endereco": "Praca Alencastro Guimaraes, 86 - Pavuna", "IPP:Telefone": "2399-3800 / 2474-2441", "amenity": "police", "name": "Terceira companhia da 41\u00b0 BPM (Iraj\u00e1)", "source": "IPP"}}, {"type": "node", "id": 823958902, "lat": -22.871435, "lon": -43.336207, "tags": {"IPP:Codigo": "23", "addr:city": "Rio de Janeiro", "addr:country": "BR", "addr:housenumber": "227", "addr:street": "Avenida Ministro Edgard Romero", "amenity": "police", "name": "29\u00ba DP - Madureira", "phone": "+55-21-33996290", "source": "IPP"}}, {"type": "node", "id": 823958907, "lat": -22.8990256, "lon": -43.2778656, "tags": {"IPP:Codigo": "18", "addr:city": "Rio de Janeiro", "addr:country": "BR", "addr:housenumber": "80", "addr:street": "Rua Aristides Caire", "amenity": "police", "name": "23\u00ba DP - Meier", "phone": "+55-21-33996330", "source": "IPP"}}, {"type": "node", "id": 823958911, "lat": -22.9088219, "lon": -43.1961622, "tags": {"IPP:Codigo": "4.000000000", "addr:housenumber": "77", "addr:street": "Rua Professor Clementino Fraga", "amenity": "police", "name": "6\u00ba DP - Cidade Nova", "phone": "+55-21-33995020", "source": "IPP"}}, {"type": "node", "id": 823958913, "lat": -22.8744917, "lon": -43.4631202, "tags": {"IPP:Codigo": "28", "addr:city": "Rio de Janeiro", "addr:country": "BR", "addr:housenumber": "51", "addr:street": "Rua Sabogi", "amenity": "police", "name": "34\u00ba DP - Bangu", "phone": "+55-21-33995640", "source": "IPP"}}, {"type": "node", "id": 823958920, "lat": -22.9082355, "lon": -43.1748257, "tags": {"IPP:Codigo": "48", "addr:housenumber": "169", "addr:street": "Avenida Gra\u00e7a Aranha", "amenity": "police", "name": "Delegacia de Repress\u00e3o a Crimes contra a Sa\u00fade P\u00fablica", "phone": "+55-21-23993372; +55-21-23993379", "short_name": "DRCCSP", "source": "IPP"}}, {"type": "node", "id": 823958923, "lat": -22.9822221, "lon": -43.2183156, "tags": {"IPP:Codigo": "35.000000000", "addr:housenumber": "159", "addr:street": "Avenida Afr\u00e2nio de Melo Franco", "amenity": "police", "name": "DAS - Divisao Anti-Sequestro", "phone": "+55-21-22599477", "source": "IPP"}}, {"type": "node", "id": 823958928, "lat": -22.981753, "lon": -43.2186159, "tags": {"IPP:Codigo": "11.000000000", "addr:housenumber": "315", "addr:street": "Rua Humberto de Campos", "amenity": "police", "name": "14\u00ba DP - Leblon", "phone": "+55-21-33997120", "source": "IPP"}}, {"type": "node", "id": 823958931, "lat": -22.9306638, "lon": -43.2446232, "tags": {"IPP:Codigo": "14.000000000", "IPP:Endereco": "Rua General Espirito Santo Cardoso, 208", "IPP:Telefone": "3399-5080", "amenity": "police", "name": "19\u00ba DP - Tijuca", "source": "IPP"}}, {"type": "node", "id": 823958933, "lat": -22.8818901, "lon": -43.2952258, "tags": {"IPP:Codigo": "50.000000000", "IPP:Endereco": "Avenida Suburbana, 6.860 - Piedade", "IPP:Telefone": "2399-3291", "amenity": "police", "name": "DRE - Delegacia de Repressao a Entorpecentes", "source": "IPP"}}, {"type": "node", "id": 823958949, "lat": -22.9082423, "lon": -43.1897585, "tags": {"IPP:Codigo": "1.000000000", "IPP:Telefone": "3399-5000", "amenity": "police", "name": "1\u00ba DP - Pra\u00e7a Mau\u00e1", "source": "IPP"}}, {"type": "node", "id": 823958954, "lat": -22.8407842, "lon": -43.3011928, "tags": {"IPP:Codigo": "26.000000000", "IPP:Endereco": "Avenida Bras de Pina, 1.115", "IPP:Telefone": "3399-6380", "amenity": "police", "name": "38\u00ba DP - Iraj\u00e1", "source": "IPP"}}, {"type": "node", "id": 823958963, "lat": -22.910205, "lon": -43.1843353, "tags": {"IPP:Codigo": "46", "addr:city": "Rio de Janeiro", "addr:country": "BR", "addr:housenumber": "42 / 7\u00ba andar", "addr:street": "Rua da Rela\u00e7\u00e3o", "amenity": "police", "name": "DH - Delegacia de Homic\u00eddios", "phone": "+55-21-22421938; +55-21-23993600; +55-21-23993601", "source": "IPP"}}, {"type": "node", "id": 823958967, "lat": -22.8888872, "lon": -43.2360252, "tags": {"IPP:Codigo": "53.000000000", "IPP:Endereco": "Rua Celio Nascimento, 33 - Benfica", "IPP:Telefone": "2399-3638", "amenity": "police", "name": "DRFVAT - Delegacia de Roubos e Furtos de Veiculos", "source": "IPP"}}, {"type": "node", "id": 823958971, "lat": -22.9043778, "lon": -43.2187007, "tags": {"IPP:Codigo": "12.000000000", "IPP:Endereco": "Rua Sao Cristovao, 309", "IPP:Telefone": "3399-5030", "amenity": "police", "name": "17\u00ba DP - Sao Cristovao", "source": "IPP"}}, {"type": "node", "id": 823958977, "lat": -22.9242402, "lon": -43.1872402, "tags": {"addr:city": "Rio de Janeiro", "addr:housenumber": "5", "addr:street": "Rua Francisco de Castro", "addr:suburb": "Santa Teresa", "amenity": "police", "name": "7\u00ba DP - Santa Tereza", "phone": "+55 21 3399-5070", "source": "IPP"}}, {"type": "node", "id": 823958985, "lat": -22.9067849, "lon": -43.5714031, "tags": {"IPP:Codigo": "40.000000000", "IPP:Endereco": "Avenida Cesario de Mello, 4.138 - Campo Grande", "IPP:Telefone": "2232-1262", "amenity": "police", "name": "DEAM Rio-Oeste - Delegacia Especial de Atendimento a Mulher", "source": "IPP"}}, {"type": "node", "id": 823958989, "lat": -22.8931803, "lon": -43.1906774, "tags": {"IPP:Codigo": "44.000000000", "addr:housenumber": "1, 4\u00ba andar", "addr:street": "Rua Silvino Montenegro", "addr:suburb": "Gamboa", "amenity": "police", "name": "Delegacia Especial de Tr\u00e2nsito", "phone": "+55 21 2399-3250", "short_name": "DELTRAN", "source": "IPP"}}, {"type": "node", "id": 823958994, "lat": -22.8817797, "lon": -43.2950267, "tags": {"IPP:Codigo": "51.000000000", "IPP:Telefone": "2233-2701", "amenity": "police", "fixme": "resurvey", "name": "DRF - Delegacia de Roubos e Furtos", "source": "IPP"}}, {"type": "node", "id": 823958995, "lat": -23.009377, "lon": -43.313327, "tags": {"IPP:Codigo": "10.000000000", "IPP:Endereco": "Rua General Ivan Raposo, s/no", "IPP:Telefone": "3399-7140", "amenity": "police", "name": "16\u00ba DP - Barra da Tijuca", "source": "IPP"}}, {"type": "node", "id": 837056507, "lat": -22.9031842, "lon": -43.2689847, "tags": {"IPP:Codigo": "19", "addr:city": "Rio de Janeiro", "addr:country": "BR", "addr:housenumber": "983", "addr:street": "Rua Vinte e Quatro de Maio", "amenity": "police", "name": "25\u00ba DP - Engenho Novo", "phone": "+55-21-33996250", "source": "IPP"}}, {"type": "node", "id": 857747396, "lat": -22.9673673, "lon": -43.1843394, "tags": {"addr:city": "Rio de Janeiro", "addr:country": "BR", "addr:housenumber": "102", "addr:street": "Rua Hil\u00e1rio de Gouveia", "addr:suburb": "Copacabana", "amenity": "police", "name": "12\u00aa DP - Copacabana", "phone": "+55 21 3399-7070", "source": "IPP"}}, {"type": "node", "id": 914652864, "lat": -22.9449946, "lon": -43.1853952}, {"type": "node", "id": 974294321, "lat": -22.9469868, "lon": -43.1949646, "tags": {"amenity": "police"}}, {"type": "node", "id": 1102517348, "lat": -22.9004801, "lon": -43.2762893}, {"type": "node", "id": 1102517477, "lat": -22.9001836, "lon": -43.2774855}, {"type": "node", "id": 1102517555, "lat": -22.9007469, "lon": -43.2768793}, {"type": "node", "id": 1102517581, "lat": -22.899808, "lon": -43.2770081}, {"type": "node", "id": 1195040433, "lat": -22.9197364, "lon": -43.3585041, "tags": {"amenity": "police", "name": "32\u00aa DP - Tanque"}}, {"type": "node", "id": 1198696358, "lat": -22.9076657, "lon": -43.1840005}, {"type": "node", "id": 1307372786, "lat": -22.9717214, "lon": -43.1843785, "tags": {"amenity": "police"}}, {"type": "node", "id": 1307380722, "lat": -22.9806422, "lon": -43.1899173, "tags": {"amenity": "police", "name": "Choque de Ordem - Ordenamento da Orla"}}, {"type": "node", "id": 1366893077, "lat": -22.8998193, "lon": -43.2523127, "tags": {"amenity": "police", "name": "25a Delegacia de Pol\u00edcia"}}, {"type": "node", "id": 1419187049, "lat": -22.9032319, "lon": -43.1869578}, {"type": "node", "id": 1419187050, "lat": -22.9032837, "lon": -43.1871529}, {"type": "node", "id": 1419187051, "lat": -22.9033442, "lon": -43.1870187}, {"type": "node", "id": 1419187052, "lat": -22.903424, "lon": -43.1870984}, {"type": "node", "id": 1480618183, "lat": -22.9257486, "lon": -43.2439048}, {"type": "node", "id": 1480618184, "lat": -22.9251803, "lon": -43.2434836}, {"type": "node", "id": 1480618188, "lat": -22.9261298, "lon": -43.2436513}, {"type": "node", "id": 1480618191, "lat": -22.9258018, "lon": -43.2430701}, {"type": "node", "id": 1480618193, "lat": -22.925288, "lon": -43.2442113}, {"type": "node", "id": 1480618196, "lat": -22.92496, "lon": -43.2436302}, {"type": "node", "id": 1480618201, "lat": -22.9254392, "lon": -43.2433113}, {"type": "node", "id": 1514389400, "lat": -22.9847133, "lon": -43.1984375, "tags": {"amenity": "police"}}, {"type": "node", "id": 1599474545, "lat": -22.8682284, "lon": -43.3436963, "tags": {"amenity": "police", "source": "survey"}}, {"type": "node", "id": 1613303568, "lat": -22.8506248, "lon": -43.3095756, "tags": {"amenity": "police", "name": "Pol\u00edcia Militar 190"}}, {"type": "node", "id": 1753566559, "lat": -22.7967661, "lon": -43.3049416, "tags": {"amenity": "police", "name": "Guarita da Pol\u00edcia Militar"}}, {"type": "node", "id": 1756848936, "lat": -22.7815418, "lon": -43.3098274}, {"type": "node", "id": 1756848939, "lat": -22.7805946, "lon": -43.3106227}, {"type": "node", "id": 1756848940, "lat": -22.7813736, "lon": -43.3108078}, {"type": "node", "id": 1756848942, "lat": -22.7807591, "lon": -43.3096638}, {"type": "node", "id": 1785478427, "lat": -22.893513, "lon": -43.1176933, "tags": {"amenity": "police"}}, {"type": "node", "id": 1795187578, "lat": -22.8598308, "lon": -43.279253}, {"type": "node", "id": 1795187580, "lat": -22.8598364, "lon": -43.2792721}, {"type": "node", "id": 1795187581, "lat": -22.8598743, "lon": -43.2792409}, {"type": "node", "id": 1795187583, "lat": -22.8598834, "lon": -43.2792584}, {"type": "node", "id": 1796594914, "lat": -22.911368, "lon": -43.1942709}, {"type": "node", "id": 1796594915, "lat": -22.909338, "lon": -43.1949519}, {"type": "node", "id": 1796594916, "lat": -22.9105218, "lon": -43.1944342}, {"type": "node", "id": 1796594917, "lat": -22.9094409, "lon": -43.1946245}, {"type": "node", "id": 1796594919, "lat": -22.9092953, "lon": -43.194967}, {"type": "node", "id": 1796594920, "lat": -22.9091884, "lon": -43.1947736}, {"type": "node", "id": 1796594921, "lat": -22.9096402, "lon": -43.1958318}, {"type": "node", "id": 1796594922, "lat": -22.9097, "lon": -43.1962814}, {"type": "node", "id": 1796594923, "lat": -22.9115304, "lon": -43.1951449}, {"type": "node", "id": 1797747220, "lat": -22.9517058, "lon": -43.3562367}, {"type": "node", "id": 1797747221, "lat": -22.9517411, "lon": -43.3560509}, {"type": "node", "id": 1797747222, "lat": -22.9518153, "lon": -43.3562612}, {"type": "node", "id": 1797747223, "lat": -22.9518506, "lon": -43.3560754}, {"type": "node", "id": 1809229099, "lat": -22.8612462, "lon": -43.272255}, {"type": "node", "id": 1878603254, "lat": -22.9046984, "lon": -43.206749}, {"type": "node", "id": 1878603307, "lat": -22.9045073, "lon": -43.2064503}, {"type": "node", "id": 1878603333, "lat": -22.9045273, "lon": -43.2065291}, {"type": "node", "id": 1878603335, "lat": -22.9045547, "lon": -43.206485}, {"type": "node", "id": 1878603348, "lat": -22.9047389, "lon": -43.2066836}, {"type": "node", "id": 1878603364, "lat": -22.9044394, "lon": -43.2065598}, {"type": "node", "id": 1955027705, "lat": -22.8839666, "lon": -43.1151396}, {"type": "node", "id": 1955027714, "lat": -22.8844869, "lon": -43.1149269}, {"type": "node", "id": 1955027720, "lat": -22.8847693, "lon": -43.117349}, {"type": "node", "id": 1955027725, "lat": -22.8847333, "lon": -43.1170954}, {"type": "node", "id": 1955027726, "lat": -22.8847331, "lon": -43.1171261}, {"type": "node", "id": 1955027728, "lat": -22.8848481, "lon": -43.1167809}, {"type": "node", "id": 1955027729, "lat": -22.8848891, "lon": -43.1167029}, {"type": "node", "id": 1955027730, "lat": -22.8849238, "lon": -43.1165743}, {"type": "node", "id": 1955027731, "lat": -22.8849179, "lon": -43.1174087}, {"type": "node", "id": 1955027733, "lat": -22.8849697, "lon": -43.1164482}, {"type": "node", "id": 1955027735, "lat": -22.8849799, "lon": -43.117227}, {"type": "node", "id": 1955027736, "lat": -22.8850176, "lon": -43.1157956}, {"type": "node", "id": 1955027740, "lat": -22.8850197, "lon": -43.1172232}, {"type": "node", "id": 1955027744, "lat": -22.8850104, "lon": -43.117345}, {"type": "node", "id": 1955027747, "lat": -22.8850978, "lon": -43.1164555}, {"type": "node", "id": 1955027751, "lat": -22.885144, "lon": -43.1158047}, {"type": "node", "id": 1955027754, "lat": -22.8851379, "lon": -43.1168946}, {"type": "node", "id": 1955027766, "lat": -22.885169, "lon": -43.1168817}, {"type": "node", "id": 1955027772, "lat": -22.8852629, "lon": -43.1157384}, {"type": "node", "id": 1955027773, "lat": -22.8852696, "lon": -43.1156455}, {"type": "node", "id": 1955027775, "lat": -22.8853093, "lon": -43.1174704}, {"type": "node", "id": 1955027781, "lat": -22.8854655, "lon": -43.1168884}, {"type": "node", "id": 1955027782, "lat": -22.8854734, "lon": -43.1169938}, {"type": "node", "id": 1955027796, "lat": -22.8854921, "lon": -43.1168058}, {"type": "node", "id": 1955027799, "lat": -22.8855737, "lon": -43.1157628}, {"type": "node", "id": 1955027801, "lat": -22.8855803, "lon": -43.1156719}, {"type": "node", "id": 1958630278, "lat": -22.8911643, "lon": -43.1158168}, {"type": "node", "id": 1998856347, "lat": -22.8785219, "lon": -43.1139107}, {"type": "node", "id": 1998856352, "lat": -22.8782262, "lon": -43.114345}, {"type": "node", "id": 1998856354, "lat": -22.8783919, "lon": -43.1138065}, {"type": "node", "id": 1998856355, "lat": -22.8780963, "lon": -43.1142407}, {"type": "node", "id": 2015314301, "lat": -22.9959919, "lon": -43.2402996, "tags": {"amenity": "police", "name": "UPP (Sede)"}}, {"type": "node", "id": 2018979785, "lat": -22.8845589, "lon": -43.1202643}, {"type": "node", "id": 2018979789, "lat": -22.8846207, "lon": -43.1204638}, {"type": "node", "id": 2018979795, "lat": -22.8846539, "lon": -43.1204536}, {"type": "node", "id": 2018979805, "lat": -22.8847528, "lon": -43.1208814}, {"type": "node", "id": 2018979807, "lat": -22.8847825, "lon": -43.1208697}, {"type": "node", "id": 2018979844, "lat": -22.8850259, "lon": -43.1201684}, {"type": "node", "id": 2018979861, "lat": -22.8852852, "lon": -43.1210058}, {"type": "node", "id": 2182333178, "lat": -22.9740346, "lon": -43.2178109}, {"type": "node", "id": 2182353094, "lat": -22.976903, "lon": -43.2188931, "tags": {"amenity": "police", "name": "C23/4", "source": "survey"}}, {"type": "node", "id": 2205703424, "lat": -22.8534197, "lon": -43.6022118, "tags": {"amenity": "police", "name": "DPO"}}, {"type": "node", "id": 2242739675, "lat": -22.7893249, "lon": -43.3071239, "tags": {"amenity": "police", "name": "54\u00aa Delegacia Policial"}}, {"type": "node", "id": 2288321663, "lat": -22.8249768, "lon": -43.3119245, "tags": {"amenity": "police", "source": "survey"}}, {"type": "node", "id": 2307058503, "lat": -22.9610382, "lon": -43.2041605, "tags": {"amenity": "police", "name": "Guarda Municipal - Segunda Inspetoria", "source": "survey"}}, {"type": "node", "id": 2344500269, "lat": -22.9092931, "lon": -43.2001872}, {"type": "node", "id": 2344500273, "lat": -22.9097255, "lon": -43.1999749}, {"type": "node", "id": 2344500281, "lat": -22.9093742, "lon": -43.198849}, {"type": "node", "id": 2344500282, "lat": -22.9089315, "lon": -43.1990083}, {"type": "node", "id": 2363752438, "lat": -22.9563817, "lon": -43.1813288}, {"type": "node", "id": 2363752440, "lat": -22.956514, "lon": -43.1816335}, {"type": "node", "id": 2363752443, "lat": -22.9573368, "lon": -43.1811552}, {"type": "node", "id": 2363752445, "lat": -22.9572037, "lon": -43.1808314}, {"type": "node", "id": 2372216586, "lat": -22.8523083, "lon": -43.247169, "tags": {"amenity": "police", "name": "22a DP", "source": "survey"}}, {"type": "node", "id": 2404330625, "lat": -22.9393049, "lon": -43.187922}, {"type": "node", "id": 2404330700, "lat": -22.9393293, "lon": -43.1879793}, {"type": "node", "id": 2412769787, "lat": -22.8749307, "lon": -43.4558976, "tags": {"amenity": "police", "name": "Cabine policial"}}, {"type": "node", "id": 2424481726, "lat": -22.787063, "lon": -43.31083, "tags": {"amenity": "police"}}, {"type": "node", "id": 2429567618, "lat": -22.9159247, "lon": -43.5731659}, {"type": "node", "id": 2429567619, "lat": -22.9158197, "lon": -43.5752413}, {"type": "node", "id": 2429567620, "lat": -22.9134847, "lon": -43.5750632}, {"type": "node", "id": 2429567621, "lat": -22.9135903, "lon": -43.5738831}, {"type": "node", "id": 2439173027, "lat": -22.8670466, "lon": -43.6008128, "tags": {"amenity": "police", "name": "Delegacia de Pol\u00edcia Rodovi\u00e1ria Federal", "police": "traffic_police"}}, {"type": "node", "id": 2585483239, "lat": -22.8851957, "lon": -43.116543}, {"type": "node", "id": 2585483240, "lat": -22.8852452, "lon": -43.1158177}, {"type": "node", "id": 2585483241, "lat": -22.8856223, "lon": -43.1165774}, {"type": "node", "id": 2585483242, "lat": -22.8856718, "lon": -43.1158521}, {"type": "node", "id": 2616361233, "lat": -22.9753703, "lon": -43.2165635}, {"type": "node", "id": 2616361234, "lat": -22.9753483, "lon": -43.2164611}, {"type": "node", "id": 2616361235, "lat": -22.9749075, "lon": -43.2163431}, {"type": "node", "id": 2616361236, "lat": -22.9741803, "lon": -43.2162465}, {"type": "node", "id": 2616361238, "lat": -22.9739671, "lon": -43.2175893}, {"type": "node", "id": 2616361239, "lat": -22.9747845, "lon": -43.2173368}, {"type": "node", "id": 2616361240, "lat": -22.9751455, "lon": -43.2169838}, {"type": "node", "id": 2616361241, "lat": -22.9753441, "lon": -43.2166642}, {"type": "node", "id": 2623552591, "lat": -22.8532043, "lon": -43.2408343}, {"type": "node", "id": 2623552595, "lat": -22.854095, "lon": -43.2406384}, {"type": "node", "id": 2623552597, "lat": -22.8538515, "lon": -43.2394495}, {"type": "node", "id": 2623552599, "lat": -22.8529985, "lon": -43.2398049}, {"type": "node", "id": 2635422332, "lat": -22.8843618, "lon": -43.4042182, "tags": {"amenity": "police", "name": "33\u00aa Delegacia de Pol\u00edcia", "operator": "Pol\u00edcia Militar do Estado do Rio de Janeiro"}}, {"type": "node", "id": 2644067613, "lat": -22.9110716, "lon": -43.2250314}, {"type": "node", "id": 2644067620, "lat": -22.9111061, "lon": -43.225712}, {"type": "node", "id": 2644067626, "lat": -22.9111296, "lon": -43.225781}, {"type": "node", "id": 2644067632, "lat": -22.9111622, "lon": -43.2258379}, {"type": "node", "id": 2644067635, "lat": -22.9112007, "lon": -43.2258843}, {"type": "node", "id": 2644067647, "lat": -22.9112494, "lon": -43.2259139}, {"type": "node", "id": 2644067650, "lat": -22.9113366, "lon": -43.2259165}, {"type": "node", "id": 2644067652, "lat": -22.9113971, "lon": -43.2252808}, {"type": "node", "id": 2644067654, "lat": -22.9114138, "lon": -43.2258548}, {"type": "node", "id": 2644067658, "lat": -22.9114384, "lon": -43.2257395}, {"type": "node", "id": 2644067660, "lat": -22.9114335, "lon": -43.2258059}, {"type": "node", "id": 2660500015, "lat": -22.9327645, "lon": -43.2567393, "tags": {"amenity": "police", "name": "UPP do Andara\u00ed"}}, {"type": "node", "id": 2703498252, "lat": -22.9275019, "lon": -43.3433384}, {"type": "node", "id": 2703501597, "lat": -22.9268883, "lon": -43.3448397}, {"type": "node", "id": 2703501599, "lat": -22.9271864, "lon": -43.3447604}, {"type": "node", "id": 2703501600, "lat": -22.9273709, "lon": -43.3445105}, {"type": "node", "id": 2703501602, "lat": -22.9274749, "lon": -43.3442426}, {"type": "node", "id": 2768544119, "lat": -22.9055918, "lon": -43.2113037, "tags": {"amenity": "parking_entrance"}}, {"type": "node", "id": 2824934398, "lat": -22.9113993, "lon": -43.2395569}, {"type": "node", "id": 2824934399, "lat": -22.9115371, "lon": -43.2394567}, {"type": "node", "id": 2824934400, "lat": -22.9112033, "lon": -43.2389156}, {"type": "node", "id": 2824936001, "lat": -22.9110654, "lon": -43.2390158}, {"type": "node", "id": 2824936002, "lat": -22.9112575, "lon": -43.2390035}, {"type": "node", "id": 2824936003, "lat": -22.9111475, "lon": -43.2390759}, {"type": "node", "id": 2824936004, "lat": -22.9111598, "lon": -43.2390974}, {"type": "node", "id": 2824936005, "lat": -22.9112117, "lon": -43.2390625}, {"type": "node", "id": 2824936006, "lat": -22.91148, "lon": -43.2394982}, {"type": "node", "id": 2889575595, "lat": -22.9110716, "lon": -43.2252567}, {"type": "node", "id": 2889575596, "lat": -22.9110919, "lon": -43.2256229}, {"type": "node", "id": 2889575597, "lat": -22.9110703, "lon": -43.2251508}, {"type": "node", "id": 2904149401, "lat": -22.9997523, "lon": -43.3747964}, {"type": "node", "id": 2913250091, "lat": -22.9110794, "lon": -43.2249282}, {"type": "node", "id": 2913250092, "lat": -22.9111341, "lon": -43.2248914}, {"type": "node", "id": 2913715901, "lat": -22.8050846, "lon": -43.3784146, "tags": {"amenity": "police", "name": "Delegacia de Atendimento \u00e0 Mulher"}}, {"type": "node", "id": 2913716101, "lat": -22.8050791, "lon": -43.3786245, "tags": {"amenity": "police", "name": "64a DP", "official_name": "Sexag\u00e9sima Quarta Delegacia de Pol\u00edcia"}}, {"type": "node", "id": 2914927598, "lat": -22.822484, "lon": -43.3204166, "tags": {"amenity": "police", "name": "Cabine de Pol\u00edcia"}}, {"type": "node", "id": 2917691942, "lat": -22.8044542, "lon": -43.3450817, "tags": {"addr:city": "Rio de Janeiro", "addr:housenumber": "km 163", "addr:postcode": "21240-002", "addr:street": "Rodovia Presidente Dutra", "amenity": "police", "email": "del01.rj@prf.gov.br", "name": "Pol\u00edcia Rodovi\u00e1ria Federal", "opening_hours": "24/7", "operator": "Pol\u00edcia Rodovi\u00e1ria Federal", "operator:wikidata": "Q1158853", "operator:wikipedia": "pt:Pol\u00edcia Rodovi\u00e1ria Federal", "phone": "+55 21 3503 2312", "police": "traffic_police"}}, {"type": "node", "id": 2933395912, "lat": -22.9194185, "lon": -43.2338184, "tags": {"amenity": "police"}}, {"type": "node", "id": 2933676195, "lat": -22.9198391, "lon": -43.3985867, "tags": {"amenity": "police"}}, {"type": "node", "id": 2935939404, "lat": -22.8793532, "lon": -43.2548467}, {"type": "node", "id": 2935939405, "lat": -22.880509, "lon": -43.253712}, {"type": "node", "id": 2935939406, "lat": -22.8828937, "lon": -43.2542276}, {"type": "node", "id": 2935939407, "lat": -22.8823936, "lon": -43.2547536}, {"type": "node", "id": 2935939408, "lat": -22.8814796, "lon": -43.2559419, "tags": {"access": "no", "barrier": "gate"}}, {"type": "node", "id": 2935939409, "lat": -22.8811959, "lon": -43.2565153}, {"type": "node", "id": 2935939410, "lat": -22.8811454, "lon": -43.2565223}, {"type": "node", "id": 2935939411, "lat": -22.8828948, "lon": -43.2542906}, {"type": "node", "id": 2935939412, "lat": -22.8829044, "lon": -43.2542579}, {"type": "node", "id": 2935939413, "lat": -22.8822747, "lon": -43.2538147}, {"type": "node", "id": 2935939414, "lat": -22.8819617, "lon": -43.2536749}, {"type": "node", "id": 2935939415, "lat": -22.8817285, "lon": -43.2536359}, {"type": "node", "id": 2935939416, "lat": -22.8810976, "lon": -43.2536253}, {"type": "node", "id": 2935939417, "lat": -22.8807047, "lon": -43.2536501}, {"type": "node", "id": 2935939418, "lat": -22.8802726, "lon": -43.2538501}, {"type": "node", "id": 2935939419, "lat": -22.8799188, "lon": -43.2541102}, {"type": "node", "id": 2935939420, "lat": -22.8793563, "lon": -43.254772}, {"type": "node", "id": 2935939421, "lat": -22.8793417, "lon": -43.254811}, {"type": "node", "id": 2935939427, "lat": -22.8817214, "lon": -43.2554294, "tags": {"access": "no", "barrier": "gate"}}, {"type": "node", "id": 2962122416, "lat": -22.9164488, "lon": -43.3779274, "tags": {"amenity": "police"}}, {"type": "node", "id": 2962123354, "lat": -22.926369, "lon": -43.3438035}, {"type": "node", "id": 2962123393, "lat": -22.926682, "lon": -43.3444965}, {"type": "node", "id": 2962123420, "lat": -22.926919, "lon": -43.3448794}, {"type": "node", "id": 2962123437, "lat": -22.9270413, "lon": -43.3448955}, {"type": "node", "id": 2962123444, "lat": -22.9270988, "lon": -43.3448689}, {"type": "node", "id": 2962123496, "lat": -22.9274362, "lon": -43.3433653}, {"type": "node", "id": 2962123506, "lat": -22.9275235, "lon": -43.3440094}, {"type": "node", "id": 2962123510, "lat": -22.9275355, "lon": -43.343756}, {"type": "node", "id": 2965318625, "lat": -22.9269847, "lon": -43.3449025, "tags": {"barrier": "gate"}}, {"type": "node", "id": 2977299233, "lat": -22.8787781, "lon": -43.2661216, "tags": {"amenity": "police"}}, {"type": "node", "id": 2977335233, "lat": -22.8798269, "lon": -43.2542236, "tags": {"addr:city": "Rio de Janeiro", "addr:housenumber": "7", "addr:street": "Avenida dos Democr\u00e1ticos", "barrier": "gate"}}, {"type": "node", "id": 2988537643, "lat": -22.9894363, "lon": -43.4153654}, {"type": "node", "id": 2988537644, "lat": -22.9897944, "lon": -43.4155264}, {"type": "node", "id": 2988537645, "lat": -22.9899524, "lon": -43.4155827}, {"type": "node", "id": 2988537646, "lat": -22.9901623, "lon": -43.4156122}, {"type": "node", "id": 2988537647, "lat": -22.9903721, "lon": -43.4156015}, {"type": "node", "id": 2988537648, "lat": -22.9905228, "lon": -43.4155881}, {"type": "node", "id": 2988537649, "lat": -22.9908092, "lon": -43.4151884}, {"type": "node", "id": 2988537650, "lat": -22.9905499, "lon": -43.4144481}, {"type": "node", "id": 2988537651, "lat": -22.9900018, "lon": -43.4145366}, {"type": "node", "id": 2996851052, "lat": -22.8899664, "lon": -43.2434709, "tags": {"amenity": "police"}}, {"type": "node", "id": 3012472464, "lat": -22.845517, "lon": -43.3044243}, {"type": "node", "id": 3012472465, "lat": -22.8452674, "lon": -43.3041237}, {"type": "node", "id": 3012472466, "lat": -22.8453603, "lon": -43.3040723}, {"type": "node", "id": 3012472467, "lat": -22.8455954, "lon": -43.3043333}, {"type": "node", "id": 3026584732, "lat": -22.935741, "lon": -43.2540436}, {"type": "node", "id": 3026584733, "lat": -22.9357286, "lon": -43.2539211}, {"type": "node", "id": 3026584734, "lat": -22.9358568, "lon": -43.2539057}, {"type": "node", "id": 3026584735, "lat": -22.9358693, "lon": -43.2540281}, {"type": "node", "id": 3035383727, "lat": -22.9045587, "lon": -43.1911993}, {"type": "node", "id": 3035383728, "lat": -22.9047236, "lon": -43.1911528}, {"type": "node", "id": 3035383729, "lat": -22.904657, "lon": -43.1908574}, {"type": "node", "id": 3035383730, "lat": -22.9044871, "lon": -43.1909023}, {"type": "node", "id": 3042408341, "lat": -22.927771, "lon": -43.2523689, "tags": {"amenity": "police", "name": "20\u00ba DP - Vila Isabel (Plant\u00e3o do Hospital do Andara\u00ed)"}}, {"type": "node", "id": 3045620041, "lat": -22.90987, "lon": -43.178582}, {"type": "node", "id": 3203055531, "lat": -22.9691949, "lon": -43.1835792, "tags": {"amenity": "police", "name": "Posto Guarda Municipal"}}, {"type": "node", "id": 3215252200, "lat": -23.0226057, "lon": -43.4922335}, {"type": "node", "id": 3215252201, "lat": -23.022579, "lon": -43.4921289}, {"type": "node", "id": 3215252202, "lat": -23.0228441, "lon": -43.4920489}, {"type": "node", "id": 3215252203, "lat": -23.0228708, "lon": -43.4921535}, {"type": "node", "id": 3221085985, "lat": -22.8459622, "lon": -43.2443462, "tags": {"amenity": "police", "name": "Bope"}}, {"type": "node", "id": 3224261235, "lat": -22.8948149, "lon": -43.1922695}, {"type": "node", "id": 3224261236, "lat": -22.8950576, "lon": -43.1922113}, {"type": "node", "id": 3224261237, "lat": -22.8951466, "lon": -43.1920797}, {"type": "node", "id": 3224261238, "lat": -22.8950422, "lon": -43.1914089}, {"type": "node", "id": 3224261239, "lat": -22.8945477, "lon": -43.1915273}, {"type": "node", "id": 3224261240, "lat": -22.8946862, "lon": -43.1916199}, {"type": "node", "id": 3224261241, "lat": -22.8949618, "lon": -43.1915607}, {"type": "node", "id": 3224261242, "lat": -22.8950504, "lon": -43.1920513}, {"type": "node", "id": 3224261243, "lat": -22.8948675, "lon": -43.1921169}, {"type": "node", "id": 3251108829, "lat": -23.0083916, "lon": -43.3039632}, {"type": "node", "id": 3251108830, "lat": -23.00845, "lon": -43.303923}, {"type": "node", "id": 3251108831, "lat": -23.0084022, "lon": -43.303841}, {"type": "node", "id": 3251108832, "lat": -23.0083439, "lon": -43.3038811}, {"type": "node", "id": 3259036161, "lat": -23.0242489, "lon": -43.4790243}, {"type": "node", "id": 3259036162, "lat": -23.024147, "lon": -43.4790519}, {"type": "node", "id": 3259036163, "lat": -23.0241878, "lon": -43.4792286}, {"type": "node", "id": 3259036164, "lat": -23.0242892, "lon": -43.4792016}, {"type": "node", "id": 3278476733, "lat": -23.0241549, "lon": -43.4790505}, {"type": "node", "id": 3306376017, "lat": -22.8837187, "lon": -43.1154711}, {"type": "node", "id": 3306376018, "lat": -22.8839533, "lon": -43.1154151}, {"type": "node", "id": 3326868581, "lat": -22.9121205, "lon": -43.178995}, {"type": "node", "id": 3326868582, "lat": -22.9113744, "lon": -43.1792364}, {"type": "node", "id": 3326868583, "lat": -22.9103219, "lon": -43.1782762}, {"type": "node", "id": 3326868584, "lat": -22.9106085, "lon": -43.1777558}, {"type": "node", "id": 3338949598, "lat": -22.8959343, "lon": -43.1831824}, {"type": "node", "id": 3338949599, "lat": -22.8965576, "lon": -43.1834333}, {"type": "node", "id": 3338949600, "lat": -22.8968677, "lon": -43.1825359}, {"type": "node", "id": 3338949601, "lat": -22.8962413, "lon": -43.1822837}, {"type": "node", "id": 3423686164, "lat": -22.8511493, "lon": -43.2731404}, {"type": "node", "id": 3423686165, "lat": -22.8501071, "lon": -43.271792}, {"type": "node", "id": 3423686166, "lat": -22.8500998, "lon": -43.2717208}, {"type": "node", "id": 3423686167, "lat": -22.850508, "lon": -43.2712878}, {"type": "node", "id": 3423686168, "lat": -22.8515848, "lon": -43.2726086}, {"type": "node", "id": 3423686169, "lat": -22.850197, "lon": -43.2716178, "tags": {"addr:city": "Rio de Janeiro", "addr:housenumber": "769", "addr:postcode": "21073-185", "addr:street": "Rua Paranapanema", "addr:suburb": "Olaria", "entrance": "yes", "name": "16 Batalh\u00e3o de Pol\u00edcia Militar"}}, {"type": "node", "id": 3423686170, "lat": -22.8504465, "lon": -43.2718062}, {"type": "node", "id": 3423686171, "lat": -22.850306, "lon": -43.2716334}, {"type": "node", "id": 3423686172, "lat": -22.8503823, "lon": -43.2715577}, {"type": "node", "id": 3423686173, "lat": -22.8505317, "lon": -43.2717318}, {"type": "node", "id": 3423686174, "lat": -22.8506876, "lon": -43.2724292}, {"type": "node", "id": 3423686175, "lat": -22.8505339, "lon": -43.2722155}, {"type": "node", "id": 3423686176, "lat": -22.8508513, "lon": -43.2719431}, {"type": "node", "id": 3423686177, "lat": -22.8510194, "lon": -43.2721507}, {"type": "node", "id": 3423686178, "lat": -22.8509973, "lon": -43.2728733}, {"type": "node", "id": 3423686179, "lat": -22.8507562, "lon": -43.2725468}, {"type": "node", "id": 3423686180, "lat": -22.850827, "lon": -43.2724916}, {"type": "node", "id": 3423686181, "lat": -22.8510725, "lon": -43.2728085}, {"type": "node", "id": 3423686182, "lat": -22.8512119, "lon": -43.2728973}, {"type": "node", "id": 3423686183, "lat": -22.8511522, "lon": -43.2728229}, {"type": "node", "id": 3423686184, "lat": -22.8513823, "lon": -43.272614}, {"type": "node", "id": 3423686185, "lat": -22.8514442, "lon": -43.272686}, {"type": "node", "id": 3423686186, "lat": -22.8511179, "lon": -43.2730269}, {"type": "node", "id": 3423686187, "lat": -22.851036, "lon": -43.2729177}, {"type": "node", "id": 3423686188, "lat": -22.8511168, "lon": -43.2728541}, {"type": "node", "id": 3423686189, "lat": -22.8511975, "lon": -43.2729597}, {"type": "node", "id": 3423686190, "lat": -22.8509712, "lon": -43.2720381}, {"type": "node", "id": 3423686191, "lat": -22.850877, "lon": -43.271912}, {"type": "node", "id": 3423686192, "lat": -22.8509355, "lon": -43.2718605}, {"type": "node", "id": 3423694193, "lat": -22.8510297, "lon": -43.2719867}, {"type": "node", "id": 3423694194, "lat": -22.8511293, "lon": -43.2727159}, {"type": "node", "id": 3423694195, "lat": -22.8508516, "lon": -43.2723527}, {"type": "node", "id": 3423694196, "lat": -22.8510682, "lon": -43.2721578}, {"type": "node", "id": 3423694197, "lat": -22.8513458, "lon": -43.272521}, {"type": "node", "id": 3631633829, "lat": -22.9170285, "lon": -43.2630454, "tags": {"amenity": "police"}}, {"type": "node", "id": 3635258031, "lat": -22.9303964, "lon": -43.3236374, "tags": {"amenity": "police"}}, {"type": "node", "id": 3649910648, "lat": -22.9033135, "lon": -43.1869255}, {"type": "node", "id": 3649910650, "lat": -22.9033917, "lon": -43.1870002}, {"type": "node", "id": 3670154425, "lat": -22.9089733, "lon": -43.178962, "tags": {"amenity": "police", "source": "survey"}}, {"type": "node", "id": 3676874030, "lat": -22.9069615, "lon": -43.1781589, "tags": {"amenity": "police", "name": "Cabine de Pol\u00edcia"}}, {"type": "node", "id": 3752986834, "lat": -22.8837875, "lon": -43.396397}, {"type": "node", "id": 3752986860, "lat": -22.8841614, "lon": -43.3968962}, {"type": "node", "id": 3764903900, "lat": -22.9505005, "lon": -43.1677439, "tags": {"amenity": "police"}}, {"type": "node", "id": 3772044508, "lat": -22.8281139, "lon": -43.2348269, "tags": {"amenity": "police"}}, {"type": "node", "id": 3793504121, "lat": -22.8853803, "lon": -43.5569188, "tags": {"amenity": "police"}}, {"type": "node", "id": 3798721757, "lat": -22.8558526, "lon": -43.3882413}, {"type": "node", "id": 3798721775, "lat": -22.8562964, "lon": -43.3874798}, {"type": "node", "id": 3798721781, "lat": -22.8564392, "lon": -43.3894373}, {"type": "node", "id": 3798721786, "lat": -22.8568271, "lon": -43.3891448}, {"type": "node", "id": 3798721793, "lat": -22.8572607, "lon": -43.3893587}, {"type": "node", "id": 3798721794, "lat": -22.8574068, "lon": -43.3871789}, {"type": "node", "id": 3798721795, "lat": -22.8582069, "lon": -43.3877289}, {"type": "node", "id": 3804262766, "lat": -22.941267, "lon": -43.3515932, "tags": {"amenity": "police"}}, {"type": "node", "id": 3804744043, "lat": -22.875371, "lon": -43.2730859, "tags": {"amenity": "police"}}, {"type": "node", "id": 3804744180, "lat": -22.8820986, "lon": -43.28509, "tags": {"amenity": "police"}}, {"type": "node", "id": 3804836373, "lat": -22.8723415, "lon": -43.2521095, "tags": {"amenity": "police"}}, {"type": "node", "id": 3844298544, "lat": -22.8609078, "lon": -43.2332781}, {"type": "node", "id": 3844298545, "lat": -22.8609713, "lon": -43.2333761}, {"type": "node", "id": 3844298546, "lat": -22.8610457, "lon": -43.2333193}, {"type": "node", "id": 3844298547, "lat": -22.8609821, "lon": -43.2332213}, {"type": "node", "id": 3844327494, "lat": -22.8715452, "lon": -43.2468221}, {"type": "node", "id": 3844327495, "lat": -22.8716344, "lon": -43.2467696}, {"type": "node", "id": 3844327496, "lat": -22.8715421, "lon": -43.2465847}, {"type": "node", "id": 3844327497, "lat": -22.8714528, "lon": -43.2466372}, {"type": "node", "id": 3875143201, "lat": -22.858442, "lon": -43.2656299}, {"type": "node", "id": 3875143203, "lat": -22.858452, "lon": -43.2657034}, {"type": "node", "id": 3875143214, "lat": -22.8585076, "lon": -43.2656194}, {"type": "node", "id": 3875143216, "lat": -22.8585165, "lon": -43.2656843}, {"type": "node", "id": 3877507463, "lat": -22.8648303, "lon": -43.2722973}, {"type": "node", "id": 3877507464, "lat": -22.8648937, "lon": -43.272383}, {"type": "node", "id": 3877507467, "lat": -22.8648968, "lon": -43.2722394}, {"type": "node", "id": 3877507468, "lat": -22.8649602, "lon": -43.2723251}, {"type": "node", "id": 3895662998, "lat": -22.8582454, "lon": -43.2706647}, {"type": "node", "id": 3895662999, "lat": -22.8582827, "lon": -43.2706255}, {"type": "node", "id": 3895663001, "lat": -22.8583104, "lon": -43.2706585}, {"type": "node", "id": 3895663002, "lat": -22.8583218, "lon": -43.2706496}, {"type": "node", "id": 3895663003, "lat": -22.8583311, "lon": -43.270647}, {"type": "node", "id": 3895663004, "lat": -22.8583407, "lon": -43.2706475}, {"type": "node", "id": 3895663005, "lat": -22.8583498, "lon": -43.270651}, {"type": "node", "id": 3895663006, "lat": -22.8583563, "lon": -43.2707083}, {"type": "node", "id": 3895663008, "lat": -22.8583575, "lon": -43.2706572}, {"type": "node", "id": 3895663009, "lat": -22.8583644, "lon": -43.2706959}, {"type": "node", "id": 3895663010, "lat": -22.8583646, "lon": -43.2706687}, {"type": "node", "id": 3895663011, "lat": -22.858367, "lon": -43.2706823}, {"type": "node", "id": 3895663012, "lat": -22.8583694, "lon": -43.2708036}, {"type": "node", "id": 3895663013, "lat": -22.8584067, "lon": -43.2707643}, {"type": "node", "id": 3897788207, "lat": -22.9970326, "lon": -43.3659325}, {"type": "node", "id": 3965222474, "lat": -22.8629703, "lon": -43.2808616}, {"type": "node", "id": 3965222475, "lat": -22.8629704, "lon": -43.2808748}, {"type": "node", "id": 3965222477, "lat": -22.8629747, "lon": -43.2808865}, {"type": "node", "id": 3965222478, "lat": -22.8629748, "lon": -43.2808494}, {"type": "node", "id": 3965222481, "lat": -22.8629827, "lon": -43.2808957}, {"type": "node", "id": 3965222482, "lat": -22.8629831, "lon": -43.2808399}, {"type": "node", "id": 3965222484, "lat": -22.8629931, "lon": -43.2809012}, {"type": "node", "id": 3965222485, "lat": -22.8629935, "lon": -43.2807644}, {"type": "node", "id": 3965222486, "lat": -22.8629942, "lon": -43.2808345}, {"type": "node", "id": 3965222487, "lat": -22.8630029, "lon": -43.2808342}, {"type": "node", "id": 3965222489, "lat": -22.8630047, "lon": -43.2809022}, {"type": "node", "id": 3965222491, "lat": -22.8630117, "lon": -43.2808998}, {"type": "node", "id": 3965222492, "lat": -22.8630215, "lon": -43.2809728}, {"type": "node", "id": 3965222496, "lat": -22.863047, "lon": -43.2807559}, {"type": "node", "id": 3965222498, "lat": -22.8630751, "lon": -43.2809643}, {"type": "node", "id": 3975110603, "lat": -22.8636157, "lon": -43.2791589}, {"type": "node", "id": 3975110605, "lat": -22.8636353, "lon": -43.279119}, {"type": "node", "id": 3975110606, "lat": -22.8636903, "lon": -43.279202}, {"type": "node", "id": 3975110609, "lat": -22.8637098, "lon": -43.2791621}, {"type": "node", "id": 3975110616, "lat": -22.8655821, "lon": -43.2774028}, {"type": "node", "id": 3975110617, "lat": -22.8655821, "lon": -43.2774774}, {"type": "node", "id": 3975110618, "lat": -22.8656963, "lon": -43.2774028}, {"type": "node", "id": 3975110619, "lat": -22.8656963, "lon": -43.2774774}, {"type": "node", "id": 3975255037, "lat": -22.8841272, "lon": -43.3928151}, {"type": "node", "id": 3975255251, "lat": -22.883292, "lon": -43.3950038}, {"type": "node", "id": 3975255365, "lat": -22.8847341, "lon": -43.3933712}, {"type": "node", "id": 3975255369, "lat": -22.8842152, "lon": -43.3928186}, {"type": "node", "id": 3975255378, "lat": -22.8831042, "lon": -43.3932175}, {"type": "node", "id": 3975255416, "lat": -22.8846205, "lon": -43.3931566}, {"type": "node", "id": 3975255427, "lat": -22.8832525, "lon": -43.3929922}, {"type": "node", "id": 3975255438, "lat": -22.8843249, "lon": -43.3928581}, {"type": "node", "id": 3975255454, "lat": -22.8838594, "lon": -43.3928615}, {"type": "node", "id": 3975255555, "lat": -22.8832525, "lon": -43.3945532}, {"type": "node", "id": 3975255568, "lat": -22.8848488, "lon": -43.393416}, {"type": "node", "id": 3975255629, "lat": -22.8831339, "lon": -43.3930995}, {"type": "node", "id": 3987223221, "lat": -22.8584894, "lon": -43.2656887}, {"type": "node", "id": 3987223222, "lat": -22.8584905, "lon": -43.2656972}, {"type": "node", "id": 3987223223, "lat": -22.8611459, "lon": -43.2722058}, {"type": "node", "id": 3987223224, "lat": -22.8611659, "lon": -43.2721578}, {"type": "node", "id": 3987223225, "lat": -22.8611703, "lon": -43.2721455}, {"type": "node", "id": 3987223226, "lat": -22.8611783, "lon": -43.2721356}, {"type": "node", "id": 3987223227, "lat": -22.8611891, "lon": -43.2721294}, {"type": "node", "id": 3987223228, "lat": -22.8612012, "lon": -43.2721276}, {"type": "node", "id": 3987223229, "lat": -22.861213, "lon": -43.2721306}, {"type": "node", "id": 3987223230, "lat": -22.8612234, "lon": -43.2721381}, {"type": "node", "id": 3987223231, "lat": -22.8612266, "lon": -43.2721876}, {"type": "node", "id": 3987223232, "lat": -22.8612306, "lon": -43.2721491}, {"type": "node", "id": 3987223233, "lat": -22.8612323, "lon": -43.2721756}, {"type": "node", "id": 3987223234, "lat": -22.8612337, "lon": -43.2721622}, {"type": "node", "id": 3987223235, "lat": -22.8612662, "lon": -43.2722071}, {"type": "node", "id": 3987223236, "lat": -22.8654136, "lon": -43.2610987}, {"type": "node", "id": 3987223237, "lat": -22.8654209, "lon": -43.260951}, {"type": "node", "id": 3987223238, "lat": -22.8655146, "lon": -43.2611046}, {"type": "node", "id": 3987223239, "lat": -22.8655184, "lon": -43.2610286}, {"type": "node", "id": 3987223240, "lat": -22.8655219, "lon": -43.2609568}, {"type": "node", "id": 3987223241, "lat": -22.8655316, "lon": -43.2610276}, {"type": "node", "id": 3987223242, "lat": -22.865533, "lon": -43.2609585}, {"type": "node", "id": 3987223243, "lat": -22.8655429, "lon": -43.2609641}, {"type": "node", "id": 3987223244, "lat": -22.8655435, "lon": -43.2610211}, {"type": "node", "id": 3987223245, "lat": -22.8655506, "lon": -43.260973}, {"type": "node", "id": 3987223246, "lat": -22.865552, "lon": -43.26101}, {"type": "node", "id": 3987223247, "lat": -22.8655551, "lon": -43.2609841}, {"type": "node", "id": 3987223248, "lat": -22.8655559, "lon": -43.2609962}, {"type": "node", "id": 4162401188, "lat": -22.8816718, "lon": -43.2554874}, {"type": "node", "id": 4162403989, "lat": -22.8817121, "lon": -43.2555166}, {"type": "node", "id": 4162403990, "lat": -22.8817363, "lon": -43.2555487}, {"type": "node", "id": 4162403991, "lat": -22.881739, "lon": -43.2556478}, {"type": "node", "id": 4162403992, "lat": -22.8817497, "lon": -43.2556011}, {"type": "node", "id": 4162403993, "lat": -22.8817551, "lon": -43.2553883}, {"type": "node", "id": 4162403994, "lat": -22.8817846, "lon": -43.2554262}, {"type": "node", "id": 4162403995, "lat": -22.8818276, "lon": -43.2554583}, {"type": "node", "id": 4162403996, "lat": -22.8818786, "lon": -43.2554583}, {"type": "node", "id": 4162403997, "lat": -22.8819243, "lon": -43.2554175}, {"type": "node", "id": 4177319366, "lat": -22.8059246, "lon": -43.363966, "tags": {"amenity": "police", "name": "39\u00aa Delegacia"}}, {"type": "node", "id": 4264651343, "lat": -22.8836655, "lon": -43.395951}, {"type": "node", "id": 4280741402, "lat": -22.9625194, "lon": -43.2119107}, {"type": "node", "id": 4280741403, "lat": -22.962551, "lon": -43.2119412}, {"type": "node", "id": 4280741405, "lat": -22.9625568, "lon": -43.211865}, {"type": "node", "id": 4280741408, "lat": -22.9625884, "lon": -43.2118955}, {"type": "node", "id": 4280741672, "lat": -22.9739704, "lon": -43.217717}, {"type": "node", "id": 4280741676, "lat": -22.9740642, "lon": -43.2167461}, {"type": "node", "id": 4280741679, "lat": -22.9743408, "lon": -43.2179396}, {"type": "node", "id": 4280741682, "lat": -22.9743803, "lon": -43.2178297}, {"type": "node", "id": 4280741688, "lat": -22.9745976, "lon": -43.2178967}, {"type": "node", "id": 4287337092, "lat": -22.8738477, "lon": -43.2855619, "tags": {"amenity": "police", "name": "Delegacia de Inha\u00fama"}}, {"type": "node", "id": 4301554587, "lat": -22.9996382, "lon": -43.3744039}, {"type": "node", "id": 4301555093, "lat": -22.9996673, "lon": -43.3747876}, {"type": "node", "id": 4301555105, "lat": -22.9997511, "lon": -43.3747802}, {"type": "node", "id": 4301555115, "lat": -22.9997939, "lon": -43.37439}, {"type": "node", "id": 4301555118, "lat": -22.9998241, "lon": -43.37479}, {"type": "node", "id": 4304789217, "lat": -22.8379759, "lon": -43.2697367, "tags": {"amenity": "police", "name": "PMERJ", "operator": "Pol\u00edcia Militar do Estado do Rio de Janeiro", "operator:short": "PMERJ", "operator:wikidata": "Q6852137"}}, {"type": "node", "id": 4306072042, "lat": -22.9264271, "lon": -43.3750673, "tags": {"amenity": "police", "building": "public", "name": "32\u00aa DP"}}, {"type": "node", "id": 4317614795, "lat": -22.9098578, "lon": -43.1785869}, {"type": "node", "id": 4317614796, "lat": -22.9098689, "lon": -43.1786216}, {"type": "node", "id": 4317614801, "lat": -22.9098876, "lon": -43.178575}, {"type": "node", "id": 4317614802, "lat": -22.9098992, "lon": -43.1786097}, {"type": "node", "id": 4318736386, "lat": -22.9074111, "lon": -43.184072}, {"type": "node", "id": 4318736444, "lat": -22.9076825, "lon": -43.184071}, {"type": "node", "id": 4318736495, "lat": -22.9074315, "lon": -43.1841574}, {"type": "node", "id": 4318736546, "lat": -22.9075165, "lon": -43.1841176}, {"type": "node", "id": 4318736549, "lat": -22.90752, "lon": -43.1841325}, {"type": "node", "id": 4319775508, "lat": -22.9150114, "lon": -43.572755}, {"type": "node", "id": 4319775509, "lat": -22.9152251, "lon": -43.5738159}, {"type": "node", "id": 4319775510, "lat": -22.915398, "lon": -43.5726759}, {"type": "node", "id": 4320797937, "lat": -23.010529, "lon": -43.3659657}, {"type": "node", "id": 4320797938, "lat": -23.0105313, "lon": -43.3659088}, {"type": "node", "id": 4320797939, "lat": -23.0105605, "lon": -43.3659672}, {"type": "node", "id": 4320797940, "lat": -23.0105628, "lon": -43.3659103}, {"type": "node", "id": 4321149051, "lat": -22.8956901, "lon": -43.1833102}, {"type": "node", "id": 4321149054, "lat": -22.8956933, "lon": -43.1833011}, {"type": "node", "id": 4321149082, "lat": -22.8957456, "lon": -43.1830229}, {"type": "node", "id": 4321149088, "lat": -22.8957556, "lon": -43.1830118}, {"type": "node", "id": 4321149543, "lat": -22.8956675, "lon": -43.1832908}, {"type": "node", "id": 4321149593, "lat": -22.8957674, "lon": -43.1830012}, {"type": "node", "id": 4321149601, "lat": -22.8957759, "lon": -43.1829978}, {"type": "node", "id": 4321149615, "lat": -22.895799, "lon": -43.1830002}, {"type": "node", "id": 4321149628, "lat": -22.8958226, "lon": -43.1833634}, {"type": "node", "id": 4321149635, "lat": -22.8958317, "lon": -43.1833372}, {"type": "node", "id": 4321149668, "lat": -22.8959725, "lon": -43.1830719}, {"type": "node", "id": 4321149806, "lat": -22.8958682, "lon": -43.1827155}, {"type": "node", "id": 4321149830, "lat": -22.8958936, "lon": -43.1827258}, {"type": "node", "id": 4321149848, "lat": -22.8959108, "lon": -43.1825919}, {"type": "node", "id": 4321149877, "lat": -22.8959341, "lon": -43.1826011}, {"type": "node", "id": 4321149888, "lat": -22.8959467, "lon": -43.1830615}, {"type": "node", "id": 4321149959, "lat": -22.8962032, "lon": -43.182394}, {"type": "node", "id": 4321150001, "lat": -22.8960039, "lon": -43.1822701}, {"type": "node", "id": 4321150003, "lat": -22.8960046, "lon": -43.1822879}, {"type": "node", "id": 4321150010, "lat": -22.8960138, "lon": -43.1823049}, {"type": "node", "id": 4321150012, "lat": -22.8960215, "lon": -43.1823115}, {"type": "node", "id": 4321150021, "lat": -22.8960312, "lon": -43.1823193}, {"type": "node", "id": 4321150045, "lat": -22.8960778, "lon": -43.1820524}, {"type": "node", "id": 4321150053, "lat": -22.8960877, "lon": -43.1820257}, {"type": "node", "id": 4321150057, "lat": -22.8960907, "lon": -43.1832453}, {"type": "node", "id": 4321150089, "lat": -22.8961222, "lon": -43.183258}, {"type": "node", "id": 4321150102, "lat": -22.8961308, "lon": -43.1820336}, {"type": "node", "id": 4321150112, "lat": -22.8961386, "lon": -43.1820155}, {"type": "node", "id": 4321150138, "lat": -22.8961806, "lon": -43.1823849}, {"type": "node", "id": 4321150184, "lat": -22.8963483, "lon": -43.1823269}, {"type": "node", "id": 4321150320, "lat": -22.8962667, "lon": -43.1820784}, {"type": "node", "id": 4321150328, "lat": -22.8962708, "lon": -43.1820678}, {"type": "node", "id": 4321150335, "lat": -22.8962816, "lon": -43.1823}, {"type": "node", "id": 4321150380, "lat": -22.8965089, "lon": -43.1823915}, {"type": "node", "id": 4321150420, "lat": -22.8964024, "lon": -43.1823486}, {"type": "node", "id": 4321150438, "lat": -22.8964338, "lon": -43.1823612}, {"type": "node", "id": 4321150447, "lat": -22.896674, "lon": -43.1836755}, {"type": "node", "id": 4321150449, "lat": -22.8966828, "lon": -43.1830709}, {"type": "node", "id": 4321150469, "lat": -22.896744, "lon": -43.1828938}, {"type": "node", "id": 4321150486, "lat": -22.8967736, "lon": -43.1828081}, {"type": "node", "id": 4321150516, "lat": -22.8965935, "lon": -43.1833295}, {"type": "node", "id": 4321150543, "lat": -22.8966487, "lon": -43.1831697}, {"type": "node", "id": 4321150608, "lat": -22.8968356, "lon": -43.1826289}, {"type": "node", "id": 4321150932, "lat": -22.897096, "lon": -43.1824457}, {"type": "node", "id": 4321150933, "lat": -22.8971005, "lon": -43.1824326}, {"type": "node", "id": 4321310862, "lat": -22.8950329, "lon": -43.1914073}, {"type": "node", "id": 4321310873, "lat": -22.8950369, "lon": -43.1920771}, {"type": "node", "id": 4321311700, "lat": -22.8945463, "lon": -43.1915372}, {"type": "node", "id": 4321311703, "lat": -22.8945466, "lon": -43.1915328}, {"type": "node", "id": 4321311704, "lat": -22.8945467, "lon": -43.1915422}, {"type": "node", "id": 4321311706, "lat": -22.8945498, "lon": -43.191522}, {"type": "node", "id": 4321311707, "lat": -22.8945501, "lon": -43.1915596}, {"type": "node", "id": 4321311711, "lat": -22.8945526, "lon": -43.1915188}, {"type": "node", "id": 4321311716, "lat": -22.894563, "lon": -43.1915118}, {"type": "node", "id": 4321311840, "lat": -22.8949401, "lon": -43.1920999}, {"type": "node", "id": 4321312228, "lat": -22.8949957, "lon": -43.1920868}, {"type": "node", "id": 4321312240, "lat": -22.8950546, "lon": -43.1914156}, {"type": "node", "id": 4321312248, "lat": -22.8950584, "lon": -43.1914195}, {"type": "node", "id": 4321312251, "lat": -22.8950606, "lon": -43.1914232}, {"type": "node", "id": 4321312259, "lat": -22.8950642, "lon": -43.1914341}, {"type": "node", "id": 4321312493, "lat": -22.8950465, "lon": -43.1914103}, {"type": "node", "id": 4321312501, "lat": -22.8950493, "lon": -43.1914117}, {"type": "node", "id": 4321312516, "lat": -22.8951324, "lon": -43.1921084}, {"type": "node", "id": 4321312538, "lat": -22.8951409, "lon": -43.1921145}, {"type": "node", "id": 4321312592, "lat": -22.895091, "lon": -43.1921778}, {"type": "node", "id": 4321312595, "lat": -22.8950917, "lon": -43.1921973}, {"type": "node", "id": 4321312619, "lat": -22.8951122, "lon": -43.1921482}, {"type": "node", "id": 4321312626, "lat": -22.8951175, "lon": -43.1921521}, {"type": "node", "id": 4321312696, "lat": -22.8951775, "lon": -43.1920699}, {"type": "node", "id": 4341205811, "lat": -22.9358354, "lon": -43.666904}, {"type": "node", "id": 4341205812, "lat": -22.935861, "lon": -43.6669319}, {"type": "node", "id": 4341205813, "lat": -22.9358752, "lon": -43.6668608}, {"type": "node", "id": 4341205814, "lat": -22.9359008, "lon": -43.6668886}, {"type": "node", "id": 4343770916, "lat": -22.8938188, "lon": -43.6759685, "tags": {"amenity": "police", "name": "Pol\u00edcia Militar"}}, {"type": "node", "id": 4352760052, "lat": -22.8767192, "lon": -43.4726814, "tags": {"amenity": "police"}}, {"type": "node", "id": 4362185787, "lat": -22.914354, "lon": -43.1772128, "tags": {"amenity": "police", "name": "Cabine de pol\u00edcia"}}, {"type": "node", "id": 4363826138, "lat": -22.8972416, "lon": -43.3515692, "tags": {"amenity": "police", "description": "Cabine de pol\u00edcia"}}, {"type": "node", "id": 4364512591, "lat": -22.9179519, "lon": -43.2835438, "tags": {"amenity": "police", "name": "Cabine de pol\u00edcia"}}, {"type": "node", "id": 4405929095, "lat": -22.9112948, "lon": -43.2259229}, {"type": "node", "id": 4405929096, "lat": -22.9113806, "lon": -43.22589}, {"type": "node", "id": 4429202101, "lat": -22.8960354, "lon": -43.1821772}, {"type": "node", "id": 4465510091, "lat": -22.8588146, "lon": -43.3496266, "tags": {"amenity": "police", "operator": "Guarda Municipal"}}, {"type": "node", "id": 4486492494, "lat": -22.8375809, "lon": -43.3381321, "tags": {"addr:housenumber": "3000", "addr:street": "Avenida Pastor Martin Luther King Junior", "amenity": "police", "name": "41\u00b0BPM - PMERJ", "opening_hours": "24/7", "operator": "Pol\u00edcia Militar do Estado do Rio de Janeiro", "operator:short": "PMERJ", "operator:wikidata": "Q6852137", "operator:wikipedia": "pt:Pol\u00edcia Militar do Estado do Rio de Janeiro", "phone": "23338422"}}, {"type": "node", "id": 4491211284, "lat": -22.8844898, "lon": -43.1173104}, {"type": "node", "id": 4491211285, "lat": -22.8846278, "lon": -43.1170719}, {"type": "node", "id": 4491211286, "lat": -22.8848314, "lon": -43.1165873}, {"type": "node", "id": 4491211287, "lat": -22.8848989, "lon": -43.1158722}, {"type": "node", "id": 4491211288, "lat": -22.8848805, "lon": -43.1157033}, {"type": "node", "id": 4491214789, "lat": -22.8857033, "lon": -43.1154766}, {"type": "node", "id": 4491214790, "lat": -22.8857783, "lon": -43.1156558}, {"type": "node", "id": 4491214791, "lat": -22.885788, "lon": -43.1159276}, {"type": "node", "id": 4491214792, "lat": -22.8857334, "lon": -43.1165138}, {"type": "node", "id": 4491214793, "lat": -22.8855299, "lon": -43.1172137}, {"type": "node", "id": 4491214794, "lat": -22.8853265, "lon": -43.1176137}, {"type": "node", "id": 4491214795, "lat": -22.8851568, "lon": -43.1179}, {"type": "node", "id": 4491214796, "lat": -22.8849977, "lon": -43.1175381}, {"type": "node", "id": 4491214797, "lat": -22.8850372, "lon": -43.1174202}, {"type": "node", "id": 4491214798, "lat": -22.8852433, "lon": -43.1175165}, {"type": "node", "id": 4491214799, "lat": -22.8852093, "lon": -43.1176248}, {"type": "node", "id": 4491214800, "lat": -22.8847824, "lon": -43.1173018}, {"type": "node", "id": 4491214801, "lat": -22.8846894, "lon": -43.1172666}, {"type": "node", "id": 4511424408, "lat": -22.9592446, "lon": -43.2097113, "tags": {"amenity": "police", "name:fr": "poste de garde"}}, {"type": "node", "id": 4630173349, "lat": -22.9012462, "lon": -43.4487017, "tags": {"amenity": "police", "name": "Pol\u00edcia Ambiental"}}, {"type": "node", "id": 4804747836, "lat": -22.9804573, "lon": -43.1980395}, {"type": "node", "id": 4804747837, "lat": -22.9805433, "lon": -43.1981002}, {"type": "node", "id": 4804747838, "lat": -22.9806207, "lon": -43.1979438}, {"type": "node", "id": 4804747839, "lat": -22.9805304, "lon": -43.1978784}, {"type": "node", "id": 4987235709, "lat": -22.8842011, "lon": -43.3972069}, {"type": "node", "id": 5070369710, "lat": -22.8846238, "lon": -43.1201469}, {"type": "node", "id": 5070369711, "lat": -22.8846655, "lon": -43.1202441}, {"type": "node", "id": 5072166066, "lat": -22.9074618, "lon": -43.1840578}, {"type": "node", "id": 5092156982, "lat": -22.8132732, "lon": -43.2073025}, {"type": "node", "id": 5092156983, "lat": -22.8133254, "lon": -43.2073659}, {"type": "node", "id": 5092156984, "lat": -22.8133611, "lon": -43.2073313}, {"type": "node", "id": 5092156985, "lat": -22.8133908, "lon": -43.2073675}, {"type": "node", "id": 5092156986, "lat": -22.8134219, "lon": -43.2073375}, {"type": "node", "id": 5092156987, "lat": -22.8133872, "lon": -43.2072952}, {"type": "node", "id": 5092156988, "lat": -22.8133759, "lon": -43.2073061}, {"type": "node", "id": 5092156989, "lat": -22.8133288, "lon": -43.2072487}, {"type": "node", "id": 5142414021, "lat": -22.9867652, "lon": -43.2501605, "tags": {"amenity": "police", "name": "UPP Rocinha", "name:en": "Rocinha PD"}}, {"type": "node", "id": 5161074848, "lat": -22.9052323, "lon": -43.211469}, {"type": "node", "id": 5161074849, "lat": -22.9057355, "lon": -43.2112376}, {"type": "node", "id": 5161074850, "lat": -22.905642, "lon": -43.210302}, {"type": "node", "id": 5161074851, "lat": -22.9051373, "lon": -43.2103354}, {"type": "node", "id": 5161082044, "lat": -22.9057891, "lon": -43.2110217}, {"type": "node", "id": 5161082045, "lat": -22.9060485, "lon": -43.2109842}, {"type": "node", "id": 5161082046, "lat": -22.906046, "lon": -43.2109547}, {"type": "node", "id": 5161082047, "lat": -22.9061127, "lon": -43.2109466}, {"type": "node", "id": 5161082048, "lat": -22.9061053, "lon": -43.2108527}, {"type": "node", "id": 5161082049, "lat": -22.9060337, "lon": -43.2108635}, {"type": "node", "id": 5161082050, "lat": -22.9060015, "lon": -43.2105389}, {"type": "node", "id": 5161082051, "lat": -22.9060287, "lon": -43.2105362}, {"type": "node", "id": 5161082052, "lat": -22.9060188, "lon": -43.2104102}, {"type": "node", "id": 5161082053, "lat": -22.9057347, "lon": -43.210437}, {"type": "node", "id": 5201256581, "lat": -22.9970291, "lon": -43.3658448}, {"type": "node", "id": 5201256582, "lat": -22.9969802, "lon": -43.365847}, {"type": "node", "id": 5201256583, "lat": -22.9969836, "lon": -43.3659347}, {"type": "node", "id": 5201256603, "lat": -22.9969827, "lon": -43.3659113}, {"type": "node", "id": 5232473578, "lat": -22.9096123, "lon": -43.2000192, "tags": {"entrance": "yes"}}, {"type": "node", "id": 5232473579, "lat": -22.9096726, "lon": -43.1999947, "tags": {"entrance": "yes"}}, {"type": "node", "id": 5232498436, "lat": -22.9092976, "lon": -43.2001976}, {"type": "node", "id": 5232498437, "lat": -22.9093072, "lon": -43.2002083}, {"type": "node", "id": 5232498438, "lat": -22.909322, "lon": -43.2002163}, {"type": "node", "id": 5232498439, "lat": -22.9093428, "lon": -43.2002187}, {"type": "node", "id": 5232498440, "lat": -22.9093617, "lon": -43.2002133}, {"type": "node", "id": 5233879820, "lat": -22.9095916, "lon": -43.2000559}, {"type": "node", "id": 5233879821, "lat": -22.9096107, "lon": -43.200049}, {"type": "node", "id": 5233879822, "lat": -22.909602, "lon": -43.2000232}, {"type": "node", "id": 5233879823, "lat": -22.9096113, "lon": -43.2001215}, {"type": "node", "id": 5259100559, "lat": -22.8411259, "lon": -43.2403363}, {"type": "node", "id": 5259100560, "lat": -22.8410895, "lon": -43.2402851}, {"type": "node", "id": 5259100561, "lat": -22.8411698, "lon": -43.2402179}, {"type": "node", "id": 5259100562, "lat": -22.8412062, "lon": -43.2402691}, {"type": "node", "id": 5286368978, "lat": -22.8990709, "lon": -43.278021}, {"type": "node", "id": 5286368979, "lat": -22.8992816, "lon": -43.2777899}, {"type": "node", "id": 5286368980, "lat": -22.8991542, "lon": -43.2776478}, {"type": "node", "id": 5286368981, "lat": -22.8989428, "lon": -43.2778895}, {"type": "node", "id": 5300689879, "lat": -22.9339938, "lon": -43.6625506}, {"type": "node", "id": 5300689880, "lat": -22.9340208, "lon": -43.6629481}, {"type": "node", "id": 5300689881, "lat": -22.9339456, "lon": -43.6629427}, {"type": "node", "id": 5300689882, "lat": -22.9339151, "lon": -43.6625414}, {"type": "node", "id": 5323081121, "lat": -22.9839169, "lon": -43.2096749, "tags": {"addr:street": "Rua Visconde de Piraj\u00e1", "amenity": "police"}}, {"type": "node", "id": 5358110245, "lat": -22.9639517, "lon": -43.1918988, "tags": {"amenity": "police", "name": "Police Cabin"}}, {"type": "node", "id": 5373714626, "lat": -22.9928871, "lon": -43.2518652, "tags": {"amenity": "police", "name": "Delegacia - 11\u00aa DP da Rocinha"}}, {"type": "node", "id": 5401650063, "lat": -22.8882105, "lon": -43.7399969}, {"type": "node", "id": 5401650064, "lat": -22.8883728, "lon": -43.739752}, {"type": "node", "id": 5401650065, "lat": -22.888533, "lon": -43.739539}, {"type": "node", "id": 5401650066, "lat": -22.8886267, "lon": -43.7395897}, {"type": "node", "id": 5401650067, "lat": -22.8889595, "lon": -43.7398366}, {"type": "node", "id": 5401650068, "lat": -22.8892161, "lon": -43.740045}, {"type": "node", "id": 5401650069, "lat": -22.8897838, "lon": -43.7404882}, {"type": "node", "id": 5401650070, "lat": -22.889453, "lon": -43.7409577}, {"type": "node", "id": 5402740125, "lat": -22.9132602, "lon": -43.2251709, "tags": {"amenity": "police"}}, {"type": "node", "id": 5541089673, "lat": -22.8532445, "lon": -43.2397169}, {"type": "node", "id": 5670706984, "lat": -22.8770562, "lon": -43.2163163, "tags": {"amenity": "police", "name": "4\u00ba BPM"}}, {"type": "node", "id": 5771168124, "lat": -22.8783709, "lon": -43.1141325, "tags": {"entrance": "main"}}, {"type": "node", "id": 5820578031, "lat": -22.9389464, "lon": -43.1881842}, {"type": "node", "id": 5861283807, "lat": -22.9901556, "lon": -43.4152988, "tags": {"amenity": "police", "name": "31\u00ba Batalh\u00e3o da Pol\u00edcia Militar", "operator": "PMRJ"}}, {"type": "node", "id": 5956046038, "lat": -22.8537897, "lon": -43.239503}, {"type": "node", "id": 5991673275, "lat": -22.8794785, "lon": -43.1139931, "tags": {"amenity": "police", "police": "traffic_police"}}, {"type": "node", "id": 5991715699, "lat": -22.8862504, "lon": -43.2173769, "tags": {"amenity": "police", "police": "traffic_police"}}, {"type": "node", "id": 6013200875, "lat": -23.0104002, "lon": -43.5422518, "tags": {"amenity": "police", "note": "Posto policial"}}, {"type": "node", "id": 6308627590, "lat": -22.889009, "lon": -43.3461251}, {"type": "node", "id": 6308627598, "lat": -22.8892554, "lon": -43.3456368}, {"type": "node", "id": 6308627599, "lat": -22.88957, "lon": -43.3458239}, {"type": "node", "id": 6308627600, "lat": -22.8893236, "lon": -43.3463122}, {"type": "node", "id": 6313042332, "lat": -22.9136426, "lon": -43.1802505}, {"type": "node", "id": 6313042333, "lat": -22.9136324, "lon": -43.1802126}, {"type": "node", "id": 6313042334, "lat": -22.9135729, "lon": -43.1802315}, {"type": "node", "id": 6313042335, "lat": -22.9135831, "lon": -43.1802694}, {"type": "node", "id": 6385549905, "lat": -22.9136998, "lon": -43.2148885, "tags": {"entrance": "main"}}, {"type": "node", "id": 6385549906, "lat": -22.9133582, "lon": -43.2148033}, {"type": "node", "id": 6385549907, "lat": -22.9135295, "lon": -43.2150451}, {"type": "node", "id": 6385549908, "lat": -22.9135503, "lon": -43.2150493}, {"type": "node", "id": 6385549909, "lat": -22.9136965, "lon": -43.2149578}, {"type": "node", "id": 6385549910, "lat": -22.9136691, "lon": -43.2149067}, {"type": "node", "id": 6385549911, "lat": -22.9137237, "lon": -43.2148776}, {"type": "node", "id": 6385549912, "lat": -22.9141393, "lon": -43.2146396, "tags": {"entrance": "main"}}, {"type": "node", "id": 6385549913, "lat": -22.9136746, "lon": -43.2147427}, {"type": "node", "id": 6385549914, "lat": -22.9136815, "lon": -43.2147931}, {"type": "node", "id": 6385549915, "lat": -22.9137383, "lon": -43.2149001}, {"type": "node", "id": 6385549916, "lat": -22.9141236, "lon": -43.2146574}, {"type": "node", "id": 6385549918, "lat": -22.9141584, "lon": -43.2146274}, {"type": "node", "id": 6385549919, "lat": -22.9141661, "lon": -43.2146417}, {"type": "node", "id": 6385549920, "lat": -22.9142197, "lon": -43.2146084}, {"type": "node", "id": 6385549921, "lat": -22.9141737, "lon": -43.2145288}, {"type": "node", "id": 6385549922, "lat": -22.9141464, "lon": -43.2145454}, {"type": "node", "id": 6385549923, "lat": -22.9140369, "lon": -43.2143315}, {"type": "node", "id": 6385549924, "lat": -22.9142416, "lon": -43.2142245}, {"type": "node", "id": 6385549925, "lat": -22.9142963, "lon": -43.2143553}, {"type": "node", "id": 6385549926, "lat": -22.9144025, "lon": -43.2143042}, {"type": "node", "id": 6385549927, "lat": -22.9141562, "lon": -43.2137528}, {"type": "node", "id": 6385549928, "lat": -22.9141431, "lon": -43.2137456}, {"type": "node", "id": 6385549929, "lat": -22.9135815, "lon": -43.2143851}, {"type": "node", "id": 6385549930, "lat": -22.913518, "lon": -43.2141271}, {"type": "node", "id": 6385549931, "lat": -22.9130963, "lon": -43.2143832}, {"type": "node", "id": 6385549932, "lat": -22.9130846, "lon": -43.2144183}, {"type": "node", "id": 6385549933, "lat": -22.9132505, "lon": -43.2146471}, {"type": "node", "id": 6385549934, "lat": -22.9133794, "lon": -43.2147851}, {"type": "node", "id": 6385549935, "lat": -22.9135611, "lon": -43.2146358}, {"type": "node", "id": 6385549936, "lat": -22.9134524, "lon": -43.2144861}, {"type": "node", "id": 6385549938, "lat": -22.9133498, "lon": -43.2145566}, {"type": "node", "id": 6385549939, "lat": -22.9132701, "lon": -43.214627}, {"type": "node", "id": 6443793479, "lat": -22.8998, "lon": -43.2526336}, {"type": "node", "id": 6443793480, "lat": -22.8999562, "lon": -43.252598}, {"type": "node", "id": 6443793481, "lat": -22.8999209, "lon": -43.2522753}, {"type": "node", "id": 6443793482, "lat": -22.8997622, "lon": -43.2522972}, {"type": "node", "id": 6597447950, "lat": -22.9331231, "lon": -43.1773037, "tags": {"amenity": "police"}}, {"type": "node", "id": 6832032479, "lat": -22.8543272, "lon": -43.3536929}, {"type": "node", "id": 6832032480, "lat": -22.8551568, "lon": -43.3529889}, {"type": "node", "id": 6832032481, "lat": -22.8554836, "lon": -43.3533843}, {"type": "node", "id": 6832032482, "lat": -22.8546408, "lon": -43.3541263}, {"type": "node", "id": 6856425592, "lat": -22.8610888, "lon": -43.3472633}, {"type": "node", "id": 6856425593, "lat": -22.861383, "lon": -43.3476536}, {"type": "node", "id": 6856425594, "lat": -22.8613109, "lon": -43.3477154}, {"type": "node", "id": 6856425596, "lat": -22.860859, "lon": -43.3474645}, {"type": "node", "id": 6856425598, "lat": -22.8610202, "lon": -43.3476832}, {"type": "node", "id": 6856425599, "lat": -22.860939, "lon": -43.3473953}, {"type": "node", "id": 6856425616, "lat": -22.8609728, "lon": -43.3473655, "tags": {"entrance": "yes"}}, {"type": "node", "id": 6856425617, "lat": -22.8610282, "lon": -43.3473167, "tags": {"entrance": "yes"}}, {"type": "node", "id": 6918867889, "lat": -22.8582622, "lon": -43.5811248, "tags": {"addr:street": "Rua Mil e Vinte e Tres", "amenity": "police", "name": "Batalh\u00e3o de Opera\u00e7\u00f5es Especiais de Fuzileiros Navais", "name:en": "Marine Corps Special Operations Battallion"}}, {"type": "node", "id": 7107234586, "lat": -22.9351886, "lon": -43.2010248, "tags": {"amenity": "police", "name": "3 UPP - 5 BPM"}}, {"type": "node", "id": 7406896269, "lat": -22.8850561, "lon": -43.399011}, {"type": "node", "id": 7406896270, "lat": -22.8831286, "lon": -43.3985627}, {"type": "node", "id": 7406896271, "lat": -22.883249, "lon": -43.3980957}, {"type": "node", "id": 7406896273, "lat": -22.8850475, "lon": -43.3934257}, {"type": "node", "id": 7406896274, "lat": -22.8851765, "lon": -43.3954805}, {"type": "node", "id": 7406896275, "lat": -22.885254, "lon": -43.3967881}, {"type": "node", "id": 7406896276, "lat": -22.885254, "lon": -43.3982171}, {"type": "node", "id": 7450244755, "lat": -22.7967026, "lon": -43.3043974}, {"type": "node", "id": 7450244756, "lat": -22.7968833, "lon": -43.3044032}, {"type": "node", "id": 7450244757, "lat": -22.7968886, "lon": -43.3041494}, {"type": "node", "id": 7450244758, "lat": -22.7968009, "lon": -43.3041494}, {"type": "node", "id": 7450244759, "lat": -22.7967983, "lon": -43.3041725}, {"type": "node", "id": 7450244760, "lat": -22.7967052, "lon": -43.3041638}, {"type": "node", "id": 7591593762, "lat": -22.8843511, "lon": -43.1214713}, {"type": "node", "id": 7591593763, "lat": -22.8844932, "lon": -43.1214385}, {"type": "node", "id": 7591593764, "lat": -22.884504, "lon": -43.1214378}, {"type": "node", "id": 7591593765, "lat": -22.8845132, "lon": -43.1214415}, {"type": "node", "id": 7591593766, "lat": -22.8845222, "lon": -43.1214479}, {"type": "node", "id": 7591593767, "lat": -22.8847779, "lon": -43.1222478}, {"type": "node", "id": 7591593768, "lat": -22.8847817, "lon": -43.1222679}, {"type": "node", "id": 7591593769, "lat": -22.8847795, "lon": -43.1222814}, {"type": "node", "id": 7591593770, "lat": -22.8847724, "lon": -43.1222931}, {"type": "node", "id": 7591593771, "lat": -22.8847625, "lon": -43.1222995}, {"type": "node", "id": 7591593772, "lat": -22.8845537, "lon": -43.122335}, {"type": "node", "id": 7591593773, "lat": -22.8845441, "lon": -43.1223332}, {"type": "node", "id": 7591593774, "lat": -22.8845392, "lon": -43.1223291}, {"type": "node", "id": 7591593775, "lat": -22.8845359, "lon": -43.1223223}, {"type": "node", "id": 7736517068, "lat": -22.975047, "lon": -43.2163619}, {"type": "node", "id": 7736517069, "lat": -22.9751619, "lon": -43.2163994}, {"type": "node", "id": 7736517070, "lat": -22.9752582, "lon": -43.2164316}, {"type": "node", "id": 7798519963, "lat": -22.9105664, "lon": -43.2340113, "tags": {"amenity": "police"}}, {"type": "node", "id": 7862449674, "lat": -22.944698, "lon": -43.1853503}, {"type": "node", "id": 7941831699, "lat": -22.8836457, "lon": -43.3977482}, {"type": "node", "id": 7975830359, "lat": -22.9251218, "lon": -43.2439168}, {"type": "node", "id": 8005594106, "lat": -22.9069554, "lon": -43.2169174, "tags": {"barrier": "gate", "entrance": "yes"}}, {"type": "node", "id": 8147529304, "lat": -22.8848195, "lon": -43.1210911}, {"type": "node", "id": 8281853058, "lat": -22.9391676, "lon": -43.1883688}, {"type": "node", "id": 8281853059, "lat": -22.9393208, "lon": -43.1881771}, {"type": "node", "id": 8281853060, "lat": -22.9393876, "lon": -43.1881257}, {"type": "node", "id": 8281853061, "lat": -22.9393705, "lon": -43.1878701}, {"type": "node", "id": 8281853062, "lat": -22.9392707, "lon": -43.1877479}, {"type": "node", "id": 8281853063, "lat": -22.9390843, "lon": -43.1879232}, {"type": "node", "id": 8281853064, "lat": -22.9388895, "lon": -43.1877963}, {"type": "node", "id": 8281853065, "lat": -22.9387163, "lon": -43.1879966}, {"type": "node", "id": 8656774414, "lat": -22.9838121, "lon": -43.6617108}, {"type": "node", "id": 8656774415, "lat": -22.9837728, "lon": -43.6616839}, {"type": "node", "id": 8656774416, "lat": -22.9837495, "lon": -43.661724}, {"type": "node", "id": 8656784717, "lat": -22.9835757, "lon": -43.661605}, {"type": "node", "id": 8656784718, "lat": -22.9836195, "lon": -43.6615296}, {"type": "node", "id": 8656784719, "lat": -22.9838326, "lon": -43.6616755}, {"type": "node", "id": 8819241458, "lat": -22.9240918, "lon": -43.2320209}, {"type": "node", "id": 8819241459, "lat": -22.9240622, "lon": -43.2320015}, {"type": "node", "id": 8819241460, "lat": -22.9240434, "lon": -43.2320355}, {"type": "node", "id": 8819241461, "lat": -22.9240729, "lon": -43.2320549}, {"type": "node", "id": 8957074583, "lat": -22.9564805, "lon": -43.1815495, "tags": {"barrier": "gate"}}, {"type": "node", "id": 9051524212, "lat": -22.8168573, "lon": -43.3250369, "tags": {"amenity": "police", "name": "Delegacia PRF em Rio de Janeiro", "opening_hours": "Mo-Fr 08:00-17:00", "operator": "Pol\u00edcia Rodovi\u00e1ria Federal", "operator:wikidata": "Q1158853", "operator:wikipedia": "pt:Pol\u00edcia Rodovi\u00e1ria Federal", "phone": "+55 21 3503 2315", "police": "traffic_police"}}, {"type": "node", "id": 9051524213, "lat": -22.8169933, "lon": -43.325112, "tags": {"amenity": "police", "name": "Superintend\u00eancia da PRF no Rio de Janeiro", "opening_hours": "Mo-Fr 08:00-17:00", "operator": "Pol\u00edcia Rodovi\u00e1ria Federal", "operator:wikidata": "Q1158853", "operator:wikipedia": "pt:Pol\u00edcia Rodovi\u00e1ria Federal", "phone": "+55 21 3503 9000", "police": "traffic_police"}}, {"type": "node", "id": 9064061209, "lat": -22.8848914, "lon": -43.1163231}, {"type": "node", "id": 9064061210, "lat": -22.8849096, "lon": -43.1160504}, {"type": "node", "id": 9064061211, "lat": -22.8849031, "lon": -43.115666}, {"type": "node", "id": 9064061212, "lat": -22.8857425, "lon": -43.1154945}, {"type": "node", "id": 9064061213, "lat": -22.8857687, "lon": -43.1162446}, {"type": "node", "id": 9064061214, "lat": -22.8856569, "lon": -43.1168478}, {"type": "node", "id": 9064061215, "lat": -22.8851304, "lon": -43.1179046}, {"type": "node", "id": 9064061216, "lat": -22.8847361, "lon": -43.1168438}, {"type": "node", "id": 9064073117, "lat": -22.8854735, "lon": -43.1168002}, {"type": "node", "id": 9064073118, "lat": -22.8854921, "lon": -43.1167483}, {"type": "node", "id": 9071206273, "lat": -22.8911479, "lon": -43.1154199}, {"type": "node", "id": 9071206274, "lat": -22.8909861, "lon": -43.1153345}, {"type": "node", "id": 9071206275, "lat": -22.8908287, "lon": -43.1153358}, {"type": "node", "id": 9071206276, "lat": -22.8910761, "lon": -43.1158168}, {"type": "node", "id": 9071206277, "lat": -22.8908567, "lon": -43.1157351}, {"type": "node", "id": 9074518055, "lat": -22.8934409, "lon": -43.1238951, "tags": {"amenity": "police", "operator": "Pol\u00edcia Militar do Estado do Rio de Janeiro", "operator:short": "PMERJ", "operator:wikidata": "Q6852137", "operator:wikipedia": "pt:Pol\u00edcia Militar do Estado do Rio de Janeiro"}}, {"type": "node", "id": 9074768317, "lat": -22.8847196, "lon": -43.1212269}, {"type": "node", "id": 9074768318, "lat": -22.8844251, "lon": -43.1201881}, {"type": "node", "id": 9074768319, "lat": -22.8850931, "lon": -43.1200551}, {"type": "node", "id": 9074768321, "lat": -22.8854302, "lon": -43.1210803}, {"type": "node", "id": 9111847851, "lat": -22.8853684, "lon": -43.1157473}, {"type": "node", "id": 9111847852, "lat": -22.8854709, "lon": -43.115754}, {"type": "node", "id": 9111847853, "lat": -22.8854695, "lon": -43.1157733}, {"type": "node", "id": 9111847854, "lat": -22.8853672, "lon": -43.1157646}, {"type": "node", "id": 9212291594, "lat": -22.9479314, "lon": -43.1859934}, {"type": "node", "id": 9212291595, "lat": -22.947816, "lon": -43.1859772}, {"type": "node", "id": 9212291596, "lat": -22.9478921, "lon": -43.1868744}, {"type": "node", "id": 9212329843, "lat": -22.947898, "lon": -43.1866865}, {"type": "node", "id": 9212329849, "lat": -22.9478943, "lon": -43.1868049}, {"type": "node", "id": 9212330648, "lat": -22.9479167, "lon": -43.1862763}, {"type": "node", "id": 9212330649, "lat": -22.9479295, "lon": -43.1860294}, {"type": "node", "id": 9212330667, "lat": -22.9479018, "lon": -43.1865626}, {"type": "node", "id": 9212330843, "lat": -22.9478959, "lon": -43.1867535}, {"type": "node", "id": 9212331268, "lat": -22.9477675, "lon": -43.1867935}, {"type": "node", "id": 9212331278, "lat": -22.9478674, "lon": -43.1870454}, {"type": "node", "id": 9212331279, "lat": -22.9477536, "lon": -43.1870284}, {"type": "node", "id": 9212331316, "lat": -22.9477632, "lon": -43.1868668}, {"type": "node", "id": 9212331373, "lat": -22.9477866, "lon": -43.1864718}, {"type": "node", "id": 9212586458, "lat": -22.9450008, "lon": -43.1853461}, {"type": "node", "id": 9212586459, "lat": -22.9450036, "lon": -43.1853218}, {"type": "node", "id": 9212587300, "lat": -22.9447491, "lon": -43.1849097}, {"type": "node", "id": 9212587301, "lat": -22.9447504, "lon": -43.1848985}, {"type": "node", "id": 9212587304, "lat": -22.9447185, "lon": -43.1851733}, {"type": "node", "id": 9212587599, "lat": -22.9450154, "lon": -43.1852187}, {"type": "node", "id": 9212587737, "lat": -22.945031, "lon": -43.1843559}, {"type": "node", "id": 9212587895, "lat": -22.9451127, "lon": -43.184372}, {"type": "node", "id": 9212587906, "lat": -22.9450465, "lon": -43.1849479}, {"type": "node", "id": 9212588111, "lat": -22.9447562, "lon": -43.1848484}, {"type": "node", "id": 9212588112, "lat": -22.944759, "lon": -43.1848245}, {"type": "node", "id": 9212588113, "lat": -22.9448222, "lon": -43.1843223}, {"type": "node", "id": 9212588114, "lat": -22.9448542, "lon": -43.1843265}, {"type": "node", "id": 9212588115, "lat": -22.9448812, "lon": -43.1843301}, {"type": "node", "id": 9212588116, "lat": -22.9449367, "lon": -43.1843373}, {"type": "node", "id": 9212588117, "lat": -22.9449409, "lon": -43.1843382}, {"type": "node", "id": 9234301641, "lat": -22.9570319, "lon": -43.181333}, {"type": "node", "id": 9234301642, "lat": -22.956389, "lon": -43.1813459}, {"type": "node", "id": 9234302230, "lat": -22.9564804, "lon": -43.1812677}, {"type": "node", "id": 9234303163, "lat": -22.9569205, "lon": -43.1813976}, {"type": "node", "id": 9234303520, "lat": -22.9565381, "lon": -43.1816196}, {"type": "node", "id": 9234304453, "lat": -22.9566284, "lon": -43.1815671}, {"type": "node", "id": 9234304454, "lat": -22.956613, "lon": -43.1815761}, {"type": "node", "id": 9234304626, "lat": -22.9571734, "lon": -43.1808496}, {"type": "node", "id": 9234304627, "lat": -22.9568981, "lon": -43.1810154}, {"type": "node", "id": 9234304777, "lat": -22.9565243, "lon": -43.1812405}, {"type": "node", "id": 9234304778, "lat": -22.9564974, "lon": -43.1812571}, {"type": "node", "id": 9234304942, "lat": -22.956907, "lon": -43.1814054}, {"type": "node", "id": 9234306411, "lat": -22.9572056, "lon": -43.1812317}, {"type": "node", "id": 9234306412, "lat": -22.957215, "lon": -43.1812263}, {"type": "node", "id": 9234306415, "lat": -22.957193, "lon": -43.1812391}, {"type": "node", "id": 9234306870, "lat": -22.9569558, "lon": -43.1813771}, {"type": "node", "id": 9234308305, "lat": -22.9568804, "lon": -43.1814209}, {"type": "node", "id": 9234308751, "lat": -22.9567183, "lon": -43.181515}, {"type": "node", "id": 9234308756, "lat": -22.9566301, "lon": -43.1815662}, {"type": "node", "id": 9234308870, "lat": -22.9568588, "lon": -43.1814334}, {"type": "node", "id": 9234308874, "lat": -22.9568007, "lon": -43.1814671}, {"type": "node", "id": 9322713205, "lat": -22.9069117, "lon": -43.2163336}, {"type": "node", "id": 9322713207, "lat": -22.9067444, "lon": -43.2163525}, {"type": "node", "id": 9322713208, "lat": -22.9067539, "lon": -43.2164323}, {"type": "node", "id": 9322713209, "lat": -22.9067963, "lon": -43.2164288}, {"type": "node", "id": 9322713210, "lat": -22.9068305, "lon": -43.2168068}, {"type": "node", "id": 9322713211, "lat": -22.9067592, "lon": -43.2168137}, {"type": "node", "id": 9322713212, "lat": -22.9067862, "lon": -43.2170624}, {"type": "node", "id": 9322713213, "lat": -22.9068514, "lon": -43.2170573}, {"type": "node", "id": 9322713214, "lat": -22.9068923, "lon": -43.2175289}, {"type": "node", "id": 9322713215, "lat": -22.9070112, "lon": -43.2175152}, {"type": "node", "id": 9327381777, "lat": -22.8208244, "lon": -43.1778726}, {"type": "node", "id": 9327381778, "lat": -22.8208295, "lon": -43.1778814}, {"type": "node", "id": 9327381779, "lat": -22.8208376, "lon": -43.1778984}, {"type": "node", "id": 9327381780, "lat": -22.8208423, "lon": -43.1779103}, {"type": "node", "id": 9327392312, "lat": -22.820157, "lon": -43.1779179}, {"type": "node", "id": 9327392315, "lat": -22.8205146, "lon": -43.1788905}, {"type": "node", "id": 9327392318, "lat": -22.8208508, "lon": -43.1779586}, {"type": "node", "id": 9327392321, "lat": -22.820374, "lon": -43.1777498}, {"type": "node", "id": 9327392323, "lat": -22.820729, "lon": -43.1781122}, {"type": "node", "id": 9327392324, "lat": -22.8200706, "lon": -43.1780733}, {"type": "node", "id": 9327392327, "lat": -22.820027, "lon": -43.178408}, {"type": "node", "id": 9327392329, "lat": -22.8201329, "lon": -43.1779519}, {"type": "node", "id": 9327392330, "lat": -22.8208415, "lon": -43.1779858}, {"type": "node", "id": 9327392332, "lat": -22.8205205, "lon": -43.1787718}, {"type": "node", "id": 9327392333, "lat": -22.8202955, "lon": -43.1777957}, {"type": "node", "id": 9327392334, "lat": -22.8200361, "lon": -43.1782012}, {"type": "node", "id": 9327392335, "lat": -22.8208109, "lon": -43.1780221}, {"type": "node", "id": 9327392337, "lat": -22.8207436, "lon": -43.178119}, {"type": "node", "id": 9327392339, "lat": -22.82006, "lon": -43.1781071}, {"type": "node", "id": 9327392340, "lat": -22.8205601, "lon": -43.1785661}, {"type": "node", "id": 9327392341, "lat": -22.820781, "lon": -43.1778211}, {"type": "node", "id": 9327392342, "lat": -22.8201042, "lon": -43.1780005}, {"type": "node", "id": 9327392345, "lat": -22.820544, "lon": -43.1786351}, {"type": "node", "id": 9327392346, "lat": -22.8200266, "lon": -43.1782641}, {"type": "node", "id": 9327392347, "lat": -22.8208478, "lon": -43.1779285}, {"type": "node", "id": 9327392348, "lat": -22.8200525, "lon": -43.1785329}, {"type": "node", "id": 9327392349, "lat": -22.8200335, "lon": -43.1784533}, {"type": "node", "id": 9327392350, "lat": -22.8208512, "lon": -43.177946}, {"type": "node", "id": 9327392353, "lat": -22.8201929, "lon": -43.1778752}, {"type": "node", "id": 9327392355, "lat": -22.8205171, "lon": -43.1792444}, {"type": "node", "id": 9327392356, "lat": -22.8205563, "lon": -43.1777198}, {"type": "node", "id": 9327392357, "lat": -22.8207231, "lon": -43.1781246}, {"type": "node", "id": 9327392359, "lat": -22.820108, "lon": -43.1786813}, {"type": "node", "id": 9327392360, "lat": -22.8200759, "lon": -43.1780596}, {"type": "node", "id": 9327392362, "lat": -22.820847, "lon": -43.1779746}, {"type": "node", "id": 9327395311, "lat": -22.8204425, "lon": -43.1777345}, {"type": "node", "id": 9327395383, "lat": -22.8205215, "lon": -43.1793569}, {"type": "node", "id": 9327395389, "lat": -22.8203644, "lon": -43.1794117}, {"type": "node", "id": 9327395700, "lat": -22.8205709, "lon": -43.1780639}, {"type": "node", "id": 9327395701, "lat": -22.8205413, "lon": -43.1781571}, {"type": "node", "id": 9327395702, "lat": -22.8206107, "lon": -43.1781865}, {"type": "node", "id": 9327395703, "lat": -22.8204951, "lon": -43.1785417}, {"type": "node", "id": 9327395722, "lat": -22.8206087, "lon": -43.1777256}, {"type": "node", "id": 9327395723, "lat": -22.8206127, "lon": -43.17771}, {"type": "node", "id": 9327395724, "lat": -22.820745, "lon": -43.1777612}, {"type": "node", "id": 9327395725, "lat": -22.8207384, "lon": -43.1777768}, {"type": "node", "id": 9516491145, "lat": -22.9032501, "lon": -43.1870263}, {"type": "node", "id": 9528532646, "lat": -22.884211, "lon": -43.1150382}, {"type": "node", "id": 9528532652, "lat": -22.8845082, "lon": -43.1149169}, {"type": "node", "id": 9528532653, "lat": -22.8839942, "lon": -43.1149033}, {"type": "node", "id": 9528532659, "lat": -22.8838179, "lon": -43.1151279}, {"type": "node", "id": 9528532660, "lat": -22.8842499, "lon": -43.1145899}, {"type": "node", "id": 9528532661, "lat": -22.8842711, "lon": -43.1145811}, {"type": "node", "id": 9528532662, "lat": -22.8842972, "lon": -43.1145917}, {"type": "node", "id": 9528532663, "lat": -22.8843917, "lon": -43.1147209}, {"type": "node", "id": 9528532664, "lat": -22.8839538, "lon": -43.1150987}, {"type": "node", "id": 9528532665, "lat": -22.8838505, "lon": -43.1151544}, {"type": "node", "id": 9528532666, "lat": -22.884037, "lon": -43.1151104}, {"type": "node", "id": 9528532667, "lat": -22.8841174, "lon": -43.1153717}, {"type": "node", "id": 9528532668, "lat": -22.8836463, "lon": -43.1153343}, {"type": "node", "id": 9528532669, "lat": -22.8836506, "lon": -43.1152946}, {"type": "node", "id": 9573985829, "lat": -22.8101472, "lon": -43.2522032, "tags": {"amenity": "police", "name": "Policia Federal", "operator": "Pol\u00edcia Federal do Brasil", "operator:en": "Federal Police of Brazil", "operator:wikidata": "Q2289697", "operator:wikipedia": "pt:Pol\u00edcia Federal do Brasil", "phone": "+55 21 3398 2227"}}, {"type": "node", "id": 9579555608, "lat": -22.8962689, "lon": -43.2036461, "tags": {"addr:city": "Rio de Janeiro", "addr:housenumber": "01", "addr:postcode": "20081-250", "addr:street": "Avenida Rodrigues Alves", "addr:suburb": "Centro", "amenity": "police", "name": "Pol\u00edcia Federal do Brasil", "operator": "Pol\u00edcia Federal do Brasil", "operator:en": "Federal Police of Brazil", "operator:wikidata": "Q2289697", "operator:wikipedia": "pt:Pol\u00edcia Federal do Brasil", "phone": "+55 21 2203 4001"}}, {"type": "node", "id": 9579555613, "lat": -22.8974264, "lon": -43.1236636, "tags": {"amenity": "police", "name": "Pol\u00edcia Federal do Brasil", "operator": "Pol\u00edcia Federal do Brasil", "operator:en": "Federal Police of Brazil", "operator:wikidata": "Q2289697", "operator:wikipedia": "pt:Pol\u00edcia Federal do Brasil"}}, {"type": "node", "id": 9624147561, "lat": -22.9238813, "lon": -43.1773712}, {"type": "node", "id": 9624147562, "lat": -22.9240308, "lon": -43.1775637}, {"type": "node", "id": 9624147564, "lat": -22.923835, "lon": -43.1773966}, {"type": "node", "id": 9624147565, "lat": -22.9238102, "lon": -43.177412}, {"type": "node", "id": 9624147566, "lat": -22.9237854, "lon": -43.1774559}, {"type": "node", "id": 9624147567, "lat": -22.9237818, "lon": -43.1774828}, {"type": "node", "id": 9624147568, "lat": -22.9237939, "lon": -43.1775252}, {"type": "node", "id": 9624147569, "lat": -22.9239031, "lon": -43.177717}, {"type": "node", "id": 9624147570, "lat": -22.9240386, "lon": -43.1775876}, {"type": "node", "id": 9624147571, "lat": -22.923961, "lon": -43.1776622}, {"type": "node", "id": 9624147575, "lat": -22.9239485, "lon": -43.1774576}, {"type": "node", "id": 9661339103, "lat": -22.9137089, "lon": -43.2148478}, {"type": "node", "id": 9939392101, "lat": -22.9140749, "lon": -43.2144056}, {"type": "node", "id": 10567798383, "lat": -22.9853889, "lon": -43.1972326, "tags": {"amenity": "police", "name": "Ipanema Presente"}}, {"type": "way", "id": 30775619, "nodes": [340332722, 4321149082, 4321149088, 4321149593, 4321149601, 4321149615, 4321149830, 4321149806, 4321149848, 4321149877, 4321150021, 4321150012, 4321150010, 4321150003, 4321150001, 4429202101, 4321150045, 4321150053, 340332721, 4321150102, 4321150112, 4321150328, 4321150320, 340332720, 4321150933, 4321150932, 4321150447, 340332723, 4321149635, 4321149628, 4321149051, 4321149054, 4321149543, 340332722], "tags": {"area": "no", "ele": "6.37", "height": "16.82999", "top_ele": "23.19999"}}, {"type": "way", "id": 33565159, "nodes": [383306799, 9074768317, 383306807, 9074768318, 5070369710, 9074768319, 383306814, 9074768321, 383306818, 383306799]}, {"type": "way", "id": 95018711, "nodes": [1102517581, 1102517348, 1102517555, 1102517477, 1102517581], "tags": {"amenity": "police", "building": "yes", "name": "3\u00ba Batalh\u00e3o da Pol\u00edcia Militar", "source": "Bing"}}, {"type": "way", "id": 128404498, "nodes": [1419187050, 1419187052, 3649910650, 1419187051, 3649910648, 1419187049, 9516491145, 1419187050], "tags": {"amenity": "police", "building": "yes", "name": "Delegacia de Prote\u00e7\u00e3o \u00e0 Crian\u00e7a e ao Adolescente"}}, {"type": "way", "id": 134708389, "nodes": [1480618188, 1480618191, 1480618201, 1480618184, 1480618196, 7975830359, 1480618193, 1480618183, 1480618188], "tags": {"addr:city": "Rio de Janeiro", "addr:housenumber": "625", "addr:postcode": "20540-002", "addr:street": "Rua Bar\u00e3o de Mesquita", "alt_name": "Sexto Batalh\u00e3o de Pol\u00edcia Militar", "amenity": "police", "name": "6\u00ba Batalh\u00e3o de Pol\u00edcia Militar", "operator": "Pol\u00edcia Militar do Estado do Rio de Janeiro", "operator:short": "PMERJ", "operator:wikidata": "Q6852137", "phone": "+55 21 2332 1761", "website": "http://www.policiamilitar.rj.gov.br/unidades_pmerj_subcategorias_detalhes.php?id=83"}}, {"type": "way", "id": 164023784, "nodes": [1756848939, 1756848940, 1756848936, 1756848942, 1756848939], "tags": {"amenity": "police", "name": "15\u00ba Batalh\u00e3o da Pol\u00edcia Militar"}}, {"type": "way", "id": 168228317, "nodes": [1795187580, 1795187583, 1795187581, 1795187578, 1795187580], "tags": {"amenity": "police", "building": "yes", "name": "Unidade de Pol\u00edcia Pacificadora"}}, {"type": "way", "id": 168384935, "nodes": [1796594923, 1796594914, 1796594916, 1796594917, 1796594920, 1796594919, 1796594915, 1796594921, 1796594922, 1796594923], "tags": {"amenity": "police", "name": "1\u00ba Batalh\u00e3o da Pol\u00edcia Militar"}}, {"type": "way", "id": 168522487, "nodes": [1797747220, 1797747221, 1797747223, 1797747222, 1797747220], "tags": {"amenity": "police", "building": "yes", "name": "Unidad de Policia Pacificadora Apartamentos"}}, {"type": "way", "id": 177402042, "nodes": [1878603364, 1878603254, 1878603348, 1878603333, 1878603335, 1878603307, 1878603364], "tags": {"addr:housenumber": "187", "addr:street": "Rua Pedro Alves", "amenity": "police", "building": "yes", "name": "Centro Integrado de Apura\u00e7\u00e3o Criminal"}}, {"type": "way", "id": 184937247, "nodes": [1955027773, 1955027801, 1955027799, 9111847852, 9111847853, 9111847854, 9111847851, 1955027772, 1955027773], "tags": {"building": "yes"}}, {"type": "way", "id": 184937248, "nodes": [1955027725, 1955027728, 1955027754, 1955027740, 1955027725], "tags": {"building": "yes"}}, {"type": "way", "id": 184937282, "nodes": [1955027726, 1955027735, 1955027731, 1955027720, 4491214800, 4491214801, 1955027726], "tags": {"building": "yes"}}, {"type": "way", "id": 184937285, "nodes": [1955027744, 1955027766, 1955027782, 1955027775, 1955027744], "tags": {"building": "yes"}}, {"type": "way", "id": 184937288, "nodes": [1955027729, 1955027730, 9064073118, 9064073117, 1955027796, 1955027781, 1955027729], "tags": {"building": "yes"}}, {"type": "way", "id": 184937312, "nodes": [1955027733, 1955027736, 1955027751, 1955027747, 1955027733], "tags": {"building": "yes"}}, {"type": "way", "id": 189240069, "nodes": [1998856347, 1998856354, 1998856355, 1998856352, 5771168124, 1998856347], "tags": {"addr:city": "Niter\u00f3i", "addr:street": "Rua M\u00e1rio Neves", "amenity": "police", "building": "yes", "name": "Pol\u00edcia Rodovi\u00e1ria Federal", "opening_hours": "Mo-Fr 08:00-17:00", "operator": "Pol\u00edcia Rodovi\u00e1ria Federal", "operator:wikidata": "Q1158853", "operator:wikipedia": "pt:Pol\u00edcia Rodovi\u00e1ria Federal", "phone": "+55 21 3503 2320", "police": "traffic_police", "source": "Bing"}}, {"type": "way", "id": 191313512, "nodes": [8147529304, 2018979805, 2018979807, 2018979795, 2018979789, 2018979785, 5070369711, 2018979844, 2018979861, 8147529304]}, {"type": "way", "id": 225694443, "nodes": [2344500269, 5232498436, 5232498437, 5232498438, 5232498439, 5232498440, 5233879823, 5233879820, 5233879821, 5233879822, 5232473578, 5232473579, 2344500273, 2344500281, 2344500282, 2344500269], "tags": {"amenity": "police", "name": "Centro Integrado de Comando e Controle", "short_name": "CICC"}}, {"type": "way", "id": 227726728, "nodes": [2363752438, 9234301642, 8957074583, 2363752440, 9234303520, 9234304454, 9234304453, 9234308756, 9234308751, 9234308874, 9234308870, 9234308305, 9234304942, 9234303163, 9234306870, 9234301641, 9234306415, 9234306411, 9234306412, 2363752443, 2363752445, 9234304626, 9234304627, 9234304777, 9234304778, 9234302230, 2363752438], "tags": {"IPP:CodLote": "037775", "IPP:CodNP": "675115", "IPP:CodQuadra": "287C023168", "IPP:CodTrecho": "301992", "alt_name": "Segundo Batalh\u00e3o de Pol\u00edcia Militar", "amenity": "police", "landuse": "military", "name": "2\u00ba Batalh\u00e3o de Pol\u00edcia Militar", "operator": "Pol\u00edcia Militar do Estado do Rio de Janeiro", "operator:short": "PMERJ", "operator:wikidata": "Q6852137", "source": "Bing;survey"}}, {"type": "way", "id": 234827961, "nodes": [2429567618, 2429567619, 2429567620, 2429567621, 4319775509, 4319775508, 4319775510, 2429567618], "tags": {"amenity": "police", "landuse": "military", "local_name": "RPMont", "name": "40\u00ba Batalh\u00e3o de Pol\u00edcia Militar", "short_name": "40\u00ba BPM"}}, {"type": "way", "id": 252517211, "nodes": [2585483241, 2585483239, 2585483240, 2585483242, 2585483241], "tags": {"leisure": "pitch", "sport": "soccer", "surface": "grass"}}, {"type": "way", "id": 255925836, "nodes": [2616361233, 2616361234, 7736517070, 7736517069, 7736517068, 2616361235, 2616361236, 4280741676, 2616361238, 4280741672, 2182333178, 4280741679, 4280741682, 4280741688, 2616361239, 2616361240, 2616361241, 2616361233], "tags": {"amenity": "police", "name": "Subsecretaria Militar Opera\u00e7\u00f5es A\u00e9reas", "source": "survey"}}, {"type": "way", "id": 256719544, "nodes": [2623552591, 2623552595, 2623552597, 5956046038, 5541089673, 2623552599, 2623552591], "tags": {"alt_name": "Batalh\u00e3o Blindado", "amenity": "police", "landuse": "military", "name": "Batalh\u00e3o da Mar\u00e9"}}, {"type": "way", "id": 259078766, "nodes": [2644067613, 2889575597, 2889575595, 2889575596, 2644067620, 2644067626, 2644067632, 2644067635, 2644067647, 4405929095, 2644067650, 4405929096, 2644067654, 2644067660, 2644067658, 2644067652, 2913250092, 2913250091, 2644067613], "tags": {"amenity": "police", "barrier": "fence", "name": "Unidade de Ordem P\u00fablica - Tijuca"}}, {"type": "way", "id": 264688228, "nodes": [2962123354, 2962123393, 2703501597, 2962123420, 2965318625, 2962123437, 2962123444, 2703501599, 2703501600, 2703501602, 2962123506, 2962123510, 2703498252, 2962123496, 2962123354], "tags": {"amenity": "police", "barrier": "wall", "name": "18\u00ba Batalh\u00e3o de Policia Militar"}}, {"type": "way", "id": 278060542, "nodes": [2824934398, 2824936006, 2824934399, 2824936002, 2824934400, 2824936001, 2824934398], "tags": {"addr:city": "Rio de Janeiro", "addr:housenumber": "20", "addr:street": "Rua Luiz de Matos", "amenity": "police", "name": "20\u00aa Delegacia de Pol\u00edcia - Vila Isabel", "phone": "+55 21 2334-1828"}}, {"type": "way", "id": 278060543, "nodes": [2824934398, 2824936001, 2824934400, 2824936002, 2824936003, 2824936004, 2824936005, 2824936006, 2824934398], "tags": {"amenity": "police", "building": "yes"}}, {"type": "way", "id": 290057208, "nodes": [2935939404, 2935939421, 2935939420, 2977335233, 2935939419, 2935939418, 2935939405, 2935939417, 2935939416, 2935939415, 2935939414, 2935939413, 2935939406, 2935939412, 2935939411, 2935939407, 4162403997, 4162403996, 4162403995, 4162403994, 4162403993, 2935939427, 4162401188, 4162403989, 4162403990, 4162403992, 4162403991, 2935939408, 2935939409, 2935939410, 2935939404], "tags": {"amenity": "police", "barrier": "wall", "name": "Cidade da Pol\u00edcia", "old_name": "Souza Cruz", "start_date": "29/09/2013"}}, {"type": "way", "id": 295160324, "nodes": [2988537643, 2988537644, 2988537645, 2988537646, 2988537647, 2988537648, 2988537649, 2988537650, 2988537651, 2988537643], "tags": {"addr:city": "Rio de Janeiro", "addr:housenumber": "5500", "addr:postcode": "22780-160", "addr:street": "Avenida Salvador Allende", "amenity": "police", "barrier": "wall", "email": "31bpm@policiamilitar.rj.gov.br", "name": "31\u00ba Batalh\u00e3o de Pol\u00edcia Militar", "phone": "+55 21 2332-7462"}}, {"type": "way", "id": 297374691, "nodes": [3012472464, 3012472465, 3012472466, 3012472467, 3012472464], "tags": {"addr:street": "Rua Ana Frank", "amenity": "police", "building": "yes", "name": "27 Delegacia de Pol\u00edcia"}}, {"type": "way", "id": 298738965, "nodes": [3026584732, 3026584733, 3026584734, 3026584735, 3026584732], "tags": {"amenity": "police", "building": "yes", "building:levels": "2", "name": "UPP Borel - Ch\u00e1cara do C\u00e9u", "operator": "Pol\u00edcia Militar do Rio de Janeiro"}}, {"type": "way", "id": 299534608, "nodes": [3035383727, 3035383728, 3035383729, 3035383730, 3035383727], "tags": {"amenity": "police", "building": "yes", "name": "Guarda Municipal - UOP Centro"}}, {"type": "way", "id": 315408876, "nodes": [3215252200, 3215252201, 3215252202, 3215252203, 3215252200], "tags": {"addr:city": "Rio de Janeiro", "addr:housenumber": "31", "addr:street": "Avenida Teot\u00f4nio Vilela", "addr:suburb": "Recreio dos Bandeirantes", "amenity": "police", "building": "yes", "name": "42\u00aa Delegacia Legal do Recreio", "operator": "Pol\u00edcia Civil", "phone": "+55 21 2332-8039"}}, {"type": "way", "id": 316316443, "nodes": [4321312259, 4321312696, 3224261237, 4321312516, 4321312538, 4321312626, 4321312619, 4321312592, 4321312595, 3224261236, 3224261235, 4321311707, 4321311704, 4321311700, 4321311703, 3224261239, 4321311706, 4321311711, 4321311716, 4321310862, 3224261238, 4321312493, 4321312501, 4321312240, 4321312248, 4321312251, 4321312259], "tags": {"ele": "6.37", "height": "11.52999", "top_ele": "17.89999"}}, {"type": "way", "id": 317325971, "nodes": [3224261241, 3224261242, 4321310873, 4321312228, 4321311840, 3224261243, 3224261240, 3224261241], "tags": {"height": "10.06", "top_ele": "16.43"}}, {"type": "way", "id": 318739349, "nodes": [3251108829, 3251108830, 3251108831, 3251108832, 3251108829], "tags": {"amenity": "police", "building": "yes", "military": "yes", "phone": "+55 190"}}, {"type": "way", "id": 319488439, "nodes": [3259036161, 3278476733, 3259036162, 3259036163, 3259036164, 3259036161], "tags": {"amenity": "police", "building": "yes", "name": "31\u00ba Batalh\u00e3o de Pol\u00edcia Militar", "operator": "PMERJ"}}, {"type": "way", "id": 326067189, "nodes": [3326868581, 3326868582, 3326868583, 3326868584, 3326868581], "tags": {"amenity": "police", "landuse": "military", "name": "Quartel General da Pol\u00edcia Militar do Estado do Rio de Janeiro", "operator": "Pol\u00edcia Militar do Estado do Rio de Janeiro", "operator:short": "PMERJ", "operator:wikidata": "Q6852137"}}, {"type": "way", "id": 327169886, "nodes": [3338949598, 4321149668, 4321149888, 4321150138, 4321149959, 3338949601, 4321150335, 4321150184, 4321150420, 4321150438, 4321150380, 3338949600, 4321150608, 4321150486, 4321150469, 4321150449, 4321150543, 4321150516, 3338949599, 4321150089, 4321150057, 3338949598], "tags": {"area": "no", "height": "14.93", "top_ele": "21.3"}}, {"type": "way", "id": 335254356, "nodes": [3423686164, 3423686165, 3423686166, 3423686169, 3423686167, 3423686168, 3423686164]}, {"type": "way", "id": 335254357, "nodes": [3423686170, 3423686171, 3423686172, 3423686173, 3423686170], "tags": {"building": "public"}}, {"type": "way", "id": 335254358, "nodes": [3423686174, 3423686175, 3423686176, 3423686177, 3423686174], "tags": {"building": "public"}}, {"type": "way", "id": 335254359, "nodes": [3423686178, 3423686179, 3423686180, 3423686181, 3423686178], "tags": {"building": "public"}}, {"type": "way", "id": 335254360, "nodes": [3423686182, 3423686183, 3423686184, 3423686185, 3423686182], "tags": {"building": "public"}}, {"type": "way", "id": 335254361, "nodes": [3423686186, 3423686187, 3423686188, 3423686189, 3423686186], "tags": {"building": "public"}}, {"type": "way", "id": 335254362, "nodes": [3423686190, 3423686191, 3423686192, 3423694193, 3423686190], "tags": {"building": "public"}}, {"type": "way", "id": 335254363, "nodes": [3423694194, 3423694195, 3423694196, 3423694197, 3423694194], "tags": {"leisure": "pitch", "sport": "soccer"}}, {"type": "way", "id": 376454794, "nodes": [3798721793, 3798721795, 3798721794, 3798721775, 3798721757, 3798721781, 3798721786, 3798721793], "tags": {"amenity": "police", "name": "P\u00e1tio Legal - Deodoro"}}, {"type": "way", "id": 381190382, "nodes": [3844298544, 3844298545, 3844298546, 3844298547, 3844298544], "tags": {"amenity": "police", "building": "yes", "name": "BPVE 4\u00aa CIA"}}, {"type": "way", "id": 381192677, "nodes": [3844327494, 3844327495, 3844327496, 3844327497, 3844327494], "tags": {"amenity": "police", "building": "yes", "name": "BPVE 1 CIA"}}, {"type": "way", "id": 384221151, "nodes": [3875143216, 3987223221, 3987223222, 3875143203, 3875143201, 3875143214, 3875143216], "tags": {"amenity": "police", "building": "yes", "building:levels": "2", "name": "UPP Morro da Baiana"}}, {"type": "way", "id": 384461659, "nodes": [3877507464, 3877507463, 3877507467, 3877507468, 3877507464], "tags": {"amenity": "police", "building": "yes", "name": "UPP Nova Bras\u00edlia (Base Avan\u00e7ada)"}}, {"type": "way", "id": 386241914, "nodes": [3895663006, 3895663009, 3895663011, 3895663010, 3895663008, 3895663005, 3895663004, 3895663003, 3895663002, 3895663001, 3895662999, 3895662998, 3895663012, 3895663013, 3895663006], "tags": {"alt_name": "Unidade de Pol\u00edcia Pacificadora do Morro do Alem\u00e3o", "amenity": "police", "building": "yes", "building:levels": "3", "name": "UPP Morro do Alem\u00e3o"}}, {"type": "way", "id": 393302306, "nodes": [3965222487, 3965222485, 3965222496, 3965222498, 3965222492, 3965222491, 3965222489, 3965222484, 3965222481, 3965222477, 3965222475, 3965222474, 3965222478, 3965222482, 3965222486, 3965222487], "tags": {"amenity": "police", "building": "yes", "name": "UPP Fazendinha"}}, {"type": "way", "id": 394514319, "nodes": [3975110609, 3975110606, 3975110603, 3975110605, 3975110609], "tags": {"amenity": "police", "building": "yes", "name": "UPP Fazendinha (posto avan\u00e7ado)"}}, {"type": "way", "id": 394514320, "nodes": [3975110617, 3975110616, 3975110618, 3975110619, 3975110617], "tags": {"amenity": "police", "building": "yes", "name": "UPP Fazendinha"}}, {"type": "way", "id": 395922278, "nodes": [3987223239, 3987223238, 3987223236, 3987223237, 3987223240, 3987223242, 3987223243, 3987223245, 3987223247, 3987223248, 3987223246, 3987223244, 3987223241, 3987223239], "tags": {"amenity": "police", "building": "yes", "name": "UPP Morro do Adeus"}}, {"type": "way", "id": 395922279, "nodes": [3987223231, 3987223233, 3987223234, 3987223232, 3987223230, 3987223229, 3987223228, 3987223227, 3987223226, 3987223225, 3987223224, 3987223223, 1809229099, 3987223235, 3987223231], "tags": {"amenity": "police", "building": "yes", "name": "UPP Nova Bras\u00edlia"}}, {"type": "way", "id": 428947527, "nodes": [4280741402, 4280741403, 4280741408, 4280741405, 4280741402], "tags": {"amenity": "police", "building": "yes", "name": "Cabine de Pol\u00edcia"}}, {"type": "way", "id": 430893887, "nodes": [4301555093, 4301555105, 2904149401, 4301555118, 4301555115, 4301554587, 4301555093], "tags": {"amenity": "police", "building": "yes", "name": "Guarda Municipal - 2\u00ba Grupamento Especial de Praia", "wheelchair": "limited"}}, {"type": "way", "id": 432810398, "nodes": [4317614801, 4317614802, 4317614796, 4317614795, 3045620041, 4317614801], "tags": {"amenity": "police", "building": "yes", "ele": "16.19", "height": "3.54", "name": "Cabine Policial", "source": "survey", "top_ele": "19.73"}}, {"type": "way", "id": 432949051, "nodes": [4318736444, 4318736546, 4318736549, 4318736495, 4318736386, 5072166066, 1198696358, 4318736444], "tags": {"alt_name": "DEAM", "amenity": "police", "building": "yes", "ele": "8.37", "height": "8.3", "name": "Delegacia da Mulher", "source": "survey", "top_ele": "16.67"}}, {"type": "way", "id": 433228405, "nodes": [4320797937, 4320797938, 4320797940, 4320797939, 4320797937], "tags": {"amenity": "police", "building": "yes", "building:levels": "2", "landuse": "military", "operator": "PMERJ"}}, {"type": "way", "id": 436247391, "nodes": [4341205811, 4341205812, 4341205814, 4341205813, 4341205811], "tags": {"amenity": "police", "building": "yes", "operator": "Pol\u00edcia Militar do Estado do Rio de Janeiro", "operator:short": "PMERJ", "operator:wikidata": "Q6852137"}}, {"type": "way", "id": 452304406, "nodes": [4491211284, 4491211285, 9064061216, 4491211286, 9064061209, 9064061210, 4491211287, 4491211288, 9064061211, 4491214789, 9064061212, 4491214790, 4491214791, 9064061213, 4491214792, 9064061214, 4491214793, 4491214794, 4491214795, 9064061215, 4491211284], "tags": {"amenity": "police", "landuse": "military", "name": "12\u00ba Batalh\u00e3o de Pol\u00edcia Militar do Estado do Rio de Janeiro"}}, {"type": "way", "id": 452304407, "nodes": [4491214796, 4491214797, 4491214798, 4491214799, 4491214796], "tags": {"leisure": "swimming_pool"}}, {"type": "way", "id": 488121822, "nodes": [4804747836, 4804747837, 4804747838, 4804747839, 4804747836], "tags": {"amenity": "police", "building": "yes", "name": "UPP Policia Militar"}}, {"type": "way", "id": 522952831, "nodes": [5092156982, 5092156983, 5092156984, 5092156985, 5092156986, 5092156987, 5092156988, 5092156989, 5092156982], "tags": {"amenity": "police", "building": "yes", "building:levels": "1"}}, {"type": "way", "id": 531712607, "nodes": [5161074848, 2768544119, 5161074849, 5161074850, 5161074851, 5161074848], "tags": {"amenity": "police"}}, {"type": "way", "id": 531713459, "nodes": [5161082044, 5161082045, 5161082046, 5161082047, 5161082048, 5161082049, 5161082050, 5161082051, 5161082052, 5161082053, 5161082044], "tags": {"addr:city": "Rio de Janeiro", "addr:housenumber": "300", "addr:postcode": "20220-310", "addr:street": "Avenida Francisco Bicalho", "addr:suburb": "Centro", "amenity": "police", "building": "yes", "name": "Instituto M\u00e9dico Legal Afr\u00e2nio Peixoto"}}, {"type": "way", "id": 537042718, "nodes": [3897788207, 5201256581, 5201256582, 5201256603, 5201256583, 3897788207], "tags": {"addr:street": "Avenida Ayrton Senna", "amenity": "police", "building": "yes", "landuse": "military", "layer": "1", "name": "31\u00ba Batalh\u00e3o de Pol\u00edcia", "operator": "Pol\u00edcia Militar do Estado do Rio de Janeiro"}}, {"type": "way", "id": 544048049, "nodes": [5259100559, 5259100560, 5259100561, 5259100562, 5259100559], "tags": {"amenity": "police", "building": "yes", "description": "Edif\u00edcio da Pol\u00edcia Militar."}}, {"type": "way", "id": 547106534, "nodes": [5286368978, 5286368979, 5286368980, 5286368981, 5286368978], "tags": {"amenity": "police", "building": "yes", "name": "23\u00aa DP - M\u00e9ier"}}, {"type": "way", "id": 548698464, "nodes": [5300689879, 5300689880, 5300689881, 5300689882, 5300689879], "tags": {"amenity": "police", "building": "yes"}}, {"type": "way", "id": 560130222, "nodes": [5401650063, 5401650064, 5401650065, 5401650066, 5401650067, 5401650068, 5401650069, 5401650070, 5401650063], "tags": {"amenity": "police", "building": "yes", "name": "27\u00ba Batalh\u00e3o de Pol\u00edcia Militar"}}, {"type": "way", "id": 673653346, "nodes": [6308627600, 6308627590, 6308627598, 6308627599, 6308627600], "tags": {"IPP:Codigo": "22.000000000", "addr:housenumber": "727", "addr:street": "Rua C\u00e2ndido Ben\u00edcio", "amenity": "police", "name": "28\u00aa Delegacia Policial - Campinho", "phone": "+552133996280", "source": "IPP;survey"}}, {"type": "way", "id": 674117488, "nodes": [6313042335, 6313042334, 6313042333, 6313042332, 6313042335], "tags": {"amenity": "police", "building": "yes"}}, {"type": "way", "id": 681858575, "nodes": [6385549911, 6385549905, 6385549910, 6385549909, 6385549908, 6385549907, 6385549906, 6385549934, 6385549935, 6385549936, 6385549929, 6385549913, 6385549914, 9661339103, 6385549911], "tags": {"amenity": "police", "name": "Divis\u00e3o de Transportes"}}, {"type": "way", "id": 681858576, "nodes": [6385549930, 6385549928, 6385549927, 6385549926, 6385549925, 6385549924, 6385549923, 9939392101, 6385549922, 6385549921, 6385549920, 6385549919, 6385549918, 6385549912, 6385549916, 6385549915, 6385549911, 9661339103, 6385549914, 6385549913, 6385549929, 6385549930], "tags": {"alt_name": "DGAF", "amenity": "police", "name": "DGAF - Servi\u00e7o de Transportes"}}, {"type": "way", "id": 681858577, "nodes": [6385549939, 6385549933, 6385549932, 6385549931, 6385549930, 6385549929, 6385549936, 6385549938, 6385549939], "tags": {"alt_name": "DEC", "amenity": "police", "name": "Dep\u00f3sito de Evid\u00eancias Criminais"}}, {"type": "way", "id": 681858578, "nodes": [823958815, 6385549939, 6385549938, 6385549936, 6385549935, 6385549934, 823958815], "tags": {"IPP:Codigo": "13.000000000", "IPP:Endereco": "Rua Barao de Iguatemi, 331", "IPP:Telefone": "3399-5040", "addr:city": "Rio de Janeiro", "addr:country": "BR", "addr:housenumber": "331", "addr:state": "RJ", "addr:street": "Rua Bar\u00e3o de Iguatemi", "addr:suburb": "Pra\u00e7a da Bandeira", "alt_name": "18\u00aa Delegacia de Pol\u00edcia; D\u00e9cima Oitava DP; 18 DP; D\u00e9cima Oitava Delegacia de Policia", "amenity": "police", "name": "18\u00aa DP - Pra\u00e7a da Bandeira", "short_name": "18\u00aa DP", "source": "IPP;survey;aerial_imagery"}}, {"type": "way", "id": 687425405, "nodes": [6443793479, 6443793480, 6443793481, 6443793482, 6443793479], "tags": {"amenity": "police", "building": "yes", "name": "25\u00aa Delegacia de Pol\u00edcia"}}, {"type": "way", "id": 729229188, "nodes": [6832032479, 6832032480, 6832032481, 6832032482, 6832032479], "tags": {"addr:city": "Rio de Janeiro", "addr:housenumber": "94", "addr:postcode": "21555-025", "addr:street": "Rua Tacaratu", "addr:suburb": "Rocha Miranda", "amenity": "police", "building": "yes", "name": "9\u00ba BPM - Rocha Miranda", "opening_hours": "24/7", "operator": "PMERJ - Pol\u00edcia Militar do Estado do Rio de Janeiro"}}, {"type": "way", "id": 732230024, "nodes": [6856425596, 6856425599, 6856425616, 6856425617, 6856425592, 6856425593, 6856425594, 6856425598, 6856425596], "tags": {"amenity": "police", "building": "yes", "name": "11\u00aa Inspetoria da Guarda Municipal (Parque Madureira)", "operator": "GM-Rio"}}, {"type": "way", "id": 792262590, "nodes": [7406896269, 7406896270, 7406896271, 7941831699, 4987235709, 3752986860, 3752986834, 4264651343, 3975255251, 3975255555, 3975255378, 3975255629, 3975255427, 3975255454, 3975255037, 3975255369, 3975255438, 3975255416, 3975255365, 3975255568, 7406896273, 7406896274, 7406896275, 7406896276, 7406896269], "tags": {"amenity": "police", "building": "yes", "name": "CFAP"}}, {"type": "way", "id": 796647424, "nodes": [7450244755, 7450244756, 7450244757, 7450244758, 7450244759, 7450244760, 7450244755], "tags": {"amenity": "police", "building": "yes", "name": "59\u00aa Delegacia de Pol\u00edcia"}}, {"type": "way", "id": 812765527, "nodes": [315551593, 7591593775, 7591593774, 7591593773, 7591593772, 7591593771, 7591593770, 7591593769, 7591593768, 7591593767, 7591593766, 7591593765, 7591593764, 7591593763, 7591593762, 315551593], "tags": {"addr:city": "Niter\u00f3i", "addr:postcode": "24030-020", "addr:street": "Pra\u00e7a Fonseca Ramos", "addr:suburb": "Centro", "amenity": "police", "name": "Pol\u00edcia Federal", "operator": "Pol\u00edcia Federal do Brasil", "operator:en": "Federal Police of Brazil", "operator:wikidata": "Q2289697", "operator:wikipedia": "pt:Pol\u00edcia Federal do Brasil", "phone": "+55 21 2613 8830"}}, {"type": "way", "id": 842811967, "nodes": [7862449674, 914652864, 9212586458, 9212586459, 9212587599, 9212587906, 9212587895, 9212587737, 9212588117, 9212588116, 9212588115, 9212588114, 9212588113, 9212588112, 9212588111, 9212587301, 9212587300, 9212587304, 7862449674], "tags": {"IPP:CodLote": "287D00312", "IPP:CodNP": "39262", "IPP:CodQuadra": "287D022521", "IPP:CodTrecho": "97980", "addr:housenumber": "37", "addr:street": "Rua Bambina", "addr:suburb": "Botafogo", "amenity": "police", "name": "Guarda Municipal"}}, {"type": "way", "id": 891067034, "nodes": [8281853058, 8281853059, 8281853060, 2404330700, 2404330625, 8281853061, 8281853062, 8281853063, 8281853064, 8281853065, 5820578031, 8281853058], "tags": {"amenity": "police", "fixme": "Ajustar limites.", "name": "1\u00aa Companhia Independente de Pol\u00edcia Militar"}}, {"type": "way", "id": 934027076, "nodes": [8656784719, 8656784718, 8656784717, 8656774416, 8656774415, 8656774414, 8656784719], "tags": {"amenity": "police", "name": "43\u00aa Delegacia Policial"}}, {"type": "way", "id": 952821649, "nodes": [8819241461, 8819241460, 8819241459, 8819241458, 8819241461], "tags": {"amenity": "police", "building": "yes"}}, {"type": "way", "id": 980647725, "nodes": [9071206273, 1958630278, 9071206276, 9071206277, 9071206275, 9071206274, 9071206273], "tags": {"amenity": "police", "building": "yes", "name": "1\u00aa Corregedoria Regional de Pol\u00edcia - Grande Niter\u00f3i"}}, {"type": "way", "id": 997719983, "nodes": [9212331279, 9212331278, 9212291596, 9212329849, 9212330843, 9212329843, 9212330667, 9212330648, 9212330649, 9212291594, 823958881, 9212291595, 9212331373, 9212331268, 9212331316, 9212331279], "tags": {"IPP:CodLote": "287D00499", "IPP:CodNP": "676672", "IPP:CodQuadra": "287C022661", "IPP:CodTrecho": "96743", "IPP:Codigo": "6", "addr:city": "Rio de Janeiro", "addr:country": "BR", "addr:housenumber": "140", "addr:street": "Rua Bambina", "amenity": "police", "name": "10\u00ba Delegacia Policial", "phone": "+55-21-33997110", "source": "IPP"}}, {"type": "way", "id": 1010414122, "nodes": [9322713205, 9322713207, 9322713208, 9322713209, 9322713210, 9322713211, 9322713212, 9322713213, 9322713214, 9322713215, 8005594106, 9322713205], "tags": {"amenity": "police", "building": "yes", "layer": "1", "name": "4\u00ba Batalh\u00e3o da Policia Militar", "operator": "Pol\u00edcia Militar do Estado do Rio de Janeiro", "operator:short": "PMERJ", "operator:wikidata": "Q6852137", "operator:wikipedia": "pt:Pol\u00edcia Militar do Estado do Rio de Janeiro"}}, {"type": "way", "id": 1010993845, "nodes": [628093418, 9327392327, 9327392349, 9327392348, 9327392359, 9327395389, 9327395383, 9327392355, 9327392315, 9327392332, 9327392345, 9327392340, 9327395703, 9327395702, 9327395701, 9327395700, 9327392357, 9327392323, 9327392337, 9327392335, 9327392330, 9327392362, 9327392318, 9327392350, 9327392347, 9327381780, 9327381779, 9327381778, 9327381777, 9327392341, 9327395725, 9327395724, 9327395723, 9327395722, 9327392356, 9327395311, 9327392321, 9327392333, 9327392353, 9327392312, 9327392329, 9327392342, 9327392360, 9327392324, 9327392339, 9327392334, 9327392346, 628093418], "tags": {"IPP:CodLote": "262D00664", "IPP:CodNP": "455692", "IPP:CodQuadra": "262D008391", "IPP:CodTrecho": "47192", "amenity": "police", "landuse": "military", "name": "17\u00ba Batalh\u00e3o da Pol\u00edcia Militar"}}, {"type": "way", "id": 1034327168, "nodes": [9528532659, 9528532653, 9528532660, 9528532661, 9528532662, 9528532663, 9528532652, 1955027714, 9528532646, 9528532666, 1955027705, 9528532664, 9528532665, 9528532659], "tags": {"amenity": "police", "building": "detached", "name": "Delegacia de Homic\u00eddios de Niter\u00f3i e S\u00e3o Gon\u00e7alo"}}, {"type": "way", "id": 1034327169, "nodes": [9528532666, 9528532667, 3306376018, 3306376017, 9528532668, 9528532669, 9528532659, 9528532665, 9528532664, 1955027705, 9528532666], "tags": {"amenity": "police", "building": "yes", "name": "Pol\u00edcia Civil"}}, {"type": "way", "id": 1046546853, "nodes": [9624147561, 9624147564, 9624147565, 9624147566, 9624147567, 9624147568, 9624147569, 9624147571, 9624147570, 9624147562, 9624147575, 9624147561], "tags": {"amenity": "police", "building": "yes"}}, {"type": "relation", "id": 2580525, "members": [{"type": "way", "ref": 33565159, "role": "outer"}, {"type": "way", "ref": 191313512, "role": "inner"}], "tags": {"amenity": "police", "building": "yes", "layer": "1", "name": "4o Comando do Policiamento de Area", "type": "multipolygon"}}, {"type": "relation", "id": 4276764, "members": [{"type": "way", "ref": 316316443, "role": "outer"}, {"type": "way", "ref": 317325971, "role": "inner"}], "tags": {"addr:city": "Rio de Janeiro", "addr:street": "Pra\u00e7a Coronel Assun\u00e7\u00e3o", "addr:suburb": "Sa\u00fade", "amenity": "police", "building": "yes", "name": "5\u00ba Batalh\u00e3o de Pol\u00edcia Militar", "operator": "Pol\u00edcia Militar do Estado do Rio de Janeiro", "operator:short": "PMERJ", "operator:wikidata": "Q6852137", "type": "multipolygon", "wikipedia": "pt:5\u00ba Batalh\u00e3o de Pol\u00edcia Militar (PMERJ)"}}, {"type": "relation", "id": 4572409, "members": [{"type": "way", "ref": 327169886, "role": "inner"}, {"type": "way", "ref": 30775619, "role": "outer"}], "tags": {"amenity": "police", "building": "yes", "name": "Pol\u00edcia Federal", "name:pt": "Pol\u00edcia Federal", "type": "multipolygon"}}, {"type": "relation", "id": 4740725, "members": [{"type": "way", "ref": 335254356, "role": "outer"}, {"type": "way", "ref": 335254357, "role": "inner"}, {"type": "way", "ref": 335254358, "role": "inner"}, {"type": "way", "ref": 335254359, "role": "inner"}, {"type": "way", "ref": 335254360, "role": "inner"}, {"type": "way", "ref": 335254361, "role": "inner"}, {"type": "way", "ref": 335254362, "role": "inner"}, {"type": "way", "ref": 335254363, "role": "inner"}], "tags": {"amenity": "police", "landuse": "military", "name": "16 Batalh\u00e3o de Pol\u00edcia Militar", "type": "multipolygon"}}, {"type": "relation", "id": 6700848, "members": [{"type": "way", "ref": 184937248, "role": "outer"}, {"type": "way", "ref": 184937282, "role": "outer"}, {"type": "way", "ref": 184937285, "role": "outer"}, {"type": "way", "ref": 184937312, "role": "outer"}, {"type": "way", "ref": 184937288, "role": "outer"}, {"type": "way", "ref": 184937247, "role": "outer"}, {"type": "way", "ref": 252517211, "role": "outer"}, {"type": "way", "ref": 452304407, "role": "outer"}], "tags": {"addr:city": "Niter\u00f3i", "addr:street": "Avenida Jansen de Melo", "addr:suburb": "Centro", "amenity": "police", "name": "12\u00ba Batalh\u00e3o de Policia Militar (PMERJ)", "type": "multipolygon"}}]}