{"version": 0.6, "generator": "Overpass API 0.7.60 f4c14d41", "osm3s": {"timestamp_osm_base": "2023-05-02T21:20:24Z", "copyright": "The data included in this document is from www.openstreetmap.org. The data is made available under ODbL."}, "elements": [{"type": "node", "id": 419361320, "lat": 40.6505269, "lon": -74.0048997, "tags": {"name": "Market Carniceria", "shop": "greengrocer"}}, {"type": "node", "id": 910827450, "lat": 40.708147, "lon": -74.00622, "tags": {"addr:postcode": "10038", "addr:street": "Gold Street", "name": "Jubilee", "opening_hours": "Mo-Su 06:00-00:00", "phone": "+12122330808", "shop": "greengrocer", "website": "http://www.jubileemarketplace.net", "wheelchair": "yes"}}, {"type": "node", "id": 1748991487, "lat": 40.7901312, "lon": -73.9475691, "tags": {"addr:housenumber": "150", "addr:street": "East 102nd Street", "alcohol": "yes", "name": "Fruits Bazar", "phone": "+1 347-302-9212", "shop": "greengrocer"}}, {"type": "node", "id": 1865211621, "lat": 40.7242671, "lon": -73.9489114, "tags": {"addr:city": "Brooklyn", "addr:housenumber": "116", "addr:postcode": "11222", "addr:state": "NY", "addr:street": "Nassau Avenue", "name": "Rachel's Garden", "opening_hours": "24/7", "phone": "+1-718-349-8607", "shop": "greengrocer", "wheelchair": "limited"}}, {"type": "node", "id": 2014428775, "lat": 40.6411408, "lon": -74.0146836, "tags": {"name": "Hometown Fresh Market", "shop": "greengrocer"}}, {"type": "node", "id": 2015476115, "lat": 40.7307676, "lon": -73.9545749, "tags": {"name": "The Garden", "shop": "greengrocer"}}, {"type": "node", "id": 2274490509, "lat": 40.7090519, "lon": -73.8303968, "tags": {"addr:city": "Kew Gardens", "addr:country": "US", "addr:housenumber": "81-22", "addr:postcode": "11415", "addr:state": "NY", "addr:street": "Lefferts Boulevard", "name": "Thyme Natural Market & Cafe", "note": "They also sell shots of wheatgrass and fresh fruit juices!", "shop": "greengrocer", "website": "www.thymenaturalmarket.com"}}, {"type": "node", "id": 2275557548, "lat": 40.7324903, "lon": -73.9547995, "tags": {"name": "Fruit Stop", "shop": "greengrocer"}}, {"type": "node", "id": 2275557554, "lat": 40.7324558, "lon": -73.9544658, "tags": {"name": "Cheapest Tall Can in the Neighborhood", "shop": "greengrocer"}}, {"type": "node", "id": 2276241977, "lat": 40.6406444, "lon": -73.9660736, "tags": {"addr:city": "Brooklyn", "addr:postcode": "11226", "addr:state": "NY", "addr:street": "Cortelyou Road", "name": "Cortelyou Green Market", "shop": "greengrocer"}}, {"type": "node", "id": 2351558476, "lat": 40.7549345, "lon": -73.9949239, "tags": {"addr:housenumber": "476", "addr:postcode": "10018", "addr:street": "9th Avenue", "name": "Stile's Farmers Market ", "opening_hours": "Mo-Sa 07:00-18:30; Su 09:00-17:00", "phone": "+1 212-868-7070", "shop": "greengrocer", "website": "https://stiles-farmers-market-inc.hub.biz"}}, {"type": "node", "id": 2494077032, "lat": 40.6929762, "lon": -73.9692251, "tags": {"drink:beer": "yes", "drink:coffee": "yes", "name": "Mr. Coco", "opening_hours": "24/7", "shop": "greengrocer"}}, {"type": "node", "id": 2495298558, "lat": 40.7275337, "lon": -73.864178, "tags": {"addr:city": "Rego Park", "addr:housenumber": "92-01", "addr:postcode": "11374", "addr:street": "63rd Drive", "name": "World Fruit Farm", "shop": "greengrocer"}}, {"type": "node", "id": 2546985608, "lat": 40.7263624, "lon": -73.9895297, "tags": {"addr:housenumber": "69", "addr:postcode": "10003", "addr:street": "2nd Avenue", "drink:beer": "yes", "name": "East Village Farm & Grocery", "opening_hours": "24/7", "phone": "+1-212-477-1385", "shop": "greengrocer"}}, {"type": "node", "id": 2549928858, "lat": 40.7271904, "lon": -73.9853771, "tags": {"name": "East Village Organic", "opening_hours": "Mo-Su 09:00-20:00", "phone": "+1-212-253-2451", "shop": "greengrocer", "website": "https://eastvillageorganic.com"}}, {"type": "node", "id": 2550147617, "lat": 40.6779828, "lon": -73.9498889, "tags": {"addr:housenumber": "602", "addr:postcode": "11216", "addr:street": "Nostrand Avenue", "name": "Blueberry Farm", "opening_hours": "Mo-Su 08:30-20:30", "shop": "greengrocer"}}, {"type": "node", "id": 2551542897, "lat": 40.5436345, "lon": -74.1648335, "tags": {"addr:city": "Staten Island", "addr:housenumber": "3870", "addr:postcode": "10312", "addr:state": "NY", "addr:street": "Richmond Avenue", "name": "Sun Fruit & Vegetables", "shop": "greengrocer"}}, {"type": "node", "id": 2552592656, "lat": 40.5751354, "lon": -73.9971228, "tags": {"addr:city": "Brooklyn", "addr:housenumber": "3024", "addr:postcode": "11224", "addr:state": "NY", "addr:street": "Mermaid Avenue", "name": "Washington Cherry Inc", "phone": "+1-718-946-0852", "shop": "greengrocer"}}, {"type": "node", "id": 2552603936, "lat": 40.6232767, "lon": -74.0309471, "tags": {"addr:housenumber": "302", "addr:postcode": "11209", "addr:street": "86th Street", "name": "Taza Produce", "shop": "greengrocer"}}, {"type": "node", "id": 2552909004, "lat": 40.6272158, "lon": -74.0237457, "tags": {"addr:housenumber": "7802", "addr:postcode": "11209", "addr:street": "5th Avenue", "name": "Amira Fresh Market", "phone": "+1-718-333-5131", "shop": "greengrocer"}}, {"type": "node", "id": 2553044803, "lat": 40.6302757, "lon": -74.0224817, "tags": {"addr:housenumber": "7402", "addr:postcode": "11209", "addr:street": "5th Avenue", "alt_name": "Pine Apple Farm", "diet:halal": "yes", "name": "Pineapple Farm", "phone": "+1-718-836-7400", "shop": "greengrocer"}}, {"type": "node", "id": 2555098990, "lat": 40.7187483, "lon": -73.9964898, "tags": {"addr:housenumber": "140", "addr:postcode": "10013", "addr:street": "Mott Street", "name": "JC Fruit & Vegetable", "shop": "greengrocer"}}, {"type": "node", "id": 2561366729, "lat": 40.6329723, "lon": -74.0051977}, {"type": "node", "id": 2561366732, "lat": 40.6330725, "lon": -74.0053642}, {"type": "node", "id": 2561366735, "lat": 40.63309, "lon": -74.0053639}, {"type": "node", "id": 2561366738, "lat": 40.6332457, "lon": -74.0048806}, {"type": "node", "id": 2561366741, "lat": 40.6332568, "lon": -74.0048997}, {"type": "node", "id": 2561366744, "lat": 40.6332872, "lon": -74.0048393}, {"type": "node", "id": 2561366748, "lat": 40.6334228, "lon": -74.0047041}, {"type": "node", "id": 2561366751, "lat": 40.6334493, "lon": -74.0047498}, {"type": "node", "id": 2561366770, "lat": 40.6334552, "lon": -74.0048216}, {"type": "node", "id": 2561552345, "lat": 40.6455051, "lon": -74.0096974, "tags": {"addr:housenumber": "4901", "addr:postcode": "11220", "addr:street": "5th Avenue", "name": "Macareno Mini Market", "shop": "greengrocer"}}, {"type": "node", "id": 2561552349, "lat": 40.6451626, "lon": -74.0100533, "tags": {"delivery": "yes", "name": "El Neuvo Pueblo", "opening_hours": "24/7", "phone": "+1-718-435-9078", "shop": "greengrocer"}}, {"type": "node", "id": 2561646379, "lat": 40.6305425, "lon": -74.0096316}, {"type": "node", "id": 2561646458, "lat": 40.6305915, "lon": -74.0097128}, {"type": "node", "id": 2561646463, "lat": 40.6306263, "lon": -74.0095062}, {"type": "node", "id": 2561646466, "lat": 40.6306546, "lon": -74.0098176}, {"type": "node", "id": 2561646479, "lat": 40.6307526, "lon": -74.0097159}, {"type": "node", "id": 2561747072, "lat": 40.6490204, "lon": -74.0136092}, {"type": "node", "id": 2561747080, "lat": 40.6491547, "lon": -74.013832}, {"type": "node", "id": 2561747081, "lat": 40.6491797, "lon": -74.0134436}, {"type": "node", "id": 2561747096, "lat": 40.6493141, "lon": -74.0136665}, {"type": "node", "id": 2561880136, "lat": 40.6483037, "lon": -74.0067803, "tags": {"addr:housenumber": "4401", "addr:postcode": "11220", "addr:street": "5th Avenue", "name": "El Rancho Nuevo Supermarket", "phone": "+1-718-851-2341", "shop": "greengrocer"}}, {"type": "node", "id": 2561910085, "lat": 40.6512609, "lon": -74.0041439, "tags": {"addr:housenumber": "3900", "addr:postcode": "11232", "addr:street": "5th Avenue", "atm": "yes", "drink:beer": "yes", "drink:wine": "low_alcohol", "name": "5 Borough Market", "phone": "+1-917-589-3334", "shop": "greengrocer"}}, {"type": "node", "id": 2561959530, "lat": 40.6423133, "lon": -73.9802122, "tags": {"addr:housenumber": "80", "addr:postcode": "11218", "addr:street": "Church Avenue", "name": "Bismillah", "phone": "+1-718-676-1902", "shop": "greengrocer"}}, {"type": "node", "id": 2561979818, "lat": 40.6440804, "lon": -73.9767382, "tags": {"addr:city": "Brooklyn", "addr:housenumber": "329", "addr:postcode": "11218", "addr:state": "NY", "addr:street": "Church Avenue", "name": "Isaac Apple Farm", "opening_hours": "24/7", "organic": "yes", "payment:cash": "yes", "payment:credit_cards": "yes", "shop": "greengrocer"}}, {"type": "node", "id": 2563014047, "lat": 40.5998515, "lon": -73.9461102}, {"type": "node", "id": 2563014470, "lat": 40.5995773, "lon": -73.946059}, {"type": "node", "id": 2563014480, "lat": 40.5995912, "lon": -73.9459305}, {"type": "node", "id": 2563014482, "lat": 40.5995917, "lon": -73.9460617}, {"type": "node", "id": 2563014493, "lat": 40.5996042, "lon": -73.9458089}, {"type": "node", "id": 2563014514, "lat": 40.5996386, "lon": -73.9459028}, {"type": "node", "id": 2563014524, "lat": 40.5996478, "lon": -73.9458171}, {"type": "node", "id": 2563014653, "lat": 40.5997124, "lon": -73.9459165}, {"type": "node", "id": 2563014661, "lat": 40.5997322, "lon": -73.9457326}, {"type": "node", "id": 2563014756, "lat": 40.5998731, "lon": -73.9461142}, {"type": "node", "id": 2563014758, "lat": 40.5999106, "lon": -73.9457659}, {"type": "node", "id": 2563416478, "lat": 40.6274883, "lon": -73.9661217}, {"type": "node", "id": 2563416479, "lat": 40.627497, "lon": -73.9660408}, {"type": "node", "id": 2563416485, "lat": 40.6275148, "lon": -73.9658768}, {"type": "node", "id": 2563416532, "lat": 40.6276076, "lon": -73.966144}, {"type": "node", "id": 2563416563, "lat": 40.6276482, "lon": -73.9661516}, {"type": "node", "id": 2563416584, "lat": 40.6276745, "lon": -73.9659091}, {"type": "node", "id": 2563416585, "lat": 40.6276748, "lon": -73.9659066}, {"type": "node", "id": 2566670912, "lat": 40.6527467, "lon": -73.9594763, "tags": {"addr:housenumber": "818", "addr:postcode": "11226", "addr:street": "Flatbush Avenue", "name": "Star Best Farm Market", "opening_hours": "24/7", "shop": "greengrocer"}}, {"type": "node", "id": 2567062271, "lat": 40.6693111, "lon": -73.9507013, "tags": {"addr:housenumber": "840", "addr:postcode": "11225", "addr:street": "Nostrand Avenue", "drink:beer": "yes", "name": "CJ Fruits & Vegetables", "shop": "greengrocer"}}, {"type": "node", "id": 2567093834, "lat": 40.670155, "lon": -73.9583155, "tags": {"addr:housenumber": "812", "addr:postcode": "11225", "addr:street": "Franklin Avenue", "alt_name": "See's Fruit Market", "name": "812 Corp", "shop": "greengrocer"}}, {"type": "node", "id": 2568634957, "lat": 40.6996486, "lon": -73.920109, "tags": {"name": "Mr. Lemon", "phone": "+1-718-453-4632", "shop": "greengrocer"}}, {"type": "node", "id": 2569969189, "lat": 40.731092, "lon": -73.8602658, "tags": {"addr:housenumber": "97-18", "addr:postcode": "11374", "addr:street": "63rd Road", "name": "Elm Trading", "shop": "greengrocer"}}, {"type": "node", "id": 2569998639, "lat": 40.7493555, "lon": -73.8891904, "tags": {"addr:housenumber": "76-21", "addr:postcode": "11372", "addr:street": "37th Avenue", "name": "Growing Farm", "shop": "greengrocer"}}, {"type": "node", "id": 2570174105, "lat": 40.7471779, "lon": -73.8894536, "tags": {"addr:city": "Jackson Heights", "addr:housenumber": "76-01", "addr:postcode": "11372", "addr:state": "NY", "addr:street": "Roosevelt Avenue", "name": "Seli Grocery", "shop": "greengrocer"}}, {"type": "node", "id": 2570174215, "lat": 40.7494557, "lon": -73.8859594, "tags": {"addr:housenumber": "80-04", "addr:postcode": "11372", "addr:street": "37th Avenue", "name": "Kim's Brother", "shop": "greengrocer"}}, {"type": "node", "id": 2808370289, "lat": 40.7288904, "lon": -73.8635145, "tags": {"name": "Family Fruit Farm", "shop": "greengrocer"}}, {"type": "node", "id": 2844716689, "lat": 40.7463181, "lon": -73.8952747, "tags": {"addr:housenumber": "70-02", "addr:postcode": "11377", "addr:street": "Roosevelt Avenue", "shop": "greengrocer"}}, {"type": "node", "id": 2846642891, "lat": 40.7593013, "lon": -73.9199864, "tags": {"addr:housenumber": "37-20", "addr:postcode": "11103", "addr:street": "Broadway", "shop": "greengrocer", "wheelchair": "no"}}, {"type": "node", "id": 2846883341, "lat": 40.7627698, "lon": -73.9267851, "tags": {"addr:city": "Astoria", "addr:housenumber": "29-01", "addr:postcode": "11106", "addr:state": "NY", "addr:street": "Broadway", "name": "Lee's Family Farm", "shop": "greengrocer"}}, {"type": "node", "id": 2853151377, "lat": 40.7777286, "lon": -73.908478, "tags": {"addr:housenumber": "21-01", "addr:postcode": "11105", "addr:street": "31st Street", "name": "Verdi Fresh", "shop": "greengrocer"}}, {"type": "node", "id": 2870657930, "lat": 40.7076627, "lon": -73.7956961, "tags": {"addr:city": "Jamaica", "addr:housenumber": "89-01", "addr:postcode": "11432", "addr:state": "NY", "addr:street": "165th Street", "name": "Green Farm Supermarket", "shop": "greengrocer"}}, {"type": "node", "id": 2870806679, "lat": 40.7016591, "lon": -73.8082838, "tags": {"addr:housenumber": "146-18", "addr:postcode": "11435", "addr:street": "Jamaica Avenue", "name": "The Meat Barn", "shop": "greengrocer"}}, {"type": "node", "id": 3118144413, "lat": 40.6692299, "lon": -73.9104593, "tags": {"shop": "greengrocer"}}, {"type": "node", "id": 3118221935, "lat": 40.6908967, "lon": -73.9087717, "tags": {"shop": "greengrocer"}}, {"type": "node", "id": 3315132875, "lat": 40.5773616, "lon": -73.9634419, "tags": {"check_date:opening_hours": "2022-06-25", "name": "Fruits & Vegetables", "opening_hours": "Mo-Su 09:00-19:30", "payment:credit_cards": "yes", "payment:debit_cards": "yes", "shop": "greengrocer", "wheelchair": "yes"}}, {"type": "node", "id": 3315201780, "lat": 40.5770172, "lon": -73.9652943, "tags": {"name": "Fruits & Vegetables", "shop": "greengrocer"}}, {"type": "node", "id": 3664965125, "lat": 40.6481208, "lon": -73.9722811, "tags": {"addr:city": "Brooklyn", "addr:housenumber": "825", "addr:postcode": "11218", "addr:state": "NY", "addr:street": "Caton Avenue", "name": "Windsor Terrace Food Coop", "operator": "Windsor Terrace Food Coop", "shop": "greengrocer", "website": "http://www.windsorterracefoodcoop.com"}}, {"type": "node", "id": 3682773544, "lat": 40.7495626, "lon": -73.8849363, "tags": {"name": "Two Brothers Farm", "shop": "greengrocer"}}, {"type": "node", "id": 3810255757, "lat": 40.6724987, "lon": -73.9571573, "tags": {"addr:housenumber": "769", "addr:postcode": "11238", "addr:street": "Franklin Avenue", "atm": "yes", "drink:beer": "yes", "name": "SJ Market", "shop": "greengrocer"}}, {"type": "node", "id": 3810255758, "lat": 40.6730285, "lon": -73.9572738, "tags": {"addr:city": "Brooklyn", "addr:housenumber": "744", "addr:postcode": "11238", "addr:state": "NY", "addr:street": "Franklin Avenue", "drink:beer": "yes", "name": "Mr. Kale", "shop": "greengrocer"}}, {"type": "node", "id": 4035635914, "lat": 40.6781716, "lon": -73.955082, "tags": {"addr:housenumber": "591", "addr:place": "Franklin Avenue", "addr:postcode": "11238", "atm": "yes", "cuisine": "sandwich;breakfast", "drink:beer": "yes", "drink:coffee": "yes", "drink:smoothie": "yes", "name": "Broccoli Farm", "opening_hours": "Mo-Sa 08:00-24:00; Su 08:00-20:00", "shop": "greengrocer"}}, {"type": "node", "id": 4316479290, "lat": 40.608691, "lon": -73.9579657, "tags": {"name": "Kings Gourmet Food", "not:brand:wikidata": "Q6412914", "opening_hours": "Mo-Su 07:00-21:00", "shop": "greengrocer"}}, {"type": "node", "id": 4431954770, "lat": 40.6787601, "lon": -73.9218031, "tags": {"fixme": "all details", "name": "Lily Fruit & Vegetables", "shop": "greengrocer"}}, {"type": "node", "id": 4968315090, "lat": 40.7094513, "lon": -73.7741357, "tags": {"addr:city": "Jamaica", "addr:housenumber": "184-60", "addr:postcode": "11423", "addr:state": "NY", "addr:street": "Jamaica Avenue", "name": "Gotham Greens", "shop": "greengrocer"}}, {"type": "node", "id": 5063261226, "lat": 40.7451431, "lon": -73.9037584, "tags": {"addr:housenumber": "39-86", "addr:street": "61st Street", "name": "Healthy Living", "shop": "greengrocer"}}, {"type": "node", "id": 5142934480, "lat": 40.7691735, "lon": -73.91945, "tags": {"addr:housenumber": "25-56", "addr:street": "31st Street", "name": "Titan Foods", "shop": "greengrocer", "wheelchair": "no"}}, {"type": "node", "id": 5155678963, "lat": 40.7891842, "lon": -73.8131351, "tags": {"addr:housenumber": "150-15", "addr:street": "14th Avenue", "name": "Rasberry Farm", "shop": "greengrocer"}}, {"type": "node", "id": 5161985702, "lat": 40.8469977, "lon": -73.8319068, "tags": {"addr:housenumber": "3002", "addr:street": "Buhre Avenue", "name": "Susan's Green Green Green Market", "shop": "greengrocer"}}, {"type": "node", "id": 5163873686, "lat": 40.6940505, "lon": -73.9102614, "tags": {"addr:housenumber": "718", "addr:street": "Knickerbocker Avenue", "name": "El Conuco Acevedo Corp", "opening_hours": "Mo-Su 08:00-20:00", "phone": "+1-718-975-8033", "shop": "greengrocer"}}, {"type": "node", "id": 5175561630, "lat": 40.8786421, "lon": -73.8660624, "tags": {"addr:housenumber": "3543", "addr:street": "Winchester Avenue", "name": "Green Garden Health Food", "shop": "greengrocer"}}, {"type": "node", "id": 5182471406, "lat": 40.7661525, "lon": -73.9201793, "tags": {"addr:housenumber": "32-14", "addr:street": "30th Avenue", "name": "Apple House Juice Bar", "shop": "greengrocer", "wheelchair": "yes"}}, {"type": "node", "id": 5221020120, "lat": 40.6804956, "lon": -73.9490943, "tags": {"name": "Natural Farmer's Market", "shop": "greengrocer"}}, {"type": "node", "id": 5248100576, "lat": 40.7296667, "lon": -73.8628371, "tags": {"addr:housenumber": "95-07", "name": "Fresh Value", "shop": "greengrocer"}}, {"type": "node", "id": 5395613729, "lat": 40.766091, "lon": -73.9200542, "tags": {"addr:housenumber": "32-24", "addr:street": "30th Avenue", "name": "United Brother's Fruit Markets", "opening_hours": "24/7", "shop": "greengrocer", "website": "www.unitedfruitbrothersmarket.com"}}, {"type": "node", "id": 5589228333, "lat": 40.6179682, "lon": -73.9911672, "tags": {"addr:housenumber": "6623", "addr:postcode": "11204", "addr:street": "18th Avenue", "check_date": "2022-11-19", "name": "King Fruit", "opening_hours": "24/7", "payment:cash": "yes", "payment:credit_cards": "yes", "payment:debit_cards": "yes", "payment:ebt": "yes", "shop": "greengrocer"}}, {"type": "node", "id": 5594917737, "lat": 40.7116056, "lon": -73.9461355, "tags": {"addr:housenumber": "655", "addr:street": "Grand Street", "name": "To The World Farm", "opening_hours": "Mo-Sa 07:30-20:30; Su 09:00-19:30", "payment:cash": "yes", "payment:credit_cards": "yes", "phone": "+1-718-218-8120", "shop": "greengrocer", "website": "https://www.mercato.com/shop/to-the-world-farm", "wheelchair": "yes"}}, {"type": "node", "id": 5697626994, "lat": 40.7028549, "lon": -73.9208478, "tags": {"addr:housenumber": "1549", "addr:street": "DeKalb Avenue", "name": "DeKalb Market", "opening_hours": "Mo-Th, Su 08:00-23:00; Fr, Sa 08:00-12:00", "phone": "+1-718-484-3284", "shop": "greengrocer"}}, {"type": "node", "id": 5721473969, "lat": 40.7435193, "lon": -73.924469, "tags": {"addr:housenumber": "39-50", "addr:street": "Queens Boulevard", "name": "New Castle Deli", "phone": "+1-718-729-2975", "shop": "greengrocer"}}, {"type": "node", "id": 5721476635, "lat": 40.7451735, "lon": -73.92194, "tags": {"addr:housenumber": "42-02", "addr:street": "43rd Avenue", "name": "Organic Gourmet Deli 2", "phone": "+1 347 617 1445", "shop": "greengrocer"}}, {"type": "node", "id": 5747108144, "lat": 40.6425769, "lon": -73.9796044, "tags": {"addr:housenumber": "472", "addr:postcode": "11218", "addr:street": "McDonald Avenue", "diet:halal": "yes", "name": "Green House Deshi Supermarket", "opening_hours": "24/7", "shop": "greengrocer"}}, {"type": "node", "id": 5747118911, "lat": 40.6403053, "lon": -73.995062, "tags": {"addr:housenumber": "4504", "addr:street": "Fort Hamilton Parkway", "name": "Fruitland", "shop": "greengrocer"}}, {"type": "node", "id": 5747292331, "lat": 40.63844, "lon": -73.9747702, "tags": {"addr:housenumber": "423", "addr:street": "Cortelyou Road", "name": "Shabuj Grocery & Halal Meat", "shop": "greengrocer"}}, {"type": "node", "id": 5763535285, "lat": 40.7456218, "lon": -73.9041444, "tags": {"addr:housenumber": "60-07", "addr:street": "Roosevelt Avenue", "atm": "yes", "name": "Jin's Big Apple Fruits Market", "opening_hours": "24/7", "phone": "+1-718-779-4555", "shop": "greengrocer"}}, {"type": "node", "id": 5775247319, "lat": 40.7757505, "lon": -73.9103907, "tags": {"addr:city": "Astoria", "addr:housenumber": "31-12", "addr:postcode": "11105", "addr:state": "NY", "addr:street": "Ditmars Boulevard", "name": "Parrot", "shop": "greengrocer"}}, {"type": "node", "id": 5784489854, "lat": 40.6983514, "lon": -73.9724336, "tags": {"addr:housenumber": "63", "addr:street": "Flushing Avenue", "name": "Brooklyn Navy Yard Farm", "shop": "greengrocer", "website": "https://www.brooklyngrangefarm.com/"}}, {"type": "node", "id": 5796830912, "lat": 40.7261043, "lon": -74.0018098, "tags": {"addr:housenumber": "172", "addr:street": "Prince Street", "name": "H & H Corporation", "opening_hours": "24/7", "phone": "+1-212-431-6667", "shop": "greengrocer"}}, {"type": "node", "id": 5804692405, "lat": 40.7023054, "lon": -73.9359617, "tags": {"addr:housenumber": "919", "addr:street": "Flushing Avenue", "name": "Herbalife Sales Center Brooklyn", "opening_hours": "Mo-Fr 10:00-18:00; Sa 10:00-15:00", "payment:cheque": "yes", "payment:debit_cards": "yes", "phone": "+1-718-381-9610", "shop": "greengrocer", "website": "https://myherbalife.com/", "wheelchair": "yes"}}, {"type": "node", "id": 5820908432, "lat": 40.6781226, "lon": -73.9471017, "tags": {"addr:housenumber": "56", "addr:street": "New York Avenue", "name": "Al Muath Grocery", "shop": "greengrocer"}}, {"type": "node", "id": 5984075037, "lat": 40.6626068, "lon": -73.9918952, "tags": {"name": "Big Apple Fruits & Vegetables", "shop": "greengrocer"}}, {"type": "node", "id": 5986799624, "lat": 40.6157985, "lon": -74.0002848, "tags": {"addr:housenumber": "1622", "addr:postcode": "11204", "addr:street": "Bay Ridge Parkway", "name": "Paradise Fruit & Vegetable", "phone": "+1-718-232-2565", "shop": "greengrocer"}}, {"type": "node", "id": 6049761816, "lat": 40.7087706, "lon": -73.9371724, "tags": {"addr:housenumber": "273", "addr:street": "Meserole Street", "name": "Mr. Mushroom", "phone": "+1-718-821-9895", "shop": "greengrocer"}}, {"type": "node", "id": 6125305646, "lat": 40.7001145, "lon": -73.9290316, "tags": {"addr:housenumber": "112", "addr:street": "Central Avenue", "name": "Central Supermarket", "opening_hours": "Mo-Th, Su 07:00-22:00; Fr, Sa 08:00-24:00", "phone": "+1-347-425-8716", "shop": "greengrocer"}}, {"type": "node", "id": 6175434112, "lat": 40.6830363, "lon": -73.964126, "tags": {"drink:beer": "no", "drink:coffee": "yes", "drink:juice": "yes", "name": "Mr. Melon", "opening_hours": "24/7", "phone": "+1-347-725-4709", "shop": "greengrocer"}}, {"type": "node", "id": 6260920349, "lat": 40.7211091, "lon": -73.9890338, "tags": {"addr:city": "New York", "addr:housenumber": "166", "addr:postcode": "10002", "addr:state": "NY", "addr:street": "Allen Street", "addr:unit": "A", "name": "Shi Eurasia", "opening_hours": "Mo-Su 12:00-21:00", "operator": "Shi Eurasia", "phone": "(212) 228-7988", "shop": "greengrocer", "website": "https://shieurasia.com"}}, {"type": "node", "id": 6340488790, "lat": 40.6841053, "lon": -73.9948836, "tags": {"name": "K & Y Fruit & Vegetables", "opening_hours": "Mo-Su 08:00-20:30", "phone": "+1-718-222-0525", "shop": "greengrocer"}}, {"type": "node", "id": 6347916315, "lat": 40.7438439, "lon": -73.9762482, "tags": {"description": "fruit and vegetable stand reliably in this location", "noname": "yes", "shop": "greengrocer"}}, {"type": "node", "id": 6611038952, "lat": 40.7382145, "lon": -73.7049639, "tags": {"name": "Nature's Pantry Organic Store", "shop": "greengrocer"}}, {"type": "node", "id": 6670244834, "lat": 40.7655976, "lon": -73.9543524, "tags": {"name": "River East Gourmet", "shop": "greengrocer"}}, {"type": "node", "id": 6681860378, "lat": 40.6969002, "lon": -73.9348212, "tags": {"addr:housenumber": "957", "addr:postcode": "11221", "addr:street": "Broadway", "drink:beer": "yes", "drink:coffee": "yes", "drink:juice": "yes", "level": "0", "name": "Mr. Kiwi", "opening_hours": "24/7", "shop": "greengrocer"}}, {"type": "node", "id": 6769218557, "lat": 40.8283211, "lon": -73.8804748, "tags": {"name": "Little Reyes", "phone": "+1 347 726 6279", "shop": "greengrocer"}}, {"type": "node", "id": 6789145034, "lat": 40.7372603, "lon": -74.0307655, "tags": {"name": "Natural & Plus", "shop": "greengrocer"}}, {"type": "node", "id": 6793958718, "lat": 40.7491666, "lon": -74.0275308, "tags": {"name": "Fresh Picked", "shop": "greengrocer"}}, {"type": "node", "id": 6807628380, "lat": 40.7812019, "lon": -73.9545275, "tags": {"addr:housenumber": "1330", "addr:postcode": "10128", "addr:street": "Lexington Avenue", "delivery": "yes", "name": "Annie's Fruit and Vegetable", "opening_hours": "Mo-Fr 07:00-23:00; Sa, Su 08:00-22:00", "payment:ebt": "no", "phone": "+1 212-427-8800", "shop": "greengrocer"}}, {"type": "node", "id": 6910875751, "lat": 40.7709268, "lon": -73.9595724, "tags": {"name": "Green Cart", "opening_hours": "24/7", "payment:cash": "yes", "shop": "greengrocer"}}, {"type": "node", "id": 6918676615, "lat": 40.7779843, "lon": -73.9515252, "tags": {"name": "Green Cart", "opening_hours": "24/7", "payment:cash": "yes", "shop": "greengrocer"}}, {"type": "node", "id": 6980049857, "lat": 40.7592767, "lon": -73.8301992, "tags": {"addr:city": "Flushing", "addr:housenumber": "40-10", "addr:state": "NY", "addr:street": "Main Street", "shop": "greengrocer"}}, {"type": "node", "id": 7012774935, "lat": 40.7157017, "lon": -73.7459857, "tags": {"addr:housenumber": "212-40", "addr:street": "Jamaica Avenue", "shop": "greengrocer"}}, {"type": "node", "id": 7126840191, "lat": 40.6350787, "lon": -74.0235457, "tags": {"name": "Macareno Central", "opening_hours": "24/7", "phone": "+1-718-836-0111", "shop": "greengrocer"}}, {"type": "node", "id": 7138030376, "lat": 40.7851127, "lon": -73.946738, "tags": {"level": "0", "shop": "greengrocer"}}, {"type": "node", "id": 7143243405, "lat": 40.6851723, "lon": -73.9913622, "tags": {"drink:beer": "yes", "drink:coffee": "yes", "drink:juice": "yes", "name": "Mr. Beet", "shop": "greengrocer"}}, {"type": "node", "id": 7170433005, "lat": 40.7528074, "lon": -73.7918679, "tags": {"addr:street": "Hollis Court Boulevard", "name": "Neil\u2019s Natural Market", "shop": "greengrocer"}}, {"type": "node", "id": 7195989658, "lat": 40.803829, "lon": -73.7354004, "tags": {"name": "Eden Farms", "organic": "yes", "shop": "greengrocer"}}, {"type": "node", "id": 7633814594, "lat": 40.7130772, "lon": -73.9886685, "tags": {"name": "Papito Grocery", "phone": "212-619-4933", "shop": "greengrocer"}}, {"type": "node", "id": 7677694816, "lat": 40.7822409, "lon": -73.9487007, "tags": {"shop": "greengrocer"}}, {"type": "node", "id": 7797500153, "lat": 40.542868, "lon": -74.2070053, "tags": {"name": "Lucky Farm", "shop": "greengrocer"}}, {"type": "node", "id": 8021897565, "lat": 40.5784344, "lon": -73.9578474, "tags": {"shop": "greengrocer"}}, {"type": "node", "id": 8022299169, "lat": 40.7704653, "lon": -73.892149, "tags": {"addr:housenumber": "77-20", "addr:postcode": "11370", "addr:street": "21st Avenue", "name": "Kesso Foods", "phone": "+1-718-777-5303", "shop": "greengrocer"}}, {"type": "node", "id": 8258925526, "lat": 40.7703377, "lon": -73.9543122, "tags": {"level": "0", "shop": "greengrocer", "wheelchair": "yes"}}, {"type": "node", "id": 8553717360, "lat": 40.6408169, "lon": -74.0149979, "tags": {"addr:housenumber": "5724", "addr:postcode": "11220", "addr:street": "5th Avenue", "name": "Amy Grocery", "phone": "+1-718-439-7045", "shop": "greengrocer"}}, {"type": "node", "id": 8923585563, "lat": 40.7419954, "lon": -73.8784099, "tags": {"addr:city": "Elmhurst", "addr:housenumber": "86-22", "addr:postcode": "11373", "addr:state": "NY", "addr:street": "Whitney Avenue", "name": "Rachael Grocery Store", "payment:cash": "yes", "payment:credit_cards": "yes", "payment:debit_cards": "yes", "payment:wic": "yes", "phone": "+1-718-565-7100", "shop": "greengrocer"}}, {"type": "node", "id": 9057619313, "lat": 40.707267, "lon": -73.8359556, "tags": {"addr:city": "Richmond Hill", "addr:housenumber": "116-08", "addr:postcode": "11418", "addr:state": "NY", "addr:street": "Metropolitan Avenue", "check_date": "2023-01-29", "name": "Joy Fruit A&H Farm", "opening_hours": "07:00-20:30", "phone": "+1 718-846-7902", "shop": "greengrocer", "wheelchair": "yes"}}, {"type": "node", "id": 9133610796, "lat": 40.6336455, "lon": -74.021117, "tags": {"addr:housenumber": "6824", "addr:postcode": "11220", "addr:street": "5th Avenue", "diet:halal": "yes", "name": "Alarabi Market", "phone": "+1-718-238-9696", "shop": "greengrocer"}}, {"type": "node", "id": 9291191727, "lat": 40.6682483, "lon": -73.9508055, "tags": {"name": "APM Fruit & Vegetable", "shop": "greengrocer"}}, {"type": "node", "id": 9348991180, "lat": 40.7127782, "lon": -73.8778163, "tags": {"name": "Middle Village Produce", "phone": "+1 718 326 0957", "shop": "greengrocer"}}, {"type": "node", "id": 9348991215, "lat": 40.7131975, "lon": -73.8758093, "tags": {"name": "Colombo's Fruit & Vegetable Market", "phone": "+1 718 891 6313", "shop": "greengrocer"}}, {"type": "node", "id": 9431945819, "lat": 40.6422313, "lon": -74.0166589, "tags": {"name": "Amiga De China Supermarket", "opening_hours": "Mo-Su 08:00-23:00", "phone": "+1-929-397-0123", "shop": "greengrocer"}}, {"type": "node", "id": 9432106584, "lat": 40.6444956, "lon": -74.0143088, "tags": {"diet:halal": "yes", "name": "Avocado Farm Meat Market", "shop": "greengrocer"}}, {"type": "node", "id": 9487844457, "lat": 40.7341272, "lon": -73.8504097, "tags": {"addr:housenumber": "63-28", "name": "Bethel Farm", "shop": "greengrocer"}}, {"type": "node", "id": 9537904452, "lat": 40.6456139, "lon": -74.0100271, "tags": {"name": "El Super", "shop": "greengrocer"}}, {"type": "node", "id": 9545067127, "lat": 40.7496406, "lon": -73.862974, "tags": {"addr:housenumber": "40-08", "name": "Corona King Produce", "shop": "greengrocer"}}, {"type": "node", "id": 9556257166, "lat": 40.7051251, "lon": -73.8095544, "tags": {"addr:city": "Jamaica", "addr:housenumber": "87-78", "addr:postcode": "11435", "addr:state": "NY", "addr:street": "Sutphin Boulevard", "name": "4 Star Vegetable & Food", "shop": "greengrocer"}}, {"type": "node", "id": 9595950541, "lat": 40.7083099, "lon": -73.9202981, "tags": {"addr:housenumber": "50", "addr:postcode": "11237", "addr:street": "Cypress Avenue", "description": "fresh produce and bulk goods sold without packaging, bring your own bags and containers", "name": "Precycle", "opening_hours": "Mo-Su 11:00-20:00", "shop": "greengrocer", "website": "https://www.precyclenyc.com"}}, {"type": "node", "id": 9678978240, "lat": 40.6952718, "lon": -73.844846, "tags": {"addr:city": "Jamaica", "addr:housenumber": "102-11", "addr:postcode": "11418", "addr:state": "NY", "addr:street": "Jamaica Avenue", "name": "El Ventorrillo Fruits Inc", "opening_hours": "Mo-Sa 08:00-21:00", "organic": "yes", "phone": "+1 929-386-0050", "shop": "greengrocer"}}, {"type": "node", "id": 9682695650, "lat": 40.6496067, "lon": -73.837873, "tags": {"addr:city": "Queens", "addr:housenumber": "164-44", "addr:postcode": "11414", "addr:state": "NY", "addr:street": "Cross Bay Boulevard", "name": "Bella Frutta", "opening_hours": "Mo-Su 08:00-19:00", "organic": "only", "phone": "+17188489178", "shop": "greengrocer", "website": "https://www.facebook.com/profile.php?id=100054308151102"}}, {"type": "node", "id": 9701538278, "lat": 40.6249044, "lon": -73.962921, "tags": {"name": "Blue Ribbon", "shop": "greengrocer"}}, {"type": "node", "id": 9721713291, "lat": 40.6880198, "lon": -73.9197511, "tags": {"check_date": "2022-12-13", "name": "Organic Fresh Market", "organic": "yes", "payment:contactless": "yes", "payment:credit_cards": "yes", "payment:debit_cards": "yes", "shop": "greengrocer"}}, {"type": "node", "id": 9721713292, "lat": 40.6859031, "lon": -73.9154686, "tags": {"check_date": "2023-04-07", "level": "0", "lottery": "yes", "name": "Kathy's Green Gold", "opening_hours": "Mo-Sa 08:00-21:00; Su 08:00-18:00", "payment:credit_cards": "yes", "payment:mastercard": "yes", "payment:visa": "yes", "shop": "greengrocer", "wheelchair": "yes"}}, {"type": "node", "id": 9740077040, "lat": 40.642454, "lon": -73.979583, "tags": {"diet:halal": "yes", "name": "Suchana Super Market", "shop": "greengrocer"}}, {"type": "node", "id": 9779884987, "lat": 40.6351128, "lon": -74.0264796, "tags": {"addr:housenumber": "6926", "addr:postcode": "11209", "addr:street": "3rd Avenue", "name": "J & C Market", "opening_hours": "24/7", "phone": "+1-718-836-9292", "shop": "greengrocer"}}, {"type": "node", "id": 9779884993, "lat": 40.6340821, "lon": -74.0269168, "tags": {"alt_name": "Cinco de Mayo Food Market", "name": "5 de Mayo Food Market", "phone": "+1-718-333-5669", "shop": "greengrocer"}}, {"type": "node", "id": 9921524845, "lat": 40.7319493, "lon": -74.0665508, "tags": {"addr:city": "Jersey City", "addr:housenumber": "2823", "addr:postcode": "07306", "addr:state": "NJ", "addr:street": "John F. Kennedy Boulevard", "name": "Mira Fruit & Farm", "opening_hours": "Mo-Sa 08:00-21:00; Su 08:00-20:30", "phone": "+1-201-938-1150", "shop": "greengrocer"}}, {"type": "node", "id": 9998715293, "lat": 40.7275388, "lon": -74.0781767, "tags": {"name": "Las Mercedes", "shop": "greengrocer"}}, {"type": "node", "id": 10078963994, "lat": 40.7212368, "lon": -74.0448581, "tags": {"addr:housenumber": "170", "addr:street": "Newark Avenue", "name": "P&K Fruit Market", "shop": "greengrocer"}}, {"type": "node", "id": 10078964001, "lat": 40.7204255, "lon": -74.0435364, "tags": {"addr:city": "Jersey City", "addr:housenumber": "138", "addr:postcode": "07302", "addr:street": "Newark Avenue", "name": "Oliva", "shop": "greengrocer"}}, {"type": "node", "id": 10089662129, "lat": 40.854424, "lon": -73.9015906, "tags": {"shop": "greengrocer"}}, {"type": "node", "id": 10114990218, "lat": 40.8618457, "lon": -73.898486, "tags": {"name": "Fordham Fruit & Vegetable", "shop": "greengrocer"}}, {"type": "node", "id": 10163808178, "lat": 40.6467568, "lon": -74.0125842, "tags": {"name": "Cazares. M Grocery Corp", "shop": "greengrocer"}}, {"type": "node", "id": 10173812948, "lat": 40.6997761, "lon": -73.9116415, "tags": {"shop": "greengrocer"}}, {"type": "node", "id": 10218239710, "lat": 40.6227768, "lon": -74.0255479, "tags": {"addr:city": "Brooklyn", "addr:housenumber": "8404", "addr:postcode": "11209", "addr:state": "NY", "addr:street": "5th Avenue", "check_date": "2022-11-25", "name": "Fresh Central Little Market", "payment:cash": "yes", "payment:contactless": "yes", "payment:credit_cards": "yes", "payment:debit_cards": "yes", "shop": "greengrocer", "wheelchair": "yes"}}, {"type": "node", "id": 10218483676, "lat": 40.7009379, "lon": -73.8080352, "tags": {"addr:city": "Jamaica", "addr:housenumber": "91-06", "addr:postcode": "11435", "addr:street": "Sutphin Boulevard", "name": "Jamaica Green Grocery", "shop": "greengrocer"}}, {"type": "node", "id": 10218508028, "lat": 40.7011076, "lon": -73.8076362, "tags": {"addr:city": "Jamaica", "addr:country": "US", "addr:housenumber": "90-71", "addr:postcode": "11435", "addr:state": "NY", "addr:street": "Sutphin Boulevard", "name": "Well Being Fish & Deli", "shop": "greengrocer"}}, {"type": "node", "id": 10245411708, "lat": 40.6471129, "lon": -74.0080051, "tags": {"atm": "yes", "name": "La Milagrosa Fruit Market", "phone": "+1-347-987-3265", "shop": "greengrocer"}}, {"type": "node", "id": 10245557215, "lat": 40.6459049, "lon": -74.009269, "tags": {"alt_name": "La Guadelupe Fruits & Vegetables", "amenity": "fast_food", "cuisine": "mexican", "name": "La Guadelupe", "outdoor_seating": "only", "shop": "greengrocer"}}, {"type": "node", "id": 10247751972, "lat": 40.6599464, "lon": -73.9604106, "tags": {"addr:housenumber": "565", "addr:postcode": "11225", "addr:street": "Flatbush Avenue", "drink:beer": "yes", "name": "HK Fruit Market", "opening_hours": "24/7", "shop": "greengrocer"}}, {"type": "node", "id": 10301635243, "lat": 40.6080996, "lon": -73.9607176, "tags": {"addr:city": "Brooklyn", "addr:housenumber": "1201", "addr:postcode": "11229", "addr:state": "NY", "addr:street": "Quentin Road", "name": "Grand Market Halal", "opening_hours": "07:00-23:59", "shop": "greengrocer"}}, {"type": "node", "id": 10563636945, "lat": 40.6544966, "lon": -73.9598015, "tags": {"atm": "yes", "drink:beer": "yes", "name": "Flatbush Market", "shop": "greengrocer"}}, {"type": "node", "id": 10570656538, "lat": 40.577798, "lon": -73.9556283, "tags": {"addr:housenumber": "1137", "addr:street": "Brighton Beach Avenue", "check_date": "2023-01-20", "name": "Twins Market", "organic": "yes", "payment:cash": "yes", "payment:contactless": "yes", "payment:credit_cards": "yes", "payment:debit_cards": "yes", "phone": "+1 718-669-1939", "shop": "greengrocer", "wheelchair": "yes"}}, {"type": "node", "id": 10587466898, "lat": 40.5988866, "lon": -73.9546741, "tags": {"addr:housenumber": "1624", "addr:postcode": "11229", "addr:street": "Avenue U", "name": "Banana King on U", "shop": "greengrocer"}}, {"type": "node", "id": 10599778247, "lat": 40.6512641, "lon": -73.9591256, "tags": {"atm": "yes", "name": "D & J Fruit Market", "shop": "greengrocer"}}, {"type": "node", "id": 10739819918, "lat": 40.7201743, "lon": -73.8445277, "tags": {"addr:street": "Austin Street", "name": "Mr. Vino's Cucina", "shop": "greengrocer"}}, {"type": "node", "id": 10822825616, "lat": 40.6271012, "lon": -74.0237932, "tags": {"name": "Bros Best Produce", "phone": "+1-718-680-5002", "shop": "greengrocer"}}, {"type": "node", "id": 10822962191, "lat": 40.6246659, "lon": -74.0247818, "tags": {"name": "Emily Farm Corp", "phone": "+1-718-921-8705", "shop": "greengrocer"}}, {"type": "way", "id": 249553167, "nodes": [2561366738, 2561366741, 2561366729, 2561366732, 2561366735, 2561366770, 2561366751, 2561366748, 2561366744, 2561366738], "tags": {"addr:housenumber": "5915", "addr:postcode": "11219", "addr:street": "Fort Hamilton Parkway", "building": "yes", "height": "7.0", "name": "Circus Fruits", "nycdoitt:bin": "3140936", "opening_hours": "24/7", "payment:cash": "yes", "payment:credit_cards": "yes", "payment:debit_cards": "yes", "shop": "greengrocer"}}, {"type": "way", "id": 249578146, "nodes": [2561646466, 2561646479, 2561646463, 2561646379, 2561646458, 2561646466], "tags": {"addr:housenumber": "6502", "addr:postcode": "11219", "addr:street": "Fort Hamilton Parkway", "building": "yes", "height": "4.3", "name": "Three Guys from Brooklyn", "nycdoitt:bin": "3328767", "opening_hours": "24/7", "shop": "greengrocer"}}, {"type": "way", "id": 249592307, "nodes": [2561747072, 2561747080, 2561747096, 2561747081, 2561747072], "tags": {"addr:housenumber": "4720", "addr:postcode": "11220", "addr:street": "3rd Avenue", "building": "yes", "height": "7.6", "name": "Maria's Produce", "nycdoitt:bin": "3012153", "phone": "+1-607-228-3331", "shop": "greengrocer"}}, {"type": "way", "id": 249734868, "nodes": [2563014470, 2563014482, 2563014047, 2563014756, 2563014758, 2563014661, 2563014653, 2563014514, 2563014524, 2563014493, 2563014480, 2563014470], "tags": {"addr:city": "Brooklyn", "addr:housenumber": "2518", "addr:postcode": "11229", "addr:state": "NY", "addr:street": "Avenue U", "building": "retail", "height": "4.2", "name": "ProduceMarket 2000", "nycdoitt:bin": "3200017", "organic": "yes", "shop": "greengrocer"}}, {"type": "way", "id": 249785044, "nodes": [2563416478, 2563416532, 2563416563, 2563416584, 2563416585, 2563416485, 2563416479, 2563416478], "tags": {"addr:housenumber": "1234", "addr:postcode": "11230", "addr:street": "Coney Island Avenue", "building": "commercial", "height": "4.6", "name": "Eastern Fruits and Vegetables", "nycdoitt:bin": "3170583", "opening_hours": "24/7", "shop": "greengrocer"}}]}