{"version": 0.6, "generator": "Overpass API 0.7.60 f4c14d41", "osm3s": {"timestamp_osm_base": "2023-05-02T21:16:21Z", "copyright": "The data included in this document is from www.openstreetmap.org. The data is made available under ODbL."}, "elements": [{"type": "node", "id": 656104690, "lat": 41.0336104, "lon": 28.9785641, "tags": {"addr:street": "Kartal Sokak 6/A, Istanbul", "amenity": "bar", "internet_access": "wlan", "name": "Urban Cafe", "name:ar": "\u0625\u064a\u0631\u0628\u0627\u0646", "website": "http://www.urbanbeyoglu.com/"}}, {"type": "node", "id": 656108764, "lat": 41.0287835, "lon": 28.9742171, "tags": {"addr:street": "General Yazgan Sokak No: 5 T\u00fcnel", "amenity": "bar", "name": "Badehane", "name:ar": "\u0628\u0627\u062f\u064a \u0647\u0627\u0646\u064a"}}, {"type": "node", "id": 1000033444, "lat": 41.032744, "lon": 28.9767231, "tags": {"addr:city": "\u0130stanbul", "addr:district": "Beyo\u011flu", "addr:housenumber": "163b", "addr:street": "\u0130stiklal Caddesi", "amenity": "bar", "brewery": "yes", "level": "8", "name": "360 Istanbul", "name:ar": "\u0627\u0633\u0637\u0646\u0628\u0648\u0644 360", "outdoor_seating": "yes", "phone": "+90 533 691 0 360", "smoking": "outside", "website": "http://360istanbul.com/"}}, {"type": "node", "id": 1282037059, "lat": 41.0301339, "lon": 28.9723093}, {"type": "node", "id": 1282037117, "lat": 41.0301773, "lon": 28.9721873}, {"type": "node", "id": 1282037231, "lat": 41.0303938, "lon": 28.9724717}, {"type": "node", "id": 1282037267, "lat": 41.0304372, "lon": 28.9723496}, {"type": "node", "id": 1657788203, "lat": 41.0336163, "lon": 28.9845243, "tags": {"amenity": "bar", "name": "Roxy Bar", "name:ar": "\u0628\u0627\u0631 \u0631\u0648\u0643\u0633\u064a", "website": "https://roxy.com.tr"}}, {"type": "node", "id": 1905820222, "lat": 41.030045, "lon": 28.974339, "tags": {"amenity": "bar", "created_by": "iLOE 1.9", "name": "Kino Garden"}}, {"type": "node", "id": 1905854637, "lat": 41.025676, "lon": 28.973884, "tags": {"amenity": "bar", "name": "Sensus Wine Boutique", "wheelchair": "no"}}, {"type": "node", "id": 1912249076, "lat": 41.029754, "lon": 28.97494, "tags": {"amenity": "bar", "name": "Montreal"}}, {"type": "node", "id": 1912681366, "lat": 41.0074798, "lon": 28.9673758, "tags": {"addr:housenumber": "23", "addr:postcode": "34126", "addr:street": "GED\u0130KPA\u015eA CADDES\u0130", "amenity": "bar", "internet_access": "wlan", "internet_access:fee": "no", "name": "Murat bira Evi", "name:ar": "\u0645\u0631\u0627\u062f \u0628\u064a\u0631\u0627 \u0627\u064a\u0641\u064a"}}, {"type": "node", "id": 1915390146, "lat": 41.0347427, "lon": 28.9783535, "tags": {"amenity": "bar", "fixme": "verify", "name": "Beer House"}}, {"type": "node", "id": 1915390148, "lat": 41.0346224, "lon": 28.9784114, "tags": {"amenity": "bar", "fixme": "verify", "name": "Club Zarife"}}, {"type": "node", "id": 1921444719, "lat": 41.0114442, "lon": 29.0383269, "tags": {"amenity": "bar", "internet_access": "wlan"}}, {"type": "node", "id": 2246663141, "lat": 41.0059332, "lon": 28.9808966, "tags": {"addr:housenumber": "28", "addr:street": "Cankurtaran Mh.", "amenity": "bar", "name": "Just Bar", "source": "+90 535 312 14 92"}}, {"type": "node", "id": 2433671835, "lat": 40.98659, "lon": 29.0265392, "tags": {"addr:city": "Istanbul", "addr:district": "Kad\u0131k\u00f6y", "addr:housenumber": "18", "addr:neighbourhood": "Kad\u0131k\u00f6y", "addr:postcode": "34710", "addr:street": "Kadife Sokak", "amenity": "bar", "name": "Arkaoda"}}, {"type": "node", "id": 2450051798, "lat": 40.9872032, "lon": 29.0268261, "tags": {"amenity": "bar", "name": "Kadife"}}, {"type": "node", "id": 2450051895, "lat": 40.9867165, "lon": 29.0266552}, {"type": "node", "id": 2450051897, "lat": 40.9867797, "lon": 29.0264405}, {"type": "node", "id": 2450051899, "lat": 40.9867678, "lon": 29.0266816}, {"type": "node", "id": 2450051901, "lat": 40.9868311, "lon": 29.026467}, {"type": "node", "id": 2452245661, "lat": 40.9758395, "lon": 29.0380293}, {"type": "node", "id": 2452245662, "lat": 40.9758895, "lon": 29.0382854}, {"type": "node", "id": 2452245665, "lat": 40.9759876, "lon": 29.0382516}, {"type": "node", "id": 2452245666, "lat": 40.9760257, "lon": 29.0379628}, {"type": "node", "id": 2452245669, "lat": 40.9760777, "lon": 29.0382201}, {"type": "node", "id": 2507841548, "lat": 41.0313349, "lon": 28.975625, "tags": {"addr:housenumber": "6", "addr:street": "Korsan \u00c7\u0131kmaz\u0131", "amenity": "bar", "name": "Kasette", "opening_hours": "Mo-Su 22:00-04:00"}}, {"type": "node", "id": 2509010552, "lat": 41.02987, "lon": 28.9738011, "tags": {"addr:housenumber": "5/1", "addr:street": "\u015eehbender Sokak", "amenity": "bar", "name": "K\u00fcc\u00fck", "opening_hours": "Mo-SA 22:00-02:00"}}, {"type": "node", "id": 2901379804, "lat": 41.0254323, "lon": 28.9789344, "tags": {"addr:housenumber": "4a", "addr:street": "Karaali Kaptan Sokak", "amenity": "bar", "fixme": "resurvey", "name": "Unter"}}, {"type": "node", "id": 2901761815, "lat": 41.0249705, "lon": 28.9774073, "tags": {"amenity": "bar", "name": "gaspar"}}, {"type": "node", "id": 2901761818, "lat": 41.0248906, "lon": 28.9775293, "tags": {"amenity": "bar", "name": "bi nevi"}}, {"type": "node", "id": 3194754957, "lat": 41.031135, "lon": 28.9736493, "tags": {"amenity": "bar", "name": "Orient Bar", "note": "Old fashioned bar in the Pera Palace Hotel. E.g. try a Ian Fleming special served in an icecold silver teapot.", "smoking": "no", "wheelchair": "limited"}}, {"type": "node", "id": 3772791276, "lat": 41.0441911, "lon": 29.0059933, "tags": {"addr:city": "\u0130stanbul", "addr:housenumber": "5", "addr:street": "Selaml\u0131k Caddesi", "amenity": "bar", "cuisine": "international", "name": "Kaset", "phone": "+90 212 227 33 69"}}, {"type": "node", "id": 3877213315, "lat": 41.0287828, "lon": 28.9737984, "tags": {"amenity": "bar", "name": "Akbaba"}}, {"type": "node", "id": 3877233284, "lat": 41.028579, "lon": 28.9740564, "tags": {"amenity": "bar", "name": "Welldone"}}, {"type": "node", "id": 3877233631, "lat": 41.0291004, "lon": 28.974152, "tags": {"amenity": "bar", "name": "Otto"}}, {"type": "node", "id": 3877233632, "lat": 41.0293169, "lon": 28.9742861, "tags": {"amenity": "bar", "name": "Parantez"}}, {"type": "node", "id": 3877233890, "lat": 41.0287059, "lon": 28.9740113, "tags": {"amenity": "bar", "name": "Ambiyans"}}, {"type": "node", "id": 3877233891, "lat": 41.0288675, "lon": 28.9740167, "tags": {"amenity": "bar", "name": "Pocoloco"}}, {"type": "node", "id": 3877233897, "lat": 41.0290101, "lon": 28.9741903, "tags": {"amenity": "bar", "name": "Kafe Pi"}}, {"type": "node", "id": 3877233898, "lat": 41.0292127, "lon": 28.9742324, "tags": {"amenity": "bar", "name": "Ugly"}}, {"type": "node", "id": 4161756617, "lat": 41.0492307, "lon": 29.0263053, "tags": {"amenity": "bar", "name": "Karaoke MIDO"}}, {"type": "node", "id": 4165198552, "lat": 41.0478036, "lon": 29.0258984, "tags": {"amenity": "bar", "name": "Lokka Karaoke", "wheelchair": "limited"}}, {"type": "node", "id": 4165198553, "lat": 41.0479827, "lon": 29.0256824, "tags": {"amenity": "bar", "name": "Yenigun", "wheelchair": "limited"}}, {"type": "node", "id": 4165198555, "lat": 41.0480616, "lon": 29.0257723, "tags": {"amenity": "bar", "name": "Arkheon Meyhanesi", "wheelchair": "limited"}}, {"type": "node", "id": 4165198556, "lat": 41.0481173, "lon": 29.0258326, "tags": {"amenity": "bar", "name": "Ortakoy 37", "wheelchair": "no"}}, {"type": "node", "id": 4165198557, "lat": 41.0481911, "lon": 29.0259077, "tags": {"amenity": "bar", "name": "Shakespare Ortakoy", "wheelchair": "no"}}, {"type": "node", "id": 4165209990, "lat": 41.0481394, "lon": 29.0253201, "tags": {"amenity": "bar", "name": "Bay Biraci", "wheelchair": "no"}}, {"type": "node", "id": 4224524796, "lat": 40.9909532, "lon": 29.0306204, "tags": {"amenity": "bar", "cuisine": "burger;pasta;cake;coffee_shop", "internet_access": "wlan", "name": "SCHLEPP Cafe & Pub", "website": "http://www.schlepp.pub/"}}, {"type": "node", "id": 4235171929, "lat": 40.9339496, "lon": 29.1129443, "tags": {"addr:street": "Ba\u011fdat Caddesi", "amenity": "bar", "name": "\u0130dealtepe Sahil", "opening_hours": "24/7", "smoking": "isolated"}}, {"type": "node", "id": 4339633692, "lat": 41.0146945, "lon": 28.9736922, "tags": {"amenity": "bar", "name": "\u0441\u043e\u043a \u0438 \u0435\u0434\u0430"}}, {"type": "node", "id": 4407305490, "lat": 40.9641933, "lon": 29.0655236, "tags": {"addr:street": "\u0130skele Sokak", "amenity": "bar", "name": "Yer F\u0131st\u0131\u011f\u0131", "name:tr": "Yer F\u0131st\u0131\u011f\u0131"}}, {"type": "node", "id": 4416309591, "lat": 40.9536008, "lon": 29.0951556, "tags": {"amenity": "bar", "name": "Kale", "name:tr": "Kale Pilsen"}}, {"type": "node", "id": 4448869791, "lat": 41.0358671, "lon": 28.9818581, "tags": {"amenity": "bar", "internet_access": "wlan", "name": "Leyla teras", "name:tr": "Leyla teras"}}, {"type": "node", "id": 4460642599, "lat": 40.9897943, "lon": 29.0277507, "tags": {"amenity": "bar", "name": "Hayalperest", "name:tr": "Hayalperest", "opening_hours": "PH,Mo-Su 10:00-02:00"}}, {"type": "node", "id": 4460642696, "lat": 41.0351616, "lon": 28.9788336, "tags": {"amenity": "bar", "name:en": "Pendor corner"}}, {"type": "node", "id": 4493029299, "lat": 41.0253326, "lon": 28.9798462, "tags": {"amenity": "bar", "name:en": "Beyaz Zambak"}}, {"type": "node", "id": 4535332593, "lat": 41.0343461, "lon": 28.9774719, "tags": {"amenity": "bar", "name": "Caravan Rock bar", "name:en": "Caravan Rock Bar", "name:tr": "Caravan Rock bar"}}, {"type": "node", "id": 4535589891, "lat": 41.03505, "lon": 28.976992, "tags": {"amenity": "bar", "name": "K\u0131rm\u0131z\u0131 Taz\u0131", "name:tr": "K\u0131rm\u0131z\u0131 Taz\u0131"}}, {"type": "node", "id": 4535597992, "lat": 41.0361736, "lon": 28.9815704, "tags": {"addr:housenumber": "17", "addr:street": "Mis Soka\u011f\u0131", "amenity": "bar", "opening_hours": "Mo-Su 20:00-04:00"}}, {"type": "node", "id": 4548512390, "lat": 41.0151111, "lon": 28.9715448, "tags": {"amenity": "bar"}}, {"type": "node", "id": 4580648263, "lat": 40.9623181, "lon": 29.0762935, "tags": {"amenity": "bar", "name": "Old English Pub"}}, {"type": "node", "id": 4642456596, "lat": 41.0358541, "lon": 28.9938696, "tags": {"addr:street": "kapata\u015f", "amenity": "bar", "name": "gemi \u2693"}}, {"type": "node", "id": 4723676489, "lat": 41.0346987, "lon": 28.9772453, "tags": {"amenity": "bar", "name": "\u00d6zel Harman"}}, {"type": "node", "id": 4723676689, "lat": 41.0413878, "lon": 29.0091697, "tags": {"amenity": "bar", "name": "Beer Point", "name:tr": "Beer Point"}}, {"type": "node", "id": 4732836823, "lat": 40.9867932, "lon": 29.0266654, "tags": {"amenity": "bar", "name": "Trip v2.0", "wheelchair": "no"}}, {"type": "node", "id": 4768146222, "lat": 41.0346423, "lon": 28.982683, "tags": {"amenity": "bar", "name": "Toprak T\u00fcrk\u00fc Evi", "name:tr": "Toprak t\u00fcrk\u00fc evi"}}, {"type": "node", "id": 4812380221, "lat": 41.0288456, "lon": 28.9743715, "tags": {"addr:street": "General Yazgan Soka\u011f\u0131", "amenity": "bar", "internet_access": "wlan", "name": "Arpa Pub", "name:tr": "Arpa Pub"}}, {"type": "node", "id": 4813647824, "lat": 40.9867795, "lon": 29.0255213, "tags": {"addr:street": "Moda Caddesi", "amenity": "bar", "internet_access": "wlan", "name": "Fil Moda"}}, {"type": "node", "id": 4813965121, "lat": 40.989139, "lon": 29.0219739, "tags": {"amenity": "bar", "internet_access": "wlan", "name": "Harp Irish Bar", "name:en": "Harp Irish Bar", "name:tr": "Harp Irish Bar"}}, {"type": "node", "id": 4816553522, "lat": 41.0326877, "lon": 28.977223, "tags": {"addr:street": "Akarsu Sk.", "amenity": "bar", "name": "Indigo", "name:en": "Indigo", "name:tr": "Indigo"}}, {"type": "node", "id": 4833396568, "lat": 40.9875599, "lon": 29.0270504, "tags": {"amenity": "bar", "name": "Railway"}}, {"type": "node", "id": 4883931724, "lat": 41.0318653, "lon": 28.9783583, "tags": {"amenity": "bar", "name": "Flekk", "name:en": "Flekk Restaurant and Bar"}}, {"type": "node", "id": 4889958231, "lat": 41.029344, "lon": 28.9755839, "tags": {"amenity": "bar", "name": "Varuna Gezgin", "name:en": "Varuna Gezgin", "name:tr": "Varuna Gezgin", "opening_hours": "Mo-Su 10:00-02:00", "outdoor_seating": "no", "smoking": "isolated"}}, {"type": "node", "id": 4927027523, "lat": 41.0338784, "lon": 28.9767306, "tags": {"amenity": "bar", "cuisine": "friture", "name": "Mezzo Bar", "name:en": "Mezzo Pub", "name:tr": "Mezzo bar"}}, {"type": "node", "id": 4962158821, "lat": 41.0030807, "lon": 28.9752533, "tags": {"amenity": "bar", "name:en": "Stanpoli cafe"}}, {"type": "node", "id": 4966546324, "lat": 40.9890328, "lon": 29.0279914, "tags": {"addr:housenumber": "16", "addr:postcode": "34714", "addr:street": "Piri \u00c7avu\u015f Soka\u011f\u0131", "amenity": "bar", "internet_access": "wlan", "name": "Mahle"}}, {"type": "node", "id": 4966551221, "lat": 40.9891202, "lon": 29.0280063, "tags": {"addr:housenumber": "13", "addr:postcode": "34714", "addr:street": "Piri \u00c7avu\u015f Soka\u011f\u0131", "amenity": "bar", "name": "London Pub"}}, {"type": "node", "id": 4988731123, "lat": 41.0356481, "lon": 28.9819436, "tags": {"amenity": "bar", "name": "BOS Zamanlar", "name:tr": "BOS Zamanlar"}}, {"type": "node", "id": 5043344976, "lat": 40.9745999, "lon": 29.0534048, "tags": {"addr:city": "istanbul", "addr:district": "kad\u0131k\u00f6y", "addr:neighbourhood": "\u00e7iftehavuzlar", "addr:street": "Ba\u011fdat Caddesi", "amenity": "bar", "name": "Babbo Pizza & Bar", "opening_hours": "Mo-Su 11:00-23:00", "operator": "Babbo", "outdoor_seating": "yes", "smoking": "outside"}}, {"type": "node", "id": 5109319021, "lat": 41.0350128, "lon": 28.9769266, "tags": {"addr:housenumber": "13", "addr:street": "Kamer Hatun Caddesi", "amenity": "bar", "cuisine": "turkish", "internet_access": "wlan", "name": "Asmaalt\u0131 Beyo\u011flu", "opening_hours": "Mo-Su 12:00-02:00", "phone": "+90 (212) 252 59 56"}}, {"type": "node", "id": 5111212304, "lat": 41.0161553, "lon": 28.9731103, "tags": {"addr:city": "Istanbul", "addr:district": "Fatih", "addr:street": "Bankacilar sokak", "amenity": "bar", "name": "Valide"}}, {"type": "node", "id": 5113620640, "lat": 41.0059858, "lon": 28.9806797, "tags": {"addr:city": "Istanbul", "addr:district": "Turkey", "addr:street": "Akb\u0131y\u0131k Caddesi", "amenity": "bar", "name": "Just Bar"}}, {"type": "node", "id": 5171238822, "lat": 41.0258298, "lon": 28.9812686, "tags": {"addr:housenumber": "9/a", "addr:street": "K\u0131l\u0131\u00e7 Ali Pasa Mescidi Soka\u011f\u0131", "amenity": "bar", "name": "Muhit", "name:en": "Muhit", "name:tr": "Muhit", "wheelchair": "no"}}, {"type": "node", "id": 5249823410, "lat": 40.9875103, "lon": 29.0265582, "tags": {"amenity": "bar", "name": "Hi\u00e7"}}, {"type": "node", "id": 5270266088, "lat": 40.9596686, "lon": 29.0948821, "tags": {"addr:city": "\u0130stanbul", "addr:district": "Kad\u0131k\u00f6y", "addr:neighbourhood": "Bostanc\u0131 Mahallesi", "addr:postcode": "34744", "addr:street": "\u015eemsettin G\u00fcnaltay Caddesi", "amenity": "bar", "name": "Beerfest", "operator": "Bar", "outdoor_seating": "no", "smoking": "isolated"}}, {"type": "node", "id": 5281963649, "lat": 41.0253502, "lon": 28.9741164, "tags": {"amenity": "bar", "name": "Ritim Galata Pub"}}, {"type": "node", "id": 5282941380, "lat": 40.8973321, "lon": 29.1672885, "tags": {"amenity": "bar", "name": "Mimoza T\u00fcrk\u00fc Bar"}}, {"type": "node", "id": 5283704749, "lat": 40.8967082, "lon": 29.1673962, "tags": {"amenity": "bar", "name": "Clup Ship O hoy"}}, {"type": "node", "id": 5288044512, "lat": 40.893954, "lon": 29.1713798, "tags": {"amenity": "bar", "name": "Beyrut Performance"}}, {"type": "node", "id": 5308557025, "lat": 41.0313884, "lon": 28.9791419, "tags": {"amenity": "bar"}}, {"type": "node", "id": 5312380384, "lat": 40.9983689, "lon": 29.100261, "tags": {"amenity": "bar", "level": "2", "name": "Biber Bar"}}, {"type": "node", "id": 5314981606, "lat": 40.8895353, "lon": 29.1907472, "tags": {"amenity": "bar", "name": "Ezo T\u00fcrk\u00fc Bar"}}, {"type": "node", "id": 5329335356, "lat": 40.9545825, "lon": 29.2649125, "tags": {"addr:city": "Istanbul", "addr:district": "Sultanbeyli", "addr:street": "Kuran kursu caddesi", "amenity": "bar", "name": "Korkmaz tekel", "name:ar": "\u0645\u0634\u0631\u0648\u0628\u0627\u062a \u0643\u062d\u0648\u0644\u064a\u0629 \u0643\u0648\u0631\u0643\u0645\u0627\u0632"}}, {"type": "node", "id": 5329338131, "lat": 40.9647263, "lon": 29.2736458, "tags": {"addr:city": "Istanbul", "addr:district": "Sultanbeyli", "addr:street": "Erdo\u011fan caddesi", "amenity": "bar", "name": "K\u00f6\u015fem Tekel ve kuruyemi\u015f", "name:ar": "\u0645\u0634\u0631\u0648\u0628\u0627\u062a \u0643\u062d\u0648\u0644\u064a\u0629 \u0643\u0648\u0634\u064a\u0645"}}, {"type": "node", "id": 5370651425, "lat": 41.0298266, "lon": 28.9748528, "tags": {"amenity": "bar", "name": "Asmal\u0131pera Pub"}}, {"type": "node", "id": 5484713121, "lat": 41.0195818, "lon": 28.9726078, "tags": {"amenity": "bar", "name": "Sirena"}}, {"type": "node", "id": 5488337232, "lat": 41.0253051, "lon": 28.9738984, "tags": {"air_conditioning": "yes", "amenity": "bar", "level": "-1;0", "name": "Nardis Jazz Bar", "outdoor_seating": "no", "payment:visa": "yes"}}, {"type": "node", "id": 5516516380, "lat": 41.0348206, "lon": 28.9818647, "tags": {"amenity": "bar", "name": "Haydar Rock"}}, {"type": "node", "id": 5523732709, "lat": 41.0425282, "lon": 29.0010414, "tags": {"addr:city": "Istanbul", "addr:district": "Be\u015fikta\u015f", "addr:housenumber": "46", "addr:neighbourhood": "Vi\u015fnezade Mahallesi", "addr:postcode": "34357", "addr:street": "S\u00fcleyman Seba Caddesi", "amenity": "bar", "brewery": "yes;various", "name": "Beer Hall", "opening_hours": "12:00-02:00", "phone": "+90 212 219 65 30", "smoking": "isolated"}}, {"type": "node", "id": 5529400834, "lat": 41.0265013, "lon": 28.9744533, "tags": {"addr:city": "Istanbul", "addr:district": "Beyo\u011flu", "addr:housenumber": "56", "addr:postcode": "34421", "addr:street": "Galip Dede Caddesi", "amenity": "bar", "level": "5", "name": "Snog Rooftop Bar", "website": "http://www.snog.com.tr/"}}, {"type": "node", "id": 5529400837, "lat": 41.015719, "lon": 28.9742345, "tags": {"amenity": "bar", "name": "Legacy Ottoman Roof Bar", "opening_hours": "Mo-Su 12:00-02:00"}}, {"type": "node", "id": 5560292322, "lat": 41.0143147, "lon": 28.9763272, "tags": {"amenity": "bar", "name": "Gar Pub"}}, {"type": "node", "id": 5565935224, "lat": 41.0348004, "lon": 28.9776395, "tags": {"amenity": "bar", "brewery": "yes", "name": "sahika", "outdoor_seating": "yes"}}, {"type": "node", "id": 5585706322, "lat": 41.0046295, "lon": 28.9647072, "tags": {"amenity": "bar", "name:en": "Kumkapi Cafe and Pub"}}, {"type": "node", "id": 5663532968, "lat": 41.0307783, "lon": 28.9758264, "tags": {"amenity": "bar", "name": "Ravouna 1906", "wheelchair": "no"}}, {"type": "node", "id": 5663533734, "lat": 41.026546, "lon": 28.9746955, "tags": {"amenity": "bar", "name": "Snog roof top bar", "wheelchair": "no"}}, {"type": "node", "id": 5668652116, "lat": 41.0297951, "lon": 28.9739559, "tags": {"addr:city": "\u0130stanbul", "addr:district": "Beyo\u011flu", "amenity": "bar", "name": "Balkon Cafe & Bar", "opening_hours": "Mo-Su 18:00-02:00"}}, {"type": "node", "id": 5669004147, "lat": 41.0294506, "lon": 28.974377, "tags": {"addr:district": "Beyo\u011flu", "amenity": "bar", "name": "Lala"}}, {"type": "node", "id": 5741040521, "lat": 41.0303528, "lon": 28.9838431, "tags": {"addr:housenumber": "22", "addr:postcode": "34433", "addr:street": "Akarsu Yoku\u015fu", "amenity": "bar", "name": "Geyik", "name:tr": "Geyik", "opening_hours": "Mo-Su 16:00-02:00"}}, {"type": "node", "id": 5832126485, "lat": 41.0337785, "lon": 28.9798431, "tags": {"amenity": "bar", "cuisine": "turkish;coffee_shop"}}, {"type": "node", "id": 5881940910, "lat": 41.0472936, "lon": 29.0097283, "tags": {"addr:city": "Istanbul", "addr:housenumber": "5", "addr:neighbourhood": "Cihann\u00fcma", "addr:postcode": "34353", "addr:street": "Saray Caddesi", "amenity": "bar", "email": "isthc_conrad@conradhotels.com", "name": "Summit Bar & Terrace", "opening_hours": "12:00-01:30", "operator": "Hilton", "outdoor_seating": "yes", "phone": "+90 212 310 2525", "smoking": "outside", "website": "https://conradhotels3.hilton.com/en/hotels/turkey/conrad-istanbul-bosphorus-ISTHCCI/amenities/restaurants-summit.html?WT.mc_id=zELWAKN0EMEA1CI2DMH3LocalSearch4DGGenericx6ISTHCCI", "wheelchair": "yes"}}, {"type": "node", "id": 6013991030, "lat": 40.9745605, "lon": 29.0535257, "tags": {"addr:city": "istanbul", "addr:district": "Kad\u0131k\u00f6y", "addr:housenumber": "204b", "addr:neighbourhood": "\u00e7iftehavuzlar", "addr:postcode": "34728", "addr:street": "Ba\u011fdat Caddesi", "amenity": "bar", "name": "Zeplin Pub", "opening_hours": "Mo-Su 11:00-18:00+", "outdoor_seating": "yes", "smoking": "outside"}}, {"type": "node", "id": 6035887685, "lat": 40.9070136, "lon": 29.3151168, "tags": {"amenity": "bar", "cuisine": "turkish", "internet_access": "wlan", "name": "Heroes Sports Bar"}}, {"type": "node", "id": 6116062089, "lat": 41.0426178, "lon": 29.0025044, "tags": {"amenity": "bar", "name": "Freya Akaretler", "name:tr": "Freya Akaretler"}}, {"type": "node", "id": 6116133385, "lat": 41.0424213, "lon": 29.0026136, "tags": {"amenity": "bar", "name": "Tail Akaretler", "name:tr": "Tail Akaretler"}}, {"type": "node", "id": 6116710187, "lat": 40.98651, "lon": 29.0254369, "tags": {"amenity": "bar", "name": "WHO", "name:en": "Zor"}}, {"type": "node", "id": 6116727790, "lat": 41.0349281, "lon": 28.9779773, "tags": {"amenity": "bar", "name:en": "Gizli bahce"}}, {"type": "node", "id": 6116804086, "lat": 41.0352648, "lon": 28.9781471, "tags": {"amenity": "bar", "name:en": "Papillon"}}, {"type": "node", "id": 6123549085, "lat": 41.0295745, "lon": 28.9734038, "tags": {"amenity": "bar", "name": "Kum Saati Jazz Blues Club", "name:tr": "Kum Saati Jazz Blues Club"}}, {"type": "node", "id": 6181185185, "lat": 41.0294206, "lon": 28.9728224, "tags": {"amenity": "bar", "internet_access": "yes", "internet_access:fee": "no", "name": "Al Got\u00fcr", "wheelchair": "no"}}, {"type": "node", "id": 6185772371, "lat": 41.0264003, "lon": 28.9746149, "tags": {"amenity": "bar", "level": "1", "name": "Snog roof", "wheelchair": "limited"}}, {"type": "node", "id": 6190364288, "lat": 41.0297621, "lon": 28.9754979, "tags": {"amenity": "bar"}}, {"type": "node", "id": 6259341995, "lat": 40.9943436, "lon": 29.0275079, "tags": {"amenity": "bar", "name:en": "Plan B eatery"}}, {"type": "node", "id": 6259342087, "lat": 40.9941742, "lon": 29.028944, "tags": {"amenity": "bar", "check_date": "2022-12-24", "fixme": "Location incorrect, should be just across Roots Corner", "name:en": "Roots"}}, {"type": "node", "id": 6271721906, "lat": 41.0456661, "lon": 28.9860382, "tags": {"addr:housenumber": "4", "addr:street": "Cebel Topu Sokak", "amenity": "bar", "name": "Klein", "name:tr": "Klein"}}, {"type": "node", "id": 6296619897, "lat": 41.0264944, "lon": 28.9794332, "tags": {"amenity": "bar", "internet_access": "wlan", "name": "Shisha Devari"}}, {"type": "node", "id": 6312427085, "lat": 41.0338787, "lon": 28.9800077, "tags": {"addr:housenumber": "17a", "addr:street": "Gazeteci Erol Dernek Soka\u011f\u0131", "amenity": "bar", "internet_access": "wlan", "name:en": "Artists", "opening_hours": "Mo-Su 11:00-03:00", "website": "http://artistlerkahvesi.com"}}, {"type": "node", "id": 6383807263, "lat": 40.9901246, "lon": 29.0228236, "tags": {"amenity": "bar", "name": "Benzin"}}, {"type": "node", "id": 6417075085, "lat": 41.0343281, "lon": 28.9785434, "tags": {"amenity": "bar", "fixme": "verify", "name": "Beer House"}}, {"type": "node", "id": 6524160918, "lat": 40.9867689, "lon": 29.0264774}, {"type": "node", "id": 6531878042, "lat": 40.9868216, "lon": 29.0266164, "tags": {"amenity": "bar", "name": "Hera"}}, {"type": "node", "id": 6531878043, "lat": 40.9867011, "lon": 29.026609, "tags": {"amenity": "bar", "name": "Buddha Sahne"}}, {"type": "node", "id": 6531878044, "lat": 40.9866436, "lon": 29.0265837, "tags": {"addr:housenumber": "16", "addr:street": "Kadife Sokak", "amenity": "bar", "name": "Karga"}}, {"type": "node", "id": 6531917628, "lat": 40.9866943, "lon": 29.0267473, "tags": {"amenity": "bar", "name": "L\u00e2l"}}, {"type": "node", "id": 6694217314, "lat": 40.9868197, "lon": 29.0265059}, {"type": "node", "id": 6710927744, "lat": 41.0305428, "lon": 28.9740562, "tags": {"amenity": "bar", "name": "Bara la Afrika"}}, {"type": "node", "id": 6729653234, "lat": 41.0347765, "lon": 28.9775413, "tags": {"amenity": "bar", "brewery": "yes", "name": "Lambo", "outdoor_seating": "yes"}}, {"type": "node", "id": 6833400815, "lat": 40.9867888, "lon": 29.0266105}, {"type": "node", "id": 6834301286, "lat": 41.0234129, "lon": 28.9703579, "tags": {"amenity": "bar", "name:en": "Bonn"}}, {"type": "node", "id": 6834326785, "lat": 41.0361098, "lon": 28.9815768, "tags": {"amenity": "bar", "name": "Bova", "name:en": "Temple"}}, {"type": "node", "id": 6837822086, "lat": 41.0479773, "lon": 29.007429, "tags": {"amenity": "bar", "name:en": "Biergarten"}}, {"type": "node", "id": 6840608586, "lat": 41.0360849, "lon": 28.9815773, "tags": {"amenity": "bar", "name:en": "Arsen Lupen"}}, {"type": "node", "id": 6896228085, "lat": 40.9888141, "lon": 29.0246131, "tags": {"amenity": "bar", "name": "neva"}}, {"type": "node", "id": 6896780885, "lat": 41.0366236, "lon": 28.9827647, "tags": {"amenity": "bar", "name": "Muaf Bar", "name:en": "Muaf beyoglu", "opening_hours": "Mo-Su,PH 09:30-02:00+"}}, {"type": "node", "id": 7036359886, "lat": 41.0464027, "lon": 29.007137, "tags": {"addr:street": "Bostanc\u0131 Veli Soka\u011f\u0131", "amenity": "bar", "cuisine": "chicken;regional;hotdog;oriental;sandwich;sausage;coffee_shop;local;barbecue;friture;burger;cake;turkish;pasta;grill", "diet:vegetarian": "yes", "internet_access": "wlan", "name": "Kilit", "name:en": "Lock", "opening_hours": "Mo-Su 14:00-02:00"}}, {"type": "node", "id": 7130989479, "lat": 40.9902, "lon": 29.0278, "tags": {"amenity": "bar", "name": "A\u011fa\u00e7 Ev", "opening_hours": "PH,Mo-Su 11:00-04:00"}}, {"type": "node", "id": 7175723268, "lat": 41.0251089, "lon": 28.9796129, "tags": {"amenity": "bar", "name": "Berlin line"}}, {"type": "node", "id": 7287814090, "lat": 40.8150286, "lon": 29.3051242, "tags": {"amenity": "bar", "name": "Kumbara"}}, {"type": "node", "id": 7551256801, "lat": 40.9614156, "lon": 29.0748248, "tags": {"addr:city": "\u0130stanbul", "addr:district": "Kad\u0131k\u00f6y", "addr:neighbourhood": "Suadiye Mahallesi", "addr:street": "Kaz\u0131m \u00d6zalp Soka\u011f\u0131", "amenity": "bar", "name": "AYI", "opening_hours": "?- 02:00"}}, {"type": "node", "id": 7626299470, "lat": 40.9535068, "lon": 29.0947134, "tags": {"amenity": "bar", "name": "Ke\u00e7i"}}, {"type": "node", "id": 7626324347, "lat": 40.9533866, "lon": 29.0950789, "tags": {"amenity": "bar", "name": "Traingar"}}, {"type": "node", "id": 7626334320, "lat": 40.9533071, "lon": 29.0952493, "tags": {"amenity": "bar", "name": "Kabasakal"}}, {"type": "node", "id": 7750327985, "lat": 41.0283239, "lon": 28.9720632, "tags": {"addr:housenumber": "5B", "addr:street": "Sadi Konuralp Caddesi", "amenity": "bar", "name": "Monkey Istanbul"}}, {"type": "node", "id": 8015874985, "lat": 41.0333807, "lon": 28.9839704, "tags": {"amenity": "bar", "name:en": "kiki"}}, {"type": "node", "id": 8015965663, "lat": 41.0301939, "lon": 28.9743894, "tags": {"amenity": "bar", "name:en": "mask"}}, {"type": "node", "id": 8016567485, "lat": 40.9896453, "lon": 29.0262147, "tags": {"amenity": "bar", "name": "Pablo"}}, {"type": "node", "id": 8069454886, "lat": 41.0349453, "lon": 28.9774691, "tags": {"amenity": "bar", "name:en": "Bar street", "name:ru": "\u0423\u043b\u0438\u0446\u0430 \u0431\u0430\u0440\u043e\u0432"}}, {"type": "node", "id": 8071847141, "lat": 41.0439389, "lon": 29.004306, "tags": {"amenity": "bar", "name": "Beer Plus"}}, {"type": "node", "id": 8071865209, "lat": 41.0440272, "lon": 29.0044359}, {"type": "node", "id": 8071865210, "lat": 41.0439781, "lon": 29.004413}, {"type": "node", "id": 8071865211, "lat": 41.043951, "lon": 29.0044813}, {"type": "node", "id": 8071865212, "lat": 41.043997, "lon": 29.0045114}, {"type": "node", "id": 8079181863, "lat": 40.9870024, "lon": 29.1113708}, {"type": "node", "id": 8079181864, "lat": 40.987081, "lon": 29.1114748}, {"type": "node", "id": 8079181865, "lat": 40.9871051, "lon": 29.1116477}, {"type": "node", "id": 8079181866, "lat": 40.9870496, "lon": 29.1117133}, {"type": "node", "id": 8079181867, "lat": 40.9868901, "lon": 29.1114876}, {"type": "node", "id": 8084683912, "lat": 41.0256555, "lon": 28.978913, "tags": {"amenity": "bar", "name:en": "Foxy"}}, {"type": "node", "id": 8105175694, "lat": 41.0430971, "lon": 29.0035214, "tags": {"amenity": "bar", "name": "Limon"}}, {"type": "node", "id": 8173713390, "lat": 41.0437439, "lon": 29.0056751}, {"type": "node", "id": 8173713391, "lat": 41.0436985, "lon": 29.005629}, {"type": "node", "id": 8173713392, "lat": 41.0436388, "lon": 29.0057572}, {"type": "node", "id": 8173713393, "lat": 41.0436829, "lon": 29.0057966}, {"type": "node", "id": 8173713394, "lat": 41.0436537, "lon": 29.005726}, {"type": "node", "id": 8173713395, "lat": 41.0435626, "lon": 29.0056607}, {"type": "node", "id": 8173713396, "lat": 41.043559, "lon": 29.0055818}, {"type": "node", "id": 8173713397, "lat": 41.0436759, "lon": 29.0056011}, {"type": "node", "id": 8173713398, "lat": 41.0437026, "lon": 29.0056188}, {"type": "node", "id": 8173713399, "lat": 41.0438227, "lon": 29.0043729, "tags": {"amenity": "bar", "name": "Beer House"}}, {"type": "node", "id": 8176610587, "lat": 41.0007061, "lon": 29.0400973, "tags": {"amenity": "bar", "name": "Aksi Bar"}}, {"type": "node", "id": 8177540756, "lat": 41.0437571, "lon": 29.0051345}, {"type": "node", "id": 8177540757, "lat": 41.0436573, "lon": 29.0049993}, {"type": "node", "id": 8177540758, "lat": 41.0437315, "lon": 29.004903}, {"type": "node", "id": 8177540759, "lat": 41.0438313, "lon": 29.0050383}, {"type": "node", "id": 8177540763, "lat": 41.0435933, "lon": 29.0055565}, {"type": "node", "id": 8177540764, "lat": 41.0435914, "lon": 29.0054646}, {"type": "node", "id": 8177540765, "lat": 41.04355, "lon": 29.0054567}, {"type": "node", "id": 8177540766, "lat": 41.0435656, "lon": 29.0055498}, {"type": "node", "id": 8177540769, "lat": 41.0435511, "lon": 29.0055353}, {"type": "node", "id": 8177540777, "lat": 41.0436834, "lon": 29.0050347}, {"type": "node", "id": 8223784325, "lat": 40.9868102, "lon": 29.0255318, "tags": {"addr:housenumber": "62", "addr:street": "Moda caddesi", "amenity": "bar", "name": "Draft"}}, {"type": "node", "id": 8494196892, "lat": 41.0404245, "lon": 29.005217, "tags": {"addr:city": "\u0130stanbul", "addr:district": "Sinanpa\u015fa", "addr:housenumber": "1", "addr:postcode": "34353", "addr:street": "Hayrettin \u0130skelesi Soka\u011f\u0131", "air_conditioning": "yes", "amenity": "bar", "cuisine": "tapas", "email": "lobbylounge.slib@shangri-la.com", "level": "0", "name": "Le Bar", "opening_hours": "Mo-Su 17:00-01:00", "opening_hours:covid19": "off", "outdoor_seating": "no", "phone": "+90 (212) 275 8888", "smoking": "no", "website": "http://www.shangri-la.com/istanbul/shangrila/dining/bars-lounges/le-bar/"}}, {"type": "node", "id": 8494196893, "lat": 41.0405037, "lon": 29.005126, "tags": {"addr:city": "\u0130stanbul", "addr:district": "Sinanpa\u015fa", "addr:housenumber": "1", "addr:postcode": "34353", "addr:street": "Hayrettin \u0130skelesi Soka\u011f\u0131", "air_conditioning": "yes", "amenity": "bar", "email": "lobbylounge.slib@shangri-la.com", "level": "0", "name": "Lobby Lounge", "opening_hours": "Mo-Su 11:00-23:00", "opening_hours:covid19": "same", "outdoor_seating": "yes", "phone": "+90 (212) 275 8888", "smoking": "no"}}, {"type": "node", "id": 8566435550, "lat": 40.9759829, "lon": 29.096333, "tags": {"amenity": "bar", "name": "Kozzbeer"}}, {"type": "node", "id": 8821282498, "lat": 40.9866398, "lon": 29.0267262, "tags": {"addr:city": "\u0130stanbul", "addr:district": "Kad\u0131k\u00f6y", "addr:housenumber": "21", "addr:neighbourhood": "Caferaga Mah.", "addr:postcode": "34734", "addr:street": "Kadife Soka\u011f\u0131", "amenity": "bar", "name": "AKS\u0130 Gastro PUB"}}, {"type": "node", "id": 9003087898, "lat": 40.9809581, "lon": 29.0244079, "tags": {"addr:housenumber": "26A", "addr:street": "Moda Mektebi Sokak", "amenity": "bar", "name": "Kutup Moda"}}, {"type": "node", "id": 9045017517, "lat": 41.0243975, "lon": 28.978783, "tags": {"amenity": "bar", "name:en": "Skull and Bones"}}, {"type": "node", "id": 9053163517, "lat": 40.9902888, "lon": 29.0247848, "tags": {"amenity": "bar", "name": "Deniz Yildizi"}}, {"type": "node", "id": 9061144517, "lat": 41.005113, "lon": 28.9645714, "tags": {"amenity": "bar", "name:en": "Kumkapi"}}, {"type": "node", "id": 9080110117, "lat": 40.9880341, "lon": 29.0241199, "tags": {"amenity": "bar", "name": "Bristol"}}, {"type": "node", "id": 9080110317, "lat": 40.9878512, "lon": 29.0241545, "tags": {"amenity": "bar", "name": "Goy Goy"}}, {"type": "node", "id": 9090561822, "lat": 40.9901693, "lon": 29.0269229, "tags": {"amenity": "bar", "name": "V"}}, {"type": "node", "id": 9178322919, "lat": 40.9890402, "lon": 29.0221058, "tags": {"amenity": "bar", "name": "The Harp by Gold House", "name:en": "Shine terrace"}}, {"type": "node", "id": 9190051645, "lat": 41.0353394, "lon": 28.9821356, "tags": {"amenity": "bar", "name": "Club Lupe", "opening_hours": "21:00-5:00"}}, {"type": "node", "id": 9205038917, "lat": 41.035569, "lon": 28.9826564, "tags": {"amenity": "bar"}}, {"type": "node", "id": 9261964017, "lat": 40.9888932, "lon": 29.0244444, "tags": {"addr:street": "Dumlup\u0131nar Soka\u011f\u0131", "amenity": "bar", "name": "Kuzen Beer"}}, {"type": "node", "id": 9266414217, "lat": 40.9881206, "lon": 29.0270575, "tags": {"addr:housenumber": "11", "addr:street": "Aray\u0131c\u0131ba\u015f\u0131 Soka\u011f\u0131", "amenity": "bar", "name": "11 Kadikoy"}}, {"type": "node", "id": 9278208417, "lat": 41.0347551, "lon": 28.9817005, "tags": {"amenity": "bar", "name:en": "Kharon"}}, {"type": "node", "id": 9282305917, "lat": 41.0341043, "lon": 28.9846364, "tags": {"amenity": "bar", "name:en": "kulup"}}, {"type": "node", "id": 9308650915, "lat": 40.9877377, "lon": 29.0260257, "tags": {"amenity": "bar", "name": "Zurich"}}, {"type": "node", "id": 9397751417, "lat": 41.0362342, "lon": 28.9812724, "tags": {"amenity": "bar", "name:en": "IQOS HEETS", "name:ru": "\u0442\u0443\u0442 \u0435\u0441\u0442\u044c \u0441\u0442\u0438\u043a\u0438 iqos"}}, {"type": "node", "id": 9500713917, "lat": 41.034043, "lon": 28.980064, "tags": {"amenity": "bar", "name": "Beer corner"}}, {"type": "node", "id": 9510245822, "lat": 40.9801652, "lon": 29.0215816, "tags": {"amenity": "bar", "name": "Black House", "name:en": "Black House"}}, {"type": "node", "id": 9510419017, "lat": 40.9882309, "lon": 29.0236072, "tags": {"amenity": "bar", "name:en": "Bristol"}}, {"type": "node", "id": 9586664617, "lat": 41.0403114, "lon": 28.9974923, "tags": {"amenity": "bar", "internet_access": "wlan", "name": "16Roof", "opening_hours": "Mo-Su 17:00-02:00", "phone": "0905493261112"}}, {"type": "node", "id": 9670693026, "lat": 40.9870786, "lon": 29.0260735, "tags": {"amenity": "bar", "name": "Passenger"}}, {"type": "node", "id": 9786517782, "lat": 40.9951345, "lon": 29.0293145, "tags": {"amenity": "bar", "name": "Mekan"}}, {"type": "node", "id": 9902430017, "lat": 40.8200738, "lon": 29.272977, "tags": {"amenity": "bar", "name:en": "Gadi"}}, {"type": "node", "id": 9904632288, "lat": 41.0473196, "lon": 28.9905292, "tags": {"amenity": "bar", "name": "Dekk", "website": "https://www.dekk.ist/"}}, {"type": "node", "id": 9916939691, "lat": 40.9891044, "lon": 29.0275604, "tags": {"addr:housenumber": "3A", "amenity": "bar", "name": "Salpa"}}, {"type": "node", "id": 9967244017, "lat": 41.0404467, "lon": 29.0015656, "tags": {"addr:street": "Vi\u015fnezade, Dolmabah\u00e7e Cd., 34357 Be\u015fikta\u015f/\u0130stanbul, Turchia", "amenity": "bar", "name": "Limonluk Cafe - Dolmabah\u00e7e Saray\u0131/Palace", "opening_hours": "Tu-Su 09:00-17:30", "phone": "+90 212 236 90 00", "website": "http://msi.projects-tr.com"}}, {"type": "node", "id": 10085667517, "lat": 41.0340961, "lon": 28.9804129, "tags": {"amenity": "bar", "name:en": "Yuri Gagarin"}}, {"type": "node", "id": 10085677737, "lat": 41.0341989, "lon": 28.9804347, "tags": {"amenity": "bar", "name:en": "Art Istanbul"}}, {"type": "node", "id": 10159071717, "lat": 40.9896431, "lon": 29.0261199, "tags": {"amenity": "bar", "name": "Berlin platz", "name:en": "Berlin platz"}}, {"type": "node", "id": 10168815017, "lat": 40.9859331, "lon": 29.0258574, "tags": {"amenity": "bar", "name": "Sokak"}}, {"type": "node", "id": 10177957592, "lat": 40.989731, "lon": 29.0277177, "tags": {"addr:housenumber": "3", "addr:street": "Osmanc\u0131k", "amenity": "bar", "name": "Groundy Kad\u0131k\u00f6y"}}, {"type": "node", "id": 10178032625, "lat": 40.990336, "lon": 29.0271535, "tags": {"addr:housenumber": "13", "addr:street": "K\u0131rtasiyeci Sokak", "amenity": "bar", "name": "Frog"}}, {"type": "node", "id": 10178092782, "lat": 40.99024, "lon": 29.0276382, "tags": {"addr:housenumber": "26", "addr:street": "K\u0131rtasiyeci Sokak", "amenity": "bar", "name": "Harlem"}}, {"type": "node", "id": 10178092783, "lat": 40.9903374, "lon": 29.0270712, "tags": {"addr:housenumber": "15A", "addr:street": "K\u0131rtasiyeci Sokak", "amenity": "bar", "name": "Muaf"}}, {"type": "node", "id": 10178095968, "lat": 40.9903359, "lon": 29.0272775, "tags": {"addr:housenumber": "15B", "addr:street": "K\u0131rtasiyeci Sokak", "amenity": "bar", "name": "\u015earlo"}}, {"type": "node", "id": 10178438639, "lat": 41.0040598, "lon": 28.9650574, "tags": {"amenity": "bar", "check_date": "2022-11-12", "name": "The Ottoman Sand Door Lounge"}}, {"type": "node", "id": 10209468917, "lat": 40.9877175, "lon": 29.0257493, "tags": {"amenity": "bar", "name": "Dopamine"}}, {"type": "node", "id": 10209469117, "lat": 40.9888252, "lon": 29.0274965, "tags": {"addr:housenumber": "48A", "amenity": "bar", "name:en": "Deer house"}}, {"type": "node", "id": 10238253310, "lat": 40.9862178, "lon": 29.025859, "tags": {"amenity": "bar", "name": "York"}}, {"type": "node", "id": 10238260009, "lat": 40.9861896, "lon": 29.0258918, "tags": {"amenity": "bar", "name": "Bakkal"}}, {"type": "node", "id": 10253385009, "lat": 41.0487872, "lon": 29.028204, "tags": {"addr:street": "TUNC CK.", "amenity": "bar", "name": "Kaytan (Kafe posht ures bosforit )"}}, {"type": "node", "id": 10291621610, "lat": 40.9592494, "lon": 29.0823881, "tags": {"amenity": "bar", "name:en": "The grey fox"}}, {"type": "node", "id": 10291729409, "lat": 40.9674506, "lon": 29.067739, "tags": {"amenity": "bar", "name": "Pennylane"}}, {"type": "node", "id": 10293593376, "lat": 40.9805679, "lon": 29.0255638, "tags": {"addr:city": "\u0130stanbul", "addr:district": "Kad\u0131k\u00f6y", "addr:housenumber": "1", "addr:neighbourhood": "Cafera\u011fa Mahallesi", "addr:postcode": "34710", "addr:street": "Moda Mektebi Soka\u011f\u0131", "amenity": "bar", "name": "Buselik Meyhane", "website": "https://www.buselikmeyhane.com/"}}, {"type": "node", "id": 10554300070, "lat": 40.9876759, "lon": 29.0269632, "tags": {"amenity": "bar", "name": "\u00c7ivi"}}, {"type": "node", "id": 10556259070, "lat": 40.9887148, "lon": 29.0281409, "tags": {"amenity": "bar", "name": "Nick Cave"}}, {"type": "node", "id": 10556331939, "lat": 40.995529, "lon": 29.0289272, "tags": {"amenity": "bar", "name": "Kaserol Social"}}, {"type": "node", "id": 10556387340, "lat": 40.989683, "lon": 29.0265915, "tags": {"amenity": "bar", "name": "Publique Roof"}}, {"type": "node", "id": 10560187909, "lat": 41.0328013, "lon": 28.9773566, "tags": {"addr:housenumber": "8", "addr:street": "Akarsu Soka\u011f\u0131", "amenity": "bar", "internet_access": "wlan", "name:en": "Hookah Place", "opening_hours": "Su-Th 13:00-02:00; Fr 13:00-04:00; Sa 13:00-04:00", "website": "https://instagram.com/hookahplace_taksim?igshid=YmMyMTA2M2Y="}}, {"type": "way", "id": 112888214, "nodes": [1282037267, 1282037231, 1282037059, 1282037117, 1282037267], "tags": {"addr:housenumber": "15/A", "addr:street": "Refik Saydam Cd", "amenity": "bar", "building": "yes", "name": "M\u00fcrekkep", "name:ar": "\u0628\u0627\u0631 \u0645\u064a\u0631\u0643\u0628", "source": "Bing"}}, {"type": "way", "id": 237057020, "nodes": [2450051897, 2450051901, 6694217314, 6833400815, 2450051899, 2450051895, 6524160918, 2450051897], "tags": {"addr:city": "\u0130stanbul", "addr:country": "TR", "addr:district": "Kad\u0131k\u00f6y", "addr:housenumber": "12", "addr:postcode": "34710", "addr:street": "Kadife Soka\u011f\u0131", "amenity": "bar", "building": "yes", "name": "Barmy", "wheelchair": "no"}}, {"type": "way", "id": 237302190, "nodes": [2452245666, 2452245669, 2452245665, 2452245662, 2452245661, 2452245666], "tags": {"amenity": "bar", "building": "yes", "name": "Murphy's Dance Bar"}}, {"type": "way", "id": 866006841, "nodes": [8071865209, 8071865210, 8071865211, 8071865212, 8071865209], "tags": {"amenity": "bar", "building": "yes", "name": "The United Pub"}}, {"type": "way", "id": 866786275, "nodes": [8079181863, 8079181864, 8079181865, 8079181866, 8079181867, 8079181863], "tags": {"amenity": "bar", "building": "yes"}}, {"type": "way", "id": 878622676, "nodes": [8173713390, 8173713391, 8173713394, 8173713392, 8173713393, 8173713390], "tags": {"amenity": "bar", "building": "yes", "name": "Thales"}}, {"type": "way", "id": 878622677, "nodes": [8173713394, 8173713395, 8173713396, 8173713397, 8173713398, 8173713391, 8173713394], "tags": {"amenity": "bar", "building": "yes", "name": "EpopE"}}, {"type": "way", "id": 879030927, "nodes": [8177540756, 8177540777, 8177540757, 8177540758, 8177540759, 8177540756], "tags": {"amenity": "bar", "building": "yes", "name": "Ahtapot"}}, {"type": "way", "id": 879030929, "nodes": [8177540763, 8177540764, 8177540765, 8177540769, 8177540766, 8177540763], "tags": {"amenity": "bar", "building": "yes", "name": "Black Corner"}}]}