{"version": 0.6, "generator": "Overpass API 0.7.60.2 e4cf9f7a", "osm3s": {"timestamp_osm_base": "2023-05-02T19:47:15Z", "copyright": "The data included in this document is from www.openstreetmap.org. The data is made available under ODbL."}, "elements": [{"type": "node", "id": 8099501, "lat": -33.8568299, "lon": 151.1962419, "tags": {"amenity": "ferry_terminal", "ferry": "yes", "name": "Balmain East Wharf", "public_transport": "station"}}, {"type": "node", "id": 13877592, "lat": -33.822438, "lon": 151.1941934, "tags": {"addr:city": "St Leonards", "addr:country": "AU", "addr:postcode": "2065", "addr:state": "NSW", "name": "St Leonards", "operator": "Sydney Trains", "public_transport": "station", "railway": "station", "wheelchair": "yes", "wikidata": "Q7594018", "wikipedia": "en:St Leonards railway station"}}, {"type": "node", "id": 15194910, "lat": -33.9139638, "lon": 151.1536185, "tags": {"name": "Marrickville", "operator": "Sydney Trains", "public_transport": "station", "railway": "station", "wikidata": "Q6772915"}}, {"type": "node", "id": 15445736, "lat": -33.9061988, "lon": 151.2024361, "tags": {"location": "underground", "name": "Green Square", "operator": "Sydney Trains", "public_transport": "station", "railway": "station", "wikidata": "Q5603235", "wikipedia": "en:Green Square railway station"}}, {"type": "node", "id": 18256152, "lat": -34.0563421, "lon": 151.1496597, "tags": {"amenity": "ferry_terminal", "ferry": "yes", "name": "Cronulla", "public_transport": "station"}}, {"type": "node", "id": 18372990, "lat": -33.8792403, "lon": 151.2361365, "tags": {"gtfs_id": "PST1108", "gtfs_location_type": "1", "internet_access": "no", "level": "-1", "name": "Edgecliff", "operator": "Sydney Trains", "public_transport": "station", "railway": "station", "train": "yes", "wikidata": "Q5337745", "wikipedia": "en:Edgecliff railway station"}}, {"type": "node", "id": 19164434, "lat": -33.8638146, "lon": 151.0452428, "tags": {"name": "Lidcombe", "operator": "Sydney Trains", "public_transport": "station", "railway": "station", "wheelchair": "yes", "wikidata": "Q6543598"}}, {"type": "node", "id": 20163894, "lat": -33.8648765, "lon": 151.069948, "tags": {"name": "Flemington", "operator": "Sydney Trains", "public_transport": "station", "railway": "station", "wheelchair": "no", "wikidata": "Q5458627", "wikipedia": "en:Flemington railway station"}}, {"type": "node", "id": 20918030, "lat": -34.1344488, "lon": 150.9944558, "tags": {"name": "Waterfall", "operator": "Sydney Trains", "public_transport": "station", "railway": "station", "wheelchair": "yes", "wikidata": "Q7973970", "wikipedia": "en:Waterfall railway station, Sydney"}}, {"type": "node", "id": 20941855, "lat": -33.9673964, "lon": 151.1025692, "tags": {"level": "0", "name": "Hurstville", "operator": "Sydney Trains", "public_transport": "station", "railway": "station", "wheelchair": "yes", "wikidata": "Q5948687", "wikipedia": "en:Hurstville railway station"}}, {"type": "node", "id": 20955155, "lat": -33.8912429, "lon": 151.248455, "tags": {"changing_table": "yes", "gtfs_id": "PST1109", "gtfs_location_type": "1", "location": "underground", "name": "Bondi Junction", "operator": "Sydney Trains", "public_transport": "station", "railway": "station", "survey:date": "2022-02-10", "toilets": "yes", "toilets:access": "customers", "train": "yes", "wheelchair": "yes", "wikidata": "Q2737350", "wikipedia": "en:Bondi Junction railway station"}}, {"type": "node", "id": 20964683, "lat": -33.8359746, "lon": 151.017066, "tags": {"internet_access": "no", "name": "Clyde", "operator": "Sydney Trains", "public_transport": "station", "railway": "station", "train": "yes", "wikidata": "Q5137066"}}, {"type": "node", "id": 20964687, "lat": -33.8175113, "lon": 151.0054009, "tags": {"name": "Parramatta", "operator": "Sydney Trains", "public_transport": "station", "railway": "station", "train": "yes", "wheelchair": "yes", "wikidata": "Q7139752", "wikipedia": "en:Parramatta railway station"}}, {"type": "node", "id": 20979721, "lat": -33.8913288, "lon": 151.249376, "tags": {"amenity": "bus_station", "bus": "yes", "name": "Bondi Junction Interchange", "name:en": "Bondi Junction Interchange", "public_transport": "station", "wheelchair": "yes"}}, {"type": "node", "id": 26400030, "lat": -33.8484033, "lon": 151.0856114, "tags": {"name": "Concord West", "operator": "Sydney Trains", "public_transport": "station", "railway": "station", "train": "yes", "wheelchair": "yes", "wikidata": "Q5158901", "wikipedia": "en:Concord West railway station"}}, {"type": "node", "id": 26428905, "lat": -33.9105924, "lon": 151.1317928, "tags": {"internet_access": "no", "name": "Hurlstone Park", "operator": "Sydney Trains", "public_transport": "station", "railway": "station", "wikidata": "Q5946764"}}, {"type": "node", "id": 60285987, "lat": -33.8492852, "lon": 151.0328346, "tags": {"name": "Auburn", "name:en": "Auburn", "name:zh": "\u5965\u672c", "operator": "Sydney Trains", "public_transport": "station", "railway": "station", "train": "yes", "wikidata": "Q4819340"}}, {"type": "node", "id": 173139337, "lat": -33.8827156, "lon": 151.2056011}, {"type": "node", "id": 173139338, "lat": -33.8823008, "lon": 151.2060048}, {"type": "node", "id": 173139344, "lat": -33.882252, "lon": 151.206264}, {"type": "node", "id": 173139348, "lat": -33.8827122, "lon": 151.2071081}, {"type": "node", "id": 173139350, "lat": -33.8827706, "lon": 151.2072141}, {"type": "node", "id": 173139351, "lat": -33.8828151, "lon": 151.2072625}, {"type": "node", "id": 173139352, "lat": -33.8828343, "lon": 151.2072556}, {"type": "node", "id": 196762379, "lat": -33.8467527, "lon": 151.0684277}, {"type": "node", "id": 196762380, "lat": -33.8460073, "lon": 151.0704638}, {"type": "node", "id": 196762381, "lat": -33.8463319, "lon": 151.0706094}, {"type": "node", "id": 196762383, "lat": -33.8470628, "lon": 151.0686}, {"type": "node", "id": 247164406, "lat": -33.8219551, "lon": 151.0788417, "tags": {"air_conditioning": "no", "amenity": "ferry_terminal", "ferry": "yes", "internet_access": "no", "name": "Sydney Olympic Park", "network": "Sydney Harbour Ferries", "operator": "Sydney Ferries", "public_transport": "station"}}, {"type": "node", "id": 249375549, "lat": -34.0422127, "lon": 151.1226239, "tags": {"amenity": "bus_station", "bus": "yes", "public_transport": "station", "wheelchair": "yes"}}, {"type": "node", "id": 252058553, "lat": -33.8499757, "lon": 151.2139988, "tags": {"amenity": "ferry_terminal", "ferry": "yes", "name": "Jefferys Street", "public_transport": "station"}}, {"type": "node", "id": 409184683, "lat": -33.8849268, "lon": 151.2053838}, {"type": "node", "id": 409184716, "lat": -33.8922204, "lon": 151.198981}, {"type": "node", "id": 409184717, "lat": -33.8924734, "lon": 151.198707}, {"type": "node", "id": 409184718, "lat": -33.8927473, "lon": 151.1980321}, {"type": "node", "id": 409184732, "lat": -33.8923297, "lon": 151.197284}, {"type": "node", "id": 409184733, "lat": -33.892004, "lon": 151.1979551}, {"type": "node", "id": 409184743, "lat": -33.8841194, "lon": 151.2046315}, {"type": "node", "id": 433584509, "lat": -33.9337279, "lon": 151.1819843, "tags": {"alt_name": "Domestic Terminal", "alt_name:1": "Domestic", "location": "underground", "name": "Domestic Airport", "operator": "Sydney Trains", "public_transport": "station", "railway": "station", "wikidata": "Q5290203", "wikipedia": "en:Domestic Airport railway station, Sydney"}}, {"type": "node", "id": 453045873, "lat": -33.8436215, "lon": 151.1282499, "tags": {"amenity": "ferry_terminal", "ferry": "yes", "name": "Abbotsford", "operator": "Sydney Ferries", "public_transport": "station", "wheelchair": "yes"}}, {"type": "node", "id": 458705369, "lat": -33.8668898, "lon": 151.200692, "tags": {"amenity": "ferry_terminal", "disused": "yes", "ferry": "yes", "name": "Darling Harbour Wharf 3", "name:ko": "\ub2ec\ub9c1\ud558\ubc84", "operator": "NSW Maritime", "public_transport": "station", "wikidata": "Q6412067"}}, {"type": "node", "id": 458705423, "lat": -33.8406661, "lon": 151.1169013, "tags": {"amenity": "ferry_terminal", "ferry": "yes", "name": "Cabarita", "public_transport": "station"}}, {"type": "node", "id": 458705435, "lat": -33.8213238, "lon": 151.0902307, "tags": {"amenity": "ferry_terminal", "ferry": "yes", "gtfs_id": "21141", "name": "Meadowbank", "public_transport": "station", "tactile_paving": "yes"}}, {"type": "node", "id": 458707027, "lat": -33.8422131, "lon": 151.1419664, "tags": {"amenity": "ferry_terminal", "ferry": "yes", "name": "Huntleys Point", "public_transport": "station", "wikidata": "Q14934838", "wikipedia": "en:Huntleys Point ferry wharf"}}, {"type": "node", "id": 458710317, "lat": -33.8454981, "lon": 151.173438, "tags": {"amenity": "ferry_terminal", "ferry": "yes", "internet_access": "no", "name": "Cockatoo Island", "network": "Sydney Ferries", "public_transport": "station"}}, {"type": "node", "id": 618594832, "lat": -33.871703, "lon": 151.0942326, "tags": {"name": "Strathfield", "operator": "Sydney Trains", "public_transport": "station", "railway": "station", "wheelchair": "yes", "wikidata": "Q7622110", "wikipedia": "en:Strathfield railway station"}}, {"type": "node", "id": 630744637, "lat": -33.8771445, "lon": 151.1040382, "tags": {"name": "Burwood", "operator": "Sydney Trains", "public_transport": "station", "railway": "station", "train": "yes", "wheelchair": "yes", "wikidata": "Q5001068"}}, {"type": "node", "id": 634218113, "lat": -33.9682381, "lon": 151.1244983, "tags": {"name": "Carlton", "operator": "Sydney Trains", "public_transport": "station", "railway": "station", "wheelchair": "yes", "wikidata": "Q5043087", "wikipedia": "en:Carlton railway station, Sydney"}}, {"type": "node", "id": 634228099, "lat": -34.0363125, "lon": 151.102695, "tags": {"name": "Miranda", "operator": "Sydney Trains", "public_transport": "station", "railway": "station", "wheelchair": "yes", "wikidata": "Q6872848", "wikipedia": "en:Miranda railway station"}}, {"type": "node", "id": 648896022, "lat": -33.8700859, "lon": 151.2117275}, {"type": "node", "id": 648896024, "lat": -33.8716719, "lon": 151.2114986}, {"type": "node", "id": 649584227, "lat": -33.8767475, "lon": 151.2094686}, {"type": "node", "id": 649584233, "lat": -33.8768044, "lon": 151.2096259}, {"type": "node", "id": 649584236, "lat": -33.8751088, "lon": 151.2105239}, {"type": "node", "id": 649611581, "lat": -33.8701275, "lon": 151.2121444}, {"type": "node", "id": 649611595, "lat": -33.8717134, "lon": 151.2119151}, {"type": "node", "id": 1437139966, "lat": -33.8463754, "lon": 151.1864463, "tags": {"amenity": "ferry_terminal", "ferry": "yes", "name": "Birchgrove", "public_transport": "station", "source": "PGS;bing", "wikidata": "Q4915737", "wikipedia": "en:Birchgrove ferry wharf"}}, {"type": "node", "id": 1444163222, "lat": -33.9199048, "lon": 151.2498803, "tags": {"amenity": "bus_station", "bench": "yes", "bin": "yes", "bus": "yes", "highway": "bus_stop", "name": "Byron Street", "note": "313;370", "public_transport": "station", "ref": "203453", "shelter": "yes", "source": "survey", "tactile_paving": "no"}}, {"type": "node", "id": 1460579895, "lat": -33.8697114, "lon": 151.1984211, "tags": {"amenity": "bus_station", "bus": "yes", "name": "Maritime Museum (389 terminus)", "public_transport": "station", "wheelchair": "yes"}}, {"type": "node", "id": 1499194256, "lat": -33.8744874, "lon": 151.2222308, "tags": {"changing_table": "yes", "location": "underground", "name": "Kings Cross", "operator": "Sydney Trains", "public_transport": "station", "railway": "station", "survey:date": "2022-02-08", "toilets": "yes", "toilets:access": "customers", "toilets:unisex": "yes", "toilets:wheelchair": "yes", "wikidata": "Q1851882", "wikipedia": "en:Kings Cross railway station, Sydney"}}, {"type": "node", "id": 1532632358, "lat": -33.8928436, "lon": 151.1978367}, {"type": "node", "id": 1557879554, "lat": -33.808856, "lon": 151.1851425, "tags": {"name": "Artarmon", "public_transport": "station", "railway": "station", "subway": "no", "wheelchair": "yes", "wikidata": "Q4797346", "wikipedia": "en:Artarmon railway station"}}, {"type": "node", "id": 1559579749, "lat": -33.8411271, "lon": 151.2065224}, {"type": "node", "id": 1559579752, "lat": -33.8411807, "lon": 151.2065114}, {"type": "node", "id": 1559579787, "lat": -33.8413723, "lon": 151.2082494}, {"type": "node", "id": 1559579815, "lat": -33.8414258, "lon": 151.2082384}, {"type": "node", "id": 1572445621, "lat": -33.9349749, "lon": 151.1658747, "tags": {"alt_name": "International Terminal", "alt_name:1": "International", "location": "underground", "name": "International Airport", "name:ar": "\u0645\u0637\u0627\u0631 \u062f\u0648\u0644\u064a", "name:en": "International Airport", "operator": "Sydney Trains", "public_transport": "station", "railway": "station", "wikidata": "Q12060765", "wikipedia": "en:International Airport railway station, Sydney"}}, {"type": "node", "id": 1580975083, "lat": -33.8832348, "lon": 151.2070505}, {"type": "node", "id": 1580975085, "lat": -33.8833494, "lon": 151.2072647}, {"type": "node", "id": 1645166666, "lat": -33.89157, "lon": 151.198521}, {"type": "node", "id": 1645166672, "lat": -33.8917093, "lon": 151.1994564}, {"type": "node", "id": 1645166687, "lat": -33.8922081, "lon": 151.1976311}, {"type": "node", "id": 1663675831, "lat": -33.9405679, "lon": 151.1006334, "tags": {"name": "Kingsgrove", "operator": "Sydney Trains", "public_transport": "station", "railway": "station", "source:name": "survey", "wikidata": "Q6413226", "wikipedia": "en:Kingsgrove railway station"}}, {"type": "node", "id": 1685405588, "lat": -33.9621586, "lon": 151.132574, "tags": {"amenity": "bus_station", "bus": "yes", "name": "Kogarah", "name:en": "Kogarah", "name:zh": "\u6263\u8fc7\u5566 \u706b\u8f66\u7ad9", "operator": "Sydney Trains", "public_transport": "station", "railway": "station", "source": "knowledge", "wikidata": "Q6425775", "wikipedia": "en:Kogarah railway station"}}, {"type": "node", "id": 1692720118, "lat": -33.8613593, "lon": 151.2107193, "tags": {"layer": "1", "name": "Circular Quay", "name:en": "Circular Quay", "name:ja": "\u30b5\u30fc\u30ad\u30e5\u30e9\u30fc\u30ad\u30fc", "name:zh": "\u74b0\u5f62\u78bc\u982d", "name:zh-Hans": "\u73af\u5f62\u7801\u5934", "name:zh-Hant": "\u74b0\u5f62\u78bc\u982d", "operator": "Sydney Trains", "public_transport": "station", "railway": "station", "wikidata": "Q5121652", "wikipedia": "en:Circular Quay railway station"}}, {"type": "node", "id": 1763901273, "lat": -33.873567, "lon": 151.2068498, "tags": {"layer": "-1", "location": "underground", "name": "Town Hall", "operator": "Sydney Trains", "public_transport": "station", "railway": "station", "toilets:wheelchair": "yes", "train": "yes", "wheelchair": "yes", "wikidata": "Q7829976", "wikipedia": "en:Town Hall railway station, Sydney"}}, {"type": "node", "id": 1778919090, "lat": -34.0678648, "lon": 151.0147301, "tags": {"name": "Engadine", "operator": "Sydney Trains", "public_transport": "station", "railway": "station", "wheelchair": "yes", "wikidata": "Q5377390", "wikipedia": "en:Engadine railway station"}}, {"type": "node", "id": 1829323375, "lat": -33.8458627, "lon": 151.2117909, "tags": {"name": "Milsons Point", "operator": "Sydney Trains", "public_transport": "station", "railway": "station", "wikidata": "Q2295534", "wikipedia": "en:Milsons Point railway station"}}, {"type": "node", "id": 1830303527, "lat": -33.8317125, "lon": 151.1917276, "tags": {"name": "Wollstonecraft", "operator": "Sydney Trains", "public_transport": "station", "railway": "station", "subway": "no", "wikidata": "Q8030384", "wikipedia": "en:Wollstonecraft railway station"}}, {"type": "node", "id": 1833786046, "lat": -34.0043476, "lon": 151.068064, "tags": {"name": "Como", "operator": "Sydney Trains", "public_transport": "station", "railway": "station", "wikidata": "Q5155158", "wikipedia": "en:Como railway station, Sydney"}}, {"type": "node", "id": 1839276327, "lat": -34.0879621, "lon": 151.0082554, "tags": {"name": "Heathcote", "operator": "Sydney Trains", "public_transport": "station", "railway": "station", "source:name": "local_knowledge", "wikidata": "Q13219771", "wikipedia": "en:Heathcote railway station"}}, {"type": "node", "id": 1843679382, "lat": -33.9708469, "lon": 151.0811258, "tags": {"name": "Mortdale", "operator": "Sydney Trains", "public_transport": "station", "railway": "station", "train": "yes", "wikidata": "Q13219851", "wikipedia": "en:Mortdale railway station"}}, {"type": "node", "id": 1843679387, "lat": -33.9661553, "lon": 151.0891799, "tags": {"internet_access": "no", "name": "Penshurst", "operator": "Sydney Trains", "public_transport": "station", "railway": "station", "wikidata": "Q7164748"}}, {"type": "node", "id": 1843700641, "lat": -33.9696934, "lon": 151.1145108, "tags": {"name": "Allawah", "operator": "Sydney Trains", "public_transport": "station", "railway": "station", "wheelchair": "yes", "wikidata": "Q4731188", "wikipedia": "en:Allawah railway station"}}, {"type": "node", "id": 1853644076, "lat": -33.9072863, "lon": 151.1806702, "tags": {"name": "St Peters", "operator": "Sydney Trains", "public_transport": "station", "railway": "station", "wheelchair": "no", "wikidata": "Q7595383"}}, {"type": "node", "id": 1859765476, "lat": -33.8841493, "lon": 151.2045857}, {"type": "node", "id": 1859765477, "lat": -33.8851029, "lon": 151.2039794}, {"type": "node", "id": 1859765496, "lat": -33.8848811, "lon": 151.2041184}, {"type": "node", "id": 1886174942, "lat": -33.9316025, "lon": 151.1248844, "tags": {"name": "Bardwell Park", "operator": "CityLink", "public_transport": "station", "railway": "station", "source": "bing", "toilets:wheelchair": "no", "wheelchair": "no", "wikidata": "Q4860238", "wikipedia": "en:Bardwell Park railway station"}}, {"type": "node", "id": 1886174956, "lat": -34.0453436, "lon": 151.0513461, "tags": {"name": "Loftus", "operator": "CityLink", "public_transport": "station", "railway": "station", "source": "bing", "wikidata": "Q6666738"}}, {"type": "node", "id": 1886240860, "lat": -33.8876579, "lon": 151.1258176, "tags": {"name": "Ashfield", "operator": "Sydney Trains", "public_transport": "station", "railway": "station", "source": "bing", "wheelchair": "yes", "wikidata": "Q4804978"}}, {"type": "node", "id": 1886240868, "lat": -33.7998488, "lon": 151.0873579, "tags": {"name": "Denistone", "operator": "Sydney Trains", "public_transport": "station", "railway": "station", "source": "bing", "wheelchair": "no", "wikidata": "Q5257853", "wikipedia": "en:Denistone railway station"}}, {"type": "node", "id": 1886240870, "lat": -33.790128, "lon": 151.0822564, "tags": {"name": "Eastwood", "operator": "Sydney Trains", "public_transport": "station", "railway": "station", "source": "bing", "wheelchair": "yes", "wikidata": "Q5331038", "wikipedia": "en:Eastwood railway station"}}, {"type": "node", "id": 1886240877, "lat": -33.8939113, "lon": 151.1553735, "tags": {"name": "Petersham", "operator": "Sydney Trains", "public_transport": "station", "railway": "station", "source": "bing"}}, {"type": "node", "id": 1886240880, "lat": -33.9254126, "lon": 151.0557609, "tags": {"name": "Punchbowl", "operator": "Sydney Trains", "public_transport": "station", "railway": "station", "source": "bing", "wikidata": "Q7259975"}}, {"type": "node", "id": 1886240903, "lat": -33.8904591, "lon": 151.1387232, "tags": {"building:levels": "1", "name": "Summer Hill", "operator": "Sydney Trains", "public_transport": "station", "railway": "station", "source": "bing", "wikidata": "Q12070273"}}, {"type": "node", "id": 1886240917, "lat": -33.8070374, "lon": 151.0902904, "tags": {"name": "West Ryde", "operator": "Sydney Trains", "public_transport": "station", "railway": "station", "source": "bing", "wheelchair": "yes", "wikidata": "Q7986412", "wikipedia": "en:West Ryde railway station"}}, {"type": "node", "id": 1886255302, "lat": -34.0349533, "lon": 151.0719112, "tags": {"name": "Kirrawee", "operator": "Sydney Trains", "public_transport": "station", "railway": "station", "source": "bing", "wikidata": "Q6416000", "wikipedia": "en:Kirrawee railway station"}}, {"type": "node", "id": 1886255310, "lat": -33.8368127, "lon": 150.9923283, "tags": {"name": "Merrylands", "operator": "Sydney Trains", "public_transport": "station", "railway": "station", "source": "bing", "wheelchair": "yes", "wikidata": "Q6820505"}}, {"type": "node", "id": 1886255316, "lat": -33.9519026, "lon": 151.0323311, "tags": {"name": "Padstow", "operator": "Sydney Trains", "public_transport": "station", "railway": "station", "source": "bing", "wikidata": "Q7123964", "wikipedia": "en:Padstow railway station, Sydney"}}, {"type": "node", "id": 1886255321, "lat": -33.9525282, "lon": 151.0149093, "tags": {"name": "Revesby", "operator": "Sydney Trains", "public_transport": "station", "railway": "station", "source": "bing", "wikidata": "Q7318326", "wikipedia": "en:Revesby railway station"}}, {"type": "node", "id": 1886255323, "lat": -33.9515059, "lon": 151.0521177, "tags": {"name": "Riverwood", "operator": "Sydney Trains", "public_transport": "station", "railway": "station", "source": "bing", "wikidata": "Q7338803", "wikipedia": "en:Riverwood railway station"}}, {"type": "node", "id": 1886255325, "lat": -33.9245392, "lon": 151.1564329, "tags": {"internet_access": "no", "name": "Tempe", "operator": "Sydney Trains", "public_transport": "station", "railway": "station", "source": "bing", "train": "yes", "wikidata": "Q7698269", "wikipedia": "en:Tempe railway station"}}, {"type": "node", "id": 1886255327, "lat": -33.9299188, "lon": 151.1399608, "tags": {"name": "Turrella", "operator": "Sydney Trains", "public_transport": "station", "railway": "station", "source": "bing", "wheelchair": "no", "wikidata": "Q7856222", "wikipedia": "en:Turrella railway station"}}, {"type": "node", "id": 1886255332, "lat": -33.9285225, "lon": 151.1539888, "tags": {"internet_access": "no", "name": "Wolli Creek", "operator": "Sydney Trains", "public_transport": "station", "railway": "station", "source": "bing", "wheelchair": "yes", "wikidata": "Q8030356", "wikipedia": "en:Wolli Creek railway station"}}, {"type": "node", "id": 1886265350, "lat": -33.8933152, "lon": 151.0240303, "tags": {"name": "Birrong", "operator": "Sydney Trains", "public_transport": "station", "railway": "station", "source": "bing", "wikidata": "Q4916962"}}, {"type": "node", "id": 1886265359, "lat": -33.8543165, "lon": 150.9844864, "tags": {"name": "Guildford", "operator": "Sydney Trains", "public_transport": "station", "railway": "station", "source": "bing", "wikidata": "Q5615859"}}, {"type": "node", "id": 1886265361, "lat": -33.8815246, "lon": 150.9852256, "tags": {"name": "Leightonfield", "operator": "Sydney Trains", "public_transport": "station", "railway": "station", "source": "bing", "wikidata": "Q6519803"}}, {"type": "node", "id": 1886265369, "lat": -33.8852552, "lon": 151.0114843, "tags": {"name": "Sefton", "operator": "Sydney Trains", "public_transport": "station", "railway": "station", "source": "bing", "wheelchair": "yes", "wikidata": "Q7446129"}}, {"type": "node", "id": 1886265376, "lat": -33.8380922, "lon": 151.1976471, "tags": {"name": "Waverton", "operator": "Sydney Trains", "public_transport": "station", "railway": "station", "source": "bing", "subway": "no", "wikidata": "Q7975506", "wikipedia": "en:Waverton railway station, Sydney"}}, {"type": "node", "id": 1886265379, "lat": -33.8659903, "lon": 151.2058096, "tags": {"changing_table": "yes", "location": "underground", "name": "Wynyard", "operator": "Sydney Trains", "public_transport": "station", "railway": "station", "source": "bing", "toilets:access": "yes", "toilets:wheelchair": "yes", "wheelchair": "yes", "wikidata": "Q8040272"}}, {"type": "node", "id": 1907095481, "lat": -33.9521091, "lon": 151.1361527, "tags": {"amenity": "bus_station", "bus": "yes", "name": "Rockdale Station, Railway St, Stand F", "network": "221617", "public_transport": "station"}}, {"type": "node", "id": 1907101707, "lat": -33.9524483, "lon": 151.1361405, "tags": {"amenity": "bus_station", "bus": "yes", "name": "Rockdale Station, Railway St, Stand G", "network": "221617", "public_transport": "station"}}, {"type": "node", "id": 1973143274, "lat": -33.8699242, "lon": 151.193306, "tags": {"amenity": "bus_station", "bus": "yes", "name": "Mount St (501)", "name:en": "Mount St (501)", "public_transport": "station", "wheelchair": "yes"}}, {"type": "node", "id": 1987282725, "lat": -33.8837106, "lon": 151.2050066}, {"type": "node", "id": 1987282733, "lat": -33.8836165, "lon": 151.2049632}, {"type": "node", "id": 1987282735, "lat": -33.8836666, "lon": 151.2049264}, {"type": "node", "id": 1987282737, "lat": -33.8841583, "lon": 151.2046034}, {"type": "node", "id": 1987285870, "lat": -33.8821948, "lon": 151.2060891}, {"type": "node", "id": 1987326784, "lat": -33.8827889, "lon": 151.2072473}, {"type": "node", "id": 1987326790, "lat": -33.88338, "lon": 151.2073218}, {"type": "node", "id": 1987326804, "lat": -33.8827909, "lon": 151.2056135}, {"type": "node", "id": 2039208648, "lat": -33.8411653, "lon": 151.2074743}, {"type": "node", "id": 2052073027, "lat": -33.8752551, "lon": 151.0524441, "tags": {"name": "Cemetery Station No. 2", "public_transport": "station", "wikidata": "Q5058712"}}, {"type": "node", "id": 2052073031, "lat": -33.878748, "lon": 151.0531621, "tags": {"name": "Cemetery Station No. 3", "public_transport": "station", "wikidata": "Q5058715"}}, {"type": "node", "id": 2168601914, "lat": -33.8084254, "lon": 151.1845331, "tags": {"level": "0"}}, {"type": "node", "id": 2168601938, "lat": -33.8083777, "lon": 151.184584}, {"type": "node", "id": 2168601952, "lat": -33.8085004, "lon": 151.184632, "tags": {"level": "1"}}, {"type": "node", "id": 2168601977, "lat": -33.8084694, "lon": 151.1844837}, {"type": "node", "id": 2233347094, "lat": -33.8469889, "lon": 151.0683863, "tags": {"entrance": "yes"}}, {"type": "node", "id": 2233347097, "lat": -33.8461159, "lon": 151.0706452, "tags": {"entrance": "yes"}}, {"type": "node", "id": 2254696807, "lat": -33.7875628, "lon": 151.2734683, "tags": {"amenity": "bus_station", "bus": "yes", "name": "Kenneth Road Near Addiscombe Road", "public_transport": "station"}}, {"type": "node", "id": 2267841195, "lat": -33.8835449, "lon": 150.9994175, "tags": {"name": "Chester Hill", "operator": "Sydney Trains", "public_transport": "station", "railway": "station", "source": "bing", "wikidata": "Q5093601"}}, {"type": "node", "id": 2374448074, "lat": -33.8180043, "lon": 151.0437363, "tags": {"amenity": "ferry_terminal", "ferry": "yes", "name": "Rydalmere Ferry Wharf", "public_transport": "station"}}, {"type": "node", "id": 2389011340, "lat": -34.0324224, "lon": 151.0563452}, {"type": "node", "id": 2689168291, "lat": -33.8304008, "lon": 151.0870609, "tags": {"internet_access": "no", "name": "Rhodes", "operator": "Sydney Trains", "public_transport": "station", "railway": "station", "train": "yes", "wheelchair": "yes", "wikidata": "Q7321047", "wikipedia": "en:Rhodes railway station"}}, {"type": "node", "id": 2746819425, "lat": -33.8839739, "lon": 151.145122, "tags": {"electrified": "contact_line", "light_rail": "yes", "name": "Marion", "public_transport": "station", "railway": "station", "station": "light_rail"}}, {"type": "node", "id": 2746819429, "lat": -33.8891648, "lon": 151.1452623, "tags": {"electrified": "contact_line", "light_rail": "yes", "name": "Taverners Hill", "public_transport": "station", "railway": "station", "station": "light_rail"}}, {"type": "node", "id": 2746819433, "lat": -33.879569, "lon": 151.1472257, "tags": {"electrified": "contact_line", "light_rail": "yes", "name": "Hawthorne", "public_transport": "station", "railway": "station", "station": "light_rail"}}, {"type": "node", "id": 2746819434, "lat": -33.8749849, "lon": 151.1541434, "tags": {"electrified": "contact_line", "light_rail": "yes", "name": "Leichhardt North", "public_transport": "station", "railway": "station", "station": "light_rail", "wheelchair": "yes"}}, {"type": "node", "id": 2798072837, "lat": -33.8670749, "lon": 151.1963108, "tags": {"amenity": "ferry_terminal", "ferry": "yes", "man_made": "pier", "name": "Casino Wharf", "operator": "NSW Maritime", "public_transport": "station", "source": "survey", "source:location": "AGRI"}}, {"type": "node", "id": 3072732680, "lat": -33.8830339, "lon": 151.2039974}, {"type": "node", "id": 3072732681, "lat": -33.883049, "lon": 151.2040348}, {"type": "node", "id": 3072732682, "lat": -33.8830996, "lon": 151.2039081}, {"type": "node", "id": 3072732683, "lat": -33.8832121, "lon": 151.2039648}, {"type": "node", "id": 3072732684, "lat": -33.883251, "lon": 151.2038271}, {"type": "node", "id": 3072732685, "lat": -33.8833947, "lon": 151.2038441}, {"type": "node", "id": 3072732686, "lat": -33.8837475, "lon": 151.2033191}, {"type": "node", "id": 3072732687, "lat": -33.8836895, "lon": 151.2036302}, {"type": "node", "id": 3072732688, "lat": -33.8838572, "lon": 151.2031477}, {"type": "node", "id": 3072732689, "lat": -33.8842005, "lon": 151.2033046}, {"type": "node", "id": 3336241890, "lat": -33.8749869, "lon": 151.2101614}, {"type": "node", "id": 3754231421, "lat": -33.9067491, "lon": 151.0243075, "tags": {"name": "Yagoona", "operator": "Sydney Trains", "public_transport": "station", "railway": "station", "source": "bing", "wheelchair": "no", "wikidata": "Q8046737"}}, {"type": "node", "id": 3763643384, "lat": -33.8918053, "lon": 151.1995138, "tags": {"entrance": "yes"}}, {"type": "node", "id": 3891123781, "lat": -33.8978553, "lon": 151.1787666}, {"type": "node", "id": 3891123783, "lat": -33.8979788, "lon": 151.1789652}, {"type": "node", "id": 3891123790, "lat": -33.8980297, "lon": 151.1788289}, {"type": "node", "id": 3924757077, "lat": -33.8978767, "lon": 151.1797864}, {"type": "node", "id": 3924757078, "lat": -33.8981812, "lon": 151.1797911}, {"type": "node", "id": 3924757079, "lat": -33.8981801, "lon": 151.1794008}, {"type": "node", "id": 3924757080, "lat": -33.8981785, "lon": 151.179363}, {"type": "node", "id": 3924757081, "lat": -33.8982184, "lon": 151.1793478}, {"type": "node", "id": 3924757082, "lat": -33.8981813, "lon": 151.1792337}, {"type": "node", "id": 3924757087, "lat": -33.8981667, "lon": 151.17924}, {"type": "node", "id": 3924757091, "lat": -33.8978992, "lon": 151.1788302}, {"type": "node", "id": 3925669730, "lat": -33.891573, "lon": 151.1985399}, {"type": "node", "id": 3925669731, "lat": -33.8916621, "lon": 151.1991678}, {"type": "node", "id": 3925673860, "lat": -33.892067, "lon": 151.1994972}, {"type": "node", "id": 3925673861, "lat": -33.8923312, "lon": 151.1993569}, {"type": "node", "id": 3925673862, "lat": -33.8922701, "lon": 151.1992129}, {"type": "node", "id": 3925692002, "lat": -33.8916172, "lon": 151.1988333, "tags": {"entrance": "yes"}}, {"type": "node", "id": 4025206434, "lat": -33.8848986, "lon": 151.2053321}, {"type": "node", "id": 4027001692, "lat": -33.8821787, "lon": 151.2061425}, {"type": "node", "id": 4027001693, "lat": -33.8822917, "lon": 151.2063369}, {"type": "node", "id": 4027001695, "lat": -33.8823699, "lon": 151.205895}, {"type": "node", "id": 4027001698, "lat": -33.8824014, "lon": 151.2058702, "tags": {"destination": "Forecourt", "entrance": "main", "level": "1", "name": "Exit 1: Forecourt", "ref": "1"}}, {"type": "node", "id": 4027001701, "lat": -33.8823959, "lon": 151.2065287}, {"type": "node", "id": 4027001704, "lat": -33.8824282, "lon": 151.2058478}, {"type": "node", "id": 4027001708, "lat": -33.8824073, "lon": 151.2065499, "tags": {"destination": "Pitt Street", "entrance": "main", "level": "1", "name": "Exit 2: Pitt Street", "ref": "2"}}, {"type": "node", "id": 4027001710, "lat": -33.8824194, "lon": 151.2065721}, {"type": "node", "id": 4027001717, "lat": -33.8825223, "lon": 151.2057747}, {"type": "node", "id": 4027001727, "lat": -33.882672, "lon": 151.2070351}, {"type": "node", "id": 4027001728, "lat": -33.8826836, "lon": 151.2070562, "tags": {"destination": "Pitt Street", "entrance": "main", "level": "1", "name": "Exit 2: Pitt Street", "ref": "2"}}, {"type": "node", "id": 4027001729, "lat": -33.8826964, "lon": 151.2070795}, {"type": "node", "id": 4027001737, "lat": -33.8828249, "lon": 151.2072611}, {"type": "node", "id": 4027001741, "lat": -33.8829432, "lon": 151.2071722}, {"type": "node", "id": 4027001753, "lat": -33.883029, "lon": 151.2071065}, {"type": "node", "id": 4027001759, "lat": -33.8830427, "lon": 151.2070961}, {"type": "node", "id": 4027001766, "lat": -33.883066, "lon": 151.2070781}, {"type": "node", "id": 4027001770, "lat": -33.8831124, "lon": 151.2070423}, {"type": "node", "id": 4027062064, "lat": -33.8832804, "lon": 151.2071358, "tags": {"entrance": "main", "level": "0", "name": "Exit 3: Eddy Ave", "ref": "3"}}, {"type": "node", "id": 4234494142, "lat": -33.8978783, "lon": 151.1795591}, {"type": "node", "id": 4272342421, "lat": -33.8007433, "lon": 151.2846363, "tags": {"amenity": "ferry_terminal", "ferry": "yes", "name": "Manly Wharf 3", "operator": "Matilda Cruises", "public_transport": "station"}}, {"type": "node", "id": 4386542510, "lat": -33.8927414, "lon": 151.1981238}, {"type": "node", "id": 4432374079, "lat": -33.8084077, "lon": 151.1845345}, {"type": "node", "id": 4432374080, "lat": -33.8084285, "lon": 151.1845109}, {"type": "node", "id": 4432374086, "lat": -33.8085438, "lon": 151.184691, "tags": {"amenity": "ticket_validator", "level": "1"}}, {"type": "node", "id": 4432374088, "lat": -33.8086057, "lon": 151.1848114}, {"type": "node", "id": 4432411189, "lat": -33.8086111, "lon": 151.1848064}, {"type": "node", "id": 4432411190, "lat": -33.8086181, "lon": 151.1848048}, {"type": "node", "id": 4432411191, "lat": -33.8086384, "lon": 151.1848333}, {"type": "node", "id": 4432411192, "lat": -33.8086287, "lon": 151.1848082}, {"type": "node", "id": 4432411194, "lat": -33.8086326, "lon": 151.1847848}, {"type": "node", "id": 4432411195, "lat": -33.8086374, "lon": 151.1847806}, {"type": "node", "id": 4432411197, "lat": -33.8086492, "lon": 151.1848354, "tags": {"description": "Lift 1 from the concourse to Platform 1/2", "highway": "elevator", "indoor": "yes", "level": "1;2", "ref:operator_inventory": "T-LIFT01000008"}}, {"type": "node", "id": 4432411199, "lat": -33.8086644, "lon": 151.184856}, {"type": "node", "id": 4432411201, "lat": -33.8086816, "lon": 151.184918}, {"type": "node", "id": 4432411202, "lat": -33.8086878, "lon": 151.1849121}, {"type": "node", "id": 4432411204, "lat": -33.8087088, "lon": 151.1848905}, {"type": "node", "id": 4432411205, "lat": -33.8087141, "lon": 151.1848847}, {"type": "node", "id": 4432411206, "lat": -33.8087165, "lon": 151.1847167}, {"type": "node", "id": 4432411207, "lat": -33.8087263, "lon": 151.1847397}, {"type": "node", "id": 4432411208, "lat": -33.8087186, "lon": 151.1847006}, {"type": "node", "id": 4432411209, "lat": -33.8087382, "lon": 151.1847559}, {"type": "node", "id": 4432411210, "lat": -33.8087374, "lon": 151.1847422, "tags": {"description": "Lift 2 from the concourse to Hampden Rd", "highway": "elevator", "indoor": "yes", "level": "0;2", "ref:operator_inventory": "T-LIFT01000009", "wheelchair": "yes"}}, {"type": "node", "id": 4432411211, "lat": -33.808738, "lon": 151.1847273}, {"type": "node", "id": 4432411212, "lat": -33.8087499, "lon": 151.1847435}, {"type": "node", "id": 4432411216, "lat": -33.8087828, "lon": 151.1850533}, {"type": "node", "id": 4432411217, "lat": -33.8088069, "lon": 151.1850316}, {"type": "node", "id": 4432411220, "lat": -33.8089369, "lon": 151.1852754, "tags": {"amenity": "bench", "backrest": "yes", "check_date": "2021-08-29", "level": "1", "seats": "8"}}, {"type": "node", "id": 4432411222, "lat": -33.808982, "lon": 151.1853444, "tags": {"amenity": "bench", "backrest": "yes", "check_date": "2021-08-29", "level": "1", "seats": "8"}}, {"type": "node", "id": 4432411223, "lat": -33.8090366, "lon": 151.1854497, "tags": {"amenity": "bench", "backrest": "yes", "check_date": "2021-08-29", "level": "1", "seats": "8"}}, {"type": "node", "id": 4432411225, "lat": -33.8091139, "lon": 151.1855805, "tags": {"amenity": "bench", "backrest": "yes", "check_date": "2021-08-29", "seats": "8"}}, {"type": "node", "id": 4432438321, "lat": -33.8085233, "lon": 151.184689}, {"type": "node", "id": 4432438322, "lat": -33.8085437, "lon": 151.1846654}, {"type": "node", "id": 4438512191, "lat": -33.8676093, "lon": 151.2009525, "tags": {"amenity": "ferry_terminal", "ferry": "yes", "name": "Darling Harbour, King St Wharf 5", "public_transport": "station"}}, {"type": "node", "id": 4686166598, "lat": -33.8979889, "lon": 151.1797887}, {"type": "node", "id": 4689599828, "lat": -33.9229545, "lon": 151.067336, "tags": {"name": "Wiley Park", "operator": "Sydney Trains", "public_transport": "station", "railway": "station", "wikidata": "Q13219893"}}, {"type": "node", "id": 4692878089, "lat": -33.8330942, "lon": 151.0124059, "tags": {"name": "Granville", "operator": "Sydney Trains", "public_transport": "station", "railway": "station", "wikidata": "Q5596979"}}, {"type": "node", "id": 4735625743, "lat": -33.8979176, "lon": 151.1796131, "tags": {"name": "Newtown", "public_transport": "station", "railway": "station", "train": "yes", "wheelchair": "yes"}}, {"type": "node", "id": 4735626773, "lat": -33.8969053, "lon": 151.1858923, "tags": {"name": "Macdonaldtown", "public_transport": "station", "railway": "station", "wikidata": "Q6723000"}}, {"type": "node", "id": 4755031823, "lat": -33.8421613, "lon": 151.2434878, "tags": {"amenity": "bus_station", "bus": "yes", "name": "Taronga Zoo", "name:en": "Taronga Zoo", "network": "Sydney Buses", "operator": "Keolis Downer Northern Beaches and Lower North Shore", "public_transport": "station", "wheelchair": "yes"}}, {"type": "node", "id": 4887412745, "lat": -33.8412146, "lon": 151.2074639, "tags": {"name": "North Sydney", "operator": "Sydney Trains", "operator:phone": "131 500", "operator:type": "public", "operator:website": "https://www.sydneytrains.info", "operator:wikidata": "Q7660181", "public_transport": "station", "railway": "station", "subway": "yes", "website": "https://transportnsw.info/stop?q=206010#/", "wheelchair": "yes", "wikidata": "Q2356455", "wikipedia": "en:North Sydney railway station"}}, {"type": "node", "id": 4887412746, "lat": -33.8412946, "lon": 151.2074633}, {"type": "node", "id": 4887412747, "lat": -33.8412824, "lon": 151.2073814}, {"type": "node", "id": 4887412748, "lat": -33.8412714, "lon": 151.2073835}, {"type": "node", "id": 4887412749, "lat": -33.8412835, "lon": 151.2074655}, {"type": "node", "id": 4887412750, "lat": -33.8412702, "lon": 151.2072958}, {"type": "node", "id": 4887412751, "lat": -33.8412608, "lon": 151.2072276}, {"type": "node", "id": 4887412757, "lat": -33.8412498, "lon": 151.20723}, {"type": "node", "id": 4887412758, "lat": -33.8412598, "lon": 151.2072979}, {"type": "node", "id": 4887412759, "lat": -33.8411719, "lon": 151.2073206}, {"type": "node", "id": 4887412760, "lat": -33.8411605, "lon": 151.2072476}, {"type": "node", "id": 4887412761, "lat": -33.8411502, "lon": 151.2072498}, {"type": "node", "id": 4887412762, "lat": -33.8411606, "lon": 151.207322}, {"type": "node", "id": 4887412763, "lat": -33.8412682, "lon": 151.2071753}, {"type": "node", "id": 4887412764, "lat": -33.8412779, "lon": 151.2072321}, {"type": "node", "id": 4887412765, "lat": -33.841309, "lon": 151.2072256}, {"type": "node", "id": 4887412766, "lat": -33.8413531, "lon": 151.2075319}, {"type": "node", "id": 4887412767, "lat": -33.841049, "lon": 151.2075883}, {"type": "node", "id": 4887412768, "lat": -33.8410041, "lon": 151.2072871}, {"type": "node", "id": 4887412769, "lat": -33.8410344, "lon": 151.2072806}, {"type": "node", "id": 4887412770, "lat": -33.8410267, "lon": 151.2072289}, {"type": "node", "id": 4887412771, "lat": -33.8411677, "lon": 151.2073691}, {"type": "node", "id": 4887412772, "lat": -33.8411774, "lon": 151.207435}, {"type": "node", "id": 4887412773, "lat": -33.8411879, "lon": 151.207433}, {"type": "node", "id": 4887412774, "lat": -33.8411783, "lon": 151.2073663}, {"type": "node", "id": 4887412775, "lat": -33.8411962, "lon": 151.2075455, "tags": {"description": "Lift 1 from concourse to Platform 1/2", "highway": "elevator", "indoor": "yes", "level": "-2;-1;0", "ref:operator_inventory": "T-LIFT01000236", "wheelchair": "yes"}}, {"type": "node", "id": 4887412776, "lat": -33.8412953, "lon": 151.2075268, "tags": {"description": "Lift 2 from concourse to Platform 3/4", "highway": "elevator", "indoor": "yes", "level": "-2;-1;0", "ref:operator_inventory": "T-LIFT01000237", "wheelchair": "yes"}}, {"type": "node", "id": 4887412777, "lat": -33.8412531, "lon": 151.2074555}, {"type": "node", "id": 4887412778, "lat": -33.8412348, "lon": 151.2073297}, {"type": "node", "id": 4887412779, "lat": -33.841164, "lon": 151.2073442}, {"type": "node", "id": 4887412780, "lat": -33.8412579, "lon": 151.2074886}, {"type": "node", "id": 4887412781, "lat": -33.8412911, "lon": 151.2074828}, {"type": "node", "id": 4887412783, "lat": -33.8412681, "lon": 151.2073229}, {"type": "node", "id": 4887412785, "lat": -33.8411749, "lon": 151.2073419}, {"type": "node", "id": 4887412806, "lat": -33.8410711, "lon": 151.2074935, "tags": {"entrance": "yes", "entrance_marker": "train", "level": "0", "public_transport": "entrance", "wheelchair": "yes"}}, {"type": "node", "id": 4887412808, "lat": -33.8410775, "lon": 151.2075424}, {"type": "node", "id": 4887412809, "lat": -33.8412924, "lon": 151.2074999}, {"type": "node", "id": 4887412810, "lat": -33.8411929, "lon": 151.2075197}, {"type": "node", "id": 4887892859, "lat": -33.8412439, "lon": 151.2075315, "tags": {"access": "yes", "addr:country": "AU", "addr:housenumber": "15", "addr:postcode": "2060", "addr:state": "NSW", "addr:street": "Blue Street", "addr:suburb": "North Sydney", "amenity": "toilets", "changing_table": "yes", "contact:website": "https://toiletmap.gov.au/13057", "drinking_water": "no", "fee": "no", "female": "yes", "lit": "yes", "male": "yes", "name": "Public Toilet North Sydney Train Station", "opening_hours": "24/7", "operator": "Sydney Trains", "operator:phone": "131 500", "operator:type": "public", "operator:website": "https://www.sydneytrains.info", "operator:wikidata": "Q7660181", "shower": "no", "source": "survey", "survey:date": "2022-09-28", "toilets:access": "yes", "toilets:disposal": "flush", "toilets:position": "seated", "toilets:wheelchair": "yes", "unisex": "yes", "website": "https://toiletmap.gov.au/13057", "wheelchair": "yes", "wheelchair:description": "Unisex Accessible facilities available (Left-hand transfer & Right-hand transfer)"}}, {"type": "node", "id": 4893414024, "lat": -33.8201337, "lon": 151.1646567, "tags": {"addr:postcode": "2066", "addr:street": "Hamilton Street", "amenity": "bus_station", "bus": "yes", "public_transport": "station"}}, {"type": "node", "id": 4959915137, "lat": -33.8088824, "lon": 151.1852371}, {"type": "node", "id": 4959915138, "lat": -33.8089279, "lon": 151.1851972}, {"type": "node", "id": 4961984253, "lat": -33.8978991, "lon": 151.1797868}, {"type": "node", "id": 4961984254, "lat": -33.8978801, "lon": 151.1793999}, {"type": "node", "id": 4961984257, "lat": -33.897955, "lon": 151.1793987}, {"type": "node", "id": 4963048716, "lat": -33.8822725, "lon": 151.2059508}, {"type": "node", "id": 4963048719, "lat": -33.8823402, "lon": 151.2058993}, {"type": "node", "id": 4963103437, "lat": -33.8411686, "lon": 151.2075372}, {"type": "node", "id": 4963103438, "lat": -33.8412211, "lon": 151.2075268}, {"type": "node", "id": 4963103439, "lat": -33.8412677, "lon": 151.2075183}, {"type": "node", "id": 4963103440, "lat": -33.8413222, "lon": 151.2075071}, {"type": "node", "id": 4963103441, "lat": -33.8410194, "lon": 151.2073895}, {"type": "node", "id": 4963103442, "lat": -33.8410927, "lon": 151.2073736}, {"type": "node", "id": 4963103443, "lat": -33.841078, "lon": 151.2072754}, {"type": "node", "id": 4963103444, "lat": -33.8410447, "lon": 151.2075579}, {"type": "node", "id": 4963103445, "lat": -33.8413483, "lon": 151.2074986}, {"type": "node", "id": 4963103456, "lat": -33.8410368, "lon": 151.2072255}, {"type": "node", "id": 4986038521, "lat": -33.9681984, "lon": 151.1332169, "tags": {"amenity": "bus_station", "bus": "yes", "name": "Kogarah, Gray St opp Short St; Line: 476, 477", "name:en": "Kogarah, Gray St opp Short St; Line: 476, 477", "public_transport": "station"}}, {"type": "node", "id": 5243953133, "lat": -33.8854182, "lon": 151.2068952}, {"type": "node", "id": 5299091853, "lat": -33.8979807, "lon": 151.1786752}, {"type": "node", "id": 5299091854, "lat": -33.8980613, "lon": 151.1789285}, {"type": "node", "id": 5354226742, "lat": -33.8413389, "lon": 151.2080145}, {"type": "node", "id": 5390935501, "lat": -33.8731733, "lon": 151.1910724, "tags": {"amenity": "ferry_terminal", "ferry": "yes", "name": "Fish Market Wharf", "public_transport": "station"}}, {"type": "node", "id": 5417750546, "lat": -33.8454015, "lon": 151.1418525, "tags": {"amenity": "ferry_terminal", "ferry": "yes", "name": "Chiswick", "public_transport": "station", "wikidata": "Q5102170", "wikipedia": "en:Chiswick ferry wharf"}}, {"type": "node", "id": 5423844613, "lat": -33.8299892, "lon": 151.1560604, "tags": {"amenity": "ferry_terminal", "ferry": "yes", "name": "Riverview College Wharf", "public_transport": "station"}}, {"type": "node", "id": 5423856052, "lat": -33.8357841, "lon": 151.1611273, "tags": {"amenity": "ferry_terminal", "ferry": "yes", "name": "Hunters Hill Ferry Wharf", "public_transport": "station"}}, {"type": "node", "id": 5423856058, "lat": -33.8361656, "lon": 151.1693958, "tags": {"amenity": "ferry_terminal", "ferry": "yes", "name": "Longueville Wharf", "public_transport": "station"}}, {"type": "node", "id": 5423856065, "lat": -33.8325893, "lon": 151.1786249, "tags": {"amenity": "ferry_terminal", "ferry": "yes", "name": "Northwood Wharf", "public_transport": "station"}}, {"type": "node", "id": 5423856071, "lat": -33.8421111, "lon": 151.1807672, "tags": {"amenity": "ferry_terminal", "ferry": "yes", "foot": "yes", "name": "Greenwich Point Wharf", "public_transport": "station"}}, {"type": "node", "id": 5423856072, "lat": -33.8341936, "lon": 151.1822646, "tags": {"amenity": "ferry_terminal", "ferry": "yes", "name": "Greenwich Wharf", "public_transport": "station"}}, {"type": "node", "id": 5585547302, "lat": -33.9250326, "lon": 151.2463177, "tags": {"amenity": "bus_station", "bus": "yes", "internet_access": "no", "internet_access:fee": "no", "public_transport": "station"}}, {"type": "node", "id": 5599508955, "lat": -33.8924743, "lon": 151.1970622}, {"type": "node", "id": 5599508958, "lat": -33.8920201, "lon": 151.1993772}, {"type": "node", "id": 5599508959, "lat": -33.8919852, "lon": 151.1992923}, {"type": "node", "id": 5599508960, "lat": -33.8921921, "lon": 151.1990941}, {"type": "node", "id": 5599508961, "lat": -33.8923813, "lon": 151.1988701}, {"type": "node", "id": 5601041671, "lat": -33.8248806, "lon": 151.0637231, "tags": {"amenity": "ferry_terminal", "ferry": "yes", "name": "Armory Wharf", "note": "Not serviced by scheduled ferries.", "public_transport": "station"}}, {"type": "node", "id": 5601069117, "lat": -33.8545464, "lon": 151.1862976, "tags": {"amenity": "ferry_terminal", "ferry": "yes", "name": "Balmain", "public_transport": "station", "url": "https://transportnsw.info/routes/details/sydney-ferries/f3/090F3", "wheelchair": "yes", "wikidata": "Q4852350", "wikipedia": "en:Balmain ferry wharf"}}, {"type": "node", "id": 5601091629, "lat": -33.8681133, "lon": 151.1988159, "tags": {"amenity": "ferry_terminal", "ferry": "yes", "name": "Pyrmont Bay Wharf", "public_transport": "station"}}, {"type": "node", "id": 5601101452, "lat": -33.8689893, "lon": 151.2012782, "tags": {"amenity": "ferry_terminal", "ferry": "yes", "name": "Darling Harbour Wharf 9", "public_transport": "station"}}, {"type": "node", "id": 5601109475, "lat": -33.8661316, "lon": 151.2007061, "tags": {"amenity": "ferry_terminal", "ferry": "yes", "name": "Darling Harbour Wharf 1", "public_transport": "station"}}, {"type": "node", "id": 5692088706, "lat": -33.9103059, "lon": 151.1400503, "tags": {"internet_access": "no", "light_rail": "yes", "name": "Dulwich Hill", "public_transport": "station", "railway": "station", "station": "light_rail", "wheelchair": "yes", "wikidata": "Q5313548"}}, {"type": "node", "id": 5692088707, "lat": -33.9050316, "lon": 151.1390454, "tags": {"light_rail": "yes", "name": "Dulwich Grove", "public_transport": "station", "railway": "station", "station": "light_rail", "wheelchair": "yes"}}, {"type": "node", "id": 5692088708, "lat": -33.9018878, "lon": 151.1381029, "tags": {"light_rail": "yes", "name": "Arlington", "public_transport": "station", "railway": "station", "station": "light_rail", "wheelchair": "yes"}}, {"type": "node", "id": 5692088709, "lat": -33.8987942, "lon": 151.1401465, "tags": {"light_rail": "yes", "name": "Waratah Mills", "public_transport": "station", "railway": "station", "station": "light_rail", "wheelchair": "yes"}}, {"type": "node", "id": 5692088710, "lat": -33.893838, "lon": 151.1434089, "tags": {"light_rail": "yes", "name": "Lewisham West", "public_transport": "station", "railway": "station", "station": "light_rail"}}, {"type": "node", "id": 5692088714, "lat": -33.874167, "lon": 151.1650692, "tags": {"light_rail": "yes", "name": "Lilyfield", "public_transport": "station", "railway": "station", "station": "light_rail"}}, {"type": "node", "id": 5692088717, "lat": -33.871873, "lon": 151.1727216, "tags": {"light_rail": "yes", "name": "Rozelle Bay", "public_transport": "station", "railway": "station", "station": "light_rail"}}, {"type": "node", "id": 5692088718, "lat": -33.8754286, "lon": 151.1787216, "tags": {"light_rail": "yes", "name": "Jubilee Park", "public_transport": "station", "railway": "station", "station": "light_rail", "wheelchair": "yes"}}, {"type": "node", "id": 5692088719, "lat": -33.8772109, "lon": 151.1874262, "tags": {"light_rail": "yes", "name": "Glebe", "public_transport": "station", "railway": "station", "station": "light_rail", "wheelchair": "yes"}}, {"type": "node", "id": 5692088720, "lat": -33.8743907, "lon": 151.1940407, "tags": {"image": "https://commons.wikimedia.org/wiki/File:Wentworth_Park_Lightrail_Stop.jpg", "light_rail": "yes", "name": "Wentworth Park", "public_transport": "station", "railway": "station", "station": "light_rail", "wikidata": "Q7983031", "wikimedia_commons": "File:Wentworth_Park_Lightrail_Stop.jpg"}}, {"type": "node", "id": 5692089421, "lat": -33.8709375, "lon": 151.1924379, "tags": {"light_rail": "yes", "name": "Fish Market", "public_transport": "station", "railway": "station", "station": "light_rail", "wheelchair": "yes"}}, {"type": "node", "id": 5692089422, "lat": -33.8674297, "lon": 151.1920361, "tags": {"light_rail": "yes", "name": "John Street Square", "public_transport": "station", "railway": "station", "station": "light_rail", "wheelchair": "yes"}}, {"type": "node", "id": 5692089423, "lat": -33.8676611, "lon": 151.1952923, "tags": {"light_rail": "yes", "name": "The Star", "public_transport": "station", "railway": "station", "station": "light_rail", "wikidata": "Q5582737"}}, {"type": "node", "id": 5692089424, "lat": -33.8694257, "lon": 151.1975783, "tags": {"light_rail": "yes", "name": "Pyrmont Bay", "public_transport": "station", "railway": "station", "station": "light_rail", "wikidata": "Q7263613"}}, {"type": "node", "id": 5692089425, "lat": -33.8725775, "lon": 151.1980698, "tags": {"light_rail": "yes", "name": "Convention", "public_transport": "station", "railway": "station", "station": "light_rail"}}, {"type": "node", "id": 5692089426, "lat": -33.8772478, "lon": 151.1996527, "tags": {"light_rail": "yes", "name": "Exhibition Centre", "public_transport": "station", "railway": "station", "station": "light_rail", "wheelchair": "yes"}}, {"type": "node", "id": 5692089427, "lat": -33.8793182, "lon": 151.2027158, "tags": {"light_rail": "yes", "name": "Paddy's Markets", "public_transport": "station", "railway": "station", "station": "light_rail", "wheelchair": "yes"}}, {"type": "node", "id": 5692089432, "lat": -33.879824, "lon": 151.2056809, "tags": {"light_rail": "yes", "name": "Capitol Square", "public_transport": "station", "railway": "station", "station": "light_rail", "wheelchair": "yes"}}, {"type": "node", "id": 5692089433, "lat": -33.8824082, "lon": 151.2067234, "tags": {"light_rail": "yes", "name": "Central", "public_transport": "station", "railway": "station", "station": "light_rail"}}, {"type": "node", "id": 5813592754, "lat": -33.8831534, "lon": 151.2038681}, {"type": "node", "id": 5813592755, "lat": -33.8832071, "lon": 151.2038438}, {"type": "node", "id": 5813592756, "lat": -33.8834805, "lon": 151.2035936}, {"type": "node", "id": 5833641513, "lat": -33.8617088, "lon": 151.1862661, "tags": {"amenity": "ferry_terminal", "ferry": "yes", "name": "White Bay Cruise Terminal", "operator": "Captain Cook", "public_transport": "station"}}, {"type": "node", "id": 5837202912, "lat": -33.8641877, "lon": 151.2004227, "tags": {"amenity": "ferry_terminal", "ferry": "yes", "name": "Barangaroo, Wharf 1, Sida A", "public_transport": "station", "source": "local knowledge;inspection"}}, {"type": "node", "id": 5998958517, "lat": -33.8460193, "lon": 151.070525}, {"type": "node", "id": 5998958518, "lat": -33.8460514, "lon": 151.070586}, {"type": "node", "id": 5998958519, "lat": -33.8461522, "lon": 151.0706605}, {"type": "node", "id": 5998958520, "lat": -33.8462421, "lon": 151.0706695}, {"type": "node", "id": 5998958521, "lat": -33.8470062, "lon": 151.0683992}, {"type": "node", "id": 5998958522, "lat": -33.8468669, "lon": 151.0683532}, {"type": "node", "id": 5998958523, "lat": -33.8467964, "lon": 151.0683798}, {"type": "node", "id": 5998958524, "lat": -33.847056, "lon": 151.0684718}, {"type": "node", "id": 6097699672, "lat": -33.8915848, "lon": 151.1986077, "tags": {"exit": "yes", "layer": "1"}}, {"type": "node", "id": 6139558537, "lat": -33.7862222, "lon": 151.2669164}, {"type": "node", "id": 6139558553, "lat": -33.7862131, "lon": 151.2668655}, {"type": "node", "id": 6139558554, "lat": -33.7863201, "lon": 151.2668346}, {"type": "node", "id": 6139558555, "lat": -33.7863296, "lon": 151.2668842}, {"type": "node", "id": 6269131075, "lat": -33.8918425, "lon": 151.1996059}, {"type": "node", "id": 6344253783, "lat": -33.7943256, "lon": 151.137764}, {"type": "node", "id": 6344253885, "lat": -33.7949042, "lon": 151.1379103}, {"type": "node", "id": 6344253891, "lat": -33.7944051, "lon": 151.138168}, {"type": "node", "id": 6344253892, "lat": -33.7945232, "lon": 151.1377996}, {"type": "node", "id": 6344253895, "lat": -33.7778526, "lon": 151.1192487}, {"type": "node", "id": 6344253949, "lat": -33.7848033, "lon": 151.1275136}, {"type": "node", "id": 6344253951, "lat": -33.7945704, "lon": 151.1380215}, {"type": "node", "id": 6344253961, "lat": -33.7948556, "lon": 151.1376921}, {"type": "node", "id": 6344253968, "lat": -33.7766156, "lon": 151.1175198}, {"type": "node", "id": 6344253978, "lat": -33.7947831, "lon": 151.1386204}, {"type": "node", "id": 6344253987, "lat": -33.7939319, "lon": 151.1371526}, {"type": "node", "id": 6344253995, "lat": -33.794554, "lon": 151.1388352}, {"type": "node", "id": 6344254005, "lat": -33.7947271, "lon": 151.1387286}, {"type": "node", "id": 6344254027, "lat": -33.7948492, "lon": 151.1389168}, {"type": "node", "id": 6344254029, "lat": -33.7854531, "lon": 151.1290568}, {"type": "node", "id": 6344254063, "lat": -33.794172, "lon": 151.137076}, {"type": "node", "id": 6344254066, "lat": -33.7845286, "lon": 151.1278081}, {"type": "node", "id": 6344254073, "lat": -33.7946728, "lon": 151.1387461}, {"type": "node", "id": 6344254076, "lat": -33.7945025, "lon": 151.1377068}, {"type": "node", "id": 6344254077, "lat": -33.7946833, "lon": 151.1387934}, {"type": "node", "id": 6344254092, "lat": -33.7943761, "lon": 151.1390715}, {"type": "node", "id": 6344254097, "lat": -33.7945908, "lon": 151.138108}, {"type": "node", "id": 6344254099, "lat": -33.7782117, "lon": 151.1188768}, {"type": "node", "id": 6344254123, "lat": -33.7769747, "lon": 151.1171479}, {"type": "node", "id": 6344254130, "lat": -33.7947083, "lon": 151.1386445}, {"type": "node", "id": 6344254139, "lat": -33.7857278, "lon": 151.1287624}, {"type": "node", "id": 6353262355, "lat": -33.8848417, "lon": 151.2052317}, {"type": "node", "id": 6353271764, "lat": -33.8849513, "lon": 151.2054313}, {"type": "node", "id": 6361470513, "lat": -33.8831964, "lon": 151.2069774}, {"type": "node", "id": 6361485697, "lat": -33.8851417, "lon": 151.2057888}, {"type": "node", "id": 6361485698, "lat": -33.8850571, "lon": 151.2056775}, {"type": "node", "id": 6361485699, "lat": -33.8846351, "lon": 151.2048447}, {"type": "node", "id": 6361485700, "lat": -33.8855191, "lon": 151.2040173}, {"type": "node", "id": 6361485701, "lat": -33.8854526, "lon": 151.2038228}, {"type": "node", "id": 6361485702, "lat": -33.8832851, "lon": 151.2073949}, {"type": "node", "id": 6361485703, "lat": -33.8836075, "lon": 151.2081492}, {"type": "node", "id": 6361485704, "lat": -33.8849212, "lon": 151.2071836}, {"type": "node", "id": 6361485705, "lat": -33.8854434, "lon": 151.2068819}, {"type": "node", "id": 6361485706, "lat": -33.8855642, "lon": 151.2067873}, {"type": "node", "id": 6497471265, "lat": -33.7974806, "lon": 151.180939, "tags": {"layer": "1", "name": "Chatswood", "network": "Sydney Trains", "network:wikidata": "Q7660181", "operator": "Sydney Trains", "operator:wikidata": "Q7660181", "public_transport": "station", "railway": "station", "station": "subway", "subway": "yes", "wheelchair": "yes", "wikidata": "Q5087801", "wikipedia": "en:Chatswood railway station"}}, {"type": "node", "id": 6503400516, "lat": -33.7728628, "lon": 151.0820902, "tags": {"internet_access": "no", "name": "Epping", "network": "Sydney Trains", "network:wikidata": "Q7660181", "operator": "Sydney Trains", "operator:wikidata": "Q7660181", "public_transport": "station", "railway": "station", "station": "subway", "subway": "yes", "train": "yes", "wheelchair": "yes", "wikidata": "Q5383901", "wikipedia": "en:Epping railway station, Sydney"}}, {"type": "node", "id": 6544860724, "lat": -33.8159137, "lon": 151.0900998, "tags": {"name": "Meadowbank", "public_transport": "station", "railway": "station", "wheelchair": "yes", "wikidata": "Q6803312", "wikipedia": "en:Meadowbank railway station, Sydney"}}, {"type": "node", "id": 6553012201, "lat": -33.9171961, "lon": 151.0887104, "tags": {"internet_access": "no", "name": "Belmore", "operator": "Sydney Trains", "public_transport": "station", "railway": "station", "wikidata": "Q4884450"}}, {"type": "node", "id": 6553012213, "lat": -33.7843685, "lon": 151.1775506, "tags": {"name": "Roseville", "operator": "Sydney Trains", "operator:wikidata": "Q7660181", "public_transport": "station", "railway": "station", "wheelchair": "no", "wikidata": "Q7368745", "wikipedia": "en:Roseville railway station, Sydney"}}, {"type": "node", "id": 6553012216, "lat": -33.7756095, "lon": 151.1692144, "tags": {"name": "Lindfield", "operator": "Sydney Trains", "public_transport": "station", "railway": "station", "wheelchair": "yes", "wikidata": "Q6552466", "wikipedia": "en:Lindfield railway station"}}, {"type": "node", "id": 6553012244, "lat": -33.8832296, "lon": 151.1155955, "tags": {"name": "Croydon", "operator": "Sydney Trains", "public_transport": "station", "railway": "station", "source": "bing", "wheelchair": "yes", "wikidata": "Q5189722", "wikipedia": "en:Croydon railway station, Sydney"}}, {"type": "node", "id": 6553012245, "lat": -33.8590236, "lon": 151.0881331, "tags": {"name": "North Strathfield", "operator": "Sydney Trains", "public_transport": "station", "railway": "station", "source": "bing", "wheelchair": "no", "wikidata": "Q7056879", "wikipedia": "en:North Strathfield railway station"}}, {"type": "node", "id": 6560219244, "lat": -33.9231912, "lon": 151.1872655, "tags": {"location": "underground", "name": "Mascot", "operator": "Sydney Trains", "public_transport": "station", "railway": "station", "wheelchair": "yes", "wikidata": "Q6782892", "wikipedia": "en:Mascot railway station"}}, {"type": "node", "id": 6560219252, "lat": -33.9475765, "lon": 151.0702555, "tags": {"name": "Narwee", "operator": "Sydney Trains", "public_transport": "station", "railway": "station", "source": "bing", "wikidata": "Q6966519", "wikipedia": "en:Narwee railway station"}}, {"type": "node", "id": 6560219259, "lat": -33.9543358, "lon": 150.9978399, "tags": {"name": "Panania", "operator": "Sydney Trains", "public_transport": "station", "railway": "station", "source": "bing", "wikidata": "Q7130031", "wikipedia": "en:Panania railway station"}}, {"type": "node", "id": 6560219263, "lat": -33.9618532, "lon": 150.9846273, "tags": {"name": "East Hills", "operator": "Sydney Trains", "public_transport": "station", "railway": "station", "source": "bing", "wheelchair": "yes", "wikidata": "Q5328615", "wikipedia": "en:East Hills railway station"}}, {"type": "node", "id": 6571195040, "lat": -33.9147428, "lon": 151.1661069, "tags": {"name": "Sydenham", "operator": "Sydney Trains", "public_transport": "station", "railway": "station", "source": "bing", "wikidata": "Q7659790"}}, {"type": "node", "id": 6576039170, "lat": -33.9375479, "lon": 151.1134896, "tags": {"internet_access": "no", "name": "Bexley North", "operator": "Sydney Trains", "public_transport": "station", "railway": "station", "wikidata": "Q4899801", "wikipedia": "en:Bexley North railway station"}}, {"type": "node", "id": 6576039172, "lat": -33.9490787, "lon": 151.0810471, "tags": {"name": "Beverly Hills", "operator": "Sydney Trains", "public_transport": "station", "railway": "station", "source:name": "knowledge", "wikidata": "Q4899569", "wikipedia": "en:Beverly Hills railway station"}}, {"type": "node", "id": 6601585113, "lat": -33.8678177, "lon": 151.210759, "tags": {"location": "underground", "name": "Martin Place", "operator": "Sydney Trains", "public_transport": "station", "railway": "station", "train": "yes", "wheelchair": "yes", "wikidata": "Q6776386", "wikipedia": "en:Martin Place railway station"}}, {"type": "node", "id": 6615213260, "lat": -33.9201175, "lon": 151.0758653, "tags": {"name": "Lakemba", "public_transport": "station", "railway": "station", "train": "yes", "wikidata": "Q6478868"}}, {"type": "node", "id": 6616036405, "lat": -33.8233375, "lon": 151.0076541, "tags": {"name": "Harris Park", "operator": "Sydney Trains", "public_transport": "station", "railway": "station", "wheelchair": "yes", "wikidata": "Q13219741"}}, {"type": "node", "id": 6616036413, "lat": -33.8084959, "lon": 150.9880176, "tags": {"name": "Westmead", "operator": "Sydney Trains", "public_transport": "station", "railway": "station", "wikidata": "Q7989079", "wikipedia": "en:Westmead railway station"}}, {"type": "node", "id": 6618892734, "lat": -33.8668117, "lon": 151.0864608, "tags": {"internet_access": "no", "name": "Homebush", "operator": "Sydney Trains", "public_transport": "station", "railway": "station", "train": "yes", "wheelchair": "yes", "wikidata": "Q13219786"}}, {"type": "node", "id": 6618892735, "lat": -33.894501, "lon": 151.1639086, "tags": {"name": "Stanmore", "operator": "Sydney Trains", "public_transport": "station", "railway": "station", "source": "bing", "wikidata": "Q7600107"}}, {"type": "node", "id": 6618892736, "lat": -33.8933685, "lon": 151.1476275, "tags": {"name": "Lewisham", "operator": "Sydney Trains", "public_transport": "station", "railway": "station", "source": "bing", "wikidata": "Q6537342"}}, {"type": "node", "id": 6620581678, "lat": -34.0476621, "lon": 151.1440873, "tags": {"name": "Woolooware", "operator": "Sydney Trains", "public_transport": "station", "railway": "station", "source:name": "survey", "wheelchair": "yes", "wikidata": "Q8033909", "wikipedia": "en:Woolooware railway station"}}, {"type": "node", "id": 6620581680, "lat": -34.0415962, "lon": 151.1227396, "tags": {"name": "Caringbah", "operator": "Sydney Trains", "public_transport": "station", "railway": "station", "wheelchair": "yes", "wikidata": "Q5039635", "wikipedia": "en:Caringbah railway station"}}, {"type": "node", "id": 6620581683, "lat": -34.0348927, "lon": 151.0855146, "tags": {"name": "Gymea", "operator": "Sydney Trains", "public_transport": "station", "railway": "station", "source": "bing", "wheelchair": "yes", "wikidata": "Q5624155", "wikipedia": "en:Gymea railway station"}}, {"type": "node", "id": 6620600087, "lat": -34.0557283, "lon": 151.1514553, "tags": {"name": "Cronulla", "operator": "Sydney Trains", "public_transport": "station", "railway": "station", "wheelchair": "yes", "wikidata": "Q5187751", "wikipedia": "en:Cronulla railway station"}}, {"type": "node", "id": 6620600094, "lat": -33.9453399, "lon": 151.140407, "tags": {"name": "Banksia", "operator": "Sydney Trains", "public_transport": "station", "railway": "station", "wikidata": "Q4856687"}}, {"type": "node", "id": 6620600106, "lat": -33.9518729, "lon": 151.1368534, "tags": {"name": "Rockdale", "operator": "Sydney Trains", "public_transport": "station", "railway": "station", "wheelchair": "yes", "wikidata": "Q7355031", "wikipedia": "en:Rockdale railway station"}}, {"type": "node", "id": 6620600130, "lat": -33.936435, "lon": 151.1473489, "tags": {"name": "Arncliffe", "operator": "Sydney Trains", "public_transport": "station", "railway": "station", "wikidata": "Q4794511", "wikipedia": "en:Arncliffe railway station"}}, {"type": "node", "id": 6620600140, "lat": -33.9805174, "lon": 151.0790256, "tags": {"name": "Oatley", "operator": "Sydney Trains", "public_transport": "station", "railway": "station", "source": "bing", "wheelchair": "yes", "wikidata": "Q7074501", "wikipedia": "en:Oatley railway station"}}, {"type": "node", "id": 6620600145, "lat": -34.015952, "lon": 151.06463, "tags": {"name": "Jannali", "operator": "Sydney Trains", "public_transport": "station", "railway": "station", "wikidata": "Q6155087", "wikipedia": "en:Jannali railway station"}}, {"type": "node", "id": 6620600147, "lat": -34.0316252, "lon": 151.0572738, "tags": {"name": "Sutherland", "operator": "Sydney Trains", "public_transport": "station", "railway": "station", "wikidata": "Q2866507"}}, {"type": "node", "id": 6627573507, "lat": -33.8719154, "lon": 151.0322942, "tags": {"name": "Berala", "operator": "Sydney Trains", "public_transport": "station", "railway": "station", "source": "bing", "wheelchair": "no", "wikidata": "Q4890984"}}, {"type": "node", "id": 6627573510, "lat": -33.8828393, "lon": 151.0242784, "tags": {"name": "Regents Park", "operator": "Sydney Trains", "public_transport": "station", "railway": "station", "source": "bing", "wheelchair": "yes", "wikidata": "Q7308134"}}, {"type": "node", "id": 6627573522, "lat": -33.917844, "lon": 151.0346402, "tags": {"name": "Bankstown", "operator": "Sydney Trains", "public_transport": "station", "railway": "station", "source": "bing", "wheelchair": "limited", "wikidata": "Q4856790"}}, {"type": "node", "id": 6627573530, "lat": -33.9105708, "lon": 151.1026511, "tags": {"name": "Campsie", "operator": "Sydney Trains", "public_transport": "station", "railway": "station", "source": "bing", "wikidata": "Q5028550"}}, {"type": "node", "id": 6627573533, "lat": -33.9119882, "lon": 151.1186885, "tags": {"name": "Canterbury", "operator": "Sydney Trains", "public_transport": "station", "railway": "station", "wikidata": "Q5033717", "wikipedia": "en:Canterbury railway station, Sydney"}}, {"type": "node", "id": 6627573536, "lat": -33.9110089, "lon": 151.140913, "tags": {"name": "Dulwich Hill", "operator": "Sydney Trains", "public_transport": "station", "railway": "station", "source": "bing"}}, {"type": "node", "id": 6627573542, "lat": -33.9009517, "lon": 151.1852676, "tags": {"internet_access": "no", "name": "Erskineville", "network": "Sydney Trains", "operator": "Sydney Trains", "public_transport": "station", "railway": "station", "train": "yes", "wikidata": "Q5395859"}}, {"type": "node", "id": 6804603708, "lat": -33.8683171, "lon": 151.2012318, "tags": {"amenity": "ferry_terminal", "ferry": "yes", "name": "Darling Harbour, King St Wharf 7", "public_transport": "station", "wheelchair": "yes"}}, {"type": "node", "id": 6927027600, "lat": -33.8789808, "lon": 151.2054385}, {"type": "node", "id": 6927027601, "lat": -33.8789944, "lon": 151.2055522}, {"type": "node", "id": 6927027602, "lat": -33.8782466, "lon": 151.205682}, {"type": "node", "id": 6927027603, "lat": -33.878233, "lon": 151.2055683}, {"type": "node", "id": 6927047409, "lat": -33.8816955, "lon": 151.2056364}, {"type": "node", "id": 6927047410, "lat": -33.8815917, "lon": 151.2057697}, {"type": "node", "id": 6927047411, "lat": -33.8812013, "lon": 151.2050568}, {"type": "node", "id": 6927047412, "lat": -33.8813246, "lon": 151.2049588}, {"type": "node", "id": 6927104280, "lat": -33.8931175, "lon": 151.2215802}, {"type": "node", "id": 6927104281, "lat": -33.8930857, "lon": 151.2218458}, {"type": "node", "id": 6927104282, "lat": -33.8941435, "lon": 151.2220298}, {"type": "node", "id": 6927104283, "lat": -33.8941753, "lon": 151.2217642}, {"type": "node", "id": 6927135988, "lat": -33.9171398, "lon": 151.2409496}, {"type": "node", "id": 6927135989, "lat": -33.9172276, "lon": 151.2409317}, {"type": "node", "id": 6927135990, "lat": -33.9171172, "lon": 151.2401469}, {"type": "node", "id": 6927135991, "lat": -33.9170295, "lon": 151.2401649}, {"type": "node", "id": 6928903836, "lat": -33.8883011, "lon": 151.2121571}, {"type": "node", "id": 6928903837, "lat": -33.8882027, "lon": 151.2122255}, {"type": "node", "id": 6928903838, "lat": -33.8878964, "lon": 151.2115865}, {"type": "node", "id": 6928903839, "lat": -33.8879948, "lon": 151.211518}, {"type": "node", "id": 6928903840, "lat": -33.9054025, "lon": 151.2292424}, {"type": "node", "id": 6928903841, "lat": -33.9053104, "lon": 151.2292961}, {"type": "node", "id": 6928903842, "lat": -33.9049974, "lon": 151.2285176}, {"type": "node", "id": 6928903843, "lat": -33.9050895, "lon": 151.2284638}, {"type": "node", "id": 6928903844, "lat": -33.9101717, "lon": 151.2349891}, {"type": "node", "id": 6928903845, "lat": -33.9107665, "lon": 151.2355115}, {"type": "node", "id": 6928903846, "lat": -33.9108329, "lon": 151.2354018}, {"type": "node", "id": 6928903847, "lat": -33.9102381, "lon": 151.2348793}, {"type": "node", "id": 6928903848, "lat": -33.9165082, "lon": 151.2359128}, {"type": "node", "id": 6928903849, "lat": -33.916372, "lon": 151.2359425}, {"type": "node", "id": 6928903850, "lat": -33.9162552, "lon": 151.2351638}, {"type": "node", "id": 6928903851, "lat": -33.9163914, "lon": 151.2351342}, {"type": "node", "id": 6928981009, "lat": -33.8615679, "lon": 151.2095771}, {"type": "node", "id": 6928981010, "lat": -33.8614086, "lon": 151.2095978}, {"type": "node", "id": 6928981011, "lat": -33.8614921, "lon": 151.2105287}, {"type": "node", "id": 6928981012, "lat": -33.8616513, "lon": 151.210508}, {"type": "node", "id": 6928987121, "lat": -33.8741684, "lon": 151.2067619}, {"type": "node", "id": 6928987122, "lat": -33.8741854, "lon": 151.2069354}, {"type": "node", "id": 6928987123, "lat": -33.8735466, "lon": 151.2070262}, {"type": "node", "id": 6928987124, "lat": -33.8735296, "lon": 151.2068528}, {"type": "node", "id": 6928987125, "lat": -33.8712522, "lon": 151.2068659}, {"type": "node", "id": 6928987126, "lat": -33.8712481, "lon": 151.2070486}, {"type": "node", "id": 6928987127, "lat": -33.8718881, "lon": 151.2070692}, {"type": "node", "id": 6928987128, "lat": -33.8718921, "lon": 151.2068865}, {"type": "node", "id": 6928987129, "lat": -33.8663425, "lon": 151.2071276}, {"type": "node", "id": 6928987130, "lat": -33.8663549, "lon": 151.2072934}, {"type": "node", "id": 6928987131, "lat": -33.866992, "lon": 151.2072242}, {"type": "node", "id": 6928987132, "lat": -33.8669796, "lon": 151.2070584}, {"type": "node", "id": 6928987133, "lat": -33.8644563, "lon": 151.2073712}, {"type": "node", "id": 6928987134, "lat": -33.8644632, "lon": 151.2074809}, {"type": "node", "id": 6928987135, "lat": -33.8637956, "lon": 151.2075423}, {"type": "node", "id": 6928987136, "lat": -33.8637887, "lon": 151.2074326}, {"type": "node", "id": 6929001181, "lat": -33.8839946, "lon": 151.2079485}, {"type": "node", "id": 6929001182, "lat": -33.8839064, "lon": 151.2077824}, {"type": "node", "id": 6929001183, "lat": -33.8844334, "lon": 151.2073766}, {"type": "node", "id": 6929001184, "lat": -33.8845216, "lon": 151.2075427}, {"type": "node", "id": 6946691806, "lat": -33.8853836, "lon": 151.2069134}, {"type": "node", "id": 7319312207, "lat": -33.8978844, "lon": 151.1787396}, {"type": "node", "id": 7319312211, "lat": -33.8980173, "lon": 151.1793993}, {"type": "node", "id": 7319312212, "lat": -33.8979898, "lon": 151.1790173}, {"type": "node", "id": 7319312213, "lat": -33.8979574, "lon": 151.1789176}, {"type": "node", "id": 7423997739, "lat": -33.8713832, "lon": 151.1852378, "tags": {"amenity": "ferry_terminal", "ferry": "yes", "name": "Blackwattle Bay Wharf", "public_transport": "station"}}, {"type": "node", "id": 7423997740, "lat": -33.8646394, "lon": 151.1909957, "tags": {"amenity": "ferry_terminal", "ferry": "yes", "name": "Pirrama Park Wharf", "public_transport": "station"}}, {"type": "node", "id": 7424039135, "lat": -33.8413383, "lon": 151.1743617, "tags": {"amenity": "ferry_terminal", "ferry": "yes", "name": "Clarke Road Wharf", "public_transport": "station"}}, {"type": "node", "id": 7564340997, "lat": -33.8833179, "lon": 151.2072059}, {"type": "node", "id": 7567499350, "lat": -33.8832211, "lon": 151.205274}, {"type": "node", "id": 7567499351, "lat": -33.882775, "lon": 151.2055948}, {"type": "node", "id": 7567499352, "lat": -33.8827606, "lon": 151.2055901}, {"type": "node", "id": 7567499362, "lat": -33.8821804, "lon": 151.2060989}, {"type": "node", "id": 7567499367, "lat": -33.8833813, "lon": 151.2051475}, {"type": "node", "id": 7677850959, "lat": -33.9159516, "lon": 151.2256719}, {"type": "node", "id": 7677850960, "lat": -33.9159382, "lon": 151.2257937}, {"type": "node", "id": 7677850961, "lat": -33.9173982, "lon": 151.2261373}, {"type": "node", "id": 7677850962, "lat": -33.917413, "lon": 151.2260154}, {"type": "node", "id": 7677850974, "lat": -33.9159823, "lon": 151.225804}, {"type": "node", "id": 7677850979, "lat": -33.9160923, "lon": 151.2257049}, {"type": "node", "id": 7677851077, "lat": -33.9050449, "lon": 151.2239798}, {"type": "node", "id": 7677851078, "lat": -33.9050537, "lon": 151.2241025}, {"type": "node", "id": 7677851079, "lat": -33.906207, "lon": 151.2239206}, {"type": "node", "id": 7677851080, "lat": -33.9061982, "lon": 151.2238127}, {"type": "node", "id": 7677851081, "lat": -33.9051878, "lon": 151.2239596}, {"type": "node", "id": 7678533172, "lat": -33.9089315, "lon": 151.2233538}, {"type": "node", "id": 7678533173, "lat": -33.9089448, "lon": 151.2234838}, {"type": "node", "id": 7678533174, "lat": -33.909893, "lon": 151.2233779}, {"type": "node", "id": 7678533175, "lat": -33.9098731, "lon": 151.2232098}, {"type": "node", "id": 7678563393, "lat": -33.9213836, "lon": 151.2267384}, {"type": "node", "id": 7678563394, "lat": -33.9213735, "lon": 151.2268669}, {"type": "node", "id": 7678563395, "lat": -33.9221828, "lon": 151.2270004}, {"type": "node", "id": 7678563396, "lat": -33.9221989, "lon": 151.2268718}, {"type": "node", "id": 7678563402, "lat": -33.9214085, "lon": 151.2267425}, {"type": "node", "id": 7678563739, "lat": -33.9253737, "lon": 151.2299223}, {"type": "node", "id": 7678563740, "lat": -33.9255896, "lon": 151.2296996}, {"type": "node", "id": 7678563741, "lat": -33.9251461, "lon": 151.2290301}, {"type": "node", "id": 7678563742, "lat": -33.9246401, "lon": 151.228346}, {"type": "node", "id": 7678563743, "lat": -33.9244858, "lon": 151.228492}, {"type": "node", "id": 7678563744, "lat": -33.9246497, "lon": 151.2288494}, {"type": "node", "id": 7856197568, "lat": -33.8917735, "lon": 151.1994337}, {"type": "node", "id": 7856197571, "lat": -33.8920338, "lon": 151.1992438}, {"type": "node", "id": 7856197577, "lat": -33.8921274, "lon": 151.1991671}, {"type": "node", "id": 8151065419, "lat": -33.8678523, "lon": 151.2011851, "tags": {"amenity": "ferry_terminal", "ferry": "yes", "name": "Darling Harbour, King St Wharf 6", "public_transport": "station"}}, {"type": "node", "id": 8151065420, "lat": -33.867241, "lon": 151.2010089, "tags": {"amenity": "ferry_terminal", "ferry": "yes", "name": "Darling Harbour, King St Wharf 4", "public_transport": "station"}}, {"type": "node", "id": 8151065421, "lat": -33.866485, "lon": 151.2009258, "tags": {"amenity": "ferry_terminal", "ferry": "yes", "name": "Darling Harbour, King St Wharf 2", "public_transport": "station"}}, {"type": "node", "id": 8151065422, "lat": -33.8684752, "lon": 151.2012318, "tags": {"amenity": "ferry_terminal", "ferry": "yes", "name": "Darling Harbour, King St Wharf 8", "public_transport": "station"}}, {"type": "node", "id": 8273117734, "lat": -34.0463067, "lon": 151.0519038, "tags": {"internet_access": "no", "name": "Railway Square", "network": "Sydney Tram Museum", "public_transport": "station", "tram": "yes"}}, {"type": "node", "id": 8273117735, "lat": -34.0460338, "lon": 151.051769, "tags": {"internet_access": "no", "name": "Lakewood Park", "network": "Sydney Tram Museum", "public_transport": "station", "tram": "yes"}}, {"type": "node", "id": 8273117736, "lat": -34.0494796, "lon": 151.0515694, "tags": {"name": "Princes Hwy", "network": "Sydney Tram Museum", "public_transport": "station", "tram": "yes"}}, {"type": "node", "id": 8744217969, "lat": -33.8930098, "lon": 151.1975018}, {"type": "node", "id": 8751406478, "lat": -33.8917166, "lon": 151.1994727}, {"type": "node", "id": 8766527072, "lat": -33.8917857, "lon": 151.1994636, "tags": {"access": "customers", "door": "yes"}}, {"type": "node", "id": 9072306984, "lat": -34.0319787, "lon": 151.0566226}, {"type": "node", "id": 9072306985, "lat": -34.0320082, "lon": 151.056683}, {"type": "node", "id": 9072306986, "lat": -34.0324372, "lon": 151.0563752}, {"type": "node", "id": 9072306987, "lat": -34.0324088, "lon": 151.0563175}, {"type": "node", "id": 9171119665, "lat": -33.8979601, "lon": 151.1797885}, {"type": "node", "id": 9171119680, "lat": -33.8979016, "lon": 151.1793996}, {"type": "node", "id": 9171119687, "lat": -33.8979692, "lon": 151.1789407}, {"type": "node", "id": 9171119688, "lat": -33.8979857, "lon": 151.1789916}, {"type": "node", "id": 9181496069, "lat": -33.8087193, "lon": 151.1847306}, {"type": "node", "id": 9181496070, "lat": -33.8086424, "lon": 151.1848099}, {"type": "node", "id": 9181496073, "lat": -33.8086505, "lon": 151.1848211}, {"type": "node", "id": 9181496074, "lat": -33.8087437, "lon": 151.1847501, "tags": {"door": "yes", "entrance": "yes", "level": "0"}}, {"type": "node", "id": 9181496075, "lat": -33.8086552, "lon": 151.1848441, "tags": {"door": "yes", "entrance": "yes", "level": "1"}}, {"type": "node", "id": 9181496076, "lat": -33.8086435, "lon": 151.1848282, "tags": {"door": "yes", "entrance": "yes", "level": "2"}}, {"type": "node", "id": 9181496077, "lat": -33.8087312, "lon": 151.1847346, "tags": {"door": "yes", "entrance": "yes", "level": "2"}}, {"type": "node", "id": 9181496078, "lat": -33.8086598, "lon": 151.1848501, "tags": {"amenity": "ticket_validator", "level": "1"}}, {"type": "node", "id": 9181496082, "lat": -33.8085108, "lon": 151.1846213}, {"type": "node", "id": 9181496083, "lat": -33.8084941, "lon": 151.184599}, {"type": "node", "id": 9181496084, "lat": -33.8084825, "lon": 151.1845834}, {"type": "node", "id": 9181496085, "lat": -33.8084614, "lon": 151.1846063}, {"type": "node", "id": 9181496086, "lat": -33.808473, "lon": 151.1846218}, {"type": "node", "id": 9181496087, "lat": -33.8084894, "lon": 151.1846437}, {"type": "node", "id": 9189367314, "lat": -33.8086344, "lon": 151.1848866}, {"type": "node", "id": 9189367315, "lat": -33.8085167, "lon": 151.1847169}, {"type": "node", "id": 9189367316, "lat": -33.8087587, "lon": 151.1850751}, {"type": "node", "id": 9189377518, "lat": -33.8088688, "lon": 151.1852486}, {"type": "node", "id": 9189377529, "lat": -33.8089428, "lon": 151.1851864}, {"type": "node", "id": 9189377532, "lat": -33.8088298, "lon": 151.1850115}, {"type": "node", "id": 9189377534, "lat": -33.8086951, "lon": 151.1848238}, {"type": "node", "id": 9189377535, "lat": -33.8085712, "lon": 151.1846662}, {"type": "node", "id": 9385099964, "lat": -33.8941577, "lon": 151.2219109}, {"type": "node", "id": 9385099965, "lat": -33.893102, "lon": 151.22171}, {"type": "node", "id": 9385099970, "lat": -33.8931095, "lon": 151.2216468}, {"type": "node", "id": 9385099971, "lat": -33.8941716, "lon": 151.2217954}, {"type": "node", "id": 9518193591, "lat": -33.8643909, "lon": 151.200387, "tags": {"amenity": "ferry_terminal", "ferry": "yes", "name": "Barangaroo, Wharf 1, Side B", "public_transport": "station", "source": "local knowledge;inspection"}}, {"type": "node", "id": 9518262819, "lat": -33.8647751, "lon": 151.2005193, "tags": {"amenity": "ferry_terminal", "ferry": "yes", "name": "Barangaroo, Wharf 2, Side A", "public_transport": "station", "source": "local knowledge;inspection"}}, {"type": "node", "id": 9518262820, "lat": -33.8649843, "lon": 151.2004831, "tags": {"amenity": "ferry_terminal", "ferry": "yes", "name": "Barangaroo, Wharf 2, Side B", "public_transport": "station", "source": "local knowledge;inspection"}}, {"type": "node", "id": 9627805272, "lat": -33.8751048, "lon": 151.2101036}, {"type": "node", "id": 9627805273, "lat": -33.8751493, "lon": 151.2102396}, {"type": "node", "id": 9627805274, "lat": -33.8750409, "lon": 151.2101354}, {"type": "node", "id": 9627823432, "lat": -33.8766334, "lon": 151.2097193}, {"type": "node", "id": 9627823433, "lat": -33.8763083, "lon": 151.2099607}, {"type": "node", "id": 9627823434, "lat": -33.876428, "lon": 151.2099052}, {"type": "node", "id": 9627823477, "lat": -33.8764544, "lon": 151.209893}, {"type": "node", "id": 9627823478, "lat": -33.8764798, "lon": 151.20986}, {"type": "node", "id": 9742400296, "lat": -33.8412253, "lon": 151.2072141}, {"type": "node", "id": 9742400298, "lat": -33.8412788, "lon": 151.2072029}, {"type": "node", "id": 9742400299, "lat": -33.8412472, "lon": 151.2073683}, {"type": "node", "id": 9742400301, "lat": -33.8413008, "lon": 151.2073577}, {"type": "node", "id": 9742423324, "lat": -33.8412977, "lon": 151.2075121}, {"type": "node", "id": 9742423325, "lat": -33.841197, "lon": 151.2075316}, {"type": "node", "id": 9742423326, "lat": -33.8411948, "lon": 151.2075356, "tags": {"door": "yes", "entrance": "yes", "level": "0"}}, {"type": "node", "id": 9742423327, "lat": -33.8411971, "lon": 151.2073374}, {"type": "node", "id": 9742423328, "lat": -33.8412339, "lon": 151.2074597, "tags": {"amenity": "ticket_validator", "barrier": "turnstile", "toll": "yes"}}, {"type": "node", "id": 9742423332, "lat": -33.8412948, "lon": 151.2075168, "tags": {"door": "yes", "entrance": "yes", "level": "0"}}, {"type": "node", "id": 9742423345, "lat": -33.8412863, "lon": 151.2074836}, {"type": "node", "id": 9753723273, "lat": -33.8464342, "lon": 151.0703174, "tags": {"entrance": "yes"}}, {"type": "node", "id": 9753723274, "lat": -33.8461126, "lon": 151.0701585, "tags": {"entrance": "yes", "name": "Door E"}}, {"type": "node", "id": 9753723285, "lat": -33.8462065, "lon": 151.0706695}, {"type": "node", "id": 9753723286, "lat": -33.8462807, "lon": 151.0706549}, {"type": "node", "id": 9753723287, "lat": -33.8460836, "lon": 151.07062}, {"type": "node", "id": 9753723288, "lat": -33.8460125, "lon": 151.0705015}, {"type": "node", "id": 9753723289, "lat": -33.8460353, "lon": 151.0705608}, {"type": "node", "id": 9753743734, "lat": -33.8468992, "lon": 151.0683535, "tags": {"entrance": "yes"}}, {"type": "node", "id": 9753743735, "lat": -33.8469463, "lon": 151.0683637}, {"type": "node", "id": 9753743736, "lat": -33.8468337, "lon": 151.0683631}, {"type": "node", "id": 9753743737, "lat": -33.8470355, "lon": 151.0684331}, {"type": "node", "id": 9753743738, "lat": -33.84707, "lon": 151.0685215}, {"type": "node", "id": 9753743739, "lat": -33.8470665, "lon": 151.0685652}, {"type": "node", "id": 9753743757, "lat": -33.8461981, "lon": 151.0699291, "tags": {"entrance": "yes"}}, {"type": "node", "id": 9753743784, "lat": -33.8465148, "lon": 151.0700973, "tags": {"entrance": "yes"}}, {"type": "node", "id": 9753743786, "lat": -33.8466741, "lon": 151.0696621, "tags": {"entrance": "yes"}}, {"type": "node", "id": 9753743788, "lat": -33.8463579, "lon": 151.0695, "tags": {"entrance": "yes"}}, {"type": "node", "id": 9753743806, "lat": -33.8467217, "lon": 151.069532, "tags": {"entrance": "yes"}}, {"type": "node", "id": 9753743818, "lat": -33.8464072, "lon": 151.0693676, "tags": {"entrance": "yes"}}, {"type": "node", "id": 9753743825, "lat": -33.8465058, "lon": 151.0690952, "tags": {"entrance": "yes"}}, {"type": "node", "id": 9753743830, "lat": -33.8466175, "lon": 151.0687933, "tags": {"entrance": "yes"}}, {"type": "node", "id": 9753743835, "lat": -33.8469295, "lon": 151.0689643, "tags": {"entrance": "yes"}}, {"type": "node", "id": 9753743837, "lat": -33.8468181, "lon": 151.0692685, "tags": {"entrance": "yes"}}, {"type": "node", "id": 9780863863, "lat": -33.8704441, "lon": 151.2121147}, {"type": "node", "id": 9780863864, "lat": -33.8707934, "lon": 151.2120627}, {"type": "node", "id": 9780863867, "lat": -33.8707776, "lon": 151.2114956}, {"type": "node", "id": 9780863868, "lat": -33.8707462, "lon": 151.2114962}, {"type": "node", "id": 9780863869, "lat": -33.8707481, "lon": 151.2115852}, {"type": "node", "id": 9780863870, "lat": -33.8703034, "lon": 151.2116689}, {"type": "node", "id": 10172568541, "lat": -33.8979533, "lon": 151.1786935}, {"type": "node", "id": 10203868015, "lat": -33.8830726, "lon": 151.207073}, {"type": "node", "id": 10207286133, "lat": -33.8703548, "lon": 151.2116878}, {"type": "node", "id": 10207318744, "lat": -33.870321, "lon": 151.2116009}, {"type": "node", "id": 10207318745, "lat": -33.8704095, "lon": 151.211634}, {"type": "node", "id": 10207318748, "lat": -33.8704424, "lon": 151.2120989}, {"type": "node", "id": 10207318749, "lat": -33.8707921, "lon": 151.2120479}, {"type": "node", "id": 10207318750, "lat": -33.8707795, "lon": 151.2116271}, {"type": "node", "id": 10211150164, "lat": -33.8827406, "lon": 151.2055897}, {"type": "node", "id": 10211150169, "lat": -33.8841563, "lon": 151.204689}, {"type": "node", "id": 10211150171, "lat": -33.8838232, "lon": 151.2049189}, {"type": "node", "id": 10211150174, "lat": -33.8838337, "lon": 151.2049379}, {"type": "node", "id": 10211150194, "lat": -33.8850437, "lon": 151.2040165}, {"type": "node", "id": 10211150195, "lat": -33.8847546, "lon": 151.204198}, {"type": "node", "id": 10211150198, "lat": -33.8848214, "lon": 151.2051983}, {"type": "node", "id": 10211150214, "lat": -33.8821872, "lon": 151.2060917}, {"type": "node", "id": 10211150215, "lat": -33.8821902, "lon": 151.2061526}, {"type": "node", "id": 10211150216, "lat": -33.8821754, "lon": 151.2061089}, {"type": "node", "id": 10211151217, "lat": -33.8821731, "lon": 151.2061198}, {"type": "node", "id": 10211151218, "lat": -33.8821745, "lon": 151.2061336}, {"type": "node", "id": 10211151219, "lat": -33.8821842, "lon": 151.2061479}, {"type": "node", "id": 10213515070, "lat": -33.8828011, "lon": 151.2072596}, {"type": "node", "id": 10213551838, "lat": -33.883016, "lon": 151.2040231}, {"type": "node", "id": 10213551839, "lat": -33.8830191, "lon": 151.2040388}, {"type": "node", "id": 10241443664, "lat": -33.8831293, "lon": 151.2070292, "tags": {"entrance": "main"}}, {"type": "node", "id": 10241443665, "lat": -33.8830911, "lon": 151.2070587}, {"type": "way", "id": 19003982, "nodes": [196762379, 9753743830, 9753743825, 9753743818, 9753743788, 9753743757, 9753723274, 196762380, 9753723288, 5998958517, 9753723289, 5998958518, 9753723287, 2233347097, 5998958519, 9753723285, 5998958520, 9753723286, 196762381, 9753723273, 9753743784, 9753743786, 9753743806, 9753743837, 9753743835, 196762383, 9753743739, 9753743738, 5998958524, 9753743737, 5998958521, 2233347094, 9753743735, 9753743734, 5998958522, 9753743736, 5998958523, 196762379], "tags": {"alt_name": "Sydney Olympic Park", "building": "train_station", "landuse": "railway", "name": "Olympic Park", "operator": "Sydney Trains", "platforms": "4", "public_transport": "station", "railway": "station", "wikidata": "Q7089111", "wikipedia": "en:Olympic Park railway station, Sydney"}}, {"type": "way", "id": 50940824, "nodes": [649584227, 649584233, 9627823432, 9627823478, 9627823477, 9627823434, 9627823433, 649584236, 3336241890, 9627805274, 9627805272, 9627805273, 649584227], "tags": {"layer": "-2", "location": "underground", "name": "Museum", "operator": "Sydney Trains", "public_transport": "station", "railway": "station", "train": "yes", "wheelchair": "yes", "wikidata": "Q6941132", "wikipedia": "en:Museum railway station"}}, {"type": "way", "id": 142512102, "nodes": [1559579787, 5354226742, 4963103439, 9742400299, 9742400296, 1559579749, 1559579752, 9742400298, 9742400301, 4963103440, 1559579815, 1559579787], "tags": {"area": "yes", "covered": "yes", "layer": "-2", "level": "-2", "network": "CityRail", "operator": "RailCorp", "public_transport": "platform", "railway": "platform", "ref": "3;4", "tactile_paving": "yes", "train": "yes", "tunnel": "yes", "wheelchair": "yes"}}, {"type": "way", "id": 193413103, "nodes": [4887412745, 2039208648], "tags": {"highway": "footway", "level": "-1"}}, {"type": "way", "id": 206811243, "nodes": [2168601977, 2168601914, 2168601938], "tags": {"foot": "yes", "highway": "footway", "layer": "-1", "level": "0", "lit": "yes", "motor_vehicle": "no", "surface": "paving_stones", "tunnel": "yes", "wheelchair": "limited"}}, {"type": "way", "id": 302982918, "nodes": [3072732688, 3072732689, 3072732687, 3072732685, 3072732683, 3072732681, 10213551839, 10213551838, 3072732680, 3072732682, 5813592754, 5813592755, 3072732684, 5813592756, 3072732686, 3072732688], "tags": {"area": "yes", "internet_access": "no", "name": "Railway Square", "public_transport": "station", "source": "mapbox", "wikidata": "Q76803"}}, {"type": "way", "id": 389323767, "nodes": [5299091853, 10172568541, 7319312207, 3891123781, 3924757091, 7319312213, 9171119687, 3891123783, 9171119688, 7319312212, 7319312211, 4961984257, 9171119680, 4961984254, 4234494142, 3924757077, 4961984253, 9171119665, 4686166598, 3924757078, 3924757079, 3924757080, 3924757081, 3924757082, 3924757087, 5299091854, 3891123790, 5299091853], "tags": {"area": "yes", "name": "Newtown", "operator": "Sydney Trains", "public_transport": "station", "source": "NSW LPI"}}, {"type": "way", "id": 445891939, "nodes": [4432411209, 9181496074, 4432411212, 4432411211, 9181496077, 4432411207, 4432411209], "tags": {"building": "yes", "building:levels": "3", "description": "elevator shell", "height": "10", "indoor": "yes", "layer": "3", "level": "0;2", "wheelchair": "yes"}}, {"type": "way", "id": 445891941, "nodes": [4432411191, 9181496076, 9181496073, 9181496070, 9181496069, 4432411207, 9181496077, 4432411211, 4432411208, 4432411190, 4432411191], "tags": {"area": "yes", "building": "yes", "building:part": "yes", "height": "10", "indoor": "yes", "layer": "3", "level": "2", "min_height": "7", "wheelchair": "yes"}}, {"type": "way", "id": 445891942, "nodes": [9189377529, 4959915138, 4959915137, 9189377518, 9189367316, 4432411216, 4432411202, 4432411201, 4432374088, 4432411189, 4432438321, 9181496087, 9181496086, 9181496085, 4432374079, 4432374080, 9181496084, 9181496083, 9181496082, 4432438322, 4432411194, 4432411195, 4432411205, 4432411204, 4432411217, 9189377532, 9189377529], "tags": {"building": "roof", "layer": "2"}}, {"type": "way", "id": 445891943, "nodes": [4432374086, 2168601952], "tags": {"highway": "footway", "layer": "1", "level": "1"}}, {"type": "way", "id": 445891944, "nodes": [4432411197, 9181496075, 9181496078, 4432411199], "tags": {"highway": "footway", "layer": "1", "level": "1", "wheelchair": "yes"}}, {"type": "way", "id": 445891946, "nodes": [9189367314, 4432411199, 9189377534], "tags": {"highway": "footway", "layer": "1", "level": "1", "wheelchair": "yes"}}, {"type": "way", "id": 445891947, "nodes": [9189367315, 4432374086, 9189377535], "tags": {"highway": "footway", "layer": "1", "level": "1"}}, {"type": "way", "id": 445891950, "nodes": [4432411197, 9181496076, 4432411192, 4432411206, 9181496077, 4432411210], "tags": {"bridge": "yes", "highway": "footway", "indoor": "yes", "layer": "2", "level": "2", "wheelchair": "yes"}}, {"type": "way", "id": 497127668, "nodes": [4887412746, 4887412747], "tags": {"conveying": "forward", "handrail": "yes", "highway": "steps", "incline": "down", "layer": "-1", "level": "-2;-1", "lit": "yes"}}, {"type": "way", "id": 497127669, "nodes": [4887412748, 4887412749], "tags": {"conveying": "forward", "handrail": "yes", "highway": "steps", "incline": "up", "layer": "-1", "level": "-2;-1", "lit": "yes"}}, {"type": "way", "id": 497127670, "nodes": [4887412750, 4887412751], "tags": {"handrail": "yes", "highway": "steps", "layer": "-1", "level": "-2;-1", "lit": "yes", "surface": "concrete"}}, {"type": "way", "id": 497127671, "nodes": [4887412757, 4887412758], "tags": {"handrail": "yes", "highway": "steps", "incline": "up", "layer": "-1", "level": "-2;-1", "lit": "yes", "surface": "concrete"}}, {"type": "way", "id": 497127672, "nodes": [4887412759, 4887412760], "tags": {"conveying": "forward", "handrail": "yes", "highway": "steps", "incline": "down", "layer": "-1", "level": "-2;-1", "lit": "yes"}}, {"type": "way", "id": 497127673, "nodes": [4887412761, 4887412762], "tags": {"conveying": "forward", "handrail": "yes", "highway": "steps", "incline": "up", "layer": "-1", "level": "-2;-1", "lit": "yes"}}, {"type": "way", "id": 497127674, "nodes": [4887412763, 4887412764, 4887412765, 4963103445, 4887412766, 4887412767, 4963103444, 4963103441, 4887412768, 4887412769, 4887412770, 4963103456, 4887412763], "tags": {"building": "roof", "layer": "2", "level": "2"}}, {"type": "way", "id": 497127675, "nodes": [4887412771, 4887412772], "tags": {"handrail": "yes", "highway": "steps", "incline": "down", "level": "-2;-1", "lit": "yes", "surface": "concrete"}}, {"type": "way", "id": 497127676, "nodes": [4887412773, 4887412774], "tags": {"handrail": "yes", "highway": "steps", "incline": "up", "level": "-2;-1", "lit": "yes", "surface": "concrete"}}, {"type": "way", "id": 497127677, "nodes": [4887412745, 9742423328, 4887412777, 4887412778, 9742423327, 4887412785, 4887412779], "tags": {"foot": "yes", "highway": "footway", "horse": "no", "layer": "-1", "level": "-1"}}, {"type": "way", "id": 497127678, "nodes": [4887412777, 4887412780, 9742423345, 4887412781, 4887412746], "tags": {"highway": "footway", "layer": "-1", "level": "-1"}}, {"type": "way", "id": 497127679, "nodes": [4887412749, 4887412781], "tags": {"highway": "footway", "layer": "-1", "level": "-1"}}, {"type": "way", "id": 497127680, "nodes": [4887412758, 4887412783, 4887412778], "tags": {"highway": "footway", "layer": "-1", "level": "-1"}}, {"type": "way", "id": 497127681, "nodes": [4887412750, 4887412783], "tags": {"highway": "footway", "layer": "-1", "level": "-1"}}, {"type": "way", "id": 497127682, "nodes": [4887412774, 4887412785, 4887412759], "tags": {"highway": "footway", "layer": "-1", "level": "-1"}}, {"type": "way", "id": 497127684, "nodes": [2039208648, 4887412806], "tags": {"handrail": "yes", "highway": "steps", "incline": "up", "level": "-1;0", "lit": "yes"}}, {"type": "way", "id": 497127686, "nodes": [4887412806, 4887412808, 4887412810, 4887412809, 9742423332, 4887412776], "tags": {"highway": "footway", "layer": "0", "level": "0", "wheelchair": "yes"}}, {"type": "way", "id": 497127687, "nodes": [4887412810, 9742423326, 4887412775], "tags": {"highway": "footway", "layer": "0", "level": "0", "wheelchair": "yes"}}, {"type": "way", "id": 506610225, "nodes": [4963103437, 9742423325, 4963103438], "tags": {"highway": "footway", "layer": "-2", "level": "-2", "lit": "yes", "surface": "paved"}}, {"type": "way", "id": 506610226, "nodes": [4963103439, 9742423324, 4963103440], "tags": {"highway": "footway", "layer": "-2", "level": "-2", "lit": "yes", "surface": "paved"}}, {"type": "way", "id": 506610227, "nodes": [4887412768, 4963103441, 4963103442, 4963103443, 4887412764, 4887412763, 4963103456, 4887412770, 4887412769, 4887412768], "tags": {"area": "yes", "building:part": "yes", "height": "3 m"}}, {"type": "way", "id": 506610228, "nodes": [4963103444, 4963103445, 4887412766, 4887412767, 4963103444], "tags": {"area": "yes", "building:part": "yes", "height": "3m"}}, {"type": "way", "id": 585998416, "nodes": [1532632358, 409184718, 4386542510, 409184717, 5599508961, 409184716, 5599508960, 7856197577, 7856197571, 5599508959, 5599508958, 3925673862, 3925673861, 3925673860, 6269131075, 3763643384, 8766527072, 7856197568, 8751406478, 1645166672, 3925669731, 3925692002, 6097699672, 3925669730, 1645166666, 409184733, 1645166687, 409184732, 5599508955, 8744217969, 1532632358], "tags": {"name": "Redfern", "public_transport": "station", "railway": "station", "wikidata": "Q7305835", "wikipedia": "en:Redfern railway station"}}, {"type": "way", "id": 655264368, "nodes": [6139558553, 6139558554, 6139558555, 6139558537, 6139558553], "tags": {"amenity": "bus_station", "building": "yes", "bus": "yes", "network": "B-Line", "operator": "Transport for NSW", "public_transport": "station", "wheelchair": "yes"}}, {"type": "way", "id": 677568469, "nodes": [6344254063, 6344253987, 6344254092, 6344254027, 6344253978, 6344254130, 6344254005, 6344254073, 6344254077, 6344253995, 6344253891, 6344254097, 6344253951, 6344253885, 6344253961, 6344253892, 6344254076, 6344253783, 6344254063], "tags": {"location": "underground", "name": "North Ryde", "network": "Sydney Metro", "network:wikidata": "Q14774571", "operator": "Metro Trains Sydney", "operator:wikidata": "Q20861549", "public_transport": "station", "railway": "station", "source:geometry": "TfNSW Data Services Team", "station": "subway", "subway": "yes", "train": "yes", "wheelchair": "yes", "wikidata": "Q7056566", "wikipedia": "en:North Ryde railway station"}}, {"type": "way", "id": 677568470, "nodes": [6344253949, 6344254066, 6344254029, 6344254139, 6344253949], "tags": {"level": "-3", "location": "underground", "name": "Macquarie Park", "network": "Sydney Metro", "network:wikidata": "Q14774571", "operator": "Metro Trains Sydney", "operator:wikidata": "Q20861549", "platforms": "2", "public_transport": "station", "railway": "station", "source:geometry": "TfNSW Data Services Team", "station": "subway", "subway": "yes", "train": "yes", "wheelchair": "yes", "wikidata": "Q7212362", "wikipedia": "en:Macquarie Park railway station"}}, {"type": "way", "id": 677568471, "nodes": [6344253895, 6344254099, 6344254123, 6344253968, 6344253895], "tags": {"changing_table": "yes", "changing_table:fee": "no", "changing_table:location": "toilets", "location": "underground", "name": "Macquarie University", "network": "Sydney Metro", "network:wikidata": "Q14774571", "operator": "Metro Trains Sydney", "operator:wikidata": "Q20861549", "public_transport": "station", "railway": "station", "source:geometry": "TfNSW Data Services Team", "station": "subway", "subway": "yes", "toilets": "yes", "toilets:access": "customers", "toilets:wheelchair": "yes", "train": "yes", "wheelchair": "yes", "wikidata": "Q6725028", "wikipedia": "en:Macquarie University railway station"}}, {"type": "way", "id": 679354513, "nodes": [6361485706, 6361485705, 5243953133, 6946691806, 6361485704, 6361485703, 6361485702, 1987326790, 1580975085, 7564340997, 4027062064, 1580975083, 6361470513, 10241443664, 4027001770, 10241443665, 10203868015, 4027001766, 4027001759, 4027001753, 4027001741, 173139352, 4027001737, 173139351, 10213515070, 1987326784, 173139350, 173139348, 4027001729, 4027001728, 4027001727, 4027001710, 4027001708, 4027001701, 4027001693, 173139344, 10211150215, 10211151219, 4027001692, 10211151218, 10211151217, 10211150216, 7567499362, 10211150214, 1987285870, 173139338, 4963048716, 4963048719, 4027001695, 4027001698, 4027001704, 4027001717, 173139337, 10211150164, 7567499352, 7567499351, 1987326804, 7567499350, 7567499367, 1987282733, 1987282735, 1987282725, 10211150171, 10211150174, 10211150169, 409184743, 1987282737, 1859765476, 10211150195, 1859765496, 10211150194, 1859765477, 6361485701, 6361485700, 6361485699, 10211150198, 6353262355, 4025206434, 409184683, 6353271764, 6361485698, 6361485697, 6361485706], "tags": {"alt_name": "Sydney Terminal", "name": "Central", "operator": "Sydney Trains", "public_transport": "station", "railway": "station", "train": "yes", "wheelchair": "yes"}}, {"type": "way", "id": 739793099, "nodes": [6927027603, 6927027602, 6927027601, 6927027600, 6927027603], "tags": {"light_rail": "yes", "name": "Chinatown", "opening_date": "2019-12-14", "public_transport": "station", "railway": "station", "station": "light_rail", "wheelchair": "yes"}}, {"type": "way", "id": 739794651, "nodes": [6927047412, 6927047411, 6927047410, 6927047409, 6927047412], "tags": {"light_rail": "yes", "name": "Haymarket", "opening_date": "2019-12-14", "public_transport": "station", "railway": "station", "station": "light_rail", "wheelchair": "yes"}}, {"type": "way", "id": 739799799, "nodes": [6927104283, 9385099971, 9385099964, 6927104282, 6927104281, 9385099965, 9385099970, 6927104280, 6927104283], "tags": {"light_rail": "yes", "name": "Moore Park", "opening_date": "2019-12-14", "public_transport": "station", "railway": "station", "station": "light_rail", "wheelchair": "yes"}}, {"type": "way", "id": 739801575, "nodes": [6927135991, 6927135990, 6927135989, 6927135988, 6927135991], "tags": {"light_rail": "yes", "name": "Randwick", "opening_date": "2019-12-14", "public_transport": "station", "railway": "station", "station": "light_rail"}}, {"type": "way", "id": 740047982, "nodes": [6928903839, 6928903838, 6928903837, 6928903836, 6928903839], "tags": {"light_rail": "yes", "name": "Surry Hills", "opening_date": "2019-12-14", "public_transport": "station", "railway": "station", "station": "light_rail"}}, {"type": "way", "id": 740047983, "nodes": [6928903843, 6928903842, 6928903841, 6928903840, 6928903843], "tags": {"light_rail": "yes", "name": "Royal Randwick", "opening_date": "2019-12-14", "public_transport": "station", "railway": "station", "station": "light_rail", "wheelchair": "yes"}}, {"type": "way", "id": 740047984, "nodes": [6928903847, 6928903846, 6928903845, 6928903844, 6928903847], "tags": {"light_rail": "yes", "name": "Wansey Road", "opening_date": "2019-12-14", "public_transport": "station", "railway": "station", "station": "light_rail", "wheelchair": "yes"}}, {"type": "way", "id": 740047985, "nodes": [6928903851, 6928903850, 6928903849, 6928903848, 6928903851], "tags": {"light_rail": "yes", "name": "UNSW High Street", "network": "Sydney Light Rail", "opening_date": "2019-12-14", "operator": "Transdev", "public_transport": "station", "railway": "station", "station": "light_rail", "wheelchair": "yes"}}, {"type": "way", "id": 740048069, "nodes": [6928981012, 6928981011, 6928981010, 6928981009, 6928981012], "tags": {"light_rail": "yes", "name": "Circular Quay", "opening_date": "2019-12-14", "public_transport": "station", "railway": "station", "station": "light_rail"}}, {"type": "way", "id": 740048665, "nodes": [6928987124, 6928987123, 6928987122, 6928987121, 6928987124], "tags": {"light_rail": "yes", "name": "Town Hall", "opening_date": "2019-12-14", "public_transport": "station", "railway": "station", "station": "light_rail"}}, {"type": "way", "id": 740048666, "nodes": [6928987128, 6928987127, 6928987126, 6928987125, 6928987128], "tags": {"light_rail": "yes", "name": "QVB", "opening_date": "2019-12-14", "public_transport": "station", "railway": "station", "station": "light_rail", "wheelchair": "yes"}}, {"type": "way", "id": 740048667, "nodes": [6928987132, 6928987131, 6928987130, 6928987129, 6928987132], "tags": {"light_rail": "yes", "name": "Wynyard", "opening_date": "2019-12-14", "public_transport": "station", "railway": "station", "station": "light_rail", "wheelchair": "yes"}}, {"type": "way", "id": 740048668, "nodes": [6928987136, 6928987135, 6928987134, 6928987133, 6928987136], "tags": {"light_rail": "yes", "name": "Bridge Street", "opening_date": "2019-12-14", "public_transport": "station", "railway": "station", "station": "light_rail", "wheelchair": "yes"}}, {"type": "way", "id": 740050932, "nodes": [6929001184, 6929001183, 6929001182, 6929001181, 6929001184], "tags": {"light_rail": "yes", "name": "Central Chalmers Street", "opening_date": "2019-12-14", "public_transport": "station", "railway": "station", "station": "light_rail"}}, {"type": "way", "id": 822287352, "nodes": [7677851077, 7677851078, 7677851079, 7677851080, 7677851081, 7677851077], "tags": {"light_rail": "yes", "name": "ES Marks", "public_transport": "station", "railway": "station", "station": "light_rail", "train": "yes", "wheelchair": "yes"}}, {"type": "way", "id": 822292588, "nodes": [7677850959, 7677850960, 7677850974, 7677850961, 7677850962, 7677850979, 7677850959], "tags": {"light_rail": "yes", "name": "UNSW Anzac Parade", "public_transport": "station", "railway": "station", "station": "light_rail", "wheelchair": "yes"}}, {"type": "way", "id": 822364731, "nodes": [7678533172, 7678533173, 7678533174, 7678533175, 7678533172], "tags": {"light_rail": "yes", "name": "Kensington", "public_transport": "station", "railway": "station", "station": "light_rail", "wheelchair": "yes"}}, {"type": "way", "id": 822366743, "nodes": [7678563739, 7678563740, 7678563741, 7678563742, 7678563743, 7678563744, 7678563739], "tags": {"light_rail": "yes", "name": "Juniors Kingsford", "public_transport": "station", "railway": "station", "station": "light_rail"}}, {"type": "way", "id": 822368372, "nodes": [7678563393, 7678563394, 7678563395, 7678563396, 7678563402, 7678563393], "tags": {"light_rail": "yes", "name": "Kingsford", "public_transport": "station", "railway": "station", "station": "light_rail"}}, {"type": "way", "id": 980739375, "nodes": [9072306984, 9072306985, 9072306986, 2389011340, 9072306987, 9072306984], "tags": {"amenity": "bus_station", "building": "yes", "bus": "yes", "public_transport": "station"}}, {"type": "way", "id": 1060384631, "nodes": [4887412762, 4887412779, 4887412771], "tags": {"foot": "yes", "highway": "footway", "horse": "no", "layer": "-1", "level": "-1", "motor_vehicle": "no"}}, {"type": "way", "id": 1115995149, "nodes": [648896022, 649611581, 10207318748, 9780863863, 9780863864, 10207318749, 649611595, 648896024, 10207318750, 9780863867, 9780863868, 9780863869, 10207318745, 10207318744, 9780863870, 10207286133, 648896022], "tags": {"internet_access": "no", "location": "underground", "name": "St James", "operator": "Sydney Trains", "public_transport": "station", "railway": "station", "toilets": "no", "train": "yes", "wikidata": "Q7593512", "wikipedia": "en:St James railway station, Sydney"}}, {"type": "relation", "id": 7387497, "members": [{"type": "node", "ref": 4432411220, "role": ""}, {"type": "node", "ref": 4432411222, "role": ""}, {"type": "node", "ref": 4432411223, "role": ""}, {"type": "node", "ref": 4432411225, "role": ""}, {"type": "way", "ref": 445891946, "role": ""}, {"type": "way", "ref": 445891944, "role": ""}, {"type": "node", "ref": 4432411197, "role": ""}, {"type": "way", "ref": 445891947, "role": ""}, {"type": "way", "ref": 445891943, "role": ""}, {"type": "relation", "ref": 6629267, "role": ""}, {"type": "way", "ref": 445891941, "role": ""}, {"type": "way", "ref": 445891950, "role": ""}, {"type": "way", "ref": 445891939, "role": ""}, {"type": "node", "ref": 4432411210, "role": ""}, {"type": "way", "ref": 206811243, "role": ""}, {"type": "way", "ref": 445891942, "role": ""}], "tags": {"name": "Artarmon Station", "public_transport": "station", "site": "station", "type": "site", "wikidata": "Q4797346", "wikipedia": "en:Artarmon railway station"}}, {"type": "relation", "id": 7387676, "members": [{"type": "node", "ref": 4887412745, "role": ""}, {"type": "node", "ref": 4887412775, "role": ""}, {"type": "node", "ref": 4887892859, "role": ""}, {"type": "way", "ref": 497127674, "role": ""}, {"type": "way", "ref": 142512102, "role": ""}, {"type": "way", "ref": 497127671, "role": ""}, {"type": "way", "ref": 497127680, "role": ""}, {"type": "way", "ref": 497127681, "role": ""}, {"type": "way", "ref": 497127670, "role": ""}, {"type": "way", "ref": 497127675, "role": ""}, {"type": "way", "ref": 1060384631, "role": ""}, {"type": "way", "ref": 497127677, "role": ""}, {"type": "way", "ref": 193413103, "role": ""}, {"type": "way", "ref": 497127684, "role": ""}, {"type": "way", "ref": 497127686, "role": ""}, {"type": "way", "ref": 497127687, "role": ""}, {"type": "way", "ref": 506610225, "role": ""}, {"type": "way", "ref": 506610226, "role": ""}, {"type": "way", "ref": 497127676, "role": ""}, {"type": "way", "ref": 497127682, "role": ""}, {"type": "way", "ref": 497127672, "role": ""}, {"type": "way", "ref": 497127673, "role": ""}, {"type": "way", "ref": 497127669, "role": ""}, {"type": "way", "ref": 497127679, "role": ""}, {"type": "way", "ref": 497127678, "role": ""}, {"type": "way", "ref": 497127668, "role": ""}, {"type": "way", "ref": 506610228, "role": ""}, {"type": "way", "ref": 506610227, "role": ""}], "tags": {"name": "North Sydney Station", "operator": "Sydney Trains", "operator:phone": "131 500", "operator:type": "public", "operator:website": "https://www.sydneytrains.info", "operator:wikidata": "Q7660181", "public_transport": "station", "site": "station", "subway": "yes", "type": "site", "website": "https://transportnsw.info/stop?q=206010#/", "wikidata": "Q2356455", "wikipedia": "en:North Sydney railway station"}}]}