{"version": 0.6, "generator": "Overpass API 0.7.60 f4c14d41", "osm3s": {"timestamp_osm_base": "2023-05-02T21:16:21Z", "copyright": "The data included in this document is from www.openstreetmap.org. The data is made available under ODbL."}, "elements": [{"type": "node", "id": 1864126223, "lat": 41.0082746, "lon": 28.9765837, "tags": {"addr:housename": "SAH BAR", "addr:housenumber": "9", "addr:postcode": "34410", "addr:street": "Divanyolu Caddesi, incilivavus Cik.", "amenity": "pub", "internet_access": "wlan", "internet_access:fee": "no", "name": "SAH BAR", "source": "owner", "website": "www.sahbar.com"}}, {"type": "node", "id": 2246685186, "lat": 41.0356039, "lon": 28.9819806, "tags": {"addr:housenumber": "65", "addr:street": "Istiklal Cad.", "amenity": "pub", "name": "Mayotte Pub & Live Music", "source": "+90 212 243 2440"}}, {"type": "node", "id": 2433366993, "lat": 40.9875715, "lon": 29.0262832, "tags": {"addr:housenumber": "10a", "addr:street": "Sak\u0131z G\u00fcl\u00fc Sokak", "amenity": "pub", "name": "Bira Fabrikas\u0131"}}, {"type": "node", "id": 2433366994, "lat": 40.9854171, "lon": 29.0262759, "tags": {"addr:housenumber": "28-30", "addr:postcode": "34710", "addr:street": "Dr. Esat I\u015f\u0131k Caddesi", "amenity": "pub", "name": "Belfast"}}, {"type": "node", "id": 2433367011, "lat": 40.985314, "lon": 29.026353, "tags": {"amenity": "pub", "name": "Rock Pub"}}, {"type": "node", "id": 2433367017, "lat": 40.9872579, "lon": 29.0270751, "tags": {"amenity": "pub", "name": "Teacher's"}}, {"type": "node", "id": 2433367022, "lat": 40.9871306, "lon": 29.0269891, "tags": {"amenity": "pub", "name": "Zincir"}}, {"type": "node", "id": 2433671940, "lat": 40.9864896, "lon": 29.0264985, "tags": {"amenity": "pub", "name": "\u0130ncir"}}, {"type": "node", "id": 2434610507, "lat": 40.9642222, "lon": 29.0653771, "tags": {"amenity": "pub", "name": "Sheriff"}}, {"type": "node", "id": 2436912690, "lat": 40.9764021, "lon": 29.0412096, "tags": {"amenity": "pub", "name": "Bow Bells Pub"}}, {"type": "node", "id": 2444927917, "lat": 40.9870477, "lon": 29.0269935, "tags": {"amenity": "pub", "name": "Bardan Adam"}}, {"type": "node", "id": 2444927918, "lat": 40.9865854, "lon": 29.0255008, "tags": {"amenity": "pub", "name": "Belfast"}}, {"type": "node", "id": 2444927923, "lat": 40.9864937, "lon": 29.0254574, "tags": {"addr:postcode": "34710", "addr:street": "Moda Caddesi", "amenity": "pub", "name": "Zeplin", "opening_hours": "Mo-Su 11:00-01:00", "phone": "02167002002", "website": "http://zeplinpub.com"}}, {"type": "node", "id": 2445278857, "lat": 40.9891232, "lon": 29.0239084, "tags": {"amenity": "pub", "name": "Eski"}}, {"type": "node", "id": 2452245667, "lat": 40.9759597, "lon": 29.0404093}, {"type": "node", "id": 2459124128, "lat": 40.9853641, "lon": 29.0263161, "tags": {"amenity": "pub", "name": "Bardan Adam"}}, {"type": "node", "id": 2459942393, "lat": 40.9760465, "lon": 29.0407682}, {"type": "node", "id": 2459942397, "lat": 40.9760606, "lon": 29.0402415}, {"type": "node", "id": 2459942401, "lat": 40.9764396, "lon": 29.0406189}, {"type": "node", "id": 2459942402, "lat": 40.9763387, "lon": 29.0401297}, {"type": "node", "id": 2469162825, "lat": 40.9534854, "lon": 29.0955973, "tags": {"amenity": "pub", "name": "Mavi"}}, {"type": "node", "id": 2469886153, "lat": 40.9527341, "lon": 29.0963996, "tags": {"amenity": "pub", "name": "End Point"}}, {"type": "node", "id": 3053104070, "lat": 40.9757725, "lon": 29.0517949, "tags": {"amenity": "pub", "contact:website": "http://www.draftpubistanbul.com/", "name": "Draft"}}, {"type": "node", "id": 3452205896, "lat": 41.0089076, "lon": 28.9769555, "tags": {"amenity": "pub", "name": "The North Shield Pub", "wheelchair": "limited"}}, {"type": "node", "id": 3457985526, "lat": 41.0079849, "lon": 28.9774114, "tags": {"amenity": "pub", "name": "Sultan Pub", "name:zh": "\u82cf\u4e39\u9152\u5427", "wheelchair": "no"}}, {"type": "node", "id": 4572186720, "lat": 40.9239206, "lon": 29.1329602, "tags": {"amenity": "pub", "name": "Relax Pub"}}, {"type": "node", "id": 4625797145, "lat": 41.0338417, "lon": 28.9767073, "tags": {"addr:city": "\u0130stanbul", "addr:country": "TR", "addr:housenumber": "11A", "addr:postcode": "34430", "addr:street": "Me\u015frutiyet Caddesi", "amenity": "pub", "cuisine": "burger", "internet_access": "yes", "internet_access:fee": "no", "name": "Corner Irish Pub \u0130stanbul", "opening_hours": "10:00-04:00", "outdoor_seating": "yes", "smoking": "isolated", "wheelchair": "limited"}}, {"type": "node", "id": 4648426592, "lat": 40.9875637, "lon": 29.0260052, "tags": {"amenity": "pub", "name": "Fil", "name:en": "Fil", "name:tr": "Fil"}}, {"type": "node", "id": 4833396567, "lat": 40.9874394, "lon": 29.026811, "tags": {"amenity": "pub", "name": "Valhalla"}}, {"type": "node", "id": 4889959821, "lat": 40.9881969, "lon": 29.0270678, "tags": {"addr:city": "Istanbul", "addr:district": "Kad\u0131k\u00f6y", "amenity": "pub", "name": "R\u00e9volte", "name:en": "R\u00e9volte", "name:tr": "R\u00e9volte", "outdoor_seating": "yes", "smoking": "yes"}}, {"type": "node", "id": 5097791222, "lat": 40.9876248, "lon": 29.0252296, "tags": {"addr:postcode": "34710", "amenity": "pub", "name": "Beyrut", "name:tr": "Leon pub"}}, {"type": "node", "id": 5102498521, "lat": 41.0350689, "lon": 28.9784511, "tags": {"addr:city": "Beyo\u011flu/\u0130stanbul", "addr:district": "Beyo\u011flu", "addr:housenumber": "26", "addr:street": "Balo Soka\u011f\u0131", "amenity": "pub", "name": "Irish Pub The James Joyce", "opening_hours": "Mo-Su 12:00-02:00"}}, {"type": "node", "id": 5113500312, "lat": 41.0056831, "lon": 28.9735181, "tags": {"addr:city": "Istanbul", "addr:district": "Fatih", "addr:street": "\u00dc\u00e7ler sokak", "amenity": "pub", "name": "Ersoy han", "name:ar": "\u0627\u0631\u0633\u0648\u064a \u0647\u0627\u0646"}}, {"type": "node", "id": 5244801996, "lat": 41.0036413, "lon": 28.9724919, "tags": {"addr:city": "Istanbul", "addr:district": "Fatih", "addr:street": "Kaleci Sokak", "amenity": "pub", "name": "Yakamoz B\u00fcfe ve Tekel", "name:ar": "\u064a\u0627\u0643\u0627\u0645\u0648\u0632 \u0628\u0648\u0641\u064a", "operator": "private"}}, {"type": "node", "id": 5244803033, "lat": 41.0036804, "lon": 28.9750168, "tags": {"addr:city": "Istanbul", "addr:district": "Fatih", "addr:street": "K\u00fc\u00e7\u00fck Ayasofya Caddesi", "amenity": "pub", "name": "\u015eafak Pub", "name:ar": "\u0634\u0627\u0641\u0627\u0643 \u0628\u0627\u0628", "operator": "private"}}, {"type": "node", "id": 5274083463, "lat": 40.9552334, "lon": 29.0946158, "tags": {"addr:city": "Istanbul", "addr:district": "Kad\u0131k\u00f6y", "addr:neighbourhood": "Bostanc\u0131 Mahallesi", "addr:postcode": "34744", "addr:street": "Kitap\u00e7\u0131 Mehmet S\u00fcleyman Sokak", "amenity": "pub", "name": "1A Meyhanesi", "outdoor_seating": "no", "smoking": "isolated"}}, {"type": "node", "id": 5280587222, "lat": 40.9544236, "lon": 29.0944767, "tags": {"addr:city": "\u0130stanbul", "addr:district": "Kad\u0131k\u00f6y", "addr:neighbourhood": "Bostanc\u0131 Mahallesi", "addr:postcode": "34744", "addr:street": "Prof. Dr. Ali Nihat Tarlan Caddesi", "amenity": "pub", "name": "\u00c7ak\u0131l Meyhanesi", "outdoor_seating": "no", "smoking": "isolated"}}, {"type": "node", "id": 5281963646, "lat": 41.0253669, "lon": 28.9740149, "tags": {"amenity": "pub", "name": "Tower Pub", "wheelchair": "no"}}, {"type": "node", "id": 5316398830, "lat": 40.9206757, "lon": 29.1297551, "tags": {"amenity": "pub", "name": "Yerf\u0131st\u0131\u011f\u0131 Bar"}}, {"type": "node", "id": 5483475822, "lat": 41.0361323, "lon": 28.9816688, "tags": {"amenity": "pub", "name": "Rasputin", "name:en": "Rasputin - Metal pub & concerts"}}, {"type": "node", "id": 5542886358, "lat": 40.966508, "lon": 29.2540383, "tags": {"addr:city": "Istanbul", "addr:district": "Sultanbeyli", "addr:street": "Petrol yolu Caddesi", "amenity": "pub", "name": "Suat Tekel Shop Say\u0131sal Loto", "name:ar": "\u062d\u0627\u0646\u0629 \u0633\u0648\u0627\u062a \u062a\u064a\u0643\u064a\u0644"}}, {"type": "node", "id": 5599608788, "lat": 41.0423265, "lon": 29.0029923, "tags": {"addr:city": "Istanbul", "addr:housenumber": "4", "addr:street": "\u015eair Nedim Caddesi", "amenity": "pub", "brewery": "yes", "check_date": "2022-12-11", "cuisine": "international", "name": "Craft Beer Lab", "name:tr": "Craft Beer Lab", "outdoor_seating": "yes", "payment:mastercard": "yes", "payment:visa": "yes"}}, {"type": "node", "id": 5668652117, "lat": 41.029904, "lon": 28.9747083, "tags": {"addr:city": "\u0130stanbul", "addr:district": "Beyo\u011flu", "addr:housenumber": "2D", "addr:street": "Sofyal\u0131 Soka\u011f\u0131", "amenity": "pub", "name": "Kino Garden", "wheelchair": "limited"}}, {"type": "node", "id": 5668652119, "lat": 41.0297851, "lon": 28.9748914, "tags": {"addr:city": "\u0130stanbul", "amenity": "pub", "name": "Montreal Shot Pera"}}, {"type": "node", "id": 5669004148, "lat": 41.0294151, "lon": 28.9743257, "tags": {"addr:district": "Beyo\u011flu", "amenity": "pub", "name": "Orta Cafe"}}, {"type": "node", "id": 5718234328, "lat": 41.0290738, "lon": 28.9744395, "tags": {"amenity": "pub", "name": "5 cocktails & more"}}, {"type": "node", "id": 5718234330, "lat": 41.0298529, "lon": 28.9746119, "tags": {"amenity": "pub", "name": "Pacific House"}}, {"type": "node", "id": 5796105753, "lat": 40.9814225, "lon": 29.0232907, "tags": {"addr:postcode": "34710", "amenity": "pub", "internet_access": "wlan", "name": "Fil", "name:tr": "FiL"}}, {"type": "node", "id": 5805037475, "lat": 40.9749837, "lon": 29.0536336, "tags": {"addr:city": "istanbul", "addr:district": "kad\u0131k\u00f6y", "addr:housenumber": "183", "addr:neighbourhood": "\u00e7iftehavuzlar", "addr:street": "Ba\u011fdat Caddesi", "amenity": "pub", "name": "The North Shield", "opening_hours": "Mo-Su 12:00-01:00"}}, {"type": "node", "id": 5908106586, "lat": 40.9869386, "lon": 29.025548, "tags": {"addr:street": "Moda Caddesi", "amenity": "pub", "name": "Ay\u0131", "name:en": "Ayi", "name:tr": "Ay\u0131 Moda"}}, {"type": "node", "id": 5962347986, "lat": 41.0051452, "lon": 28.9642964, "tags": {"amenity": "pub", "name:ar": "\u0632\u064a\u0627\u062f"}}, {"type": "node", "id": 6116486886, "lat": 41.0247098, "lon": 28.9781654, "tags": {"amenity": "pub", "name": "Kap\u0131 Pub Karak\u00f6y", "name:tr": "Kap\u0131 Pub Karak\u00f6y"}}, {"type": "node", "id": 6119539288, "lat": 40.9640664, "lon": 29.0742871, "tags": {"amenity": "pub", "name": "Draft Gastropub Erenk\u00f6y", "website": "http://www.draftpubistanbul.com/index.php"}}, {"type": "node", "id": 6157230585, "lat": 40.9887987, "lon": 29.0257904, "tags": {"addr:city": "\u0130stanbul", "addr:district": "Kad\u0131k\u00f6y", "addr:housenumber": "46A", "addr:neighbourhood": "Cafera\u011fa Mahallesi", "addr:postcode": "34710", "addr:street": "Nail Bey Soka\u011f\u0131", "amenity": "pub", "name": "Oblomov", "name:tr": "Oblomov", "opening_hours": "11:00\u201302:00", "website": "https://oblomov-kadikoy.business.site/"}}, {"type": "node", "id": 6185559952, "lat": 41.0336696, "lon": 28.9760974, "tags": {"amenity": "pub", "wheelchair": "no"}}, {"type": "node", "id": 6271721096, "lat": 41.0304338, "lon": 28.9833902, "tags": {"addr:housenumber": "33", "addr:street": "Akarsu Yoku\u015fu", "amenity": "pub", "name": "Charter Pub", "name:tr": "Charter Pub"}}, {"type": "node", "id": 6518248136, "lat": 40.9876116, "lon": 29.026604}, {"type": "node", "id": 6554996808, "lat": 40.9219855, "lon": 29.1289801, "tags": {"amenity": "pub", "name": "Felicita Pub"}}, {"type": "node", "id": 6710925888, "lat": 41.0303212, "lon": 28.9738764, "tags": {"amenity": "pub", "name": "Damask - Sarap Evi"}}, {"type": "node", "id": 6844569790, "lat": 41.0344417, "lon": 28.9765479, "tags": {"amenity": "pub", "name": "Pano \u015earaphanesi", "name:ja": "Pano"}}, {"type": "node", "id": 6850778495, "lat": 41.0327379, "lon": 28.9773259, "tags": {"amenity": "pub", "name:en": "Ziba"}}, {"type": "node", "id": 6850778886, "lat": 41.024984, "lon": 28.9786997, "tags": {"amenity": "pub", "name:en": "Infinity Lounge Karakoy"}}, {"type": "node", "id": 6935785909, "lat": 40.9904286, "lon": 29.1103487}, {"type": "node", "id": 6935785910, "lat": 40.9903663, "lon": 29.110304}, {"type": "node", "id": 6935785911, "lat": 40.9902973, "lon": 29.1104728}, {"type": "node", "id": 6935785912, "lat": 40.9903595, "lon": 29.1105175}, {"type": "node", "id": 6959672497, "lat": 40.9762143, "lon": 29.1523781, "tags": {"amenity": "pub", "name": "Pucci"}}, {"type": "node", "id": 7019827971, "lat": 40.8768285, "lon": 29.2359229, "tags": {"amenity": "pub", "name": "Gala Pub"}}, {"type": "node", "id": 7118748282, "lat": 41.0460492, "lon": 28.9864406, "tags": {"amenity": "pub", "name": "Avni"}}, {"type": "node", "id": 7789596989, "lat": 40.9944734, "lon": 29.0250469, "tags": {"amenity": "pub", "name": "Mangal Pub"}}, {"type": "node", "id": 7789605639, "lat": 40.9890316, "lon": 29.0236348, "tags": {"amenity": "pub", "name": "Keyf-i Hane"}}, {"type": "node", "id": 7931470785, "lat": 41.0418582, "lon": 29.0041893, "tags": {"addr:housenumber": "19", "addr:street": "Be\u015fikta\u015f Caddesi", "amenity": "pub", "internet_access": "wlan", "name:en": "joker No19"}}, {"type": "node", "id": 8062586740, "lat": 41.0436835, "lon": 29.004455}, {"type": "node", "id": 8062586741, "lat": 41.0435906, "lon": 29.0043961}, {"type": "node", "id": 8062586742, "lat": 41.0436158, "lon": 29.0043354}, {"type": "node", "id": 8062586744, "lat": 41.0436755, "lon": 29.0043709}, {"type": "node", "id": 8071822997, "lat": 41.0443478, "lon": 29.004567}, {"type": "node", "id": 8071822998, "lat": 41.0443258, "lon": 29.0046502}, {"type": "node", "id": 8071823015, "lat": 41.0442969, "lon": 29.0045433}, {"type": "node", "id": 8071823016, "lat": 41.0442759, "lon": 29.004622}, {"type": "node", "id": 8071853987, "lat": 41.04299, "lon": 29.0037927, "tags": {"amenity": "pub", "name": "Barkod"}}, {"type": "node", "id": 8190024662, "lat": 41.0437061, "lon": 29.0043915}, {"type": "node", "id": 8319691854, "lat": 41.0431709, "lon": 29.0066409, "tags": {"amenity": "pub", "name": "\u00c7\u0131t\u0131r Pub"}}, {"type": "node", "id": 8521521223, "lat": 40.9787609, "lon": 29.1136686, "tags": {"amenity": "pub", "name": "\u00c7ukur T\u00fcrk\u00fc Evi F\u0131\u00e7\u0131"}}, {"type": "node", "id": 8750415582, "lat": 40.9810299, "lon": 29.112659, "tags": {"amenity": "pub", "name": "Pala Pub"}}, {"type": "node", "id": 9026380448, "lat": 40.9877719, "lon": 29.0265534}, {"type": "node", "id": 9026380449, "lat": 40.9877493, "lon": 29.0266452}, {"type": "node", "id": 9026380450, "lat": 40.9876366, "lon": 29.0264891}, {"type": "node", "id": 9026402668, "lat": 40.9876979, "lon": 29.0266442}, {"type": "node", "id": 9026402669, "lat": 40.9877028, "lon": 29.0266233}, {"type": "node", "id": 9139890359, "lat": 40.9806223, "lon": 29.1123283, "tags": {"amenity": "pub", "name": "Site Birahanesi"}}, {"type": "node", "id": 9255313099, "lat": 41.0434194, "lon": 29.0056292, "tags": {"amenity": "pub", "name": "Vena"}}, {"type": "node", "id": 9278231617, "lat": 41.0309314, "lon": 28.9830781, "tags": {"amenity": "pub", "name:en": "Kahvedan"}}, {"type": "node", "id": 9278810517, "lat": 40.9896829, "lon": 29.0262352, "tags": {"amenity": "pub", "name:en": "Neruda"}}, {"type": "node", "id": 9280657117, "lat": 41.0365302, "lon": 28.9819573, "tags": {"amenity": "pub", "name:en": "U2"}}, {"type": "node", "id": 9350217517, "lat": 40.9888193, "lon": 29.0248055, "tags": {"amenity": "pub", "name:en": "Rock-N-Rolla"}}, {"type": "node", "id": 9370066117, "lat": 40.9872462, "lon": 29.025686, "tags": {"amenity": "pub", "name": "Kaldirim Pub"}}, {"type": "node", "id": 9393885218, "lat": 40.9805512, "lon": 29.0239846, "tags": {"amenity": "pub", "name:en": "Belfast"}}, {"type": "node", "id": 9481111854, "lat": 40.9683093, "lon": 29.0652723, "tags": {"amenity": "pub", "name": "Craft Beer Lab"}}, {"type": "node", "id": 9663236063, "lat": 40.9694333, "lon": 29.0851122, "tags": {"amenity": "pub", "name": "6:45 Pub"}}, {"type": "node", "id": 9866932277, "lat": 40.9896945, "lon": 29.0284251, "tags": {"amenity": "pub", "name": "Pinaye"}}, {"type": "node", "id": 9866939004, "lat": 40.98972, "lon": 29.0283219, "tags": {"amenity": "pub", "name": "Hane"}}, {"type": "node", "id": 9937509074, "lat": 40.9220232, "lon": 29.1288193, "tags": {"amenity": "pub", "name": "Deer Time"}}, {"type": "node", "id": 9937509075, "lat": 40.9220799, "lon": 29.1292042, "tags": {"amenity": "pub", "name": "Cuba Pub"}}, {"type": "node", "id": 9937509078, "lat": 40.9221262, "lon": 29.1292371, "tags": {"amenity": "pub", "name": "Vagon Pub"}}, {"type": "node", "id": 9937509083, "lat": 40.9222856, "lon": 29.129127, "tags": {"amenity": "pub", "name": "Ma\u00e7a"}}, {"type": "node", "id": 9937509085, "lat": 40.9220644, "lon": 29.1289025, "tags": {"amenity": "pub", "name": "Mola"}}, {"type": "node", "id": 9937509089, "lat": 40.9221689, "lon": 29.1292806, "tags": {"amenity": "pub", "name": "Be\u015f\u00e7e\u015fmeler"}}, {"type": "node", "id": 10018185392, "lat": 40.9675827, "lon": 29.0680667, "tags": {"addr:city": "\u0130stanbul", "addr:district": "Kad\u0131k\u00f6y", "addr:housenumber": "1", "addr:neighbourhood": "Caddebostan Mahallesi", "addr:postcode": "34728", "addr:street": "\u00c7am F\u0131st\u0131\u011f\u0131 Soka\u011f\u0131", "amenity": "pub", "name": "The North Shield Caddebostan"}}, {"type": "node", "id": 10077581317, "lat": 41.0365249, "lon": 28.9819869, "tags": {"amenity": "pub", "name:ru": "\u041e\u0442\u043b\u0438\u0447\u043d\u0435\u0439\u0448\u0438\u0439 \u0438\u0440\u043b\u0430\u043d\u0434\u0441\u043a\u0438\u0439 \u043f\u0430\u0431 \u0441\u043e \u0441\u0432\u0435\u0436\u0438\u043c \u0413\u0438\u043d\u043d\u0435\u0441\u043e\u043c"}}, {"type": "node", "id": 10132925660, "lat": 40.9742977, "lon": 29.0550525, "tags": {"amenity": "pub", "name": "Aksi Cadde"}}, {"type": "node", "id": 10149337920, "lat": 40.9877233, "lon": 29.0277486, "tags": {"amenity": "pub", "name": "Motto"}}, {"type": "node", "id": 10151775617, "lat": 41.0303748, "lon": 28.9746915, "tags": {"addr:housenumber": "13", "addr:postcode": "34430", "addr:street": "Gon\u00fcl Soka\u011f\u0131", "amenity": "pub", "name": "Opia pub", "name:tr": "Opia Pub", "website": "https://opia-pub.business.site/"}}, {"type": "node", "id": 10178410575, "lat": 41.0054279, "lon": 28.9802818, "tags": {"amenity": "pub", "check_date": "2022-11-12", "name": "The Rounder's", "theme": "irish"}}, {"type": "node", "id": 10211334162, "lat": 40.9890594, "lon": 29.0281606, "tags": {"addr:housenumber": "11", "addr:street": "Piri \u00c7avu\u015f Soka\u011f\u0131", "amenity": "pub", "name": "Zahter Pub"}}, {"type": "node", "id": 10655076101, "lat": 40.9849948, "lon": 29.1077165, "tags": {"amenity": "pub", "name": "Feride"}}, {"type": "way", "id": 238138163, "nodes": [2459942401, 2459942393, 2452245667, 2459942397, 2459942402, 2459942401], "tags": {"addr:postcode": "34726", "amenity": "pub", "building": "yes", "name": "Divan Pub", "website": "https://www.divan.com.tr/restaurant/divan-brasserie-kalamis"}}, {"type": "way", "id": 740815400, "nodes": [6935785909, 6935785910, 6935785911, 6935785912, 6935785909], "tags": {"amenity": "pub", "building": "yes", "name": "Her Gece Yeni Nesil Meyhane"}}, {"type": "way", "id": 865005339, "nodes": [8062586740, 8062586741, 8062586742, 8062586744, 8190024662, 8062586740], "tags": {"amenity": "pub", "building": "yes", "name": "Elma Pub"}}, {"type": "way", "id": 866003614, "nodes": [8071822997, 8071823015, 8071823016, 8071822998, 8071822997], "tags": {"amenity": "pub", "building": "yes", "name": "Yaz\u0131 Tura Barcade"}}, {"type": "way", "id": 975407335, "nodes": [9026380448, 9026380449, 9026402669, 9026402668, 6518248136, 9026380450, 9026380448], "tags": {"addr:city": "\u0130stanbul", "addr:district": "Kad\u0131k\u00f6y", "addr:neighbourhood": "Cafera\u011fa Mahallesi", "addr:postcode": "34710", "addr:street": "Sak\u0131z G\u00fcl\u00fc Soka\u011f\u0131", "amenity": "pub", "building": "yes", "name": "Wizard Pub"}}]}