{"version": 0.6, "generator": "Overpass API 0.7.60 f4c14d41", "osm3s": {"timestamp_osm_base": "2023-05-02T21:17:24Z", "copyright": "The data included in this document is from www.openstreetmap.org. The data is made available under ODbL."}, "elements": [{"type": "node", "id": 17990947, "lat": -33.8863987, "lon": 151.1774651, "tags": {"addr:city": "Camperdown", "addr:housenumber": "138", "addr:postcode": "2050", "addr:street": "Parramatta Road", "amenity": "pub", "name": "The Camperdown Hotel", "opening_hours": "Mo-Fr 10:00-24:00, Sa 10:00-02:00, Su 12:00-24:00", "phone": "+61 2 9557 1615", "smoking": "no", "website": "https://www.camperdownhotel.com.au/"}}, {"type": "node", "id": 17990949, "lat": -33.8868618, "lon": 151.1770745, "tags": {"addr:city": "Camperdown", "addr:housenumber": "91", "addr:postcode": "2050", "addr:street": "Parramatta Road", "amenity": "pub", "name": "The Lady Hampshire", "opening_hours": "Mo-Fr 10:00-24:00, Sa-Su 11:00-24:00", "opening_hours:signed": "no", "phone": "+61 2 8068 8418", "smoking": "no", "website": "http://www.hampshirehotel.com.au/", "wheelchair": "limited"}}, {"type": "node", "id": 18249982, "lat": -33.8677913, "lon": 151.2032395, "tags": {"addr:city": "Sydney", "addr:housenumber": "81", "addr:postcode": "2000", "addr:street": "Sussex Street", "amenity": "pub", "food": "yes", "name": "Bristol Arms", "phone": "+61 2 92625491", "website": "http://www.thebristolarms.com.au", "wikidata": "Q59872513"}}, {"type": "node", "id": 18249983, "lat": -33.868679, "lon": 151.203409, "tags": {"amenity": "pub", "food": "yes", "name": "Slip Inn"}}, {"type": "node", "id": 18264406, "lat": -34.0049837, "lon": 151.1302791}, {"type": "node", "id": 18322532, "lat": -33.9133305, "lon": 151.2422182, "tags": {"amenity": "pub", "name": "Coach & Horses Hotel", "opening_hours:signed": "no"}}, {"type": "node", "id": 18454399, "lat": -33.9023991, "lon": 151.201417, "tags": {"amenity": "pub", "name": "Glenroy Hotel", "outdoor_seating": "yes"}}, {"type": "node", "id": 18454495, "lat": -33.9016543, "lon": 151.2010345, "tags": {"amenity": "pub", "name": "Iron Duke Hotel"}}, {"type": "node", "id": 18455552, "lat": -33.900293, "lon": 151.1938401, "tags": {"amenity": "pub", "atm": "yes", "name": "Fratelli Fresh - Closed"}}, {"type": "node", "id": 18463539, "lat": -33.8911189, "lon": 151.1965096, "tags": {"addr:city": "Redfern", "addr:housenumber": "182", "addr:postcode": "2016", "addr:street": "Lawson Street", "amenity": "pub", "contact:facebook": "https://www.facebook.com/gch1851", "name": "Glengarry Castle Hotel", "opening_hours": "Mo-Tu 12:00-23:00, We-Sa 10:00-24:00, Su 12:00-22:00", "phone": "+61 2 9319 6176"}}, {"type": "node", "id": 18531989, "lat": -33.9209214, "lon": 151.2564321, "tags": {"amenity": "pub", "billiards:pool": "4", "billiards:pool:charge": "3 AUD", "billiards:pool:fee": "yes", "name": "The Coogee Bay Hotel", "sport": "billiards", "wheelchair": "no"}}, {"type": "node", "id": 18548783, "lat": -33.9183477, "lon": 151.241874, "tags": {"amenity": "pub", "created_by": "JOSM", "is_in": "Australia, NSW, New South Wales, Sydney", "name": "Royal Hotel"}}, {"type": "node", "id": 18825495, "lat": -33.8877872, "lon": 151.2013555, "tags": {"addr:housenumber": "115", "addr:postcode": "2008", "addr:street": "Regent Street", "amenity": "pub", "contact:facebook": "thelordgladstone", "contact:instagram": "chippolord", "name": "The Lord Gladstone", "name:en": "Beer Garden", "website": "https://www.lordgladstone.com.au"}}, {"type": "node", "id": 18825518, "lat": -33.8926431, "lon": 151.2019365, "tags": {"amenity": "pub", "drink:craft_beer": "yes", "name": "The Redfern"}}, {"type": "node", "id": 18826099, "lat": -33.8921461, "lon": 151.2054266, "tags": {"amenity": "pub", "drink:craft_beer": "yes", "name": "Woolpack Hotel", "outdoor_seating": "yes", "website": "https://www.woolpack.com.au/"}}, {"type": "node", "id": 18834285, "lat": -33.9085944, "lon": 151.2473925, "tags": {"alt_name": "The Dog Hotel", "amenity": "pub", "name": "The Duke of Gloucester Hotel"}}, {"type": "node", "id": 19172700, "lat": -33.9008581, "lon": 151.2536568, "tags": {"amenity": "pub", "is_in": "Australia, NSW, New South Wales, Sydney", "name": "Robin Hood Hotel"}}, {"type": "node", "id": 19968950, "lat": -33.8275, "lon": 151.2011756, "tags": {"amenity": "pub", "name": "Crows Nest Hotel", "wheelchair": "limited"}}, {"type": "node", "id": 20152880, "lat": -33.8877469, "lon": 151.1680162, "tags": {"amenity": "pub", "name": "Empire Hotel", "opening_hours:signed": "no"}}, {"type": "node", "id": 20152954, "lat": -33.8826123, "lon": 151.1672165, "tags": {"amenity": "pub", "name": "Victoria Hotel"}}, {"type": "node", "id": 20163845, "lat": -33.8879572, "lon": 151.1577875, "tags": {"amenity": "pub", "name": "Nortons on Norton Hotel", "source": "2005/6 survey"}}, {"type": "node", "id": 20166379, "lat": -33.8599443, "lon": 151.0718024, "tags": {"amenity": "pub", "created_by": "Potlatch 0.4a", "name": "Paddy's Brewery & Bar"}}, {"type": "node", "id": 20168853, "lat": -33.8691141, "lon": 151.1296994, "tags": {"amenity": "pub", "contact:facebook": "https://www.facebook.com/FiveDockHotel/", "name": "Five Dock Hotel"}}, {"type": "node", "id": 20636994, "lat": -33.8887592, "lon": 151.2275506, "tags": {"amenity": "pub", "name": "Olympic Hotel"}}, {"type": "node", "id": 20637991, "lat": -33.8921871, "lon": 151.2164697, "tags": {"amenity": "pub", "name": "The Bat & Ball Hotel"}}, {"type": "node", "id": 20827857, "lat": -33.8844693, "lon": 151.198801, "tags": {"amenity": "pub", "building": "construction", "name": "The Abercrombie Hotel", "opening_date": "2022-12-23", "website": "https://theabercrombie.com.au/"}}, {"type": "node", "id": 20827858, "lat": -33.8823518, "lon": 151.2041815, "tags": {"amenity": "pub", "created_by": "JOSM", "name": "Crystal Palace Hotel"}}, {"type": "node", "id": 20827867, "lat": -33.8792754, "lon": 151.2072485, "tags": {"amenity": "pub", "name": "Chamberlain Hotel"}}, {"type": "node", "id": 20827887, "lat": -33.8746403, "lon": 151.2081574, "tags": {"amenity": "pub", "name": "Edinburgh Castle Hotel", "opening_hours:signed": "no"}}, {"type": "node", "id": 20827964, "lat": -33.8726468, "lon": 151.2058566, "tags": {"amenity": "pub", "name": "Hotel Sweeney's", "wheelchair": "no"}}, {"type": "node", "id": 20828205, "lat": -33.8698416, "lon": 151.1977071, "tags": {"amenity": "pub", "name": "Pyrmont Bridge Hotel", "website": "https://www.pyrmontbridgehotel.com", "wheelchair": "yes"}}, {"type": "node", "id": 20930154, "lat": -33.8794315, "lon": 151.2093207, "tags": {"amenity": "pub", "name": "Triple Ace Bar"}}, {"type": "node", "id": 20930425, "lat": -33.8796575, "lon": 151.2106872}, {"type": "node", "id": 20930434, "lat": -33.8785321, "lon": 151.2113105, "tags": {"addr:housenumber": "40/44", "addr:street": "Wentworth Avenue", "amenity": "pub", "contact:facebook": "https://m.facebook.com/HarpoonHarry", "cuisine": "american", "name": "Harpoon Harry"}}, {"type": "node", "id": 20930458, "lat": -33.8763828, "lon": 151.208738, "tags": {"amenity": "pub", "created_by": "JOSM", "name": "Strattons Hotel"}}, {"type": "node", "id": 20930467, "lat": -33.8764928, "lon": 151.205955, "tags": {"addr:housenumber": "557", "addr:street": "George Street", "amenity": "pub", "name": "Sir John Young Hotel"}}, {"type": "node", "id": 20930468, "lat": -33.8766439, "lon": 151.2059572, "tags": {"addr:housenumber": "561", "addr:street": "George Street", "amenity": "pub", "name": "Cheers Bar", "url": "http://www.cheersbar.com.au"}}, {"type": "node", "id": 20930481, "lat": -33.8753154, "lon": 151.2067045, "tags": {"amenity": "pub", "name": "Star Bar", "wheelchair": "yes"}}, {"type": "node", "id": 20930483, "lat": -33.8768597, "lon": 151.2058774, "tags": {"amenity": "pub", "club": "veterans", "name": "City of Sydney RSL Club", "pub": "rsl"}}, {"type": "node", "id": 20930487, "lat": -33.877738, "lon": 151.2045538, "tags": {"amenity": "pub", "name": "Star Hotel"}}, {"type": "node", "id": 20930511, "lat": -33.8780335, "lon": 151.206008, "tags": {"amenity": "pub", "name": "Scruffy Murphy's", "theme": "irish"}}, {"type": "node", "id": 20930514, "lat": -33.8783132, "lon": 151.2055074, "tags": {"amenity": "pub", "name": "Charlie Chan"}}, {"type": "node", "id": 20930527, "lat": -33.8805134, "lon": 151.2047776, "tags": {"amenity": "pub", "name": "Mountbatten Hotel"}}, {"type": "node", "id": 20930650, "lat": -33.8842559, "lon": 151.2020935, "tags": {"addr:housenumber": "2-6", "addr:street": "Broadway", "amenity": "pub", "name": "Bar Broadway"}}, {"type": "node", "id": 20930655, "lat": -33.8837657, "lon": 151.2022478, "tags": {"amenity": "pub", "name": "Agincourt", "source": "survey"}}, {"type": "node", "id": 20955035, "lat": -33.8948327, "lon": 151.2686395, "tags": {"amenity": "pub", "name": "Royal Hotel", "source": "survey"}}, {"type": "node", "id": 20958799, "lat": -33.8938472, "lon": 151.2492603, "tags": {"amenity": "pub", "name": "Grand Hotel"}}, {"type": "node", "id": 20958840, "lat": -33.8913717, "lon": 151.2452226, "tags": {"amenity": "pub", "name": "The Mill Hill Hotel"}}, {"type": "node", "id": 20958845, "lat": -33.8904186, "lon": 151.243372, "tags": {"amenity": "pub", "is_in": "Australia, NSW, New South Wales, Sydney, Bondi Junction", "name": "Nelson Hotel"}}, {"type": "node", "id": 20958867, "lat": -33.8766843, "lon": 151.1967476, "tags": {"amenity": "pub", "check_date:opening_hours": "2022-09-06", "food": "yes", "name": "Lord Wolseley Hotel", "opening_hours:signed": "no"}}, {"type": "node", "id": 20958968, "lat": -33.8588259, "lon": 151.2034083, "tags": {"amenity": "pub", "name": "Captain Cook Hotel", "wikidata": "Q58242705"}}, {"type": "node", "id": 20959065, "lat": -33.8617357, "lon": 151.2094506, "tags": {"amenity": "pub", "name": "Ship Inn"}}, {"type": "node", "id": 20959181, "lat": -33.8590991, "lon": 151.2086941, "tags": {"amenity": "pub", "name": "Orient Hotel", "website": "https://www.orienthotel.com.au/"}}, {"type": "node", "id": 20959182, "lat": -33.8588301, "lon": 151.2088149, "tags": {"amenity": "pub", "name": "Observer Hotel"}}, {"type": "node", "id": 20959201, "lat": -33.8571281, "lon": 151.2083677, "tags": {"amenity": "pub", "name": "Mercantile Hotel"}}, {"type": "node", "id": 20959239, "lat": -33.8617756, "lon": 151.2063807, "tags": {"amenity": "pub", "drink:craft_beer": "yes", "name": "Harts Pub", "outdoor_seating": "yes"}}, {"type": "node", "id": 20959255, "lat": -33.8780953, "lon": 151.1985828, "tags": {"addr:housenumber": "527", "addr:street": "Harris Street", "amenity": "pub", "food": "yes", "name": "Glasgow Arms Hotel"}}, {"type": "node", "id": 20979625, "lat": -33.8944208, "lon": 151.2250171, "tags": {"addr:housenumber": "1", "addr:postcode": "2021", "addr:street": "Bent Street", "amenity": "pub", "name": "P.J. Gallagher's", "website": "http://pjseq.com.au"}}, {"type": "node", "id": 20979682, "lat": -33.894562, "lon": 151.2263323, "tags": {"amenity": "pub", "name": "Strike Bowling Sports Bar", "sport": "10pin"}}, {"type": "node", "id": 20979898, "lat": -33.8896752, "lon": 151.2755421, "tags": {"amenity": "pub", "created_by": "JOSM", "is_in": "Australia, NSW, New South Wales, Sydney, Bondi Beach", "name": "The Deck BBQ & Bar"}}, {"type": "node", "id": 20979904, "lat": -33.8895456, "lon": 151.2748586, "tags": {"amenity": "pub", "created_by": "JOSM", "name": "Bom Bora Bar"}}, {"type": "node", "id": 59958562, "lat": -34.0386834, "lon": 151.1416435, "tags": {"amenity": "pub", "name": "Sharkies Leagues Club (demolished;under rebuild)", "opening_hours": "Closed", "source:name": "knowledge"}}, {"type": "node", "id": 60712324, "lat": -33.8863532, "lon": 151.2727004, "tags": {"addr:postcode": "2026", "amenity": "pub", "contact:facebook": "beachroadhotel", "contact:instagram": "beachroadbondi", "email": "info@beachroadbondi.com.au", "name": "Beach Road Hotel", "opening_hours": "Mo-Tu 11:00-23:00; We-Fr 11:00-01:00; Sa 10:00-01:00; Su 10:00-22:00", "website": "https://beachroadhotel.com.au", "wheelchair": "yes"}}, {"type": "node", "id": 60715630, "lat": -33.8586816, "lon": 151.177344, "tags": {"amenity": "pub", "name": "Dick's Hotel"}}, {"type": "node", "id": 60715631, "lat": -33.8589938, "lon": 151.1772958, "tags": {"amenity": "pub", "name": "The Exchange", "wikidata": "Q5419570"}}, {"type": "node", "id": 60715632, "lat": -33.8609141, "lon": 151.1714703, "tags": {"amenity": "pub", "created_by": "Potlatch alpha", "name": "The Sackville", "wheelchair": "yes"}}, {"type": "node", "id": 60715633, "lat": -33.8567931, "lon": 151.1727443, "tags": {"amenity": "pub", "name": "The Cat & Fiddle"}}, {"type": "node", "id": 60715634, "lat": -33.8626545, "lon": 151.1734812, "tags": {"amenity": "pub", "contact:facebook": "TheWelcomeHotel", "contact:instagram": "thewelcomehotel", "contact:twitter": "thewelcomehotel", "name": "The Welcome Hotel", "opening_hours": "Mo-Sa 00:00-23:59; Su 00:00-22:00", "phone": "+61 2 9810 1323", "website": "https://www.thewelcomehotel.com.au/"}}, {"type": "node", "id": 84049792, "lat": -33.8549217, "lon": 151.1753608, "tags": {"amenity": "pub", "created_by": "JOSM", "name": "The Riverview"}}, {"type": "node", "id": 84374080, "lat": -33.9211059, "lon": 151.2269828, "tags": {"addr:housenumber": "416,418", "addr:street": "Anzac Parade", "alt_name": "The Rege", "amenity": "pub", "billiards:pool": "2", "description": "Pool tables cost $4 cash per game, though $1 on card if multiple games purchased.", "internet_access": "wlan", "name": "The Regent", "opening_hours": "Mo-Tu 10:00-00:00; Tu-Fr 00:00-04:00; Fr-Sa 10:00-00:00; Sa-Su 00:00-06:00; Su 10:00-22:00", "phone": "+61296632248", "smoking": "outside", "sport": "billiards", "website": "https://www.regenthotel.com.au/"}}, {"type": "node", "id": 84374329, "lat": -33.9238829, "lon": 151.2280617, "tags": {"amenity": "pub", "name": "Churchill's Sports Bar"}}, {"type": "node", "id": 166156365, "lat": -33.857618, "lon": 151.1924966, "tags": {"addr:city": "Balmain", "addr:housenumber": "82", "addr:postcode": "2041", "addr:street": "Darling Street", "amenity": "pub", "drink:craft_beer": "yes", "name": "East Village Hotel Balmain", "name:en": "East Village Hotel Balmain", "outdoor_seating": "yes", "phone": "+61 2 9810 3333"}}, {"type": "node", "id": 173575023, "lat": -33.8760352, "lon": 151.1896535, "tags": {"amenity": "pub", "created_by": "Potlatch 0.5d", "name": "Kauri Foreshore Hotel", "opening_hours:signed": "no"}}, {"type": "node", "id": 174278497, "lat": -33.8583704, "lon": 151.1845991, "tags": {"addr:housenumber": "234", "addr:street": "Darling Street", "amenity": "pub", "name": "The London Hotel", "phone": "+61 2 9555 1377"}}, {"type": "node", "id": 174278555, "lat": -33.8576298, "lon": 151.1807837, "tags": {"amenity": "pub", "name": "Unity Hall"}}, {"type": "node", "id": 177725835, "lat": -33.8642089, "lon": 151.1791594, "tags": {"amenity": "pub", "drink:craft_beer": "yes", "name": "Bald Rock", "wikidata": "Q4850355"}}, {"type": "node", "id": 177725848, "lat": -33.8614051, "lon": 151.1767821, "tags": {"addr:city": "Balmain", "addr:housenumber": "74", "addr:postcode": "2041", "addr:street": "Mullens Street", "amenity": "pub", "drink:craft_beer": "yes", "name": "The Balmain"}}, {"type": "node", "id": 196698895, "lat": -33.8171036, "lon": 151.1048555, "tags": {"amenity": "pub", "name": "Ryde Ex-Services Club", "wheelchair": "yes"}}, {"type": "node", "id": 197315607, "lat": -33.8555843, "lon": 151.1809784, "tags": {"amenity": "pub", "created_by": "JOSM", "name": "Royal Oak", "wikidata": "Q7374621"}}, {"type": "node", "id": 221785012, "lat": -33.9881617, "lon": 151.1030877}, {"type": "node", "id": 241902709, "lat": -33.8120162, "lon": 151.0416745, "tags": {"amenity": "pub", "created_by": "JOSM", "name": "Family Inn"}}, {"type": "node", "id": 248382251, "lat": -33.8628297, "lon": 151.1688569, "tags": {"amenity": "pub", "name": "Bridge Hotel"}}, {"type": "node", "id": 249372004, "lat": -34.0436487, "lon": 151.1233109}, {"type": "node", "id": 273966796, "lat": -33.8133681, "lon": 151.1706371, "tags": {"amenity": "pub", "check_date": "2023-04-10", "name": "Longueville Hotel", "wheelchair": "limited"}}, {"type": "node", "id": 274400846, "lat": -33.8569022, "lon": 151.1455201, "tags": {"amenity": "pub", "name": "The Birkenhead Hotel"}}, {"type": "node", "id": 276839483, "lat": -33.8148349, "lon": 151.0531842, "tags": {"amenity": "pub", "name": "Ermington Hotel"}}, {"type": "node", "id": 281669606, "lat": -33.8071599, "lon": 151.0867404}, {"type": "node", "id": 297448571, "lat": -33.9167248, "lon": 151.2266306}, {"type": "node", "id": 297448573, "lat": -33.9167379, "lon": 151.2270324}, {"type": "node", "id": 297448581, "lat": -33.9162771, "lon": 151.2266405}, {"type": "node", "id": 297448583, "lat": -33.9164616, "lon": 151.2265078}, {"type": "node", "id": 297448585, "lat": -33.9166705, "lon": 151.2265675, "tags": {"entrance": "yes"}}, {"type": "node", "id": 297448775, "lat": -33.9166276, "lon": 151.2271425}, {"type": "node", "id": 297448778, "lat": -33.9163901, "lon": 151.2265301}, {"type": "node", "id": 297449464, "lat": -33.9167884, "lon": 151.2268758}, {"type": "node", "id": 297449466, "lat": -33.9166058, "lon": 151.2265193}, {"type": "node", "id": 299830275, "lat": -33.8596452, "lon": 151.2070221, "tags": {"amenity": "pub", "name": "Australian Heritage Hotel", "source": "yahoo"}}, {"type": "node", "id": 317390601, "lat": -33.870072, "lon": 151.2216068, "tags": {"amenity": "pub", "name": "Frisco Hotel"}}, {"type": "node", "id": 318862598, "lat": -33.8672432, "lon": 151.2015537, "tags": {"amenity": "pub", "name": "All Hands Brewing Company", "website": "https://www.allhandsbrewinghouse.com.au/", "wheelchair": "yes"}}, {"type": "node", "id": 331370831, "lat": -33.9659901, "lon": 151.1014431, "tags": {"addr:housenumber": "350", "addr:street": "Forest Road", "amenity": "pub", "name": "The Ritz Sports Bar", "toilets:wheelchair": "yes", "wheelchair": "yes"}}, {"type": "node", "id": 331370834, "lat": -33.9674774, "lon": 151.1046799, "tags": {"amenity": "pub", "name": "Meridian"}}, {"type": "node", "id": 331371262, "lat": -33.9661828, "lon": 151.1035378, "tags": {"amenity": "pub", "name": "Illawarra Catholic Club", "opening_hours": "We-Su 10:00-04:00, Mo,Tu 10:00-03:00", "wheelchair": "yes"}}, {"type": "node", "id": 331376275, "lat": -33.978557, "lon": 151.1043834, "tags": {"amenity": "pub", "name": "South Hurstville RSL"}}, {"type": "node", "id": 344050819, "lat": -33.8367366, "lon": 151.2073553}, {"type": "node", "id": 344050820, "lat": -33.836518, "lon": 151.2073984}, {"type": "node", "id": 344050821, "lat": -33.8365418, "lon": 151.2075729}, {"type": "node", "id": 344050822, "lat": -33.8368021, "lon": 151.2075216}, {"type": "node", "id": 344412886, "lat": -33.9195827, "lon": 151.0330379}, {"type": "node", "id": 344412888, "lat": -33.9205682, "lon": 151.0346037}, {"type": "node", "id": 344412889, "lat": -33.9203654, "lon": 151.0329818}, {"type": "node", "id": 446526568, "lat": -33.8287635, "lon": 151.2293924, "tags": {"amenity": "pub", "name": "Cremorne Hotel", "wheelchair": "limited"}}, {"type": "node", "id": 451756968, "lat": -33.7962618, "lon": 151.1801981, "tags": {"amenity": "pub", "name": "Chelsea Hotel", "opening_hours:signed": "no", "source": "local_knowledge", "wheelchair": "yes"}}, {"type": "node", "id": 462628792, "lat": -33.8307966, "lon": 151.2084598}, {"type": "node", "id": 501791362, "lat": -33.8934327, "lon": 151.1833255, "tags": {"addr:city": "Newtown", "addr:housenumber": "145", "addr:postcode": "2042", "addr:street": "King Street", "amenity": "pub", "name": "Marlborough Hotel", "wheelchair": "limited"}}, {"type": "node", "id": 558670727, "lat": -33.904007, "lon": 151.180271, "tags": {"amenity": "pub", "billiards:pool": "2", "billiards:pool:charge": "3 AUD", "billiards:pool:fee": "yes", "name": "Union Hotel", "phone": "+61295572989", "smoking": "outside", "sport": "billiards", "website": "https://unionnewtown.com.au/"}}, {"type": "node", "id": 558670834, "lat": -33.8991723, "lon": 151.1826169, "tags": {"addr:city": "Erskineville", "addr:housenumber": "35", "addr:postcode": "2043", "addr:street": "Erskineville Road", "amenity": "pub", "name": "The Imperial Hotel", "phone": "+61 2 9519 9899", "website": "http://theimperialhotel.com.au/"}}, {"type": "node", "id": 612127617, "lat": -34.034574, "lon": 151.0847918, "tags": {"amenity": "pub", "name": "Gymea Hotel", "source:name": "knowledge", "website": "https://www.gymeahotel.com.au/"}}, {"type": "node", "id": 614562155, "lat": -33.900257, "lon": 151.1894918, "tags": {"addr:city": "Erskineville", "addr:housenumber": "106", "addr:postcode": "2043", "addr:street": "Swanson Street", "amenity": "pub", "name": "Kurrajong Hotel", "phone": "+61 2 8385 6892", "website": "https://www.kurrajonghotel.com.au/"}}, {"type": "node", "id": 614562797, "lat": -33.9103632, "lon": 151.2025107, "tags": {"addr:housenumber": "569", "amenity": "pub", "description": "Pool table costs $3/game every day but Sunday", "email": "roseberyhotelbookings@gmail.com", "name": "Rosebery Hotel", "opening_hours": "Mo-Sa 10:00-00:00; Su 11:00-22:00", "phone": "+6129698 2132", "sport": "billiards", "website": "https://www.roseberyhotel.net/"}}, {"type": "node", "id": 642998922, "lat": -33.8587233, "lon": 151.2073996, "tags": {"amenity": "pub", "brewery": "peroni;heineken;carlton;kupparberg;Fat Yak", "name": "Glenmore Hotel", "website": "https://theglenmore.com.au"}}, {"type": "node", "id": 665053965, "lat": -33.8992524, "lon": 151.1834664, "tags": {"addr:city": "Erskineville", "addr:housenumber": "102", "addr:postcode": "2043", "addr:street": "Erskineville Road", "amenity": "pub", "name": "Erskineville Hotel", "opening_hours": "Mo-Sa 10:00-24:00, Su 10:00-22:00", "phone": "+61 2 9565 1608", "website": "https://www.theerko.com.au/"}}, {"type": "node", "id": 698444525, "lat": -33.8241943, "lon": 151.2396398, "tags": {"amenity": "pub", "name": "Mosman Hotel", "wheelchair": "limited", "wheelchair:description": "Cannot access the upstairs part of the pub, but the lower level is very accessible with toilet neer the pokies"}}, {"type": "node", "id": 715224314, "lat": -33.8883313, "lon": 151.2369765, "tags": {"addr:city": "Woollahra", "addr:housenumber": "116", "addr:postcode": "2005", "addr:street": "Queen Street", "amenity": "pub", "name": "Woollahra Hotel"}}, {"type": "node", "id": 715224315, "lat": -33.8901215, "lon": 151.2377919, "tags": {"addr:housenumber": "1", "addr:postcode": "2025", "addr:street": "Moncur Street", "amenity": "pub", "contact:facebook": "Phoenixhotelsydney", "contact:instagram": "thephoenixwoollahra", "email": "info@phoenixsydney.com.au", "name": "Phoenix Hotel", "phone": "+61 2 9363 2608"}}, {"type": "node", "id": 772649105, "lat": -33.8402918, "lon": 151.2074027, "tags": {"amenity": "pub", "name": "Greenwood Hotel"}}, {"type": "node", "id": 777713845, "lat": -33.8332999, "lon": 151.2050129}, {"type": "node", "id": 777713877, "lat": -33.833398, "lon": 151.2047919}, {"type": "node", "id": 777713882, "lat": -33.8332451, "lon": 151.2050776}, {"type": "node", "id": 777713889, "lat": -33.8332685, "lon": 151.2052192}, {"type": "node", "id": 777713894, "lat": -33.8334418, "lon": 151.2051753}, {"type": "node", "id": 777713901, "lat": -33.8335624, "lon": 151.204872}, {"type": "node", "id": 829660557, "lat": -33.8322736, "lon": 151.2446273, "tags": {"amenity": "pub", "name": "Buena Vista Hotel", "wheelchair": "limited"}}, {"type": "node", "id": 837054768, "lat": -33.839093, "lon": 151.2079796, "tags": {"amenity": "pub", "name": "Mount Street Terrace Hotel"}}, {"type": "node", "id": 837054770, "lat": -33.8386294, "lon": 151.2087626, "tags": {"amenity": "pub", "name": "The Firehouse Hotel", "wheelchair": "limited"}}, {"type": "node", "id": 837054780, "lat": -33.8409591, "lon": 151.2081456, "tags": {"amenity": "pub", "name": "Station Tavern"}}, {"type": "node", "id": 852479026, "lat": -33.8143755, "lon": 151.1062619}, {"type": "node", "id": 852479027, "lat": -33.8141649, "lon": 151.1063157}, {"type": "node", "id": 852479028, "lat": -33.8141108, "lon": 151.1063715}, {"type": "node", "id": 852479030, "lat": -33.8142719, "lon": 151.1065916}, {"type": "node", "id": 852479032, "lat": -33.8144471, "lon": 151.1064318}, {"type": "node", "id": 854300190, "lat": -33.9267779, "lon": 151.1590758, "tags": {"amenity": "pub", "name": "Valve Bar"}}, {"type": "node", "id": 871836805, "lat": -33.8307159, "lon": 151.2080311}, {"type": "node", "id": 871836813, "lat": -33.8308054, "lon": 151.2084347}, {"type": "node", "id": 871836824, "lat": -33.8307316, "lon": 151.2081052}, {"type": "node", "id": 871836828, "lat": -33.8306146, "lon": 151.2084935}, {"type": "node", "id": 871836829, "lat": -33.8307205, "lon": 151.2080678}, {"type": "node", "id": 871836840, "lat": -33.8307429, "lon": 151.2081041}, {"type": "node", "id": 871836846, "lat": -33.8305691, "lon": 151.2082464}, {"type": "node", "id": 871836848, "lat": -33.830726, "lon": 151.208067}, {"type": "node", "id": 871836851, "lat": -33.8307564, "lon": 151.2081903}, {"type": "node", "id": 871836853, "lat": -33.8305995, "lon": 151.2082409}, {"type": "node", "id": 871836858, "lat": -33.8307714, "lon": 151.208188}, {"type": "node", "id": 871836860, "lat": -33.8305958, "lon": 151.2082129}, {"type": "node", "id": 871836862, "lat": -33.8367645, "lon": 151.2073579}, {"type": "node", "id": 871836868, "lat": -33.8306215, "lon": 151.2082065}, {"type": "node", "id": 871836872, "lat": -33.8367832, "lon": 151.207383}, {"type": "node", "id": 871836873, "lat": -33.8306199, "lon": 151.2085032}, {"type": "node", "id": 871836886, "lat": -33.8306033, "lon": 151.2080884}, {"type": "node", "id": 871836888, "lat": -33.83063, "lon": 151.2085044}, {"type": "node", "id": 871836893, "lat": -33.8306635, "lon": 151.2080766}, {"type": "node", "id": 871836895, "lat": -33.8306119, "lon": 151.2084731}, {"type": "node", "id": 871836900, "lat": -33.8306577, "lon": 151.2080358}, {"type": "node", "id": 871836902, "lat": -33.8306053, "lon": 151.2084742}, {"type": "node", "id": 871836906, "lat": -33.830692, "lon": 151.2080265}, {"type": "node", "id": 871836908, "lat": -33.830775, "lon": 151.208476}, {"type": "node", "id": 936405817, "lat": -33.8817213, "lon": 151.2189808, "tags": {"amenity": "pub", "name": "Beauchamp Hotel"}}, {"type": "node", "id": 936415383, "lat": -33.8776724, "lon": 151.2166097, "tags": {"amenity": "pub", "name": "The Village"}}, {"type": "node", "id": 936416446, "lat": -33.8756515, "lon": 151.2151752, "tags": {"amenity": "pub", "name": "The Lord Roberts"}}, {"type": "node", "id": 936429745, "lat": -33.8743485, "lon": 151.2145347, "tags": {"amenity": "pub", "name": "Hotel William"}}, {"type": "node", "id": 976978465, "lat": -33.9127164, "lon": 151.2246029, "tags": {"amenity": "pub", "name": "Doncaster Hotel", "shop": "alcohol"}}, {"type": "node", "id": 977373229, "lat": -33.9167851, "lon": 151.2268919}, {"type": "node", "id": 977373250, "lat": -33.9166369, "lon": 151.2272013}, {"type": "node", "id": 994544146, "lat": -33.8825896, "lon": 151.1846914, "tags": {"addr:city": "Glebe", "addr:housenumber": "162", "addr:postcode": "2037", "addr:street": "St Johns Road", "amenity": "pub", "name": "The Nags Head", "opening_hours": "Mo-Sa 09:00-24:00; Su 10:00-24:00", "phone": "+61 2 9660 1591", "source:addr": "webpage", "website": "https://www.nagshead.com.au/"}}, {"type": "node", "id": 1000013327, "lat": -34.0563117, "lon": 151.1546229}, {"type": "node", "id": 1000013690, "lat": -34.0564982, "lon": 151.1540305}, {"type": "node", "id": 1000014023, "lat": -34.0567578, "lon": 151.1544367}, {"type": "node", "id": 1000014165, "lat": -34.0563886, "lon": 151.154181}, {"type": "node", "id": 1000014375, "lat": -34.0565082, "lon": 151.1541768}, {"type": "node", "id": 1000014448, "lat": -34.0564927, "lon": 151.1548135}, {"type": "node", "id": 1000014527, "lat": -34.0565267, "lon": 151.1543261}, {"type": "node", "id": 1000014857, "lat": -34.0565643, "lon": 151.1540985}, {"type": "node", "id": 1017820050, "lat": -34.0524965, "lon": 151.1516781}, {"type": "node", "id": 1017820072, "lat": -34.0526329, "lon": 151.1507039}, {"type": "node", "id": 1017820157, "lat": -34.0521632, "lon": 151.1514177}, {"type": "node", "id": 1017820215, "lat": -34.0521697, "lon": 151.1509013}, {"type": "node", "id": 1017820278, "lat": -34.0528095, "lon": 151.1515619}, {"type": "node", "id": 1017820362, "lat": -34.0519806, "lon": 151.1509477}, {"type": "node", "id": 1017820368, "lat": -34.0516824, "lon": 151.1511013}, {"type": "node", "id": 1017820438, "lat": -34.0527068, "lon": 151.1512189}, {"type": "node", "id": 1017820530, "lat": -34.0516619, "lon": 151.1510303}, {"type": "node", "id": 1017820564, "lat": -34.052257, "lon": 151.1517736}, {"type": "node", "id": 1017820601, "lat": -34.0527786, "lon": 151.1511941}, {"type": "node", "id": 1017820676, "lat": -34.0518042, "lon": 151.1515612}, {"type": "node", "id": 1024701995, "lat": -33.988479, "lon": 151.1013884}, {"type": "node", "id": 1024702330, "lat": -33.9877693, "lon": 151.1016699}, {"type": "node", "id": 1024702516, "lat": -33.9887462, "lon": 151.1028778}, {"type": "node", "id": 1024702539, "lat": -33.9885672, "lon": 151.1021971}, {"type": "node", "id": 1024702638, "lat": -33.9886131, "lon": 151.1024246}, {"type": "node", "id": 1024702662, "lat": -33.9886074, "lon": 151.1018713}, {"type": "node", "id": 1028239901, "lat": -33.9539717, "lon": 150.9987481}, {"type": "node", "id": 1028239914, "lat": -33.9536259, "lon": 150.999131}, {"type": "node", "id": 1028239928, "lat": -33.9540155, "lon": 150.9990283}, {"type": "node", "id": 1028240006, "lat": -33.9536883, "lon": 150.9991196}, {"type": "node", "id": 1081742272, "lat": -33.9684813, "lon": 151.1038367, "tags": {"amenity": "pub", "name": "Hurstville RSL Club", "wheelchair": "yes"}}, {"type": "node", "id": 1084662522, "lat": -33.891891, "lon": 151.2142597, "tags": {"addr:street": "Cleveland Street", "amenity": "pub", "drink:craft_beer": "yes", "name": "Bar Cleveland"}}, {"type": "node", "id": 1121141958, "lat": -33.9608432, "lon": 151.1557381, "tags": {"addr:housenumber": "351", "addr:postcode": "2216", "addr:state": "NSW", "addr:street": "Bay Street", "addr:suburb": "Brighton-le-Sands", "amenity": "pub", "name": "Brighton le Sands RSL Club"}}, {"type": "node", "id": 1133306716, "lat": -33.9428547, "lon": 150.9980582}, {"type": "node", "id": 1133306726, "lat": -33.9432282, "lon": 150.9974483}, {"type": "node", "id": 1133306735, "lat": -33.943194, "lon": 150.9974559}, {"type": "node", "id": 1133306737, "lat": -33.9428162, "lon": 150.9974829}, {"type": "node", "id": 1133306742, "lat": -33.943108, "lon": 150.9979633}, {"type": "node", "id": 1133306746, "lat": -33.9428794, "lon": 150.9973278}, {"type": "node", "id": 1133306754, "lat": -33.9428924, "lon": 150.9974134}, {"type": "node", "id": 1133306761, "lat": -33.9430624, "lon": 150.9975052}, {"type": "node", "id": 1133306767, "lat": -33.9430126, "lon": 150.9976133}, {"type": "node", "id": 1133306771, "lat": -33.9427955, "lon": 150.9973463}, {"type": "node", "id": 1133306772, "lat": -33.9430356, "lon": 150.9974908}, {"type": "node", "id": 1133306794, "lat": -33.9427995, "lon": 150.9976941}, {"type": "node", "id": 1133306802, "lat": -33.9429953, "lon": 150.9974997}, {"type": "node", "id": 1133306818, "lat": -33.9430401, "lon": 150.9979782}, {"type": "node", "id": 1133306823, "lat": -33.9430459, "lon": 150.998016}, {"type": "node", "id": 1133306833, "lat": -33.9432122, "lon": 150.9973429}, {"type": "node", "id": 1133306841, "lat": -33.9431719, "lon": 150.9974608}, {"type": "node", "id": 1133306843, "lat": -33.9426765, "lon": 150.9975137}, {"type": "node", "id": 1133306847, "lat": -33.9430535, "lon": 150.9976042}, {"type": "node", "id": 1133306855, "lat": -33.9430386, "lon": 150.9975104}, {"type": "node", "id": 1133306860, "lat": -33.943197, "lon": 150.9974759}, {"type": "node", "id": 1133306870, "lat": -33.9431749, "lon": 150.9974807}, {"type": "node", "id": 1133306878, "lat": -33.942707, "lon": 150.9977145}, {"type": "node", "id": 1133306887, "lat": -33.9430594, "lon": 150.9974856}, {"type": "node", "id": 1136446665, "lat": -33.9843798, "lon": 151.1358972}, {"type": "node", "id": 1136446667, "lat": -33.9842406, "lon": 151.1361512}, {"type": "node", "id": 1136446675, "lat": -33.9842632, "lon": 151.1361654}, {"type": "node", "id": 1136446678, "lat": -33.9845146, "lon": 151.1361124}, {"type": "node", "id": 1136446692, "lat": -33.98435, "lon": 151.135713}, {"type": "node", "id": 1136446694, "lat": -33.9841837, "lon": 151.1357446}, {"type": "node", "id": 1136446696, "lat": -33.9844784, "lon": 151.1358737}, {"type": "node", "id": 1196618054, "lat": -33.9861115, "lon": 151.1433437}, {"type": "node", "id": 1196618055, "lat": -33.9857662, "lon": 151.1434142}, {"type": "node", "id": 1196618056, "lat": -33.9856511, "lon": 151.1425947}, {"type": "node", "id": 1196618057, "lat": -33.9859964, "lon": 151.1425242}, {"type": "node", "id": 1196620228, "lat": -34.0053393, "lon": 151.130901}, {"type": "node", "id": 1196620229, "lat": -34.0054597, "lon": 151.1304748}, {"type": "node", "id": 1196620230, "lat": -34.0048632, "lon": 151.1307053}, {"type": "node", "id": 1251032794, "lat": -34.0420877, "lon": 151.1241235, "tags": {"amenity": "pub", "name": "Tradies Caringbah RSL", "source": "survey", "source:location": "nearmap"}}, {"type": "node", "id": 1252062761, "lat": -33.8884308, "lon": 151.1240244, "tags": {"addr:housenumber": "262", "addr:postcode": "2131", "addr:street": "Liverpool Road", "amenity": "pub", "name": "Crocodile Farm Hotel", "website": "http://www.crocodilefarmhotel.com.au/", "wifi": "no"}}, {"type": "node", "id": 1252086563, "lat": -33.8899685, "lon": 151.1888615, "tags": {"amenity": "pub", "name": "Hermann's", "opening_hours": "Mo-Sa 13:00-18:00+"}}, {"type": "node", "id": 1252086567, "lat": -33.8868499, "lon": 151.1875444, "tags": {"amenity": "pub", "name": "Manning Bar"}}, {"type": "node", "id": 1263141006, "lat": -33.858334, "lon": 151.2138472, "tags": {"amenity": "pub", "level": "0", "name": "Opera Bar", "opening_hours": "11:30-22:00", "payment:credit_cards": "yes", "wheelchair": "yes"}}, {"type": "node", "id": 1264675326, "lat": -33.8802585, "lon": 151.2167274, "tags": {"addr:city": "Sydney", "addr:country": "AU", "addr:housenumber": "134", "addr:postcode": "2010", "addr:street": "Oxford Street", "amenity": "pub", "contact:email": "info@theoxfordhotel.com.au", "contact:fax": "+61 2 9331 3566", "contact:phone": "+61 2 9331 3467", "lgbtq": "primary", "name": "The Oxford Hotel", "toilets:wheelchair": "yes", "website": "https://www.theoxfordhotel.com.au/", "wheelchair": "yes"}}, {"type": "node", "id": 1268711129, "lat": -33.8776448, "lon": 151.2060335, "tags": {"amenity": "pub", "name": "World Square Pub"}}, {"type": "node", "id": 1269970241, "lat": -33.8141584, "lon": 151.185909, "tags": {"amenity": "pub", "name": "Freeway Hotel"}}, {"type": "node", "id": 1283593138, "lat": -34.0523203, "lon": 151.1515812, "tags": {"amenity": "pub", "name": "Cronulla Lawn Bowling Club"}}, {"type": "node", "id": 1283593416, "lat": -34.0440459, "lon": 151.1359925, "tags": {"amenity": "pub", "name": "Woolloware Golf Club"}}, {"type": "node", "id": 1283595383, "lat": -34.0436129, "lon": 151.1554248, "tags": {"amenity": "pub", "name": "Cronulla Golf Club"}}, {"type": "node", "id": 1295895373, "lat": -34.0325745, "lon": 151.0883889, "tags": {"alt_name": "Sutherland District Trade Union Club", "amenity": "pub", "name": "Tradies"}}, {"type": "node", "id": 1295898451, "lat": -34.0319332, "lon": 151.0563422, "tags": {"alt_name": "Mikes Bar and Grill", "amenity": "pub", "name": "Royal Hotel"}}, {"type": "node", "id": 1295898453, "lat": -34.0300716, "lon": 151.0575489, "tags": {"addr:city": "Sutherland", "addr:housenumber": "7", "addr:postcode": "2232", "addr:street": "East Parade", "amenity": "pub", "name": "Club on East", "note": "Previously known as \"Sutherland United Services Club\"", "phone": "+61 2 9521 4700", "website": "http://cluboneast.com.au/"}}, {"type": "node", "id": 1312609833, "lat": -33.8721536, "lon": 151.1601487, "tags": {"addr:city": "Lilyfield", "addr:housenumber": "311", "addr:postcode": "2040", "addr:street": "Balmain Road", "amenity": "pub", "name": "Orange Grove Hotel"}}, {"type": "node", "id": 1313040780, "lat": -33.8067427, "lon": 151.0892197, "tags": {"amenity": "pub", "name": "Ryedales Tavern", "website": "http://www.ryedalestavern.com.au/"}}, {"type": "node", "id": 1323182269, "lat": -34.0001845, "lon": 151.1228832}, {"type": "node", "id": 1323182270, "lat": -33.9999599, "lon": 151.1236301}, {"type": "node", "id": 1323182271, "lat": -34.0000904, "lon": 151.122893}, {"type": "node", "id": 1323182273, "lat": -33.9999284, "lon": 151.1235539}, {"type": "node", "id": 1323182275, "lat": -34.0000834, "lon": 151.123446}, {"type": "node", "id": 1323182278, "lat": -34.000249, "lon": 151.1229188}, {"type": "node", "id": 1323182279, "lat": -34.0000228, "lon": 151.1229476}, {"type": "node", "id": 1323182281, "lat": -33.9998857, "lon": 151.1235796}, {"type": "node", "id": 1323182282, "lat": -34.0003429, "lon": 151.1231667}, {"type": "node", "id": 1323182283, "lat": -34.0003955, "lon": 151.1233699}, {"type": "node", "id": 1323182287, "lat": -34.0001197, "lon": 151.1235338}, {"type": "node", "id": 1323182288, "lat": -34.0003176, "lon": 151.1231819}, {"type": "node", "id": 1323182290, "lat": -33.9997207, "lon": 151.123181}, {"type": "node", "id": 1323182291, "lat": -34.000264, "lon": 151.1234491}, {"type": "node", "id": 1323182293, "lat": -34.0002269, "lon": 151.1233595}, {"type": "node", "id": 1323182294, "lat": -33.9999546, "lon": 151.1230493}, {"type": "node", "id": 1333296030, "lat": -33.8001738, "lon": 151.2852189, "tags": {"addr:postcode": "2095", "addr:street": "East Esplanade", "amenity": "pub", "name": "Manly Wharf Hotel", "smoking": "outside", "toilets:wheelchair": "yes", "website": "http://manlywharfhotel.com.au/", "wheelchair": "yes"}}, {"type": "node", "id": 1346628718, "lat": -33.8658229, "lon": 151.203571, "tags": {"amenity": "pub", "name": "Settlement"}}, {"type": "node", "id": 1346628719, "lat": -33.8666592, "lon": 151.2037193, "tags": {"addr:housenumber": "48", "addr:street": "Erskine Street", "amenity": "pub", "name": "Small Bar"}}, {"type": "node", "id": 1368771290, "lat": -33.8688477, "lon": 151.2054211, "tags": {"amenity": "pub", "name": "P J O'Brien's", "opening_hours": "Mo-We 12:00-00:00; Th 12:00-01:00; Fr 12:00-02:00; Sa 13:00-02:00; Su 13:00-00:00", "wheelchair": "limited"}}, {"type": "node", "id": 1381665534, "lat": -33.8116351, "lon": 151.2107802}, {"type": "node", "id": 1381665545, "lat": -33.8116827, "lon": 151.2111297}, {"type": "node", "id": 1381665547, "lat": -33.8117373, "lon": 151.2107601}, {"type": "node", "id": 1381665549, "lat": -33.8117848, "lon": 151.2111096}, {"type": "node", "id": 1408494266, "lat": -33.8512821, "lon": 151.1545107, "tags": {"amenity": "pub", "indoor_seating": "yes", "name": "The Oxford Hotel", "outdoor_seating": "no", "wifi": "free"}}, {"type": "node", "id": 1424924871, "lat": -33.8669349, "lon": 151.2045486, "tags": {"amenity": "pub", "name": "The Office", "source:location": "knowledge", "source:name": "survey"}}, {"type": "node", "id": 1424924872, "lat": -33.8668422, "lon": 151.2048993, "tags": {"addr:housenumber": "107", "addr:street": "Clarence Street", "amenity": "pub", "name": "The Wynyard Hotel", "opening_hours": "07:00+", "source:location": "knowledge", "source:name": "survey", "source:opening_hours": "seeing sorrowful characters leaning against the bar at opening time", "toilets:wheelchair": "no", "wheelchair": "limited"}}, {"type": "node", "id": 1430618924, "lat": -33.8697564, "lon": 151.1941583, "tags": {"amenity": "pub", "name": "Harlequin Inn", "source": "survey", "source_ref": "inas:110909/gopr0543.jpg", "wheelchair": "yes"}}, {"type": "node", "id": 1430709328, "lat": -33.8881589, "lon": 151.16127, "tags": {"addr:city": "Petersham", "addr:housenumber": "386", "addr:postcode": "2049", "addr:street": "Parramatta Road", "amenity": "pub", "name": "Petersham Inn", "source": "survey"}}, {"type": "node", "id": 1460803048, "lat": -33.8675119, "lon": 151.1924459, "tags": {"amenity": "pub", "drink:craft_beer": "yes", "name": "Pyrmont Point Hotel", "opening_hours": "Mo-Su 11:00-24:00", "wheelchair": "limited"}}, {"type": "node", "id": 1568881825, "lat": -33.8762559, "lon": 151.2060093, "tags": {"addr:city": "Sydney", "addr:housenumber": "555", "addr:postcode": "2000", "addr:street": "George Street", "amenity": "pub", "name": "Three Wise Monkeys", "wheelchair": "yes"}}, {"type": "node", "id": 1569974410, "lat": -33.9035157, "lon": 151.1423617, "tags": {"amenity": "pub", "name": "Gladstone Hotel"}}, {"type": "node", "id": 1601962706, "lat": -34.0087183, "lon": 151.1046211, "tags": {"amenity": "pub", "name": "Crest Hotel"}}, {"type": "node", "id": 1627708880, "lat": -33.7973545, "lon": 151.1797679}, {"type": "node", "id": 1635097237, "lat": -33.8810358, "lon": 151.2165425, "tags": {"amenity": "pub", "name": "Kinselas"}}, {"type": "node", "id": 1635098133, "lat": -33.8809601, "lon": 151.2165572, "tags": {"amenity": "pub", "name": "The Standard Bowl"}}, {"type": "node", "id": 1651246341, "lat": -33.8970389, "lon": 151.1504168, "tags": {"addr:city": "Petersham", "addr:housenumber": "125", "addr:postcode": "2049", "addr:street": "New Canterbury Road", "amenity": "pub", "billiards:pool": "4", "billiards:pool:fee": "yes", "description": "Pool tables cost $1 per game Fr-Su from 12:00-15:00, otherwise $2.\nMo & Tu evening there is a pool league; tables unavailable from ~16:30 to ~22:00.", "name": "Huntsbury Hotel", "opening_hours": "Mo-Su 10:00-24:00", "sport": "billiards", "website": "http://www.huntsburyhotel.com.au/"}}, {"type": "node", "id": 1689363417, "lat": -33.8897943, "lon": 151.1260688, "tags": {"amenity": "pub", "name": "Ashfield Hotel", "source": "survey"}}, {"type": "node", "id": 1693986551, "lat": -33.7964342, "lon": 151.2876246, "tags": {"amenity": "pub", "name": "Hemingway's Manly"}}, {"type": "node", "id": 1694224318, "lat": -33.7980922, "lon": 151.286144, "tags": {"amenity": "pub", "name": "Ivanhoe Hotel", "wheelchair": "yes"}}, {"type": "node", "id": 1739968028, "lat": -33.8659156, "lon": 151.1669616, "tags": {"amenity": "pub", "name": "The Garry Owen Hotel"}}, {"type": "node", "id": 1746177844, "lat": -33.8846302, "lon": 151.2181272, "tags": {"access:roof": "yes", "addr:housenumber": "122", "addr:postcode": "2010", "addr:street": "Flinders Street", "amenity": "pub", "drink:craft_beer": "yes", "name": "The Taphouse", "outdoor_seating": "yes", "website": "https://www.taphousedarlo.com.au", "wifi": "no"}}, {"type": "node", "id": 1832708386, "lat": -34.0325994, "lon": 151.057282, "tags": {"addr:housenumber": "800-810", "addr:street": "Old Princes Highway", "amenity": "pub", "food": "yes", "name": "Boyles Hotel"}}, {"type": "node", "id": 1833040593, "lat": -33.9604761, "lon": 151.2136369}, {"type": "node", "id": 1833040601, "lat": -33.9603877, "lon": 151.2140223}, {"type": "node", "id": 1833040650, "lat": -33.9605768, "lon": 151.2139123}, {"type": "node", "id": 1833040705, "lat": -33.960703, "lon": 151.2135189}, {"type": "node", "id": 1833040715, "lat": -33.9605985, "lon": 151.2133713}, {"type": "node", "id": 1833040800, "lat": -33.9606585, "lon": 151.2133794}, {"type": "node", "id": 1833040836, "lat": -33.9602292, "lon": 151.2135752}, {"type": "node", "id": 1833317180, "lat": -33.8846044, "lon": 151.1962756, "tags": {"addr:housenumber": "166-170", "addr:street": "Broadway", "alt_name": "Broadway Crow", "amenity": "pub", "image": "http://osm.stayneutral.com/stoned_crow.jpg", "name": "Broadway Crown", "old_name": "Hotel Broadway", "source": "photo", "tourism": "hotel"}}, {"type": "node", "id": 1836100208, "lat": -33.8856665, "lon": 151.2073196, "tags": {"amenity": "pub", "name": "Madison Hotel", "website": "http://madisonhotel.com.au"}}, {"type": "node", "id": 1836100210, "lat": -33.8865025, "lon": 151.2080346, "tags": {"amenity": "pub", "billiards:pool": "1", "name": "Strawberry Hills Hotel", "opening_hours": "24/7", "sport": "billiards"}}, {"type": "node", "id": 1836112547, "lat": -33.8967971, "lon": 151.050977, "tags": {"amenity": "pub", "name": "The Palms"}}, {"type": "node", "id": 1840021025, "lat": -33.879556, "lon": 151.210571}, {"type": "node", "id": 1840021026, "lat": -33.8795645, "lon": 151.2105155}, {"type": "node", "id": 1840021033, "lat": -33.8795527, "lon": 151.2105326}, {"type": "node", "id": 1840021034, "lat": -33.8796186, "lon": 151.2104718}, {"type": "node", "id": 1840021048, "lat": -33.879559, "lon": 151.2105212}, {"type": "node", "id": 1840021055, "lat": -33.879695, "lon": 151.2106603}, {"type": "node", "id": 1841542340, "lat": -33.9332272, "lon": 151.158309}, {"type": "node", "id": 1841542379, "lat": -33.933351, "lon": 151.15864}, {"type": "node", "id": 1841542446, "lat": -33.9331354, "lon": 151.1587571}, {"type": "node", "id": 1841542449, "lat": -33.9330117, "lon": 151.158426}, {"type": "node", "id": 1843372346, "lat": -33.8688182, "lon": 151.206193, "tags": {"addr:housenumber": "30", "addr:street": "York Street", "amenity": "pub", "name": "Forbes Hotel"}}, {"type": "node", "id": 1850430867, "lat": -33.919403, "lon": 151.0348212}, {"type": "node", "id": 1858244730, "lat": -33.8923588, "lon": 151.200279, "tags": {"amenity": "pub"}}, {"type": "node", "id": 1865257852, "lat": -33.868688, "lon": 151.2044295, "tags": {"addr:housenumber": "347", "addr:street": "Kent Street", "amenity": "pub", "name": "Mr Tipley's", "old_name": "City Hotel"}}, {"type": "node", "id": 1880708349, "lat": -33.8926239, "lon": 151.1916877, "tags": {"addr:city": "Darlington", "addr:housenumber": "370", "addr:postcode": "2008", "addr:street": "Abercrombie Street", "amenity": "pub", "microbrewery": "no", "name": "The Royal Hotel", "opening_hours": "Mo-Sa 10:00-24:00, Su 12:00-22:00", "phone": "+61 2 9698 8557", "website": "http://royal.com.au/", "wheelchair": "no"}}, {"type": "node", "id": 1912642792, "lat": -33.8791931, "lon": 151.2052439, "tags": {"addr:housenumber": "663", "addr:street": "George Street", "amenity": "pub", "name": "Haymarket Hotel", "source": "Collected via KeypadMapper"}}, {"type": "node", "id": 1916708982, "lat": -33.8300066, "lon": 151.2193459, "tags": {"amenity": "pub", "billiards:pool": "1", "billiards:pool:charge": "4 AUD", "billiards:pool:fee": "yes", "billiards:pool:level": "1", "food": "yes", "internet_access": "wlan", "name": "The Oaks", "phone": "+61299535515", "source": "local_knowledge", "sport": "billiards", "website": "https://www.oakshotel.com.au/", "wheelchair": "limited"}}, {"type": "node", "id": 1924155708, "lat": -33.7855439, "lon": 151.1776269, "tags": {"alt_name": "Roseville Returned Services League", "amenity": "pub", "building": "yes", "leisure": "yes", "name": "Roseville RSL", "short_name": "Roseville RSL", "website": "https://therosevilleclub.com.au/"}}, {"type": "node", "id": 2035875667, "lat": -34.0346957, "lon": 151.1014075}, {"type": "node", "id": 2035875682, "lat": -34.0342399, "lon": 151.1011371}, {"type": "node", "id": 2035875742, "lat": -34.0346597, "lon": 151.1010769}, {"type": "node", "id": 2035875764, "lat": -34.0345542, "lon": 151.101095}, {"type": "node", "id": 2035875795, "lat": -34.0345503, "lon": 151.1014843}, {"type": "node", "id": 2035875804, "lat": -34.0345379, "lon": 151.1009682}, {"type": "node", "id": 2035875813, "lat": -34.0342609, "lon": 151.1011331}, {"type": "node", "id": 2035875818, "lat": -34.0342293, "lon": 151.1010269}, {"type": "node", "id": 2059423095, "lat": -33.8848257, "lon": 151.2374178, "tags": {"addr:city": "Paddington", "addr:housenumber": "236", "addr:postcode": "2021", "addr:street": "Jersey Road", "amenity": "pub", "brewery": "yes", "drink:craft_beer": "yes", "name": "Lord Dudley Hotel", "opening_hours": "12:00-23:00"}}, {"type": "node", "id": 2066027925, "lat": -33.9162441, "lon": 151.2267175}, {"type": "node", "id": 2066027928, "lat": -33.9162202, "lon": 151.227246}, {"type": "node", "id": 2066027931, "lat": -33.9163303, "lon": 151.2272916}, {"type": "node", "id": 2066027933, "lat": -33.9163943, "lon": 151.227303}, {"type": "node", "id": 2066027934, "lat": -33.9165949, "lon": 151.2272391}, {"type": "node", "id": 2069354125, "lat": -33.8757009, "lon": 151.2061928, "tags": {"addr:housenumber": "531", "addr:street": "George Street", "amenity": "pub", "name": "Albion Place Hotel", "opening_hours": "Mo-Su 12:00-18:00+", "smoking": "separated", "website": "https://albionplacehotel.com.au/"}}, {"type": "node", "id": 2118644170, "lat": -33.7996189, "lon": 151.2853646, "tags": {"addr:city": "Manly", "addr:housenumber": "29/43-45", "addr:postcode": "2095", "addr:street": "East Esplanade", "amenity": "pub", "brand": "4 Pines Brewing Company", "brand:wikidata": "Q20312697", "brewery": "4 Pines", "building": "brewery", "check_date": "2023-03-16", "diet:vegetarian": "yes", "email": "brewpub@4pinesbeer.com.au", "food": "yes", "microbrewery": "yes", "name": "4 Pines Brewing Company", "outdoor_seating": "yes", "payment:credit_cards": "yes", "payment:debit_cards": "yes", "phone": "+61 491 970 731", "smoking": "no", "website": "https://4pinesbeer.com.au/", "wifi": "no"}}, {"type": "node", "id": 2124621900, "lat": -33.8829782, "lon": 151.2203879, "tags": {"amenity": "pub", "name": "Rose, Shamrock and Thistle Hotel"}}, {"type": "node", "id": 2139757234, "lat": -33.9525508, "lon": 151.0333151, "tags": {"amenity": "pub", "name": "Padstow Park Hotel", "source": "survey"}}, {"type": "node", "id": 2139909581, "lat": -33.9392243, "lon": 151.0177172, "tags": {"amenity": "pub", "name": "The Crown Hotel", "source": "survey"}}, {"type": "node", "id": 2146139496, "lat": -33.8954226, "lon": 151.1764172, "tags": {"addr:city": "Newtown", "addr:housenumber": "19", "addr:postcode": "2042", "addr:street": "Albermarle Street", "amenity": "pub", "name": "Carlisle Castle", "opening_hours": "Mo-Sa 10:00-24:00; Su 10:00-22:00", "phone": "+61 2 9557 4852", "smoking": "outside", "wheelchair": "limited"}}, {"type": "node", "id": 2163387591, "lat": -33.8880349, "lon": 151.180639, "tags": {"addr:city": "Camperdown", "addr:housenumber": "51", "addr:postcode": "2050", "addr:street": "Missenden Road", "amenity": "pub", "atm": "yes", "name": "The Alfred Hotel", "opening_hours": "Mo-Sa 10:00-24:00; Su 10:00-22:00", "phone": "+61 2 9557 2216", "smoking": "no", "website": "http://www.thealfredhotel.com.au/", "wheelchair": "limited"}}, {"type": "node", "id": 2164630936, "lat": -33.8327743, "lon": 151.126564, "tags": {"amenity": "pub", "name": "Bayview Tavern Hotel"}}, {"type": "node", "id": 2164672936, "lat": -33.8767866, "lon": 151.1036105, "tags": {"amenity": "pub", "name": "Avondale Hotel"}}, {"type": "node", "id": 2164676678, "lat": -33.8690439, "lon": 151.1050957, "tags": {"amenity": "pub", "name": "Bath Arms Hotel"}}, {"type": "node", "id": 2164677578, "lat": -33.8775192, "lon": 151.1033997, "tags": {"amenity": "pub", "name": "Burwood Hotel", "opening_hours": "Su-We 11:30-22:00, Th-Sa 11:00-03:00", "wheelchair": "limited"}}, {"type": "node", "id": 2164704760, "lat": -33.8959784, "lon": 151.1065391, "tags": {"amenity": "pub", "name": "Croydon Park Hotel"}}, {"type": "node", "id": 2164715935, "lat": -33.8875273, "lon": 151.101534}, {"type": "node", "id": 2164715936, "lat": -33.8875023, "lon": 151.10122}, {"type": "node", "id": 2164715937, "lat": -33.8873882, "lon": 151.1014378}, {"type": "node", "id": 2164715938, "lat": -33.8875317, "lon": 151.1015044}, {"type": "node", "id": 2164715939, "lat": -33.8872759, "lon": 151.1016338}, {"type": "node", "id": 2164715940, "lat": -33.8874892, "lon": 151.1015877}, {"type": "node", "id": 2164715942, "lat": -33.8873767, "lon": 151.1013266}, {"type": "node", "id": 2164715944, "lat": -33.8873128, "lon": 151.1012485}, {"type": "node", "id": 2164715946, "lat": -33.8873217, "lon": 151.1013348}, {"type": "node", "id": 2164715948, "lat": -33.8875094, "lon": 151.1015661}, {"type": "node", "id": 2164715949, "lat": -33.8872491, "lon": 151.1014587}, {"type": "node", "id": 2164748873, "lat": -33.8717376, "lon": 151.0952464}, {"type": "node", "id": 2164748874, "lat": -33.8716275, "lon": 151.0950591}, {"type": "node", "id": 2164748876, "lat": -33.8713812, "lon": 151.0953147}, {"type": "node", "id": 2164748877, "lat": -33.871353, "lon": 151.0951016}, {"type": "node", "id": 2164748878, "lat": -33.871753, "lon": 151.0952297}, {"type": "node", "id": 2173384948, "lat": -33.7974074, "lon": 151.1798589}, {"type": "node", "id": 2173384954, "lat": -33.7975239, "lon": 151.18006}, {"type": "node", "id": 2173385007, "lat": -33.7978354, "lon": 151.1804906}, {"type": "node", "id": 2173385034, "lat": -33.7974235, "lon": 151.1797957}, {"type": "node", "id": 2173385036, "lat": -33.7979045, "lon": 151.1801928}, {"type": "node", "id": 2173385067, "lat": -33.7974253, "lon": 151.180343}, {"type": "node", "id": 2173385068, "lat": -33.797204, "lon": 151.1802623}, {"type": "node", "id": 2175049135, "lat": -33.8279601, "lon": 151.2302183, "tags": {"amenity": "pub"}}, {"type": "node", "id": 2179174910, "lat": -33.8053344, "lon": 151.1791715}, {"type": "node", "id": 2180952489, "lat": -33.805053, "lon": 151.1786059}, {"type": "node", "id": 2271246919, "lat": -33.8663266, "lon": 151.1704105, "tags": {"addr:city": "Rozelle", "addr:housenumber": "197", "addr:postcode": "2039", "addr:street": "Evans Street", "amenity": "pub", "name": "3 Weeds Hotel", "outdoor_seating": "no", "smoking": "no"}}, {"type": "node", "id": 2271246978, "lat": -33.865899, "lon": 151.1724597, "tags": {"addr:housenumber": "68", "addr:postcode": "2039", "addr:state": "NSW", "addr:street": "Victoria Road", "addr:suburb": "Rozelle", "amenity": "pub", "name": "The Native Rose Hotel"}}, {"type": "node", "id": 2282731871, "lat": -33.9103042, "lon": 151.1755861, "tags": {"amenity": "pub", "name": "Town and Country Hotel", "source": "survey"}}, {"type": "node", "id": 2312211336, "lat": -33.8667801, "lon": 151.2056432, "tags": {"addr:housenumber": "43", "addr:street": "York Street", "amenity": "pub", "name": "Occidental Hotel", "source": "survey"}}, {"type": "node", "id": 2312247911, "lat": -33.8860617, "lon": 151.2291166, "tags": {"addr:city": "Paddington", "addr:country": "AU", "addr:postcode": "2021", "addr:state": "NSW", "addr:street": "Oxford Street", "amenity": "pub", "name": "Paddington Inn", "source": "survey"}}, {"type": "node", "id": 2312254907, "lat": -33.880408, "lon": 151.2162818, "tags": {"addr:city": "Sydney", "addr:housenumber": "175", "addr:postcode": "2010", "addr:street": "Oxford Street", "addr:suburb": "Darlinghurst", "amenity": "pub", "lgbtq": "primary", "name": "Stonewall Hotel", "toilets:wheelchair": "yes", "website": "http://www.stonewallhotel.com", "wheelchair": "yes"}}, {"type": "node", "id": 2319131524, "lat": -33.9177635, "lon": 151.0886843, "tags": {"amenity": "pub", "name": "Belmore Hotel"}}, {"type": "node", "id": 2326579120, "lat": -33.7974962, "lon": 151.2871644}, {"type": "node", "id": 2326579121, "lat": -33.797268, "lon": 151.2869753}, {"type": "node", "id": 2326597039, "lat": -33.7968121, "lon": 151.287374}, {"type": "node", "id": 2326597040, "lat": -33.7972023, "lon": 151.2874683}, {"type": "node", "id": 2326597043, "lat": -33.7966965, "lon": 151.2877754}, {"type": "node", "id": 2328759329, "lat": -33.9061933, "lon": 151.0357142, "tags": {"addr:housenumber": "342", "addr:street": "Hume Highway", "amenity": "pub", "name": "Three Swallows Hotel", "website": "https://www.threeswallowshotel.com.au/"}}, {"type": "node", "id": 2330509856, "lat": -33.8919629, "lon": 151.0831606, "tags": {"amenity": "pub", "name": "Crossways Hotel", "opening_hours": "Mo-Sa 10:00-24:00; Su 10:00-22:00"}}, {"type": "node", "id": 2341400680, "lat": -33.8808661, "lon": 151.1067913, "tags": {"amenity": "pub", "name": "Burwood RSL"}}, {"type": "node", "id": 2341424566, "lat": -33.9189378, "lon": 151.0895083, "tags": {"amenity": "pub", "name": "Belmore RSL"}}, {"type": "node", "id": 2365222669, "lat": -33.898041, "lon": 151.178632, "tags": {"amenity": "pub", "drink:craft_beer": "yes", "name": "Town Hall Hotel", "wheelchair": "limited"}}, {"type": "node", "id": 2365229978, "lat": -33.8974674, "lon": 151.179184, "tags": {"amenity": "pub", "name": "Bank Hotel", "wheelchair": "limited"}}, {"type": "node", "id": 2365231784, "lat": -33.8964166, "lon": 151.1798262, "tags": {"addr:city": "Newtown", "addr:housenumber": "285", "addr:postcode": "2042", "addr:street": "King Street", "amenity": "pub", "cuisine": "irish", "food": "yes", "name": "Kelly's on King", "wheelchair": "limited"}}, {"type": "node", "id": 2365232345, "lat": -33.895193, "lon": 151.1815599, "tags": {"addr:city": "Newtown", "addr:housenumber": "221", "addr:postcode": "2042", "addr:street": "King Street", "amenity": "pub", "name": "Cooper's Hotel", "smoking": "isolated", "wheelchair": "limited"}}, {"type": "node", "id": 2365233458, "lat": -33.8942954, "lon": 151.1828156, "tags": {"amenity": "pub", "drink:craft_beer": "yes", "name": "Newtown Hotel", "toilets:wheelchair": "yes", "wheelchair": "yes"}}, {"type": "node", "id": 2365245419, "lat": -33.8988393, "lon": 151.1725478, "tags": {"addr:city": "Enmore", "addr:housenumber": "167", "addr:postcode": "2042", "addr:street": "Enmore Road", "amenity": "pub", "food": "yes", "name": "Queen Victoria Hotel"}}, {"type": "node", "id": 2439979285, "lat": -33.8628858, "lon": 151.0442825, "tags": {"amenity": "pub", "name": "Lidcombe Hotel", "source": "survey"}}, {"type": "node", "id": 2453042681, "lat": -33.8630678, "lon": 151.2097728, "tags": {"addr:city": "Sydney", "addr:housenumber": "17", "addr:postcode": "2000", "addr:state": "NSW", "addr:street": "Macquarie Place", "amenity": "pub", "name": "Customs House Bar", "opening_hours": "Mo-Fr 11:00-23:00", "operator": "Marriott", "website": "http://www.chb.sydneyharbourmarriott.com.au/restaurant/hotels/hotel-information/travel/SYDMC-Customs-House-Bar/"}}, {"type": "node", "id": 2460131471, "lat": -33.8731346, "lon": 151.2206281, "tags": {"addr:city": "Woolloomooloo", "addr:housenumber": "129", "addr:postcode": "2011", "addr:street": "Dowling Street", "amenity": "pub", "contact:yelp": "http://www.yelp.com/biz/old-fitzroy-hotel-woolloomooloo", "name": "The Old Fitzroy Hotel", "phone": "+61 2 9356 3848", "toilets:wheelchair": "no", "website": "https://oldfitzroy.com.au/", "wheelchair": "no"}}, {"type": "node", "id": 2502508924, "lat": -34.0517805, "lon": 151.151481}, {"type": "node", "id": 2504574886, "lat": -33.8589832, "lon": 151.2080762, "tags": {"amenity": "pub", "name": "Lowenbrau", "name:en": "Lowenbrau", "toilets:wheelchair": "no", "wheelchair": "limited"}}, {"type": "node", "id": 2521880525, "lat": -33.8089919, "lon": 151.0072636}, {"type": "node", "id": 2521880553, "lat": -33.808978, "lon": 151.0070502}, {"type": "node", "id": 2521880628, "lat": -33.8090623, "lon": 151.0070357}, {"type": "node", "id": 2521880632, "lat": -33.8090878, "lon": 151.0072466}, {"type": "node", "id": 2521894816, "lat": -33.8090277, "lon": 151.0071148, "tags": {"addr:city": "Parramatta", "addr:housenumber": "11", "addr:postcode": "2150", "addr:street": "Victoria Road", "amenity": "pub", "name": "Rose and Crown", "source": "survey"}}, {"type": "node", "id": 2522582560, "lat": -33.8780327, "lon": 151.22059, "tags": {"addr:city": "Sydney", "addr:housenumber": "306", "addr:postcode": "2010", "addr:street": "Darlinghurst Road", "addr:suburb": "Darlinghurst", "amenity": "pub", "name": "Darlo", "website": "https://www.darlobar.com.au/"}}, {"type": "node", "id": 2523111909, "lat": -33.8795702, "lon": 151.2153187, "tags": {"amenity": "pub", "lgbtq": "primary", "name": "The Columbian Hotel", "opening_hours": "Mo-Su 09:00-06:00", "website": "http://www.colombian.com.au"}}, {"type": "node", "id": 2524810483, "lat": -33.8806577, "lon": 151.21661, "tags": {"addr:city": "Sydney", "addr:housenumber": "189", "addr:postcode": "2010", "addr:street": "Oxford Street", "addr:suburb": "Darlinghurst", "amenity": "pub", "name": "Courthouse Hotel", "website": "http://www.stonewallhotel.com"}}, {"type": "node", "id": 2525930241, "lat": -33.8683321, "lon": 151.2085236, "tags": {"addr:city": "Sydney", "addr:housenumber": "122", "addr:postcode": "2000", "addr:street": "Pitt Street", "amenity": "pub", "contact:facebook": "https://www.facebook.com/vaulthotel", "name": "Vault Hotel"}}, {"type": "node", "id": 2548029769, "lat": -33.8796475, "lon": 151.1870261, "tags": {"amenity": "pub", "name": "AB Hotel"}}, {"type": "node", "id": 2549971762, "lat": -33.8817281, "lon": 151.1946492, "tags": {"amenity": "pub", "name": "The Glebe Hotel"}}, {"type": "node", "id": 2556218780, "lat": -34.0182586, "lon": 151.0289293, "tags": {"amenity": "pub", "name": "Bangor Tavern"}}, {"type": "node", "id": 2573959548, "lat": -33.9010251, "lon": 151.2147187, "tags": {"addr:housenumber": "853", "addr:postcode": "2017", "addr:state": "NSW", "addr:street": "South Dowling Street", "addr:suburb": "Waterloo", "amenity": "pub", "brewery": "yes", "name": "Moore Park View Hotel", "phone": "+61 2 9310 2875", "source": "local knowledge;voice", "website": "https://www.mooreparkviewhotel.com.au", "wheelchair": "no"}}, {"type": "node", "id": 2574858376, "lat": -33.8749464, "lon": 151.2220202, "tags": {"addr:city": "Sydney", "addr:housenumber": "244-248", "addr:postcode": "2011", "addr:street": "William Street", "amenity": "pub", "name": "Kings Cross Hotel", "toilets:wheelchair": "yes", "website": "https://www.kingscrosshotel.com.au/", "wheelchair": "yes"}}, {"type": "node", "id": 2574858379, "lat": -33.8734166, "lon": 151.2237718, "tags": {"addr:city": "Sydney", "addr:housenumber": "33-35", "addr:postcode": "2011", "addr:street": "Darlinghurst Road", "addr:suburb": "Kings Cross", "amenity": "pub", "name": "Potts Point Hotel", "toilets:wheelchair": "yes", "wheelchair": "limited"}}, {"type": "node", "id": 2613244990, "lat": -34.051218, "lon": 151.1532676, "tags": {"amenity": "pub", "brand": "Surfies", "contact:phone": "+61 02 9544 4338", "contact:website": "http://www.surfies.com.au", "name": "Surfies Cronulla Beach", "source": "survey", "source:location": "extrapolation"}}, {"type": "node", "id": 2615979193, "lat": -33.8698298, "lon": 151.1294726, "tags": {"addr:housenumber": "66", "addr:street": "Great North Road", "amenity": "pub", "name": "Club Five Dock RSL", "phone": "(02) 9712 2055", "website": "https://clubfivedock.com.au/"}}, {"type": "node", "id": 2626698307, "lat": -33.8922476, "lon": 151.200863, "tags": {"addr:city": "Redfern", "addr:housenumber": "182", "addr:postcode": "2016", "addr:street": "Redfern Street", "amenity": "pub", "name": "The Dock"}}, {"type": "node", "id": 2641721236, "lat": -33.7726759, "lon": 151.0814651, "tags": {"amenity": "pub", "name": "The Epping Hotel", "source": "knowledge", "wheelchair": "yes"}}, {"type": "node", "id": 2675734930, "lat": -33.7814276, "lon": 151.1124421, "tags": {"amenity": "pub", "name": "The Ranch"}}, {"type": "node", "id": 2689506060, "lat": -33.8652816, "lon": 151.0856259, "tags": {"amenity": "pub", "name": "Horse and Jockey Hotel"}}, {"type": "node", "id": 2701065184, "lat": -33.959833, "lon": 151.062473, "tags": {"amenity": "pub", "name": "The Peakhurst", "source": "survey"}}, {"type": "node", "id": 2702185320, "lat": -33.8279888, "lon": 151.0052561, "tags": {"amenity": "pub", "name": "Vauxhall Inn", "source": "survey"}}, {"type": "node", "id": 2743942801, "lat": -33.880109, "lon": 151.1805125, "tags": {"addr:city": "Glebe", "addr:housenumber": "70A", "addr:postcode": "2037", "addr:street": "Ross Street", "amenity": "pub", "drink:craft_beer": "yes", "internet_access": "wlan", "name": "Harold Park Hotel", "opening_hours": "Mo-Fr 10:00-24:00; Su 10:00-22:00", "phone": "+61 2 9660 4745", "smoking": "no", "website": "http://haroldparkhotel.com.au/"}}, {"type": "node", "id": 2751708249, "lat": -33.8749014, "lon": 151.2210031, "tags": {"addr:city": "Potts Point", "addr:housenumber": "216\u2013218", "addr:postcode": "2011", "addr:street": "William Street", "amenity": "pub", "name": "The Old Growler", "opening_hours": "17:00-12:00", "smoking": "outside", "source": "http://www.oldgrowler.com.au", "website": "http://www.oldgrowler.com.au", "wheelchair": "no"}}, {"type": "node", "id": 2751816369, "lat": -33.8749521, "lon": 151.2213029, "tags": {"addr:city": "Potts Point", "addr:housenumber": "228", "addr:postcode": "2011", "addr:street": "William Street", "amenity": "pub", "name": "O'Malley's Hotel", "opening_hours": "24/7", "phone": "+61 2 9357 2211", "smoking": "outside", "source": "http://omalleyshotel.com.au", "website": "http://omalleyshotel.com.au"}}, {"type": "node", "id": 2789598731, "lat": -33.8933703, "lon": 151.1641366, "tags": {"addr:city": "Stanmore", "addr:housenumber": "118", "addr:postcode": "2048", "addr:street": "Percival Road", "amenity": "pub", "contact:facebook": "https://www.facebook.com/TheSalisburyHOtel", "name": "The Salisbury Hotel", "opening_hours": "Mo-Fr 10:00-24:00, Sa-Su 10:00-22:00", "phone": "+61 2 9569 1013", "smoking": "no"}}, {"type": "node", "id": 2839108289, "lat": -33.8999698, "lon": 151.1849261, "tags": {"addr:city": "Erskineville", "addr:housenumber": "1", "addr:postcode": "2043", "addr:street": "Swanson Street", "amenity": "pub", "name": "Rose of Australia", "opening_hours": "Mo 10:00-23:00; Tu-Su 10:00-24:00; Su 10:00-22:00", "phone": "+61 2 9565 1441", "website": "http://www.roseofaustralia.com/"}}, {"type": "node", "id": 2839108291, "lat": -33.8815711, "lon": 151.1707908, "tags": {"addr:city": "Annandale", "addr:housenumber": "105", "addr:postcode": "2038", "addr:street": "Johnston Street", "amenity": "pub", "building:architecture": "art_deco", "name": "North Annandale Hotel", "phone": "+61 2 9660 7452"}}, {"type": "node", "id": 2839158759, "lat": -33.8965989, "lon": 151.1594088, "tags": {"addr:city": "Petersham", "addr:housenumber": "292-294", "addr:postcode": "2049", "addr:street": "Stanmore Road", "amenity": "pub", "name": "Public House Petersham", "opening_hours": "Mo-Sa 10:00-24:00, Su 10:00-22:00", "phone": "+61 2 9568 3703", "website": "https://www.publichousepetersham.com.au/"}}, {"type": "node", "id": 2839158760, "lat": -33.8955537, "lon": 151.156697, "tags": {"addr:city": "Petersham", "addr:housenumber": "1", "addr:postcode": "2049", "addr:street": "New Canterbury Road", "amenity": "pub", "name": "The Oxford Tavern", "phone": "+61 2 8019 9351", "website": "https://www.theoxfordtavern.com.au/"}}, {"type": "node", "id": 2839158761, "lat": -33.8967517, "lon": 151.1525572, "tags": {"addr:city": "Petersham", "addr:housenumber": "116", "addr:postcode": "2049", "addr:street": "New Canterbury Road", "amenity": "pub", "name": "The Livingstone Hotel", "opening_hours": "Mo-Su 09:00-24:00", "phone": "+61 2 9560 6638", "website": "https://www.livingstonehotel.com.au/"}}, {"type": "node", "id": 2839158762, "lat": -33.8901871, "lon": 151.1467877, "tags": {"addr:city": "Lewisham", "addr:housenumber": "794", "addr:postcode": "2049", "addr:street": "Parramatta Road", "amenity": "pub", "name": "The Lewisham Hotel", "opening_hours": "Mo-Th 11:30-23:00, Fr 11:30-01:00, Sa 12:00-01:00, Su 12:00-22:00", "phone": "+61 2 9560 8755", "website": "http://www.lewishamhotel.com.au/"}}, {"type": "node", "id": 2839158763, "lat": -33.8819819, "lon": 151.1566958, "tags": {"addr:city": "Leichhardt", "addr:housenumber": "156", "addr:postcode": "2040", "addr:street": "Norton Street", "amenity": "pub", "name": "The Royal Leichhardt", "opening_hours": "Mo 10:00-24:00; Tu-Fr 00:00-01:00,10:00-24:00; Sa 00:00-03:00,10:00-24:00; Su 00:00-03:00,12:00-24:00", "phone": "+61 2 9569 2638", "website": "https://theroyalleichhardt.com.au/", "wheelchair": "yes"}}, {"type": "node", "id": 2861415776, "lat": -33.891974, "lon": 151.2008012, "tags": {"addr:city": "Redfern", "addr:housenumber": "Shop 1 105", "addr:postcode": "2016", "addr:street": "Regent Street", "amenity": "pub", "name": "Hustle & Flow", "smoking": "outside"}}, {"type": "node", "id": 2890624319, "lat": -33.8365507, "lon": 150.9911361, "tags": {"addr:suburb": "Merrylands", "amenity": "pub", "name": "BIllabong Hotel", "source": "survey"}}, {"type": "node", "id": 2915387412, "lat": -33.7906525, "lon": 151.0818976, "tags": {"addr:postcode": "2122", "addr:street": "West Parade", "addr:suburb": "Eastwood", "amenity": "pub", "name": "Landmark Hotel", "wheelchair": "yes"}}, {"type": "node", "id": 2958845941, "lat": -33.899587, "lon": 151.1707114, "tags": {"addr:city": "Enmore", "addr:housenumber": "2", "addr:postcode": "2042", "addr:street": "Stanmore Road", "amenity": "pub", "brewery": "various", "drink:craft_beer": "yes", "name": "The Warren View Hotel", "opening_hours": "Mo-Sa 10:00-24:00, Su 10:00-22:00", "outdoor_seating": "yes", "phone": "+61 2 9557 1064", "smoking": "no", "website": "https://www.warrenviewhotel.com.au/", "wheelchair": "limited"}}, {"type": "node", "id": 2961963535, "lat": -33.8979957, "lon": 151.1742738, "tags": {"addr:city": "Newtown", "addr:housenumber": "76", "addr:postcode": "2042", "addr:state": "NSW", "addr:street": "WIlford Street", "addr:suburb": "Newtown", "amenity": "pub", "microbrewery": "yes", "name": "Young Henry's", "opening_hours": "Mo-Su 12:00-19:00", "operator": "Young Henry's", "phone": "+61 2 9519 0048", "website": "http://www.younghenrys.com/", "wheelchair": "limited"}}, {"type": "node", "id": 2961963536, "lat": -33.9117466, "lon": 151.1648083}, {"type": "node", "id": 2961963537, "lat": -33.9118062, "lon": 151.164884}, {"type": "node", "id": 2961963538, "lat": -33.9121054, "lon": 151.1645959}, {"type": "node", "id": 2961963539, "lat": -33.9120538, "lon": 151.1645213}, {"type": "node", "id": 2972878168, "lat": -33.8768322, "lon": 151.2081987, "tags": {"addr:housenumber": "127", "addr:street": "Liverpool Street", "amenity": "pub", "billiards:pool": "4", "description": "Pool tables cost $2/game before midnight, then free", "name": "Shark Hotel", "source": "survey", "sport": "billiards"}}, {"type": "node", "id": 3008464501, "lat": -33.8965476, "lon": 151.1993605, "tags": {"addr:housenumber": "45-47", "addr:postcode": "2017", "addr:state": "NSW", "addr:street": "Botany Road", "addr:suburb": "Waterloo", "amenity": "pub", "name": "Abbotts Hotel", "website": "https://www.abbottshotel.com.au/"}}, {"type": "node", "id": 3047641952, "lat": -33.9003472, "lon": 151.2534288, "tags": {"amenity": "pub", "name": "Charing Cross Hotel", "opening_hours": "Mo-Sa 10:00-02:00; Su 10:00-24:00"}}, {"type": "node", "id": 3060104186, "lat": -33.8638755, "lon": 151.2076254, "tags": {"addr:city": "Sydney", "addr:housenumber": "1", "addr:postcode": "2000", "addr:street": "Bridge Street", "amenity": "pub", "name": "Metropolitan Hotel", "payment:bitcoin": "yes", "website": "http://metropolitanhotelsydney.com.au/", "wikidata": "Q30106393"}}, {"type": "node", "id": 3076309214, "lat": -33.9216393, "lon": 151.1965859, "tags": {"amenity": "pub", "name": "Newmarket Hotel", "source": "voice"}}, {"type": "node", "id": 3108418391, "lat": -33.8886087, "lon": 151.2131749, "tags": {"addr:city": "Sydney", "addr:housenumber": "505", "addr:postcode": "2000", "addr:street": "Crown Street", "amenity": "pub", "drink:craft_beer": "yes", "name": "Trinity Bar", "smoking": "isolated", "website": "http://www.trinitybar.com.au/"}}, {"type": "node", "id": 3112456055, "lat": -33.7947756, "lon": 151.0005374, "tags": {"addr:postcode": "2151", "addr:street": "Church Street", "amenity": "pub", "name": "Tollgate Hotel", "source": "survey"}}, {"type": "node", "id": 3115934420, "lat": -33.9166537, "lon": 151.2271861}, {"type": "node", "id": 3115934421, "lat": -33.9162268, "lon": 151.2268054}, {"type": "node", "id": 3166459163, "lat": -33.9229988, "lon": 151.2064544, "tags": {"addr:housenumber": "307", "addr:postcode": "2018", "addr:state": "NSW", "addr:street": "Gardeners Road", "addr:suburb": "Rosebery", "amenity": "pub", "building:architecture": "art_deco", "name": "Lakes Hotel", "smoking": "isolated", "source": "voice", "sport": "billiards"}}, {"type": "node", "id": 3223985496, "lat": -33.8834233, "lon": 151.0130003, "tags": {"addr:housenumber": "54", "addr:postcode": "2162", "addr:street": "Clapham Road", "addr:suburb": "Sefton", "amenity": "pub", "name": "Sefton Playhhouse", "website": "http://www.seftonplayhouse.com.au"}}, {"type": "node", "id": 3239199313, "lat": -33.7910904, "lon": 151.0829175}, {"type": "node", "id": 3281347910, "lat": -33.7908666, "lon": 151.0829164}, {"type": "node", "id": 3283348643, "lat": -33.8743876, "lon": 151.2054368, "tags": {"amenity": "pub", "name": "Belvedere Hotel", "source": "survey", "tourism": "hotel", "wheelchair": "yes"}}, {"type": "node", "id": 3361756659, "lat": -34.0835409, "lon": 151.1527799}, {"type": "node", "id": 3361756660, "lat": -34.0835543, "lon": 151.153177}, {"type": "node", "id": 3361756661, "lat": -34.0835589, "lon": 151.1532718}, {"type": "node", "id": 3361756662, "lat": -34.0835796, "lon": 151.1531916}, {"type": "node", "id": 3361756663, "lat": -34.0835821, "lon": 151.153078}, {"type": "node", "id": 3361756666, "lat": -34.0836663, "lon": 151.1532939}, {"type": "node", "id": 3361756667, "lat": -34.0837112, "lon": 151.1531019}, {"type": "node", "id": 3361756668, "lat": -34.0838095, "lon": 151.1528396}, {"type": "node", "id": 3361756669, "lat": -34.083821, "lon": 151.1529683, "tags": {"entrance": "main"}}, {"type": "node", "id": 3361756670, "lat": -34.0838368, "lon": 151.153078}, {"type": "node", "id": 3576148276, "lat": -33.8069786, "lon": 151.0867654}, {"type": "node", "id": 3576148277, "lat": -33.8069933, "lon": 151.0868805}, {"type": "node", "id": 3576148278, "lat": -33.807122, "lon": 151.0865839}, {"type": "node", "id": 3576148279, "lat": -33.8072177, "lon": 151.0868407}, {"type": "node", "id": 3576148280, "lat": -33.807225, "lon": 151.086575}, {"type": "node", "id": 3576148281, "lat": -33.8072582, "lon": 151.0867565}, {"type": "node", "id": 3587028518, "lat": -34.0664648, "lon": 151.0135589}, {"type": "node", "id": 3587028519, "lat": -34.0664292, "lon": 151.0128694}, {"type": "node", "id": 3587028520, "lat": -34.0665405, "lon": 151.0132808}, {"type": "node", "id": 3587028521, "lat": -34.0665775, "lon": 151.0134525}, {"type": "node", "id": 3587028525, "lat": -34.0666247, "lon": 151.0131739}, {"type": "node", "id": 3587028526, "lat": -34.0666436, "lon": 151.0133877}, {"type": "node", "id": 3687630003, "lat": -33.9802959, "lon": 151.0804952, "tags": {"amenity": "pub", "name": "Oatley Hotel", "website": "http://www.oatleyhotel.com.au"}}, {"type": "node", "id": 3743664382, "lat": -33.7827071, "lon": 151.0493767}, {"type": "node", "id": 3743664385, "lat": -33.7827615, "lon": 151.049176}, {"type": "node", "id": 3743664396, "lat": -33.7829823, "lon": 151.0492626}, {"type": "node", "id": 3743664397, "lat": -33.7830122, "lon": 151.0491522}, {"type": "node", "id": 3743664399, "lat": -33.7830764, "lon": 151.04929}, {"type": "node", "id": 3743664400, "lat": -33.783104, "lon": 151.0491883}, {"type": "node", "id": 3743664401, "lat": -33.78319, "lon": 151.049402}, {"type": "node", "id": 3743664402, "lat": -33.7832066, "lon": 151.0493411}, {"type": "node", "id": 3743664404, "lat": -33.7832408, "lon": 151.0495861}, {"type": "node", "id": 3743664406, "lat": -33.783281, "lon": 151.0494377}, {"type": "node", "id": 3835479058, "lat": -33.9859783, "lon": 151.1425279}, {"type": "node", "id": 3888701093, "lat": -33.960015, "lon": 151.23091, "tags": {"amenity": "pub", "name": "Matraville Hotel"}}, {"type": "node", "id": 3979140557, "lat": -33.8730851, "lon": 151.2049958, "tags": {"amenity": "pub", "name": "Scary Canary", "toilets:wheelchair": "yes", "wheelchair": "limited"}}, {"type": "node", "id": 3996822560, "lat": -33.8722979, "lon": 151.2079733, "tags": {"addr:housenumber": "257", "addr:street": "Pitt Street", "amenity": "pub", "name": "Arthouse Hotel"}}, {"type": "node", "id": 3998849189, "lat": -33.8779555, "lon": 151.2076431, "tags": {"amenity": "pub", "name": "Civic Hotel"}}, {"type": "node", "id": 4017564389, "lat": -33.885165, "lon": 151.2083883, "tags": {"amenity": "pub", "name": "Evening Star Hotel", "sport": "billiards", "website": "https://eveningstarhotel.com.au/"}}, {"type": "node", "id": 4021093191, "lat": -33.8761832, "lon": 151.2041908, "tags": {"amenity": "pub", "name": "Masu Izakaya"}}, {"type": "node", "id": 4021093192, "lat": -33.8760961, "lon": 151.2053032, "tags": {"amenity": "pub", "name": "Sanctuary Hotel"}}, {"type": "node", "id": 4021093990, "lat": -33.8782515, "lon": 151.2072232, "tags": {"addr:housenumber": "81", "addr:postcode": "2000", "addr:state": "NSW", "addr:street": "Goulburn Street", "addr:suburb": "Sydney", "amenity": "pub", "name": "Maloney's Hotel", "opening_hours": "Mo-Fr 10:00-03:00, Sa-Su 12:00-03:00", "outdoor_seating": "yes", "smoking": "isolated"}}, {"type": "node", "id": 4021093991, "lat": -33.8782585, "lon": 151.2076004, "tags": {"amenity": "pub", "name": "Mr B's Hotel"}}, {"type": "node", "id": 4027298790, "lat": -33.8796489, "lon": 151.2055835, "tags": {"amenity": "pub", "name": "Palace Hotel"}}, {"type": "node", "id": 4032644191, "lat": -33.8844818, "lon": 151.2112061, "tags": {"amenity": "pub", "check_date": "2022-07-21", "fixme": "lgbtq?", "name": "Excelsior Hotel"}}, {"type": "node", "id": 4106651990, "lat": -33.8885623, "lon": 151.2322323, "tags": {"addr:housenumber": "2a", "addr:street": "Oxford Street", "amenity": "pub", "internet_access": "wlan", "name": "The Light Brigade Hotel", "opening_hours": "Fr-Sa 10:00-01:00; Su 10:00-22:00; Mo-Th 10:00-00:00", "website": "https://lightbrigade.com.au"}}, {"type": "node", "id": 4112650330, "lat": -33.8949649, "lon": 151.1989892, "tags": {"amenity": "pub", "drink:craft_beer": "yes", "name": "Atomic", "website": "https://www.atomic.beer"}}, {"type": "node", "id": 4113523390, "lat": -33.8589993, "lon": 151.2080957, "tags": {"addr:city": "The Rocks, NSW", "addr:postcode": "2000", "addr:street": "Cnr Playfair Street & Argyle Street", "amenity": "pub", "name": "Munich Brauhaus", "phone": "+61 2 92477785", "toilets:wheelchair": "no", "website": "http://www.munichbrauhaus.com/the-rocks/", "wheelchair": "limited", "wheelchair:description": "Only out the front"}}, {"type": "node", "id": 4229665289, "lat": -33.8983091, "lon": 151.2066163, "tags": {"addr:city": "Waterloo", "addr:housenumber": "760", "addr:postcode": "2017", "addr:street": "Elizabeth Street", "amenity": "pub", "name": "The George Hotel", "website": "https://georgehotelwaterloo.com.au/"}}, {"type": "node", "id": 4242650061, "lat": -33.8604442, "lon": 151.2084338, "tags": {"addr:housenumber": "137", "addr:street": "George Street", "amenity": "pub", "changing_table": "no", "highchair": "yes", "name": "The Fortune of War", "name:en": "The Fortune of War", "phone": "+61 2 9247 2714", "start_date": "1828", "website": "https://www.fortuneofwar.com.au/", "wikidata": "Q58205259"}}, {"type": "node", "id": 4328538792, "lat": -33.8856768, "lon": 151.1748625, "tags": {"addr:housenumber": "1", "addr:postcode": "2038", "addr:street": "Gehrig Lane", "amenity": "pub", "internet_access": "wlan", "name": "Wayward Brewery", "opening_hours": "Th-Sa 12:00-22:00; Mo-We 16:00-22:00; Su 12:00-20:00", "phone": "+61279032445", "website": "https://www.waywardbrewing.com.au/"}}, {"type": "node", "id": 4422322689, "lat": -33.8576224, "lon": 151.1821405, "tags": {"amenity": "pub", "name": "Cricketers Arms"}}, {"type": "node", "id": 4464367895, "lat": -33.7972545, "lon": 151.1800965, "tags": {"entrance": "yes", "source": "survey", "source:position": "NSW LPI Imagery"}}, {"type": "node", "id": 4483312889, "lat": -33.8823987, "lon": 151.2284264, "tags": {"access:roof": "yes", "amenity": "pub", "drink:craft_beer": "yes", "name": "Royal Hotel", "outdoor_seating": "yes", "website": "https://www.royalhotel.com.au/"}}, {"type": "node", "id": 4522378189, "lat": -33.9361219, "lon": 151.1480662, "tags": {"amenity": "pub", "name": "Scots", "name:en": "Scots"}}, {"type": "node", "id": 4551498829, "lat": -33.9166302, "lon": 150.9989253}, {"type": "node", "id": 4551498830, "lat": -33.9166698, "lon": 150.9991628}, {"type": "node", "id": 4551498831, "lat": -33.9170084, "lon": 150.999081}, {"type": "node", "id": 4551498832, "lat": -33.9169689, "lon": 150.9988435}, {"type": "node", "id": 4554984898, "lat": -33.9700926, "lon": 151.1141559, "tags": {"amenity": "pub", "name": "Allawah Hotel"}}, {"type": "node", "id": 4605183590, "lat": -33.8853432, "lon": 151.2139455, "tags": {"amenity": "pub", "drink:craft_beer": "yes", "name": "The Horse"}}, {"type": "node", "id": 4681061452, "lat": -33.9107993, "lon": 151.1660868}, {"type": "node", "id": 4683268388, "lat": -33.9106208, "lon": 151.16586}, {"type": "node", "id": 4683268689, "lat": -33.9104998, "lon": 151.1659999}, {"type": "node", "id": 4683268690, "lat": -33.9106823, "lon": 151.1662218}, {"type": "node", "id": 4683268692, "lat": -33.9105782, "lon": 151.1660952}, {"type": "node", "id": 4691628543, "lat": -33.9111885, "lon": 151.1014945, "tags": {"amenity": "pub", "name": "Campsie RSL"}}, {"type": "node", "id": 4702366089, "lat": -33.8831371, "lon": 151.2172199, "tags": {"amenity": "pub", "name": "The Flinders"}}, {"type": "node", "id": 4707549289, "lat": -33.9132792, "lon": 151.1725323, "tags": {"amenity": "pub", "microbrewery": "yes"}}, {"type": "node", "id": 4765967644, "lat": -33.8834584, "lon": 151.221531, "tags": {"amenity": "pub", "name": "The Unicorn Hotel", "sport": "billiards", "website": "https://theunicornhotel.com.au/"}}, {"type": "node", "id": 4766233052, "lat": -33.8834082, "lon": 151.2227884, "tags": {"amenity": "pub", "drink:craft_beer": "yes", "name": "The Village Inn"}}, {"type": "node", "id": 4776083121, "lat": -33.8064897, "lon": 151.0017438, "tags": {"addr:postcode": "2150", "amenity": "pub", "name": "Parramatta Leagues Club", "phone": "+61 2 8833 0777", "website": "https://parraleagues.com.au/"}}, {"type": "node", "id": 4782224259, "lat": -33.7974465, "lon": 151.1803506}, {"type": "node", "id": 4958234022, "lat": -33.9132409, "lon": 151.2648165, "tags": {"addr:housenumber": "381", "addr:postcode": "2031", "addr:street": "Clovelly Road", "amenity": "pub", "name": "The Clovelly Hotel"}}, {"type": "node", "id": 5045460759, "lat": -33.9102347, "lon": 151.1644097}, {"type": "node", "id": 5045460760, "lat": -33.9099669, "lon": 151.1640774}, {"type": "node", "id": 5045460761, "lat": -33.9104609, "lon": 151.1635265}, {"type": "node", "id": 5045460762, "lat": -33.9107973, "lon": 151.1639416}, {"type": "node", "id": 5059644180, "lat": -33.8053557, "lon": 151.1791485}, {"type": "node", "id": 5059644181, "lat": -33.8054062, "lon": 151.178635}, {"type": "node", "id": 5059644182, "lat": -33.8050704, "lon": 151.1791599}, {"type": "node", "id": 5059644183, "lat": -33.8050999, "lon": 151.1787287}, {"type": "node", "id": 5059644184, "lat": -33.8050387, "lon": 151.178714}, {"type": "node", "id": 5154608421, "lat": -33.8988751, "lon": 151.2002163, "tags": {"addr:city": "Waterloo", "addr:housenumber": "123", "addr:postcode": "2017", "addr:province": "NSW", "addr:street": "Botany Road", "amenity": "pub", "name": "The Cauliflower Hotel", "name:en": "The Cauliflower Hotel", "website": "http://www.cauliflowerhotel.com.au"}}, {"type": "node", "id": 5192854702, "lat": -33.8053864, "lon": 151.1786346}, {"type": "node", "id": 5192854703, "lat": -33.8052854, "lon": 151.1786231}, {"type": "node", "id": 5262877125, "lat": -33.912143, "lon": 151.1199452}, {"type": "node", "id": 5262877126, "lat": -33.9121244, "lon": 151.1198261}, {"type": "node", "id": 5262877127, "lat": -33.912154, "lon": 151.1198194}, {"type": "node", "id": 5262877129, "lat": -33.9121181, "lon": 151.1195879}, {"type": "node", "id": 5262877130, "lat": -33.9121233, "lon": 151.1195666}, {"type": "node", "id": 5262877131, "lat": -33.9121327, "lon": 151.1195503}, {"type": "node", "id": 5262877133, "lat": -33.9121634, "lon": 151.1195226}, {"type": "node", "id": 5262877134, "lat": -33.9121856, "lon": 151.1195178}, {"type": "node", "id": 5262877136, "lat": -33.9122089, "lon": 151.1195206}, {"type": "node", "id": 5262877137, "lat": -33.912245, "lon": 151.1195505}, {"type": "node", "id": 5262877138, "lat": -33.9122542, "lon": 151.1195729}, {"type": "node", "id": 5262877140, "lat": -33.9122616, "lon": 151.1196232}, {"type": "node", "id": 5262877141, "lat": -33.9122905, "lon": 151.1196167}, {"type": "node", "id": 5262877142, "lat": -33.9123871, "lon": 151.1197906}, {"type": "node", "id": 5262877143, "lat": -33.9123738, "lon": 151.1197936}, {"type": "node", "id": 5262877144, "lat": -33.9123906, "lon": 151.119901}, {"type": "node", "id": 5262877145, "lat": -33.9123474, "lon": 151.1199108}, {"type": "node", "id": 5262877146, "lat": -33.9123508, "lon": 151.119933}, {"type": "node", "id": 5262877147, "lat": -33.9122672, "lon": 151.119952}, {"type": "node", "id": 5262877148, "lat": -33.9122727, "lon": 151.1199872}, {"type": "node", "id": 5262877149, "lat": -33.9122491, "lon": 151.1199926}, {"type": "node", "id": 5262877150, "lat": -33.9122574, "lon": 151.1200458}, {"type": "node", "id": 5262877151, "lat": -33.9122162, "lon": 151.1200552}, {"type": "node", "id": 5262877152, "lat": -33.9121972, "lon": 151.1199329}, {"type": "node", "id": 5330246956, "lat": -33.7970636, "lon": 151.2878951}, {"type": "node", "id": 5330246957, "lat": -33.797231, "lon": 151.2876188}, {"type": "node", "id": 5330246958, "lat": -33.7970371, "lon": 151.2879089}, {"type": "node", "id": 5330246959, "lat": -33.7971055, "lon": 151.287565}, {"type": "node", "id": 5330246960, "lat": -33.7970122, "lon": 151.2877323}, {"type": "node", "id": 5330246961, "lat": -33.7968107, "lon": 151.2876553}, {"type": "node", "id": 5330246962, "lat": -33.7968276, "lon": 151.2875916}, {"type": "node", "id": 5330246963, "lat": -33.7968173, "lon": 151.2875863}, {"type": "node", "id": 5330246964, "lat": -33.7968298, "lon": 151.2875359}, {"type": "node", "id": 5330246965, "lat": -33.7968506, "lon": 151.28754}, {"type": "node", "id": 5330246966, "lat": -33.7968738, "lon": 151.2875406}, {"type": "node", "id": 5330246967, "lat": -33.7968947, "lon": 151.287533}, {"type": "node", "id": 5330246968, "lat": -33.7969185, "lon": 151.287526}, {"type": "node", "id": 5330246969, "lat": -33.7969408, "lon": 151.2875266}, {"type": "node", "id": 5330246970, "lat": -33.7969544, "lon": 151.2875313}, {"type": "node", "id": 5330246971, "lat": -33.7969524, "lon": 151.2875418}, {"type": "node", "id": 5330246972, "lat": -33.7969985, "lon": 151.2875517}, {"type": "node", "id": 5330246973, "lat": -33.7970038, "lon": 151.2875167}, {"type": "node", "id": 5330246974, "lat": -33.7970174, "lon": 151.287519}, {"type": "node", "id": 5330246975, "lat": -33.7970145, "lon": 151.2875447}, {"type": "node", "id": 5330246976, "lat": -33.7973384, "lon": 151.2874185}, {"type": "node", "id": 5332154284, "lat": -33.780553, "lon": 151.2873726}, {"type": "node", "id": 5332154285, "lat": -33.780631, "lon": 151.2874692}, {"type": "node", "id": 5332154286, "lat": -33.7805987, "lon": 151.2875027}, {"type": "node", "id": 5332154287, "lat": -33.7806934, "lon": 151.2876234}, {"type": "node", "id": 5332154288, "lat": -33.780601, "lon": 151.287724}, {"type": "node", "id": 5332154289, "lat": -33.7806164, "lon": 151.287747}, {"type": "node", "id": 5332154290, "lat": -33.7805407, "lon": 151.2878381}, {"type": "node", "id": 5332154291, "lat": -33.7804701, "lon": 151.2877434}, {"type": "node", "id": 5332154292, "lat": -33.7804539, "lon": 151.2877629}, {"type": "node", "id": 5332154293, "lat": -33.7804194, "lon": 151.2877151}, {"type": "node", "id": 5332154294, "lat": -33.7804333, "lon": 151.287701}, {"type": "node", "id": 5332154295, "lat": -33.7803517, "lon": 151.2875983}, {"type": "node", "id": 5332154311, "lat": -33.7808207, "lon": 151.2878693}, {"type": "node", "id": 5332154312, "lat": -33.7807519, "lon": 151.2877826}, {"type": "node", "id": 5332154313, "lat": -33.7807101, "lon": 151.2878305}, {"type": "node", "id": 5332154314, "lat": -33.7806578, "lon": 151.2877646}, {"type": "node", "id": 5332154315, "lat": -33.780596, "lon": 151.2878355}, {"type": "node", "id": 5332154316, "lat": -33.7806377, "lon": 151.2878879}, {"type": "node", "id": 5332154317, "lat": -33.7806122, "lon": 151.2879172}, {"type": "node", "id": 5332154318, "lat": -33.7806918, "lon": 151.2880175}, {"type": "node", "id": 5334177710, "lat": -33.9195155, "lon": 151.0331538}, {"type": "node", "id": 5334177711, "lat": -33.9195688, "lon": 151.0334721}, {"type": "node", "id": 5334177712, "lat": -33.9195577, "lon": 151.0335263}, {"type": "node", "id": 5334177713, "lat": -33.9195577, "lon": 151.0334781}, {"type": "node", "id": 5334177714, "lat": -33.9195527, "lon": 151.0334938}, {"type": "node", "id": 5334177715, "lat": -33.9194993, "lon": 151.0335399}, {"type": "node", "id": 5334177716, "lat": -33.9195044, "lon": 151.0335755}, {"type": "node", "id": 5334177717, "lat": -33.9194959, "lon": 151.0335775}, {"type": "node", "id": 5334177718, "lat": -33.9195117, "lon": 151.0336935}, {"type": "node", "id": 5334177719, "lat": -33.9194698, "lon": 151.033703}, {"type": "node", "id": 5334177720, "lat": -33.9194799, "lon": 151.0337838}, {"type": "node", "id": 5334183721, "lat": -33.9194625, "lon": 151.0337879}, {"type": "node", "id": 5334183722, "lat": -33.9195015, "lon": 151.0340462}, {"type": "node", "id": 5334183723, "lat": -33.9197726, "lon": 151.033989}, {"type": "node", "id": 5334183724, "lat": -33.9197902, "lon": 151.0341368}, {"type": "node", "id": 5334183727, "lat": -33.919456, "lon": 151.0342114}, {"type": "node", "id": 5334183728, "lat": -33.9194292, "lon": 151.0348426}, {"type": "node", "id": 5334183729, "lat": -33.920582, "lon": 151.0345769}, {"type": "node", "id": 5334183730, "lat": -33.9205412, "lon": 151.0343098}, {"type": "node", "id": 5334183731, "lat": -33.9205531, "lon": 151.0343076}, {"type": "node", "id": 5334183732, "lat": -33.9205138, "lon": 151.0340321}, {"type": "node", "id": 5334183733, "lat": -33.9203289, "lon": 151.032969}, {"type": "node", "id": 5334183734, "lat": -33.9201461, "lon": 151.0330035}, {"type": "node", "id": 5334183735, "lat": -33.9201315, "lon": 151.0330327}, {"type": "node", "id": 5334183736, "lat": -33.9200896, "lon": 151.0330408}, {"type": "node", "id": 5334183737, "lat": -33.9200729, "lon": 151.0330294}, {"type": "node", "id": 5334183738, "lat": -33.9200317, "lon": 151.0330386}, {"type": "node", "id": 5334183739, "lat": -33.9200223, "lon": 151.0330539}, {"type": "node", "id": 5334183740, "lat": -33.9198793, "lon": 151.0330848}, {"type": "node", "id": 5334183741, "lat": -33.9198659, "lon": 151.0330745}, {"type": "node", "id": 5334183742, "lat": -33.9198465, "lon": 151.0330776}, {"type": "node", "id": 5334183743, "lat": -33.9198364, "lon": 151.033093}, {"type": "node", "id": 5334183744, "lat": -33.9197797, "lon": 151.0331083}, {"type": "node", "id": 5334183745, "lat": -33.9196714, "lon": 151.0330208}, {"type": "node", "id": 5334183748, "lat": -33.9200103, "lon": 151.0330565}, {"type": "node", "id": 5334183749, "lat": -33.9198908, "lon": 151.0330823}, {"type": "node", "id": 5341804810, "lat": -33.7932492, "lon": 151.1959814}, {"type": "node", "id": 5341804811, "lat": -33.7934059, "lon": 151.1960497}, {"type": "node", "id": 5341804812, "lat": -33.7932788, "lon": 151.1964467}, {"type": "node", "id": 5341804813, "lat": -33.7931241, "lon": 151.1963755}, {"type": "node", "id": 5363532140, "lat": -33.9089468, "lon": 151.1034411}, {"type": "node", "id": 5363532141, "lat": -33.9089173, "lon": 151.1036886}, {"type": "node", "id": 5363532142, "lat": -33.9090373, "lon": 151.1037168}, {"type": "node", "id": 5363532143, "lat": -33.9091908, "lon": 151.1038038}, {"type": "node", "id": 5363532144, "lat": -33.9092844, "lon": 151.1035783}, {"type": "node", "id": 5363532145, "lat": -33.9092691, "lon": 151.1035379}, {"type": "node", "id": 5363532146, "lat": -33.9092712, "lon": 151.1034975}, {"type": "node", "id": 5365007621, "lat": -33.8784355, "lon": 151.2215492, "tags": {"addr:housenumber": "360", "addr:postcode": "2010", "addr:state": "NSW", "addr:street": "Victoria Street", "addr:suburb": "Darlinghurst", "amenity": "pub", "check_date": "2022-07-21", "lgbtq": "primary", "name": "Green Park Hotel", "opening_hours": "Mo-We 11:00-24:00, Th-Sa 11:00-02:00, Su 12:00-24:00", "phone": "+61 2 9380 5311", "source": "local knowledge", "website": "https://www.greenparkhotel.com.au/"}}, {"type": "node", "id": 5365511112, "lat": -33.8796371, "lon": 151.2105035}, {"type": "node", "id": 5365511113, "lat": -33.8796243, "lon": 151.2105165}, {"type": "node", "id": 5365511114, "lat": -33.8796869, "lon": 151.2106015}, {"type": "node", "id": 5365511115, "lat": -33.8796776, "lon": 151.2106078}, {"type": "node", "id": 5365511116, "lat": -33.8795502, "lon": 151.2105441}, {"type": "node", "id": 5365511117, "lat": -33.8795503, "lon": 151.2105529}, {"type": "node", "id": 5365511118, "lat": -33.879552, "lon": 151.2105629}, {"type": "node", "id": 5380928421, "lat": -33.9596301, "lon": 151.210549, "tags": {"addr:housenumber": "1751", "addr:postcode": "2019", "addr:street": "Botany Road", "amenity": "pub", "cuisine": "burger;diner;fish;grill;local;seafood;steak_house", "name": "Pier Hotel", "opening_hours": "Mo-Su 11:00-21:00", "phone": "+61 2 9316 6699", "website": "http://pierhotelbotany.com"}}, {"type": "node", "id": 5404621063, "lat": -33.9516668, "lon": 151.1383487}, {"type": "node", "id": 5404621064, "lat": -33.9517792, "lon": 151.1382924}, {"type": "node", "id": 5404621065, "lat": -33.9517948, "lon": 151.1382911}, {"type": "node", "id": 5404621066, "lat": -33.9518092, "lon": 151.1382937}, {"type": "node", "id": 5404621067, "lat": -33.9518215, "lon": 151.1383031}, {"type": "node", "id": 5404621068, "lat": -33.9518304, "lon": 151.1383165}, {"type": "node", "id": 5404621069, "lat": -33.9518337, "lon": 151.1383313}, {"type": "node", "id": 5404621070, "lat": -33.951866, "lon": 151.1386062}, {"type": "node", "id": 5404621071, "lat": -33.9517781, "lon": 151.1386491}, {"type": "node", "id": 5418028643, "lat": -33.8158449, "lon": 151.0118054}, {"type": "node", "id": 5418028644, "lat": -33.8158884, "lon": 151.0119381}, {"type": "node", "id": 5418028645, "lat": -33.8159129, "lon": 151.0119515}, {"type": "node", "id": 5418028646, "lat": -33.8160917, "lon": 151.0118966}, {"type": "node", "id": 5418028647, "lat": -33.8160672, "lon": 151.0117846}, {"type": "node", "id": 5418028648, "lat": -33.8159485, "lon": 151.0118288}, {"type": "node", "id": 5418028649, "lat": -33.8159474, "lon": 151.0118235}, {"type": "node", "id": 5418028650, "lat": -33.8160209, "lon": 151.0117933}, {"type": "node", "id": 5418028651, "lat": -33.8160031, "lon": 151.0117323}, {"type": "node", "id": 5418028652, "lat": -33.815851, "lon": 151.0118026}, {"type": "node", "id": 5418028662, "lat": -33.8160233, "lon": 151.0118009}, {"type": "node", "id": 5418238787, "lat": -33.8178232, "lon": 151.0067169}, {"type": "node", "id": 5418238788, "lat": -33.8182113, "lon": 151.006818}, {"type": "node", "id": 5418238789, "lat": -33.8182236, "lon": 151.0068354}, {"type": "node", "id": 5418238790, "lat": -33.8181693, "lon": 151.0071374}, {"type": "node", "id": 5418238791, "lat": -33.8177665, "lon": 151.0070324}, {"type": "node", "id": 5419408998, "lat": -33.8134416, "lon": 151.0025196}, {"type": "node", "id": 5419409010, "lat": -33.8134008, "lon": 151.0022849}, {"type": "node", "id": 5419409011, "lat": -33.8133913, "lon": 151.0023097}, {"type": "node", "id": 5419409012, "lat": -33.8136072, "lon": 151.0024649}, {"type": "node", "id": 5419409013, "lat": -33.8136003, "lon": 151.0024365}, {"type": "node", "id": 5419409014, "lat": -33.8137362, "lon": 151.0023902}, {"type": "node", "id": 5419409015, "lat": -33.8137251, "lon": 151.0023372}, {"type": "node", "id": 5419409016, "lat": -33.8138529, "lon": 151.0023376}, {"type": "node", "id": 5419409017, "lat": -33.8137212, "lon": 151.002179}, {"type": "node", "id": 5419409018, "lat": -33.8134117, "lon": 151.0024003}, {"type": "node", "id": 5419409022, "lat": -33.8134486, "lon": 151.0022694}, {"type": "node", "id": 5419409023, "lat": -33.8137479, "lon": 151.0023032}, {"type": "node", "id": 5419409024, "lat": -33.8137858, "lon": 151.0022907}, {"type": "node", "id": 5419409025, "lat": -33.8137904, "lon": 151.0023163}, {"type": "node", "id": 5419409026, "lat": -33.8137994, "lon": 151.0023537}, {"type": "node", "id": 5419409027, "lat": -33.8138116, "lon": 151.0021539}, {"type": "node", "id": 5419409028, "lat": -33.8137588, "lon": 151.002172}, {"type": "node", "id": 5419878316, "lat": -33.8089834, "lon": 151.0071943}, {"type": "node", "id": 5419878317, "lat": -33.8089954, "lon": 151.0071922}, {"type": "node", "id": 5419878338, "lat": -33.8090868, "lon": 151.0072381}, {"type": "node", "id": 5421762577, "lat": -33.8203478, "lon": 151.0041571}, {"type": "node", "id": 5421762578, "lat": -33.8203796, "lon": 151.0041235}, {"type": "node", "id": 5421762579, "lat": -33.8206238, "lon": 151.0041533}, {"type": "node", "id": 5421762580, "lat": -33.8206129, "lon": 151.004282}, {"type": "node", "id": 5421762581, "lat": -33.820588, "lon": 151.0042789}, {"type": "node", "id": 5421762582, "lat": -33.8205844, "lon": 151.0043221}, {"type": "node", "id": 5421762583, "lat": -33.8205647, "lon": 151.0043197}, {"type": "node", "id": 5421762584, "lat": -33.820562, "lon": 151.0043511}, {"type": "node", "id": 5421762585, "lat": -33.8205106, "lon": 151.0043448}, {"type": "node", "id": 5421762586, "lat": -33.8205069, "lon": 151.0043888}, {"type": "node", "id": 5421762587, "lat": -33.820402, "lon": 151.0043759}, {"type": "node", "id": 5427027624, "lat": -33.8894422, "lon": 151.1981349, "tags": {"amenity": "pub", "name": "The Eveleigh"}}, {"type": "node", "id": 5457878234, "lat": -33.8713624, "lon": 151.0951729}, {"type": "node", "id": 5457878235, "lat": -33.8713646, "lon": 151.0950993}, {"type": "node", "id": 5467843521, "lat": -33.8837133, "lon": 151.2344237, "tags": {"amenity": "pub", "name": "Four In Hand"}}, {"type": "node", "id": 5474430222, "lat": -33.8403075, "lon": 151.1712582}, {"type": "node", "id": 5474430223, "lat": -33.8403209, "lon": 151.1713612}, {"type": "node", "id": 5474430224, "lat": -33.8403075, "lon": 151.1713812}, {"type": "node", "id": 5474430225, "lat": -33.8401788, "lon": 151.1714055}, {"type": "node", "id": 5474430226, "lat": -33.8401433, "lon": 151.1711335}, {"type": "node", "id": 5474430227, "lat": -33.8402142, "lon": 151.1711201}, {"type": "node", "id": 5474430228, "lat": -33.8402046, "lon": 151.1710459}, {"type": "node", "id": 5474430229, "lat": -33.8402697, "lon": 151.1710336}, {"type": "node", "id": 5474430230, "lat": -33.8402992, "lon": 151.1712597}, {"type": "node", "id": 5474430231, "lat": -33.8402386, "lon": 151.1708204}, {"type": "node", "id": 5474430232, "lat": -33.8402476, "lon": 151.1708867}, {"type": "node", "id": 5474430233, "lat": -33.84014, "lon": 151.1709077}, {"type": "node", "id": 5474430234, "lat": -33.8402111, "lon": 151.1711145}, {"type": "node", "id": 5474430235, "lat": -33.8401211, "lon": 151.1711321}, {"type": "node", "id": 5474430236, "lat": -33.8400831, "lon": 151.1708508}, {"type": "node", "id": 5474430237, "lat": -33.8401618, "lon": 151.1710695}, {"type": "node", "id": 5474430238, "lat": -33.8402039, "lon": 151.1710612}, {"type": "node", "id": 5500475651, "lat": -33.9171498, "lon": 151.0313937}, {"type": "node", "id": 5500475652, "lat": -33.9165489, "lon": 151.0315093}, {"type": "node", "id": 5500475653, "lat": -33.9166152, "lon": 151.0319446}, {"type": "node", "id": 5500475654, "lat": -33.9167553, "lon": 151.0319024}, {"type": "node", "id": 5500475655, "lat": -33.9168014, "lon": 151.0322179}, {"type": "node", "id": 5500475656, "lat": -33.9172033, "lon": 151.0321401}, {"type": "node", "id": 5500475657, "lat": -33.9172217, "lon": 151.0314715}, {"type": "node", "id": 5557972092, "lat": -33.8843328, "lon": 151.2113024, "tags": {"addr:housenumber": "64", "addr:street": "Foveaux Street", "amenity": "pub", "name": "El Loco"}}, {"type": "node", "id": 5603656031, "lat": -33.8900383, "lon": 151.2077525, "tags": {"amenity": "pub", "name": "Surrey Hotel"}}, {"type": "node", "id": 5608271883, "lat": -33.891384, "lon": 151.2126744, "tags": {"amenity": "pub", "drink:craft_beer": "yes", "name": "Crown Hotel"}}, {"type": "node", "id": 5627741165, "lat": -33.946909, "lon": 151.0709335}, {"type": "node", "id": 5627741166, "lat": -33.9469023, "lon": 151.0714685}, {"type": "node", "id": 5627741167, "lat": -33.9471648, "lon": 151.0712854}, {"type": "node", "id": 5627741168, "lat": -33.9470035, "lon": 151.0709153}, {"type": "node", "id": 5674894998, "lat": -33.8227348, "lon": 151.1955426}, {"type": "node", "id": 5674894999, "lat": -33.822815, "lon": 151.1955562}, {"type": "node", "id": 5674895000, "lat": -33.8228169, "lon": 151.1957463}, {"type": "node", "id": 5674895001, "lat": -33.8227354, "lon": 151.1957471}, {"type": "node", "id": 5698271126, "lat": -33.9107739, "lon": 151.1640239}, {"type": "node", "id": 5698271127, "lat": -33.9107372, "lon": 151.1639814}, {"type": "node", "id": 5698271128, "lat": -33.910775, "lon": 151.1639347}, {"type": "node", "id": 5698271129, "lat": -33.9107057, "lon": 151.1638507}, {"type": "node", "id": 5698271138, "lat": -33.9104397, "lon": 151.1644151}, {"type": "node", "id": 5698271139, "lat": -33.9103355, "lon": 151.1642841}, {"type": "node", "id": 5698271140, "lat": -33.9107984, "lon": 151.1639953, "tags": {"artwork_type": "mural", "tourism": "artwork"}}, {"type": "node", "id": 5708242228, "lat": -33.910242, "lon": 151.1624111}, {"type": "node", "id": 5708242229, "lat": -33.9102753, "lon": 151.1624711}, {"type": "node", "id": 5708242230, "lat": -33.9103083, "lon": 151.1624445}, {"type": "node", "id": 5708242231, "lat": -33.910435, "lon": 151.1626731}, {"type": "node", "id": 5708242232, "lat": -33.9102084, "lon": 151.1628555}, {"type": "node", "id": 5708242233, "lat": -33.9100816, "lon": 151.1626269}, {"type": "node", "id": 5708242234, "lat": -33.9101029, "lon": 151.1626098}, {"type": "node", "id": 5708242235, "lat": -33.9100696, "lon": 151.1625499}, {"type": "node", "id": 5729656122, "lat": -33.7964997, "lon": 151.1814694, "tags": {"amenity": "pub", "name": "The Orchard Hotel"}}, {"type": "node", "id": 5732865692, "lat": -33.8844203, "lon": 151.2014288, "tags": {"amenity": "pub", "name": "Old Clare Hotel"}}, {"type": "node", "id": 5746041287, "lat": -33.7907975, "lon": 151.0832494}, {"type": "node", "id": 5746041288, "lat": -33.7908699, "lon": 151.0832709}, {"type": "node", "id": 5746041289, "lat": -33.7909022, "lon": 151.0831113}, {"type": "node", "id": 5746041290, "lat": -33.7909691, "lon": 151.0831301}, {"type": "node", "id": 5746041291, "lat": -33.7909624, "lon": 151.0831636}, {"type": "node", "id": 5746041292, "lat": -33.7910667, "lon": 151.0832064}, {"type": "node", "id": 5746041293, "lat": -33.7911177, "lon": 151.0829577}, {"type": "node", "id": 5746041294, "lat": -33.790911, "lon": 151.082908}, {"type": "node", "id": 5746041295, "lat": -33.7908886, "lon": 151.0829241}, {"type": "node", "id": 5760921869, "lat": -33.9171521, "lon": 151.0331581, "tags": {"amenity": "pub", "name": "Bankstown Hotel", "opening_hours": "Mo-Th 10:00-16:00; Fr 10:00-18:00; Sa 09:00-18:00; Su 09:00-24:00"}}, {"type": "node", "id": 5761127505, "lat": -33.9183595, "lon": 151.0361169, "tags": {"amenity": "pub", "name": "Red Lantern Hotel"}}, {"type": "node", "id": 5770205491, "lat": -33.8335659, "lon": 151.2048942}, {"type": "node", "id": 5770205492, "lat": -33.833252, "lon": 151.2050244}, {"type": "node", "id": 5770205494, "lat": -33.8333758, "lon": 151.2048419}, {"type": "node", "id": 5770205495, "lat": -33.8333494, "lon": 151.2049012}, {"type": "node", "id": 5770205498, "lat": -33.8333227, "lon": 151.2049616}, {"type": "node", "id": 5795984478, "lat": -33.8864521, "lon": 151.2191038, "tags": {"addr:housenumber": "162", "addr:postcode": "2021", "addr:state": "NSW", "addr:street": "Flinders Street", "addr:suburb": "Paddington", "addr:unit": "1", "amenity": "pub", "brewery": "yes", "name": "Captain Cook Hotel", "phone": "+61 2 9331 4533", "source": "local knowledge", "website": "https://thecaptaincookhotel.com.au"}}, {"type": "node", "id": 5796144461, "lat": -33.9043921, "lon": 151.2051976, "tags": {"addr:housenumber": "936", "addr:postcode": "2017", "addr:state": "NSW", "addr:street": "Bourke Street", "addr:suburb": "Zetland", "amenity": "pub", "brewery": "yes;`", "name": "Zetland Hotel", "phone": "+61 2 9698 3195", "source": "local knowledge", "website": "https://zetlandhotel.com.au"}}, {"type": "node", "id": 5835901658, "lat": -34.0564242, "lon": 151.1544832}, {"type": "node", "id": 5835901659, "lat": -34.0564152, "lon": 151.1544764}, {"type": "node", "id": 5835901661, "lat": -34.0567403, "lon": 151.1544616}, {"type": "node", "id": 5835901662, "lat": -34.0566708, "lon": 151.1545603}, {"type": "node", "id": 5835901666, "lat": -34.0565289, "lon": 151.1540621}, {"type": "node", "id": 5836144277, "lat": -34.0521708, "lon": 151.1514466}, {"type": "node", "id": 5862426460, "lat": -33.9058303, "lon": 151.1808942, "tags": {"amenity": "pub", "cuisine": "pub;burger;pasta;tacos", "food": "yes", "name": "Botany View Hotel"}}, {"type": "node", "id": 5926809359, "lat": -33.8315349, "lon": 151.0147941, "tags": {"amenity": "pub", "name": "Rosehill Hotel"}}, {"type": "node", "id": 6051886060, "lat": -33.9308466, "lon": 151.1941173, "tags": {"amenity": "pub", "building:architecture": "art_deco", "name": "Tennyson Hotel"}}, {"type": "node", "id": 6063622651, "lat": -33.8142758, "lon": 151.1061947}, {"type": "node", "id": 6063622652, "lat": -33.8143183, "lon": 151.1062519}, {"type": "node", "id": 6063622653, "lat": -33.8143459, "lon": 151.1062222}, {"type": "node", "id": 6063622654, "lat": -33.8143436, "lon": 151.1062963}, {"type": "node", "id": 6063622656, "lat": -33.8142995, "lon": 151.1065889}, {"type": "node", "id": 6074954832, "lat": -33.8685813, "lon": 151.2058388, "tags": {"amenity": "pub", "check_date": "2022-07-25", "level": "0", "name": "Hotel CBD", "wikidata": "Q60055190"}}, {"type": "node", "id": 6339132877, "lat": -33.9628321, "lon": 150.984398, "tags": {"amenity": "pub", "name": "East Hills Hotel"}}, {"type": "node", "id": 6530797722, "lat": -33.9778772, "lon": 151.1046083}, {"type": "node", "id": 6530797723, "lat": -33.9778071, "lon": 151.1044704}, {"type": "node", "id": 6530797724, "lat": -33.9777542, "lon": 151.1045096}, {"type": "node", "id": 6530797725, "lat": -33.9776463, "lon": 151.1044667}, {"type": "node", "id": 6530797726, "lat": -33.977586, "lon": 151.1044094}, {"type": "node", "id": 6530797727, "lat": -33.977529, "lon": 151.1044966}, {"type": "node", "id": 6530797728, "lat": -33.9774932, "lon": 151.1044625}, {"type": "node", "id": 6530797729, "lat": -33.9774483, "lon": 151.104531}, {"type": "node", "id": 6530797730, "lat": -33.9776485, "lon": 151.1047215}, {"type": "node", "id": 6530797731, "lat": -33.9777152, "lon": 151.1047282}, {"type": "node", "id": 6846293754, "lat": -33.9471313, "lon": 151.0710254}, {"type": "node", "id": 6846293755, "lat": -33.9470648, "lon": 151.071038}, {"type": "node", "id": 6846293756, "lat": -33.9470116, "lon": 151.0709703}, {"type": "node", "id": 6846293757, "lat": -33.9470287, "lon": 151.0709681}, {"type": "node", "id": 6846293758, "lat": -33.9470613, "lon": 151.0710112}, {"type": "node", "id": 6846293759, "lat": -33.9470356, "lon": 151.0710158}, {"type": "node", "id": 6846293760, "lat": -33.9471081, "lon": 151.0712971}, {"type": "node", "id": 6846293761, "lat": -33.9471185, "lon": 151.0713711}, {"type": "node", "id": 6846293762, "lat": -33.9472928, "lon": 151.0713438}, {"type": "node", "id": 6846293763, "lat": -33.947299, "lon": 151.0714033}, {"type": "node", "id": 6846293764, "lat": -33.9468969, "lon": 151.0714149}, {"type": "node", "id": 6846293765, "lat": -33.946821, "lon": 151.0714277}, {"type": "node", "id": 7097353599, "lat": -33.8632174, "lon": 151.2073725, "tags": {"addr:housenumber": "234", "addr:postcode": "2000", "addr:state": "NSW", "addr:street": "George Street", "addr:suburb": "Sydney", "amenity": "pub", "name": "The Morrison Bar and Oyster Room", "wheelchair": "yes"}}, {"type": "node", "id": 7121848058, "lat": -33.9539303, "lon": 150.9990553}, {"type": "node", "id": 7121848059, "lat": -33.953897, "lon": 150.9990845}, {"type": "node", "id": 7121848060, "lat": -33.9537796, "lon": 150.9990854}, {"type": "node", "id": 7121848061, "lat": -33.9537214, "lon": 150.999096}, {"type": "node", "id": 7121848062, "lat": -33.9537239, "lon": 150.999116}, {"type": "node", "id": 7121848063, "lat": -33.9537821, "lon": 150.9991054}, {"type": "node", "id": 7121848064, "lat": -33.9536887, "lon": 150.9991224}, {"type": "node", "id": 7121848065, "lat": -33.9539289, "lon": 150.9990441}, {"type": "node", "id": 7121848066, "lat": -33.9539841, "lon": 150.9987777}, {"type": "node", "id": 7121848067, "lat": -33.9539756, "lon": 150.9987793}, {"type": "node", "id": 7121848068, "lat": -33.9535867, "lon": 150.9988181}, {"type": "node", "id": 7125384059, "lat": -33.9259811, "lon": 151.0542583}, {"type": "node", "id": 7125384060, "lat": -33.9259872, "lon": 151.054295}, {"type": "node", "id": 7125384061, "lat": -33.9262227, "lon": 151.0544399}, {"type": "node", "id": 7125384062, "lat": -33.9262295, "lon": 151.0544238}, {"type": "node", "id": 7125384063, "lat": -33.9262841, "lon": 151.0544574}, {"type": "node", "id": 7125384064, "lat": -33.9263064, "lon": 151.05445}, {"type": "node", "id": 7125384065, "lat": -33.9263873, "lon": 151.054269}, {"type": "node", "id": 7125384066, "lat": -33.9260728, "lon": 151.0540739}, {"type": "node", "id": 7125384071, "lat": -33.926145, "lon": 151.0541222}, {"type": "node", "id": 7125401875, "lat": -33.9262579, "lon": 151.0541916}, {"type": "node", "id": 7125401878, "lat": -33.9263194, "lon": 151.0542275}, {"type": "node", "id": 7237683185, "lat": -33.9166548, "lon": 151.0314889, "tags": {"amenity": "parking_entrance"}}, {"type": "node", "id": 7237683197, "lat": -33.9172147, "lon": 151.0317257, "tags": {"entrance": "main"}}, {"type": "node", "id": 7276004585, "lat": -33.9116538, "lon": 151.1582639, "tags": {"amenity": "pub", "name": "Merrickville Hotel"}}, {"type": "node", "id": 7310672085, "lat": -34.0865028, "lon": 151.0057949}, {"type": "node", "id": 7311505737, "lat": -34.0871379, "lon": 151.0049833}, {"type": "node", "id": 7311505738, "lat": -34.0869622, "lon": 151.0047829}, {"type": "node", "id": 7311505739, "lat": -34.0863271, "lon": 151.0055944}, {"type": "node", "id": 7419478348, "lat": -34.0433065, "lon": 151.1228543}, {"type": "node", "id": 7419478349, "lat": -34.0433543, "lon": 151.1228429}, {"type": "node", "id": 7419478350, "lat": -34.0433848, "lon": 151.1228704}, {"type": "node", "id": 7419478351, "lat": -34.0434082, "lon": 151.1228261}, {"type": "node", "id": 7419478352, "lat": -34.0435176, "lon": 151.1229119}, {"type": "node", "id": 7419478353, "lat": -34.0435937, "lon": 151.1227738}, {"type": "node", "id": 7419478354, "lat": -34.0438427, "lon": 151.1229857}, {"type": "node", "id": 7419478355, "lat": -34.0432954, "lon": 151.1230199}, {"type": "node", "id": 7419478356, "lat": -34.0432737, "lon": 151.1229106}, {"type": "node", "id": 8117083370, "lat": -33.9052835, "lon": 151.1330548, "tags": {"addr:housenumber": "590", "addr:postcode": "2193", "addr:state": "NSW", "addr:street": "New Canterbury Road", "addr:suburb": "Hurlstone Park", "amenity": "pub", "name": "Hurlstone Park Hotel", "opening_hours": "Mo-Th 10:00-00:00, Fr-Sa 09:00-00:00, Su 10:00-22:00", "smoking": "isolated"}}, {"type": "node", "id": 8287978184, "lat": -34.0665569, "lon": 151.0133064}, {"type": "node", "id": 8287978185, "lat": -34.0665784, "lon": 151.0132863}, {"type": "node", "id": 8287978186, "lat": -34.0663409, "lon": 151.013443}, {"type": "node", "id": 8287978187, "lat": -34.0663717, "lon": 151.0134141}, {"type": "node", "id": 8287978189, "lat": -34.0663303, "lon": 151.01338}, {"type": "node", "id": 8287978190, "lat": -34.0663116, "lon": 151.0133975}, {"type": "node", "id": 8287978191, "lat": -34.066262, "lon": 151.0132737}, {"type": "node", "id": 8287978192, "lat": -34.0662371, "lon": 151.0132262}, {"type": "node", "id": 8287978193, "lat": -34.0662149, "lon": 151.0132469}, {"type": "node", "id": 8287978194, "lat": -34.0662434, "lon": 151.0132912}, {"type": "node", "id": 8287978195, "lat": -34.0661939, "lon": 151.013159}, {"type": "node", "id": 8287978196, "lat": -34.0661435, "lon": 151.0131367}, {"type": "node", "id": 8287978197, "lat": -34.0661714, "lon": 151.0131801}, {"type": "node", "id": 8287978198, "lat": -34.0662071, "lon": 151.0130772}, {"type": "node", "id": 8287978199, "lat": -34.0665553, "lon": 151.013267}, {"type": "node", "id": 8287978200, "lat": -34.066544, "lon": 151.0132494}, {"type": "node", "id": 8287978201, "lat": -34.0662979, "lon": 151.0129923}, {"type": "node", "id": 8542107810, "lat": -33.8204045, "lon": 151.0041265}, {"type": "node", "id": 8542107813, "lat": -33.8203612, "lon": 151.004143}, {"type": "node", "id": 8581043462, "lat": -33.7875254, "lon": 151.1328507}, {"type": "node", "id": 8581043463, "lat": -33.787695, "lon": 151.1330888}, {"type": "node", "id": 8581043464, "lat": -33.7879703, "lon": 151.1328051}, {"type": "node", "id": 8581043465, "lat": -33.7879103, "lon": 151.1327208}, {"type": "node", "id": 8581043466, "lat": -33.7878651, "lon": 151.1327673}, {"type": "node", "id": 8581043467, "lat": -33.7877838, "lon": 151.132653}, {"type": "node", "id": 8581043468, "lat": -33.787657, "lon": 151.1327837}, {"type": "node", "id": 8581043469, "lat": -33.7876288, "lon": 151.1327441}, {"type": "node", "id": 8597066310, "lat": -33.9165376, "lon": 151.2272757}, {"type": "node", "id": 8597066311, "lat": -33.9164714, "lon": 151.2272967}, {"type": "node", "id": 8597066312, "lat": -33.9162733, "lon": 151.2272758}, {"type": "node", "id": 8597066313, "lat": -33.9163241, "lon": 151.227095}, {"type": "node", "id": 8597066314, "lat": -33.9162304, "lon": 151.2268924}, {"type": "node", "id": 8597066315, "lat": -33.9162523, "lon": 151.2269764}, {"type": "node", "id": 8597066316, "lat": -33.9162902, "lon": 151.2270519}, {"type": "node", "id": 8597066317, "lat": -33.9163269, "lon": 151.2265743}, {"type": "node", "id": 8597066318, "lat": -33.9165361, "lon": 151.226506}, {"type": "node", "id": 8597066319, "lat": -33.9167609, "lon": 151.2267001}, {"type": "node", "id": 8597066320, "lat": -33.9167847, "lon": 151.2267926}, {"type": "node", "id": 8597066321, "lat": -33.9167713, "lon": 151.2269593}, {"type": "node", "id": 8597066322, "lat": -33.916688, "lon": 151.2271005}, {"type": "node", "id": 8627474940, "lat": -34.0866823, "lon": 151.0051431}, {"type": "node", "id": 8627474948, "lat": -34.0867289, "lon": 151.005506}, {"type": "node", "id": 8915547575, "lat": -33.8699574, "lon": 151.2698733, "tags": {"addr:housenumber": "807", "addr:postcode": "2029", "addr:street": "New South Head Road", "amenity": "pub", "contact:facebook": "hotelrosebay", "contact:instagram": "hotelrosebay", "email": "info@rosebayhotel.com.au", "name": "Hotel Rose Bay", "phone": "+61 2 9371 8161", "website": "https://www.rosebayhotel.com.au"}}, {"type": "node", "id": 8981570129, "lat": -33.812903, "lon": 151.1699813, "tags": {"entrance": "main"}}, {"type": "node", "id": 8981570130, "lat": -33.8128131, "lon": 151.1698546}, {"type": "node", "id": 8981570131, "lat": -33.8127535, "lon": 151.1699157}, {"type": "node", "id": 8981570132, "lat": -33.8127409, "lon": 151.1698979}, {"type": "node", "id": 8981570133, "lat": -33.8126601, "lon": 151.1699809}, {"type": "node", "id": 8981570134, "lat": -33.812795, "lon": 151.1701712}, {"type": "node", "id": 8981570135, "lat": -33.8129354, "lon": 151.170027}, {"type": "node", "id": 8991707986, "lat": -34.0326442, "lon": 151.0572447}, {"type": "node", "id": 9069330847, "lat": -34.0343036, "lon": 151.1015206}, {"type": "node", "id": 9069330848, "lat": -34.0345437, "lon": 151.1014303}, {"type": "node", "id": 9069518587, "lat": -34.0314245, "lon": 151.0756137}, {"type": "node", "id": 9069518588, "lat": -34.0314434, "lon": 151.0757438}, {"type": "node", "id": 9069518589, "lat": -34.031469, "lon": 151.0757385}, {"type": "node", "id": 9069518590, "lat": -34.0314723, "lon": 151.0757613}, {"type": "node", "id": 9069518591, "lat": -34.0314468, "lon": 151.0757666}, {"type": "node", "id": 9069518592, "lat": -34.031459, "lon": 151.0758484}, {"type": "node", "id": 9069518593, "lat": -34.0314834, "lon": 151.0758431}, {"type": "node", "id": 9069518594, "lat": -34.0314946, "lon": 151.0759168}, {"type": "node", "id": 9069518595, "lat": -34.0314701, "lon": 151.0759222}, {"type": "node", "id": 9069518596, "lat": -34.0314823, "lon": 151.0760161}, {"type": "node", "id": 9069518597, "lat": -34.0315123, "lon": 151.076012}, {"type": "node", "id": 9069518598, "lat": -34.0315123, "lon": 151.0760268}, {"type": "node", "id": 9069518599, "lat": -34.0314857, "lon": 151.0760456}, {"type": "node", "id": 9069518600, "lat": -34.0315257, "lon": 151.0761582}, {"type": "node", "id": 9069518601, "lat": -34.0317724, "lon": 151.0760255}, {"type": "node", "id": 9069518602, "lat": -34.0317346, "lon": 151.0759115}, {"type": "node", "id": 9069518603, "lat": -34.0317091, "lon": 151.0759262}, {"type": "node", "id": 9069518604, "lat": -34.0316991, "lon": 151.0758498}, {"type": "node", "id": 9069518605, "lat": -34.0318324, "lon": 151.0758256}, {"type": "node", "id": 9069518606, "lat": -34.0318169, "lon": 151.0757116}, {"type": "node", "id": 9069518607, "lat": -34.0318691, "lon": 151.0756996}, {"type": "node", "id": 9069518608, "lat": -34.0318458, "lon": 151.0755212}, {"type": "node", "id": 9112886557, "lat": -33.9997616, "lon": 151.0675257}, {"type": "node", "id": 9112886558, "lat": -33.9998582, "lon": 151.0675107}, {"type": "node", "id": 9112886559, "lat": -33.9998644, "lon": 151.0675689}, {"type": "node", "id": 9112886560, "lat": -33.9998761, "lon": 151.067567}, {"type": "node", "id": 9112886561, "lat": -33.9998832, "lon": 151.0676342}, {"type": "node", "id": 9112886562, "lat": -33.9995547, "lon": 151.0676853}, {"type": "node", "id": 9112886563, "lat": -33.9995116, "lon": 151.0676528}, {"type": "node", "id": 9112886564, "lat": -33.9994863, "lon": 151.0674147}, {"type": "node", "id": 9112886565, "lat": -33.9996886, "lon": 151.0673835}, {"type": "node", "id": 9112886566, "lat": -33.9996941, "lon": 151.067435}, {"type": "node", "id": 9112886567, "lat": -33.9997395, "lon": 151.067428}, {"type": "node", "id": 9112886568, "lat": -33.9997448, "lon": 151.0674777}, {"type": "node", "id": 9112886569, "lat": -33.9997563, "lon": 151.0674759}, {"type": "node", "id": 9175406744, "lat": -33.9454381, "lon": 151.1930088, "tags": {"addr:housenumber": "5", "addr:postcode": "2019", "addr:state": "NSW", "addr:street": "Erith Street", "addr:suburb": "Botany", "amenity": "pub", "microbrewery": "yes", "name": "One Drop Brewing Co."}}, {"type": "node", "id": 9188484860, "lat": -34.0325435, "lon": 151.0572882}, {"type": "node", "id": 9188484869, "lat": -34.0326231, "lon": 151.0572324}, {"type": "node", "id": 9188484871, "lat": -34.0327003, "lon": 151.0576352}, {"type": "node", "id": 9188484873, "lat": -34.0326121, "lon": 151.0576559}, {"type": "node", "id": 9188484875, "lat": -34.0325751, "lon": 151.0573351}, {"type": "node", "id": 9188484876, "lat": -34.0325536, "lon": 151.057351}, {"type": "node", "id": 9293028280, "lat": -33.9198182, "lon": 151.0347587}, {"type": "node", "id": 9293028281, "lat": -33.9196601, "lon": 151.0347947}, {"type": "node", "id": 9404724455, "lat": -33.887314, "lon": 151.1012604}, {"type": "node", "id": 9404724456, "lat": -33.8872406, "lon": 151.101475}, {"type": "node", "id": 9404724457, "lat": -33.8872366, "lon": 151.1014828}, {"type": "node", "id": 9404724458, "lat": -33.8872714, "lon": 151.1016034}, {"type": "node", "id": 9404724459, "lat": -33.8872551, "lon": 151.1016069}, {"type": "node", "id": 9465084490, "lat": -33.8071257, "lon": 151.1992163}, {"type": "node", "id": 9465084491, "lat": -33.8073466, "lon": 151.1992397}, {"type": "node", "id": 9465084492, "lat": -33.8072929, "lon": 151.1989682}, {"type": "node", "id": 9465084493, "lat": -33.8072863, "lon": 151.198924}, {"type": "node", "id": 9465084494, "lat": -33.8072005, "lon": 151.1989424}, {"type": "node", "id": 9465084495, "lat": -33.8071988, "lon": 151.1989313}, {"type": "node", "id": 9465084496, "lat": -33.8070892, "lon": 151.1989548}, {"type": "node", "id": 9465084497, "lat": -33.8073059, "lon": 151.1989654}, {"type": "node", "id": 9601176887, "lat": -33.8959917, "lon": 151.1782041}, {"type": "node", "id": 9601176888, "lat": -33.8959594, "lon": 151.1783092}, {"type": "node", "id": 9601176889, "lat": -33.8959873, "lon": 151.1783217}, {"type": "node", "id": 9601176890, "lat": -33.8959632, "lon": 151.1783999}, {"type": "node", "id": 9601176891, "lat": -33.8961094, "lon": 151.1784651}, {"type": "node", "id": 9601176892, "lat": -33.8961448, "lon": 151.1783499}, {"type": "node", "id": 9601176893, "lat": -33.8960917, "lon": 151.1783263}, {"type": "node", "id": 9601176894, "lat": -33.8961202, "lon": 151.1782334}, {"type": "node", "id": 9619269721, "lat": -33.8662441, "lon": 151.207373, "tags": {"addr:housenumber": "320", "addr:street": "George Street", "amenity": "pub", "name": "The Royal George", "operator:ref": "29 105 332 652"}}, {"type": "node", "id": 9770940919, "lat": -33.9121462, "lon": 151.1195343}, {"type": "node", "id": 9770940920, "lat": -33.9122306, "lon": 151.1195335}, {"type": "node", "id": 9868164408, "lat": -33.9414866, "lon": 151.10218, "tags": {"entrance": "main"}}, {"type": "node", "id": 9868164409, "lat": -33.9415505, "lon": 151.1018861}, {"type": "node", "id": 9868164410, "lat": -33.9418503, "lon": 151.1019491}, {"type": "node", "id": 9868164411, "lat": -33.9418319, "lon": 151.1020767}, {"type": "node", "id": 9868164412, "lat": -33.9417449, "lon": 151.1020584}, {"type": "node", "id": 9868164413, "lat": -33.9417117, "lon": 151.1022879}, {"type": "node", "id": 9868164414, "lat": -33.9416872, "lon": 151.1022828}, {"type": "node", "id": 9868164415, "lat": -33.9416841, "lon": 151.1023039}, {"type": "node", "id": 9868164416, "lat": -33.9416939, "lon": 151.102306}, {"type": "node", "id": 9868174917, "lat": -33.9416648, "lon": 151.1025066}, {"type": "node", "id": 9868174918, "lat": -33.9416117, "lon": 151.1024954}, {"type": "node", "id": 9868174919, "lat": -33.9416098, "lon": 151.1025086}, {"type": "node", "id": 9868174920, "lat": -33.9416754, "lon": 151.1025224}, {"type": "node", "id": 9868174921, "lat": -33.9416506, "lon": 151.1026932}, {"type": "node", "id": 9868174922, "lat": -33.9414339, "lon": 151.1026474}, {"type": "node", "id": 9868174923, "lat": -33.9414357, "lon": 151.1026353}, {"type": "node", "id": 9868174924, "lat": -33.9414211, "lon": 151.1026323}, {"type": "node", "id": 9868174925, "lat": -33.9414265, "lon": 151.1025946}, {"type": "node", "id": 9868174926, "lat": -33.9414007, "lon": 151.1025892}, {"type": "node", "id": 9868174927, "lat": -33.9414524, "lon": 151.1022325}, {"type": "node", "id": 9868174928, "lat": -33.9414782, "lon": 151.1022379}, {"type": "node", "id": 9868174929, "lat": -33.9415065, "lon": 151.1020426}, {"type": "node", "id": 9868174930, "lat": -33.9415272, "lon": 151.1020469}, {"type": "node", "id": 9868174931, "lat": -33.9417359, "lon": 151.1021206}, {"type": "node", "id": 9868174936, "lat": -33.9416536, "lon": 151.1026729}, {"type": "node", "id": 9868174962, "lat": -33.9408352, "lon": 151.1014493}, {"type": "node", "id": 9868174963, "lat": -33.9411335, "lon": 151.1013943}, {"type": "node", "id": 9868174964, "lat": -33.9410917, "lon": 151.101693}, {"type": "node", "id": 9868174965, "lat": -33.9411136, "lon": 151.1016974}, {"type": "node", "id": 9868174966, "lat": -33.9410921, "lon": 151.1018507}, {"type": "node", "id": 9868174967, "lat": -33.9408638, "lon": 151.1018042}, {"type": "node", "id": 9868174968, "lat": -33.9408704, "lon": 151.1017567}, {"type": "node", "id": 9868174969, "lat": -33.9407959, "lon": 151.1017415}, {"type": "node", "id": 9868174970, "lat": -33.9408095, "lon": 151.1016451}, {"type": "node", "id": 9868174971, "lat": -33.9408279, "lon": 151.1016488}, {"type": "node", "id": 9868174972, "lat": -33.940843, "lon": 151.101541}, {"type": "node", "id": 9868174973, "lat": -33.9408229, "lon": 151.1015368}, {"type": "node", "id": 9884061891, "lat": -33.8287127, "lon": 151.2286901, "tags": {"amenity": "pub", "name": "The Dubliner", "theme": "irish"}}, {"type": "node", "id": 9900609677, "lat": -33.9715036, "lon": 151.0803691}, {"type": "node", "id": 9900779424, "lat": -33.8240599, "lon": 151.2010441, "tags": {"amenity": "pub", "cuisine": "burger", "drink:craft_beer": "yes", "name": "The Hayberry"}}, {"type": "node", "id": 9900955417, "lat": -33.8777814, "lon": 151.2213837, "tags": {"amenity": "pub", "check_date": "2022-07-21", "level": "0", "name": "Victoria's"}}, {"type": "node", "id": 9920945152, "lat": -33.9644286, "lon": 151.0878552}, {"type": "node", "id": 9920945153, "lat": -33.9645515, "lon": 151.0879664}, {"type": "node", "id": 9920945156, "lat": -33.96444, "lon": 151.0881454}, {"type": "node", "id": 9920945157, "lat": -33.9645171, "lon": 151.0882142}, {"type": "node", "id": 9920945158, "lat": -33.9643691, "lon": 151.0884555}, {"type": "node", "id": 9920945159, "lat": -33.9642928, "lon": 151.0883874}, {"type": "node", "id": 9920945160, "lat": -33.9642524, "lon": 151.0883892}, {"type": "node", "id": 9920945161, "lat": -33.964199, "lon": 151.0884796}, {"type": "node", "id": 9920945162, "lat": -33.9641466, "lon": 151.0884347}, {"type": "node", "id": 9920945163, "lat": -33.9642041, "lon": 151.0883373}, {"type": "node", "id": 9920945164, "lat": -33.9641955, "lon": 151.0883039}, {"type": "node", "id": 9920945165, "lat": -33.9641446, "lon": 151.0882584}, {"type": "node", "id": 9920945166, "lat": -33.964257, "lon": 151.0880754}, {"type": "node", "id": 9920945167, "lat": -33.9642805, "lon": 151.0880964}, {"type": "node", "id": 9920945168, "lat": -33.9642722, "lon": 151.0883905}, {"type": "node", "id": 9920945169, "lat": -33.9642619, "lon": 151.0883908}, {"type": "node", "id": 9920945170, "lat": -33.9642832, "lon": 151.0883899}, {"type": "node", "id": 9920945171, "lat": -33.9641987, "lon": 151.0883188}, {"type": "node", "id": 9930368526, "lat": -33.7828612, "lon": 151.2736427, "tags": {"addr:housenumber": "1", "addr:postcode": "2093", "addr:state": "NSW", "addr:street": "Campbell Parade", "addr:suburb": "Manly Vale", "addr:unit": "B14", "amenity": "pub", "microbrewery": "yes", "name": "Quakers Hat Brewing", "smoking": "no", "website": "https://www.quakershatbrewing.com.au/"}}, {"type": "node", "id": 9935141307, "lat": -33.9650563, "lon": 151.088025, "tags": {"amenity": "pub", "name": "Penshurst Hotel", "tourism": "hotel"}}, {"type": "node", "id": 10007895446, "lat": -33.8677471, "lon": 151.1926055, "tags": {"amenity": "pub", "drink:craft_beer": "yes", "name": "The Terminus", "opening_hours": "Mo-Sa 12:00-24:00; Su 12:00-22:00", "website": "https://www.terminuspyrmont.com/"}}, {"type": "node", "id": 10012557776, "lat": -33.9717102, "lon": 151.0799937}, {"type": "node", "id": 10012557777, "lat": -33.9715062, "lon": 151.0803515}, {"type": "node", "id": 10012557778, "lat": -33.9715036, "lon": 151.08036}, {"type": "node", "id": 10012557779, "lat": -33.9715103, "lon": 151.0803811}, {"type": "node", "id": 10012557780, "lat": -33.9715208, "lon": 151.0803849}, {"type": "node", "id": 10012557781, "lat": -33.9715278, "lon": 151.0803828}, {"type": "node", "id": 10012557782, "lat": -33.9719405, "lon": 151.0801976}, {"type": "node", "id": 10012557783, "lat": -33.9715158, "lon": 151.080385}, {"type": "node", "id": 10012557784, "lat": -33.9715068, "lon": 151.0803762}, {"type": "node", "id": 10012557785, "lat": -33.9718584, "lon": 151.0802344, "tags": {"entrance": "yes"}}, {"type": "node", "id": 10012557786, "lat": -33.9715428, "lon": 151.0803761, "tags": {"entrance": "yes"}}, {"type": "node", "id": 10012557787, "lat": -33.9715648, "lon": 151.0802487, "tags": {"entrance": "yes"}}, {"type": "node", "id": 10067672480, "lat": -33.8467815, "lon": 151.0665242}, {"type": "node", "id": 10067672481, "lat": -33.846888, "lon": 151.0663181}, {"type": "node", "id": 10067672482, "lat": -33.8471438, "lon": 151.0665189}, {"type": "node", "id": 10067672483, "lat": -33.8470593, "lon": 151.0667499}, {"type": "node", "id": 10082959064, "lat": -33.9461275, "lon": 151.2565183, "tags": {"amenity": "pub", "name": "The Bay Hotel & Diner", "outdoor_seating": "yes"}}, {"type": "node", "id": 10091229156, "lat": -33.9110294, "lon": 151.1552023}, {"type": "node", "id": 10091229157, "lat": -33.9109213, "lon": 151.1552675}, {"type": "node", "id": 10091229158, "lat": -33.9110917, "lon": 151.1557028}, {"type": "node", "id": 10091242282, "lat": -33.9112376, "lon": 151.1555559}, {"type": "node", "id": 10093779949, "lat": -33.9071043, "lon": 151.1644709}, {"type": "node", "id": 10093779950, "lat": -33.9071355, "lon": 151.1645078}, {"type": "node", "id": 10093779951, "lat": -33.9071088, "lon": 151.1645447}, {"type": "node", "id": 10093779952, "lat": -33.9072396, "lon": 151.1647056}, {"type": "node", "id": 10093779953, "lat": -33.9073453, "lon": 151.1645695}, {"type": "node", "id": 10093779954, "lat": -33.9072006, "lon": 151.1643972}, {"type": "node", "id": 10093780881, "lat": -33.9075042, "lon": 151.1628327}, {"type": "node", "id": 10093780882, "lat": -33.9073541, "lon": 151.1629577}, {"type": "node", "id": 10093780883, "lat": -33.9074995, "lon": 151.1632154}, {"type": "node", "id": 10093780884, "lat": -33.9076459, "lon": 151.1630898}, {"type": "node", "id": 10099455695, "lat": -33.9116471, "lon": 151.1639685}, {"type": "node", "id": 10099455696, "lat": -33.9118597, "lon": 151.164251}, {"type": "node", "id": 10099455697, "lat": -33.9121515, "lon": 151.1639867}, {"type": "node", "id": 10099455698, "lat": -33.9119154, "lon": 151.1637144}, {"type": "node", "id": 10099463704, "lat": -33.9047667, "lon": 151.1653914}, {"type": "node", "id": 10099463705, "lat": -33.9048469, "lon": 151.1655408}, {"type": "node", "id": 10099463706, "lat": -33.9050552, "lon": 151.165368}, {"type": "node", "id": 10099463707, "lat": -33.9050071, "lon": 151.1652399}, {"type": "node", "id": 10099463708, "lat": -33.9048317, "lon": 151.1653883}, {"type": "node", "id": 10099463709, "lat": -33.9048123, "lon": 151.1653507}, {"type": "node", "id": 10099463710, "lat": -33.9045976, "lon": 151.1675159}, {"type": "node", "id": 10099463711, "lat": -33.9046622, "lon": 151.1676849}, {"type": "node", "id": 10099463712, "lat": -33.9046461, "lon": 151.1676929}, {"type": "node", "id": 10099463713, "lat": -33.9046865, "lon": 151.1678008}, {"type": "node", "id": 10099463714, "lat": -33.9047834, "lon": 151.1677468}, {"type": "node", "id": 10099463715, "lat": -33.9046755, "lon": 151.1674672}, {"type": "node", "id": 10113676737, "lat": -34.0836859, "lon": 151.1532198}, {"type": "node", "id": 10120683133, "lat": -33.9718891, "lon": 151.0801521}, {"type": "node", "id": 10262178525, "lat": -34.0326101, "lon": 151.0576435}, {"type": "node", "id": 10262178526, "lat": -34.0325748, "lon": 151.0574201}, {"type": "node", "id": 10262178528, "lat": -34.0325884, "lon": 151.057414}, {"type": "node", "id": 10277207909, "lat": -33.8876924, "lon": 151.2153524, "tags": {"addr:housenumber": "565", "addr:postcode": "2010", "addr:street": "Bourke Street", "amenity": "pub", "contact:facebook": "thecarringtonsydney", "contact:instagram": "thecarringtonsydney", "email": "hello@thecarringtonsydney.com", "name": "The Carrington", "phone": "+61 497 952 889", "website": "https://thecarringtonsydney.com/"}}, {"type": "node", "id": 10290515404, "lat": -33.8725079, "lon": 151.2168251, "tags": {"amenity": "pub", "name": "East Sydney Hotel", "phases": "+612 9358 1975", "website": "https://www.eastsydneyhotel.com/"}}, {"type": "node", "id": 10290515405, "lat": -33.8745065, "lon": 151.2163965, "tags": {"amenity": "pub", "name": "The Strand Hotel", "phone": "+61 2 9068 8527", "start_date": "1923", "website": "https://www.strandhotel.com.au/"}}, {"type": "node", "id": 10290515406, "lat": -33.8793491, "lon": 151.2042608, "tags": {"amenity": "pub", "check_date:opening_hours": "2022-04-05", "name": "Covent Garden Hotel", "opening_hours:signed": "no"}}, {"type": "node", "id": 10290515407, "lat": -33.8782844, "lon": 151.2094542, "tags": {"amenity": "pub", "name": "Crown Hotel"}}, {"type": "node", "id": 10290549109, "lat": -33.8812364, "lon": 151.2109516, "tags": {"amenity": "pub", "drink:craft_beer": "yes", "name": "Royal Albert Hotel"}}, {"type": "node", "id": 10290549110, "lat": -33.8839405, "lon": 151.2098551, "tags": {"amenity": "pub", "drink:craft_beer": "yes", "name": "Keg & Brew", "website": "https://www.kegandbrew.com.au/"}}, {"type": "node", "id": 10290549111, "lat": -33.887632, "lon": 151.2111485, "tags": {"alt_name": "The Shakey", "amenity": "pub", "contact:facebook": "https://www.facebook.com/shakespearehotelsydney", "contact:instagram": "https://www.instagram.com/shakespearehotel/", "drink:craft_beer": "yes", "name": "Shakespeare Hotel", "phone": "+61 2 9319 6883", "tourism": "hotel", "website": "https://www.shakespearehotel.com.au/"}}, {"type": "node", "id": 10290549113, "lat": -33.8858991, "lon": 151.207045, "tags": {"amenity": "pub", "food": "yes", "name": "Royal Exhibition Hotel", "phone": "+61 2 9698 2607", "website": "https://www.royalexhibition.com.au/"}}, {"type": "node", "id": 10290549114, "lat": -33.8871629, "lon": 151.2101484, "tags": {"amenity": "pub", "description": "Craft Beer & Pub restaurant with Private function facilities", "drink:craft_beer": "yes", "email": "Marketing@doveandolive.com.au", "name": "Dove and Olive", "phone": "+61 296996001", "website": "https://doveandolive.com.au/"}}, {"type": "node", "id": 10290561663, "lat": -33.8977614, "lon": 151.1928293, "tags": {"amenity": "pub", "name": "Camelia Grove Hotel"}}, {"type": "node", "id": 10290561664, "lat": -33.8534542, "lon": 151.1818252, "tags": {"amenity": "pub", "name": "Sir William Wallace Hotel", "opening_hours": "Mo 12:00-00:00, Tu-Sa 11:00-00:00, Su 11:00-22:00", "phone": "+61295558570", "smoking": "no", "website": "http://www.williamwallacehotel.com.au/", "wheelchair": "limited", "wikidata": "Q7529814", "wikipedia": "en:Sir William Wallace Hotel"}}, {"type": "node", "id": 10290561665, "lat": -33.8548507, "lon": 151.1826893, "tags": {"amenity": "pub", "name": "Dry Dock Hotel", "opening_hours": "Mo-Sa 11:00-00:00, Su 11:00-22:00", "outdoor_seating": "yes", "phone": "+6195551306", "smoking": "no", "start_date": "1857", "website": "http://drydockhotel.com.au/", "wheelchair": "limited", "wikidata": "Q5309508"}}, {"type": "node", "id": 10290561666, "lat": -33.8582054, "lon": 151.2033934, "tags": {"amenity": "pub", "description": "Sydney's oldest pub and hotel", "drink:craft_beer": "yes", "name": "Lord Nelson Brewery Hotel", "phone": "+61 2 9251 4044", "website": "https://www.lordnelsonbrewery.com/"}}, {"type": "node", "id": 10290561667, "lat": -33.8711551, "lon": 151.204035, "tags": {"amenity": "pub", "name": "Shelbourne Hotel", "wheelchair": "limited"}}, {"type": "node", "id": 10290561668, "lat": -33.8688703, "lon": 151.2192031, "tags": {"amenity": "pub", "name": "The Bells Hotel"}}, {"type": "node", "id": 10290561669, "lat": -33.8690545, "lon": 151.2194423, "tags": {"amenity": "pub", "drink:craft_beer": "yes", "name": "Woolloomooloo Bay Hotel"}}, {"type": "node", "id": 10290561670, "lat": -33.8697013, "lon": 151.2204421, "tags": {"amenity": "pub", "name": "The Tilbury Hotel"}}, {"type": "node", "id": 10290561671, "lat": -33.8854262, "lon": 151.2353767, "tags": {"amenity": "pub", "name": "The Bellevue Hotel", "toilets": "yes"}}, {"type": "node", "id": 10290561672, "lat": -33.8857127, "lon": 151.2172021, "tags": {"amenity": "pub", "name": "Cricketers Arms Hotel", "outdoor_seating": "garden", "website": "https://www.cricketersarmshotel.com.au/"}}, {"type": "node", "id": 10290561673, "lat": -33.8840065, "lon": 151.1847069, "tags": {"amenity": "pub", "billiards:pool": "1", "billiards:pool:charge": "2 AUD", "billiards:pool:fee": "yes", "drink:craft_beer": "yes", "name": "Forest Lodge Hotel", "opening_hours": "Mo-Su 12:00-22:00", "phone": "+61 2 9660 1872", "smoking": "no", "sport": "billiards", "website": "http://www.forestlodgehotel.com.au/", "wheelchair": "no"}}, {"type": "node", "id": 10290561674, "lat": -33.8813921, "lon": 151.1925807, "tags": {"amenity": "pub", "drink:craft_beer": "yes", "name": "The Friend in Hand", "opening_hours": "Su 10:00-22:00; Mo-Fr 08:00-00:00; Sa 10:00-00:00", "phone": "+61296602326", "smoking": "no", "website": "http://www.friendinhand.com.au/"}}, {"type": "node", "id": 10290561675, "lat": -33.8875683, "lon": 151.1946337, "tags": {"amenity": "pub", "drink:craft_beer": "yes", "name": "The Duck Inn Pub & Kitchen", "source": "LPI NSW Base Map; LPI NSW Imagery; local knowledge", "website": "https://theduckinnpubandkitchen.wordpress.com/"}}, {"type": "node", "id": 10290561676, "lat": -33.887963, "lon": 151.195103, "tags": {"amenity": "pub", "drink:craft_beer": "yes", "name": "The Rose Hotel"}}, {"type": "node", "id": 10290561677, "lat": -33.8874295, "lon": 151.1986847, "tags": {"amenity": "pub", "loc_name": "The Chippo Hotel", "name": "The Chippendale Hotel", "opening_hours": "Mo-Sa 10:00-24:00, Su 13:00-22:00", "phone": "+61 2 9310 5133", "website": "http://www.thechippendalehotel.com.au/"}}, {"type": "node", "id": 10290561678, "lat": -33.8926672, "lon": 151.2037965, "tags": {"amenity": "pub", "name": "Tudor Hall Hotel"}}, {"type": "node", "id": 10290561679, "lat": -33.8832159, "lon": 151.2163104, "tags": {"amenity": "pub", "name": "The Beresford"}}, {"type": "node", "id": 10290561680, "lat": -33.8864094, "lon": 151.2139079, "tags": {"amenity": "pub", "billiards:pool": "1", "food": "yes", "name": "The Clock", "name:en": "The Clock", "opening_hours": "Mo-Su 12:00-24:00", "phone": "+61 2 9331 5333", "sport": "billiards", "website": "https://www.clockhotel.com.au/", "wheelchair": "limited"}}, {"type": "node", "id": 10290561681, "lat": -33.8848296, "lon": 151.212896, "tags": {"amenity": "pub", "name": "The Forresters", "opening_hours": "Mo-We 11:30-23:00;Th 11:30-00:00;Fr-Sa 11:30-01:00; Su 11:30-22:00", "outdoor_seating": "yes"}}, {"type": "node", "id": 10290585135, "lat": -33.876886, "lon": 151.1848663, "tags": {"amenity": "pub", "name": "The Toxteth", "old_name": "The Toxteth Hotel", "outdoor_seating": "yes", "website": "https://www.toxtethhotel.com.au/"}}, {"type": "node", "id": 10290585136, "lat": -33.8841636, "lon": 151.2083805, "tags": {"amenity": "pub", "name": "The Aurora"}}, {"type": "node", "id": 10290585137, "lat": -33.8846483, "lon": 151.2142501, "tags": {"amenity": "pub", "cuisine": "pizza", "food": "yes", "name": "The Dolphin", "outdoor_seating": "yes"}}, {"type": "node", "id": 10290585143, "lat": -33.879792, "lon": 151.2152155, "tags": {"amenity": "pub", "name": "Gaslight Inn"}}, {"type": "node", "id": 10290585145, "lat": -33.8426905, "lon": 151.2048823, "tags": {"amenity": "pub", "name": "Commodore Hotel", "outdoor_seating": "yes"}}, {"type": "node", "id": 10290585146, "lat": -33.8456512, "lon": 151.2039643, "tags": {"amenity": "pub", "name": "Blues Point Hotel"}}, {"type": "node", "id": 10290585147, "lat": -33.8457553, "lon": 151.2128377, "tags": {"amenity": "pub", "drink:craft_beer": "yes", "food": "yes", "name": "The Kirribilli Hotel", "opening_hours": "Mo-Sa 10:00-00:00; Su 10:00-22:00", "phone": "+612 9955 1415", "start_date": "1937", "website": "https://www.kirribillihotel.com.au/"}}, {"type": "node", "id": 10290585148, "lat": -33.8566711, "lon": 151.2073382, "tags": {"amenity": "pub", "name": "Harbour View Hotel", "website": "https://www.harbourview.com.au/"}}, {"type": "node", "id": 10290585149, "lat": -33.8576938, "lon": 151.2058888, "tags": {"amenity": "pub", "brewery": "guinness;one fifty lashes;four wives;nine tales;the chancer;hop thief", "internet_access": "no", "name": "The Hero of Waterloo Hotel", "wikidata": "Q58242738"}}, {"type": "node", "id": 10290585150, "lat": -33.8650983, "lon": 151.2033547, "tags": {"amenity": "pub", "name": "Sussex Hotel", "outdoor_seating": "yes", "wikidata": "Q59872514"}}, {"type": "node", "id": 10290585151, "lat": -33.8713503, "lon": 151.194765, "tags": {"amenity": "pub", "contact:instagram": "thedunkirk_pyrmont", "name": "The Dunkirk", "phone": "+61 2 9660 1038", "website": "https://www.thedunkirk.com.au/", "wheelchair": "no"}}, {"type": "node", "id": 10290585152, "lat": -33.8711249, "lon": 151.1949158, "tags": {"access:roof": "yes", "amenity": "pub", "cuisine": "pub", "drink:craft_beer": "yes", "food": "yes", "name": "Quarryman's Hotel", "outdoor_seating": "yes", "wheelchair": "limited"}}, {"type": "node", "id": 10290585153, "lat": -33.884762, "lon": 151.1948689, "tags": {"amenity": "pub", "name": "Lansdowne Hotel", "name:en": "The Lansdowne Hotel", "website": "https://thelansdownepub.com.au/"}}, {"type": "node", "id": 10290585154, "lat": -33.8960212, "lon": 151.1781893}, {"type": "node", "id": 10290585155, "lat": -33.8991262, "lon": 151.1713734, "tags": {"amenity": "pub", "name": "The Sly Fox Hotel"}}, {"type": "node", "id": 10290585156, "lat": -33.9047663, "lon": 151.173027, "tags": {"amenity": "pub", "billiards:pool": "2", "billiards:pool:fee": "2", "name": "The Golden Barley Hotel", "opening_hours": "Mo-Sa 10:00-02:00, Su 10:00-24:00", "phone": "+61 2 9565 1166", "smoking": "no", "sport": "billiards", "website": "http://www.goldenbarleyhotel.com.au/", "wheelchair": "limited"}}, {"type": "node", "id": 10290585157, "lat": -33.9110805, "lon": 151.1578162, "tags": {"amenity": "pub", "name": "Royal Exchange Hotel"}}, {"type": "node", "id": 10290585158, "lat": -33.9041719, "lon": 151.1682004, "tags": {"amenity": "pub", "food": "yes", "name": "The Vic On The Park", "phone": "+61 2 9114 7348", "smoking": "no", "website": "https://merivale.com/venues/viconthepark/", "wheelchair": "no"}}, {"type": "node", "id": 10290585159, "lat": -33.9050902, "lon": 151.1613205, "tags": {"amenity": "pub", "name": "The Henson", "opening_hours": "Mo-Sa 11:00-24:00, Su 11:00-22:00", "phone": "+61295695858", "smoking": "no", "website": "http://www.thehenson.com.au/", "wheelchair": "limited", "wikidata": "Q14934828"}}, {"type": "node", "id": 10290585160, "lat": -33.8934033, "lon": 151.1557529, "tags": {"amenity": "pub", "billiards:pool": "1", "billiards:pool:charge": "3 AUD", "billiards:pool:fee": "yes", "diet:vegetarian": "yes", "drink:craft_beer": "yes", "food": "yes", "name": "White Cockatoo Hotel", "opening_hours:url": "https://projets.pavie.info/yohours/?oh=Mo,Tu%2011:30-22:00; %20We,Th%2011:30-23:00; %20Fr,Sa%2011:30-24:00; %20Su%2011:30-21:00", "outdoor_seating": "yes", "sport": "billiards", "website": "https://www.whitecockatoohotel.com.au/"}}, {"type": "node", "id": 10290612752, "lat": -33.866213, "lon": 151.1735541, "tags": {"amenity": "pub", "name": "The Merton Hotel"}}, {"type": "node", "id": 10290612753, "lat": -33.8648572, "lon": 151.1686684, "tags": {"amenity": "pub", "name": "The Red Lion", "website": "https://www.redlionrozelle.com.au/"}}, {"type": "node", "id": 10290612754, "lat": -33.8429562, "lon": 151.2823337, "tags": {"amenity": "pub", "name": "Watsons Bay Hotel", "outdoor_seating": "yes", "source": "Bing", "website": "https://watsonsbayhotel.com.au/"}}, {"type": "node", "id": 10290612755, "lat": -33.8851974, "lon": 151.2299314, "tags": {"amenity": "pub", "internet_access": "wlan", "name": "The London", "toilets": "yes"}}, {"type": "node", "id": 10290612756, "lat": -33.9165874, "lon": 151.2411404, "tags": {"amenity": "pub", "name": "The Cookhouse"}}, {"type": "node", "id": 10290612757, "lat": -33.9030666, "lon": 151.1913948, "tags": {"amenity": "pub", "name": "Park View Hotel", "outdoor_seating": "yes", "restaurant": "yes", "source:name": "OpenStreetBugs"}}, {"type": "node", "id": 10290612758, "lat": -33.884334, "lon": 151.1500814, "tags": {"amenity": "pub", "name": "Gladstone Park Hotel", "opening_hours": "Mo-Sa 06:00-03:00, Su 10:00-22:00", "phone": "+61 2 9569 4057"}}, {"type": "node", "id": 10290612759, "lat": -33.8772033, "lon": 151.2415186, "tags": {"amenity": "pub", "brewery": "various", "name": "Royal Oak Hotel", "opening_hours": "Mo-Su 08:00-00:00", "outdoor_seating": "yes", "website": "https://www.royaloakdoublebay.com.au/"}}, {"type": "node", "id": 10290612761, "lat": -33.8874847, "lon": 151.1714043, "tags": {"amenity": "pub", "name": "Annandale Hotel", "opening_hours": "Mo-We 07:00-24:00, Th-Sa 07:00-01:00, Su 07:00-24:00", "opening_hours:signed": "no", "phone": "+61 2 9550 1078", "smoking": "no", "website": "https://www.annandalehotel.com/", "wheelchair": "limited"}}, {"type": "node", "id": 10290612762, "lat": -33.8877179, "lon": 151.159341, "tags": {"amenity": "pub", "drink:craft_beer": "yes", "name": "Crowbar", "note": "Formerly known as The Bald Faced Stag.", "website": "https://crowbarsyd.com/"}}, {"type": "node", "id": 10290612763, "lat": -33.8904009, "lon": 151.1383145, "tags": {"amenity": "pub", "name": "Summer Hill Hotel", "opening_hours": "Mo-Tu 10:00-02:00, We-Th 10:00-03:00, Fr-Sa 10:00-04:00, Su 10:00-24:00", "phone": "+61 2 9798 3331", "smoking": "no", "website": "https://www.thesummerhill.com.au/"}}, {"type": "node", "id": 10290612764, "lat": -33.8970963, "lon": 151.1790975, "tags": {"amenity": "pub", "name": "Websters Bar"}}, {"type": "node", "id": 10290612766, "lat": -33.8989319, "lon": 151.1735038, "tags": {"amenity": "pub", "food": "yes", "name": "Duke of Edinburgh Hotel", "wheelchair": "limited"}}, {"type": "node", "id": 10292266556, "lat": -33.8970256, "lon": 151.1985085, "tags": {"amenity": "pub", "cuisine": "burger", "drink:craft_beer": "yes", "name": "Lord Raglan Hotel", "payment:cash": "yes", "payment:debit_cards": "yes"}}, {"type": "node", "id": 10292266557, "lat": -33.8799654, "lon": 151.209219, "tags": {"amenity": "pub", "name": "Surry Hills Hotel"}}, {"type": "node", "id": 10292272900, "lat": -33.8905981, "lon": 151.2092862, "tags": {"amenity": "pub", "drink:craft_beer": "yes", "name": "The Norfolk on Cleveland", "opening_hours": "Su-Tu 12:00-00:00; We-Sa 12:00-03:00"}}, {"type": "node", "id": 10700618853, "lat": -33.8846889, "lon": 151.2142924, "tags": {"air_conditioning": "yes", "amenity": "pub", "food": "yes", "indoor_seating": "yes", "name": "The Dolphin Hotel", "outdoor_seating": "yes", "outdoor_seating:comfort": "chair", "website": "https://dolphinhotel.com.au/"}}, {"type": "node", "id": 10700618866, "lat": -33.8854074, "lon": 151.2138411, "tags": {"amenity": "pub", "name": "White Horse Hotel"}}, {"type": "node", "id": 10796974387, "lat": -33.8697092, "lon": 151.2057496, "tags": {"addr:housenumber": "152-156", "addr:state": "NSW", "addr:street": "Clarence Street", "addr:suburb": "Sydney", "amenity": "pub", "cuisine": "british", "name": "The Duke of Clarence", "phone": "+61 2 8999 3850", "website": "https://thedukeofclarence.com/"}}, {"type": "node", "id": 10857591470, "lat": -33.8496433, "lon": 151.0342434}, {"type": "node", "id": 10857591471, "lat": -33.8495683, "lon": 151.0343022}, {"type": "node", "id": 10857591472, "lat": -33.8496342, "lon": 151.0344244}, {"type": "node", "id": 10857591473, "lat": -33.8496177, "lon": 151.0344374}, {"type": "node", "id": 10857591474, "lat": -33.8495372, "lon": 151.0342884}, {"type": "node", "id": 10857591475, "lat": -33.8494482, "lon": 151.0343581}, {"type": "node", "id": 10857591476, "lat": -33.8495288, "lon": 151.0345074}, {"type": "node", "id": 10857591477, "lat": -33.8494665, "lon": 151.0345562}, {"type": "node", "id": 10857591478, "lat": -33.8494861, "lon": 151.0345924}, {"type": "node", "id": 10857591479, "lat": -33.8495469, "lon": 151.0345447}, {"type": "node", "id": 10857591480, "lat": -33.8496569, "lon": 151.0347484}, {"type": "node", "id": 10857591481, "lat": -33.849839, "lon": 151.0346059}, {"type": "way", "id": 30933219, "nodes": [344050819, 344050820, 344050821, 344050822, 871836872, 871836862, 344050819], "tags": {"amenity": "pub", "building": "commercial", "building:levels": "2", "cuisine": "burger", "level": "0,1", "name": "Rag and Famish Hotel", "opening_hours": "Mo-Su 10:00-24:00; PH open \"Except Christmas\"", "outdoor_seating": "yes", "source": "nearmap", "toilets:access": "permissive", "wheelchair": "no"}}, {"type": "way", "id": 30972284, "nodes": [344412886, 5334177710, 5334177711, 5334177713, 5334177714, 5334177712, 5334177715, 5334177716, 5334177717, 5334177718, 5334177719, 5334177720, 5334183721, 5334183722, 5334183723, 5334183724, 5334183727, 1850430867, 5334183728, 9293028281, 9293028280, 344412888, 5334183729, 5334183730, 5334183731, 5334183732, 344412889, 5334183733, 5334183734, 5334183735, 5334183736, 5334183737, 5334183738, 5334183739, 5334183748, 5334183749, 5334183740, 5334183741, 5334183742, 5334183743, 5334183744, 5334183745, 344412886], "tags": {"addr:housenumber": "8", "addr:street": "Greenfield Parade", "amenity": "pub", "building": "yes", "building:levels": "2", "name": "Bankstown Sports Club", "phone": "+61297229888", "tourism": "hotel", "website": "https://www.bankstownsports.com/contact-us"}}, {"type": "way", "id": 62258478, "nodes": [777713877, 5770205494, 5770205495, 5770205498, 777713845, 5770205492, 777713882, 777713889, 777713894, 5770205491, 777713901, 777713877], "tags": {"amenity": "pub", "building": "commercial", "building:levels": "2", "name": "Union Hotel", "wheelchair": "yes"}}, {"type": "way", "id": 71706672, "nodes": [6063622654, 852479026, 6063622653, 6063622652, 6063622651, 852479027, 852479028, 852479030, 6063622656, 852479032, 6063622654], "tags": {"addr:housenumber": "68", "addr:street": "Blaxland Road", "amenity": "pub", "building": "yes", "name": "The Royal Hotel Ryde"}}, {"type": "way", "id": 73552749, "nodes": [462628792, 871836813, 871836858, 871836851, 871836840, 871836824, 871836848, 871836829, 871836805, 871836906, 871836900, 871836893, 871836886, 871836868, 871836860, 871836853, 871836846, 871836902, 871836895, 871836828, 871836873, 871836888, 871836908, 462628792], "tags": {"amenity": "pub", "building": "commercial", "building:levels": "2", "name": "North Sydney Hotel", "source": "nearmap", "tourism": "hotel"}}, {"type": "way", "id": 86148946, "nodes": [1000013327, 5835901659, 5835901658, 1000014527, 1000014165, 1000013690, 5835901666, 1000014857, 1000014375, 1000014023, 5835901661, 5835901662, 1000014448, 1000013327], "tags": {"amenity": "pub", "building": "yes", "levels": "3", "name": "Cronulla RSL Memorial Club", "source": "survey", "source:location": "nearmap"}}, {"type": "way", "id": 87498044, "nodes": [1017820564, 5836144277, 1017820157, 1017820676, 2502508924, 1017820368, 1017820530, 1017820362, 1017820215, 1017820072, 1017820601, 1017820438, 1017820278, 1017820050, 1017820564], "tags": {"amenity": "pub", "source": "survey", "source:location": "nearmap"}}, {"type": "way", "id": 88184040, "nodes": [1024701995, 1024702330, 221785012, 1024702516, 1024702638, 1024702539, 1024702662, 1024701995], "tags": {"amenity": "pub", "source": "survey", "source:location": "nearmap"}}, {"type": "way", "id": 88532369, "nodes": [1028239928, 7121848066, 7121848067, 1028239901, 7121848068, 1028239914, 1028240006, 7121848064, 7121848062, 7121848061, 7121848060, 7121848063, 7121848059, 7121848058, 7121848065, 1028239928], "tags": {"amenity": "pub", "building": "yes", "name": "Panania Hotel"}}, {"type": "way", "id": 97913391, "nodes": [1133306771, 1133306737, 1133306843, 1133306878, 1133306794, 1133306716, 1133306823, 1133306818, 1133306742, 1133306847, 1133306767, 1133306802, 1133306772, 1133306855, 1133306761, 1133306887, 1133306841, 1133306870, 1133306860, 1133306735, 1133306726, 1133306833, 1133306754, 1133306746, 1133306771], "tags": {"addr:street": "Beaconsfield Street", "amenity": "pub", "building": "yes", "name": "The Mill Hotel"}}, {"type": "way", "id": 98234790, "nodes": [1136446667, 1136446694, 1136446692, 1136446665, 1136446696, 1136446678, 1136446675, 1136446667], "tags": {"amenity": "pub", "building": "yes", "source": "survey", "source:location": "nearmap"}}, {"type": "way", "id": 103632658, "nodes": [1196618057, 1196618054, 1196618055, 1196618056, 3835479058, 1196618057], "tags": {"amenity": "pub", "building": "yes", "name": "Ramsgate RSL", "source": "survey", "source:location": "nearmap", "website": "https://www.ramsgatersl.com.au/"}}, {"type": "way", "id": 103632910, "nodes": [18264406, 1196620230, 1196620228, 1196620229, 18264406], "tags": {"amenity": "pub", "building": "yes", "leisure": "sailing", "name": "Saint George Sailing Club", "source": "survey", "source:location": "nearmap"}}, {"type": "way", "id": 117449538, "nodes": [1323182290, 1323182281, 1323182273, 1323182270, 1323182287, 1323182275, 1323182293, 1323182291, 1323182283, 1323182288, 1323182282, 1323182278, 1323182269, 1323182271, 1323182279, 1323182294, 1323182290], "tags": {"amenity": "pub", "building": "yes", "name": "St George Motor Boat Club", "source": "survey", "source:location": "nearmap"}}, {"type": "way", "id": 124054520, "nodes": [1381665545, 1381665534, 1381665547, 1381665549, 1381665545], "tags": {"amenity": "pub", "name": "Northbridge Hotel"}}, {"type": "way", "id": 172397448, "nodes": [1833040836, 1833040715, 1833040800, 1833040705, 1833040593, 1833040650, 1833040601, 1833040836], "tags": {"amenity": "pub", "building": "yes", "source": "Bing"}}, {"type": "way", "id": 173175336, "nodes": [20930425, 1840021055, 5365511115, 5365511114, 5365511113, 5365511112, 1840021034, 1840021026, 1840021048, 1840021033, 5365511116, 5365511117, 5365511118, 1840021025, 20930425], "tags": {"addr:housenumber": "2", "addr:street": "Foster Street", "amenity": "pub", "building": "yes", "building:levels": "5", "check_date": "2023-03-15", "indoor_seating": "yes", "name": "Hotel Hollywood", "opening_hours": "Th-Sa 10:00-03:00, Mo-We 10:00-24:00", "outdoor_seating": "yes", "payment:credit_cards": "yes", "payment:debit_cards": "yes", "source": "Bing", "source:addr": "LPI Base Map May 2018", "website": "https://hollywoodhotelsydney.com.au/", "wikidata": "Q66123736", "wikipedia": "en:Hotel Hollywood (building)"}}, {"type": "way", "id": 173309409, "nodes": [1841542449, 1841542446, 1841542379, 1841542340, 1841542449], "tags": {"alt_name": "St George Rowing Club", "amenity": "pub", "building": "commercial", "name": "Rowers on Cooks River", "source": "Bing", "toilets:wheelchair": "yes", "wheelchair": "yes"}}, {"type": "way", "id": 193054492, "nodes": [2035875818, 2035875682, 2035875813, 9069330847, 2035875795, 9069330848, 2035875667, 2035875742, 2035875764, 2035875804, 2035875818], "tags": {"amenity": "pub", "building": "yes", "name": "Miranda Hotel"}}, {"type": "way", "id": 196250618, "nodes": [297448585, 297449466, 8597066318, 297448583, 297448778, 8597066317, 297448581, 2066027925, 3115934421, 8597066314, 8597066315, 8597066316, 8597066313, 2066027928, 8597066312, 2066027931, 2066027933, 8597066311, 8597066310, 2066027934, 977373250, 3115934420, 297448775, 8597066322, 297448573, 8597066321, 977373229, 297449464, 8597066320, 8597066319, 297448571, 297448585], "tags": {"amenity": "pub", "building": "university", "building:levels": "2", "height": "10 m", "name": "Roundhouse - E6", "wheelchair": "yes"}}, {"type": "way", "id": 206466289, "nodes": [2164715942, 2164715946, 9404724455, 2164715944, 2164715936, 2164715938, 2164715935, 2164715948, 2164715940, 2164715939, 9404724458, 9404724459, 9404724457, 9404724456, 2164715949, 2164715937, 2164715942], "tags": {"amenity": "pub", "building": "yes", "name": "Royal Sheaf Hotel"}}, {"type": "way", "id": 206467311, "nodes": [2164748878, 2164748873, 2164748876, 5457878234, 2164748877, 5457878235, 2164748874, 2164748878], "tags": {"amenity": "pub", "building": "retail", "building:levels": "3", "name": "Whelan's Strathfield Hotel", "opening_hours": "Mo-Sa 09:00-02:00, Su 00:00-22:00", "roof:shape": "hipped", "wheelchair": "yes"}}, {"type": "way", "id": 207181759, "nodes": [2173385068, 2173385067, 4782224259, 2173385007, 2173385036, 2173384954, 2173384948, 2173385034, 1627708880, 4464367895, 2173385068], "tags": {"addr:housenumber": "446", "addr:postcode": "2067", "addr:street": "Victoria Avenue", "amenity": "pub", "building": "commercial", "building:levels": "3", "indoor_seating": "yes", "name": "Chatswood RSL", "outdoor_seating": "no", "roof:shape": "flat", "source": "survey", "source:geometry": "NSW LPI Imagery", "toilets:wheelchair": "yes", "wheelchair": "yes"}}, {"type": "way", "id": 223784751, "nodes": [2326579121, 5330246976, 2326579120, 2326579121], "tags": {"addr:housenumber": "69-71", "addr:street": "The Corso", "amenity": "pub", "building": "yes", "name": "New Brighton Hotel", "source:addr": "LPI Base Map May 2018"}}, {"type": "way", "id": 223786812, "nodes": [2326597039, 2326597040, 5330246957, 5330246956, 5330246958, 2326597043, 2326597039]}, {"type": "way", "id": 244915278, "nodes": [2521880553, 5419878317, 5419878316, 2521880525, 2521880632, 5419878338, 2521880628, 2521880553], "tags": {"addr:housenumber": "11", "addr:street": "Victoria Road", "amenity": "pub", "building": "yes", "building:levels": "2", "description": "Two storey hotel, originally of brick (speckled tuck pointed brick and dark brick upper storey) with steep hipped corrugated iron roof. A change in the brickwork indicates that the building was originally single storeyed.", "name": "Rose & Crown Hotel", "source": "https://apps.environment.nsw.gov.au/dpcheritageapp/ViewHeritageItemDetails.aspx?ID=2240576"}}, {"type": "way", "id": 292661098, "nodes": [2961963536, 2961963537, 2961963538, 2961963539, 2961963536], "tags": {"addr:city": "Marrickville", "addr:housenumber": "44", "addr:postcode": "2204", "addr:state": "NSW", "addr:street": "Sydenham Road", "addr:suburb": "Marrickville", "amenity": "pub", "building": "industrial", "craft": "brewery", "microbrewery": "yes", "name": "Batch Brewing Company", "opening_hours": "Mo-Th 10:00-20:00; Fr-Sa 10:00-21:00; Su 10:00-20:00", "operator": "Batch Brewing Company", "website": "http://www.batchbrewingco.com.au/"}}, {"type": "way", "id": 329309048, "nodes": [3361756668, 3361756669, 3361756670, 3361756667, 10113676737, 3361756666, 3361756661, 3361756662, 3361756660, 3361756663, 3361756659, 3361756668], "tags": {"amenity": "pub", "building": "yes", "building:levels": "2", "name": "Bundeena Community & Services Club"}}, {"type": "way", "id": 351804754, "nodes": [3576148278, 3576148280, 3576148281, 3576148279, 3576148277, 3576148276, 281669606, 3576148278], "tags": {"addr:housenumber": "1021", "addr:street": "Victoria Road", "amenity": "pub", "building": "retail", "name": "West Ryde Hotel", "source": "bing for outline"}}, {"type": "way", "id": 352913460, "nodes": [8287978198, 8287978201, 3587028519, 3587028525, 8287978200, 8287978199, 3587028520, 8287978184, 8287978185, 3587028526, 3587028521, 3587028518, 8287978187, 8287978186, 8287978190, 8287978189, 8287978191, 8287978194, 8287978193, 8287978192, 8287978195, 8287978197, 8287978196, 8287978198], "tags": {"addr:city": "Engadine", "addr:housenumber": "52", "addr:postcode": "2233", "addr:street": "Station Street", "amenity": "pub", "building": "yes", "name": "Engadine Tavern"}}, {"type": "way", "id": 370670883, "nodes": [3743664382, 3743664404, 3743664406, 3743664401, 3743664402, 3743664399, 3743664400, 3743664397, 3743664396, 3743664385, 3743664382], "tags": {"amenity": "pub", "building": "yes", "name": "Carlingford Bowling Club", "source": "bing for location, 1guess original author"}}, {"type": "way", "id": 459249777, "nodes": [4551498829, 4551498830, 4551498831, 4551498832, 4551498829], "tags": {"addr:city": "Condell Park", "addr:housenumber": "25", "addr:postcode": "2200", "addr:street": "Birch Street", "amenity": "pub", "building": "yes", "description": "Spacious sports bar with pool tables and a giant outdoor screen, plus a bistro and kids\u2019 play area.", "name": "High Flyer", "opening_hours": "Mo-Su 10:00-24:00"}}, {"type": "way", "id": 474350613, "nodes": [4683268388, 4683268689, 4683268692, 4683268690, 4681061452, 4683268388], "tags": {"amenity": "pub", "building": "yes", "microbrewery": "yes", "name": "Stockade Brew Co."}}, {"type": "way", "id": 516912281, "nodes": [5045460762, 5045460761, 5045460760, 5045460759, 5698271139, 5698271138, 5698271126, 5698271140, 5045460762], "tags": {"amenity": "pub", "name": "Marrickville Bowling and Recreation Club", "ramp": "yes", "sport": "bowls", "wheelchair": "yes"}}, {"type": "way", "id": 518743604, "nodes": [2179174910, 5059644182, 5059644183, 5059644184, 2180952489, 5192854703, 5192854702, 5059644181, 5059644180, 2179174910], "tags": {"addr:city": "Chatswood", "addr:housenumber": "522", "addr:postcode": "2067", "addr:province": "NSW", "addr:street": "Pacific Highway", "amenity": "pub", "fax": "+61 2 9413 4462", "indoor_seating": "yes", "lunch:menu": "Mo-Sa 12:00-14:30;Su 12:00-15:00", "name": "The Great Northern Hotel", "name:en": "The Great Northern Hotel", "opening_hours": "Mo 10:00-00:00; Tu-Sa 11:00-00:00; Su 11:00-22:00", "opening_hours:dinner": "Su-Mo 17:30-21:00;Tu-Sa 17:30-21:30", "opening_hours:kitchen": "Mo-Sa 12:00-14:30; Su 12:00-15:00; Su-Mo 17:30-21:00; Tu-Sa 17:30-21:30", "opening_hours:shop": "Mo-Sa 11:00-23:00; Su 11:00-22:00", "opening_hours:url": "http://greatnorthernhotel.com.au/#contact", "outdoor_seating": "yes", "phone": "+61 2 9419 4555", "shop": "alcohol;bottle", "smoking": "isolated", "source": "local_knowledge", "website": "https://greatnorthernhotel.com.au/", "wheelchair": "yes"}}, {"type": "way", "id": 544431871, "nodes": [5262877125, 5262877126, 5262877127, 5262877129, 5262877130, 5262877131, 9770940919, 5262877133, 5262877134, 5262877136, 9770940920, 5262877137, 5262877138, 5262877140, 5262877141, 5262877142, 5262877143, 5262877144, 5262877145, 5262877146, 5262877147, 5262877148, 5262877149, 5262877150, 5262877151, 5262877152, 5262877125], "tags": {"addr:city": "Canterbury", "addr:housenumber": "208", "addr:postcode": "2193", "addr:street": "Canterbury Road", "amenity": "pub", "building": "yes", "name": "Canterbury Hotel"}}, {"type": "way", "id": 552008767, "nodes": [5330246959, 5330246960, 5330246961, 5330246962, 5330246963, 5330246964, 5330246965, 5330246966, 5330246967, 5330246968, 5330246969, 5330246970, 5330246971, 5330246972, 5330246973, 5330246974, 5330246975, 5330246959]}, {"type": "way", "id": 552237917, "nodes": [5332154284, 5332154285, 5332154286, 5332154287, 5332154288, 5332154289, 5332154290, 5332154291, 5332154292, 5332154293, 5332154294, 5332154295, 5332154284]}, {"type": "way", "id": 552237924, "nodes": [5332154311, 5332154312, 5332154313, 5332154314, 5332154315, 5332154316, 5332154317, 5332154318, 5332154311]}, {"type": "way", "id": 553379940, "nodes": [5341804810, 5341804811, 5341804812, 5341804813, 5341804810], "tags": {"amenity": "pub", "building": "yes", "name": "Willoughby Hotel"}}, {"type": "way", "id": 555982775, "nodes": [5363532140, 5363532141, 5363532142, 5363532143, 5363532144, 5363532145, 5363532146, 5363532140], "tags": {"amenity": "pub", "building": "yes", "name": "Oasis on Beamish Hotel"}}, {"type": "way", "id": 560421414, "nodes": [5404621063, 5404621064, 5404621065, 5404621066, 5404621067, 5404621068, 5404621069, 5404621070, 5404621071, 5404621063], "tags": {"amenity": "pub", "building": "yes", "building:levels": "3", "name": "Grand Hotel"}}, {"type": "way", "id": 561959838, "nodes": [5418028643, 5418028644, 5418028645, 5418028646, 5418028647, 5418028662, 5418028648, 5418028649, 5418028650, 5418028651, 5418028652, 5418028643], "tags": {"amenity": "pub", "building": "yes", "building:levels": "2", "name": "Albion Hotel"}}, {"type": "way", "id": 561988072, "nodes": [5418238787, 5418238788, 5418238789, 5418238790, 5418238791, 5418238787], "tags": {"amenity": "pub", "building": "yes", "building:levels": "2", "name": "Commercial Hotel"}}, {"type": "way", "id": 562111474, "nodes": [5419409010, 5419409011, 5419409018, 5419408998, 5419409012, 5419409013, 5419409014, 5419409015, 5419409025, 5419409026, 5419409016, 5419409027, 5419409028, 5419409024, 5419409023, 5419409017, 5419409022, 5419409010], "tags": {"addr:housenumber": "19", "addr:street": "George Street", "amenity": "pub", "building": "yes", "building:levels": "2", "name": "Woolpack Hotel", "opening_hours": "Mo-We 07:30-00:00; Th-Fr 07:30-04:00; Sa 10:00-04:00; Su 11:00-22:00", "outdoor_seating": "no", "phone": "+612 9635 8043", "source": "https://apps.environment.nsw.gov.au/dpcheritageapp/ViewHeritageItemDetails.aspx?ID=2240207", "website": "https://www.woolpackhotel.com.au/"}}, {"type": "way", "id": 562382990, "nodes": [5421762577, 8542107813, 5421762578, 8542107810, 5421762579, 5421762580, 5421762581, 5421762582, 5421762583, 5421762584, 5421762585, 5421762586, 5421762587, 5421762577], "tags": {"amenity": "pub", "building": "yes", "building:levels": "2", "name": "PJ's Irish Pubs"}}, {"type": "way", "id": 569153277, "nodes": [5474430222, 5474430223, 5474430224, 5474430225, 5474430226, 5474430227, 5474430228, 5474430229, 5474430230, 5474430222]}, {"type": "way", "id": 569153278, "nodes": [5474430231, 5474430232, 5474430233, 5474430237, 5474430238, 5474430234, 5474430235, 5474430236, 5474430231]}, {"type": "way", "id": 572543750, "nodes": [5500475651, 7237683185, 5500475652, 5500475653, 5500475654, 5500475655, 5500475656, 7237683197, 5500475657, 5500475651], "tags": {"addr:housenumber": "1", "addr:postcode": "2200", "addr:state": "NSW", "addr:street": "Meredith Street", "addr:suburb": "Bankstown", "air_conditioning": "yes", "amenity": "pub", "building": "service", "building:levels": "3", "club": "veterans", "contact:email": "reception@bankstownrsl.com.au", "contact:phone": "+61 2 8713 0700", "email": "BankstownSB@rslnsw.org.au", "name": "Bankstown RSL", "opening_hours": "Su-Th 09:30-01:00, Fr,Sa 09:30-03:00", "payment:credit_cards": "yes", "payment:debit_cards": "yes", "phone": "+61287130700", "source": "survey", "source:geometry": "LPI Imagery", "website": "http://www.bankstownrsl.com.au"}}, {"type": "way", "id": 589345005, "nodes": [5627741168, 6846293756, 6846293757, 6846293759, 6846293758, 6846293755, 6846293754, 5627741167, 6846293760, 6846293761, 6846293762, 6846293763, 5627741166, 6846293764, 6846293765, 5627741165, 5627741168], "tags": {"addr:housenumber": "116", "addr:postcode": "2209", "addr:state": "NSW", "addr:street": "Penshurst Road", "addr:suburb": "Narwee", "amenity": "pub", "building": "yes", "name": "Narwee Hotel", "source:exists": "survey", "source:geometry": "lpi_imagery"}}, {"type": "way", "id": 595432215, "nodes": [5674894998, 5674894999, 5674895000, 5674895001, 5674894998], "tags": {"amenity": "pub", "building": "yes", "building:levels": "2", "name": "Gilroys Hotel"}}, {"type": "way", "id": 598698814, "nodes": [5698271139, 5698271129, 5698271128, 5698271127, 5698271126, 5698271138, 5698271139], "tags": {"amenity": "pub", "building": "pub", "name": "Marrickville Bowling & Recreational Club"}}, {"type": "way", "id": 600246854, "nodes": [5708242235, 5708242234, 5708242233, 5708242232, 5708242231, 5708242230, 5708242229, 5708242228, 5708242235], "tags": {"addr:housenumber": "92", "addr:street": "Sydenham Road", "amenity": "pub", "building": "yes", "building:levels": "2", "microbrewery": "yes", "name": "Philter Brewing"}}, {"type": "way", "id": 605946699, "nodes": [3281347910, 5746041295, 5746041294, 3239199313, 5746041293, 5746041292, 5746041291, 5746041290, 5746041289, 5746041288, 5746041287, 3281347910], "tags": {"addr:housenumber": "115", "addr:postcode": "2122", "addr:street": "Rowe Street", "addr:suburb": "Eastwood", "amenity": "pub", "building": "yes", "name": "Eastwood Hotel", "name:en": "Eastwood Hotel", "source:addr": "LPI Base Map July 2018", "source:building": "LPI Imagery July 2018", "wheelchair": "yes"}}, {"type": "way", "id": 695531271, "nodes": [6530797722, 6530797723, 6530797724, 6530797725, 6530797726, 6530797727, 6530797728, 6530797729, 6530797730, 6530797731, 6530797722], "tags": {"amenity": "pub", "building": "yes", "name": "Kings Head Tavern"}}, {"type": "way", "id": 762580265, "nodes": [7125384059, 7125384060, 7125384061, 7125384062, 7125384063, 7125384064, 7125384065, 7125401878, 7125401875, 7125384071, 7125384066, 7125384059], "tags": {"addr:housenumber": "802-806", "addr:postcode": "2196", "addr:state": "NSW", "addr:street": "Punchbowl Road", "addr:suburb": "Punchbowl", "amenity": "pub", "building": "yes", "name": "Mirage Hotel"}}, {"type": "way", "id": 782943202, "nodes": [7310672085, 7311505739, 8627474940, 7311505738, 7311505737, 8627474948, 7310672085], "tags": {"amenity": "pub", "name": "Club Heathcote"}}, {"type": "way", "id": 793492040, "nodes": [7419478356, 7419478355, 249372004, 7419478354, 7419478353, 7419478352, 7419478351, 7419478350, 7419478349, 7419478348, 7419478356], "tags": {"amenity": "pub", "building": "retail", "name": "Caringbah Inn"}}, {"type": "way", "id": 924576532, "nodes": [8581043462, 8581043463, 8581043464, 8581043465, 8581043466, 8581043467, 8581043468, 8581043469, 8581043462], "tags": {"addr:housenumber": "9", "addr:postcode": "2113", "addr:state": "NSW", "addr:street": "Waterloo Road", "addr:suburb": "Macquarie Park", "amenity": "pub", "building": "yes", "name": "The Governor Hotel", "phone": "+61 2 9287 1418"}}, {"type": "way", "id": 970509388, "nodes": [8981570135, 8981570134, 8981570133, 8981570132, 8981570131, 8981570130, 8981570129, 8981570135], "tags": {"amenity": "pub", "building": "retail", "name": "The Aloott Lane Cove"}}, {"type": "way", "id": 980459488, "nodes": [9069518587, 9069518588, 9069518589, 9069518590, 9069518591, 9069518592, 9069518593, 9069518594, 9069518595, 9069518596, 9069518597, 9069518598, 9069518599, 9069518600, 9069518601, 9069518602, 9069518603, 9069518604, 9069518605, 9069518606, 9069518607, 9069518608, 9069518587], "tags": {"amenity": "pub", "building": "yes", "name": "The Prince Hotel"}}, {"type": "way", "id": 985751652, "nodes": [9112886557, 9112886558, 9112886559, 9112886560, 9112886561, 9112886562, 9112886563, 9112886564, 9112886565, 9112886566, 9112886567, 9112886568, 9112886569, 9112886557], "tags": {"addr:housenumber": "33-41", "addr:street": "Cremona Road", "amenity": "pub", "building": "hotel", "name": "Como Hotel", "start_date": "1878", "website": "https://thecomo.com.au/"}}, {"type": "way", "id": 995040611, "nodes": [9188484860, 9188484869, 8991707986, 9188484871, 9188484873, 10262178525, 10262178526, 10262178528, 9188484875, 9188484876, 9188484860], "tags": {"amenity": "pub", "building": "yes"}}, {"type": "way", "id": 1026601278, "nodes": [9465084490, 9465084491, 9465084497, 9465084492, 9465084493, 9465084494, 9465084495, 9465084496, 9465084490], "tags": {"alt_name": "The Bridgey", "amenity": "pub", "building": "yes", "name": "Bridgeview Hotel", "website": "https://www.bridgeviewhotel.com.au/"}}, {"type": "way", "id": 1043145681, "nodes": [10290585154, 9601176887, 9601176888, 9601176889, 9601176890, 9601176891, 9601176892, 9601176893, 9601176894, 10290585154], "tags": {"addr:city": "Newtown", "addr:housenumber": "202", "addr:postcode": "2042", "addr:street": "Australia Street", "amenity": "pub", "atm": "yes", "billiards:pool": "2", "building": "yes", "building:levels": "2", "contact:facebook": "https://www.facebook.com/pages/Courthouse-Hotel/11258275147", "description": "Pool table cost is $3 per game. Can exchange notes for coins at the bar but no cash out with card. ATM is in pub.", "drink:craft_beer": "yes", "food": "yes", "indoor_seating": "yes", "name": "Court House Hotel", "opening_hours": "Mo-Sa 10:00-24:00; Su 10:00-22:00", "outdoor_seating": "yes", "phone": "+61 2 9519 8273", "smoking": "outside", "sport": "billiards", "website": "https://www.thecourty.com.au/", "wheelchair": "limited"}}, {"type": "way", "id": 1076058392, "nodes": [9868164409, 9868164410, 9868164411, 9868164412, 9868174931, 9868164413, 9868164414, 9868164415, 9868164416, 9868174917, 9868174918, 9868174919, 9868174920, 9868174936, 9868174921, 9868174922, 9868174923, 9868174924, 9868174925, 9868174926, 9868174927, 9868174928, 9868164408, 9868174929, 9868174930, 9868164409], "tags": {"addr:housenumber": "8", "addr:street": "Brocklehurst Lane", "amenity": "pub", "building": "yes", "club": "veterans", "email": "info@kingsrsl.com.au", "leisure": "adult_gaming_centre", "name": "Kingsgrove RSL Club", "phone": "+61 2 9336 1500", "website": "https://kingsgroversl.com.au/"}}, {"type": "way", "id": 1076058395, "nodes": [9868174962, 9868174963, 9868174964, 9868174965, 9868174966, 9868174967, 9868174968, 9868174969, 9868174970, 9868174971, 9868174972, 9868174973, 9868174962], "tags": {"addr:housenumber": "236", "addr:street": "Kingsgrove Road", "amenity": "pub", "building": "yes", "name": "Kingsgrove Hotel", "phone": "+61 2 9502 4436", "tourism": "hotel", "website": "https://kingsgrovehotel.com.au/"}}, {"type": "way", "id": 1082518017, "nodes": [9920945152, 9920945153, 9920945156, 9920945157, 9920945158, 9920945159, 9920945170, 9920945168, 9920945169, 9920945160, 9920945161, 9920945162, 9920945163, 9920945171, 9920945164, 9920945165, 9920945166, 9920945167, 9920945152], "tags": {"amenity": "pub", "building": "yes", "club": "veterans", "leisure": "adult_gaming_centre", "name": "Penshurst RSL Club"}}, {"type": "way", "id": 1093276382, "nodes": [10012557776, 10012557787, 10012557777, 10012557778, 9900609677, 10012557784, 10012557779, 10012557783, 10012557780, 10012557781, 10012557786, 10012557785, 10012557782, 10120683133, 10012557776], "tags": {"amenity": "pub", "building": "yes", "name": "Mortdale Hotel", "tourism": "hotel"}}, {"type": "way", "id": 1099743058, "nodes": [10067672480, 10067672481, 10067672482, 10067672483, 10067672480], "tags": {"addr:housenumber": "15", "addr:street": "Olympic Boulevard", "addr:suburb": "Sydney Olympic Park", "amenity": "pub", "building": "yes", "building:levels": "2", "contact:phone": "+61 2 8077 1050", "contact:website": "https://thelockerroom.com.au/", "name": "Locker Room", "roof:levels": "1"}}, {"type": "way", "id": 1102761488, "nodes": [10091229156, 10091229157, 10091229158, 10091242282, 10091229156], "tags": {"addr:housenumber": "252-254", "addr:street": "Illawarra Road", "addr:suburb": "Marrickville", "amenity": "pub", "building": "yes", "name": "Marrickville Ritz Hotel"}}, {"type": "way", "id": 1103043051, "nodes": [10093780881, 10093780882, 10093780883, 10093780884, 10093780881], "tags": {"amenity": "pub", "building": "yes", "microbrewery": "yes", "name": "Sauce Brewing Co."}}, {"type": "way", "id": 1103043055, "nodes": [10093779949, 10093779950, 10093779951, 10093779952, 10093779953, 10093779954, 10093779949], "tags": {"amenity": "pub", "building": "yes", "microbrewery": "yes", "name": "Mixtape Brewing and Bar"}}, {"type": "way", "id": 1103682994, "nodes": [10099455695, 10099455696, 10099455697, 10099455698, 10099455695], "tags": {"amenity": "pub", "billiards:pool": "1", "billiards:pool:fee": "no", "building": "yes", "microbrewery": "yes", "name": "The Bob Hawke Beer & Leisure Centre", "sport": "billiards"}}, {"type": "way", "id": 1103683191, "nodes": [10099463704, 10099463705, 10099463706, 10099463707, 10099463708, 10099463709, 10099463704], "tags": {"amenity": "pub", "building": "yes", "microbrewery": "yes", "name": "Wildflower Brewing & Blending"}}, {"type": "way", "id": 1103683192, "nodes": [10099463710, 10099463711, 10099463712, 10099463713, 10099463714, 10099463715, 10099463710], "tags": {"amenity": "pub", "building": "yes", "microbrewery": "yes", "name": "The Grifter Brewing Co."}}, {"type": "way", "id": 1167494409, "nodes": [10857591470, 10857591471, 10857591472, 10857591473, 10857591474, 10857591475, 10857591476, 10857591477, 10857591478, 10857591479, 10857591480, 10857591481, 10857591470], "tags": {"addr:housenumber": "51", "addr:postcode": "2144", "addr:state": "NSW", "addr:street": "Rawson Street", "addr:suburb": "Auburn", "amenity": "pub", "building": "yes", "name": "Keighery Hotel"}}, {"type": "relation", "id": 7889573, "members": [{"type": "way", "ref": 223786812, "role": "outer"}, {"type": "way", "ref": 552008767, "role": "inner"}], "tags": {"addr:housenumber": "75", "addr:street": "South Steyne", "amenity": "pub", "building": "yes", "name": "Hotel Steyne", "source:addr": "LPI Base Map May 2018", "type": "multipolygon"}}, {"type": "relation", "id": 7891609, "members": [{"type": "way", "ref": 552237924, "role": "outer"}, {"type": "way", "ref": 552237917, "role": "outer"}], "tags": {"addr:housenumber": "29", "addr:street": "Moore Road", "amenity": "pub", "building": "yes", "diet:vegetarian": "yes", "food": "yes", "name": "Harbord Beach Hotel", "outdoor_seating": "yes", "phone": "+61 2 9905 3434", "type": "multipolygon", "website": "https://harbordhotel.com.au/"}}, {"type": "relation", "id": 8107067, "members": [{"type": "way", "ref": 569153278, "role": "outer"}, {"type": "way", "ref": 569153277, "role": "outer"}], "tags": {"amenity": "pub", "building": "yes", "name": "Woolwich Pier Hotel", "type": "multipolygon"}}]}