{"version": 0.6, "generator": "Overpass API 0.7.60 f4c14d41", "osm3s": {"timestamp_osm_base": "2023-05-02T21:17:24Z", "copyright": "The data included in this document is from www.openstreetmap.org. The data is made available under ODbL."}, "elements": [{"type": "node", "id": 1694224321, "lat": -33.7980764, "lon": 151.2884915, "tags": {"amenity": "ice_cream", "brand": "Ben & Jerry's", "brand:wikidata": "Q816412", "check_date": "2023-03-15", "cuisine": "ice_cream", "diet:vegan": "yes", "indoor_seating": "no", "name": "Ben & Jerry's", "outdoor_seating": "yes", "payment:credit_cards": "yes", "payment:debit_cards": "yes", "takeaway": "yes"}}, {"type": "node", "id": 2898753519, "lat": -33.8908383, "lon": 151.2743252, "tags": {"addr:housenumber": "138", "addr:street": "Campbell Parade", "amenity": "ice_cream", "brand": "Ben & Jerry's", "brand:wikidata": "Q816412", "brand:wikipedia": "en:Ben & Jerry's", "contact:phone": "+61 2 8014 8573", "contact:website": "http://www.benandjerry.com.au/", "cuisine": "ice_cream", "name": "Ben & Jerry's", "opening_hours": "Mo-Th,Su 11:00-22:30; Fr,Sa 11:00-23:00", "wheelchair": "yes"}}, {"type": "node", "id": 2985610057, "lat": -33.8682976, "lon": 151.1958023, "tags": {"addr": "Cafe Court", "addr:city": "Pyrmont", "addr:housenumber": "80", "addr:postcode": "2009", "addr:street": "Pyrmont Street", "alt_name": "Star City Messina", "amenity": "ice_cream", "brand": "Messina Gelato", "contact:email": "info@gelatomessina.com", "contact:phone": "+61 2 8354 1223", "contact:website": "http://www.gelatomessina.com", "name": "The Star Store", "source": "survey", "source:location": "extrapolation"}}, {"type": "node", "id": 4242645776, "lat": -33.8464007, "lon": 151.2129041, "tags": {"amenity": "ice_cream", "brand": "Gelatissimo", "brand:wikidata": "Q105270111", "cuisine": "ice_cream", "name": "Gelatissimo", "takeaway": "yes"}}, {"type": "node", "id": 4420553869, "lat": -33.7970513, "lon": 151.1812518}, {"type": "node", "id": 4420553870, "lat": -33.797052, "lon": 151.1813577}, {"type": "node", "id": 4420553891, "lat": -33.7970892, "lon": 151.1813728}, {"type": "node", "id": 4420553906, "lat": -33.797124, "lon": 151.1812527}, {"type": "node", "id": 4447257458, "lat": -33.7970925, "lon": 151.1812522, "tags": {"entrance": "yes", "indoor": "yes", "level": "-1"}}, {"type": "node", "id": 4739109529, "lat": -33.8608511, "lon": 151.2128288, "tags": {"amenity": "ice_cream", "brand": "Baskin-Robbins", "brand:wikidata": "Q584601", "cuisine": "ice_cream", "name": "Baskin-Robbins", "outdoor_seating": "no", "takeaway": "only"}}, {"type": "node", "id": 4874057194, "lat": -33.8910188, "lon": 151.2737692, "tags": {"amenity": "ice_cream"}}, {"type": "node", "id": 4934128854, "lat": -33.8440558, "lon": 151.2839346, "tags": {"amenity": "ice_cream", "name": "Gelatissimo"}}, {"type": "node", "id": 4939491238, "lat": -33.8771088, "lon": 151.243232, "tags": {"amenity": "ice_cream", "name": "French Riviera"}}, {"type": "node", "id": 5034361324, "lat": -33.8856232, "lon": 151.2139984, "tags": {"amenity": "ice_cream", "name": "Messina", "name:en": "Messina"}}, {"type": "node", "id": 5110350201, "lat": -33.8847744, "lon": 151.2005392, "tags": {"amenity": "ice_cream", "cuisine": "gelato", "level": "0", "name": "Anita", "website": "https://www.anita-gelato.com"}}, {"type": "node", "id": 5110562322, "lat": -33.8984977, "lon": 151.1757366, "tags": {"addr:housenumber": "1/63-71", "addr:postcode": "2042", "addr:street": "Enmore Road", "amenity": "ice_cream", "name": "Hakiki Turkish Ice Cream", "opening_hours": "Su-Th 11:30-22:30; Fr-Sa 11:30-23:30", "phone": "+61 2 8040 1676", "website": "http://www.hakiki.com.au"}}, {"type": "node", "id": 5110562324, "lat": -33.8799402, "lon": 151.2152002, "tags": {"amenity": "ice_cream", "name": "Rivareno Gelato"}}, {"type": "node", "id": 5110562521, "lat": -33.8855316, "lon": 151.213837, "tags": {"addr:housenumber": "389", "addr:postcode": "2010", "addr:street": "Crown Street", "amenity": "ice_cream", "name": "Gelato Messina - Surry Hills", "opening_hours": "Mo-Su 12:00-23:00", "phone": "+61 2 9332 1191", "website": "https://www.gelatomessina.com/"}}, {"type": "node", "id": 5110562621, "lat": -33.8617581, "lon": 151.2099103, "tags": {"addr:street": "Alfred Street", "amenity": "ice_cream", "branch": "Circular Quay", "brand": "Gelato Messina", "name": "Gelato Messina - Circular Quay", "opening_hours": "Mo-Su 11:00-23:00", "phone": "+61 2 9252 4480", "website": "https://www.gelatomessina.com/"}}, {"type": "node", "id": 5269275922, "lat": -33.8610904, "lon": 151.2098518, "tags": {"addr:full": "Promenade West, C1 Circular Quay - Garden Island, Sydney NSW 2000, Australia", "amenity": "ice_cream", "name": "Royal Copenhagen Ice Cream Cone Co", "phone": "+61 2 9251 3044", "website": "http://rcicecream.com.au/find-an-ice-cream-shop-in-australia/"}}, {"type": "node", "id": 5298546911, "lat": -33.8775591, "lon": 151.2050038, "tags": {"addr:city": "Sydney", "addr:housenumber": "20a", "addr:postcode": "2000", "addr:province": "NSW", "addr:street": "Goulburn Street", "amenity": "ice_cream", "email": "honeycremesydney@gmail.com", "name": "Honey Creme"}}, {"type": "node", "id": 5300176624, "lat": -33.9182505, "lon": 151.2030382, "tags": {"amenity": "ice_cream", "name": "Gelato Messina", "name:ro": "\u00cenghe\u021bat\u0103 Messina"}}, {"type": "node", "id": 5323079623, "lat": -33.7958673, "lon": 151.1855835, "tags": {"amenity": "ice_cream", "indoor_seating": "no", "name": "Gondola", "opening_hours:signed": "no", "outdoor_seating": "yes"}}, {"type": "node", "id": 5348455833, "lat": -33.8729093, "lon": 151.1917187}, {"type": "node", "id": 5348455834, "lat": -33.8729421, "lon": 151.1917375}, {"type": "node", "id": 5348455835, "lat": -33.8729238, "lon": 151.1917865}, {"type": "node", "id": 5348455836, "lat": -33.8728892, "lon": 151.1917663}, {"type": "node", "id": 5560687067, "lat": -33.8459864, "lon": 151.2397691, "tags": {"amenity": "ice_cream", "name": "Tronga Zoo Ice-Cream Shop"}}, {"type": "node", "id": 5572989224, "lat": -33.7745278, "lon": 151.1679792, "tags": {"addr:city": "Sydney", "addr:housenumber": "362", "addr:postcode": "2070", "addr:province": "NSW", "addr:street": "Pacific Highway", "amenity": "ice_cream", "name": "Gelatiamo", "opening_hours": "Mo-Su 07:00-18:00"}}, {"type": "node", "id": 5630180167, "lat": -33.9205411, "lon": 151.2426372, "tags": {"amenity": "ice_cream", "name": "Cold Rock"}}, {"type": "node", "id": 5725357022, "lat": -33.865392, "lon": 151.2015525, "tags": {"amenity": "ice_cream", "name": "RivaReno Gelato"}}, {"type": "node", "id": 5729354122, "lat": -33.7959874, "lon": 151.1833809, "tags": {"air_conditioning": "yes", "amenity": "ice_cream", "cuisine": "ice_cream;crepe;cake", "indoor_seating": "yes", "level": "0", "name": "Lily", "opening_hours": "Mo-Th 12:00-22:00; Fr 12:00-23:00; Sa 11:00-23:00; Su 11:00-22:00", "outdoor_seating": "no", "wheelchair": "yes"}}, {"type": "node", "id": 5729370821, "lat": -33.7963163, "lon": 151.1831572, "tags": {"amenity": "ice_cream", "check_date:opening_hours": "2023-01-23", "indoor_seating": "no", "name": "Gelatissimo", "opening_hours:signed": "no", "outdoor_seating": "yes", "wheelchair": "yes"}}, {"type": "node", "id": 5738839961, "lat": -33.8947669, "lon": 151.1994275, "tags": {"amenity": "ice_cream", "name": "Ciccone & Sons Gelateria"}}, {"type": "node", "id": 5781727654, "lat": -33.8760924, "lon": 151.2049998, "tags": {"amenity": "ice_cream", "name": "D21"}}, {"type": "node", "id": 6223013851, "lat": -33.8893499, "lon": 151.2757509, "tags": {"amenity": "ice_cream", "name": "Anita"}}, {"type": "node", "id": 6371544423, "lat": -33.8259511, "lon": 151.2010448, "tags": {"amenity": "ice_cream", "name": "C9"}}, {"type": "node", "id": 6371771150, "lat": -33.9188295, "lon": 151.2576831, "tags": {"amenity": "ice_cream", "name": "Andersen's of Denmark", "wheelchair": "yes"}}, {"type": "node", "id": 6371771151, "lat": -33.9206635, "lon": 151.2566841, "tags": {"amenity": "ice_cream", "name": "Andersen's of Denmark", "outdoor_seating": "yes", "wheelchair": "yes"}}, {"type": "node", "id": 6372204509, "lat": -33.9206578, "lon": 151.2562052, "tags": {"amenity": "ice_cream", "brand": "Gelatissimo", "brand:wikidata": "Q105270111", "check_date": "2023-03-01", "cuisine": "ice_cream", "name": "Gelatissimo", "payment:credit_cards": "yes", "payment:debit_cards": "yes", "takeaway": "yes", "wheelchair": "yes"}}, {"type": "node", "id": 6515090093, "lat": -33.797382, "lon": 151.287951, "tags": {"amenity": "ice_cream", "name": "Royal Copenhagen"}}, {"type": "node", "id": 6901321187, "lat": -33.8787092, "lon": 151.2025184, "tags": {"amenity": "ice_cream", "name": "Messina", "opening_hours": "Mo-Th 12:00-22:30; Fr,Sa 12:00-23:00; Su 12:00-22:30"}}, {"type": "node", "id": 7024705258, "lat": -33.8444682, "lon": 151.2410922, "tags": {"amenity": "ice_cream", "name": "Connoiseur"}}, {"type": "node", "id": 7178373585, "lat": -33.8245628, "lon": 151.241116, "tags": {"amenity": "ice_cream"}}, {"type": "node", "id": 7444349476, "lat": -33.8123068, "lon": 151.0035154, "tags": {"addr:housenumber": "283", "addr:street": "Church Street", "addr:suburb": "Parramatta", "amenity": "ice_cream", "name": "Gelato Messina Parramatta", "opening_hours": "Mo-Th 13:00-21:00; Fr-Sa 13:00-22:00; Su 13:00-21:00", "takeaway": "yes"}}, {"type": "node", "id": 7726482858, "lat": -33.8764662, "lon": 151.1778684, "tags": {"amenity": "ice_cream", "level": "1", "name": "Messina", "outdoor_seating": "yes", "website": "https://gelatomessina.com/"}}, {"type": "node", "id": 9048069665, "lat": -33.9213198, "lon": 151.2379319, "tags": {"amenity": "ice_cream", "cuisine": "ice_cream", "name": "Gelato Messina", "takeaway": "yes"}}, {"type": "node", "id": 9776428736, "lat": -33.9079012, "lon": 151.1719842, "tags": {"amenity": "ice_cream", "name": "C9 Chocolate & Gelato"}}, {"type": "node", "id": 9892668317, "lat": -33.8747586, "lon": 151.2055115, "tags": {"amenity": "ice_cream", "check_date": "2022-07-17"}}, {"type": "node", "id": 10093790648, "lat": -33.9119268, "lon": 151.1601039}, {"type": "node", "id": 10093790649, "lat": -33.9119914, "lon": 151.160238}, {"type": "node", "id": 10093790650, "lat": -33.9118389, "lon": 151.1601662}, {"type": "node", "id": 10093790651, "lat": -33.9119113, "lon": 151.1603031}, {"type": "node", "id": 10099500729, "lat": -33.9096705, "lon": 151.1553436}, {"type": "node", "id": 10099500730, "lat": -33.9096973, "lon": 151.1553813}, {"type": "node", "id": 10099500731, "lat": -33.9098808, "lon": 151.1552149}, {"type": "node", "id": 10099505819, "lat": -33.9097395, "lon": 151.1552766}, {"type": "node", "id": 10099505820, "lat": -33.909861, "lon": 151.1551757}, {"type": "node", "id": 10591381391, "lat": -34.0843849, "lon": 151.1516525, "tags": {"amenity": "ice_cream", "name": "The Gelato Factory"}}, {"type": "node", "id": 10609118290, "lat": -33.8147208, "lon": 151.1687951, "tags": {"amenity": "ice_cream", "brand": "Gelatissimo", "brand:wikidata": "Q105270111", "cuisine": "ice_cream", "name": "Gelatissimo", "takeaway": "yes", "wheelchair": "yes"}}, {"type": "node", "id": 10677047344, "lat": -33.8881141, "lon": 151.2383508, "tags": {"amenity": "ice_cream", "name": "Bodalla"}}, {"type": "node", "id": 10727505655, "lat": -33.7770903, "lon": 151.1205304, "tags": {"amenity": "ice_cream", "indoor_seating": "yes", "outdoor_seating": "no"}}, {"type": "node", "id": 10728657903, "lat": -33.7767247, "lon": 151.1198265, "tags": {"amenity": "ice_cream", "level:ref": "4", "name": "Yo-Chi"}}, {"type": "node", "id": 10779355261, "lat": -33.834708, "lon": 151.0850037, "tags": {"amenity": "ice_cream", "brand": "Yogurberry", "indoor_seating": "yes", "name": "Yogurberry", "outdoor_seating": "no"}}, {"type": "node", "id": 10800563292, "lat": -33.776521, "lon": 151.1209895, "tags": {"amenity": "ice_cream"}}, {"type": "node", "id": 10815658899, "lat": -33.8717879, "lon": 151.2249513, "tags": {"amenity": "ice_cream", "name": "Rivareno Gelato"}}, {"type": "node", "id": 10830953553, "lat": -33.8614042, "lon": 151.2127156, "tags": {"amenity": "ice_cream", "name": "Opera Gelato"}}, {"type": "node", "id": 10830965870, "lat": -33.8153675, "lon": 151.0034106, "tags": {"amenity": "ice_cream", "name": "Ben & Jerry\u2019s"}}, {"type": "way", "id": 444590134, "nodes": [4420553869, 4420553870, 4420553891, 4420553906, 4447257458, 4420553869], "tags": {"amenity": "ice_cream", "drink:almond_milk": "yes", "drink:lactose_free_milk": "yes", "drink:soy_milk": "yes", "drive_through": "no", "indoor": "room", "indoor_seating": "yes", "level": "-1", "name": "Mrs. Fields | New Zealand Natural", "opening_hours:signed": "no", "outdoor_seating": "no", "room": "shop", "shop": "bakery", "wheelchair": "yes"}}, {"type": "way", "id": 554184624, "nodes": [5348455833, 5348455834, 5348455835, 5348455836, 5348455833], "tags": {"amenity": "ice_cream", "building": "yes", "building:levels": "1"}}, {"type": "way", "id": 1103042843, "nodes": [10093790648, 10093790650, 10093790651, 10093790649, 10093790648], "tags": {"amenity": "ice_cream", "building": "yes"}}, {"type": "way", "id": 1103684127, "nodes": [10099505820, 10099505819, 10099500729, 10099500730, 10099500731, 10099505820], "tags": {"amenity": "ice_cream", "building": "yes", "name": "Gelato Franco"}}]}