{"version": 0.6, "generator": "Overpass API 0.7.60 f4c14d41", "osm3s": {"timestamp_osm_base": "2023-05-02T21:16:21Z", "copyright": "The data included in this document is from www.openstreetmap.org. The data is made available under ODbL."}, "elements": [{"type": "node", "id": 5113480888, "lat": 41.0199246, "lon": 28.9478709, "tags": {"addr:city": "Istanbul", "addr:district": "Fatih", "addr:street": "Islambol caddesi", "amenity": "ice_cream", "name": "Omaya ice cream", "name:ar": "\u0628\u0648\u0638\u0629 \u0623\u0645\u064a\u0629"}}, {"type": "node", "id": 5243953371, "lat": 41.0259521, "lon": 28.9484597, "tags": {"addr:city": "Istanbul", "addr:district": "Turkey", "addr:street": "Dar\u00fc\u015f\u015fafaka Caddesi", "amenity": "ice_cream", "name": "Selamet", "name:ar": "\u0633\u0644\u0627\u0645\u0629"}}, {"type": "node", "id": 6961593134, "lat": 41.0173559, "lon": 28.5886644, "tags": {"amenity": "ice_cream", "name": "Dondurma"}}, {"type": "node", "id": 6961593154, "lat": 41.0170042, "lon": 28.5883483, "tags": {"amenity": "ice_cream", "name": "Bilka Dondurma"}}, {"type": "node", "id": 6961593181, "lat": 41.0176397, "lon": 28.5881734, "tags": {"amenity": "ice_cream", "name": "\u0130smail \u015eafak Dondurma"}}, {"type": "node", "id": 6968404489, "lat": 41.0469759, "lon": 28.9329653, "tags": {"amenity": "ice_cream", "name": "\u015eehr-i Mara\u015f Dondurma"}}, {"type": "node", "id": 7695460480, "lat": 41.0109603, "lon": 28.6516396, "tags": {"amenity": "ice_cream", "name": "Karkayalar Dondurma"}}, {"type": "node", "id": 8027760323, "lat": 40.9592592, "lon": 28.8228506, "tags": {"amenity": "ice_cream", "name": "Ye\u015filk\u00f6y Roma Dondurmas\u0131"}}, {"type": "node", "id": 9446581883, "lat": 41.0475517, "lon": 28.9328499, "tags": {"amenity": "ice_cream", "name": "Be\u015fkarde\u015f Dondurma"}}, {"type": "node", "id": 9446615836, "lat": 41.0477439, "lon": 28.9326934, "tags": {"amenity": "ice_cream", "name": "Kahramanmara\u015f Markado Dondurma"}}]}