{"version": 0.6, "generator": "Overpass API 0.7.60 f4c14d41", "osm3s": {"timestamp_osm_base": "2023-05-02T21:19:24Z", "copyright": "The data included in this document is from www.openstreetmap.org. The data is made available under ODbL."}, "elements": [{"type": "node", "id": 691424021, "lat": -33.6610659, "lon": 151.0058259, "tags": {"name": "Kenthurst Cellars", "shop": "alcohol", "source": "survey"}}, {"type": "node", "id": 1861715756, "lat": -33.6229473, "lon": 151.1523676}, {"type": "node", "id": 1861715774, "lat": -33.6230575, "lon": 151.1522019}, {"type": "node", "id": 1861715776, "lat": -33.6230674, "lon": 151.1524863}, {"type": "node", "id": 1909512355, "lat": -33.7489006, "lon": 151.1119907, "tags": {"shop": "alcohol"}}, {"type": "node", "id": 1912796226, "lat": -33.733146, "lon": 151.2198799, "tags": {"shop": "alcohol"}}, {"type": "node", "id": 1926778476, "lat": -33.7202794, "lon": 151.068542, "tags": {"brand": "Cellarbrations", "brand:wikidata": "Q109807592", "name": "Cellarbrations", "shop": "alcohol"}}, {"type": "node", "id": 2075767203, "lat": -33.7607304, "lon": 151.1285732, "tags": {"shop": "alcohol", "wheelchair": "yes"}}, {"type": "node", "id": 2079584134, "lat": -33.6952298, "lon": 151.2797343, "tags": {"addr:housenumber": "174", "addr:postcode": "2101", "addr:street": "Powderworks Road", "addr:suburb": "Elanora Heights", "branch": "Elanora Heights", "brand": "Dan Murphy's", "brand:wikidata": "Q5214075", "brand:wikipedia": "en:Dan Murphy's", "check_date:opening_hours": "2022-01-28", "drive_through": "no", "name": "Dan Murphy's", "opening_hours": "Mo-Tu 09:00-20:00; We 09:00-19:00; Th 09:00-21:00; Fr-Sa 09:00-21:00; Su 10:00-20:00; PH off", "operator": "Dan Murphy\u2019s Elanora Heights", "payment:cash": "yes", "payment:credit_cards": "yes", "payment:debit_cards": "yes", "phone:AU": "1300 72 33 88", "shop": "alcohol", "website": "https://www.danmurphys.com.au/Stores/Storelocator/NSW-Elanora-Heights-2101"}}, {"type": "node", "id": 2347245108, "lat": -33.6707015, "lon": 151.114859, "tags": {"addr:housenumber": "601A", "addr:postcode": "2079", "addr:street": "Pacific Highway", "designation": "Alcohol shop", "name": "Liquorland Mount Colah", "shop": "alcohol"}}, {"type": "node", "id": 2636571910, "lat": -33.6924934, "lon": 151.2202445}, {"type": "node", "id": 2636571911, "lat": -33.6928344, "lon": 151.219911}, {"type": "node", "id": 2636571912, "lat": -33.6930799, "lon": 151.2202735}, {"type": "node", "id": 2636571913, "lat": -33.6927389, "lon": 151.220607}, {"type": "node", "id": 3271960299, "lat": -33.7591196, "lon": 151.0938431, "tags": {"name": "North Epping Cellars", "shop": "alcohol", "source": "knowledge"}}, {"type": "node", "id": 4373866325, "lat": -33.6231767, "lon": 151.1523201}, {"type": "node", "id": 4385213881, "lat": -33.7064145, "lon": 151.1098335}, {"type": "node", "id": 4385213882, "lat": -33.7064302, "lon": 151.1099441}, {"type": "node", "id": 4385213883, "lat": -33.7064579, "lon": 151.1099384}, {"type": "node", "id": 4385213885, "lat": -33.7064931, "lon": 151.1097837}, {"type": "node", "id": 4385213887, "lat": -33.7064978, "lon": 151.1098164}, {"type": "node", "id": 4385215604, "lat": -33.7068081, "lon": 151.1097191}, {"type": "node", "id": 4385215605, "lat": -33.7068284, "lon": 151.1098624}, {"type": "node", "id": 4571153171, "lat": -33.7449871, "lon": 151.0309296, "tags": {"name": "BWS", "shop": "alcohol", "website": "https://bws.com.au/"}}, {"type": "node", "id": 5003536379, "lat": -33.746362, "lon": 151.0513716, "tags": {"name": "Liquorland", "shop": "alcohol"}}, {"type": "node", "id": 5003536380, "lat": -33.7383101, "lon": 151.073458, "tags": {"drive_through": "yes", "shop": "alcohol"}}, {"type": "node", "id": 5274633350, "lat": -33.721817, "lon": 151.0256181, "tags": {"name": "BWS Oakhill", "shop": "alcohol", "source": "Survey"}}, {"type": "node", "id": 6261616620, "lat": -33.7075396, "lon": 151.2960784}, {"type": "node", "id": 6261616621, "lat": -33.7075835, "lon": 151.2957861}, {"type": "node", "id": 6261616622, "lat": -33.7075025, "lon": 151.2957953}, {"type": "node", "id": 6261616623, "lat": -33.707525, "lon": 151.2960801}, {"type": "node", "id": 6261616624, "lat": -33.7076052, "lon": 151.2960534}, {"type": "node", "id": 6328598978, "lat": -33.7120468, "lon": 151.2980703, "tags": {"brand": "BWS", "brand:wikidata": "Q4836848", "brand:wikipedia": "en:BWS (liquor retailer)", "name": "BWS", "shop": "alcohol"}}, {"type": "node", "id": 6356026037, "lat": -33.7687101, "lon": 151.0278774, "tags": {"brand": "Liquorland", "brand:wikidata": "Q2283837", "brand:wikipedia": "en:Liquorland", "name": "Liquorland", "shop": "alcohol"}}, {"type": "node", "id": 6398469637, "lat": -33.7084691, "lon": 151.2960225, "tags": {"addr:housenumber": "1477", "addr:street": "Pittwater Road", "drive_through": "no", "name": "Porters Liquor North Narrabeen", "opening_hours": "Mo-We,Su 10:00-20:00; Th-Sa 10:00-21:00", "phone": "+61 2 9913 3000", "shop": "alcohol", "website": "https://www.portersliquor.com.au/narabeen-north.html"}}, {"type": "node", "id": 6515057489, "lat": -33.6779612, "lon": 151.3034949, "tags": {"name": "Fleet Street Merchants", "shop": "alcohol"}}, {"type": "node", "id": 6779981938, "lat": -33.7183474, "lon": 151.2980914, "tags": {"addr:housenumber": "1260", "addr:street": "Pittwater Road", "brand": "BWS", "name": "BWS Narrabeen Sands Drive", "opening_hours": "Mo-Th 10:00-21:00; Fr, Sa 10:00-22:00; Su 10:00-19:00", "shop": "alcohol", "website": "https://bws.com.au/storelocator/nsw-narrabeen-1726"}}, {"type": "node", "id": 6814686527, "lat": -33.7313901, "lon": 151.3006866, "tags": {"brand": "Liquorland", "brand:wikidata": "Q2283837", "brand:wikipedia": "en:Liquorland", "name": "Liquorland", "shop": "alcohol"}}, {"type": "node", "id": 6952981796, "lat": -33.7551464, "lon": 151.2750576, "tags": {"name": "Chambers Cellars", "shop": "alcohol"}}, {"type": "node", "id": 7041655762, "lat": -33.7528404, "lon": 151.287903, "tags": {"brand": "BWS", "brand:wikidata": "Q4836848", "brand:wikipedia": "en:BWS (liquor retailer)", "name": "BWS", "shop": "alcohol"}}, {"type": "node", "id": 7097405435, "lat": -33.7602366, "lon": 151.2087261, "tags": {"name": "First choice", "shop": "alcohol"}}, {"type": "node", "id": 7099584990, "lat": -33.734591, "lon": 151.0030254, "tags": {"brand": "Dan Murphy's", "brand:wikidata": "Q5214075", "brand:wikipedia": "en:Dan Murphy's", "name": "Dan Murphy's", "shop": "alcohol"}}, {"type": "node", "id": 7168230085, "lat": -33.7393562, "lon": 151.2096433, "tags": {"brand": "BWS", "brand:wikidata": "Q4836848", "brand:wikipedia": "en:BWS (liquor retailer)", "name": "BWS", "shop": "alcohol"}}, {"type": "node", "id": 7196618285, "lat": -33.7659634, "lon": 151.2649718, "tags": {"brand": "BWS", "brand:wikidata": "Q4836848", "brand:wikipedia": "en:BWS (liquor retailer)", "name": "BWS", "shop": "alcohol"}}, {"type": "node", "id": 7244449102, "lat": -33.5989703, "lon": 151.3192973, "tags": {"name": "Barrenjoey winery", "shop": "alcohol"}}, {"type": "node", "id": 7276083120, "lat": -33.7308352, "lon": 151.2921232, "tags": {"addr:street": "Telopea Street", "description": "fine wine and Spirits", "name": "Fleet Street Spirits & Beer", "opening_hours": "Mo-Th, Su 10:00-20:00; Fr, Sa 10:00-08:30", "shop": "alcohol"}}, {"type": "node", "id": 7400577196, "lat": -33.6877386, "lon": 151.1080989, "tags": {"branch": "Asquith", "brand": "The Bottle-O", "name": "The Bottle-O", "shop": "alcohol"}}, {"type": "node", "id": 8377201656, "lat": -33.7656407, "lon": 151.250654, "tags": {"name": "Liquor Land", "shop": "alcohol"}}, {"type": "node", "id": 8464909411, "lat": -33.6601176, "lon": 151.3088448}, {"type": "node", "id": 8465056374, "lat": -33.6601919, "lon": 151.309052}, {"type": "node", "id": 8465056375, "lat": -33.6601148, "lon": 151.3090124}, {"type": "node", "id": 8465056376, "lat": -33.6601145, "lon": 151.3090512}, {"type": "node", "id": 8465056377, "lat": -33.6601933, "lon": 151.3088456}, {"type": "node", "id": 8465056378, "lat": -33.6600693, "lon": 151.309012}, {"type": "node", "id": 8465056379, "lat": -33.6600704, "lon": 151.3088443}, {"type": "node", "id": 8465056387, "lat": -33.6601229, "lon": 151.3090522}, {"type": "node", "id": 9022292919, "lat": -33.7278192, "lon": 151.1414846}, {"type": "node", "id": 9022292920, "lat": -33.727685, "lon": 151.1415123}, {"type": "node", "id": 9022292921, "lat": -33.7276933, "lon": 151.1415706}, {"type": "node", "id": 9022292922, "lat": -33.7278284, "lon": 151.1415454}, {"type": "node", "id": 9461863017, "lat": -33.7533891, "lon": 151.1760835, "tags": {"addr:housenumber": "50", "addr:street": "Koola Avenue", "addr:unit": "7", "name": "L Maestro", "phone": "+612 9498 6820", "shop": "alcohol", "survey:date": "2022-01-31", "website": "https://www.vinomaestro.com.au/"}}, {"type": "node", "id": 9522714639, "lat": -33.6553103, "lon": 151.3197854, "tags": {"brand": "BWS", "brand:wikidata": "Q4836848", "name": "BWS", "shop": "alcohol", "website": "https://store.bws.com.au/storelocator/nsw-newport-1475"}}, {"type": "node", "id": 9865006633, "lat": -33.7623649, "lon": 151.2157578, "tags": {"name": "Vintage Cellars", "opening_hours": "Mo-We, Sa 09:00-20:00; Th, Fr 09:00-21:00; Su 10:00-19:00", "shop": "alcohol"}}, {"type": "node", "id": 9951816160, "lat": -33.7627689, "lon": 151.2890661, "tags": {"name": "North Curl Curl Cellars", "phone": "+61 2 9939 3222", "shop": "alcohol"}}, {"type": "node", "id": 10067882900, "lat": -33.7317033, "lon": 151.0815315, "tags": {"brand": "Dan Murphy's", "brand:wikidata": "Q5214075", "level": "0", "name": "Dan Murphy's", "opening_hours": "Mo-We 09:00-20:00; Th-Sa 09:00-21:00; Su 10:00-19:00", "phone:AU": "1300 723 388", "shop": "alcohol"}}, {"type": "node", "id": 10068072283, "lat": -33.7512554, "lon": 151.2403839, "tags": {"addr:street": "Frenchs Forest Road", "name": "Dan Murphys", "shop": "alcohol"}}, {"type": "node", "id": 10187551393, "lat": -33.696521, "lon": 151.2950246, "tags": {"name": "Liquorland", "shop": "alcohol"}}, {"type": "way", "id": 175607346, "nodes": [1861715756, 1861715774, 4373866325, 1861715776, 1861715756], "tags": {"alt_name": "Beer Wine Spirits", "brand": "BWS", "brand:wikidata": "Q4836848", "brand:wikipedia": "en:BWS (liquor retailer)", "building": "retail", "name": "BWS", "shop": "alcohol"}}, {"type": "way", "id": 258269903, "nodes": [2636571912, 2636571913, 2636571910, 2636571911, 2636571912], "tags": {"name": "Terrey Hills Tavern", "shop": "alcohol"}}, {"type": "way", "id": 440747021, "nodes": [4385215605, 4385215604, 4385213885, 4385213887, 4385213881, 4385213882, 4385213883, 4385215605], "tags": {"addr:housenumber": "65-69", "addr:street": "Edgeworth David Avenue", "building": "yes", "name": "Jims Cellars Waitara", "shop": "alcohol"}}, {"type": "way", "id": 668646777, "nodes": [6261616624, 6261616621, 6261616622, 6261616623, 6261616620, 6261616624], "tags": {"addr:city": "Narrabeen", "addr:country": "AU", "addr:housenumber": "2", "addr:postcode": "2101", "addr:state": "NSW", "addr:street": "Gondola Road", "branch": "Narrabeen", "brand": "Liquorland", "brand:wikidata": "Q2283837", "brand:wikipedia": "en:Liquorland", "building": "commercial", "building:levels": "1", "name": "Liquorland", "opening_hours": "Mo-We 09:00-21:00, Th-Sa 09:00-22:00; Su 10:00-21:00", "operator": "Liquorland", "phone": "+61 2 9913 8195", "shop": "alcohol", "website": "https://www.liquorland.com.au/Stores/New%20South%20Wales/Narrabeen"}}, {"type": "way", "id": 911684008, "nodes": [8465056376, 8465056387, 8465056374, 8465056377, 8464909411, 8465056379, 8465056378, 8465056375, 8465056376], "tags": {"addr:city": "Newport", "addr:housenumber": "2", "addr:street": "Kalinya Street", "building": "commercial", "building:levels": "1", "drive_through": "yes", "name": "The Bottle Shop", "opening_hours": "Mo-Th 10:00-22:00; Fr-Sa 10:00-23:00;Su 10:00-22:00", "phone": "+61 2 8051 6750", "shop": "alcohol", "website": "https://merivaleathome.com/pages/the-bottle-shop/"}}, {"type": "way", "id": 974935036, "nodes": [9022292920, 9022292921, 9022292922, 9022292919, 9022292920], "tags": {"addr:housenumber": "8", "addr:postcode": "2074", "addr:state": "NSW", "addr:street": "Princes Street", "addr:suburb": "Turramurra", "brand": "Cellarbrations", "brand:wikidata": "Q109807592", "building": "yes", "name": "Cellarbrations", "shop": "alcohol"}}]}