{"version": 0.6, "generator": "Overpass API 0.7.60.2 e4cf9f7a", "osm3s": {"timestamp_osm_base": "2023-05-02T19:59:26Z", "copyright": "The data included in this document is from www.openstreetmap.org. The data is made available under ODbL."}, "elements": [{"type": "node", "id": 2065181954, "lat": 40.744241, "lon": -73.924704, "tags": {"amenity": "nightclub", "name": "La Kueva"}}, {"type": "node", "id": 2192600106, "lat": 40.7110687, "lon": -73.9651675, "tags": {"addr:city": "Brooklyn", "addr:country": "US", "addr:housenumber": "81", "addr:state": "NY", "addr:street": "South 6th Street", "amenity": "nightclub", "cocktails": "yes", "drink:beer": "yes", "drink:liquor": "yes", "drink:wine": "yes", "leisure": "dance", "name": "Bembe", "opening_hours": "Mo-Su 20:30-04:00", "phone": "+1-718-387-5389", "toilets": "yes", "website": "https://www.bembe.us/"}}, {"type": "node", "id": 2234739141, "lat": 40.7398013, "lon": -74.0070318, "tags": {"addr:city": "New York", "addr:country": "US", "addr:housenumber": "18", "addr:postcode": "10014", "addr:state": "NY", "addr:street": "Little West 12th Street", "amenity": "nightclub", "name": "Cielo", "website": "www.cieloclub.com"}}, {"type": "node", "id": 2244704716, "lat": 40.7306713, "lon": -74.0008181, "tags": {"addr:city": "New York", "addr:country": "US", "addr:housenumber": "130", "addr:postcode": "10012", "addr:state": "NY", "addr:street": "West 3rd Street", "amenity": "nightclub", "name": "The Village Underground", "source": "+1 212-777-7745", "website": "http://thevillageunderground.com/"}}, {"type": "node", "id": 2244734412, "lat": 40.7307122, "lon": -74.00091, "tags": {"addr:city": "New York", "addr:country": "US", "addr:housenumber": "130", "addr:state": "NY", "addr:street": "West 3rd Street", "amenity": "nightclub", "name": "The Fat Black Pussycat", "source": "+1 212-533-4790", "toilets:wheelchair": "no", "website": "http://thefatblackpussycat.com/", "wheelchair": "yes"}}, {"type": "node", "id": 2547155528, "lat": 40.7315896, "lon": -73.9890331}, {"type": "node", "id": 2547155535, "lat": 40.731708, "lon": -73.989317}, {"type": "node", "id": 2547155541, "lat": 40.7317754, "lon": -73.9889004}, {"type": "node", "id": 2547155543, "lat": 40.7318054, "lon": -73.9892474}, {"type": "node", "id": 2547155551, "lat": 40.7318262, "lon": -73.9888639}, {"type": "node", "id": 2547155561, "lat": 40.7319477, "lon": -73.9891462}, {"type": "node", "id": 2547684149, "lat": 40.7203201, "lon": -73.9933193}, {"type": "node", "id": 2547684160, "lat": 40.7203556, "lon": -73.993301}, {"type": "node", "id": 2547684161, "lat": 40.7203599, "lon": -73.9934533}, {"type": "node", "id": 2547684196, "lat": 40.7204203, "lon": -73.9934223}, {"type": "node", "id": 2547684200, "lat": 40.7204262, "lon": -73.9932648}, {"type": "node", "id": 2547684229, "lat": 40.7204815, "lon": -73.9932363}, {"type": "node", "id": 2547684231, "lat": 40.7204871, "lon": -73.993388}, {"type": "node", "id": 2547684240, "lat": 40.7205291, "lon": -73.9932718}, {"type": "node", "id": 2547684242, "lat": 40.7205535, "lon": -73.9933538}, {"type": "node", "id": 2550101364, "lat": 40.6696006, "lon": -73.9957143}, {"type": "node", "id": 2550101455, "lat": 40.6694579, "lon": -73.9954184}, {"type": "node", "id": 2550101472, "lat": 40.6695749, "lon": -73.9953212}, {"type": "node", "id": 2550101486, "lat": 40.6697175, "lon": -73.9956171}, {"type": "node", "id": 2553635461, "lat": 40.7600183, "lon": -73.8798035, "tags": {"addr:housenumber": "88-19", "addr:postcode": "11369", "addr:street": "31st Avenue", "amenity": "nightclub", "name": "Sif"}}, {"type": "node", "id": 2703043898, "lat": 40.7401967, "lon": -73.9924557, "tags": {"addr:city": "New York", "addr:housenumber": "20", "addr:postcode": "10011", "addr:state": "NY", "addr:street": "West 20th Street", "amenity": "nightclub", "name": "Wonderland Gentlemen's Club"}}, {"type": "node", "id": 2710091424, "lat": 40.7628314, "lon": -73.9713013, "tags": {"addr:housenumber": "9", "addr:postcode": "10022", "addr:street": "East 58th Street", "amenity": "nightclub", "name": "Lavo"}}, {"type": "node", "id": 2710280832, "lat": 40.7634313, "lon": -73.9975533}, {"type": "node", "id": 2710280838, "lat": 40.7634804, "lon": -73.997518}, {"type": "node", "id": 2710280845, "lat": 40.7635231, "lon": -73.9974873}, {"type": "node", "id": 2710280846, "lat": 40.7635309, "lon": -73.9977928}, {"type": "node", "id": 2710280856, "lat": 40.7636706, "lon": -73.9973812}, {"type": "node", "id": 2710280860, "lat": 40.7637702, "lon": -73.9976207}, {"type": "node", "id": 2716231111, "lat": 40.756837, "lon": -73.98844, "tags": {"addr:housenumber": "237", "addr:postcode": "10036", "addr:street": "West 42nd Street", "amenity": "nightclub", "name": "B.B. King Blues Club & Grill", "opening_hours": "Mo-Th 11:00-01:00; Fr-Sa 11:00-04:00; Su 11:00-01:00", "phone": "+1 212-997-4144", "website": "https://www.bbkingblues.com/", "wikidata": "Q62994557"}}, {"type": "node", "id": 2744832410, "lat": 40.7695199, "lon": -73.9928089}, {"type": "node", "id": 2744832416, "lat": 40.7695768, "lon": -73.9929434}, {"type": "node", "id": 2744832418, "lat": 40.769595, "lon": -73.9929557}, {"type": "node", "id": 2744832429, "lat": 40.7696603, "lon": -73.9929079}, {"type": "node", "id": 2744832475, "lat": 40.7698335, "lon": -73.9925794}, {"type": "node", "id": 2744832485, "lat": 40.7698987, "lon": -73.9927335}, {"type": "node", "id": 2797811242, "lat": 40.8609814, "lon": -73.9201885, "tags": {"addr:housenumber": "417", "addr:postcode": "10034", "addr:state": "NY", "addr:street": "West 202nd Street", "amenity": "nightclub", "name": "Opus"}}, {"type": "node", "id": 2827554215, "lat": 40.6792009, "lon": -74.0109457, "tags": {"amenity": "nightclub", "name": "The Funktion House", "phone": "+1-718-233-6323", "website": "https://www.thefunktionhouse.com"}}, {"type": "node", "id": 2838236229, "lat": 40.7098225, "lon": -73.9634007}, {"type": "node", "id": 2838236230, "lat": 40.7098338, "lon": -73.9634986}, {"type": "node", "id": 2838236233, "lat": 40.7098466, "lon": -73.963496}, {"type": "node", "id": 2838236248, "lat": 40.7100859, "lon": -73.9633482}, {"type": "node", "id": 2838236250, "lat": 40.7100972, "lon": -73.9634461}, {"type": "node", "id": 2838541174, "lat": 40.7105116, "lon": -73.9541345, "tags": {"addr:housenumber": "168", "addr:postcode": "11221", "addr:street": "Borinquen Place", "amenity": "nightclub", "name": "The black flamingo"}}, {"type": "node", "id": 2839718699, "lat": 40.7190069, "lon": -73.9618235}, {"type": "node", "id": 2839718700, "lat": 40.7190116, "lon": -73.9618183}, {"type": "node", "id": 2839718713, "lat": 40.7190949, "lon": -73.9619637}, {"type": "node", "id": 2839718721, "lat": 40.7192097, "lon": -73.9616035}, {"type": "node", "id": 2839718726, "lat": 40.7192977, "lon": -73.9617436}, {"type": "node", "id": 2839722977, "lat": 40.7092995, "lon": -73.9232414}, {"type": "node", "id": 2839722987, "lat": 40.7093374, "lon": -73.9230244}, {"type": "node", "id": 2839723118, "lat": 40.7096036, "lon": -73.9234751}, {"type": "node", "id": 2839723121, "lat": 40.7096716, "lon": -73.9235021}, {"type": "node", "id": 2839723132, "lat": 40.7097427, "lon": -73.9231999}, {"type": "node", "id": 2839765119, "lat": 40.710722, "lon": -73.936636}, {"type": "node", "id": 2839765122, "lat": 40.7107675, "lon": -73.9364602}, {"type": "node", "id": 2839765128, "lat": 40.710864, "lon": -73.9365194}, {"type": "node", "id": 2839765129, "lat": 40.7108677, "lon": -73.9365049}, {"type": "node", "id": 2839765134, "lat": 40.7109028, "lon": -73.9365367}, {"type": "node", "id": 2839765146, "lat": 40.7109684, "lon": -73.9365661}, {"type": "node", "id": 2839765148, "lat": 40.7109762, "lon": -73.9365359}, {"type": "node", "id": 2839765150, "lat": 40.7109873, "lon": -73.9367544}, {"type": "node", "id": 2839765152, "lat": 40.710991, "lon": -73.93674}, {"type": "node", "id": 2839765157, "lat": 40.7110303, "lon": -73.93656}, {"type": "node", "id": 2839765158, "lat": 40.7110335, "lon": -73.9365757}, {"type": "node", "id": 2839765159, "lat": 40.7110368, "lon": -73.936563}, {"type": "node", "id": 2839879128, "lat": 40.7191779, "lon": -73.9390279}, {"type": "node", "id": 2839879150, "lat": 40.7194335, "lon": -73.939142}, {"type": "node", "id": 2839879158, "lat": 40.7195219, "lon": -73.9388004}, {"type": "node", "id": 2839879167, "lat": 40.7196085, "lon": -73.9384653}, {"type": "node", "id": 2842572295, "lat": 40.7222475, "lon": -73.9485361}, {"type": "node", "id": 2842572296, "lat": 40.7222568, "lon": -73.9484379}, {"type": "node", "id": 2842572300, "lat": 40.7222642, "lon": -73.9483586}, {"type": "node", "id": 2842572451, "lat": 40.7225207, "lon": -73.9485805}, {"type": "node", "id": 2842572452, "lat": 40.7225374, "lon": -73.9484031}, {"type": "node", "id": 2842886527, "lat": 40.7269085, "lon": -73.9528103, "tags": {"addr:city": "Brooklyn", "addr:housenumber": "98", "addr:postcode": "11222", "addr:state": "NY", "addr:street": "Meserole Avenue", "amenity": "nightclub", "contact:facebook": "https://www.facebook.com/pg/GoodRoomBK/", "description": "Good Room was built by music lovers for music lovers. Launched in 2014 by nightclub veterans, the space fuses the traditional Greenpoint bar scene with a club vibe.", "email": "goodroomevents@gmail.com", "lgbtq": "welcome", "name": "Good Room", "opening_hours": "Th-Sa 22:00-04:00", "operator": "Good Room", "start_date": "2014", "website": "http://goodroombk.com"}}, {"type": "node", "id": 2846633074, "lat": 40.7608329, "lon": -73.92382}, {"type": "node", "id": 2846633083, "lat": 40.7608569, "lon": -73.9238713}, {"type": "node", "id": 2846633323, "lat": 40.7610375, "lon": -73.9236546}, {"type": "node", "id": 2846633330, "lat": 40.7610615, "lon": -73.9237059}, {"type": "node", "id": 2883522842, "lat": 40.7676124, "lon": -73.8329125}, {"type": "node", "id": 2883522847, "lat": 40.7676388, "lon": -73.832796}, {"type": "node", "id": 2883522858, "lat": 40.7677246, "lon": -73.8329568}, {"type": "node", "id": 2883522865, "lat": 40.767751, "lon": -73.8328402}, {"type": "node", "id": 3141134043, "lat": 40.6979017, "lon": -73.9278919, "tags": {"addr:housenumber": "1271", "addr:postcode": "11221", "addr:street": "Myrtle Avenue", "amenity": "nightclub", "description": "Tropical Techno Cocktail bar", "drink:club-mate": "yes", "name": "Bossa Nova Civic Club", "opening_hours": "Mo-Su 19:00-04:00", "phone": "+1-718-443-1271", "website": "http://bossanovacivicclub.com"}}, {"type": "node", "id": 3236320659, "lat": 40.7430035, "lon": -74.0058886, "tags": {"addr:city": "New York", "addr:country": "US", "addr:housenumber": "431", "addr:postcode": "10011", "addr:state": "NY", "addr:street": "West 16th Street", "amenity": "nightclub", "name": "Highline Ballroom", "nycdoitt:bin": "1012543", "opening_hours": "Mo-Fr 11:00-23:00; Sa 11:00-24:00; Su 00:00-04:00,11:00-23:00", "phone": "+1 212 414 5994", "website": "http://highlineballroom.com/", "wheelchair": "yes", "wikidata": "Q14706366"}}, {"type": "node", "id": 3584658394, "lat": 40.7502928, "lon": -74.0048785, "tags": {"addr:housenumber": "544", "addr:postcode": "10001", "addr:street": "West 27th Street", "amenity": "nightclub", "cocktails": "yes", "drink:wine": "served", "name": "Il Bastardo", "opening_hours": "Sa, Su 12:00-18:30", "phone": "+1 212-675-5980", "reservation": "only", "website": "https://www.ilbastardonyc.com"}}, {"type": "node", "id": 3968568294, "lat": 40.7429866, "lon": -73.9892747, "tags": {"amenity": "nightclub", "name": "40/40 Club"}}, {"type": "node", "id": 4071907619, "lat": 40.7316041, "lon": -73.9890227}, {"type": "node", "id": 4071907628, "lat": 40.7317477, "lon": -73.9889202}, {"type": "node", "id": 4216669489, "lat": 40.7360361, "lon": -74.0016519, "tags": {"addr:housenumber": "177", "addr:street": "7th Avenue South", "amenity": "nightclub", "internet_access": "wlan", "level": "-1", "name": "Village Vanguard", "opening_hours": "Mo-Su 19:00-00:00", "phone": "+12122554037", "smoking": "no", "website": "https://www.villagevanguard.com", "wikidata": "Q670623", "wikipedia": "en:Village Vanguard"}}, {"type": "node", "id": 4317154801, "lat": 40.7205137, "lon": -73.9932198}, {"type": "node", "id": 4317415003, "lat": 40.7111986, "lon": -73.9663773, "tags": {"addr:city": "Brooklyn", "addr:housenumber": "395", "addr:postcode": "11211", "addr:state": "NY", "addr:street": "Wythe Avenue", "amenity": "nightclub", "name": "TBA Brooklyn", "website": "https://www.tbabrooklyn.com/"}}, {"type": "node", "id": 4380262792, "lat": 40.7211528, "lon": -73.9381357, "tags": {"addr:housenumber": "496", "addr:postcode": "11222", "amenity": "nightclub", "name": "AVIV", "name:en": "AVIV"}}, {"type": "node", "id": 4483787091, "lat": 40.7343811, "lon": -74.0027295, "tags": {"amenity": "nightclub", "level": "-1", "name": "Smalls Jazz Club", "name:en": "Smalls Jazz Club", "toilets": "yes", "toilets:access": "customers", "toilets:disposal": "flush", "toilets:position": "seated", "toilets:wheelchair": "no", "wheelchair": "no", "wikidata": "Q2294913"}}, {"type": "node", "id": 4825790082, "lat": 40.729969, "lon": -73.9547666, "tags": {"addr:city": "Brooklyn", "addr:housenumber": "150", "addr:postcode": "11222", "addr:state": "NY", "addr:street": "Greenpoint Avenue", "amenity": "nightclub", "name": "Brooklyn Bazaar"}}, {"type": "node", "id": 4840395323, "lat": 40.7667982, "lon": -73.9964103, "tags": {"addr:housenumber": "641", "addr:postcode": "10019", "addr:street": "West 51st Street", "amenity": "nightclub", "name": "Larry Flynt's Hustler Club", "opening_hours": "Mo-Sa 18:00-04:00; Su 20:00-02:00", "phone": "+12122472460", "website": "http://www.hustlerny.com"}}, {"type": "node", "id": 4931633944, "lat": 40.7687081, "lon": -73.9108774, "tags": {"addr:city": "Astoria", "addr:floor": "2", "addr:housenumber": "24-05", "addr:postcode": "11103", "addr:state": "NY", "addr:street": "Steinway Street", "amenity": "nightclub", "name": "Dubai Hookah Lounge"}}, {"type": "node", "id": 4931643650, "lat": 40.7697156, "lon": -73.910138, "tags": {"addr:city": "Astoria", "addr:housenumber": "23-66", "addr:postcode": "11105", "addr:state": "NY", "addr:street": "Steinway Street", "amenity": "nightclub", "name": "Mijana Restaurant and Lounge"}}, {"type": "node", "id": 4937422521, "lat": 40.7394443, "lon": -73.9426887, "tags": {"addr:postcode": "11101", "amenity": "nightclub", "name": "Sugar Daddy's", "opening_hours": "Mo-Fr 12:00-04:00; Sa-Su 20:00-04:00", "phone": "+17187069600", "website": "http://www.sugardaddysnyc.com"}}, {"type": "node", "id": 4959943421, "lat": 40.7422628, "lon": -74.0041092, "tags": {"addr:city": "New York", "addr:housenumber": "369", "addr:postcode": "10011", "addr:state": "NY", "addr:street": "West 16th Street", "amenity": "nightclub", "name": "TAO Downtown Nightclub", "opening_hours:covid19": "closed", "phone": "+1-212-888-1440", "website": "https://taogroup.com/venues/tao-downtown-nightclub-new-york/"}}, {"type": "node", "id": 5155750226, "lat": 40.7221418, "lon": -73.9590426, "tags": {"addr:housenumber": "54", "addr:state": "NY", "addr:street": "North 11th Street", "amenity": "nightclub", "name": "Schimanski"}}, {"type": "node", "id": 5163871879, "lat": 40.6961981, "lon": -73.9048083, "tags": {"addr:housenumber": "987", "addr:street": "Wyckoff Avenue", "amenity": "nightclub", "name": "The Venue Party Hall"}}, {"type": "node", "id": 5172757288, "lat": 40.8283426, "lon": -73.8872699, "tags": {"amenity": "nightclub", "name": "Tropicana"}}, {"type": "node", "id": 5209147840, "lat": 40.6191238, "lon": -73.9260348, "tags": {"addr:housenumber": "5023", "addr:street": "Avenue N", "amenity": "nightclub", "name": "Lagos Lounge"}}, {"type": "node", "id": 5216101047, "lat": 40.6516015, "lon": -73.9379776, "tags": {"addr:housenumber": "4201A", "addr:street": "Church Avenue", "amenity": "nightclub", "name": "Oval"}}, {"type": "node", "id": 5265747927, "lat": 40.7408103, "lon": -73.9933813, "tags": {"addr:housenumber": "47", "addr:street": "West 20th Street", "amenity": "nightclub", "name": "Jue Lan"}}, {"type": "node", "id": 5281887519, "lat": 40.6646774, "lon": -73.734629, "tags": {"addr:housenumber": "245-11", "addr:street": "Francis Lewis Boulevard", "amenity": "nightclub", "name": "Secrets"}}, {"type": "node", "id": 5344121868, "lat": 40.7553404, "lon": -73.9221434, "tags": {"addr:housenumber": "34-48", "addr:street": "Steinway Street", "amenity": "nightclub", "name": "Riviera"}}, {"type": "node", "id": 5351937842, "lat": 40.6942754, "lon": -73.9021778, "tags": {"addr:city": "Ridgewood", "addr:housenumber": "1090", "addr:postcode": "11385", "addr:state": "NY", "addr:street": "Wyckoff Avenue", "amenity": "nightclub", "name": "H0L0"}}, {"type": "node", "id": 5351952018, "lat": 40.6944617, "lon": -73.9025245, "tags": {"addr:city": "Ridgewood", "addr:housenumber": "1080", "addr:postcode": "11385", "addr:state": "NY", "addr:street": "Wyckoff Avenue", "amenity": "nightclub", "atm": "yes", "cocktails": "yes", "cuisine": "american;burger;tacos", "drink:beer": "yes", "drink:liquor": "yes", "drink:wine": "served", "internet_access": "wlan", "internet_access:fee": "no", "internet_access:ssid": "DG1670A52", "name": "The Deep End", "opening_hours": "Su 17:00-04:00; Tu-Sa 18:00-04:00", "toilets": "yes", "toilets:access": "permissive", "toilets:unisex": "yes", "toilets:wheelchair": "no", "website": "https://thedeepend.nyc/", "wheelchair": "no"}}, {"type": "node", "id": 5406250236, "lat": 40.7561485, "lon": -73.9211011, "tags": {"addr:housenumber": "34-19", "addr:street": "Steinway Street", "amenity": "nightclub", "bar": "yes", "name": "Fusion", "opening_hours": "Th-Sa 22:00-04:00", "phone": "+1-718-470-2086", "website": "http://fusionloungenyc.com/", "wheelchair": "yes"}}, {"type": "node", "id": 5406258286, "lat": 40.7685464, "lon": -73.9110144, "tags": {"addr:housenumber": "24-17", "addr:street": "Steinway Street", "amenity": "nightclub", "name": "Layali Dubai", "phone": "+1-718-728-1492"}}, {"type": "node", "id": 5414820622, "lat": 40.7644171, "lon": -73.9869612, "tags": {"air_conditioning": "yes", "amenity": "nightclub", "level": "0", "lgbtq": "primary", "name": "Industry"}}, {"type": "node", "id": 5425887870, "lat": 40.7622678, "lon": -73.8313448, "tags": {"addr:housenumber": "36-41", "addr:street": "Main Street", "amenity": "nightclub", "name": "Studio Bar & Lounge"}}, {"type": "node", "id": 5446397521, "lat": 40.7538299, "lon": -73.9044551, "tags": {"amenity": "nightclub", "name": "La Boom"}}, {"type": "node", "id": 5497828755, "lat": 40.7579899, "lon": -73.9166396, "tags": {"addr:housenumber": "42-21", "addr:street": "Broadway", "amenity": "nightclub", "name": "Dandana"}}, {"type": "node", "id": 5522692221, "lat": 40.7109337, "lon": -73.9453631, "tags": {"addr:housenumber": "224", "addr:street": "Manhattan Avenue", "amenity": "nightclub", "email": "Ceremonybookings@gmail.com", "name": "Ceremony224"}}, {"type": "node", "id": 5528044304, "lat": 40.6265163, "lon": -74.1301753, "tags": {"addr:city": "Staten Island", "addr:housenumber": "1205", "addr:postcode": "10310", "addr:state": "NY", "addr:street": "Forest Avenue", "amenity": "nightclub", "name": "Funkey Monkey Lounge"}}, {"type": "node", "id": 5532260736, "lat": 40.6897625, "lon": -73.8271739, "tags": {"addr:housenumber": "117-15", "addr:street": "101st Avenue", "amenity": "nightclub", "name": "Zen Lounge", "operator": "Nikka Lounge Inc."}}, {"type": "node", "id": 5546424157, "lat": 40.8281945, "lon": -73.8801691, "tags": {"addr:housenumber": "1177", "addr:street": "Wheeler Avenue", "amenity": "nightclub", "name": "Princesa del Rodeo"}}, {"type": "node", "id": 5552730464, "lat": 40.7221035, "lon": -73.9867932, "tags": {"addr:housenumber": "217", "addr:street": "East Houston Street", "amenity": "nightclub", "brewery": "various", "name": "Mercury Lounge", "opening_hours": "Mo-Sa 17:30-04:00", "payment:cash": "yes", "payment:credit_cards": "yes", "phone": "+1-212-260-4700", "toilets": "yes", "toilets:unisex": "no", "website": "https://www.mercuryloungenyc.com/", "wheelchair": "limited", "wikidata": "Q772529"}}, {"type": "node", "id": 5583090307, "lat": 40.7193529, "lon": -73.9383511}, {"type": "node", "id": 5627943323, "lat": 40.7186335, "lon": -73.9893328, "tags": {"amenity": "nightclub", "name": "DL"}}, {"type": "node", "id": 5633559794, "lat": 40.7076638, "lon": -73.920853, "tags": {"addr:housenumber": "309", "addr:street": "Starr Street", "amenity": "nightclub", "name": "Starr Space", "phone": "+1-718-366-3444"}}, {"type": "node", "id": 5647421278, "lat": 40.7665509, "lon": -73.9130228, "tags": {"addr:housenumber": "25-60", "addr:street": "Steinway Street", "amenity": "nightclub", "name": "Layali Beirut"}}, {"type": "node", "id": 5679659087, "lat": 40.7081511, "lon": -73.9235714, "tags": {"addr:housenumber": "1237", "addr:street": "Flushing Avenue", "amenity": "nightclub", "cocktails": "yes", "drink:beer": "yes", "drink:liquor": "yes", "drink:wine": "yes", "email": "info@jupiterdisco.com", "happy_hours": "yes", "leisure": "dance", "name": "Jupiter Disco", "opening_hours": "Mo-Su 18:00-04:00", "toilets": "yes", "website": "http://jupiterdisco.com/", "wheelchair": "yes"}}, {"type": "node", "id": 5978792102, "lat": 40.7444889, "lon": -73.911859, "tags": {"amenity": "nightclub", "name": "Deseos"}}, {"type": "node", "id": 6020011454, "lat": 40.7652732, "lon": -73.9140659, "tags": {"addr:housenumber": "28-08", "addr:street": "Steinway Street", "amenity": "nightclub", "name": "Fayrooz"}}, {"type": "node", "id": 6089891721, "lat": 40.6779622, "lon": -73.7451428, "tags": {"addr:housenumber": "224-01", "addr:street": "Merrick Boulevard", "amenity": "nightclub", "name": "After Dark"}}, {"type": "node", "id": 6110372011, "lat": 40.7055561, "lon": -73.9371954, "tags": {"addr:housenumber": "248", "addr:street": "McKibbin Street", "amenity": "nightclub", "drink:beer": "yes", "drink:liquor": "yes", "drink:wine": "yes", "leisure": "dance", "level": "-1", "name": "Tilt", "opening_hours": "Mo-Su 18:00-04:00", "toilets": "yes", "toilets:unisex": "yes", "toilets:wheelchair": "no", "website": "https://facebook.com/TiltBK/", "wheelchair": "no"}}, {"type": "node", "id": 6112503970, "lat": 40.7077257, "lon": -73.9434941, "tags": {"addr:housenumber": "167", "addr:street": "Graham Avenue", "amenity": "nightclub", "description": "Art filled nightclub.", "email": "media@erisevolution.com", "name": "Eris Evolution", "website": "https://www.erisevolution.com"}}, {"type": "node", "id": 6145702591, "lat": 40.7446396, "lon": -73.9886046, "tags": {"addr:housenumber": "1160", "addr:postcode": "10001", "addr:street": "Broadway", "amenity": "nightclub", "email": "info@jazzgallery.org", "name": "Jazz Gallery", "website": "http://jazzgallery.nyc/"}}, {"type": "node", "id": 6175551619, "lat": 40.6835003, "lon": -73.9663679, "tags": {"addr:city": "Brooklyn", "addr:housenumber": "921", "addr:postcode": "11238", "addr:state": "NY", "addr:street": "Fulton Street", "amenity": "nightclub", "name": "921 Bar & Grill"}}, {"type": "node", "id": 6182279414, "lat": 40.7310628, "lon": -74.0065268, "tags": {"addr:city": "New York", "addr:housenumber": "438", "addr:postcode": "10014", "addr:state": "NY", "addr:street": "Hudson Street", "amenity": "nightclub", "description": "Manhattan\u2019s number-one lesbian bar for twenty five years.", "email": "info@henriettahudson.com", "happy_hours": "Mo-Su 17:00-19:00", "name": "Henrietta Hudson", "opening_hours": "Mo-Th 17:00-02:00; Fr-Sa 16:00-04:00; Su 16:00-02:00", "operator": "Henrietta Hudson", "phone": "(212) 924-3347", "toilets": "yes", "website": "http://henriettahudson.com/", "wheelchair": "yes"}}, {"type": "node", "id": 6196857077, "lat": 40.716129, "lon": -73.962618, "tags": {"addr:city": "Brooklyn", "addr:housenumber": "134", "addr:postcode": "11249", "addr:state": "NY", "addr:street": "Metropolitan Avenue", "amenity": "nightclub", "description": "Venue for international electronic music.", "name": "101brooklyn", "operator": "101brooklyn", "website": "http://101brooklyn.com"}}, {"type": "node", "id": 6230652175, "lat": 40.7259527, "lon": -73.9837876, "tags": {"addr:housenumber": "107", "addr:street": "Avenue A", "amenity": "nightclub", "name": "Kazuza", "opening_hours": "Mo-Su 15:00-23:00", "phone": "+1-212-505-9300"}}, {"type": "node", "id": 6244684467, "lat": 40.8441066, "lon": -73.9234742, "tags": {"addr:housenumber": "1472", "addr:street": "Ogden Avenue", "amenity": "nightclub", "name": "O'Side Restaurant & Lounge"}}, {"type": "node", "id": 6392122786, "lat": 40.7685685, "lon": -73.9824278, "tags": {"addr:housenumber": "10", "addr:street": "Columbus Circle", "air_conditioning": "yes", "amenity": "nightclub", "check_date": "2023-01-13", "fixme": "Don\u2019t think nightclub is appropriate for this venue. This is a jazz club.", "level": "0", "level:ref": "1", "name": "Dizzy\u2019s Club", "opening_hours:covid19": "off", "operator": "Jazz at Lincoln Center", "smoking": "no", "source": "local knowledge", "website": "https://www.jazz.org/dizzys/", "wheelchair": "yes", "wikidata": "Q3123802"}}, {"type": "node", "id": 6416417668, "lat": 40.6740966, "lon": -73.8001873, "tags": {"addr:housenumber": "140-14", "addr:street": "Rockaway Boulevard", "amenity": "nightclub", "name": "Platinum Lounge & Cafe"}}, {"type": "node", "id": 6692972509, "lat": 40.7319321, "lon": -73.9496988, "tags": {"addr:city": "Brooklyn", "addr:housenumber": "260", "addr:postcode": "11222", "addr:state": "NY", "addr:street": "Java Street", "amenity": "nightclub", "description": "Sera Phi is an immersive experience venue, recording studio and vibroacoustic wellness center.", "name": "Sera Phi", "operator": "Sera Phi", "start_date": "2006", "website": "http://www.seraphi.org/"}}, {"type": "node", "id": 6750355714, "lat": 40.7209241, "lon": -73.9580337, "tags": {"addr:housenumber": "97", "addr:street": "North 10th Street", "amenity": "nightclub", "email": "hello@jjsbk.com", "name": "JJ's Hideaway", "opening_hours": "Mo-Su 16:00-04:00", "website": "https://www.jjsbk.com/"}}, {"type": "node", "id": 6753886266, "lat": 40.705705, "lon": -73.9223702, "tags": {"addr:housenumber": "234", "addr:postcode": "11237", "addr:street": "Starr Street", "amenity": "nightclub", "name": "The Sultan Room", "opening_hours": "Su-We 18:00-02:00; Th-Sa 20:00-04:00", "operator": "The Turk's Inn", "phone": "+1-718-215-0025", "website": "https://thesultanroom.com"}}, {"type": "node", "id": 6762264577, "lat": 40.7055911, "lon": -73.9368538, "tags": {"addr:housenumber": "248", "addr:street": "McKibbin Street", "amenity": "nightclub", "lgbtq": "welcome", "name": "The Vault", "opening_hours": "Mo-Su 16:00-04:00", "website": "https://facebook.com/thevaultbk"}}, {"type": "node", "id": 6802746938, "lat": 40.7368157, "lon": -74.0290654, "tags": {"amenity": "nightclub", "name": "Birch Hoboken"}}, {"type": "node", "id": 6892940430, "lat": 40.7218222, "lon": -73.980295, "tags": {"addr:housenumber": "40", "addr:street": "Avenue C", "amenity": "nightclub", "cocktails": "yes", "drink:beer": "draught", "drink:liquor": "yes", "name": "Bedlam", "opening_hours": "Su 18:00-01:00; We 21:00-01:00; Th 20:00-01:00; Fr, Sa 20:00-04:00; Su 19:00-02:00", "phone": "+1-646-870-0150", "website": "http://www.bedlamnyc.com/"}}, {"type": "node", "id": 6911010821, "lat": 40.7282946, "lon": -73.982093, "tags": {"alt_name": "Coney Island Baby", "amenity": "nightclub", "atm": "yes", "bar": "yes", "cocktails": "yes", "drink:beer": "draught", "drink:liquor": "yes", "live_music": "yes", "name": "Lola", "opening_hours": "\"Temporarily closed\"", "toilets": "yes", "toilets:unisex": "yes", "website": "https://www.lolanyc-live.com"}}, {"type": "node", "id": 7047054385, "lat": 40.7422144, "lon": -74.0036566, "tags": {"addr:postcode": "10011", "amenity": "nightclub", "name": "PHD Downtown"}}, {"type": "node", "id": 7049573985, "lat": 40.7422914, "lon": -74.0034322, "tags": {"amenity": "nightclub", "name": "Electric Room"}}, {"type": "node", "id": 7049605285, "lat": 40.7218957, "lon": -73.9922775, "tags": {"amenity": "nightclub", "name": "The Box"}}, {"type": "node", "id": 7050439887, "lat": 40.7500931, "lon": -74.0028209, "tags": {"addr:postcode": "10001", "amenity": "nightclub", "name": "Marquee"}}, {"type": "node", "id": 7063640585, "lat": 40.7152945, "lon": -73.9136973, "tags": {"addr:postcode": "11378", "amenity": "nightclub", "name": "Basement NYC"}}, {"type": "node", "id": 7164216217, "lat": 40.8043829, "lon": -73.9135242, "tags": {"addr:housenumber": "221", "addr:street": "Bruckner Boulevard", "amenity": "nightclub", "name": "Noche De Rumba"}}, {"type": "node", "id": 7275053403, "lat": 40.7372178, "lon": -73.7095309, "tags": {"addr:housenumber": "258-15", "addr:street": "Hillside Avenue", "amenity": "nightclub", "name": "Pegasus"}}, {"type": "node", "id": 7658594659, "lat": 40.7990723, "lon": -73.9431084, "tags": {"addr:housenumber": "1637", "addr:street": "Park Avenue", "amenity": "nightclub", "name": "A\u2019Dar"}}, {"type": "node", "id": 7916980740, "lat": 40.7472475, "lon": -73.8888732, "tags": {"addr:housenumber": "76-17", "addr:postcode": "11372", "addr:street": "Roosevelt Avenue", "amenity": "nightclub", "name": "Club Evolution"}}, {"type": "node", "id": 7959640199, "lat": 40.6818331, "lon": -73.7656197, "tags": {"addr:city": "Jamaica", "addr:housenumber": "126-19", "addr:postcode": "11434", "addr:state": "NY", "addr:street": "Merrick Boulevard", "amenity": "nightclub", "name": "Pure Lounge", "phone": "+1-718-276-2199", "website": "https://www.pureloungenyc.com"}}, {"type": "node", "id": 8600512808, "lat": 40.8474996, "lon": -73.86741, "tags": {"amenity": "nightclub", "name": "Istanbul Cafe"}}, {"type": "node", "id": 8908913845, "lat": 40.7250059, "lon": -74.0515395, "tags": {"addr:city": "Jersey City", "addr:housenumber": "335-337", "addr:postcode": "07302", "addr:state": "NJ", "addr:street": "Newark Avenue", "amenity": "nightclub", "name": "White Eagle Hall", "wikidata": "Q30623232"}}, {"type": "node", "id": 8940158225, "lat": 40.7095341, "lon": -73.9234475}, {"type": "node", "id": 8940158226, "lat": 40.709539, "lon": -73.9234132}, {"type": "node", "id": 8940158227, "lat": 40.7094083, "lon": -73.9233558}, {"type": "node", "id": 8940158228, "lat": 40.7094202, "lon": -73.9232922}, {"type": "node", "id": 9330092156, "lat": 40.7026204, "lon": -73.814865, "tags": {"addr:housenumber": "138-11", "addr:street": "Jamaica Avenue", "amenity": "nightclub", "name": "New York Tavern And Lounge"}}, {"type": "node", "id": 9349778613, "lat": 40.7131553, "lon": -73.9050957, "tags": {"amenity": "nightclub", "name": "Vixen Lounge & Cabaret Bar"}}, {"type": "node", "id": 9786634717, "lat": 40.7345395, "lon": -74.0018374, "tags": {"addr:housenumber": "163", "amenity": "nightclub", "name": "Mezzrow"}}, {"type": "node", "id": 10754122140, "lat": 40.709606, "lon": -73.9231407}, {"type": "node", "id": 10825169337, "lat": 40.7096855, "lon": -73.8450932, "tags": {"addr:street": "Metropolitan Avenue", "amenity": "nightclub", "name": "Desert Rain"}}, {"type": "way", "id": 247857140, "nodes": [2547155551, 2547155541, 4071907628, 4071907619, 2547155528, 2547155535, 2547155543, 2547155561, 2547155551], "tags": {"addr:city": "New York", "addr:housenumber": "125", "addr:postcode": "10003", "addr:state": "NY", "addr:street": "East 11th Street", "amenity": "nightclub", "building": "yes", "construction_date": "1886", "height": "21.8", "name": "Webster Hall", "nycdoitt:bin": "1008983", "opening_hours": "\"According to schedule\"", "website": "https://www.websterhall.com/", "wikidata": "Q7978928", "wikipedia": "en:Webster Hall"}}, {"type": "way", "id": 247920488, "nodes": [4317154801, 2547684229, 2547684200, 2547684160, 2547684149, 2547684161, 2547684196, 2547684231, 2547684242, 2547684240, 4317154801], "tags": {"addr:city": "New York", "addr:housenumber": "6", "addr:postcode": "10002", "addr:state": "NY", "addr:street": "Delancey Street", "amenity": "nightclub", "building": "yes", "height": "12.9", "name": "Bowery ballroom", "nycdoitt:bin": "1005699", "website": "http://www.boweryballroom.com/", "wikidata": "Q895431", "wikipedia": "en:Bowery Ballroom"}}, {"type": "way", "id": 248171326, "nodes": [2550101455, 2550101364, 2550101486, 2550101472, 2550101455], "tags": {"addr:housenumber": "177", "addr:postcode": "11215", "addr:street": "2nd Avenue", "amenity": "nightclub", "building": "yes", "height": "8.9", "name": "Analog BKNY", "nycdoitt:bin": "3023311", "website": "http://clubanalog.net"}}, {"type": "way", "id": 265357834, "nodes": [2710280832, 2710280846, 2710280860, 2710280856, 2710280845, 2710280838, 2710280832], "tags": {"addr:city": "New York", "addr:housenumber": "618", "addr:postcode": "10036", "addr:street": "West 46th Street", "amenity": "nightclub", "building": "yes", "height": "31.6", "name": "Pacha NYC", "nycdoitt:bin": "1027104", "website": "http://www.pachanyc.com"}}, {"type": "way", "id": 269201912, "nodes": [2744832410, 2744832416, 2744832418, 2744832429, 2744832485, 2744832475, 2744832410], "tags": {"addr:city": "New York", "addr:housenumber": "610", "addr:postcode": "10019", "addr:state": "NY", "addr:street": "West 56th Street", "amenity": "nightclub", "building": "yes", "height": "17.2", "name": "Terminal 5", "name:uk": "\u041f'\u044f\u0442\u0438\u0439 \u0442\u0435\u0440\u043c\u0456\u043d\u0430\u043b", "nycdoitt:bin": "1027161", "phone": "2125826600", "website": "https://www.terminal5nyc.com/", "wikidata": "Q7702626"}}, {"type": "way", "id": 279607953, "nodes": [2838236229, 2838236230, 2838236233, 2838236250, 2838236248, 2838236229], "tags": {"addr:city": "Brooklyn", "addr:housenumber": "146", "addr:postcode": "11211", "addr:state": "NY", "addr:street": "Broadway", "amenity": "nightclub", "building": "yes", "height": "5.5", "name": "Baby's All Right", "nycdoitt:bin": "3059527", "website": "http://babysallright.com"}}, {"type": "way", "id": 279779989, "nodes": [2839718699, 2839718713, 2839718726, 2839718721, 2839718700, 2839718699], "tags": {"addr:city": "Brooklyn", "addr:housenumber": "66", "addr:postcode": "11249", "addr:state": "NY", "addr:street": "North 6th Street", "amenity": "nightclub", "building": "yes", "height": "10.6", "name": "Music Hall of Williamsburg", "nycdoitt:bin": "3062158", "wikidata": "Q6941542"}}, {"type": "way", "id": 279780209, "nodes": [2839723121, 2839723132, 10754122140, 2839722987, 2839722977, 8940158228, 8940158227, 8940158226, 8940158225, 2839723118, 2839723121], "tags": {"addr:city": "Brooklyn", "addr:housenumber": "599", "addr:postcode": "11237", "addr:state": "NY", "addr:street": "Johnson Avenue", "amenity": "nightclub", "building": "yes", "description": "Live music venue, nightclub, and arts space in a converted industrial warehouse that hosts rooftop parties and emerging music talents.", "email": "info@elsewherebrooklyn.com", "happy_hours": "yes", "height": "7.7", "internet_access": "wlan", "internet_access:fee": "no", "name": "Elsewhere", "nycdoitt:bin": "3070596", "opening_hours": "Mo-Th, Su 17:00-26:00; Fr, Sa 17:00-28:00", "toilets": "yes", "toilets:wheelchair": "yes", "website": "http://elsewherebrooklyn.com/", "wheelchair": "yes"}}, {"type": "way", "id": 279784947, "nodes": [2839765148, 2839765146, 2839765134, 2839765128, 2839765129, 2839765122, 2839765119, 2839765150, 2839765152, 2839765158, 2839765159, 2839765157, 2839765148], "tags": {"addr:city": "Brooklyn", "addr:housenumber": "17", "addr:postcode": "11206", "addr:state": "NY", "addr:street": "Meadow Street", "amenity": "nightclub", "building": "yes", "height": "4.2", "name": "The Paper Box", "nycdoitt:bin": "3070842"}}, {"type": "way", "id": 279797897, "nodes": [2839879167, 5583090307, 2839879128, 2839879150, 2839879158, 2839879167], "tags": {"addr:city": "Brooklyn", "addr:housenumber": "319", "addr:postcode": "11222", "addr:state": "NY", "addr:street": "Frost Street", "amenity": "nightclub", "building": "yes", "height": "9.0", "name": "Brooklyn Steel", "nycdoitt:bin": "3070027", "operator": "The Bowery Presents", "phone": "+1-888-929-7849", "website": "https://www.bowerypresents.com/brooklyn-steel/"}}, {"type": "way", "id": 280077713, "nodes": [2842572295, 2842572451, 2842572452, 2842572300, 2842572296, 2842572295], "tags": {"addr:city": "Brooklyn", "addr:housenumber": "267", "addr:postcode": "11222", "addr:state": "NY", "addr:street": "Driggs Avenue", "amenity": "nightclub", "building": "yes", "height": "10.5", "name": "Warsaw Concerts", "nycdoitt:bin": "3330187"}}, {"type": "way", "id": 280572874, "nodes": [2846633074, 2846633083, 2846633330, 2846633323, 2846633074], "tags": {"addr:city": "Astoria", "addr:housenumber": "33-04", "addr:postcode": "11106", "addr:street": "Broadway", "amenity": "nightclub", "building": "yes", "height": "7.8", "nycdoitt:bin": "4008765"}}, {"type": "way", "id": 284629952, "nodes": [2883522842, 2883522858, 2883522865, 2883522847, 2883522842], "tags": {"addr:city": "Flushing", "addr:housenumber": "32-03", "addr:postcode": "11354", "addr:state": "NY", "addr:street": "Farrington Street", "amenity": "nightclub", "building": "yes", "height": "8.2", "karaoke": "yes", "name": "Soho KTV & Bar", "nycdoitt:bin": "4000000"}}]}