{"version": 0.6, "generator": "Overpass API 0.7.60 f4c14d41", "osm3s": {"timestamp_osm_base": "2023-05-02T21:20:24Z", "copyright": "The data included in this document is from www.openstreetmap.org. The data is made available under ODbL."}, "elements": [{"type": "node", "id": 1677829795, "lat": 19.4706504, "lon": -99.1247959, "tags": {"shop": "greengrocer"}}, {"type": "node", "id": 2138638737, "lat": 19.4652372, "lon": -99.1808223, "tags": {"name": "Friter\u00eda y Verduler\u00eda", "shop": "greengrocer"}}, {"type": "node", "id": 3164138517, "lat": 19.2844229, "lon": -99.1868782, "tags": {"shop": "greengrocer"}}, {"type": "node", "id": 3493034134, "lat": 19.2909945, "lon": -99.178682, "tags": {"name": "Fruter\u00eda y verduler\u00eda", "shop": "greengrocer"}}, {"type": "node", "id": 3750094511, "lat": 19.307332, "lon": -99.247571, "tags": {"shop": "greengrocer"}}, {"type": "node", "id": 3750094521, "lat": 19.3071041, "lon": -99.2478553, "tags": {"shop": "greengrocer"}}, {"type": "node", "id": 3750100447, "lat": 19.309497, "lon": -99.2489742, "tags": {"shop": "greengrocer"}}, {"type": "node", "id": 3779147453, "lat": 19.399991, "lon": -99.1509191, "tags": {"name": "Ensaladas", "shop": "greengrocer"}}, {"type": "node", "id": 3779351855, "lat": 19.3984059, "lon": -99.1526878, "tags": {"name": "Tienda Naturista", "shop": "greengrocer"}}, {"type": "node", "id": 3779674982, "lat": 19.311757, "lon": -99.161468, "tags": {"shop": "greengrocer"}}, {"type": "node", "id": 3789608511, "lat": 19.3962012, "lon": -99.150797, "tags": {"shop": "greengrocer"}}, {"type": "node", "id": 3789674502, "lat": 19.3901018, "lon": -99.1546452, "tags": {"shop": "greengrocer"}}, {"type": "node", "id": 3849719863, "lat": 19.3795226, "lon": -99.1895987, "tags": {"shop": "greengrocer"}}, {"type": "node", "id": 4337929089, "lat": 19.4308447, "lon": -99.1964154, "tags": {"addr:city": "Ciudad de M\u00e9xico", "addr:country": "MX", "addr:housenumber": "104", "addr:postcode": "11550", "addr:street": "Calle Julio Verne", "name": "Fruter\u00eda Esperanza", "shop": "greengrocer"}}, {"type": "node", "id": 4393011789, "lat": 19.3735948, "lon": -99.0903848, "tags": {"addr:housenumber": "J 102 A", "addr:postcode": "09040", "email": "ventas@garlicziur.com.mx", "internet_access": "wlan", "name": "garlic ziur mx ajos & gourmet", "name:es": "garlic ziur mx ajos & gourmet", "opening_hours": "Mo-Su 06:00-18:00", "phone": "56945528", "shop": "greengrocer", "website": "http://www.garlicziur.com.mx"}}, {"type": "node", "id": 4462735489, "lat": 19.2569171, "lon": -99.1309318, "tags": {"addr:street": "Comercio", "name": "Fruter\u00eda y Verduler\u00eda Israel", "shop": "greengrocer"}}, {"type": "node", "id": 4876859357, "lat": 19.4524483, "lon": -99.1548831, "tags": {"name": "Mi Verde Morada", "shop": "greengrocer"}}, {"type": "node", "id": 4919696022, "lat": 19.3395216, "lon": -99.1468624, "tags": {"shop": "greengrocer"}}, {"type": "node", "id": 4971416521, "lat": 19.3777611, "lon": -99.1909195, "tags": {"name": "sin nombre", "shop": "greengrocer"}}, {"type": "node", "id": 4987024723, "lat": 19.4237496, "lon": -99.1697326, "tags": {"addr:city": "Ciudad de M\u00e9xico", "addr:housenumber": "238", "addr:street": "Calle Hamburgo", "shop": "greengrocer"}}, {"type": "node", "id": 5037900730, "lat": 19.3451689, "lon": -99.1612811, "tags": {"addr:housenumber": "77 B", "addr:postcode": "04000", "addr:street": "San Francisco Figuraco", "name": "Poller\u00eda Gallo", "name:es": "Poller\u00eda Gallo", "phone": "+52 55 56591262", "shop": "greengrocer"}}, {"type": "node", "id": 5325167515, "lat": 19.4178018, "lon": -99.0842998, "tags": {"addr:city": "Ciudad de M\u00e9xico", "opening_hours": "Mo-Sa 11:00-16:00", "shop": "greengrocer"}}, {"type": "node", "id": 5355815122, "lat": 19.4159889, "lon": -99.0845137, "tags": {"shop": "greengrocer"}}, {"type": "node", "id": 5509017036, "lat": 19.4276062, "lon": -99.1355574, "tags": {"name": "Tienda De Frutas", "shop": "greengrocer"}}, {"type": "node", "id": 5780607763, "lat": 19.430781, "lon": -99.1970658, "tags": {"addr:housenumber": "9 - 3", "addr:street": "Calle Virgilio", "name": "Fruter\u00eda Las Fresas", "shop": "greengrocer"}}, {"type": "node", "id": 6315371488, "lat": 19.3146097, "lon": -99.1611568, "tags": {"shop": "greengrocer"}}, {"type": "node", "id": 7030302509, "lat": 19.36188, "lon": -99.1455043, "tags": {"name": "Fruter\u00eda Baja California", "shop": "greengrocer"}}, {"type": "node", "id": 7154575385, "lat": 19.3783002, "lon": -99.1819921, "tags": {"name": "Racauder\u00eda Mauri", "shop": "greengrocer"}}, {"type": "node", "id": 7221488965, "lat": 19.3603893, "lon": -99.1498795, "tags": {"name": "Frutilandia", "shop": "greengrocer"}}, {"type": "node", "id": 7396405045, "lat": 19.2728093, "lon": -99.1547952, "tags": {"name": "Verduler\u00eda", "shop": "greengrocer"}}, {"type": "node", "id": 8600469592, "lat": 19.3183425, "lon": -99.1714894, "tags": {"addr:housenumber": "360", "addr:postcode": "04369", "addr:street": "Calle Anacahuita", "name": "Verde Fruta", "shop": "greengrocer"}}, {"type": "node", "id": 8843453797, "lat": 19.3539194, "lon": -99.3084139, "tags": {"shop": "greengrocer"}}, {"type": "node", "id": 8843504721, "lat": 19.3397712, "lon": -99.2372659, "tags": {"name": "Fruter\u00eda y Verduler\u00eda", "shop": "greengrocer"}}, {"type": "node", "id": 8902408907, "lat": 19.3843434, "lon": -99.1605585, "tags": {"addr:housenumber": "1016", "drink:juice": "served", "name": "Recauder\u00eda La Jungla", "phone": "+5215564926269", "shop": "greengrocer"}}, {"type": "node", "id": 9898536661, "lat": 19.2987888, "lon": -99.076212, "tags": {"name": "Frutas y Verduras \"El Camioncito\"", "shop": "greengrocer"}}, {"type": "node", "id": 9898536669, "lat": 19.302168, "lon": -99.0809597, "tags": {"noname": "yes", "shop": "greengrocer"}}, {"type": "node", "id": 9984241017, "lat": 19.4676208, "lon": -99.1057125, "tags": {"addr:street": "Avenida Victoria Oriente", "shop": "greengrocer"}}, {"type": "node", "id": 9992066994, "lat": 19.3054741, "lon": -99.0827368, "tags": {"name": "Recauder\u00eda \"Max\"", "shop": "greengrocer"}}, {"type": "node", "id": 9993864346, "lat": 19.3002448, "lon": -99.0765233, "tags": {"name": "Frutas y verduras \"La Esquinita\"", "shop": "greengrocer"}}, {"type": "node", "id": 10000427535, "lat": 19.3048482, "lon": -99.0818687, "tags": {"name": "Recauder\u00eda \"J.A\"", "shop": "greengrocer"}}, {"type": "node", "id": 10109968394, "lat": 19.3532727, "lon": -99.1233061, "tags": {"name": "Poller\u00eda y Fruter\u00eda Lupita", "shop": "greengrocer"}}, {"type": "node", "id": 10224829318, "lat": 19.5299447, "lon": -99.1412055, "tags": {"shop": "greengrocer", "survey:date": "2022-11-28"}}, {"type": "node", "id": 10224829417, "lat": 19.5309737, "lon": -99.141254, "tags": {"shop": "greengrocer", "survey:date": "2022-12-16"}}, {"type": "node", "id": 10226015818, "lat": 19.5307947, "lon": -99.1396887, "tags": {"name": "Verduler\u00eda de Petra", "shop": "greengrocer", "survey:date": "2022-11-29"}}, {"type": "node", "id": 10236118810, "lat": 19.531362, "lon": -99.1410916, "tags": {"shop": "greengrocer", "survey:date": "2022-12-03"}}, {"type": "node", "id": 10249988827, "lat": 19.5290239, "lon": -99.1393166, "tags": {"name:signed": "no", "shop": "greengrocer", "survey:date": "2022-12-09"}}, {"type": "node", "id": 10249989338, "lat": 19.530179, "lon": -99.1396008, "tags": {"shop": "greengrocer", "survey:date": "2022-12-09"}}, {"type": "node", "id": 10263239617, "lat": 19.532572, "lon": -99.1408442, "tags": {"shop": "greengrocer", "survey:date": "2022-12-14"}}, {"type": "node", "id": 10270134736, "lat": 19.524542, "lon": -99.1410271, "tags": {"shop": "greengrocer", "survey:date": "2022-12-17"}}, {"type": "node", "id": 10281214427, "lat": 19.5269227, "lon": -99.1444286, "tags": {"shop": "greengrocer", "survey:date": "2022-12-22"}}, {"type": "node", "id": 10281214617, "lat": 19.5260522, "lon": -99.144462, "tags": {"shop": "greengrocer", "survey:date": "2022-12-22"}}, {"type": "node", "id": 10281246810, "lat": 19.5276677, "lon": -99.1443391, "tags": {"shop": "greengrocer", "survey:date": "2023-01-11"}}, {"type": "node", "id": 10281246815, "lat": 19.529421, "lon": -99.1443327, "tags": {"shop": "greengrocer", "survey:date": "2022-12-22"}}, {"type": "node", "id": 10281247524, "lat": 19.530419, "lon": -99.14442, "tags": {"shop": "greengrocer", "survey:date": "2022-12-22"}}, {"type": "node", "id": 10290362628, "lat": 19.5150481, "lon": -99.1363785, "tags": {"shop": "greengrocer", "survey:date": "2022-12-27"}}, {"type": "node", "id": 10290363143, "lat": 19.5167124, "lon": -99.137924, "tags": {"shop": "greengrocer", "survey:date": "2022-12-27"}}, {"type": "node", "id": 10290363225, "lat": 19.5172243, "lon": -99.1393646, "tags": {"shop": "greengrocer", "survey:date": "2022-12-27"}}, {"type": "node", "id": 10290363249, "lat": 19.514964, "lon": -99.1351399, "tags": {"shop": "greengrocer", "survey:date": "2022-12-27"}}, {"type": "node", "id": 10290367838, "lat": 19.5158546, "lon": -99.1338023, "tags": {"shop": "greengrocer", "survey:date": "2022-12-27"}}, {"type": "node", "id": 10290367926, "lat": 19.5158745, "lon": -99.1352788, "tags": {"shop": "greengrocer", "survey:date": "2022-12-27"}}, {"type": "node", "id": 10290698131, "lat": 19.38819, "lon": -99.2626056, "tags": {"shop": "greengrocer"}}, {"type": "node", "id": 10309390412, "lat": 19.5438633, "lon": -99.1442115, "tags": {"shop": "greengrocer", "survey:date": "2023-01-05"}}, {"type": "node", "id": 10542336913, "lat": 19.5266869, "lon": -99.1477332, "tags": {"shop": "greengrocer", "survey:date": "2023-01-11"}}, {"type": "node", "id": 10557744552, "lat": 19.5397472, "lon": -99.1405559, "tags": {"shop": "greengrocer", "survey:date": "2023-01-15"}}, {"type": "node", "id": 10557744749, "lat": 19.5373802, "lon": -99.1404462, "tags": {"shop": "greengrocer", "survey:date": "2023-01-15"}}, {"type": "node", "id": 10560661413, "lat": 19.4640247, "lon": -99.1290334, "tags": {"shop": "greengrocer", "survey:date": "2023-01-16"}}, {"type": "node", "id": 10574055512, "lat": 19.3620881, "lon": -99.1647875, "tags": {"shop": "greengrocer", "survey:date": "2023-01-21"}}, {"type": "node", "id": 10600098940, "lat": 19.5284442, "lon": -99.1521236, "tags": {"shop": "greengrocer", "survey:date": "2023-02-01"}}, {"type": "node", "id": 10600099081, "lat": 19.530378, "lon": -99.1491975, "tags": {"shop": "greengrocer", "survey:date": "2023-02-01"}}, {"type": "node", "id": 10675069117, "lat": 19.3533206, "lon": -99.0675076, "tags": {"name": "El Progreso", "shop": "greengrocer"}}, {"type": "node", "id": 10697620691, "lat": 19.3377942, "lon": -99.2013588, "tags": {"shop": "greengrocer"}}, {"type": "node", "id": 10700763843, "lat": 19.4675757, "lon": -99.1058445}, {"type": "node", "id": 10700763844, "lat": 19.4675475, "lon": -99.1057693}, {"type": "node", "id": 10700763845, "lat": 19.4675832, "lon": -99.1057543}, {"type": "node", "id": 10700763846, "lat": 19.4676113, "lon": -99.1058296}, {"type": "node", "id": 10728511982, "lat": 19.3575842, "lon": -99.0680696, "tags": {"shop": "greengrocer"}}, {"type": "node", "id": 10797421307, "lat": 19.5564171, "lon": -99.1334165, "tags": {"shop": "greengrocer", "survey:date": "2023-04-09"}}, {"type": "node", "id": 10797421507, "lat": 19.5563145, "lon": -99.1334475, "tags": {"shop": "greengrocer", "survey:date": "2023-04-09"}}, {"type": "way", "id": 1150307963, "nodes": [10700763843, 10700763844, 10700763845, 10700763846, 10700763843], "tags": {"building": "kiosk", "shop": "greengrocer"}}]}