{"version": 0.6, "generator": "Overpass API 0.7.60 f4c14d41", "osm3s": {"timestamp_osm_base": "2023-05-02T21:17:24Z", "copyright": "The data included in this document is from www.openstreetmap.org. The data is made available under ODbL."}, "elements": [{"type": "node", "id": 51917131, "lat": -33.7602017, "lon": 150.6837689, "tags": {"alt_name": "Kentucky Fried Chicken", "amenity": "fast_food", "brand": "KFC", "brand:wikidata": "Q524757", "brand:wikipedia": "en:KFC", "cuisine": "chicken", "name": "KFC", "source": "survey", "takeaway": "yes", "website": "https://www.kfc.com.au/"}}, {"type": "node", "id": 243469217, "lat": -33.7529371, "lon": 150.657437}, {"type": "node", "id": 243469218, "lat": -33.7529186, "lon": 150.6576203}, {"type": "node", "id": 243469219, "lat": -33.7530053, "lon": 150.657633}, {"type": "node", "id": 243469220, "lat": -33.7530239, "lon": 150.6574497}, {"type": "node", "id": 243988562, "lat": -33.7457723, "lon": 150.6215915, "tags": {"addr:housenumber": "49", "addr:street": "Old Bathurst Road", "amenity": "fast_food", "name": "East Blaxland Takeaway", "source": "survey"}}, {"type": "node", "id": 339290462, "lat": -33.730007, "lon": 150.903152, "tags": {"amenity": "fast_food", "brand": "McDonald's", "brand:wikidata": "Q38076", "brand:wikipedia": "en:McDonald's", "cuisine": "burger", "name": "McDonald's", "takeaway": "yes"}}, {"type": "node", "id": 392567499, "lat": -33.7457836, "lon": 150.6216568, "tags": {"addr:city": "Blaxland", "addr:housenumber": "51", "addr:postcode": "2774", "addr:street": "Old Bathurst Road", "amenity": "fast_food", "cuisine": "pizza", "delivery": "yes", "drive_through": "no", "name": "Sittano's Pizzeria", "phone": "+61247390000", "takeaway": "yes"}}, {"type": "node", "id": 452345774, "lat": -33.7589398, "lon": 150.6836554, "tags": {"amenity": "fast_food", "brand": "Krispy Kreme", "brand:wikidata": "Q1192805", "brand:wikipedia": "en:Krispy Kreme", "cuisine": "donut", "name": "Krispy Kreme", "takeaway": "yes"}}, {"type": "node", "id": 458698852, "lat": -33.7553949, "lon": 150.7072881, "tags": {"amenity": "fast_food", "brand": "McDonald's", "brand:wikidata": "Q38076", "brand:wikipedia": "en:McDonald's", "cuisine": "burger", "name": "McDonald's", "takeaway": "yes", "website": "https://www.mcdonalds.com.au/"}}, {"type": "node", "id": 458698853, "lat": -33.7549185, "lon": 150.7072892, "tags": {"amenity": "fast_food", "brand": "Red Rooster", "brand:wikidata": "Q376466", "brand:wikipedia": "en:Red Rooster", "cuisine": "chicken", "name": "Red Rooster", "takeaway": "yes", "website": "https://www.redrooster.com.au/"}}, {"type": "node", "id": 537535099, "lat": -33.7193219, "lon": 150.9202813, "tags": {"amenity": "fast_food"}}, {"type": "node", "id": 559973577, "lat": -33.7546993, "lon": 150.713154, "tags": {"amenity": "fast_food", "brand": "Hungry Jacks", "brand:wikidata": "Q3036373", "brand:wikipedia": "en:Hungry Jack's", "cuisine": "burger", "name": "Hungry Jacks", "takeaway": "yes"}}, {"type": "node", "id": 559973783, "lat": -33.7596025, "lon": 150.7202199, "tags": {"amenity": "fast_food", "cuisine": "pizza", "name": "Domino's Pizza"}}, {"type": "node", "id": 672624254, "lat": -33.6258056, "lon": 150.8377317}, {"type": "node", "id": 672624256, "lat": -33.6257675, "lon": 150.8378306}, {"type": "node", "id": 672624263, "lat": -33.6251687, "lon": 150.8372708}, {"type": "node", "id": 672624265, "lat": -33.625349, "lon": 150.8373714}, {"type": "node", "id": 672624266, "lat": -33.6250991, "lon": 150.8374054}, {"type": "node", "id": 672624268, "lat": -33.6251135, "lon": 150.8374135}, {"type": "node", "id": 672624269, "lat": -33.6257154, "lon": 150.837606}, {"type": "node", "id": 672624271, "lat": -33.6256914, "lon": 150.8376683}, {"type": "node", "id": 672624272, "lat": -33.625671, "lon": 150.837777}, {"type": "node", "id": 672624274, "lat": -33.6255467, "lon": 150.8378767}, {"type": "node", "id": 672624275, "lat": -33.6254668, "lon": 150.8378323}, {"type": "node", "id": 672624277, "lat": -33.6254926, "lon": 150.8376551}, {"type": "node", "id": 672624279, "lat": -33.6255181, "lon": 150.837589}, {"type": "node", "id": 672624280, "lat": -33.6255684, "lon": 150.8375936}, {"type": "node", "id": 672624282, "lat": -33.625584, "lon": 150.8376023}, {"type": "node", "id": 672624283, "lat": -33.625606, "lon": 150.8375452}, {"type": "node", "id": 672624290, "lat": -33.6252424, "lon": 150.8376469}, {"type": "node", "id": 672624291, "lat": -33.6250177, "lon": 150.8376614}, {"type": "node", "id": 672624293, "lat": -33.6250097, "lon": 150.8376366}, {"type": "node", "id": 692509434, "lat": -33.7456636, "lon": 150.952065, "tags": {"amenity": "fast_food", "brand": "Subway", "brand:wikidata": "Q244457", "brand:wikipedia": "en:Subway (restaurant)", "cuisine": "sandwich", "name": "Subway", "takeaway": "yes", "website": "https://www.subway.com.au/"}}, {"type": "node", "id": 694196263, "lat": -33.7445242, "lon": 150.9156774}, {"type": "node", "id": 694196267, "lat": -33.7443059, "lon": 150.9162668}, {"type": "node", "id": 720034246, "lat": -33.7663517, "lon": 150.9120762, "tags": {"amenity": "fast_food", "brand": "McDonald's", "brand:wikidata": "Q38076", "brand:wikipedia": "en:McDonald's", "cuisine": "burger", "name": "McDonald's", "takeaway": "yes"}}, {"type": "node", "id": 864307932, "lat": -33.7478435, "lon": 150.7217128, "tags": {"amenity": "fast_food", "name": "Cambridge Park Take Away Foods"}}, {"type": "node", "id": 1247895593, "lat": -33.593666, "lon": 150.916761, "tags": {"amenity": "fast_food", "shop": "convenience"}}, {"type": "node", "id": 1482037943, "lat": -33.7432124, "lon": 150.8102356, "tags": {"amenity": "fast_food", "brand": "McDonald's", "brand:wikidata": "Q38076", "brand:wikipedia": "en:McDonald's", "cuisine": "burger", "name": "McDonald's", "source": "local knowledge", "takeaway": "yes"}}, {"type": "node", "id": 1482037944, "lat": -33.7444167, "lon": 150.8365964, "tags": {"amenity": "fast_food", "brand": "McDonald's", "brand:wikidata": "Q38076", "brand:wikipedia": "en:McDonald's", "cuisine": "burger", "name": "McDonald's", "source": "Local Knowledge", "takeaway": "yes", "website": "https://www.mcdonalds.com.au/"}}, {"type": "node", "id": 1482037945, "lat": -33.7440911, "lon": 150.8423524, "tags": {"amenity": "fast_food", "brand": "Oporto", "brand:wikidata": "Q4412342", "brand:wikipedia": "en:Oporto (restaurant)", "cuisine": "burger;chicken", "name": "Oporto", "source": "local knowledge", "takeaway": "yes"}}, {"type": "node", "id": 1482037946, "lat": -33.7443365, "lon": 150.8357649, "tags": {"alt_name": "Kentucky Fried Chicken", "amenity": "fast_food", "brand": "KFC", "brand:wikidata": "Q524757", "brand:wikipedia": "en:KFC", "cuisine": "chicken", "name": "KFC", "source": "Local knowledge", "takeaway": "yes", "website": "https://www.kfc.com.au/"}}, {"type": "node", "id": 1482040177, "lat": -33.765013, "lon": 150.8204243, "tags": {"alt_name": "Kentucky Fried Chicken", "amenity": "fast_food", "brand": "KFC", "brand:wikidata": "Q524757", "brand:wikipedia": "en:KFC", "cuisine": "chicken", "name": "KFC", "source": "local knowledge", "takeaway": "yes", "website": "https://www.kfc.com.au/"}}, {"type": "node", "id": 1658746294, "lat": -33.7592644, "lon": 150.6842379, "tags": {"amenity": "fast_food", "brand": "McDonald's", "brand:wikidata": "Q38076", "brand:wikipedia": "en:McDonald's", "cuisine": "burger", "name": "McDonald's", "takeaway": "yes", "website": "https://www.mcdonalds.com.au/"}}, {"type": "node", "id": 1691447240, "lat": -33.730188, "lon": 150.9028843, "tags": {"amenity": "fast_food", "brand": "Subway", "brand:wikidata": "Q244457", "cuisine": "sandwich", "name": "Subway", "website": "https://www.subway.com/en-AU"}}, {"type": "node", "id": 1835290197, "lat": -33.734477, "lon": 150.6481468, "tags": {"amenity": "fast_food"}}, {"type": "node", "id": 1835921780, "lat": -33.7465655, "lon": 150.6741456, "tags": {"addr:housenumber": "85", "addr:street": "Great Western Highway", "amenity": "fast_food", "cuisine": "fish_and_chips", "name": "Emu Plains Takeaway Fish & Chips"}}, {"type": "node", "id": 1846675648, "lat": -33.7591186, "lon": 150.7210166, "tags": {"amenity": "fast_food", "brand": "Subway", "brand:wikidata": "Q244457", "brand:wikipedia": "en:Subway (restaurant)", "cuisine": "sandwich", "delivery": "no", "drive_through": "no", "name": "Subway", "smoking": "no", "takeaway": "yes"}}, {"type": "node", "id": 1848382280, "lat": -33.7569319, "lon": 150.6928952, "tags": {"amenity": "fast_food", "brand": "Donut King", "brand:wikidata": "Q5296921", "brand:wikipedia": "en:Donut King", "cuisine": "donut;coffee_shop", "name": "Donut King", "takeaway": "yes", "website": "https://www.donutking.com.au/"}}, {"type": "node", "id": 1906200939, "lat": -33.5991993, "lon": 150.7527406}, {"type": "node", "id": 1974473814, "lat": -33.6847375, "lon": 150.9180686, "tags": {"amenity": "fast_food", "brand": "McDonald's", "brand:wikidata": "Q38076", "brand:wikipedia": "en:McDonald's", "cuisine": "burger", "name": "McDonald's", "opening_hours": "Su-Th 05:00-23:00; Fr,Sa 08:00", "takeaway": "yes", "website": "https://www.mcdonalds.com.au/"}}, {"type": "node", "id": 1974473847, "lat": -33.6844541, "lon": 150.9178057, "tags": {"amenity": "fast_food", "brand": "Red Rooster", "brand:wikidata": "Q376466", "brand:wikipedia": "en:Red Rooster", "cuisine": "chicken", "name": "Red Rooster", "opening_hours": "Mo-Su 10:00-12:00", "takeaway": "yes", "website": "https://www.redrooster.com.au/"}}, {"type": "node", "id": 2131830393, "lat": -33.757518, "lon": 150.8941603, "tags": {"amenity": "fast_food", "brand": "Red Rooster", "brand:wikidata": "Q376466", "brand:wikipedia": "en:Red Rooster", "cuisine": "chicken", "name": "Red Rooster", "operator": "Red Rooster", "takeaway": "yes"}}, {"type": "node", "id": 2195223325, "lat": -33.763974, "lon": 150.7755676, "tags": {"amenity": "fast_food", "cuisine": "pizza", "name": "Pizza King", "phone": "+61298334833", "source": "survey"}}, {"type": "node", "id": 2337825038, "lat": -33.6231776, "lon": 150.8364337, "tags": {"amenity": "fast_food", "brand": "Hungry Jacks", "brand:wikidata": "Q3036373", "brand:wikipedia": "en:Hungry Jack's", "cuisine": "burger", "name": "Hungry Jacks", "source": "survey", "takeaway": "yes", "website": "https://www.hungryjacks.com.au/"}}, {"type": "node", "id": 2337825045, "lat": -33.6272695, "lon": 150.8389424, "tags": {"amenity": "fast_food", "brand": "Subway", "brand:wikidata": "Q244457", "brand:wikipedia": "en:Subway (restaurant)", "cuisine": "sandwich", "name": "Subway", "takeaway": "yes", "website": "https://www.subway.com.au/"}}, {"type": "node", "id": 2342560131, "lat": -33.6072138, "lon": 150.8222031, "tags": {"amenity": "fast_food", "brand": "Subway", "brand:wikidata": "Q244457", "brand:wikipedia": "en:Subway (restaurant)", "cuisine": "sandwich", "name": "Subway", "source": "survey", "takeaway": "yes", "website": "https://www.subway.com.au/"}}, {"type": "node", "id": 2365229638, "lat": -33.732563, "lon": 150.9631295, "tags": {"amenity": "fast_food", "brand": "Oporto", "brand:wikidata": "Q4412342", "brand:wikipedia": "en:Oporto (restaurant)", "cuisine": "burger;chicken", "name": "Oporto", "takeaway": "yes", "website": "https://www.oporto.com.au/"}}, {"type": "node", "id": 2365229640, "lat": -33.7327325, "lon": 150.9632048, "tags": {"amenity": "fast_food", "brand": "Subway", "brand:wikidata": "Q244457", "brand:wikipedia": "en:Subway (restaurant)", "cuisine": "sandwich", "name": "Subway", "takeaway": "yes", "website": "https://www.subway.com.au/"}}, {"type": "node", "id": 2433551962, "lat": -33.7529701, "lon": 150.8879954, "tags": {"addr:city": "Blacktown", "addr:housenumber": "210", "addr:postcode": "2148", "addr:street": "Richmond Road", "alt_name": "Kentucky Fried Chicken", "amenity": "fast_food", "brand": "KFC", "brand:wikidata": "Q524757", "brand:wikipedia": "en:KFC", "cuisine": "chicken", "name": "KFC", "takeaway": "yes"}}, {"type": "node", "id": 2433621599, "lat": -33.699874, "lon": 150.9278665}, {"type": "node", "id": 2434575160, "lat": -33.7485107, "lon": 150.8801347}, {"type": "node", "id": 2434575161, "lat": -33.7477308, "lon": 150.8802324}, {"type": "node", "id": 2434575162, "lat": -33.7483192, "lon": 150.8797114}, {"type": "node", "id": 2434575164, "lat": -33.7479745, "lon": 150.8806232}, {"type": "node", "id": 2435100350, "lat": -33.679148, "lon": 150.8623442, "tags": {"alt_name": "Kentucky Fried Chicken", "amenity": "fast_food", "brand": "KFC", "brand:wikidata": "Q524757", "brand:wikipedia": "en:KFC", "cuisine": "chicken", "name": "KFC", "takeaway": "yes"}}, {"type": "node", "id": 2435100418, "lat": -33.6790861, "lon": 150.8624718, "tags": {"amenity": "fast_food", "brand": "Subway", "brand:wikidata": "Q244457", "brand:wikipedia": "en:Subway (restaurant)", "cuisine": "sandwich", "name": "Subway", "takeaway": "yes"}}, {"type": "node", "id": 2573959538, "lat": -33.5967455, "lon": 150.7473292, "tags": {"alt_name": "Kentucky Fried Chicken", "amenity": "fast_food", "brand": "KFC", "brand:wikidata": "Q524757", "cuisine": "chicken", "name": "KFC", "takeaway": "yes", "website": "https://www.kfc.com.au/"}}, {"type": "node", "id": 2610663571, "lat": -33.6082672, "lon": 150.7889415, "tags": {"amenity": "fast_food", "brand": "Oporto", "brand:wikidata": "Q4412342", "cuisine": "burger;chicken", "name": "Oporto", "source": "voice", "takeaway": "yes", "website": "https://www.oporto.com.au/"}}, {"type": "node", "id": 2699627861, "lat": -33.6088514, "lon": 150.8197953, "tags": {"amenity": "fast_food", "brand": "Red Rooster", "brand:wikidata": "Q376466", "brand:wikipedia": "en:Red Rooster", "cuisine": "chicken", "name": "Red Rooster", "source": "voice", "takeaway": "yes", "website": "https://www.redrooster.com.au/"}}, {"type": "node", "id": 2786901050, "lat": -33.7296027, "lon": 150.9215315, "tags": {"amenity": "fast_food", "brand": "Red Rooster", "brand:wikidata": "Q376466", "brand:wikipedia": "en:Red Rooster", "cuisine": "chicken", "name": "Red Rooster", "source": "survey", "takeaway": "yes", "website": "https://www.redrooster.com.au/"}}, {"type": "node", "id": 2798176520, "lat": -33.7672861, "lon": 150.9525008, "tags": {"amenity": "fast_food", "brand": "McDonald's", "brand:wikidata": "Q38076", "brand:wikipedia": "en:McDonald's", "cuisine": "burger", "name": "McDonald's", "takeaway": "yes", "website": "https://www.mcdonalds.com.au/"}}, {"type": "node", "id": 2845556050, "lat": -33.7251214, "lon": 150.9391084}, {"type": "node", "id": 2903625001, "lat": -33.6683446, "lon": 150.865767, "tags": {"addr:postcode": "2765", "addr:suburb": "Riverstone", "amenity": "fast_food", "name": "Yellow Corner Store"}}, {"type": "node", "id": 3038989642, "lat": -33.7480785, "lon": 150.7777662, "tags": {"amenity": "fast_food", "brand": "McDonald's", "brand:wikidata": "Q38076", "brand:wikipedia": "en:McDonald's", "cuisine": "burger", "name": "McDonald's", "takeaway": "yes", "website": "https://www.mcdonalds.com.au/"}}, {"type": "node", "id": 3039225244, "lat": -33.7466798, "lon": 150.7424287, "tags": {"alt_name": "Kentucky Fried Chicken", "amenity": "fast_food", "brand": "KFC", "brand:wikidata": "Q524757", "brand:wikipedia": "en:KFC", "cuisine": "chicken", "name": "KFC", "takeaway": "yes"}}, {"type": "node", "id": 3039225306, "lat": -33.7464026, "lon": 150.7395952, "tags": {"amenity": "fast_food", "brand": "Red Rooster", "brand:wikidata": "Q376466", "brand:wikipedia": "en:Red Rooster", "cuisine": "chicken", "name": "Red Rooster", "takeaway": "yes"}}, {"type": "node", "id": 3374304865, "lat": -33.6999716, "lon": 150.9281631}, {"type": "node", "id": 3374304868, "lat": -33.700055, "lon": 150.9279046}, {"type": "node", "id": 3374304876, "lat": -33.6999162, "lon": 150.9278862}, {"type": "node", "id": 3374304888, "lat": -33.6998035, "lon": 150.9280848}, {"type": "node", "id": 3374304889, "lat": -33.6999292, "lon": 150.9278459}, {"type": "node", "id": 3698115550, "lat": -33.7455273, "lon": 150.6901684}, {"type": "node", "id": 3698115551, "lat": -33.7456214, "lon": 150.6904631}, {"type": "node", "id": 3698115552, "lat": -33.7456675, "lon": 150.6901047}, {"type": "node", "id": 3698115553, "lat": -33.7457603, "lon": 150.6903722}, {"type": "node", "id": 3732784511, "lat": -33.5992125, "lon": 150.7527088}, {"type": "node", "id": 3732784513, "lat": -33.5993531, "lon": 150.7526173}, {"type": "node", "id": 3732784514, "lat": -33.5994905, "lon": 150.7528813}, {"type": "node", "id": 3732784515, "lat": -33.599332, "lon": 150.7529969}, {"type": "node", "id": 4057889786, "lat": -33.7399621, "lon": 150.7173376}, {"type": "node", "id": 4057889787, "lat": -33.7399971, "lon": 150.7173302}, {"type": "node", "id": 4057889788, "lat": -33.7399932, "lon": 150.7173035}, {"type": "node", "id": 4057889789, "lat": -33.7400171, "lon": 150.7172985}, {"type": "node", "id": 4057889790, "lat": -33.7400137, "lon": 150.7172752}, {"type": "node", "id": 4057889791, "lat": -33.7401006, "lon": 150.7172569}, {"type": "node", "id": 4057889792, "lat": -33.740097, "lon": 150.7172326}, {"type": "node", "id": 4057889793, "lat": -33.7401497, "lon": 150.7172214}, {"type": "node", "id": 4057889794, "lat": -33.7401556, "lon": 150.7172619}, {"type": "node", "id": 4057889795, "lat": -33.7401806, "lon": 150.717261}, {"type": "node", "id": 4057889796, "lat": -33.7401873, "lon": 150.7172678}, {"type": "node", "id": 4057889797, "lat": -33.7401929, "lon": 150.7172786}, {"type": "node", "id": 4057889799, "lat": -33.7402133, "lon": 150.717446}, {"type": "node", "id": 4057889800, "lat": -33.7401992, "lon": 150.7174589}, {"type": "node", "id": 4057889805, "lat": -33.7399864, "lon": 150.7175039}, {"type": "node", "id": 4057889851, "lat": -33.7402278, "lon": 150.7179775, "tags": {"amenity": "fast_food", "brand": "Subway", "brand:wikidata": "Q244457", "brand:wikipedia": "en:Subway (restaurant)", "cuisine": "sandwich", "delivery": "no", "name": "Subway", "takeaway": "yes"}}, {"type": "node", "id": 4127681508, "lat": -33.7591026, "lon": 150.7209152, "tags": {"addr:housenumber": "178", "addr:street": "Great Western Highway", "amenity": "fast_food", "cuisine": "chicken", "drive_through": "no", "name": "Chicken Man", "opening_hours": "Mo-Su 11:00-21:00", "smoking": "no", "takeaway": "yes"}}, {"type": "node", "id": 4127681509, "lat": -33.7587147, "lon": 150.7194127, "tags": {"addr:city": "Kingswood", "addr:housenumber": "3/194-196", "addr:postcode": "2747", "addr:street": "Great Western Highway", "amenity": "fast_food", "cuisine": "pizza,_Kebab,_Pide", "delivery": "yes", "drive_through": "no", "name": "The Pizza Stop", "phone": "+612 4731 2008", "smoking": "no", "takeaway": "yes"}}, {"type": "node", "id": 4127681790, "lat": -33.7607097, "lon": 150.7205428, "tags": {"amenity": "fast_food", "name": "Nepean Curry in A Hurry"}}, {"type": "node", "id": 4127681794, "lat": -33.7609343, "lon": 150.7205025, "tags": {"amenity": "fast_food", "cuisine": "thai", "drive_through": "no", "name": "Sunset Thai", "smoking": "no", "takeaway": "yes"}}, {"type": "node", "id": 4167625367, "lat": -33.7441422, "lon": 150.9158539}, {"type": "node", "id": 4167625368, "lat": -33.7441251, "lon": 150.9158976}, {"type": "node", "id": 4167625369, "lat": -33.7441476, "lon": 150.9158931}, {"type": "node", "id": 4167625371, "lat": -33.7441794, "lon": 150.916292}, {"type": "node", "id": 4167625373, "lat": -33.7442209, "lon": 150.9158382}, {"type": "node", "id": 4167625374, "lat": -33.7442339, "lon": 150.9158356}, {"type": "node", "id": 4167625376, "lat": -33.7442453, "lon": 150.9159185}, {"type": "node", "id": 4167625377, "lat": -33.7442576, "lon": 150.915916}, {"type": "node", "id": 4167625387, "lat": -33.7442922, "lon": 150.9161675}, {"type": "node", "id": 4167627789, "lat": -33.7443015, "lon": 150.9162676}, {"type": "node", "id": 4167627795, "lat": -33.7443674, "lon": 150.9154922}, {"type": "node", "id": 4167627800, "lat": -33.7443744, "lon": 150.9154912}, {"type": "node", "id": 4167627801, "lat": -33.7443702, "lon": 150.9155111}, {"type": "node", "id": 4167627802, "lat": -33.7443694, "lon": 150.9155804}, {"type": "node", "id": 4167627805, "lat": -33.7443903, "lon": 150.9157044}, {"type": "node", "id": 4167627809, "lat": -33.7444742, "lon": 150.9154713}, {"type": "node", "id": 4167627813, "lat": -33.7444945, "lon": 150.9154674}, {"type": "node", "id": 4254745993, "lat": -33.7333132, "lon": 150.9625142, "tags": {"addr:postcode": "2153", "amenity": "fast_food", "brand": "McDonald's", "brand:wikidata": "Q38076", "brand:wikipedia": "en:McDonald's", "cuisine": "burger", "name": "McDonald's", "takeaway": "yes", "website": "https://www.mcdonalds.com.au/"}}, {"type": "node", "id": 4383579335, "lat": -33.7162403, "lon": 150.8424995}, {"type": "node", "id": 4787752245, "lat": -33.6997629, "lon": 150.9576679, "tags": {"addr:city": "Kellyville", "addr:postcode": "2155", "addr:street": "Samantha Riley Drive", "amenity": "fast_food", "brand": "McDonald's", "brand:wikidata": "Q38076", "brand:wikipedia": "en:McDonald's", "cuisine": "burger", "drive_through": "yes", "name": "McDonald's", "operator": "McDonald's", "smoking": "no", "takeaway": "yes", "wheelchair": "limited"}}, {"type": "node", "id": 4789525266, "lat": -33.7133899, "lon": 150.9719767, "tags": {"amenity": "fast_food", "delivery": "no", "drive_through": "no", "name": "Crown Charcoal Chicken", "outdoor_seating": "yes", "smoking": "no", "takeaway": "yes"}}, {"type": "node", "id": 4789525268, "lat": -33.7131976, "lon": 150.9719098, "tags": {"amenity": "fast_food", "cuisine": "japanese", "delivery": "no", "drive_through": "no", "name": "Kellyville Sushi", "outdoor_seating": "no", "smoking": "no", "takeaway": "only"}}, {"type": "node", "id": 4789534888, "lat": -33.7134339, "lon": 150.9718391, "tags": {"amenity": "fast_food", "brand": "Subway", "brand:wikidata": "Q244457", "brand:wikipedia": "en:Subway (restaurant)", "cuisine": "sandwich", "delivery": "no", "drive_through": "no", "name": "Subway", "outdoor_seating": "yes", "smoking": "no", "takeaway": "yes"}}, {"type": "node", "id": 4789547562, "lat": -33.7131412, "lon": 150.9719032, "tags": {"amenity": "fast_food", "brand": "Donut King", "brand:wikidata": "Q5296921", "cuisine": "donut;coffee_shop", "internet_access": "no", "name": "Donut King", "outdoor_seating": "no", "smoking": "no", "takeaway": "yes"}}, {"type": "node", "id": 4789551419, "lat": -33.7131958, "lon": 150.9725492, "tags": {"amenity": "fast_food", "cuisine": "kebab", "drive_through": "no", "name": "Hills Kebab", "outdoor_seating": "no", "smoking": "no", "takeaway": "yes"}}, {"type": "node", "id": 4797473838, "lat": -33.7250681, "lon": 150.9392668}, {"type": "node", "id": 4797473843, "lat": -33.7251451, "lon": 150.9393042}, {"type": "node", "id": 4797473853, "lat": -33.7251639, "lon": 150.9392482}, {"type": "node", "id": 4797473855, "lat": -33.7252515, "lon": 150.9392908}, {"type": "node", "id": 4797473857, "lat": -33.7252859, "lon": 150.9391883}, {"type": "node", "id": 4873094525, "lat": -33.7163983, "lon": 150.8425045}, {"type": "node", "id": 4873094528, "lat": -33.7163768, "lon": 150.8427461}, {"type": "node", "id": 4873094558, "lat": -33.7161475, "lon": 150.8424775}, {"type": "node", "id": 4873094564, "lat": -33.716114, "lon": 150.8426858}, {"type": "node", "id": 4873094578, "lat": -33.7162453, "lon": 150.8424691}, {"type": "node", "id": 5174209143, "lat": -33.6870843, "lon": 150.9202564, "tags": {"addr:street": "Windsor Road", "alt_name": "Kentucky Fried Chicken", "amenity": "fast_food", "brand": "KFC", "brand:wikidata": "Q524757", "brand:wikipedia": "en:KFC", "cuisine": "chicken", "drive_through": "yes", "name": "KFC", "smoking": "no", "takeaway": "yes"}}, {"type": "node", "id": 5174209157, "lat": -33.6861314, "lon": 150.9516898, "tags": {"amenity": "fast_food", "cuisine": "chicken", "name": "The Chook"}}, {"type": "node", "id": 5331143029, "lat": -33.7685035, "lon": 150.9121092, "tags": {"amenity": "fast_food", "name": "Kebab Express"}}, {"type": "node", "id": 5549461749, "lat": -33.7654288, "lon": 150.8259242, "tags": {"amenity": "fast_food", "brand": "Red Rooster", "brand:wikidata": "Q376466", "brand:wikipedia": "en:Red Rooster", "cuisine": "chicken", "name": "Red Rooster", "takeaway": "yes"}}, {"type": "node", "id": 5549461750, "lat": -33.7652092, "lon": 150.8265092, "tags": {"amenity": "fast_food", "brand": "McDonald's", "brand:wikidata": "Q38076", "brand:wikipedia": "en:McDonald's", "cuisine": "burger", "drive_through": "yes", "name": "McDonald's", "takeaway": "yes"}}, {"type": "node", "id": 5554333031, "lat": -33.7478974, "lon": 150.8804995}, {"type": "node", "id": 6040600558, "lat": -33.7455976, "lon": 150.6903886}, {"type": "node", "id": 6040600559, "lat": -33.745491, "lon": 150.6902195}, {"type": "node", "id": 6040600560, "lat": -33.7455353, "lon": 150.6901977}, {"type": "node", "id": 6040600561, "lat": -33.7456585, "lon": 150.690446}, {"type": "node", "id": 6040600562, "lat": -33.7456656, "lon": 150.6904684}, {"type": "node", "id": 6040600563, "lat": -33.7457606, "lon": 150.6904246}, {"type": "node", "id": 6040600564, "lat": -33.7457004, "lon": 150.6901842}, {"type": "node", "id": 6040600565, "lat": -33.7456938, "lon": 150.6901872}, {"type": "node", "id": 6040601877, "lat": -33.7455646, "lon": 150.6904041}, {"type": "node", "id": 6040601878, "lat": -33.7454999, "lon": 150.690215}, {"type": "node", "id": 6040601893, "lat": -33.7455542, "lon": 150.690409}, {"type": "node", "id": 6040601995, "lat": -33.74571, "lon": 150.6904479}, {"type": "node", "id": 6122570591, "lat": -33.7163857, "lon": 150.8449284}, {"type": "node", "id": 6122570592, "lat": -33.7164885, "lon": 150.8451179}, {"type": "node", "id": 6122570593, "lat": -33.716538, "lon": 150.8449704}, {"type": "node", "id": 6122570594, "lat": -33.716312, "lon": 150.844909}, {"type": "node", "id": 6122570616, "lat": -33.7162893, "lon": 150.8450416}, {"type": "node", "id": 6122570617, "lat": -33.7163614, "lon": 150.8450642}, {"type": "node", "id": 6122570618, "lat": -33.7163578, "lon": 150.8450798}, {"type": "node", "id": 6122570619, "lat": -33.7164964, "lon": 150.8450831}, {"type": "node", "id": 6122570620, "lat": -33.7165144, "lon": 150.8450873}, {"type": "node", "id": 6122570659, "lat": -33.7190794, "lon": 150.8451128}, {"type": "node", "id": 6122570660, "lat": -33.7191809, "lon": 150.8451356}, {"type": "node", "id": 6122570661, "lat": -33.7191447, "lon": 150.8453843}, {"type": "node", "id": 6122570662, "lat": -33.7190398, "lon": 150.8453582}, {"type": "node", "id": 6122570663, "lat": -33.7190549, "lon": 150.8452703}, {"type": "node", "id": 6122570664, "lat": -33.719037, "lon": 150.8452663}, {"type": "node", "id": 6122570665, "lat": -33.7190481, "lon": 150.8452046}, {"type": "node", "id": 6122570666, "lat": -33.7190676, "lon": 150.8452089}, {"type": "node", "id": 6207745336, "lat": -33.7484693, "lon": 150.8801724}, {"type": "node", "id": 6314115480, "lat": -33.7200008, "lon": 150.7099754}, {"type": "node", "id": 6317709047, "lat": -33.7164047, "lon": 150.8425629}, {"type": "node", "id": 6317709048, "lat": -33.7163882, "lon": 150.8425587}, {"type": "node", "id": 6594197527, "lat": -33.5992929, "lon": 150.7529411}, {"type": "node", "id": 6594197528, "lat": -33.5993035, "lon": 150.7529347}, {"type": "node", "id": 6594197529, "lat": -33.5993074, "lon": 150.7529435}, {"type": "node", "id": 6594197530, "lat": -33.599299, "lon": 150.7529492}, {"type": "node", "id": 6594197531, "lat": -33.5992074, "lon": 150.7527916}, {"type": "node", "id": 6594197532, "lat": -33.599237, "lon": 150.7528559}, {"type": "node", "id": 6594241399, "lat": -33.5992493, "lon": 150.7528476}, {"type": "node", "id": 6594241400, "lat": -33.5994306, "lon": 150.7527684}, {"type": "node", "id": 6594241401, "lat": -33.5993742, "lon": 150.752664}, {"type": "node", "id": 6594241402, "lat": -33.5994372, "lon": 150.7527644}, {"type": "node", "id": 6594241403, "lat": -33.5993805, "lon": 150.7526601}, {"type": "node", "id": 6594241404, "lat": -33.5993199, "lon": 150.7529937}, {"type": "node", "id": 6645796171, "lat": -33.7685266, "lon": 150.906999, "tags": {"amenity": "fast_food", "brand": "McDonald's", "brand:wikidata": "Q38076", "brand:wikipedia": "en:McDonald's", "cuisine": "burger", "name": "McDonald's", "takeaway": "yes"}}, {"type": "node", "id": 7174219098, "lat": -33.7430454, "lon": 150.6553231}, {"type": "node", "id": 7174219099, "lat": -33.7430895, "lon": 150.6553237}, {"type": "node", "id": 7174219100, "lat": -33.7430947, "lon": 150.6553288}, {"type": "node", "id": 7174219101, "lat": -33.7432026, "lon": 150.6553302}, {"type": "node", "id": 7174219102, "lat": -33.7432021, "lon": 150.6553865}, {"type": "node", "id": 7174219103, "lat": -33.7432151, "lon": 150.6553867}, {"type": "node", "id": 7174219104, "lat": -33.7432127, "lon": 150.655652}, {"type": "node", "id": 7174219105, "lat": -33.743179, "lon": 150.6556516}, {"type": "node", "id": 7174219106, "lat": -33.7431795, "lon": 150.655593}, {"type": "node", "id": 7174219107, "lat": -33.7430465, "lon": 150.6555912}, {"type": "node", "id": 7174219108, "lat": -33.7430466, "lon": 150.6555816}, {"type": "node", "id": 7174219109, "lat": -33.7430331, "lon": 150.6555814}, {"type": "node", "id": 7174219110, "lat": -33.7430335, "lon": 150.6555475}, {"type": "node", "id": 7174219111, "lat": -33.7430515, "lon": 150.6555477}, {"type": "node", "id": 7174219112, "lat": -33.7430521, "lon": 150.6554826}, {"type": "node", "id": 7174219113, "lat": -33.7430606, "lon": 150.6554827}, {"type": "node", "id": 7174219114, "lat": -33.7430613, "lon": 150.6554215}, {"type": "node", "id": 7174219115, "lat": -33.7430693, "lon": 150.6554217}, {"type": "node", "id": 7174219116, "lat": -33.7430698, "lon": 150.6553768}, {"type": "node", "id": 7174219117, "lat": -33.7430448, "lon": 150.6553764}, {"type": "node", "id": 7174219165, "lat": -33.7436408, "lon": 150.6553159}, {"type": "node", "id": 7174219166, "lat": -33.7437226, "lon": 150.6553173}, {"type": "node", "id": 7174219167, "lat": -33.7437224, "lon": 150.6553304}, {"type": "node", "id": 7174219168, "lat": -33.7437661, "lon": 150.6553311}, {"type": "node", "id": 7174219169, "lat": -33.7437642, "lon": 150.6554963}, {"type": "node", "id": 7174219170, "lat": -33.7437367, "lon": 150.6554958}, {"type": "node", "id": 7174219171, "lat": -33.7437362, "lon": 150.6555318}, {"type": "node", "id": 7174219172, "lat": -33.7436771, "lon": 150.6555309}, {"type": "node", "id": 7174219173, "lat": -33.7436775, "lon": 150.6554931}, {"type": "node", "id": 7174219174, "lat": -33.7436507, "lon": 150.6554927}, {"type": "node", "id": 7174219175, "lat": -33.7436513, "lon": 150.655438}, {"type": "node", "id": 7174219176, "lat": -33.7436394, "lon": 150.6554378}, {"type": "node", "id": 7174219207, "lat": -33.7441286, "lon": 150.6552481}, {"type": "node", "id": 7174219208, "lat": -33.7441238, "lon": 150.6554893}, {"type": "node", "id": 7174219209, "lat": -33.7443269, "lon": 150.6554952}, {"type": "node", "id": 7174219210, "lat": -33.7443337, "lon": 150.6551594}, {"type": "node", "id": 7174219211, "lat": -33.7442628, "lon": 150.6551573}, {"type": "node", "id": 7174219212, "lat": -33.7442609, "lon": 150.655252}, {"type": "node", "id": 7174219319, "lat": -33.743364, "lon": 150.6546208, "tags": {"amenity": "fast_food", "brand": "Subway", "brand:wikidata": "Q244457", "brand:wikipedia": "en:Subway (restaurant)", "cuisine": "sandwich", "name": "Subway", "takeaway": "yes"}}, {"type": "node", "id": 7176945849, "lat": -33.7529963, "lon": 150.6571289, "tags": {"amenity": "fast_food", "cuisine": "pizza", "drive_through": "no", "name": "Natino's Pizzaria", "opening_hours": "Mo-Su 11:00-21:30", "website": "https://natinos.com.au"}}, {"type": "node", "id": 7176946450, "lat": -33.7516681, "lon": 150.693843, "tags": {"amenity": "fast_food", "brand": "Grill'd", "brand:wikidata": "Q18165852", "brand:wikipedia": "en:Grill'd", "cuisine": "burger", "name": "Grill'd", "takeaway": "yes"}}, {"type": "node", "id": 7178732238, "lat": -33.7532966, "lon": 150.6954553, "tags": {"addr:housenumber": "492", "addr:street": "High Street", "amenity": "fast_food", "cuisine": "burger", "drive_through": "no", "name": "Beefy's Burger Bar", "website": "Beefy's Burger Bar"}}, {"type": "node", "id": 7185292350, "lat": -33.7539487, "lon": 150.6996543, "tags": {"addr:housenumber": "363", "addr:postcode": "2750", "addr:state": "NSW", "addr:street": "High Street", "addr:suburb": "Penrith", "amenity": "fast_food", "cuisine": "pizza;kebab", "drive_through": "no", "name": "Panthers Pizza & Kebabs", "phone": "+61 2 4732 1767", "website": "https://pantherspizza.com.au"}}, {"type": "node", "id": 7185292365, "lat": -33.7535832, "lon": 150.6979184, "tags": {"addr:housenumber": "425", "addr:postcode": "2750", "addr:state": "NSW", "addr:street": "High Street", "addr:suburb": "Penrith", "amenity": "fast_food", "brand": "Crust", "brand:wikidata": "Q100792715", "cuisine": "pizza", "name": "Crust", "official_name": "Crust Gourmet Pizza Bar", "phone": "+61 2 4722 9609", "takeaway": "yes", "website": "https://crust.com.au"}}, {"type": "node", "id": 7185312290, "lat": -33.7539852, "lon": 150.6986491, "tags": {"addr:housenumber": "372", "addr:street": "High Street", "amenity": "fast_food", "cuisine": "kebab", "drive_through": "no", "name": "King of Kebabs", "website": "https://king-of-kebabs.com.au"}}, {"type": "node", "id": 7213420056, "lat": -33.7571374, "lon": 150.6844932}, {"type": "node", "id": 7213420057, "lat": -33.7571502, "lon": 150.6845253}, {"type": "node", "id": 7213420058, "lat": -33.7570917, "lon": 150.6845588}, {"type": "node", "id": 7213420059, "lat": -33.757079, "lon": 150.6845267}, {"type": "node", "id": 7221980996, "lat": -33.7584397, "lon": 150.7182415, "tags": {"amenity": "fast_food", "name": "Kingswood Fish & Chook Takeaway"}}, {"type": "node", "id": 7305079522, "lat": -33.5823187, "lon": 150.7216095, "tags": {"amenity": "fast_food", "brand": "Subway", "brand:wikidata": "Q244457", "brand:wikipedia": "en:Subway (restaurant)", "cuisine": "sandwich", "name": "Subway", "takeaway": "yes"}}, {"type": "node", "id": 7305079523, "lat": -33.5822304, "lon": 150.7215173, "tags": {"amenity": "fast_food", "brand": "Domino's", "brand:wikidata": "Q839466", "brand:wikipedia": "en:Domino's Pizza", "cuisine": "pizza", "name": "Domino's", "takeaway": "yes"}}, {"type": "node", "id": 7305079524, "lat": -33.5821385, "lon": 150.7214198, "tags": {"amenity": "fast_food", "cuisine": "burger;pizza;kebab", "name": "Mr Grill and Kebab"}}, {"type": "node", "id": 7416146939, "lat": -33.7667397, "lon": 150.9546596, "tags": {"amenity": "fast_food", "brand": "Red Rooster", "brand:wikidata": "Q376466", "brand:wikipedia": "en:Red Rooster", "cuisine": "chicken", "name": "Red Rooster", "takeaway": "yes"}}, {"type": "node", "id": 7416146941, "lat": -33.7667397, "lon": 150.9553914, "tags": {"amenity": "fast_food", "brand": "Hungry Jacks", "brand:wikidata": "Q3036373", "brand:wikipedia": "en:Hungry Jack's", "cuisine": "burger", "name": "Hungry Jacks", "takeaway": "yes"}}, {"type": "node", "id": 7416147008, "lat": -33.744366, "lon": 150.9155468}, {"type": "node", "id": 7416147009, "lat": -33.744375, "lon": 150.9155455}, {"type": "node", "id": 7416147036, "lat": -33.7373148, "lon": 150.8531115, "tags": {"amenity": "fast_food", "brand": "Hungry Jacks", "brand:wikidata": "Q3036373", "brand:wikipedia": "en:Hungry Jack's", "cuisine": "burger", "name": "Hungry Jacks", "takeaway": "yes"}}, {"type": "node", "id": 7416147091, "lat": -33.7356928, "lon": 150.851188, "tags": {"amenity": "fast_food", "brand": "Subway", "brand:wikidata": "Q244457", "brand:wikipedia": "en:Subway (restaurant)", "cuisine": "sandwich", "name": "Subway", "takeaway": "yes"}}, {"type": "node", "id": 7416147092, "lat": -33.7360683, "lon": 150.8516993, "tags": {"amenity": "fast_food", "brand": "Red Rooster", "brand:wikidata": "Q376466", "brand:wikipedia": "en:Red Rooster", "cuisine": "chicken", "name": "Red Rooster", "takeaway": "yes"}}, {"type": "node", "id": 8380905184, "lat": -33.7487791, "lon": 150.8796289, "tags": {"amenity": "fast_food", "brand": "Subway", "brand:wikidata": "Q244457", "brand:wikipedia": "en:Subway (restaurant)", "cuisine": "sandwich", "name": "Subway", "takeaway": "yes"}}, {"type": "node", "id": 8556619292, "lat": -33.7663813, "lon": 150.8192906, "tags": {"amenity": "fast_food", "brand": "McDonald's", "brand:wikidata": "Q38076", "brand:wikipedia": "en:McDonald's", "cuisine": "burger", "name": "McDonald's", "takeaway": "yes"}}, {"type": "node", "id": 8556619293, "lat": -33.7663424, "lon": 150.8193831, "tags": {"amenity": "fast_food", "brand": "Oporto", "brand:wikidata": "Q4412342", "brand:wikipedia": "en:Oporto (restaurant)", "cuisine": "burger;chicken", "name": "Oporto", "takeaway": "yes"}}, {"type": "node", "id": 8606805276, "lat": -33.6995697, "lon": 150.957591}, {"type": "node", "id": 8606805277, "lat": -33.6995203, "lon": 150.9577535}, {"type": "node", "id": 8606805278, "lat": -33.6997773, "lon": 150.9578683}, {"type": "node", "id": 8606805279, "lat": -33.699826, "lon": 150.9576965}, {"type": "node", "id": 8628508648, "lat": -33.7383356, "lon": 150.9493439}, {"type": "node", "id": 8628508649, "lat": -33.738522, "lon": 150.9491058}, {"type": "node", "id": 8628508650, "lat": -33.7386434, "lon": 150.9492434}, {"type": "node", "id": 8628508651, "lat": -33.738457, "lon": 150.9494814}, {"type": "node", "id": 8689923010, "lat": -33.7535499, "lon": 150.8880672, "tags": {"amenity": "fast_food", "cuisine": "fish_and_chips;burger"}}, {"type": "node", "id": 8695632779, "lat": -33.640678, "lon": 150.786036}, {"type": "node", "id": 8695632780, "lat": -33.6407308, "lon": 150.7861323}, {"type": "node", "id": 8695632781, "lat": -33.640852, "lon": 150.7860172}, {"type": "node", "id": 8695632782, "lat": -33.6408754, "lon": 150.7860478}, {"type": "node", "id": 8695632783, "lat": -33.6409009, "lon": 150.7860196}, {"type": "node", "id": 8695632784, "lat": -33.6408559, "lon": 150.7859726}, {"type": "node", "id": 8695632785, "lat": -33.6408774, "lon": 150.7859351}, {"type": "node", "id": 8695632786, "lat": -33.6408442, "lon": 150.7858998}, {"type": "node", "id": 8695632787, "lat": -33.6408188, "lon": 150.7859069}, {"type": "node", "id": 8695632788, "lat": -33.6407777, "lon": 150.785867}, {"type": "node", "id": 8695632789, "lat": -33.6407386, "lon": 150.7859163}, {"type": "node", "id": 8695632790, "lat": -33.6407425, "lon": 150.7859374}, {"type": "node", "id": 8695632791, "lat": -33.6407132, "lon": 150.7859632}, {"type": "node", "id": 8695632792, "lat": -33.6407034, "lon": 150.7859492}, {"type": "node", "id": 8695632793, "lat": -33.640659, "lon": 150.7859864}, {"type": "node", "id": 8695632794, "lat": -33.6410472, "lon": 150.7863096}, {"type": "node", "id": 8695632795, "lat": -33.6409788, "lon": 150.7862009}, {"type": "node", "id": 8695632796, "lat": -33.6411276, "lon": 150.7860619}, {"type": "node", "id": 8695632797, "lat": -33.6411999, "lon": 150.7861675}, {"type": "node", "id": 8695632839, "lat": -33.6409236, "lon": 150.7862497}, {"type": "node", "id": 8695632840, "lat": -33.6409908, "lon": 150.7863594}, {"type": "node", "id": 8748534277, "lat": -33.7451997, "lon": 150.6917572}, {"type": "node", "id": 8748534278, "lat": -33.7452639, "lon": 150.6917378}, {"type": "node", "id": 8748534279, "lat": -33.7452719, "lon": 150.6917211}, {"type": "node", "id": 8748534280, "lat": -33.7452969, "lon": 150.6917385}, {"type": "node", "id": 8748534281, "lat": -33.7452894, "lon": 150.691754}, {"type": "node", "id": 8748534282, "lat": -33.7453009, "lon": 150.691809}, {"type": "node", "id": 8748534283, "lat": -33.7452903, "lon": 150.6918121}, {"type": "node", "id": 8748534284, "lat": -33.7453003, "lon": 150.6918598}, {"type": "node", "id": 8748534285, "lat": -33.7453089, "lon": 150.6918572}, {"type": "node", "id": 8748534286, "lat": -33.7453239, "lon": 150.6919292}, {"type": "node", "id": 8748534287, "lat": -33.7452407, "lon": 150.6919543}, {"type": "node", "id": 8838437698, "lat": -33.7197118, "lon": 150.840987, "tags": {"amenity": "fast_food", "cuisine": "chicken", "name": "Paradise Charcoal Chicken"}}, {"type": "node", "id": 8838437700, "lat": -33.7198594, "lon": 150.8409844, "tags": {"amenity": "fast_food", "brand": "Pizza Hut", "brand:wikidata": "Q191615", "brand:wikipedia": "en:Pizza Hut", "cuisine": "pizza", "name": "Pizza Hut Express", "takeaway": "yes"}}, {"type": "node", "id": 8838437701, "lat": -33.7197044, "lon": 150.8408572, "tags": {"amenity": "fast_food", "cuisine": "burger", "name": "Burger Point"}}, {"type": "node", "id": 8909270077, "lat": -33.7465251, "lon": 150.7415184, "tags": {"addr:housenumber": "11", "addr:postcode": "2747", "addr:state": "NSW", "addr:street": "Dunheved Road", "addr:suburb": "Werrington County", "addr:unit": "Shop 6A", "amenity": "fast_food", "cuisine": "pizza", "drive_through": "no", "name": "Chris' Pizzeria", "opening_hours": "Mo-Su 16:00-21:30", "phone": "+61 2 8678 5757", "website": "https://www.chrispizzeria.com.au/"}}, {"type": "node", "id": 8909270083, "lat": -33.7464609, "lon": 150.7398877, "tags": {"addr:housenumber": "21", "addr:postcode": "2747", "addr:state": "NSW", "addr:street": "Lavin Crescent", "addr:suburb": "Werrington County", "addr:unit": "4", "amenity": "fast_food", "cuisine": "pizza", "drive_through": "no", "name": "Yumm Gourmet Pizza Kitchen", "opening_hours": "Mo 16:00-21:00; Tu-We 16:00-21:30; Th-Sa 11:00-22:00; Su 11:00-21:30", "phone": "+61 2 9623 3244"}}, {"type": "node", "id": 8911213260, "lat": -33.7581302, "lon": 150.7570835, "tags": {"addr:housenumber": "82", "addr:postcode": "2747", "addr:state": "NSW", "addr:street": "Victoria Street", "addr:suburb": "Werrington", "addr:unit": "Shop 4", "amenity": "fast_food", "cuisine": "fish_and_chips;coffee_shop;burger", "drive_through": "no", "name": "Latitude's Take Away & Cafe"}}, {"type": "node", "id": 8919249286, "lat": -33.7402065, "lon": 150.7174541}, {"type": "node", "id": 8919249287, "lat": -33.7401714, "lon": 150.7172586}, {"type": "node", "id": 8919249288, "lat": -33.7402165, "lon": 150.7174362}, {"type": "node", "id": 8919249289, "lat": -33.7400987, "lon": 150.7174801}, {"type": "node", "id": 8919249292, "lat": -33.7401302, "lon": 150.7174735}, {"type": "node", "id": 8919249307, "lat": -33.7399663, "lon": 150.7173661}, {"type": "node", "id": 8919249309, "lat": -33.7399709, "lon": 150.7173978}, {"type": "node", "id": 8919249310, "lat": -33.7399757, "lon": 150.7174307}, {"type": "node", "id": 8921329576, "lat": -33.7573008, "lon": 150.753498, "tags": {"addr:housenumber": "105", "addr:postcode": "2747", "addr:state": "NSW", "addr:street": "Victoria Street", "addr:suburb": "Werrington", "addr:unit": "3", "amenity": "fast_food", "drive_through": "no", "name": "Georges Charcoal Chicken", "opening_hours": "Mo-We, Su 08:00-19:30; Th-Sa 08:00-20:00", "phone": "+61 2 9673 3741"}}, {"type": "node", "id": 8930549386, "lat": -33.7487958, "lon": 150.8239875, "tags": {"addr:housenumber": "16", "addr:street": "Welwyn Road", "addr:unit": "4", "amenity": "fast_food", "name": "Hebersham Take Away", "phone": "+61 2 8605 3110", "takeaway": "yes"}}, {"type": "node", "id": 8931654975, "lat": -33.7477223, "lon": 150.7208389, "tags": {"addr:housenumber": "128", "addr:unit": "3", "amenity": "fast_food", "brand": "Domino's", "brand:wikidata": "Q839466", "brand:wikipedia": "en:Domino's Pizza", "cuisine": "pizza", "name": "Domino's", "phone": "+61 2 4777 9120", "takeaway": "yes", "website": "https://www.dominos.com.au/store/nsw-cambridge-park-98393"}}, {"type": "node", "id": 8931654977, "lat": -33.7477667, "lon": 150.7211954, "tags": {"amenity": "fast_food", "cuisine": "burger", "name": "Buzzy Bee's Burger House", "phone": "+61 2 4731 3369"}}, {"type": "node", "id": 8931654978, "lat": -33.7477813, "lon": 150.7212974, "tags": {"addr:housenumber": "114", "amenity": "fast_food", "cuisine": "burger", "facebook": "https://www.facebook.com/homerscp/", "name": "Homers Cambridge Park", "phone": "+61 2 4707 5878"}}, {"type": "node", "id": 8931654980, "lat": -33.7477459, "lon": 150.7209653, "tags": {"addr:housenumber": "124", "amenity": "fast_food", "cuisine": "chicken", "name": "Charcoal Chicken Cambridge Park", "phone": "+61 2 4731 2576"}}, {"type": "node", "id": 8940168042, "lat": -33.7308076, "lon": 150.702918}, {"type": "node", "id": 8940168043, "lat": -33.7309151, "lon": 150.7028958}, {"type": "node", "id": 8940168044, "lat": -33.7309719, "lon": 150.7032934}, {"type": "node", "id": 8940168045, "lat": -33.7308631, "lon": 150.7033159}, {"type": "node", "id": 8940168046, "lat": -33.730862, "lon": 150.7032266}, {"type": "node", "id": 8940168047, "lat": -33.7308863, "lon": 150.7032216}, {"type": "node", "id": 8940168048, "lat": -33.7308767, "lon": 150.7031539}, {"type": "node", "id": 8940168049, "lat": -33.7308412, "lon": 150.7031613}, {"type": "node", "id": 8940168050, "lat": -33.730818, "lon": 150.7029986}, {"type": "node", "id": 8940168051, "lat": -33.7308092, "lon": 150.7030005}, {"type": "node", "id": 8940168052, "lat": -33.7308043, "lon": 150.7029658}, {"type": "node", "id": 8940168053, "lat": -33.7308142, "lon": 150.7029638}, {"type": "node", "id": 8940168054, "lat": -33.7308673, "lon": 150.7032641}, {"type": "node", "id": 8940168055, "lat": -33.730856, "lon": 150.7032664}, {"type": "node", "id": 9046869427, "lat": -33.6893145, "lon": 150.7267316}, {"type": "node", "id": 9046869428, "lat": -33.6895998, "lon": 150.7267981}, {"type": "node", "id": 9046869429, "lat": -33.6895233, "lon": 150.7272719}, {"type": "node", "id": 9046869430, "lat": -33.6895009, "lon": 150.7272667}, {"type": "node", "id": 9046869431, "lat": -33.6894904, "lon": 150.7273317}, {"type": "node", "id": 9046869432, "lat": -33.6894862, "lon": 150.7273307}, {"type": "node", "id": 9046869433, "lat": -33.6894705, "lon": 150.7274278}, {"type": "node", "id": 9046869434, "lat": -33.6892376, "lon": 150.7273736}, {"type": "node", "id": 9046869435, "lat": -33.6892404, "lon": 150.7273565}, {"type": "node", "id": 9046869436, "lat": -33.6892146, "lon": 150.7273505}, {"type": "node", "id": 9046869437, "lat": -33.6895826, "lon": 150.7269045}, {"type": "node", "id": 9046869443, "lat": -33.6892298, "lon": 150.727354}, {"type": "node", "id": 9095791797, "lat": -33.7598372, "lon": 150.6839652, "tags": {"addr:housenumber": "123", "addr:postcode": "2750", "addr:state": "NSW", "addr:street": "Mulgoa Road", "addr:suburb": "Penrith", "amenity": "fast_food", "brand": "Five Guys", "brand:wikidata": "Q1131810", "brand:wikipedia": "en:Five Guys", "cuisine": "burger", "drive_through": "no", "name": "Five Guys", "official_name": "Five Guys Burgers and Fries", "opening_hours": "Mo-Su 10:00-23:00", "start_date": "2021-09-20", "takeaway": "yes", "website": "https://www.fiveguys.com.au/"}}, {"type": "node", "id": 9279553443, "lat": -33.6951929, "lon": 150.8198086, "tags": {"amenity": "fast_food", "brand": "Subway", "brand:wikidata": "Q244457", "brand:wikipedia": "en:Subway (restaurant)", "cuisine": "sandwich", "name": "Subway", "takeaway": "yes"}}, {"type": "node", "id": 9295247731, "lat": -33.7049884, "lon": 150.8747257, "tags": {"amenity": "fast_food", "brand": "Oporto", "brand:wikidata": "Q4412342", "brand:wikipedia": "en:Oporto (restaurant)", "cuisine": "burger;chicken", "name": "Oporto", "takeaway": "yes"}}, {"type": "node", "id": 9297740921, "lat": -33.7057937, "lon": 150.8749004}, {"type": "node", "id": 9297740922, "lat": -33.7057601, "lon": 150.8750922}, {"type": "node", "id": 9297740923, "lat": -33.7061613, "lon": 150.8751963}, {"type": "node", "id": 9297740924, "lat": -33.7061965, "lon": 150.8750009}, {"type": "node", "id": 9318680818, "lat": -33.7574553, "lon": 150.6923309, "tags": {"amenity": "fast_food", "cuisine": "sandwich", "name": "Monterey Sandwich Bar"}}, {"type": "node", "id": 9318680819, "lat": -33.7574156, "lon": 150.6922801, "tags": {"amenity": "fast_food", "brand": "Subway", "brand:wikidata": "Q244457", "brand:wikipedia": "en:Subway (restaurant)", "cuisine": "sandwich", "name": "Subway", "takeaway": "yes"}}, {"type": "node", "id": 9318713128, "lat": -33.7529676, "lon": 150.6951995, "tags": {"addr:housenumber": "513-519", "addr:postcode": "2750", "addr:state": "NSW", "addr:street": "High Street", "addr:suburb": "Penrith", "addr:unit": "1A", "amenity": "fast_food", "brand": "Subway", "brand:wikidata": "Q244457", "brand:wikipedia": "en:Subway (restaurant)", "cuisine": "sandwich", "name": "Subway", "phone": "+61 2 4708 0382", "takeaway": "yes"}}, {"type": "node", "id": 9331650620, "lat": -33.7533912, "lon": 150.6971047, "tags": {"addr:housenumber": "449", "addr:postcode": "2750", "addr:state": "NSW", "addr:street": "High Street", "addr:suburb": "Penrith", "amenity": "fast_food", "cuisine": "pizza;kebab", "name": "Nepean Pizza & Charcoals", "phone": "+61 2 4721 2037", "website": "https://nepeanpizzakebabsandcharcoals.com.au/"}}, {"type": "node", "id": 9331650631, "lat": -33.7536093, "lon": 150.698049, "tags": {"addr:housenumber": "421", "addr:postcode": "2750", "addr:state": "NSW", "addr:street": "High Street", "addr:suburb": "Penrith", "amenity": "fast_food", "cuisine": "chicken", "name": "Broaster Chicken", "phone": "+61 451 333 131", "website": "https://www.broasterchickenpenrith.com.au/"}}, {"type": "node", "id": 9350045460, "lat": -33.7525777, "lon": 150.6982305, "tags": {"amenity": "fast_food", "cuisine": "greek", "name": "House of GRK", "phone": "+61 2 4704 8634"}}, {"type": "node", "id": 9350045467, "lat": -33.7527325, "lon": 150.6980673, "tags": {"addr:housenumber": "98", "addr:postcode": "2750", "addr:state": "NSW", "addr:street": "Henry Street", "addr:suburb": "Penrith", "addr:unit": "17", "amenity": "fast_food", "cuisine": "burger", "name": "Burger Head", "website": "https://www.theburgerhead.com.au/"}}, {"type": "node", "id": 9350045469, "lat": -33.7528365, "lon": 150.698302, "tags": {"amenity": "fast_food", "cuisine": "pizza", "name": "Certified Pizza Bar", "phone": "+61 2 4722 9619"}}, {"type": "node", "id": 9351509108, "lat": -33.7509175, "lon": 150.6910534, "tags": {"amenity": "fast_food", "cuisine": "kebab", "name": "Kebab Station"}}, {"type": "node", "id": 9364661982, "lat": -33.7643969, "lon": 150.7742491, "tags": {"amenity": "fast_food", "cuisine": "fish_and_chips", "name": "St Marys Fish Market"}}, {"type": "node", "id": 9365266953, "lat": -33.7658132, "lon": 150.7743905, "tags": {"amenity": "fast_food", "name": "Jaster's Takeaway"}}, {"type": "node", "id": 9449550036, "lat": -33.7402072, "lon": 150.7173743}, {"type": "node", "id": 9491812899, "lat": -33.7431599, "lon": 150.8084649}, {"type": "node", "id": 9491812900, "lat": -33.7431946, "lon": 150.8084628}, {"type": "node", "id": 9491812901, "lat": -33.7431951, "lon": 150.8084745}, {"type": "node", "id": 9491812902, "lat": -33.7432778, "lon": 150.8084696}, {"type": "node", "id": 9491812903, "lat": -33.7432834, "lon": 150.8086055}, {"type": "node", "id": 9491812904, "lat": -33.7432941, "lon": 150.8086049}, {"type": "node", "id": 9491812905, "lat": -33.7432959, "lon": 150.8086482}, {"type": "node", "id": 9491812906, "lat": -33.7432021, "lon": 150.8086538}, {"type": "node", "id": 9491812907, "lat": -33.7432008, "lon": 150.8086214}, {"type": "node", "id": 9491812908, "lat": -33.7431489, "lon": 150.8086245}, {"type": "node", "id": 9491812909, "lat": -33.7431469, "lon": 150.8085759}, {"type": "node", "id": 9491812910, "lat": -33.7431312, "lon": 150.8085769}, {"type": "node", "id": 9491812911, "lat": -33.7431272, "lon": 150.8084812}, {"type": "node", "id": 9491812912, "lat": -33.7431432, "lon": 150.8084803}, {"type": "node", "id": 9491812913, "lat": -33.7431434, "lon": 150.8084837}, {"type": "node", "id": 9491812914, "lat": -33.7431607, "lon": 150.8084827}, {"type": "node", "id": 9491812915, "lat": -33.7432785, "lon": 150.808482}, {"type": "node", "id": 9491812918, "lat": -33.7432942, "lon": 150.8086074}, {"type": "node", "id": 9491812921, "lat": -33.7432484, "lon": 150.8084713}, {"type": "node", "id": 9491812922, "lat": -33.7432028, "lon": 150.808474}, {"type": "node", "id": 9491813161, "lat": -33.7436077, "lon": 150.8091676, "tags": {"addr:housenumber": "40", "addr:street": "Jersey Road", "addr:unit": "4", "amenity": "fast_food", "cuisine": "chicken", "name": "Sydney's Charcoal Chicken", "phone": "+61 2 8630 3228", "website": "https://sydneyscc.com.au/"}}, {"type": "node", "id": 9491813169, "lat": -33.7440386, "lon": 150.8093868, "tags": {"addr:housenumber": "40", "addr:street": "Jersey Road", "addr:unit": "11", "amenity": "fast_food", "cuisine": "sushi", "name": "Sushi Culture", "opening_hours": "Mo-Su 11:00-19:00", "phone": "+61 2 9628 4457"}}, {"type": "node", "id": 9492200626, "lat": -33.7455057, "lon": 150.8355099, "tags": {"amenity": "fast_food", "brand": "Zambrero", "brand:wikidata": "Q18636431", "brand:wikipedia": "en:Zambrero", "cuisine": "mexican", "name": "Zambrero", "takeaway": "yes"}}, {"type": "node", "id": 9497314725, "lat": -33.6347595, "lon": 150.7897014, "tags": {"amenity": "fast_food", "cuisine": "burger", "facebook": "https://www.facebook.com/official.tastify", "name": "Tastify Bligh Park", "opening_hours": "Mo-Sa 08:00-20:00; Su 08:00-19:00", "phone:AU": "1800 827 8439", "website": "https://tastify.com.au/"}}, {"type": "node", "id": 9518542879, "lat": -33.7582442, "lon": 150.7570972, "tags": {"amenity": "fast_food", "cuisine": "pub", "name": "Gardenside Cafe"}}, {"type": "node", "id": 9619978470, "lat": -33.7652129, "lon": 150.8270333, "tags": {"addr:housenumber": "20", "addr:postcode": "2770", "addr:state": "NSW", "addr:street": "Zoe Place", "addr:suburb": "Mount Druitt", "addr:unit": "1C", "amenity": "fast_food", "cuisine": "burger", "drive_through": "no", "name": "Flipp Burgers", "website": "https://flippburgers.com/"}}, {"type": "node", "id": 9619978474, "lat": -33.7660075, "lon": 150.8239475, "tags": {"amenity": "fast_food", "cuisine": "chicken", "name": "Yummy Charcoal Chicken"}}, {"type": "node", "id": 9619978478, "lat": -33.7666656, "lon": 150.8193932, "tags": {"alt_name": "Kentucky Fried Chicken", "amenity": "fast_food", "brand": "KFC", "brand:wikidata": "Q524757", "brand:wikipedia": "en:KFC", "cuisine": "chicken", "name": "KFC", "takeaway": "yes"}}, {"type": "node", "id": 9619978482, "lat": -33.7662887, "lon": 150.819471, "tags": {"amenity": "fast_food", "cuisine": "sandwich", "name": "Cobb & Co"}}, {"type": "node", "id": 9619978493, "lat": -33.7662038, "lon": 150.8208353, "tags": {"amenity": "fast_food", "cuisine": "sandwich;vietnamese", "name": "Xcel Roll"}}, {"type": "node", "id": 9776417885, "lat": -33.7273122, "lon": 150.7246995, "tags": {"addr:housenumber": "61-63", "addr:street": "Water Gum Drive", "amenity": "fast_food", "brand": "Subway", "brand:wikidata": "Q244457", "cuisine": "sandwich", "drive_through": "no", "name": "Subway", "phone": "+61 2 4729 3756", "takeaway": "yes"}}, {"type": "node", "id": 9973802001, "lat": -33.7162413, "lon": 150.8424934}, {"type": "node", "id": 9973802002, "lat": -33.7163933, "lon": 150.8425313}, {"type": "node", "id": 10046981672, "lat": -33.625561, "lon": 150.8376128}, {"type": "node", "id": 10046981673, "lat": -33.6255276, "lon": 150.8376746}, {"type": "node", "id": 10046981674, "lat": -33.6256273, "lon": 150.8378904}, {"type": "node", "id": 10046981675, "lat": -33.6255565, "lon": 150.8378511}, {"type": "node", "id": 10046981684, "lat": -33.6255975, "lon": 150.8375674}, {"type": "node", "id": 10046981685, "lat": -33.6255417, "lon": 150.8376021}, {"type": "node", "id": 10046981691, "lat": -33.6257068, "lon": 150.8376283}, {"type": "node", "id": 10046981692, "lat": -33.6255166, "lon": 150.8376684}, {"type": "node", "id": 10046981709, "lat": -33.6252358, "lon": 150.8376432}, {"type": "node", "id": 10046981710, "lat": -33.6252034, "lon": 150.8377272}, {"type": "node", "id": 10046981711, "lat": -33.6251646, "lon": 150.8377438}, {"type": "node", "id": 10046981712, "lat": -33.6250697, "lon": 150.8376904}, {"type": "node", "id": 10046981713, "lat": -33.6251012, "lon": 150.8377085}, {"type": "node", "id": 10046981714, "lat": -33.6250572, "lon": 150.8377229}, {"type": "node", "id": 10046981715, "lat": -33.6250889, "lon": 150.8377405}, {"type": "node", "id": 10046981716, "lat": -33.6252067, "lon": 150.8377372}, {"type": "node", "id": 10046985017, "lat": -33.6251686, "lon": 150.8377557}, {"type": "node", "id": 10046985018, "lat": -33.6250242, "lon": 150.8376446}, {"type": "node", "id": 10097933256, "lat": -33.7455716, "lon": 150.6904008}, {"type": "node", "id": 10097933257, "lat": -33.7455098, "lon": 150.6902102}, {"type": "node", "id": 10180461500, "lat": -33.7200315, "lon": 150.7103721}, {"type": "node", "id": 10180526448, "lat": -33.720043, "lon": 150.7104629}, {"type": "node", "id": 10180526450, "lat": -33.7200837, "lon": 150.7104219}, {"type": "node", "id": 10180526451, "lat": -33.7200534, "lon": 150.7099966}, {"type": "node", "id": 10180526453, "lat": -33.7200973, "lon": 150.7103593}, {"type": "node", "id": 10180526457, "lat": -33.7200644, "lon": 150.7100848}, {"type": "node", "id": 10180526458, "lat": -33.7199983, "lon": 150.7100968}, {"type": "node", "id": 10180526459, "lat": -33.7199836, "lon": 150.7099788}, {"type": "node", "id": 10180526479, "lat": -33.720035, "lon": 150.7099892, "tags": {"entrance": "main"}}, {"type": "node", "id": 10180526480, "lat": -33.7200558, "lon": 150.7100159, "tags": {"entrance": "main", "wheelchair": "yes"}}, {"type": "node", "id": 10251609268, "lat": -33.6914873, "lon": 150.9256599, "tags": {"amenity": "fast_food", "cuisine": "vietnamese", "name": "Roll'd"}}, {"type": "node", "id": 10251749418, "lat": -33.6903025, "lon": 150.9263072, "tags": {"amenity": "fast_food", "brand": "Grill'd", "brand:wikidata": "Q18165852", "cuisine": "burger", "name": "Grill'd", "takeaway": "yes"}}, {"type": "node", "id": 10253960775, "lat": -33.7059011, "lon": 150.9116958, "tags": {"addr:unit": "Shop 14", "amenity": "fast_food", "brand": "Subway", "brand:wikidata": "Q244457", "cuisine": "sandwich", "name": "Subway", "takeaway": "yes"}}, {"type": "node", "id": 10254148492, "lat": -33.7003123, "lon": 150.9276421, "tags": {"amenity": "fast_food", "cuisine": "pizza", "name": "MadToppings"}}, {"type": "node", "id": 10261718351, "lat": -33.7200102, "lon": 150.7099792}, {"type": "node", "id": 10261718352, "lat": -33.7200444, "lon": 150.709993}, {"type": "node", "id": 10261718353, "lat": -33.720055, "lon": 150.7100093}, {"type": "node", "id": 10261718354, "lat": -33.7200598, "lon": 150.7100476}, {"type": "node", "id": 10270779719, "lat": -33.7431227, "lon": 150.7132052, "tags": {"amenity": "fast_food", "cuisine": "fish_and_chips;burger", "indoor_seating": "no", "name": "Kingswood Park takeaway", "outdoor_seating": "no", "takeaway": "only", "wheelchair": "yes"}}, {"type": "node", "id": 10587634538, "lat": -33.5960014, "lon": 150.7505704, "tags": {"amenity": "fast_food", "cuisine": "pizza", "name": "Pizza Castle"}}, {"type": "node", "id": 10587986822, "lat": -33.5972493, "lon": 150.752111, "tags": {"amenity": "fast_food", "name": "Tastify"}}, {"type": "node", "id": 10587986872, "lat": -33.5970288, "lon": 150.751703, "tags": {"amenity": "fast_food", "cuisine": "pizza", "name": "Yumm Gourmet Pizza"}}, {"type": "node", "id": 10592541845, "lat": -33.6071746, "lon": 150.8201492, "tags": {"amenity": "fast_food", "cuisine": "pizza", "name": "Shea's Pizzeria"}}, {"type": "node", "id": 10747391405, "lat": -33.7479309, "lon": 150.7757119, "tags": {"amenity": "fast_food", "cuisine": "burger;kebab;lebanese", "name": "Franky's"}}, {"type": "node", "id": 10760385505, "lat": -33.7619439, "lon": 150.7072066, "tags": {"addr:housenumber": "118", "addr:street": "Stafford Street", "amenity": "fast_food", "cuisine": "chicken;burger;breakfast", "name": "The Chicken Run"}}, {"type": "node", "id": 10760406605, "lat": -33.7619974, "lon": 150.7075219, "tags": {"amenity": "fast_food", "cuisine": "chinese;fish_and_chips", "name": "Stafford's Take Away"}}, {"type": "node", "id": 10828196037, "lat": -33.7306162, "lon": 150.9803185, "tags": {"amenity": "fast_food", "brand": "Subway", "brand:wikidata": "Q244457", "cuisine": "sandwich", "name": "Subway", "takeaway": "yes"}}, {"type": "way", "id": 22697758, "nodes": [243469217, 243469218, 243469219, 243469220, 243469217], "tags": {"amenity": "fast_food", "brand": "Subway", "brand:wikidata": "Q244457", "brand:wikipedia": "en:Subway (restaurant)", "building": "yes", "cuisine": "sandwich", "name": "Subway", "takeaway": "yes"}}, {"type": "way", "id": 53147454, "nodes": [672624263, 672624265, 672624290, 10046981709, 10046981710, 10046981716, 10046985017, 10046981711, 10046981713, 10046981715, 10046981714, 10046981712, 672624291, 10046985018, 672624293, 672624266, 672624268, 672624263], "tags": {"amenity": "fast_food", "brand": "McDonald's", "brand:wikidata": "Q38076", "brand:wikipedia": "en:McDonald's", "building": "yes", "cuisine": "burger", "drive_through": "yes", "name": "McDonald's", "opening_hours": "24/7", "source": "nearmap", "source:name": "knowledge", "takeaway": "yes", "website": "https://www.mcdonalds.com.au/"}}, {"type": "way", "id": 53147456, "nodes": [672624269, 10046981691, 672624271, 672624254, 672624256, 672624272, 10046981674, 10046981675, 672624274, 672624275, 10046981673, 10046981692, 672624277, 672624279, 10046981685, 10046981672, 672624280, 672624282, 10046981684, 672624283, 672624269], "tags": {"alt_name": "Kentucky Fried Chicken", "amenity": "fast_food", "brand": "KFC", "brand:wikidata": "Q524757", "brand:wikipedia": "en:KFC", "building": "yes", "cuisine": "chicken", "drive_through": "yes", "name": "KFC", "source": "nearmap", "source:name": "knowledge", "takeaway": "yes", "website": "https://www.kfc.com.au/"}}, {"type": "way", "id": 235391806, "nodes": [2434575161, 5554333031, 2434575164, 6207745336, 2434575160, 2434575162, 2434575161], "tags": {"amenity": "fast_food", "brand": "McDonald's", "brand:wikidata": "Q38076", "brand:wikipedia": "en:McDonald's", "cuisine": "burger", "name": "McDonald's", "takeaway": "yes"}}, {"type": "way", "id": 330461141, "nodes": [2433621599, 3374304888, 3374304865, 3374304868, 3374304889, 3374304876, 2433621599], "tags": {"amenity": "fast_food", "brand": "McDonald's", "brand:wikidata": "Q38076", "brand:wikipedia": "en:McDonald's", "building": "yes", "cuisine": "burger", "name": "McDonald's", "opening_hours": "24/7", "source": "survey", "takeaway": "yes", "website": "https://www.mcdonalds.com.au/"}}, {"type": "way", "id": 365799726, "nodes": [3698115550, 6040600560, 10097933257, 6040601878, 6040600559, 6040601893, 6040601877, 10097933256, 6040600558, 3698115551, 6040600561, 6040600562, 6040601995, 6040600563, 3698115553, 6040600564, 6040600565, 3698115552, 3698115550], "tags": {"amenity": "fast_food", "brand": "McDonald's", "brand:wikidata": "Q38076", "building": "yes", "cuisine": "burger", "drive_through": "yes", "name": "McDonald's", "takeaway": "yes", "website": "https://mcdonalds.com.au"}}, {"type": "way", "id": 369490217, "nodes": [6594241400, 6594241403, 6594241401, 3732784513, 3732784511, 1906200939, 6594197531, 6594197532, 6594241399, 6594197527, 6594197528, 6594197529, 6594197530, 6594241404, 3732784515, 3732784514, 6594241402, 6594241400], "tags": {"amenity": "fast_food", "brand": "McDonald's", "brand:wikidata": "Q38076", "brand:wikipedia": "en:McDonald's", "building": "yes", "cuisine": "burger", "drive_through": "yes", "name": "McDonald's", "operator": "McDonalds", "takeaway": "yes", "website": "https://www.mcdonalds.com.au/"}}, {"type": "way", "id": 403441511, "nodes": [4057889786, 4057889787, 4057889788, 4057889789, 4057889790, 4057889791, 4057889792, 4057889793, 4057889794, 8919249287, 4057889795, 4057889796, 4057889797, 9449550036, 8919249288, 4057889799, 8919249286, 4057889800, 8919249292, 8919249289, 4057889805, 8919249310, 8919249309, 8919249307, 4057889786], "tags": {"amenity": "fast_food", "brand": "McDonald's", "brand:wikidata": "Q38076", "brand:wikipedia": "en:McDonald's", "building": "yes", "cuisine": "burger", "drive_through": "yes", "name": "McDonald's", "takeaway": "yes"}}, {"type": "way", "id": 415806630, "nodes": [4167627800, 4167627795, 4167627801, 7416147009, 7416147008, 4167627802, 4167627805, 694196263, 4167627813, 4167627809, 4167627800], "tags": {"addr:housenumber": "220", "addr:street": "Sunnyholt Road", "alt_name": "Kentucky Fried Chicken", "amenity": "fast_food", "brand": "KFC", "brand:wikidata": "Q524757", "brand:wikipedia": "en:KFC", "building": "commercial", "building:levels": "1", "cuisine": "chicken", "name": "KFC", "opening_hours": "Mo-Th 10:00-23:00; Fr-Sa 10:00-24:00; Su 10:00-23:00", "phone": "+61 2 9621 2108", "smoking": "no", "source": "knowledge", "takeaway": "yes", "website": "https://www.kfc.com.au/restaurants/kfc-kings-park/2148"}}, {"type": "way", "id": 415806631, "nodes": [694196267, 4167625387, 4167625377, 4167625376, 4167625374, 4167625373, 4167625367, 4167625369, 4167625368, 4167625371, 4167627789, 694196267], "tags": {"addr:housenumber": "224", "addr:street": "Sunnyholt Road", "amenity": "fast_food", "brand": "McDonald's", "brand:wikidata": "Q38076", "brand:wikipedia": "en:McDonald's", "building": "commercial", "cuisine": "burger", "internet_access": "wlan", "name": "McDonald's", "outdoor_seating": "yes", "phone": "+61 2 9831 1119", "smoking": "no", "source": "knowledge", "takeaway": "yes", "website": "https://www.facebook.com/McDonalds-Kings-Park-257638280954802/", "wheelchair": "yes"}}, {"type": "way", "id": 487238509, "nodes": [2845556050, 4797473838, 4797473843, 4797473853, 4797473855, 4797473857, 2845556050], "tags": {"amenity": "fast_food", "brand": "Hungry Jacks", "brand:wikidata": "Q3036373", "brand:wikipedia": "en:Hungry Jack's", "building": "yes", "cuisine": "burger", "name": "Hungry Jacks", "source": "Bing", "source:name": "survey", "takeaway": "yes", "website": "https://www.hungryjacks.com.au/"}}, {"type": "way", "id": 495568779, "nodes": [4873094564, 4873094558, 4383579335, 9973802001, 4873094578, 4873094525, 9973802002, 6317709048, 6317709047, 4873094528, 4873094564], "tags": {"amenity": "fast_food", "brand": "McDonald's", "brand:wikidata": "Q38076", "brand:wikipedia": "en:McDonald's", "building": "retail", "cuisine": "burger", "drive_through": "yes", "name": "McDonald's", "source:geometry": "LPI NSW Imagery", "takeaway": "yes", "website": "https://www.mcdonalds.com.au/"}}, {"type": "way", "id": 653289126, "nodes": [6122570591, 6122570617, 6122570618, 6122570592, 6122570619, 6122570620, 6122570593, 6122570591], "tags": {"amenity": "fast_food", "brand": "KFC", "brand:wikidata": "Q524757", "brand:wikipedia": "en:KFC", "building": "yes", "cuisine": "chicken", "drive_through": "yes", "name": "KFC", "takeaway": "yes"}}, {"type": "way", "id": 653289127, "nodes": [6122570594, 6122570591, 6122570617, 6122570616, 6122570594], "tags": {"amenity": "fast_food", "brand": "Domino's Pizza", "brand:wikidata": "Q839466", "brand:wikipedia": "en:Domino's Pizza", "building": "yes", "cuisine": "pizza", "name": "Domino's Pizza", "short_name": "Domino's", "takeaway": "yes"}}, {"type": "way", "id": 653289140, "nodes": [6122570659, 6122570660, 6122570661, 6122570662, 6122570663, 6122570664, 6122570665, 6122570666, 6122570659], "tags": {"amenity": "fast_food", "brand": "Oporto", "brand:wikidata": "Q4412342", "brand:wikipedia": "en:Oporto (restaurant)", "building": "yes", "cuisine": "burger;chicken", "name": "Oporto", "takeaway": "yes"}}, {"type": "way", "id": 768439680, "nodes": [7174219098, 7174219099, 7174219100, 7174219101, 7174219102, 7174219103, 7174219104, 7174219105, 7174219106, 7174219107, 7174219108, 7174219109, 7174219110, 7174219111, 7174219112, 7174219113, 7174219114, 7174219115, 7174219116, 7174219117, 7174219098], "tags": {"amenity": "fast_food", "brand": "McDonald's", "brand:wikidata": "Q38076", "building": "yes", "cuisine": "burger", "internet_access": "wlan", "name": "McDonald's", "takeaway": "yes"}}, {"type": "way", "id": 768439687, "nodes": [7174219165, 7174219166, 7174219167, 7174219168, 7174219169, 7174219170, 7174219171, 7174219172, 7174219173, 7174219174, 7174219175, 7174219176, 7174219165], "tags": {"amenity": "fast_food", "brand": "Red Rooster", "brand:wikidata": "Q376466", "building": "yes", "cuisine": "chicken", "name": "Red Rooster", "takeaway": "yes"}}, {"type": "way", "id": 768439692, "nodes": [7174219207, 7174219208, 7174219209, 7174219210, 7174219211, 7174219212, 7174219207], "tags": {"amenity": "fast_food", "brand": "Domino's", "brand:wikidata": "Q839466", "building": "yes", "cuisine": "pizza", "name": "Domino's", "opening_hours": "Mo-Th 11:00-22:00; Fr-Sa 11:00-23:59; Su 11:00-22:00", "takeaway": "yes"}}, {"type": "way", "id": 772625327, "nodes": [7213420056, 7213420057, 7213420058, 7213420059, 7213420056], "tags": {"amenity": "fast_food", "building": "yes", "name": "Harry's Cafe de Wheels"}}, {"type": "way", "id": 927712063, "nodes": [8606805276, 8606805277, 8606805278, 8606805279, 8606805276], "tags": {"addr:housenumber": "133", "addr:postcode": "2155", "addr:state": "NSW", "addr:street": "Samantha Riley Drive", "addr:suburb": "Kellyville", "amenity": "fast_food", "branch": "Kellyville North", "brand": "McDonald's", "brand:wikidata": "Q38076", "building": "yes", "building:levels": "1", "cuisine": "burger", "name": "McDonald's", "opening_hours": "Mo-Su 05:00-24:00", "phone": "+61 2 9629 3870", "takeaway": "yes", "website": "https://mcdonalds.com.au/"}}, {"type": "way", "id": 930586777, "nodes": [8628508648, 8628508649, 8628508650, 8628508651, 8628508648], "tags": {"amenity": "fast_food", "brand": "McDonald's", "brand:wikidata": "Q38076", "brand:wikipedia": "en:McDonald's", "cuisine": "burger", "drive_through": "yes", "name": "McDonald's", "takeaway": "yes"}}, {"type": "way", "id": 938646049, "nodes": [8695632779, 8695632780, 8695632781, 8695632782, 8695632783, 8695632784, 8695632785, 8695632786, 8695632787, 8695632788, 8695632789, 8695632790, 8695632791, 8695632792, 8695632793, 8695632779], "tags": {"amenity": "fast_food", "brand": "Hungry Jack's", "brand:wikidata": "Q3036373", "brand:wikipedia": "en:Hungry Jack's", "building": "yes", "cuisine": "burger", "drive_through": "yes", "name": "Hungry Jack's", "takeaway": "yes"}}, {"type": "way", "id": 938646050, "nodes": [8695632794, 8695632795, 8695632796, 8695632797, 8695632794], "tags": {"amenity": "fast_food", "brand": "Oporto", "brand:wikidata": "Q4412342", "brand:wikipedia": "en:Oporto (restaurant)", "building": "yes", "cuisine": "burger;chicken", "drive_through": "yes", "name": "Oporto", "takeaway": "yes"}}, {"type": "way", "id": 938646057, "nodes": [8695632795, 8695632839, 8695632840, 8695632794, 8695632795], "tags": {"amenity": "fast_food", "building": "yes", "cuisine": "pie", "name": "Harry's Caf\u00e9 de Wheels"}}, {"type": "way", "id": 944981614, "nodes": [8748534277, 8748534278, 8748534279, 8748534280, 8748534281, 8748534282, 8748534283, 8748534284, 8748534285, 8748534286, 8748534287, 8748534277], "tags": {"amenity": "fast_food", "brand": "Oporto", "brand:wikidata": "Q4412342", "brand:wikipedia": "en:Oporto (restaurant)", "building": "yes", "cuisine": "burger;chicken", "name": "Oporto", "takeaway": "yes"}}, {"type": "way", "id": 966332448, "nodes": [8940168042, 8940168043, 8940168044, 8940168045, 8940168055, 8940168054, 8940168046, 8940168047, 8940168048, 8940168049, 8940168050, 8940168051, 8940168052, 8940168053, 8940168042], "tags": {"alt_name": "Kentucky Fried Chicken", "amenity": "fast_food", "branch": "Cranebrook", "brand": "KFC", "brand:wikidata": "Q524757", "brand:wikipedia": "en:KFC", "building": "yes", "cuisine": "chicken", "indoor_seating": "yes", "name": "KFC", "opening_hours": "Mo-Th, Su 10:30-22:00; Fr, Sa 10:30-23:00", "outdoor_seating": "no", "takeaway": "yes", "website": "kfc.com.au", "wheelchair": "yes"}}, {"type": "way", "id": 977739069, "nodes": [9046869427, 9046869428, 9046869437, 9046869429, 9046869430, 9046869431, 9046869432, 9046869433, 9046869434, 9046869435, 9046869443, 9046869436, 9046869427], "tags": {"amenity": "fast_food", "brand": "McDonald's", "brand:wikidata": "Q38076", "brand:wikipedia": "en:McDonald's", "building": "yes", "cuisine": "burger", "name": "McDonald's", "takeaway": "yes"}}, {"type": "way", "id": 1007835304, "nodes": [9297740921, 9297740922, 9297740923, 9297740924, 9297740921], "tags": {"amenity": "fast_food", "brand": "McDonald's", "brand:wikidata": "Q38076", "brand:wikipedia": "en:McDonald's", "building": "yes", "cuisine": "burger", "drive_through": "yes", "name": "McDonald's", "takeaway": "yes"}}, {"type": "way", "id": 1029540057, "nodes": [9491812899, 9491812900, 9491812901, 9491812922, 9491812921, 9491812902, 9491812915, 9491812903, 9491812904, 9491812918, 9491812905, 9491812906, 9491812907, 9491812908, 9491812909, 9491812910, 9491812911, 9491812912, 9491812913, 9491812914, 9491812899], "tags": {"alt_name": "Kentucky Fried Chicken", "amenity": "fast_food", "branch": "Emerton", "brand": "KFC", "brand:wikidata": "Q524757", "brand:wikipedia": "en:KFC", "building": "yes", "cuisine": "chicken", "name": "KFC", "takeaway": "yes", "website": "https://www.kfc.com.au/restaurants/kfc-emerton/2770"}}, {"type": "way", "id": 1112685715, "nodes": [10180526457, 10180526458, 10180526459, 6314115480, 10261718351, 10180526479, 10261718352, 10180526451, 10261718353, 10180526480, 10261718354, 10180526457], "tags": {"addr:unit": "7", "amenity": "fast_food", "cuisine": "chicken", "indoor": "room", "indoor_seating": "yes", "name": "The Chicken Run", "opening_hours": "Mo-Su 10:00-20:30", "outdoor_seating": "sidewalk", "payment:credit_cards": "yes", "payment:debit_cards": "yes", "phone": "+61 2 4709 8702", "wheelchair": "yes"}}, {"type": "way", "id": 1112686370, "nodes": [10180526453, 10180461500, 10180526448, 10180526450, 10180526453], "tags": {"addr:unit": "2", "amenity": "fast_food", "cuisine": "sushi", "diet:vegetarian": "yes", "indoor": "room", "indoor_seating": "no", "name": "Sushi Hub", "opening_hours": "Fr-We 08:00-18:30; Th 08:00-19:00", "outdoor_seating": "yes", "smoking": "no", "website": "https://www.sushihub.com.au/", "wheelchair": "yes"}}]}