{"version": 0.6, "generator": "Overpass API 0.7.60 f4c14d41", "osm3s": {"timestamp_osm_base": "2023-05-02T21:17:24Z", "copyright": "The data included in this document is from www.openstreetmap.org. The data is made available under ODbL."}, "elements": [{"type": "node", "id": 20973499, "lat": -33.7172234, "lon": 150.3117326, "tags": {"addr:housenumber": "54", "addr:street": "Waratah Street", "addr:suburb": "Katoomba", "amenity": "restaurant", "cuisine": "indian", "name": "Anki's Indian Restaurant", "opening_hours": "Th-Tu 17:30-21:00", "phone": "+61 2 4782 5536"}}, {"type": "node", "id": 20973626, "lat": -33.7197207, "lon": 150.3108999, "tags": {"amenity": "restaurant", "cuisine": "chinese", "name": "Katoomba Canton Palace", "opening_hours": "Mo-Su 11:30-14:00; Mo-Th, Su 17:00-21:00; Fr, Sa 17:00-22:00", "phone": "+61 2 47822868"}}, {"type": "node", "id": 20973793, "lat": -33.7311252, "lon": 150.3117108, "tags": {"amenity": "restaurant", "name": "Bar NSW at the Lookout", "website": "https://www.thelookoutechopoint.com.au"}}, {"type": "node", "id": 20973938, "lat": -33.7236984, "lon": 150.3117061, "tags": {"addr:housenumber": "132", "addr:street": "Lurline Street", "amenity": "restaurant", "cuisine": "modern_australian", "name": "Pins On Lurline", "website": "https://www.pinsonlurline.com.au"}}, {"type": "node", "id": 20976268, "lat": -33.7215527, "lon": 150.3197257, "tags": {"amenity": "restaurant", "name": "Solitary Restaurant"}}, {"type": "node", "id": 20977076, "lat": -33.7115494, "lon": 150.3308986, "tags": {"addr:housenumber": "117-121", "addr:street": "Leura Mall", "addr:suburb": "Leura", "amenity": "restaurant", "name": "The Bunker", "opening_hours": "We-Su 7:00-11:00", "phone": "+61 2 4784 3265", "website": "https://www.thebunkercafebarrestaurant.com.au/"}}, {"type": "node", "id": 20979379, "lat": -33.7086896, "lon": 150.3757404, "tags": {"addr:housenumber": "38", "addr:street": "Station Street", "addr:suburb": "Wentworth Falls", "addr:unit": "5", "amenity": "restaurant", "cuisine": "italian", "name": "La Famiglia Pizzeria", "outdoor_seating": "no", "website": "https://lafamigliapizzeria.com.au"}}, {"type": "node", "id": 418188018, "lat": -33.7572279, "lon": 150.6124187, "tags": {"amenity": "restaurant", "cuisine": "chinese", "name": "Kao Yiu Chinese Restaurant", "outdoor_seating": "no", "phone": "+61-2-47393319", "smoking": "no", "takeaway": "yes"}}, {"type": "node", "id": 418188023, "lat": -33.7576396, "lon": 150.6127874, "tags": {"amenity": "restaurant", "cuisine": "pizza", "name": "Monte's Pizzeria", "source": "survey"}}, {"type": "node", "id": 426899447, "lat": -33.7447165, "lon": 150.6104527, "tags": {"amenity": "restaurant", "cuisine": "thai", "name": "Blaxland Thai Restaurant", "source": "survey"}}, {"type": "node", "id": 426899457, "lat": -33.7437097, "lon": 150.6089834, "tags": {"amenity": "restaurant", "cuisine": "chinese", "name": "Soco Chinese Cuisine", "source": "survey"}}, {"type": "node", "id": 696710785, "lat": -33.7219821, "lon": 150.5945678, "tags": {"amenity": "restaurant", "name": "Warrimoo Kitchens", "source": "survey"}}, {"type": "node", "id": 802666993, "lat": -33.712557, "lon": 150.3120278, "tags": {"addr:housenumber": "4", "addr:street": "Katoomba Street", "addr:suburb": "Katoomba", "alt_name": "Rustico Pizza Bar", "amenity": "restaurant", "cuisine": "italian", "name": "Rustico", "note": "Former site of Rene's Pizza", "opening_hours:signed": "no"}}, {"type": "node", "id": 1039228115, "lat": -33.5152063, "lon": 150.5820692, "tags": {"addr:housenumber": "1858", "addr:street": "Bells Line of Road", "amenity": "restaurant", "cuisine": "pie", "name": "Pie In The Sky", "opening_hours": "Fr-Mo 09:00-18:00, We 09:00-18:00; Th 09:00-17:00", "source": "Knowledge"}}, {"type": "node", "id": 2274749156, "lat": -33.7396251, "lon": 150.6049785, "tags": {"amenity": "restaurant", "cuisine": "italian", "delivery": "no", "name": "Michelangelo", "outdoor_seating": "no", "smoking": "no", "takeaway": "no", "wheelchair": "yes"}}, {"type": "node", "id": 2550436439, "lat": -33.6710663, "lon": 150.6088046, "tags": {"addr:housenumber": "14-28", "addr:street": "White Cross Road", "addr:unit": "4", "amenity": "restaurant", "cuisine": "burger", "facebook": "https://www.facebook.com/homerswinmalee/", "name": "Homers"}}, {"type": "node", "id": 3479931449, "lat": -33.712823, "lon": 150.3309019, "tags": {"addr:housenumber": "145", "addr:postcode": "2780", "addr:state": "NSW", "addr:street": "Leura Mall", "addr:suburb": "Leura", "amenity": "restaurant", "cuisine": "chinese", "name": "Leura Chinese Restaurant"}}, {"type": "node", "id": 4230081807, "lat": -33.7221599, "lon": 150.6027877, "tags": {"amenity": "restaurant", "name": "Monte Italia"}}, {"type": "node", "id": 4352717490, "lat": -33.7108078, "lon": 150.3662288, "tags": {"amenity": "restaurant", "cuisine": "pie", "name": "Mountain High Pies", "opening_hours": "06:00-16:00", "website": "https://mountainhighpies.com.au/"}}, {"type": "node", "id": 4374907490, "lat": -33.6773329, "lon": 150.2813763}, {"type": "node", "id": 4617425627, "lat": -33.6756519, "lon": 150.2807595, "tags": {"amenity": "restaurant", "name": "Wintergarden, The Salon Du, Echose Restaurant & bar, Darley's Restaurant & Bar - Hydro Majestic", "source": "web"}}, {"type": "node", "id": 4765996517, "lat": -33.6773557, "lon": 150.2816413}, {"type": "node", "id": 4765996518, "lat": -33.6774144, "lon": 150.2816341}, {"type": "node", "id": 4765996519, "lat": -33.6774048, "lon": 150.2815219}, {"type": "node", "id": 4765996520, "lat": -33.6774213, "lon": 150.2815198}, {"type": "node", "id": 4765997421, "lat": -33.6774302, "lon": 150.2816236}, {"type": "node", "id": 4765997422, "lat": -33.6774784, "lon": 150.2816177}, {"type": "node", "id": 4765997423, "lat": -33.6774707, "lon": 150.2815272}, {"type": "node", "id": 4765997424, "lat": -33.6775047, "lon": 150.2815229}, {"type": "node", "id": 4765997425, "lat": -33.6774973, "lon": 150.2814372}, {"type": "node", "id": 4765997426, "lat": -33.6774676, "lon": 150.2814409}, {"type": "node", "id": 4765997427, "lat": -33.6774641, "lon": 150.2814005}, {"type": "node", "id": 4765997428, "lat": -33.6774338, "lon": 150.2814043}, {"type": "node", "id": 4765997429, "lat": -33.6774303, "lon": 150.2813642}, {"type": "node", "id": 4774186821, "lat": -33.7573565, "lon": 150.6132203, "tags": {"amenity": "restaurant", "name": "Seafood and Eat It", "name:en": "Seafood and Eat It"}}, {"type": "node", "id": 4782130501, "lat": -33.6758825, "lon": 150.2806962, "tags": {"amenity": "restaurant", "name": "Winter Garden", "source": "sign on site"}}, {"type": "node", "id": 4782130502, "lat": -33.6760979, "lon": 150.280955, "tags": {"amenity": "restaurant", "name": "Salon Du The", "source": "sign on site"}}, {"type": "node", "id": 4782130503, "lat": -33.67697, "lon": 150.2814539, "tags": {"amenity": "restaurant", "name": "Hydro Majestic Pavilion", "source": "sign on site"}}, {"type": "node", "id": 5193531432, "lat": -33.7202697, "lon": 150.429106, "tags": {"addr:housenumber": "3/7", "addr:street": "staples crescent", "amenity": "restaurant", "cuisine": "middle_eastern;burger", "name": "Skewered"}}, {"type": "node", "id": 5197147623, "lat": -33.7200875, "lon": 150.4294543, "tags": {"amenity": "restaurant", "contact:facebook": "https://m.facebook.com/pages/Maprang-Thai/1580048478987028", "cuisine": "thai", "name": "Maprang Thai Restaurant", "phone": "+61 2 4759 3232"}}, {"type": "node", "id": 5197170421, "lat": -33.7199925, "lon": 150.4293583, "tags": {"amenity": "restaurant", "cuisine": "turkish", "name": "Lawson Pizza & Kebab", "note": "Kebap is likely correct... https://en.wikipedia.org/wiki/%C4%B0skender_kebap"}}, {"type": "node", "id": 5197309722, "lat": -33.720246, "lon": 150.4289176, "tags": {"amenity": "restaurant", "name": "The Cheesesteak Factory"}}, {"type": "node", "id": 5237464914, "lat": -33.7173515, "lon": 150.3107526, "tags": {"amenity": "restaurant", "diet:vegan": "yes", "diet:vegetarian": "yes", "name": "Pho Moi Vietnamese Restaurant", "opening_hours": "Sa,Su 11:30-17:00,17:30-21:00; Mo,Tu,Th,Fr 11:30-15:00,17:30-21:00"}}, {"type": "node", "id": 5237464918, "lat": -33.7172072, "lon": 150.3120511, "tags": {"addr:housenumber": "56-64", "addr:street": "Waratah Street", "amenity": "restaurant", "name": "Bowery", "opening_hours:signed": "no", "website": "https://www.bowerykatoomba.com.au/menu"}}, {"type": "node", "id": 5237464920, "lat": -33.7122234, "lon": 150.3115119, "tags": {"amenity": "restaurant", "diet:vegetarian": "yes", "name": "Station Bar", "opening_hours:signed": "no"}}, {"type": "node", "id": 5237464924, "lat": -33.7198, "lon": 150.3121785, "tags": {"amenity": "restaurant", "name": "Parlour Bar & Lounge", "website": "http://hotelblue.com.au/dining-bar/"}}, {"type": "node", "id": 5237774296, "lat": -33.7213229, "lon": 150.4522847, "tags": {"amenity": "restaurant", "cuisine": "chinese", "name": "Hazelbrook Chinese Restaurant"}}, {"type": "node", "id": 5415532121, "lat": -33.7126015, "lon": 150.3120217, "tags": {"amenity": "restaurant", "cuisine": "thai", "delivery": "yes", "diet:vegan": "yes", "diet:vegetarian": "yes", "name": "Thai Square", "phone": "+61 2 4782 2000", "takeaway": "yes", "wheelchair": "limited"}}, {"type": "node", "id": 5614981223, "lat": -33.7182687, "lon": 150.4304744, "tags": {"amenity": "restaurant", "cuisine": "chinese", "name": "Lawson Chinese Restaurant", "takeaway": "yes", "website": "https://www.lawsonbc.com.au/dining"}}, {"type": "node", "id": 6417269865, "lat": -33.712773, "lon": 150.3119944, "tags": {"amenity": "restaurant", "cocktails": "yes", "cuisine": "regional; international", "diet:vegetarian": "only", "name": "AVALON Restaurant & Cocktail Bar", "opening_hours:signed": "no", "website": "https://www.avalonkatoomba.com.au/", "wheelchair": "no"}}, {"type": "node", "id": 6449308903, "lat": -33.7138766, "lon": 150.3302208, "tags": {"amenity": "restaurant", "name": "Thai Square"}}, {"type": "node", "id": 6450881468, "lat": -33.7297432, "lon": 150.3111517, "tags": {"addr:housenumber": "5-19", "addr:postcode": "2780", "addr:state": "NSW", "addr:street": "Lilianfels Avenue", "addr:suburb": "Katoomba", "amenity": "restaurant", "cuisine": "asian", "email": "reservations@misslilian.com.au", "name": "Miss Lilian's Tea House", "website": "https://www.misslilian.com.au/index.php"}}, {"type": "node", "id": 6450881592, "lat": -33.7296065, "lon": 150.3104671, "tags": {"amenity": "restaurant", "name": "Darley's Restaurant at Lilianfels Blue Mountains Resort & Spa"}}, {"type": "node", "id": 6453455857, "lat": -33.6774135, "lon": 150.2815208, "tags": {"entrance": "yes"}}, {"type": "node", "id": 6453455873, "lat": -33.6773396, "lon": 150.2814538}, {"type": "node", "id": 6453455876, "lat": -33.6773462, "lon": 150.2815293}, {"type": "node", "id": 6460201215, "lat": -33.722182, "lon": 150.4531074, "tags": {"addr:housenumber": "193", "addr:postcode": "2779", "addr:state": "NSW", "addr:street": "Great Western Highway", "addr:suburb": "Hazelbrook", "amenity": "restaurant", "cuisine": "pizza;turkish;kebab", "name": "Hazelbrook Kebab, Pide & Pizza", "opening_hours": "Mo-Su 11:00-21:00", "outdoor_seating": "yes", "website": "https://hazelbrookpizza.com.au"}}, {"type": "node", "id": 6634755185, "lat": -33.7199425, "lon": 150.4294648, "tags": {"addr:housenumber": "292", "addr:postcode": "2783", "addr:state": "NSW", "addr:street": "Great Western Highway", "addr:suburb": "Lawson", "addr:unit": "9", "amenity": "restaurant", "cuisine": "italian_pizza", "email": "info@napolicorner.com", "name": "Napoli Corner", "opening_hours": "Tu-Su 17:30-21:30", "phone": "+61 2 4701 6188"}}, {"type": "node", "id": 6680790286, "lat": -33.7101702, "lon": 150.3757755, "tags": {"addr:housenumber": "7", "addr:postcode": "2872", "addr:street": "Station Street", "amenity": "restaurant", "cuisine": "chinese", "name": "Canton Palace", "opening_hours": "Mo-Su 17:00-21:00", "phone": "+61 2 4757 1868", "website": "http://www.cantonpalace.com.au"}}, {"type": "node", "id": 6681060671, "lat": -33.7112199, "lon": 150.3759019, "tags": {"addr:housenumber": "174", "addr:street": "Great Western Highway", "addr:suburb": "Wentworth Falls", "amenity": "restaurant", "cuisine": "pub;bistro", "name": "Grand View Hotel Bistro"}}, {"type": "node", "id": 6690336852, "lat": -33.6990426, "lon": 150.5683566, "tags": {"amenity": "restaurant", "cuisine": "thai", "name": "Thai Square"}}, {"type": "node", "id": 6690853000, "lat": -33.6999192, "lon": 150.566896, "tags": {"amenity": "restaurant", "cuisine": "chinese", "name": "Springwood Gardens Chinese"}}, {"type": "node", "id": 6690853088, "lat": -33.6992081, "lon": 150.5671814, "tags": {"amenity": "restaurant", "cuisine": "chinese", "name": "Blue Sky Chinese Cuisine", "opening_hours": "Mo-Su 11:30-15:00,17:00-21:30"}}, {"type": "node", "id": 6690853107, "lat": -33.6992273, "lon": 150.5665397, "tags": {"amenity": "restaurant", "name": "Bunker"}}, {"type": "node", "id": 6694608538, "lat": -33.6994355, "lon": 150.5637861, "tags": {"amenity": "restaurant", "name": "Springwood Thai Kitchen"}}, {"type": "node", "id": 6938414553, "lat": -33.7140506, "lon": 150.311441, "tags": {"amenity": "restaurant", "cuisine": "sushi", "diet:vegetarian": "yes", "name": "Sushi & Co.", "opening_hours": "Tu-Su 10:30-19:30", "wheelchair": "no"}}, {"type": "node", "id": 6938593173, "lat": -33.716428, "lon": 150.3109832, "tags": {"amenity": "restaurant", "cuisine": "sushi", "name": "Season Sushi"}}, {"type": "node", "id": 6938677849, "lat": -33.7156904, "lon": 150.3107083, "tags": {"amenity": "restaurant", "name": "Basil Nut Cafe & Restaurant"}}, {"type": "node", "id": 6938921414, "lat": -33.7170188, "lon": 150.311159, "tags": {"addr:housenumber": "216", "addr:street": "Katoomba Street", "addr:suburb": "Katoomba", "amenity": "restaurant", "cuisine": "thai", "diet:vegetarian": "yes", "name": "Chork Dee Thai Restaurant", "opening_hours:signed": "no", "wheelchair": "no"}}, {"type": "node", "id": 6938921416, "lat": -33.7168682, "lon": 150.3111872, "tags": {"addr:housenumber": "198", "addr:street": "Katoomba Street", "addr:suburb": "Katoomba", "amenity": "restaurant", "cuisine": "chinese", "diet:vegetarian": "yes", "name": "Three Sisters B.B.Q Chinese Restaurant", "opening_hours": "Tu-Th 11:30-20:30, Su 11:30-20:30; Fr-Sa 11:30-21:00"}}, {"type": "node", "id": 6938921425, "lat": -33.7163516, "lon": 150.311289, "tags": {"addr:housenumber": "172", "addr:street": "Katoomba Street", "addr:suburb": "Katoomba", "amenity": "restaurant", "cuisine": "thai", "name": "Gasiinsamut Thai Fusion", "opening_hours": "Mo-Su 11:00-21:30", "website": "https://gasiinsamutthaikatoomba.com.au"}}, {"type": "node", "id": 6938921563, "lat": -33.7133311, "lon": 150.3118808, "tags": {"addr:housenumber": "54", "addr:street": "Katoomba Street", "addr:suburb": "Katoomba", "amenity": "restaurant", "cuisine": "thai", "diet:vegetarian": "yes", "name": "Boss Noodles", "opening_hours:signed": "no", "phone": "+61 2 4782 9363", "takeaway": "yes", "wheelchair": "yes"}}, {"type": "node", "id": 6938921564, "lat": -33.7132875, "lon": 150.3118881, "tags": {"addr:housenumber": "50", "addr:street": "Katoomba Street", "addr:suburb": "Katoomba", "amenity": "restaurant", "cuisine": "chinese", "diet:vegetarian": "yes", "name": "Bamboo Box", "opening_hours:signed": "no", "takeaway": "yes", "wheelchair": "yes"}}, {"type": "node", "id": 7035504927, "lat": -33.7573285, "lon": 150.6124401, "tags": {"amenity": "restaurant", "cuisine": "thai", "name": "Thai Ruk Thai"}}, {"type": "node", "id": 7040012378, "lat": -33.7100019, "lon": 150.2999892, "tags": {"addr:housenumber": "16", "addr:street": "Valley Road", "amenity": "restaurant", "name": "Arjuna Indian Restaurant", "opening_hours": "Th-Mo 18:00-21:00", "phone": "+61 2 4782 4662"}}, {"type": "node", "id": 7057731207, "lat": -33.739655, "lon": 150.6048186}, {"type": "node", "id": 7057731208, "lat": -33.7397806, "lon": 150.604912}, {"type": "node", "id": 7057731209, "lat": -33.7396836, "lon": 150.6051007}, {"type": "node", "id": 7057731210, "lat": -33.7396668, "lon": 150.6050881}, {"type": "node", "id": 7057731211, "lat": -33.7396507, "lon": 150.6051193}, {"type": "node", "id": 7057731212, "lat": -33.7395583, "lon": 150.6050505}, {"type": "node", "id": 7057731213, "lat": -33.7395733, "lon": 150.6050214}, {"type": "node", "id": 7057731214, "lat": -33.739557, "lon": 150.6050093}, {"type": "node", "id": 7057810859, "lat": -33.6935996, "lon": 150.5477061, "tags": {"amenity": "restaurant", "cuisine": "pizza", "name": "La Bello Pizzeria Cooking with Passion"}}, {"type": "node", "id": 7057810950, "lat": -33.691288, "lon": 150.5427166, "tags": {"addr:housenumber": "1", "addr:postcode": "2776", "addr:state": "NSW", "addr:street": "Everton Road", "addr:suburb": "Faulconbridge", "amenity": "restaurant", "name": "Everton House", "opening_hours": "Mo-Su 09:15-3:00", "phone": "+61 2 4751 5666"}}, {"type": "node", "id": 7071473298, "lat": -33.7185313, "lon": 150.4480315, "tags": {"amenity": "restaurant", "name": "Club Bistro", "opening_hours": "Th-Fr 17:30-20:00; Su 17:30-20:00"}}, {"type": "node", "id": 7110798875, "lat": -33.7131311, "lon": 150.3316756, "tags": {"amenity": "restaurant", "cuisine": "middle_eastern", "name": "Polar Bear Of Leura", "website": "https://www.polarbearofleura.com.au"}}, {"type": "node", "id": 7129706285, "lat": -33.7208776, "lon": 150.3496276, "tags": {"amenity": "restaurant", "name": "Leura Golf Club Bistro"}}, {"type": "node", "id": 7129706292, "lat": -33.7193039, "lon": 150.3122476, "tags": {"amenity": "restaurant", "name": "The Red Poppy Brasserie", "opening_hours": "Mo-Su 11:30-20:30", "website": "https://katoombarsl.com.au/bar-and-dining/the-red-poppy-brasserie/"}}, {"type": "node", "id": 7152374407, "lat": -33.7126435, "lon": 150.3120148, "tags": {"addr:housenumber": "10", "addr:street": "Katoomba Street", "amenity": "restaurant", "cuisine": "tibetan", "diet:vegetarian": "yes", "name": "Tibet Kitchen", "opening_hours:signed": "no", "wheelchair": "limited"}}, {"type": "node", "id": 7253988871, "lat": -33.6969465, "lon": 150.362801, "tags": {"amenity": "restaurant", "cuisine": "Modern_Australian", "name": "Weatherboard Bistro", "phone": "+61 2 4757 3330", "website": "https://www.wfcc.com.au/food"}}, {"type": "node", "id": 8072592462, "lat": -33.7035657, "lon": 150.375176, "tags": {"addr:housenumber": "1", "addr:postcode": "2782", "addr:street": "Lake Street", "addr:suburb": "Wentworth Falls", "amenity": "restaurant", "cuisine": "modern_australian", "name": "Silk's Brasserie at Silvermere", "phone": "+61247842534", "website": "http://www.silksdining.com.au"}}, {"type": "node", "id": 8156506272, "lat": -33.7311241, "lon": 150.3115105, "tags": {"amenity": "restaurant", "name": "Restaurant 1128", "website": "https://www.thelookoutechopoint.com.au"}}, {"type": "node", "id": 8241805850, "lat": -33.7113768, "lon": 150.3311947, "tags": {"addr:housenumber": "121", "addr:postcode": "2780", "addr:state": "NSW", "addr:street": "Leura Mall", "addr:suburb": "Leura", "addr:unit": "1", "amenity": "restaurant", "cuisine": "international", "email": "madamewangleura@gmail.com", "level": "1", "name": "Madame Wang's", "phone": "+61 491 028 100", "website": "https://www.madamewangs.net/"}}, {"type": "node", "id": 8744591517, "lat": -33.7213658, "lon": 150.4526095, "tags": {"amenity": "restaurant", "cuisine": "thai", "name": "Thai Square"}}, {"type": "node", "id": 9284057287, "lat": -33.7126119, "lon": 150.3313646, "tags": {"addr:housenumber": "128", "addr:street": "Leura Mall", "addr:suburb": "Leura", "amenity": "restaurant", "cuisine": "brasserie", "name": "Mr Collins of Leura", "website": "https://mrcollinsofleura.com.au"}}, {"type": "node", "id": 9345055696, "lat": -33.7134867, "lon": 150.3118594, "tags": {"addr:housenumber": "66", "addr:street": "Katoomba Street", "amenity": "restaurant", "name": "Tempus", "opening_hours": "Mo,Fr 17:00-22:00; Sa-Su 12:00-22:00", "website": "https://www.tempuskatoomba.com.au"}}, {"type": "node", "id": 9584302789, "lat": -33.7132283, "lon": 150.311899, "tags": {"amenity": "restaurant", "cuisine": "pizza", "name": "Papadino's Pizzeria", "outdoor_seating": "yes", "takeaway": "yes"}}, {"type": "node", "id": 10261660130, "lat": -33.7139654, "lon": 150.3304715, "tags": {"amenity": "restaurant", "name": "Leura Dumplings"}}, {"type": "way", "id": 483852865, "nodes": [4765997429, 4765997428, 4765997427, 4765997426, 4765997425, 4765997424, 4765997423, 4765997422, 4765997421, 4765996520, 6453455857, 4765996519, 4765996518, 4765996517, 6453455876, 6453455873, 4374907490, 4765997429], "tags": {"amenity": "restaurant", "building": "yes", "building:levels": "1", "name": "Boiler House Cafe", "opening_hours": "We-Su 11:00-15:30", "source": "LPI Imagery Mar 2017", "source:amenity": "physical survey", "website": "https://www.hydromajestic.com.au/dining/boiler-house-cafe"}}, {"type": "way", "id": 755599296, "nodes": [7057731207, 7057731208, 7057731209, 7057731210, 7057731211, 7057731212, 7057731213, 7057731214, 7057731207], "tags": {"addr:housenumber": "176", "addr:postcode": "2774", "addr:state": "NSW", "addr:street": "Great Western Highway", "addr:suburb": "Blaxland", "amenity": "restaurant", "building": "yes", "building:levels": "1", "cuisine": "italian", "name": "Michaelangelo\u2019s Italian Restaurant", "website": "https://www.michelangelosrestaurant.com.au/"}}]}