{"version": 0.6, "generator": "Overpass API 0.7.60.2 e4cf9f7a", "osm3s": {"timestamp_osm_base": "2023-05-02T19:47:15Z", "copyright": "The data included in this document is from www.openstreetmap.org. The data is made available under ODbL."}, "elements": [{"type": "node", "id": 70753469, "lat": 13.7795994, "lon": 100.5299862, "tags": {"name": "\u0e2a\u0e32\u0e21\u0e40\u0e2a\u0e19", "name:en": "Sam Sen", "name:th": "\u0e2a\u0e32\u0e21\u0e40\u0e2a\u0e19", "public_transport": "station", "railway": "station", "railway:ref": "\u0e2a\u0e2a", "ref": "\u0e2a\u0e2a.", "source": "GPS;sign", "train": "yes", "wikidata": "Q6895741"}}, {"type": "node", "id": 257066779, "lat": 13.7193189, "lon": 100.5215652, "tags": {"name": "\u0e2a\u0e38\u0e23\u0e28\u0e31\u0e01\u0e14\u0e34\u0e4c", "name:en": "Surasak", "name:th": "\u0e2a\u0e38\u0e23\u0e28\u0e31\u0e01\u0e14\u0e34\u0e4c", "network": "BTS", "operator": "BTSC", "public_transport": "station", "railway": "station", "ref": "S5", "station": "subway", "subway": "yes", "wheelchair": "no", "wikidata": "Q1030152"}}, {"type": "node", "id": 257066790, "lat": 13.7237869, "lon": 100.5293353, "tags": {"name": "\u0e0a\u0e48\u0e2d\u0e07\u0e19\u0e19\u0e17\u0e23\u0e35", "name:en": "Chong Nonsi", "name:th": "\u0e0a\u0e48\u0e2d\u0e07\u0e19\u0e19\u0e17\u0e23\u0e35", "public_transport": "station", "railway": "station", "ref": "S3", "station": "subway", "subway": "yes", "wheelchair": "yes", "wikidata": "Q1030199"}}, {"type": "node", "id": 257066809, "lat": 13.739454, "lon": 100.5394654, "tags": {"name": "\u0e23\u0e32\u0e0a\u0e14\u0e33\u0e23\u0e34", "name:en": "Ratchadamri", "name:th": "\u0e23\u0e32\u0e0a\u0e14\u0e33\u0e23\u0e34", "public_transport": "station", "railway": "station", "ref": "S1", "station": "subway", "subway": "yes", "wheelchair": "yes", "wikidata": "Q1030185"}}, {"type": "node", "id": 257066819, "lat": 13.7465039, "lon": 100.5290862, "tags": {"name": "\u0e2a\u0e19\u0e32\u0e21\u0e01\u0e35\u0e2c\u0e32\u0e41\u0e2b\u0e48\u0e07\u0e0a\u0e32\u0e15\u0e34", "name:en": "National Stadium", "name:th": "\u0e2a\u0e19\u0e32\u0e21\u0e01\u0e35\u0e2c\u0e32\u0e41\u0e2b\u0e48\u0e07\u0e0a\u0e32\u0e15\u0e34", "public_transport": "station", "railway": "station", "ref": "W1", "station": "subway", "subway": "yes", "wikidata": "Q219047", "wikipedia": "en:National Stadium (Thailand)"}}, {"type": "node", "id": 257067085, "lat": 13.7188017, "lon": 100.5142163, "tags": {"name": "\u0e2a\u0e30\u0e1e\u0e32\u0e19\u0e15\u0e32\u0e01\u0e2a\u0e34\u0e19", "name:de": "Saphan Taksin", "name:en": "Saphan Taksin", "name:fr": "Saphan Taksin", "name:th": "\u0e2a\u0e30\u0e1e\u0e32\u0e19\u0e15\u0e32\u0e01\u0e2a\u0e34\u0e19", "public_transport": "station", "railway": "station", "ref": "S6", "station": "subway", "subway": "yes", "wikidata": "Q1021944"}}, {"type": "node", "id": 270666805, "lat": 13.7859356, "lon": 100.546865, "tags": {"construction": "station", "name": "\u0e40\u0e2a\u0e19\u0e32\u0e23\u0e48\u0e27\u0e21", "name:en": "Sena Ruam", "name:th": "\u0e40\u0e2a\u0e19\u0e32\u0e23\u0e48\u0e27\u0e21", "network": "BTS", "operator": "BTSC", "public_transport": "station", "railway": "construction", "ref": "N6", "train": "yes", "wheelchair": "yes", "wikidata": "Q16307686", "wikipedia": "th:\u0e2a\u0e16\u0e32\u0e19\u0e35\u0e40\u0e2a\u0e19\u0e32\u0e23\u0e48\u0e27\u0e21"}}, {"type": "node", "id": 280179404, "lat": 13.7375249, "lon": 100.5171555, "tags": {"name": "\u0e2b\u0e31\u0e27\u0e25\u0e33\u0e42\u0e1e\u0e07", "name:en": "Hua Lamphong", "name:th": "\u0e2b\u0e31\u0e27\u0e25\u0e33\u0e42\u0e1e\u0e07", "public_transport": "station", "railway": "station", "ref": "BL28", "station": "subway", "subway": "yes", "wikidata": "Q125929"}}, {"type": "node", "id": 280179426, "lat": 13.7492003, "lon": 100.5633376, "tags": {"name": "\u0e40\u0e1e\u0e0a\u0e23\u0e1a\u0e38\u0e23\u0e35", "name:en": "Phetchaburi", "name:th": "\u0e40\u0e1e\u0e0a\u0e23\u0e1a\u0e38\u0e23\u0e35", "public_transport": "station", "railway": "station", "ref": "BL21", "station": "subway", "subway": "yes", "wikidata": "Q4921013"}}, {"type": "node", "id": 280179427, "lat": 13.7578483, "lon": 100.5652243, "tags": {"name": "\u0e1e\u0e23\u0e30\u0e23\u0e32\u0e21 9", "name:en": "Phra Ram 9", "name:fr": "Phra Ram 9", "name:th": "\u0e1e\u0e23\u0e30\u0e23\u0e32\u0e21 9", "public_transport": "station", "railway": "station", "ref": "BL20", "station": "subway", "subway": "yes", "wheelchair": "yes", "wikidata": "Q1036857"}}, {"type": "node", "id": 280179442, "lat": 13.7293412, "lon": 100.5373174, "tags": {"name": "\u0e2a\u0e35\u0e25\u0e21", "name:en": "Si Lom", "name:fr": "Si Lom", "name:th": "\u0e2a\u0e35\u0e25\u0e21", "public_transport": "station", "railway": "station", "ref": "BL26", "station": "subway", "subway": "yes", "wikidata": "Q1036816"}}, {"type": "node", "id": 280179448, "lat": 13.722621, "lon": 100.5599192, "tags": {"name": "\u0e28\u0e39\u0e19\u0e22\u0e4c\u0e01\u0e32\u0e23\u0e1b\u0e23\u0e30\u0e0a\u0e38\u0e21\u0e41\u0e2b\u0e48\u0e07\u0e0a\u0e32\u0e15\u0e34\u0e2a\u0e34\u0e23\u0e34\u0e01\u0e34\u0e15\u0e34\u0e4c", "name:en": "Queen Sirikit National Convention Centre", "name:th": "\u0e28\u0e39\u0e19\u0e22\u0e4c\u0e01\u0e32\u0e23\u0e1b\u0e23\u0e30\u0e0a\u0e38\u0e21\u0e41\u0e2b\u0e48\u0e07\u0e0a\u0e32\u0e15\u0e34\u0e2a\u0e34\u0e23\u0e34\u0e01\u0e34\u0e15\u0e34\u0e4c", "public_transport": "station", "railway": "station", "ref": "BL23", "station": "subway", "subway": "yes", "wheelchair": "yes", "wikidata": "Q4921067"}}, {"type": "node", "id": 280222462, "lat": 13.7255504, "lon": 100.5457189, "tags": {"name": "\u0e25\u0e38\u0e21\u0e1e\u0e34\u0e19\u0e35", "name:en": "Lumphini", "name:th": "\u0e25\u0e38\u0e21\u0e1e\u0e34\u0e19\u0e35", "public_transport": "station", "railway": "station", "ref": "BL25", "station": "subway", "subway": "yes", "wikidata": "Q4923316"}}, {"type": "node", "id": 280222869, "lat": 13.7322252, "lon": 100.530259, "tags": {"name": "\u0e2a\u0e32\u0e21\u0e22\u0e48\u0e32\u0e19", "name:en": "Sam Yan", "name:fr": "Sam Yan", "name:th": "\u0e2a\u0e32\u0e21\u0e22\u0e48\u0e32\u0e19", "public_transport": "station", "railway": "station", "ref": "BL27", "station": "subway", "subway": "yes", "wikidata": "Q1039683"}}, {"type": "node", "id": 280239009, "lat": 13.7786915, "lon": 100.5734952, "tags": {"name": "\u0e2b\u0e49\u0e27\u0e22\u0e02\u0e27\u0e32\u0e07", "name:en": "Huai Khwang", "name:th": "\u0e2b\u0e49\u0e27\u0e22\u0e02\u0e27\u0e32\u0e07", "public_transport": "station", "railway": "station", "ref": "BL18", "station": "subway", "subway": "yes", "wikidata": "Q13021853"}}, {"type": "node", "id": 280239362, "lat": 13.7894448, "lon": 100.5740102, "tags": {"name": "\u0e2a\u0e38\u0e17\u0e18\u0e34\u0e2a\u0e32\u0e23", "name:en": "Sutthisan", "name:th": "\u0e2a\u0e38\u0e17\u0e18\u0e34\u0e2a\u0e32\u0e23", "public_transport": "station", "railway": "station", "ref": "BL17", "station": "subway", "subway": "yes", "wikidata": "Q4923841"}}, {"type": "node", "id": 280239363, "lat": 13.7989733, "lon": 100.5744782, "tags": {"name": "\u0e23\u0e31\u0e0a\u0e14\u0e32\u0e20\u0e34\u0e40\u0e29\u0e01", "name:en": "Ratchadaphisek", "name:th": "\u0e23\u0e31\u0e0a\u0e14\u0e32\u0e20\u0e34\u0e40\u0e29\u0e01", "public_transport": "station", "railway": "station", "ref": "BL16", "station": "subway", "subway": "yes", "wikidata": "Q4924317"}}, {"type": "node", "id": 280240574, "lat": 13.7662912, "lon": 100.570083, "tags": {"name": "\u0e28\u0e39\u0e19\u0e22\u0e4c\u0e27\u0e31\u0e12\u0e19\u0e18\u0e23\u0e23\u0e21\u0e41\u0e2b\u0e48\u0e07\u0e1b\u0e23\u0e30\u0e40\u0e17\u0e28\u0e44\u0e17\u0e22", "name:en": "Thailand Cultural Centre", "name:th": "\u0e28\u0e39\u0e19\u0e22\u0e4c\u0e27\u0e31\u0e12\u0e19\u0e18\u0e23\u0e23\u0e21\u0e41\u0e2b\u0e48\u0e07\u0e1b\u0e23\u0e30\u0e40\u0e17\u0e28\u0e44\u0e17\u0e22", "public_transport": "station", "railway": "station", "ref": "BL19", "station": "subway", "subway": "yes", "wikidata": "Q6633637"}}, {"type": "node", "id": 280240577, "lat": 13.8065255, "lon": 100.5728902, "tags": {"name": "\u0e25\u0e32\u0e14\u0e1e\u0e23\u0e49\u0e32\u0e27", "name:en": "Lat Phrao", "name:th": "\u0e25\u0e32\u0e14\u0e1e\u0e23\u0e49\u0e32\u0e27", "public_transport": "station", "railway": "station", "ref": "BL15", "station": "subway", "subway": "yes", "wikidata": "Q4923372"}}, {"type": "node", "id": 280240580, "lat": 13.8129596, "lon": 100.5615733, "tags": {"name": "\u0e1e\u0e2b\u0e25\u0e42\u0e22\u0e18\u0e34\u0e19", "name:en": "Phahon Yothin", "name:ja": "\u30d1\u30db\u30f3\u30e8\u30fc\u30c6\u30a3\u30f3\u99c5", "name:th": "\u0e1e\u0e2b\u0e25\u0e42\u0e22\u0e18\u0e34\u0e19", "public_transport": "station", "railway": "station", "ref": "BL14", "station": "subway", "subway": "yes", "wikidata": "Q13021750"}}, {"type": "node", "id": 280240585, "lat": 13.802937, "lon": 100.5533607, "tags": {"name": "\u0e2a\u0e27\u0e19\u0e08\u0e15\u0e38\u0e08\u0e31\u0e01\u0e23", "name:en": "Chatuchak Park", "name:th": "\u0e2a\u0e27\u0e19\u0e08\u0e15\u0e38\u0e08\u0e31\u0e01\u0e23", "operator": "MRT", "public_transport": "station", "railway": "station", "ref": "BL13", "station": "subway", "subway": "yes", "wikidata": "Q6633742"}}, {"type": "node", "id": 280240589, "lat": 13.7979371, "lon": 100.5479366, "tags": {"name": "\u0e01\u0e33\u0e41\u0e1e\u0e07\u0e40\u0e1e\u0e0a\u0e23", "name:en": "Kamphaeng Phet", "name:th": "\u0e01\u0e33\u0e41\u0e1e\u0e07\u0e40\u0e1e\u0e0a\u0e23", "public_transport": "station", "railway": "station", "ref": "BL12", "station": "subway", "subway": "yes", "wikidata": "Q13590884"}}, {"type": "node", "id": 280246418, "lat": 13.8023542, "lon": 100.5410302, "tags": {"name": "\u0e1a\u0e32\u0e07\u0e0b\u0e37\u0e48\u0e2d", "name:en": "Bang Sue", "name:th": "\u0e1a\u0e32\u0e07\u0e0b\u0e37\u0e48\u0e2d", "public_transport": "station", "railway": "station", "ref": "BL11", "station": "subway", "subway": "yes"}}, {"type": "node", "id": 280729450, "lat": 13.7223027, "lon": 100.5540072, "tags": {"name": "\u0e04\u0e25\u0e2d\u0e07\u0e40\u0e15\u0e22", "name:en": "Khlong Toei", "name:th": "\u0e04\u0e25\u0e2d\u0e07\u0e40\u0e15\u0e22", "public_transport": "station", "railway": "station", "ref": "BL24", "station": "subway", "subway": "yes", "wheelchair": "yes", "wikidata": "Q4920172"}}, {"type": "node", "id": 305693940, "lat": 13.7192318, "lon": 100.4859477, "tags": {"name": "\u0e42\u0e1e\u0e18\u0e34\u0e4c\u0e19\u0e34\u0e21\u0e34\u0e15\u0e23", "name:en": "Pho Nimit", "network": "BTS", "public_transport": "station", "railway": "station", "ref": "S9", "start_date": "2013-01-12", "station": "subway", "subway": "yes", "wheelchair": "yes", "wikidata": "Q18388309"}}, {"type": "node", "id": 340133002, "lat": 13.7142297, "lon": 100.476671, "tags": {"name": "\u0e15\u0e25\u0e32\u0e14\u0e1e\u0e25\u0e39", "name:en": "Talat Phlu", "network": "BTS", "public_transport": "station", "railway": "station", "ref": "S10", "start_date": "2013-01-12", "station": "subway", "subway": "yes"}}, {"type": "node", "id": 346614000, "lat": 13.8098634, "lon": 100.5480228}, {"type": "node", "id": 346614001, "lat": 13.8116405, "lon": 100.546034}, {"type": "node", "id": 346614002, "lat": 13.8117988, "lon": 100.5459481}, {"type": "node", "id": 346614003, "lat": 13.8135075, "lon": 100.5459481}, {"type": "node", "id": 346614005, "lat": 13.8139576, "lon": 100.5459996}, {"type": "node", "id": 346614006, "lat": 13.8148411, "lon": 100.5461455}, {"type": "node", "id": 346614007, "lat": 13.8145619, "lon": 100.5479162}, {"type": "node", "id": 346614008, "lat": 13.8149, "lon": 100.5497742}, {"type": "node", "id": 346614010, "lat": 13.8131993, "lon": 100.5497865}, {"type": "node", "id": 346614011, "lat": 13.8127538, "lon": 100.5496814}, {"type": "node", "id": 346614012, "lat": 13.811975, "lon": 100.5494433}, {"type": "node", "id": 346614013, "lat": 13.8112733, "lon": 100.5491812}, {"type": "node", "id": 346614015, "lat": 13.810311, "lon": 100.5484203}, {"type": "node", "id": 358613848, "lat": 13.758628, "lon": 100.5214744, "tags": {"name": "\u0e22\u0e21\u0e23\u0e32\u0e0a", "name:en": "Yommarat", "name:th": "\u0e22\u0e21\u0e23\u0e32\u0e0a", "public_transport": "station", "railway": "halt", "railway:ref": "\u0e22\u0e0a", "ref": "\u0e22\u0e0a.", "train": "yes", "wikidata": "Q13563190"}}, {"type": "node", "id": 360166991, "lat": 13.7685073, "lon": 100.5255047, "tags": {"name": "\u0e42\u0e23\u0e07\u0e1e\u0e22\u0e32\u0e1a\u0e32\u0e25\u0e23\u0e32\u0e21\u0e32\u0e18\u0e34\u0e1a\u0e14\u0e35", "name:en": "Ramathibodi Hospital", "name:th": "\u0e42\u0e23\u0e07\u0e1e\u0e22\u0e32\u0e1a\u0e32\u0e25\u0e23\u0e32\u0e21\u0e32\u0e18\u0e34\u0e1a\u0e14\u0e35", "public_transport": "station", "railway": "halt", "railway:ref": "\u0e23\u0e18", "ref": "\u0e23\u0e18.", "train": "yes", "wikidata": "Q17057655"}}, {"type": "node", "id": 443815142, "lat": 13.7210854, "lon": 100.4952133, "tags": {"name": "\u0e27\u0e07\u0e40\u0e27\u0e35\u0e22\u0e19\u0e43\u0e2b\u0e0d\u0e48", "name:en": "Wongwian Yai", "name:th": "\u0e27\u0e07\u0e40\u0e27\u0e35\u0e22\u0e19\u0e43\u0e2b\u0e0d\u0e48", "public_transport": "station", "railway": "station", "ref": "S8", "station": "subway", "subway": "yes", "wikidata": "Q5979361"}}, {"type": "node", "id": 443815144, "lat": 13.7209315, "lon": 100.5027229, "tags": {"name": "\u0e01\u0e23\u0e38\u0e07\u0e18\u0e19\u0e1a\u0e38\u0e23\u0e35", "name:en": "Krung Thon Buri", "name:th": "\u0e01\u0e23\u0e38\u0e07\u0e18\u0e19\u0e1a\u0e38\u0e23\u0e35", "network": "BTS", "operator": "BTSC", "public_transport": "station", "railway": "station", "ref": "S7", "station": "subway", "subway": "yes", "wikidata": "Q11299499", "wikipedia": "th:\u0e2a\u0e16\u0e32\u0e19\u0e35\u0e01\u0e23\u0e38\u0e07\u0e18\u0e19\u0e1a\u0e38\u0e23\u0e35"}}, {"type": "node", "id": 444979563, "lat": 13.7329881, "lon": 100.6887532, "tags": {"name": "\u0e1a\u0e49\u0e32\u0e19\u0e17\u0e31\u0e1a\u0e0a\u0e49\u0e32\u0e07", "name:en": "Ban Thap Chang", "public_transport": "station", "railway": "station", "ref": "\u0e17\u0e0a.", "train": "yes"}}, {"type": "node", "id": 451697335, "lat": 13.7285512, "lon": 100.5343447, "tags": {"internet_access": "no", "name": "\u0e28\u0e32\u0e25\u0e32\u0e41\u0e14\u0e07", "name:en": "Sala Daeng", "public_transport": "station", "railway": "station", "ref": "S2", "station": "subway", "subway": "yes"}}, {"type": "node", "id": 566623721, "lat": 13.747855, "lon": 100.5629489, "tags": {"amenity": "ferry_terminal", "ferry": "yes", "name": "\u0e2d\u0e42\u0e28\u0e01", "name:en": "Asoke", "name:ru": "Asoke", "name:th": "\u0e2d\u0e42\u0e28\u0e01", "network": "NIDA Line", "public_transport": "station", "ref": "E5"}}, {"type": "node", "id": 566631929, "lat": 13.7677237, "lon": 100.6521088, "tags": {"amenity": "ferry_terminal", "cargo": "passengers", "ferry": "yes", "name": "\u0e27\u0e31\u0e14\u0e28\u0e23\u0e35\u0e1a\u0e38\u0e0d\u0e40\u0e23\u0e37\u0e2d\u0e07", "name:en": "Wat Sriboonrueng", "name:th": "\u0e27\u0e31\u0e14\u0e28\u0e23\u0e35\u0e1a\u0e38\u0e0d\u0e40\u0e23\u0e37\u0e2d\u0e07", "network": "NIDA Line", "public_transport": "station", "ref": "E22"}}, {"type": "node", "id": 674670279, "lat": 13.6209539, "lon": 100.3779709, "tags": {"name": "\u0e1e\u0e23\u0e21\u0e41\u0e14\u0e19", "name:en": "Phrom Daen", "name:th": "\u0e1e\u0e23\u0e21\u0e41\u0e14\u0e19", "public_transport": "station", "railway": "halt", "railway:ref": "\u0e1e\u0e41", "ref": "\u0e1e\u0e41.", "train": "yes", "wikidata": "Q13021749"}}, {"type": "node", "id": 674670289, "lat": 13.6833027, "lon": 100.447779, "tags": {"name": "\u0e27\u0e31\u0e14\u0e2a\u0e34\u0e07\u0e2b\u0e4c", "name:en": "Wat Sing", "name:th": "\u0e27\u0e31\u0e14\u0e2a\u0e34\u0e07\u0e2b\u0e4c", "public_transport": "station", "railway": "station", "railway:ref": "\u0e2a\u0e34", "ref": "\u0e2a\u0e34.", "train": "yes", "wikidata": "Q6895740"}}, {"type": "node", "id": 674670294, "lat": 13.6915234, "lon": 100.4576121, "tags": {"name": "\u0e27\u0e31\u0e14\u0e44\u0e17\u0e23", "name:en": "Wat Sai", "public_transport": "station", "railway": "halt", "railway:ref": "\u0e27\u0e0b", "ref": "\u0e27\u0e0b.", "source": "survey;schedule of Railway of Thailand", "train": "yes"}}, {"type": "node", "id": 674670328, "lat": 13.7207847, "lon": 100.4779688, "tags": {"name": "\u0e15\u0e25\u0e32\u0e14\u0e1e\u0e25\u0e39", "name:en": "Talat Phlu", "name:th": "\u0e15\u0e25\u0e32\u0e14\u0e1e\u0e25\u0e39", "public_transport": "station", "railway": "station", "railway:ref": "\u0e25\u0e39", "ref": "\u0e25\u0e39.", "train": "yes", "wikidata": "Q13021691"}}, {"type": "node", "id": 674670334, "lat": 13.7244319, "lon": 100.4914194, "tags": {"name": "\u0e27\u0e07\u0e40\u0e27\u0e35\u0e22\u0e19\u0e43\u0e2b\u0e0d\u0e48", "name:en": "Wongwian Yai", "name:th": "\u0e27\u0e07\u0e40\u0e27\u0e35\u0e22\u0e19\u0e43\u0e2b\u0e0d\u0e48", "public_transport": "station", "railway": "station", "railway:ref": "\u0e07\u0e0d", "ref": "\u0e07\u0e0d.", "train": "yes", "wikidata": "Q5979361", "wikipedia": "th:\u0e2a\u0e16\u0e32\u0e19\u0e35\u0e23\u0e16\u0e44\u0e1f\u0e27\u0e07\u0e40\u0e27\u0e35\u0e22\u0e19\u0e43\u0e2b\u0e0d\u0e48"}}, {"type": "node", "id": 765319486, "lat": 13.7185109, "lon": 100.5842606}, {"type": "node", "id": 765319524, "lat": 13.7203827, "lon": 100.5837864}, {"type": "node", "id": 765319591, "lat": 13.71857, "lon": 100.5836892}, {"type": "node", "id": 765319625, "lat": 13.7200298, "lon": 100.584292}, {"type": "node", "id": 970112998, "lat": 13.7380166, "lon": 100.6452618, "tags": {"int_name": "Hua Mak", "name": "\u0e2b\u0e31\u0e27\u0e2b\u0e21\u0e32\u0e01", "name:en": "Hua Mak", "name:th": "\u0e2b\u0e31\u0e27\u0e2b\u0e21\u0e32\u0e01", "network": "ARL", "public_transport": "station", "railway": "station", "ref": "A4", "train": "yes", "wheelchair": "yes", "wikidata": "Q6633722", "wikipedia": "th:\u0e2a\u0e16\u0e32\u0e19\u0e35\u0e2b\u0e31\u0e27\u0e2b\u0e21\u0e32\u0e01"}}, {"type": "node", "id": 1113055052, "lat": 13.7130005, "lon": 100.4689695, "tags": {"name": "\u0e27\u0e38\u0e12\u0e32\u0e01\u0e32\u0e28", "name:en": "Wutthakat", "name:th": "\u0e27\u0e38\u0e12\u0e32\u0e01\u0e32\u0e28", "public_transport": "station", "railway": "station", "ref": "S11", "station": "subway", "subway": "yes", "wikidata": "Q13021838"}}, {"type": "node", "id": 1183545716, "lat": 13.6664939, "lon": 100.428825, "tags": {"name": "\u0e1a\u0e32\u0e07\u0e1a\u0e2d\u0e19", "name:en": "Bang Bon", "name:th": "\u0e1a\u0e32\u0e07\u0e1a\u0e2d\u0e19", "public_transport": "station", "railway": "halt", "railway:ref": "\u0e32\u0e32", "ref": "\u0e32\u0e32.", "train": "yes", "wikidata": "Q16306299"}}, {"type": "node", "id": 1183545761, "lat": 13.639153, "lon": 100.3982168, "tags": {"name": "\u0e23\u0e32\u0e07\u0e42\u0e1e\u0e18\u0e34\u0e4c", "name:en": "Rang Pho", "name:th": "\u0e23\u0e32\u0e07\u0e42\u0e1e\u0e18\u0e34\u0e4c", "public_transport": "station", "railway": "station", "railway:ref": "\u0e23\u0e42", "ref": "\u0e23\u0e42.", "train": "yes", "wikidata": "Q6633388"}}, {"type": "node", "id": 1183546364, "lat": 13.6525133, "lon": 100.4132188, "tags": {"name": "\u0e01\u0e32\u0e23\u0e40\u0e04\u0e2b\u0e30", "name:en": "Kan Kheha", "name:th": "\u0e01\u0e32\u0e23\u0e40\u0e04\u0e2b\u0e30", "public_transport": "station", "railway": "halt", "railway:ref": "\u0e40\u0e04", "ref": "\u0e40\u0e04.", "train": "yes", "wikidata": "Q13015608"}}, {"type": "node", "id": 1183593081, "lat": 13.6301861, "lon": 100.3882537, "tags": {"name": "\u0e2a\u0e32\u0e21\u0e41\u0e22\u0e01", "name:en": "Sam Yaek", "name:th": "\u0e2a\u0e32\u0e21\u0e41\u0e22\u0e01", "public_transport": "station", "railway": "halt", "railway:ref": "\u0e41\u0e22", "ref": "\u0e41\u0e22.", "train": "yes", "wikidata": "Q13021763"}}, {"type": "node", "id": 1285516977, "lat": 13.7938537, "lon": 100.5497289, "tags": {"name": "\u0e2a\u0e30\u0e1e\u0e32\u0e19\u0e04\u0e27\u0e32\u0e22", "name:en": "Saphan Khwai", "name:ja": "\u30b5\u30d1\u30fc\u30f3\u30af\u30ef\u30a4", "name:th": "\u0e2a\u0e30\u0e1e\u0e32\u0e19\u0e04\u0e27\u0e32\u0e22", "public_transport": "station", "railway": "station", "ref": "N7", "station": "subway", "subway": "yes", "wikidata": "Q873690"}}, {"type": "node", "id": 1286877715, "lat": 13.7184118, "lon": 100.5839901}, {"type": "node", "id": 1286877745, "lat": 13.7199756, "lon": 100.5843503}, {"type": "node", "id": 1286878296, "lat": 13.7196196, "lon": 100.5843251}, {"type": "node", "id": 1286879207, "lat": 13.7184594, "lon": 100.5838507}, {"type": "node", "id": 1347844713, "lat": 13.7283784, "lon": 100.7829054, "tags": {"name": "\u0e2b\u0e31\u0e27\u0e15\u0e30\u0e40\u0e02\u0e49", "name:en": "Hua Takhe", "name:th": "\u0e2b\u0e31\u0e27\u0e15\u0e30\u0e40\u0e02\u0e49", "public_transport": "station", "railway": "station", "ref": "\u0e2b\u0e02.", "train": "yes", "wikidata": "Q6633437"}}, {"type": "node", "id": 1637548696, "lat": 13.7538646, "lon": 100.5473417, "tags": {"name": "\u0e21\u0e31\u0e01\u0e01\u0e30\u0e2a\u0e31\u0e19", "name:en": "Makkasan", "name:th": "\u0e21\u0e31\u0e01\u0e01\u0e30\u0e2a\u0e31\u0e19", "public_transport": "station", "railway": "station", "ref": "\u0e21\u0e2a.", "train": "yes", "url": "https://youtu.be/6icVmI-m9LI", "wikidata": "Q16434104", "wikipedia": "th:\u0e2a\u0e16\u0e32\u0e19\u0e35\u0e23\u0e16\u0e44\u0e1f\u0e21\u0e31\u0e01\u0e01\u0e30\u0e2a\u0e31\u0e19"}}, {"type": "node", "id": 1681039896, "lat": 13.6964435, "lon": 100.5453029, "tags": {"alt_name": "\u0e2a\u0e16\u0e32\u0e19\u0e35\u0e23\u0e16\u0e42\u0e14\u0e22\u0e2a\u0e32\u0e23\u0e14\u0e48\u0e27\u0e19\u0e1e\u0e34\u0e40\u0e28\u0e29 [\u0e1a\u0e35\u0e2d\u0e32\u0e23\u0e4c\u0e17\u0e35] \u0e19\u0e23\u0e32\u0e23\u0e32\u0e21 3", "amenity": "bus_station", "name": "\u0e19\u0e23\u0e32\u0e23\u0e32\u0e21 3", "name:en": "Nara-Ram 3 BRT", "network": "BRT", "public_transport": "station", "ref": "5"}}, {"type": "node", "id": 1681043331, "lat": 13.7047818, "lon": 100.5389263, "tags": {"alt_name": "\u0e2a\u0e16\u0e32\u0e19\u0e35\u0e23\u0e16\u0e42\u0e14\u0e22\u0e2a\u0e32\u0e23\u0e14\u0e48\u0e27\u0e19\u0e1e\u0e34\u0e40\u0e28\u0e29 (\u0e1a\u0e35\u0e2d\u0e32\u0e23\u0e4c\u0e17\u0e35) \u0e16\u0e19\u0e19\u0e08\u0e31\u0e19\u0e17\u0e23\u0e4c", "amenity": "bus_station", "name": "\u0e16\u0e19\u0e19\u0e08\u0e31\u0e19\u0e17\u0e19\u0e4c", "name:en": "Thanon Chan BRT", "network": "BRT", "public_transport": "station", "ref": "4"}}, {"type": "node", "id": 1687955182, "lat": 13.7124562, "lon": 100.5349789, "tags": {"alt_name": "\u0e40\u0e22\u0e47\u0e19\u0e2d\u0e32\u0e01\u0e32\u0e28", "alt_name:en": "Yen Akat", "amenity": "bus_station", "name": "\u0e40\u0e17\u0e04\u0e19\u0e34\u0e04\u0e01\u0e23\u0e38\u0e07\u0e40\u0e17\u0e1e", "name:en": "Technic Krungthep BRT", "network": "BRT", "public_transport": "station", "ref": "3", "source": "Bing"}}, {"type": "node", "id": 1692209237, "lat": 13.7456236, "lon": 100.5342199, "tags": {"name": "\u0e2a\u0e22\u0e32\u0e21", "name:en": "Siam", "name:th": "\u0e2a\u0e22\u0e32\u0e21", "public_transport": "station", "railway": "station", "ref": "CEN", "station": "subway", "subway": "yes", "wikidata": "Q1016037"}}, {"type": "node", "id": 1692810681, "lat": 13.7139129, "lon": 100.5538607, "tags": {"name": "\u0e41\u0e21\u0e48\u0e19\u0e49\u0e33", "name:en": "Mae Nam", "public_transport": "station", "railway": "station", "train": "yes", "wikidata": "Q13021806"}}, {"type": "node", "id": 1692912081, "lat": 13.7570106, "lon": 100.5331942, "tags": {"name": "\u0e1e\u0e0d\u0e32\u0e44\u0e17", "name:en": "Phaya Thai", "network": "national", "public_transport": "station", "railway": "halt", "ref": "\u0e0d\u0e17.", "train": "yes"}}, {"type": "node", "id": 1710338306, "lat": 13.8140504, "lon": 100.5498385}, {"type": "node", "id": 1710382691, "lat": 13.8110528, "lon": 100.5480864}, {"type": "node", "id": 1710382705, "lat": 13.8112772, "lon": 100.547874}, {"type": "node", "id": 1710382707, "lat": 13.8110706, "lon": 100.5476425}, {"type": "node", "id": 1710382741, "lat": 13.8108449, "lon": 100.5478669}, {"type": "node", "id": 1724588735, "lat": 13.8041416, "lon": 100.5399615, "tags": {"name": "\u0e0a\u0e38\u0e21\u0e17\u0e32\u0e07\u0e1a\u0e32\u0e07\u0e0b\u0e37\u0e48\u0e2d", "name:en": "Bang Sue Junction", "name:th": "\u0e0a\u0e38\u0e21\u0e17\u0e32\u0e07\u0e1a\u0e32\u0e07\u0e0b\u0e37\u0e48\u0e2d", "public_transport": "station", "railway": "station", "railway:ref": "\u0e1a\u0e0b", "ref": "\u0e1a\u0e0b.", "source": "GPS;sign", "srt_code": "BSJ", "train": "yes", "wikidata": "Q13021685", "wikipedia": "th:\u0e2a\u0e16\u0e32\u0e19\u0e35\u0e23\u0e16\u0e44\u0e1f\u0e0a\u0e38\u0e21\u0e17\u0e32\u0e07\u0e1a\u0e32\u0e07\u0e0b\u0e37\u0e48\u0e2d"}}, {"type": "node", "id": 1726307666, "lat": 13.7275338, "lon": 100.7485509, "tags": {"name": "\u0e25\u0e32\u0e14\u0e01\u0e23\u0e30\u0e1a\u0e31\u0e07", "name:en": "Lat Krabang", "public_transport": "station", "railway": "station", "ref": "\u0e30\u0e1a.", "train": "yes"}}, {"type": "node", "id": 1726307669, "lat": 13.7296823, "lon": 100.7181842, "tags": {"name": "\u0e0b\u0e2d\u0e22\u0e27\u0e31\u0e14\u0e25\u0e32\u0e19\u0e1a\u0e38\u0e0d", "name:en": "Soi Wat Lan Boon", "public_transport": "station", "railway": "halt", "ref": "\u0e0b\u0e27.", "train": "yes"}}, {"type": "node", "id": 1870259848, "lat": 13.8694762, "lon": 100.5925497, "tags": {"alt_name": "\u0e2d\u0e39\u0e48\u0e1a\u0e32\u0e07\u0e40\u0e02\u0e19", "amenity": "bus_station", "building": "public", "bus": "yes", "name": "\u0e2d\u0e39\u0e48\u0e1a\u0e32\u0e07\u0e40\u0e02\u0e19", "name:en": "Bang Khen Bus Depot", "name:th": "\u0e01\u0e25\u0e38\u0e48\u0e21\u0e1b\u0e0f\u0e34\u0e1a\u0e31\u0e15\u0e34\u0e01\u0e32\u0e23\u0e40\u0e14\u0e34\u0e19\u0e23\u0e16\u0e17\u0e35\u0e48 1 \u0e40\u0e02\u0e15\u0e01\u0e32\u0e23\u0e40\u0e14\u0e34\u0e19\u0e23\u0e16\u0e17\u0e35\u0e48 1 (\u0e2d\u0e39\u0e48\u0e1a\u0e32\u0e07\u0e40\u0e02\u0e19)", "public_transport": "station"}}, {"type": "node", "id": 2013379450, "lat": 13.7282066, "lon": 100.7754658, "tags": {"name": "\u0e1e\u0e23\u0e30\u0e08\u0e2d\u0e21\u0e40\u0e01\u0e25\u0e49\u0e32", "name:en": "Phra Chom Klao", "name:th": "\u0e1e\u0e23\u0e30\u0e08\u0e2d\u0e21\u0e40\u0e01\u0e25\u0e49\u0e32", "public_transport": "station", "railway": "halt", "ref": "\u0e1e\u0e21.", "train": "yes", "wikidata": "Q13017024"}}, {"type": "node", "id": 2049513951, "lat": 13.7188416, "lon": 100.5840783}, {"type": "node", "id": 2049513954, "lat": 13.7188553, "lon": 100.5838494}, {"type": "node", "id": 2049513956, "lat": 13.7195768, "lon": 100.5841935}, {"type": "node", "id": 2049513958, "lat": 13.7195809, "lon": 100.584125}, {"type": "node", "id": 2049513960, "lat": 13.7195945, "lon": 100.583896}, {"type": "node", "id": 2049513962, "lat": 13.7195992, "lon": 100.5838168}, {"type": "node", "id": 2049513967, "lat": 13.7197637, "lon": 100.5842053}, {"type": "node", "id": 2049513969, "lat": 13.7197861, "lon": 100.5838286}, {"type": "node", "id": 2089581568, "lat": 13.7168616, "lon": 100.5328454}, {"type": "node", "id": 2089581569, "lat": 13.7168672, "lon": 100.5326525}, {"type": "node", "id": 2089581570, "lat": 13.7168705, "lon": 100.5328642}, {"type": "node", "id": 2089581571, "lat": 13.7168787, "lon": 100.5328815}, {"type": "node", "id": 2089581573, "lat": 13.7168863, "lon": 100.532693}, {"type": "node", "id": 2089581578, "lat": 13.7171476, "lon": 100.5326857}, {"type": "node", "id": 2089581579, "lat": 13.7171537, "lon": 100.5324821}, {"type": "node", "id": 2089581580, "lat": 13.7171537, "lon": 100.5326985}, {"type": "node", "id": 2089581582, "lat": 13.7171548, "lon": 100.5323443}, {"type": "node", "id": 2089581583, "lat": 13.7171602, "lon": 100.5323557}, {"type": "node", "id": 2089581584, "lat": 13.7171638, "lon": 100.5325033}, {"type": "node", "id": 2089581585, "lat": 13.7171708, "lon": 100.5327346}, {"type": "node", "id": 2089581587, "lat": 13.7171805, "lon": 100.5327551}, {"type": "node", "id": 2089581588, "lat": 13.717183, "lon": 100.5325438}, {"type": "node", "id": 2089581589, "lat": 13.7171896, "lon": 100.5325576}, {"type": "node", "id": 2089581591, "lat": 13.7172074, "lon": 100.5324551}, {"type": "node", "id": 2089581592, "lat": 13.717233, "lon": 100.5327287}, {"type": "node", "id": 2089581593, "lat": 13.7172367, "lon": 100.5323032}, {"type": "node", "id": 2089581594, "lat": 13.7172422, "lon": 100.5323147}, {"type": "node", "id": 2089581595, "lat": 13.7172432, "lon": 100.5325306}, {"type": "node", "id": 2089581596, "lat": 13.7172841, "lon": 100.5328364}, {"type": "node", "id": 2089581597, "lat": 13.7172842, "lon": 100.532617}, {"type": "node", "id": 2089581598, "lat": 13.7172902, "lon": 100.5328491}, {"type": "node", "id": 2089581599, "lat": 13.7173145, "lon": 100.5326877}, {"type": "node", "id": 2089581601, "lat": 13.7173658, "lon": 100.5327957}, {"type": "node", "id": 2089581602, "lat": 13.7173717, "lon": 100.5328082}, {"type": "node", "id": 2089581603, "lat": 13.717399, "lon": 100.5326452}, {"type": "node", "id": 2089581610, "lat": 13.721006, "lon": 100.5306208}, {"type": "node", "id": 2089581612, "lat": 13.72102, "lon": 100.5306526}, {"type": "node", "id": 2089581613, "lat": 13.721095, "lon": 100.5306175}, {"type": "node", "id": 2089581616, "lat": 13.7211172, "lon": 100.5307531}, {"type": "node", "id": 2089581618, "lat": 13.721132, "lon": 100.5307868}, {"type": "node", "id": 2089581619, "lat": 13.7211484, "lon": 100.5307384}, {"type": "node", "id": 2089581621, "lat": 13.7212227, "lon": 100.5305194}, {"type": "node", "id": 2089581623, "lat": 13.7212413, "lon": 100.5305614}, {"type": "node", "id": 2089581624, "lat": 13.7212846, "lon": 100.5306595}, {"type": "node", "id": 2089581627, "lat": 13.721305, "lon": 100.5307058}, {"type": "node", "id": 2089581636, "lat": 13.721596, "lon": 100.530389}, {"type": "node", "id": 2089581638, "lat": 13.7216105, "lon": 100.5304347, "tags": {"entrance": "yes"}}, {"type": "node", "id": 2089581639, "lat": 13.7216312, "lon": 100.5304913}, {"type": "node", "id": 2090403330, "lat": 13.690275, "lon": 100.5041959, "tags": {"amenity": "bus_station", "name": "\u0e40\u0e08\u0e23\u0e34\u0e0d\u0e23\u0e32\u0e29\u0e0e\u0e23\u0e4c", "name:en": "Charoenrat", "network": "BRT", "public_transport": "station", "ref": "10", "wheelchair": "yes"}}, {"type": "node", "id": 2090403344, "lat": 13.6939354, "lon": 100.5000723, "tags": {"amenity": "bus_station", "name": "\u0e2a\u0e30\u0e1e\u0e32\u0e19\u0e1e\u0e23\u0e30\u0e23\u0e32\u0e21 3", "name:en": "Rama III Bridge", "network": "BRT", "public_transport": "station", "ref": "11"}}, {"type": "node", "id": 2090403349, "lat": 13.6882009, "lon": 100.5154578, "tags": {"amenity": "bus_station", "name": "\u0e2a\u0e30\u0e1e\u0e32\u0e19\u0e1e\u0e23\u0e30\u0e23\u0e32\u0e21 9", "name:en": "Rama IX Bridge", "network": "BRT", "public_transport": "station", "ref": "9"}}, {"type": "node", "id": 2090403355, "lat": 13.6742341, "lon": 100.5431596, "tags": {"amenity": "bus_station", "name": "\u0e27\u0e31\u0e14\u0e14\u0e48\u0e32\u0e19", "name:en": "Wat Dan", "network": "BRT", "public_transport": "station", "ref": "6"}}, {"type": "node", "id": 2090403361, "lat": 13.6823887, "lon": 100.5253772, "tags": {"amenity": "bus_station", "name": "\u0e27\u0e31\u0e14\u0e14\u0e2d\u0e01\u0e44\u0e21\u0e49", "name:en": "Wat Dokmai", "network": "BRT", "public_transport": "station", "ref": "8"}}, {"type": "node", "id": 2090403366, "lat": 13.6746876, "lon": 100.5342612, "tags": {"amenity": "bus_station", "name": "\u0e27\u0e31\u0e14\u0e1b\u0e23\u0e34\u0e27\u0e32\u0e2a", "name:en": "Wat Pariwat", "network": "BRT", "public_transport": "station", "ref": "7"}}, {"type": "node", "id": 2093901408, "lat": 13.7158923, "lon": 100.4789498, "tags": {"amenity": "bus_station", "internet_access": "no", "name": "\u0e23\u0e32\u0e0a\u0e1e\u0e24\u0e01\u0e29\u0e4c", "name:en": "Ratchapruek", "network": "BRT", "operator": "BMA", "public_transport": "station", "ref": "12", "wheelchair": "yes"}}, {"type": "node", "id": 2094758805, "lat": 13.7296555, "lon": 100.4740862, "tags": {"name": "\u0e17\u0e48\u0e32\u0e1e\u0e23\u0e30", "name:en": "Tha Phra", "public_transport": "station", "railway": "station", "ref": "BL01", "station": "subway", "subway": "yes", "wikidata": "Q13021620"}}, {"type": "node", "id": 2094758837, "lat": 13.7633421, "lon": 100.4733627, "tags": {"name": "\u0e1a\u0e32\u0e07\u0e02\u0e38\u0e19\u0e19\u0e19\u0e17\u0e4c", "name:en": "Bang Khun Non", "name:th": "\u0e1a\u0e32\u0e07\u0e02\u0e38\u0e19\u0e19\u0e19\u0e17\u0e4c", "public_transport": "station", "railway": "station", "ref": "BL04", "station": "subway", "subway": "yes", "wikidata": "Q66372327"}}, {"type": "node", "id": 2107224382, "lat": 13.7981268, "lon": 100.5486834, "tags": {"amenity": "bus_station", "building": "train_station", "bus": "yes", "designation": "\u0e17\u0e32\u0e07\u0e2d\u0e2d\u0e01\u0e1b\u0e23\u0e30\u0e15\u0e39\u0e2a\u0e27\u0e19\u0e08\u0e15\u0e38\u0e08\u0e31\u0e01\u0e23", "name": "\u0e23\u0e16\u0e44\u0e1f\u0e1f\u0e49\u0e32\u0e43\u0e15\u0e49\u0e14\u0e34\u0e19 \u0e2a\u0e16\u0e32\u0e19\u0e35\u0e01\u0e33\u0e40\u0e40\u0e1e\u0e07\u0e40\u0e1e\u0e0a\u0e23", "name:en": "Phet Kamphaeng MRT", "public_transport": "station"}}, {"type": "node", "id": 2122824255, "lat": 13.8008757, "lon": 100.3707398, "tags": {"name": "\u0e28\u0e32\u0e25\u0e32\u0e18\u0e23\u0e23\u0e21\u0e2a\u0e1e\u0e19\u0e4c", "name:en": "Sala Thammasop", "public_transport": "station", "railway": "station", "ref": "\u0e17\u0e1e.", "train": "yes", "wikidata": "Q16271193"}}, {"type": "node", "id": 2151183104, "lat": 13.6803825, "lon": 100.6098074, "tags": {"amenity": "bus_station", "bus": "yes", "public_transport": "station"}}, {"type": "node", "id": 2324802007, "lat": 13.7470606, "lon": 100.5021669, "tags": {"name": "\u0e2a\u0e32\u0e21\u0e22\u0e2d\u0e14", "name:en": "Sam Yot", "public_transport": "station", "railway": "station", "ref": "BL30", "station": "subway", "subway": "yes", "wikidata": "Q61359058"}}, {"type": "node", "id": 2397868508, "lat": 13.7164673, "lon": 100.564873}, {"type": "node", "id": 2397868509, "lat": 13.7166777, "lon": 100.5658578}, {"type": "node", "id": 2397868510, "lat": 13.7169821, "lon": 100.565089}, {"type": "node", "id": 3225124863, "lat": 13.7720047, "lon": 100.6521797, "tags": {"amenity": "bus_station", "bus": "yes", "name": "\u0e17\u0e48\u0e32\u0e23\u0e16\u0e40\u0e21\u0e25\u0e4c\u0e2a\u0e32\u0e22 44,191", "operator": "\u0e02\u0e2a\u0e21\u0e01.", "public_transport": "station"}}, {"type": "node", "id": 3225161462, "lat": 13.7685034, "lon": 100.6569956, "tags": {"amenity": "bus_station", "bus": "yes", "name": "\u0e17\u0e48\u0e32\u0e1b\u0e25\u0e48\u0e2d\u0e22\u0e23\u0e16\u0e40\u0e21\u0e25\u0e4c\u0e2a\u0e32\u0e22 \u0e1b\u0e2d.40", "operator": "smart bus", "public_transport": "station"}}, {"type": "node", "id": 3487510830, "lat": 13.8293366, "lon": 100.5269934}, {"type": "node", "id": 3487510832, "lat": 13.8294744, "lon": 100.5271153}, {"type": "node", "id": 3487510835, "lat": 13.8302491, "lon": 100.5259}, {"type": "node", "id": 3487510837, "lat": 13.8303869, "lon": 100.5260219}, {"type": "node", "id": 3488652931, "lat": 13.7201777, "lon": 100.523787, "tags": {"amenity": "bus_station", "bus": "yes", "name:de": "Sathorn", "name:en": "Sathorn", "operator": "BTS", "public_transport": "station"}}, {"type": "node", "id": 3488652932, "lat": 13.7195413, "lon": 100.5217605, "tags": {"amenity": "bus_station", "bus": "yes", "public_transport": "station"}}, {"type": "node", "id": 3641278609, "lat": 13.7896492, "lon": 100.4396142, "tags": {"name": "\u0e0a\u0e38\u0e21\u0e17\u0e32\u0e07\u0e15\u0e25\u0e34\u0e48\u0e07\u0e0a\u0e31\u0e19", "name:en": "Taling Chan Junction", "name:th": "\u0e0a\u0e38\u0e21\u0e17\u0e32\u0e07\u0e15\u0e25\u0e34\u0e48\u0e07\u0e0a\u0e31\u0e19", "public_transport": "station", "railway": "station", "ref": "\u0e15\u0e0a.;RW06", "srt_code": "4004", "train": "yes", "wikidata": "Q6633300"}}, {"type": "node", "id": 3801037850, "lat": 13.7401022, "lon": 100.4707256, "tags": {"name": "\u0e08\u0e23\u0e31\u0e0d\u0e2f 13", "name:en": "Charan 13", "name:th": "\u0e08\u0e23\u0e31\u0e0d\u0e2f 13", "public_transport": "station", "railway": "station", "ref": "BL02", "station": "subway", "subway": "yes", "wikidata": "Q66088546"}}, {"type": "node", "id": 3801037852, "lat": 13.7923865, "lon": 100.5048775, "tags": {"name": "\u0e1a\u0e32\u0e07\u0e1e\u0e25\u0e31\u0e14", "name:en": "Bang Phlat", "name:th": "\u0e1a\u0e32\u0e07\u0e1e\u0e25\u0e31\u0e14", "public_transport": "station", "railway": "station", "ref": "BL07", "station": "subway", "subway": "yes", "wikidata": "Q95770449"}}, {"type": "node", "id": 3801037853, "lat": 13.7774636, "lon": 100.4853349, "tags": {"name": "\u0e1a\u0e32\u0e07\u0e22\u0e35\u0e48\u0e02\u0e31\u0e19", "name:en": "Bang Yi Khan", "name:th": "\u0e1a\u0e32\u0e07\u0e22\u0e35\u0e48\u0e02\u0e31\u0e19", "public_transport": "station", "railway": "station", "ref": "BL05", "station": "subway", "subway": "yes", "wikidata": "Q66372347"}}, {"type": "node", "id": 3801037855, "lat": 13.7989922, "lon": 100.5097921, "tags": {"name": "\u0e1a\u0e32\u0e07\u0e2d\u0e49\u0e2d", "name:en": "Bang O", "name:th": "\u0e1a\u0e32\u0e07\u0e2d\u0e49\u0e2d", "public_transport": "station", "railway": "station", "ref": "BL08", "station": "subway", "subway": "yes", "wikidata": "Q95770065"}}, {"type": "node", "id": 3801037856, "lat": 13.711898, "lon": 100.422275, "tags": {"name": "\u0e1a\u0e32\u0e07\u0e41\u0e04", "name:en": "Bang Khae", "public_transport": "station", "railway": "station", "ref": "BL37", "station": "subway", "subway": "yes", "wikidata": "Q19794085"}}, {"type": "node", "id": 3801040557, "lat": 13.8064095, "lon": 100.521098, "tags": {"name": "\u0e1a\u0e32\u0e07\u0e42\u0e1e", "name:en": "Bang Pho", "name:th": "\u0e1a\u0e32\u0e07\u0e42\u0e1e", "public_transport": "station", "railway": "station", "ref": "BL09", "station": "subway", "subway": "yes", "wikidata": "Q95769171"}}, {"type": "node", "id": 3801040558, "lat": 13.724652, "lon": 100.4652038, "tags": {"name": "\u0e1a\u0e32\u0e07\u0e44\u0e1c\u0e48", "name:en": "Bang Phai", "public_transport": "station", "railway": "station", "ref": "BL33", "station": "subway", "subway": "yes", "wikidata": "Q66091152"}}, {"type": "node", "id": 3801040559, "lat": 13.7128792, "lon": 100.4342807, "tags": {"name": "\u0e20\u0e32\u0e29\u0e35\u0e40\u0e08\u0e23\u0e34\u0e0d", "name:en": "Phasi Charoen", "public_transport": "station", "railway": "station", "ref": "BL36", "station": "subway", "subway": "yes", "wikidata": "Q13021653"}}, {"type": "node", "id": 3801040560, "lat": 13.7443341, "lon": 100.494692, "tags": {"name": "\u0e2a\u0e19\u0e32\u0e21\u0e44\u0e0a\u0e22", "name:en": "Sanam Chai", "public_transport": "station", "railway": "station", "ref": "BL31", "station": "subway", "subway": "yes", "wikidata": "Q19794088"}}, {"type": "node", "id": 3801040561, "lat": 13.7108512, "lon": 100.4094409, "tags": {"air_conditioning": "no", "name": "\u0e2b\u0e25\u0e31\u0e01\u0e2a\u0e2d\u0e07", "name:en": "Lak Song", "public_transport": "station", "railway": "station", "ref": "BL38", "start_date": "2019-09-21", "station": "subway", "subway": "yes", "wheelchair": "yes", "wikidata": "Q13021860"}}, {"type": "node", "id": 3801040562, "lat": 13.7383274, "lon": 100.4857021, "tags": {"name": "\u0e2d\u0e34\u0e2a\u0e23\u0e20\u0e32\u0e1e", "name:en": "Itsaraphap", "public_transport": "station", "railway": "station", "ref": "BL32", "station": "subway", "subway": "yes", "wikidata": "Q25537502"}}, {"type": "node", "id": 3801040563, "lat": 13.7422014, "lon": 100.5099045, "tags": {"name": "\u0e27\u0e31\u0e14\u0e21\u0e31\u0e07\u0e01\u0e23", "name:en": "Wat Mangkon", "public_transport": "station", "railway": "station", "ref": "BL29", "station": "subway", "subway": "yes", "wikidata": "Q13021830"}}, {"type": "node", "id": 3801040564, "lat": 13.7155165, "lon": 100.4453855, "tags": {"name": "\u0e40\u0e1e\u0e0a\u0e23\u0e40\u0e01\u0e29\u0e21 48", "name:en": "Phetkasem 48", "public_transport": "station", "railway": "station", "ref": "BL35", "station": "subway", "subway": "yes", "wikidata": "Q16307680"}}, {"type": "node", "id": 3805378261, "lat": 13.87525, "lon": 100.5967447, "tags": {"name": "\u0e27\u0e31\u0e14\u0e1e\u0e23\u0e30\u0e28\u0e23\u0e35\u0e21\u0e2b\u0e32\u0e18\u0e32\u0e15\u0e38", "name:en": "Wat Phra Sri Mahathat", "public_transport": "station", "railway": "station", "ref": "N17", "station": "subway", "subway": "yes", "wikidata": "Q61357968"}}, {"type": "node", "id": 4134821296, "lat": 13.7191666, "lon": 100.5216761, "tags": {"amenity": "bus_station", "bus": "yes", "public_transport": "station"}}, {"type": "node", "id": 4166678294, "lat": 13.7056017, "lon": 100.6011375, "tags": {"addr:street": "\u0e2a\u0e38\u0e02\u0e38\u0e21\u0e27\u0e34\u0e17 50", "amenity": "bus_station", "bus": "yes", "public_transport": "station"}}, {"type": "node", "id": 4574662277, "lat": 13.7215641, "lon": 100.5304045}, {"type": "node", "id": 4659143529, "lat": 13.7064866, "lon": 100.4697742, "tags": {"name": "\u0e04\u0e25\u0e2d\u0e07\u0e15\u0e49\u0e19\u0e44\u0e17\u0e23", "name:en": "Khlong Ton Sai", "public_transport": "station", "railway": "halt", "railway:ref": "\u0e44\u0e0b", "ref": "\u0e44\u0e0b.", "source": "bing;survey;schedule of Railway of Thailand", "train": "yes", "wikidata": "Q13015613"}}, {"type": "node", "id": 4723455789, "lat": 13.8122324, "lon": 100.5473356, "tags": {"amenity": "bus_station", "bus": "yes", "name": "Estacion Mo Chit", "name:en": "Mini-van to Ayutthaya (new location 2017)", "name:th": "Estacion Mo Chit", "public_transport": "station"}}, {"type": "node", "id": 5222817655, "lat": 13.8298636, "lon": 100.526496, "tags": {"name": "\u0e27\u0e07\u0e28\u0e4c\u0e2a\u0e27\u0e48\u0e32\u0e07", "name:en": "Wong Sawang", "public_transport": "station", "railway": "station", "ref": "PP14", "station": "subway", "subway": "yes"}}, {"type": "node", "id": 5222817656, "lat": 13.820081, "lon": 100.5324581, "tags": {"name": "\u0e1a\u0e32\u0e07\u0e0b\u0e48\u0e2d\u0e19", "name:en": "Bang Son", "public_transport": "station", "railway": "station", "ref": "PP15", "station": "subway", "subway": "yes"}}, {"type": "node", "id": 5321896325, "lat": 13.8127873, "lon": 100.5471606, "tags": {"amenity": "bus_station", "bus": "yes", "name:en": "MoChit Station", "public_transport": "station"}}, {"type": "node", "id": 5388599065, "lat": 13.8025838, "lon": 100.5537486, "tags": {"name": "\u0e2b\u0e21\u0e2d\u0e0a\u0e34\u0e15", "name:en": "Mo Chit", "name:ja": "\u30e2\u30fc\u30c1\u30c3\u30c8", "name:th": "\u0e2b\u0e21\u0e2d\u0e0a\u0e34\u0e15", "public_transport": "station", "railway": "station", "ref": "N8", "station": "subway", "subway": "yes", "toilets:wheelchair": "no", "wheelchair": "limited", "wheelchair:description": "Mochit Station This station has elevator near the stairs.", "wikidata": "Q873641"}}, {"type": "node", "id": 5388607091, "lat": 13.7795668, "lon": 100.5446201, "tags": {"name": "\u0e2d\u0e32\u0e23\u0e35\u0e22\u0e4c", "name:en": "Ari", "name:th": "\u0e2d\u0e32\u0e23\u0e35\u0e22\u0e4c", "public_transport": "station", "railway": "station", "ref": "N5", "station": "subway", "subway": "yes", "toilets:wheelchair": "no", "wheelchair": "limited", "wheelchair:description": "Ari Station", "wikidata": "Q6149301"}}, {"type": "node", "id": 5388610344, "lat": 13.7569644, "lon": 100.5338214, "tags": {"name": "\u0e1e\u0e0d\u0e32\u0e44\u0e17", "name:en": "Phaya Thai", "name:th": "\u0e1e\u0e0d\u0e32\u0e44\u0e17", "public_transport": "station", "railway": "station", "ref": "N2", "station": "subway", "subway": "yes"}}, {"type": "node", "id": 5388611982, "lat": 13.7518364, "lon": 100.5315241, "tags": {"name": "\u0e23\u0e32\u0e0a\u0e40\u0e17\u0e27\u0e35", "name:en": "Ratchathewi", "name:th": "\u0e23\u0e32\u0e0a\u0e40\u0e17\u0e27\u0e35", "public_transport": "station", "railway": "station", "ref": "N1", "station": "subway", "subway": "yes", "wikidata": "Q6633184"}}, {"type": "node", "id": 5388638318, "lat": 13.7725575, "lon": 100.5420399, "tags": {"name": "\u0e2a\u0e19\u0e32\u0e21\u0e40\u0e1b\u0e49\u0e32", "name:en": "Sanam Pao", "name:th": "\u0e2a\u0e19\u0e32\u0e21\u0e40\u0e1b\u0e49\u0e32", "public_transport": "station", "railway": "station", "ref": "N4", "station": "subway", "subway": "yes", "wikidata": "Q4922512"}}, {"type": "node", "id": 5391599348, "lat": 13.6611434, "lon": 100.6017937, "tags": {"internet_access:fee": "yes", "name": "\u0e41\u0e1a\u0e23\u0e34\u0e48\u0e07", "name:en": "Bearing", "name:th": "\u0e41\u0e1a\u0e23\u0e34\u0e48\u0e07", "public_transport": "station", "railway": "station", "ref": "E14", "station": "subway", "subway": "yes", "wikidata": "Q6633805"}}, {"type": "node", "id": 5391610964, "lat": 13.6681076, "lon": 100.6046087, "tags": {"name": "\u0e1a\u0e32\u0e07\u0e19\u0e32", "name:en": "Bang Na", "name:th": "\u0e1a\u0e32\u0e07\u0e19\u0e32", "public_transport": "station", "railway": "station", "ref": "E13", "station": "subway", "subway": "yes", "wikidata": "Q6633173"}}, {"type": "node", "id": 5391610985, "lat": 13.7152303, "lon": 100.5911607, "tags": {"addr:city": "Bangkok", "addr:postcode": "10110", "addr:street": "Sukhumvit Road", "air_conditioning": "no", "internet_access": "no", "name": "\u0e1e\u0e23\u0e30\u0e42\u0e02\u0e19\u0e07", "name:en": "Phra Khanong", "name:th": "\u0e1e\u0e23\u0e30\u0e42\u0e02\u0e19\u0e07", "network": "Sukhumvit Line", "operator": "Bangkok Mass Transit System PCL", "public_transport": "station", "railway": "station", "ref": "E8", "station": "subway", "subway": "yes", "wikidata": "Q4924738"}}, {"type": "node", "id": 5391611863, "lat": 13.762729, "lon": 100.5370874, "tags": {"name": "\u0e2d\u0e19\u0e38\u0e2a\u0e32\u0e27\u0e23\u0e35\u0e22\u0e4c\u0e0a\u0e31\u0e22\u0e2a\u0e21\u0e23\u0e20\u0e39\u0e21\u0e34", "name:en": "Victory Monument", "name:th": "\u0e2d\u0e19\u0e38\u0e2a\u0e32\u0e27\u0e23\u0e35\u0e22\u0e4c\u0e0a\u0e31\u0e22\u0e2a\u0e21\u0e23\u0e20\u0e39\u0e21\u0e34", "public_transport": "station", "railway": "station", "ref": "N3", "station": "subway", "subway": "yes", "wikidata": "Q4919845"}}, {"type": "node", "id": 5391613497, "lat": 13.6798735, "lon": 100.6094071, "tags": {"name": "\u0e2d\u0e38\u0e14\u0e21\u0e2a\u0e38\u0e02", "name:en": "Udom Suk", "name:th": "\u0e2d\u0e38\u0e14\u0e21\u0e2a\u0e38\u0e02", "public_transport": "station", "railway": "station", "ref": "E12", "station": "subway", "subway": "yes", "wikidata": "Q13021857"}}, {"type": "node", "id": 5391616767, "lat": 13.6892925, "lon": 100.6089767, "tags": {"name": "\u0e1b\u0e38\u0e13\u0e13\u0e27\u0e34\u0e16\u0e35", "name:en": "Punnawithi", "name:th": "\u0e1b\u0e38\u0e13\u0e13\u0e27\u0e34\u0e16\u0e35", "public_transport": "station", "railway": "station", "ref": "E11", "station": "subway", "subway": "yes", "wikidata": "Q6633186"}}, {"type": "node", "id": 5391618414, "lat": 13.6966727, "lon": 100.6053029, "tags": {"alt_name:en": "Bang Jak", "name": "\u0e1a\u0e32\u0e07\u0e08\u0e32\u0e01", "name:en": "Bang Chak", "name:th": "\u0e1a\u0e32\u0e07\u0e08\u0e32\u0e01", "public_transport": "station", "railway": "station", "ref": "E10", "station": "subway", "subway": "yes", "wikidata": "Q6633183"}}, {"type": "node", "id": 5391620400, "lat": 13.7056555, "lon": 100.60107, "tags": {"name": "\u0e2d\u0e48\u0e2d\u0e19\u0e19\u0e38\u0e0a", "name:en": "On Nut", "name:th": "\u0e2d\u0e48\u0e2d\u0e19\u0e19\u0e38\u0e0a", "public_transport": "station", "railway": "station", "ref": "E9", "station": "subway", "subway": "yes", "wikidata": "Q1028755"}}, {"type": "node", "id": 5391625873, "lat": 13.7369847, "lon": 100.5604113, "tags": {"name": "\u0e2d\u0e42\u0e28\u0e01", "name:en": "Asok", "name:ja": "\u30a2\u30bd\u30fc\u30af\u99c5", "name:th": "\u0e2d\u0e42\u0e28\u0e01", "public_transport": "station", "railway": "station", "ref": "E4", "station": "subway", "subway": "yes", "wikidata": "Q4924120"}}, {"type": "node", "id": 5391626092, "lat": 13.7242599, "lon": 100.5784488, "tags": {"name": "\u0e17\u0e2d\u0e07\u0e2b\u0e25\u0e48\u0e2d", "name:en": "Thong Lo", "name:ja": "\u30c8\u30f3\u30ed\u30fc\u99c5", "name:th": "\u0e17\u0e2d\u0e07\u0e2b\u0e25\u0e48\u0e2d", "public_transport": "station", "railway": "station", "ref": "E6", "station": "subway", "subway": "yes", "wheelchair": "yes", "wikidata": "Q4924220"}}, {"type": "node", "id": 5391626093, "lat": 13.7304969, "lon": 100.5695835, "tags": {"name": "\u0e1e\u0e23\u0e49\u0e2d\u0e21\u0e1e\u0e07\u0e29\u0e4c", "name:en": "Phrom Phong", "name:ja": "\u30d7\u30ed\u30f3\u30dd\u30f3\u99c5", "name:th": "\u0e1e\u0e23\u0e49\u0e2d\u0e21\u0e1e\u0e07\u0e29\u0e4c", "public_transport": "station", "railway": "station", "ref": "E5", "station": "subway", "subway": "yes", "toilets:wheelchair": "no", "wheelchair": "limited", "wikidata": "Q1028691"}}, {"type": "node", "id": 5391628766, "lat": 13.740646, "lon": 100.5553461, "tags": {"name": "\u0e19\u0e32\u0e19\u0e32", "name:en": "Nana", "name:th": "\u0e19\u0e32\u0e19\u0e32", "public_transport": "station", "railway": "station", "ref": "E3", "station": "subway", "subway": "yes", "wikidata": "Q6633167"}}, {"type": "node", "id": 5391631777, "lat": 13.7430614, "lon": 100.5491608, "tags": {"name": "\u0e40\u0e1e\u0e25\u0e34\u0e19\u0e08\u0e34\u0e15", "name:en": "Phloen Chit", "name:th": "\u0e40\u0e1e\u0e25\u0e34\u0e19\u0e08\u0e34\u0e15", "public_transport": "station", "railway": "station", "ref": "E2", "station": "subway", "subway": "yes", "wikidata": "Q4921113"}}, {"type": "node", "id": 5391636575, "lat": 13.7441347, "lon": 100.543019, "tags": {"name": "\u0e0a\u0e34\u0e14\u0e25\u0e21", "name:en": "Chit Lom", "name:th": "\u0e0a\u0e34\u0e14\u0e25\u0e21", "public_transport": "station", "railway": "station", "ref": "E1", "station": "subway", "subway": "yes", "wheelchair": "yes", "wikidata": "Q6633149"}}, {"type": "node", "id": 5391691787, "lat": 13.7373948, "lon": 100.5613401, "tags": {"name": "\u0e2a\u0e38\u0e02\u0e38\u0e21\u0e27\u0e34\u0e17", "name:en": "Sukhumvit", "name:th": "\u0e2a\u0e38\u0e02\u0e38\u0e21\u0e27\u0e34\u0e17", "public_transport": "station", "railway": "station", "ref": "BL22", "station": "subway", "subway": "yes", "wikidata": "Q1036841"}}, {"type": "node", "id": 5405616025, "lat": 13.7195109, "lon": 100.5851187, "tags": {"name": "\u0e40\u0e2d\u0e01\u0e21\u0e31\u0e22", "name:en": "Ekkamai", "name:ru": "\u042d\u043a\u043a\u0430\u043c\u0430\u0439", "name:th": "\u0e40\u0e2d\u0e01\u0e21\u0e31\u0e22", "public_transport": "station", "railway": "station", "ref": "E7", "station": "subway", "subway": "yes", "wheelchair": "yes", "wikidata": "Q4919536"}}, {"type": "node", "id": 5472737123, "lat": 13.744339, "lon": 100.5895169, "tags": {"name": "\u0e04\u0e25\u0e2d\u0e07\u0e15\u0e31\u0e19", "name:en": "Khlong Tan", "operator": "SRT", "public_transport": "station", "railway": "station", "ref": "\u0e04\u0e15.", "train": "yes"}}, {"type": "node", "id": 5556240034, "lat": 13.7097638, "lon": 100.563743, "tags": {"amenity": "bus_station", "bus": "yes", "name": "\u0e17\u0e48\u0e32\u0e40\u0e23\u0e37\u0e2d\u0e04\u0e25\u0e2d\u0e07\u0e40\u0e15\u0e22", "name:en": "Khlong Toei Port", "name:th": "\u0e17\u0e48\u0e32\u0e40\u0e23\u0e37\u0e2d\u0e04\u0e25\u0e2d\u0e07\u0e40\u0e15\u0e22", "public_transport": "station"}}, {"type": "node", "id": 5634060223, "lat": 13.7200258, "lon": 100.5843063, "tags": {"addr:street": "\u0e40\u0e2d\u0e01\u0e21\u0e31\u0e22 \u0e0b\u0e2d\u0e22 2", "amenity": "bus_station", "bus": "yes", "name:en": "Bus station to Trat", "public_transport": "station"}}, {"type": "node", "id": 5634063123, "lat": 13.7198887, "lon": 100.5843505, "tags": {"amenity": "bus_station", "bus": "yes", "name:en": "Bus station to Trat", "public_transport": "station"}}, {"type": "node", "id": 5804426111, "lat": 13.7111028, "lon": 100.5591509, "tags": {"amenity": "ferry_terminal", "ferry": "yes", "name": "Chongnonsri Terminal", "public_transport": "station"}}, {"type": "node", "id": 5812248586, "lat": 13.726466, "lon": 100.5090513, "tags": {"name": "\u0e40\u0e08\u0e23\u0e34\u0e0d\u0e19\u0e04\u0e23", "name:en": "Charoen Nakhon", "name:th": "\u0e40\u0e08\u0e23\u0e34\u0e0d\u0e19\u0e04\u0e23", "network": "BTS", "operator": "BTSC", "public_transport": "station", "railway": "station", "ref": "G2", "station": "subway", "subway": "yes", "wikidata": "Q104212231", "wikipedia": "th:\u0e2a\u0e16\u0e32\u0e19\u0e35\u0e40\u0e08\u0e23\u0e34\u0e0d\u0e19\u0e04\u0e23 (\u0e23\u0e16\u0e44\u0e1f\u0e1f\u0e49\u0e32\u0e2a\u0e32\u0e22\u0e2a\u0e35\u0e17\u0e2d\u0e07)"}}, {"type": "node", "id": 5812248587, "lat": 13.7303828, "lon": 100.5076234, "tags": {"name": "\u0e04\u0e25\u0e2d\u0e07\u0e2a\u0e32\u0e19", "name:en": "Khlong San", "name:th": "\u0e04\u0e25\u0e2d\u0e07\u0e2a\u0e32\u0e19", "network": "BTS", "operator": "BTSC", "public_transport": "station", "railway": "station", "ref": "G3", "station": "subway", "subway": "yes", "wikidata": "Q104212244", "wikipedia": "th:\u0e2a\u0e16\u0e32\u0e19\u0e35\u0e04\u0e25\u0e2d\u0e07\u0e2a\u0e32\u0e19 (\u0e23\u0e16\u0e44\u0e1f\u0e1f\u0e49\u0e32\u0e2a\u0e32\u0e22\u0e2a\u0e35\u0e17\u0e2d\u0e07)"}}, {"type": "node", "id": 5998260186, "lat": 13.7601728, "lon": 100.6223088, "tags": {"amenity": "bus_station", "bus": "yes", "name": "Bus Station", "public_transport": "station"}}, {"type": "node", "id": 5998261885, "lat": 13.7612093, "lon": 100.6310639, "tags": {"amenity": "bus_station", "bus": "yes", "name": "Bus station", "public_transport": "station"}}, {"type": "node", "id": 6150748789, "lat": 13.7410571, "lon": 100.5085305, "tags": {"amenity": "bus_station", "bus": "yes", "name": "53", "name:en": "53", "name:th": "53", "note": "\u05d4\u05ea\u05d7\u05e0\u05d4 \u05e9\u05dc 53 \u05e9\u05dc \u05d4\u05e9\u05d5\u05e7 \u05d4\u05de\u05d2\u05e0\u05d9\u05d1 \u05d1\u05e6\u05d9\u05d9\u05e0\u05d4", "public_transport": "station"}}, {"type": "node", "id": 6150815344, "lat": 13.7266265, "lon": 100.5118539, "tags": {"amenity": "ferry_terminal", "ferry": "yes", "name": "Icon Siam Pier", "name:en": "Icon Siam Pier", "public_transport": "station", "wheelchair": "yes"}}, {"type": "node", "id": 6228668385, "lat": 13.7200739, "lon": 100.8630607, "tags": {"name": "\u0e04\u0e25\u0e2d\u0e07\u0e2b\u0e25\u0e27\u0e07\u0e41\u0e1e\u0e48\u0e07", "name:en": "Khlong Luang Phaeng", "public_transport": "station", "railway": "station", "ref": "\u0e04\u0e1e.", "train": "yes", "wikidata": "Q13021666"}}, {"type": "node", "id": 6346292293, "lat": 13.8110547, "lon": 100.5476541}, {"type": "node", "id": 6346292294, "lat": 13.8110292, "lon": 100.5476227}, {"type": "node", "id": 6346292295, "lat": 13.810855, "lon": 100.5478534}, {"type": "node", "id": 6346292296, "lat": 13.8108234, "lon": 100.5478196}, {"type": "node", "id": 6346292335, "lat": 13.8106479, "lon": 100.5486867}, {"type": "node", "id": 6351031485, "lat": 13.7906352, "lon": 100.5444614, "tags": {"amenity": "motorcycle_station", "motorcycle": "yes", "name": "\u0e27\u0e34\u0e19\u0e1b\u0e23\u0e30\u0e14\u0e34\u0e1e\u0e31\u0e17\u0e18\u0e4c 17", "public_transport": "station", "type": "public_transport"}}, {"type": "node", "id": 6563228219, "lat": 13.7838043, "lon": 100.4932366, "tags": {"name": "\u0e2a\u0e34\u0e23\u0e34\u0e19\u0e18\u0e23", "name:en": "Sirindhorn", "name:th": "\u0e2a\u0e34\u0e23\u0e34\u0e19\u0e18\u0e23", "public_transport": "station", "railway": "station", "ref": "BL06", "station": "subway", "subway": "yes", "wikidata": "Q83555413"}}, {"type": "node", "id": 6681609012, "lat": 13.92502, "lon": 100.6258647, "tags": {"name": "\u0e41\u0e22\u0e01 \u0e04\u0e1b\u0e2d.", "name:en": "Yaek Kor Por Aor", "name:th": "\u0e41\u0e22\u0e01 \u0e04\u0e1b\u0e2d.", "opening_date": "2020-12-16", "public_transport": "station", "railway": "station", "ref": "N23", "station": "subway", "subway": "yes", "wikidata": "Q104211805"}}, {"type": "node", "id": 6681609016, "lat": 13.9178718, "lon": 100.6216528, "tags": {"name": "\u0e1e\u0e34\u0e1e\u0e34\u0e18\u0e20\u0e31\u0e13\u0e11\u0e4c\u0e01\u0e2d\u0e07\u0e17\u0e31\u0e1e\u0e2d\u0e32\u0e01\u0e32\u0e28", "name:en": "Royal Thai Air Force Museum", "name:th": "\u0e1e\u0e34\u0e1e\u0e34\u0e18\u0e20\u0e31\u0e13\u0e11\u0e4c\u0e01\u0e2d\u0e07\u0e17\u0e31\u0e1e\u0e2d\u0e32\u0e01\u0e32\u0e28", "network": "BTS", "opening_date": "2020-12-16", "operator": "BTSC", "public_transport": "station", "railway": "station", "ref": "N22", "station": "subway", "subway": "yes", "wikidata": "Q104211775"}}, {"type": "node", "id": 6681609017, "lat": 13.9106998, "lon": 100.6173963, "tags": {"name": "\u0e42\u0e23\u0e07\u0e1e\u0e22\u0e32\u0e1a\u0e32\u0e25\u0e20\u0e39\u0e21\u0e34\u0e1e\u0e25\u0e2d\u0e14\u0e38\u0e25\u0e22\u0e40\u0e14\u0e0a", "name:en": "Bhumibol Adulyadej Hospital", "name:th": "\u0e42\u0e23\u0e07\u0e1e\u0e22\u0e32\u0e1a\u0e32\u0e25\u0e20\u0e39\u0e21\u0e34\u0e1e\u0e25\u0e2d\u0e14\u0e38\u0e25\u0e22\u0e40\u0e14\u0e0a", "opening_date": "2020-12-16", "public_transport": "station", "railway": "station", "ref": "N21", "station": "subway", "subway": "yes", "wikidata": "Q104211764"}}, {"type": "node", "id": 6681609018, "lat": 13.8965, "lon": 100.6090366, "tags": {"name": "\u0e2a\u0e30\u0e1e\u0e32\u0e19\u0e43\u0e2b\u0e21\u0e48", "name:en": "Saphan Mai", "name:th": "\u0e2a\u0e30\u0e1e\u0e32\u0e19\u0e43\u0e2b\u0e21\u0e48", "opening_date": "2020-12-16", "public_transport": "station", "railway": "station", "ref": "N20", "station": "subway", "subway": "yes", "wikidata": "Q104211663", "wikipedia": "th:\u0e2a\u0e16\u0e32\u0e19\u0e35\u0e2a\u0e30\u0e1e\u0e32\u0e19\u0e43\u0e2b\u0e21\u0e48"}}, {"type": "node", "id": 6681609019, "lat": 13.8884692, "lon": 100.604296, "tags": {"name": "\u0e2a\u0e32\u0e22\u0e2b\u0e22\u0e38\u0e14", "name:en": "Sai Yud", "name:th": "\u0e2a\u0e32\u0e22\u0e2b\u0e22\u0e38\u0e14", "opening_date": "2020-12-16", "public_transport": "station", "railway": "station", "ref": "N19", "station": "subway", "subway": "yes", "wikidata": "Q104211647"}}, {"type": "node", "id": 6681609020, "lat": 13.8825166, "lon": 100.6008049, "tags": {"name": "\u0e1e\u0e2b\u0e25\u0e42\u0e22\u0e18\u0e34\u0e19 59", "name:en": "Phahonyothin 59", "name:th": "\u0e1e\u0e2b\u0e25\u0e42\u0e22\u0e18\u0e34\u0e19 59", "opening_date": "2020-12-16", "public_transport": "station", "railway": "station", "ref": "N18", "station": "subway", "subway": "yes", "wikidata": "Q104211602"}}, {"type": "node", "id": 6681609024, "lat": 13.8676583, "lon": 100.5920742, "tags": {"name": "\u0e01\u0e23\u0e21\u0e17\u0e2b\u0e32\u0e23\u0e23\u0e32\u0e1a\u0e17\u0e35\u0e48 11", "name:en": "11th Infantry Regiment", "public_transport": "station", "railway": "station", "ref": "N16", "station": "subway", "subway": "yes", "wikidata": "Q96096780"}}, {"type": "node", "id": 6681609025, "lat": 13.8560055, "lon": 100.5852001, "tags": {"name": "\u0e1a\u0e32\u0e07\u0e1a\u0e31\u0e27", "name:en": "Bang Bua", "public_transport": "station", "railway": "station", "ref": "N15", "station": "subway", "subway": "yes", "wikidata": "Q96075530"}}, {"type": "node", "id": 6681609026, "lat": 13.8502849, "lon": 100.5818565, "tags": {"name": "\u0e01\u0e23\u0e21\u0e1b\u0e48\u0e32\u0e44\u0e21\u0e49", "name:en": "Royal Forest Department", "name:ja": "\u30ed\u30a4\u30e4\u30eb\u30d5\u30a9\u30ec\u30b9\u30c8\u30c7\u30d1\u30fc\u30c8\u30e1\u30f3\u30c8\u99c5", "public_transport": "station", "railway": "station", "ref": "N14", "station": "subway", "subway": "yes", "wikidata": "Q96096835"}}, {"type": "node", "id": 6681609027, "lat": 13.8422656, "lon": 100.5771225, "tags": {"name": "\u0e21\u0e2b\u0e32\u0e27\u0e34\u0e17\u0e22\u0e32\u0e25\u0e31\u0e22\u0e40\u0e01\u0e29\u0e15\u0e23\u0e28\u0e32\u0e2a\u0e15\u0e23\u0e4c", "name:en": "Kasetsart University", "name:ja": "\u30ab\u30bb\u30b5\u30fc\u30c8\u5927\u5b66\u99c5", "public_transport": "station", "railway": "station", "ref": "N13", "station": "subway", "subway": "yes", "wikidata": "Q76973081"}}, {"type": "node", "id": 6681609028, "lat": 13.8363882, "lon": 100.5736225, "tags": {"name": "\u0e40\u0e2a\u0e19\u0e32\u0e19\u0e34\u0e04\u0e21", "name:en": "Sena Nikhom", "name:ja": "\u30bb\u30ca\u30cb\u30b3\u30e0\u99c5", "public_transport": "station", "railway": "station", "ref": "N12", "station": "subway", "subway": "yes", "wheelchair": "yes", "wikidata": "Q76973119"}}, {"type": "node", "id": 6681609029, "lat": 13.8297439, "lon": 100.5697199, "tags": {"name": "\u0e23\u0e31\u0e0a\u0e42\u0e22\u0e18\u0e34\u0e19", "name:en": "Ratchayothin", "name:ja": "\u30e9\u30c1\u30e3\u30e8\u30fc\u30c6\u30a3\u30f3\u99c5", "public_transport": "station", "railway": "station", "ref": "N11", "station": "subway", "subway": "yes", "wikidata": "Q76972519"}}, {"type": "node", "id": 6681609030, "lat": 13.8241343, "lon": 100.5664637, "tags": {"name": "\u0e1e\u0e2b\u0e25\u0e42\u0e22\u0e18\u0e34\u0e19 24", "name:en": "Phahonyothin 24", "name:ja": "\u30d1\u30db\u30f3\u30e8\u30fc\u30c6\u30a3\u30f324\u99c5", "public_transport": "station", "railway": "station", "ref": "N10", "station": "subway", "subway": "yes", "wikidata": "Q13021643"}}, {"type": "node", "id": 6711009224, "lat": 13.7429933, "lon": 100.6001541, "tags": {"int_name": "Ramkhamhaeng", "name": "\u0e23\u0e32\u0e21\u0e04\u0e33\u0e41\u0e2b\u0e07", "name:en": "Ramkhamhaeng", "name:th": "\u0e23\u0e32\u0e21\u0e04\u0e33\u0e41\u0e2b\u0e07", "network": "ARL", "public_transport": "station", "railway": "station", "ref": "A5", "source": "Ramkhamkhaeng", "train": "yes", "wikidata": "Q6633628", "wikipedia": "th:\u0e2a\u0e16\u0e32\u0e19\u0e35\u0e23\u0e32\u0e21\u0e04\u0e33\u0e41\u0e2b\u0e07"}}, {"type": "node", "id": 6711014684, "lat": 13.7328882, "lon": 100.6908068, "tags": {"name": "\u0e1a\u0e49\u0e32\u0e19\u0e17\u0e31\u0e1a\u0e0a\u0e49\u0e32\u0e07", "name:en": "Ban Thap Chang", "name:th": "\u0e1a\u0e49\u0e32\u0e19\u0e17\u0e31\u0e1a\u0e0a\u0e49\u0e32\u0e07", "network": "ARL", "public_transport": "station", "railway": "station", "ref": "A3", "train": "yes", "wikidata": "Q6895675", "wikipedia": "th:\u0e2a\u0e16\u0e32\u0e19\u0e35\u0e1a\u0e49\u0e32\u0e19\u0e17\u0e31\u0e1a\u0e0a\u0e49\u0e32\u0e07"}}, {"type": "node", "id": 6711016582, "lat": 13.7276817, "lon": 100.7485985, "tags": {"int_name": "Lat Krabang", "name": "\u0e25\u0e32\u0e14\u0e01\u0e23\u0e30\u0e1a\u0e31\u0e07", "name:en": "Lat Krabang", "name:th": "\u0e25\u0e32\u0e14\u0e01\u0e23\u0e30\u0e1a\u0e31\u0e07", "network": "ARL", "public_transport": "station", "railway": "station", "ref": "A2", "train": "yes", "wikidata": "Q15283201", "wikipedia": "th:\u0e2a\u0e16\u0e32\u0e19\u0e35\u0e25\u0e32\u0e14\u0e01\u0e23\u0e30\u0e1a\u0e31\u0e07"}}, {"type": "node", "id": 6711023184, "lat": 13.7509089, "lon": 100.5611427, "tags": {"int_name": "Makkasan", "name": "\u0e21\u0e31\u0e01\u0e01\u0e30\u0e2a\u0e31\u0e19", "name:en": "Makkasan", "name:th": "\u0e21\u0e31\u0e01\u0e01\u0e30\u0e2a\u0e31\u0e19", "network": "ARL", "public_transport": "station", "railway": "station", "ref": "A6", "train": "yes", "wheelchair": "yes", "wikidata": "Q11340409", "wikipedia": "th:\u0e2a\u0e16\u0e32\u0e19\u0e35\u0e23\u0e31\u0e1a\u0e2a\u0e48\u0e07\u0e1c\u0e39\u0e49\u0e42\u0e14\u0e22\u0e2a\u0e32\u0e23\u0e2d\u0e32\u0e01\u0e32\u0e28\u0e22\u0e32\u0e19\u0e43\u0e19\u0e40\u0e21\u0e37\u0e2d\u0e07"}}, {"type": "node", "id": 6711026524, "lat": 13.7551065, "lon": 100.5421238, "tags": {"name": "\u0e23\u0e32\u0e0a\u0e1b\u0e23\u0e32\u0e23\u0e20", "name:en": "Ratchatprarop", "name:in": "Ratchatprarop", "name:th": "\u0e23\u0e32\u0e0a\u0e1b\u0e23\u0e32\u0e23\u0e20", "network": "ARL", "public_transport": "station", "railway": "station", "ref": "A7", "train": "yes", "wikidata": "Q6633462", "wikipedia": "th:\u0e2a\u0e16\u0e32\u0e19\u0e35\u0e23\u0e32\u0e0a\u0e1b\u0e23\u0e32\u0e23\u0e20"}}, {"type": "node", "id": 6711028526, "lat": 13.7567329, "lon": 100.5349124, "tags": {"int_name": "Phaya Thai", "name": "\u0e1e\u0e0d\u0e32\u0e44\u0e17", "name:en": "Phaya Thai", "name:th": "\u0e1e\u0e0d\u0e32\u0e44\u0e17", "network": "ARL", "public_transport": "station", "railway": "station", "ref": "A8", "train": "yes", "wikidata": "Q13021649", "wikipedia": "th:\u0e2a\u0e16\u0e32\u0e19\u0e35\u0e1e\u0e0d\u0e32\u0e44\u0e17 (\u0e23\u0e16\u0e44\u0e1f\u0e1f\u0e49\u0e32\u0e40\u0e0a\u0e37\u0e48\u0e2d\u0e21\u0e17\u0e48\u0e32\u0e2d\u0e32\u0e01\u0e32\u0e28\u0e22\u0e32\u0e19\u0e2a\u0e38\u0e27\u0e23\u0e23\u0e13\u0e20\u0e39\u0e21\u0e34)"}}, {"type": "node", "id": 6966466946, "lat": 13.8166739, "lon": 100.5620832, "tags": {"alt_name": "Ladphrao Intersection", "name": "\u0e2b\u0e49\u0e32\u0e41\u0e22\u0e01\u0e25\u0e32\u0e14\u0e1e\u0e23\u0e49\u0e32\u0e27", "name:en": "Ha Yaek Lat Phrao", "name:ja": "\u30cf\u30fc\u30a4\u30a7\u30fc\u30af\u30e9\u30d7\u30e9\u30aa\u99c5", "public_transport": "station", "railway": "station", "ref": "N9", "station": "subway", "subway": "yes", "wikidata": "Q16307668"}}, {"type": "node", "id": 7096345624, "lat": 13.7558006, "lon": 100.4693209, "tags": {"name": "\u0e44\u0e1f\u0e09\u0e32\u0e22", "name:en": "Fai Chai", "name:th": "\u0e44\u0e1f\u0e09\u0e32\u0e22", "network": "MRT", "operator": "BEM", "public_transport": "station", "railway": "station", "ref": "BL03", "station": "subway", "subway": "yes", "wikidata": "Q66087746"}}, {"type": "node", "id": 7317217001, "lat": 13.8119672, "lon": 100.549922}, {"type": "node", "id": 7317217002, "lat": 13.8123891, "lon": 100.5500078}, {"type": "node", "id": 7317217003, "lat": 13.8126548, "lon": 100.5504531}, {"type": "node", "id": 7317217004, "lat": 13.8126314, "lon": 100.5504987}, {"type": "node", "id": 7317217005, "lat": 13.8120141, "lon": 100.5504397}, {"type": "node", "id": 7317217006, "lat": 13.8113134, "lon": 100.5502009}, {"type": "node", "id": 7317217007, "lat": 13.8108159, "lon": 100.5500615}, {"type": "node", "id": 7317217008, "lat": 13.8109201, "lon": 100.5496672}, {"type": "node", "id": 7317217009, "lat": 13.8110425, "lon": 100.5496243}, {"type": "node", "id": 7317217010, "lat": 13.8111727, "lon": 100.549635}, {"type": "node", "id": 7317217011, "lat": 13.8116077, "lon": 100.5498093}, {"type": "node", "id": 7769630266, "lat": 13.7390309, "lon": 100.5167281, "tags": {"addr:city": "\u0e41\u0e02\u0e27\u0e07\u0e23\u0e2d\u0e07\u0e40\u0e21\u0e37\u0e2d\u0e07", "addr:postcode": "10330", "addr:street": "\u0e16\u0e19\u0e19\u0e1e\u0e23\u0e30\u0e23\u0e32\u0e21\u0e17\u0e35\u0e48 4", "description": "Main railway station in Bangkok. Generally known as Hua Lamphong Station.", "internet_access": "wlan", "internet_access:fee": "no", "loc_name": "\u0e2b\u0e31\u0e27\u0e25\u0e33\u0e42\u0e1e\u0e07", "loc_name:de": "Hua Lamphong", "loc_name:en": "Hua Lamphong", "loc_name:th": "\u0e2b\u0e31\u0e27\u0e25\u0e33\u0e42\u0e1e\u0e07", "name": "\u0e01\u0e23\u0e38\u0e07\u0e40\u0e17\u0e1e (\u0e2b\u0e31\u0e27\u0e25\u0e33\u0e42\u0e1e\u0e07)", "name:de": "Bangkok", "name:en": "Bangkok", "name:es": "Bangkok", "name:ru": "\u0411\u0430\u043d\u0433\u043a\u043e\u043a", "name:th": "\u0e01\u0e23\u0e38\u0e07\u0e40\u0e17\u0e1e (\u0e2b\u0e31\u0e27\u0e25\u0e33\u0e42\u0e1e\u0e07)", "operator": "State Railway of Thailand", "public_transport": "station", "railway": "station", "railway:ref": "\u0e01\u0e17.", "ref": "\u0e01\u0e17.", "source": "GPS;sign", "train": "yes"}}, {"type": "node", "id": 7769630267, "lat": 13.7605974, "lon": 100.4787465, "tags": {"name": "\u0e18\u0e19\u0e1a\u0e38\u0e23\u0e35", "name:en": "Thonburi", "name:th": "\u0e18\u0e19\u0e1a\u0e38\u0e23\u0e35", "public_transport": "station", "railway": "station", "ref": "\u0e18\u0e1a.", "srt_code": "TBR", "train": "yes", "wikidata": "Q6895717"}}, {"type": "node", "id": 7769639096, "lat": 13.7207993, "lon": 100.4578139, "tags": {"name": "\u0e1a\u0e32\u0e07\u0e2b\u0e27\u0e49\u0e32", "name:en": "Bang Wa", "name:th": "\u0e1a\u0e32\u0e07\u0e2b\u0e27\u0e49\u0e32", "public_transport": "station", "railway": "station", "ref": "S12", "station": "subway", "subway": "yes"}}, {"type": "node", "id": 7769639097, "lat": 13.7202556, "lon": 100.4570306, "tags": {"name": "\u0e1a\u0e32\u0e07\u0e2b\u0e27\u0e49\u0e32", "name:en": "Bang Wa", "public_transport": "station", "railway": "station", "ref": "BL34", "station": "subway", "subway": "yes", "wikidata": "Q66091132"}}, {"type": "node", "id": 7769639098, "lat": 13.8061603, "lon": 100.5307788, "tags": {"name": "\u0e40\u0e15\u0e32\u0e1b\u0e39\u0e19", "name:en": "Tao Poon", "network": "MRT", "public_transport": "station", "railway": "station", "ref": "BL10;PP16", "station": "subway", "subway": "yes"}}, {"type": "node", "id": 7769639099, "lat": 13.6494175, "lon": 100.4097623, "tags": {"name": "\u0e23\u0e32\u0e07\u0e2a\u0e30\u0e41\u0e01", "name:en": "Rang Sakae", "name:th": "\u0e23\u0e32\u0e07\u0e2a\u0e30\u0e41\u0e01", "public_transport": "station", "railway": "halt", "railway:ref": "\u0e23\u0e41", "ref": "\u0e23\u0e41.", "train": "yes", "wikidata": "Q13017025"}}, {"type": "node", "id": 7781158247, "lat": 13.7208135, "lon": 100.5266876, "tags": {"name": "\u0e40\u0e0b\u0e19\u0e15\u0e4c\u0e2b\u0e25\u0e38\u0e22\u0e2a\u0e4c", "name:en": "Saint Louis", "name:th": "\u0e40\u0e0b\u0e19\u0e15\u0e4c\u0e2b\u0e25\u0e38\u0e22\u0e2a\u0e4c", "network": "BTS", "operator": "BTSC", "public_transport": "station", "railway": "station", "ref": "S4", "station": "subway", "subway": "yes", "wheelchair": "yes", "wikidata": "Q13021839", "wikipedia": "th:\u0e2a\u0e16\u0e32\u0e19\u0e35\u0e40\u0e0b\u0e19\u0e15\u0e4c\u0e2b\u0e25\u0e38\u0e22\u0e2a\u0e4c"}}, {"type": "node", "id": 7787093462, "lat": 13.7384245, "lon": 100.6397521, "tags": {"name": "\u0e2b\u0e31\u0e27\u0e2b\u0e21\u0e32\u0e01", "name:en": "Hua Mak", "public_transport": "station", "railway": "station", "ref": "\u0e2b\u0e21.", "train": "yes"}}, {"type": "node", "id": 7787093463, "lat": 13.7428238, "lon": 100.6006615, "tags": {"name": "\u0e2a\u0e38\u0e02\u0e38\u0e21\u0e27\u0e34\u0e17 71", "name:en": "Sukhumvit 71", "public_transport": "station", "railway": "halt", "ref": "\u0e27\u0e17.", "train": "yes"}}, {"type": "node", "id": 7787093465, "lat": 13.7500289, "lon": 100.5641274, "tags": {"name": "\u0e2d\u0e42\u0e28\u0e01", "name:en": "Asok", "public_transport": "station", "railway": "halt", "ref": "\u0e2d\u0e42.", "train": "yes"}}, {"type": "node", "id": 7787093466, "lat": 13.7550849, "lon": 100.541873, "tags": {"name": "\u0e23\u0e32\u0e0a\u0e1b\u0e23\u0e32\u0e23\u0e20", "name:en": "Ratchaprarop", "public_transport": "station", "railway": "halt", "ref": "\u0e23\u0e1b.", "train": "yes"}}, {"type": "node", "id": 7787093467, "lat": 13.7585749, "lon": 100.5263062, "tags": {"name": "\u0e2d\u0e38\u0e23\u0e38\u0e1e\u0e07\u0e29\u0e4c", "name:en": "Uruphong", "name:th": "\u0e2d\u0e38\u0e23\u0e38\u0e1e\u0e07\u0e29\u0e4c", "public_transport": "station", "railway": "halt", "ref": "\u0e23\u0e38.", "train": "yes", "wikidata": "Q16304392"}}, {"type": "node", "id": 7787093468, "lat": 13.8219812, "lon": 100.5337493, "tags": {"name": "\u0e1a\u0e32\u0e07\u0e0b\u0e48\u0e2d\u0e19", "name:en": "Bang Son", "name:th": "\u0e1a\u0e32\u0e07\u0e0b\u0e48\u0e2d\u0e19", "public_transport": "station", "railway": "halt", "ref": "\u0e0b\u0e2d.", "train": "yes"}}, {"type": "node", "id": 7787093469, "lat": 13.7631788, "lon": 100.4725817, "tags": {"name": "\u0e08\u0e23\u0e31\u0e25\u0e2a\u0e19\u0e34\u0e17\u0e27\u0e07\u0e28\u0e4c", "name:en": "Charan Sanitwong", "name:th": "\u0e08\u0e23\u0e31\u0e25\u0e2a\u0e19\u0e34\u0e17\u0e27\u0e07\u0e28\u0e4c", "public_transport": "station", "railway": "halt", "ref": "\u0e23\u0e27.", "train": "yes", "wikidata": "Q16271177"}}, {"type": "node", "id": 7787093470, "lat": 13.7784563, "lon": 100.4535109, "tags": {"name": "\u0e1a\u0e32\u0e07\u0e23\u0e30\u0e21\u0e32\u0e14", "name:en": "Bang Ramat", "name:th": "\u0e1a\u0e32\u0e07\u0e23\u0e30\u0e21\u0e32\u0e14", "public_transport": "station", "railway": "halt", "ref": "\u0e23\u0e21.", "train": "yes", "wikidata": "Q13015632"}}, {"type": "node", "id": 7787093471, "lat": 13.8266181, "lon": 100.5494741, "tags": {"name": "\u0e08\u0e15\u0e38\u0e08\u0e31\u0e01\u0e23", "name:en": "Chatuchak", "public_transport": "station", "railway": "station", "ref": "RN02", "train": "yes"}}, {"type": "node", "id": 7787093472, "lat": 13.8415934, "lon": 100.5574987, "tags": {"name": "\u0e27\u0e31\u0e14\u0e40\u0e2a\u0e21\u0e35\u0e22\u0e19\u0e19\u0e32\u0e23\u0e35", "name:en": "Wat Samian Nari", "public_transport": "station", "railway": "station", "ref": "RN03", "train": "yes"}}, {"type": "node", "id": 7787093474, "lat": 13.8493659, "lon": 100.5616724, "tags": {"name": "\u0e1a\u0e32\u0e07\u0e40\u0e02\u0e19", "name:en": "Bang Khen", "public_transport": "station", "railway": "station", "ref": "RN04", "train": "yes"}}, {"type": "node", "id": 7787093475, "lat": 13.8602057, "lon": 100.5675309, "tags": {"name": "\u0e17\u0e38\u0e48\u0e07\u0e2a\u0e2d\u0e07\u0e2b\u0e49\u0e2d\u0e07", "name:en": "Thung Song Hong", "public_transport": "station", "railway": "station", "ref": "RN05", "train": "yes"}}, {"type": "node", "id": 7787093476, "lat": 13.8863144, "lon": 100.581936, "tags": {"name": "\u0e2b\u0e25\u0e31\u0e01\u0e2a\u0e35\u0e48", "name:en": "Lak Si", "public_transport": "station", "railway": "station", "ref": "RN06", "train": "yes"}}, {"type": "node", "id": 7787093477, "lat": 13.898657, "lon": 100.5888732, "tags": {"name": "\u0e01\u0e32\u0e23\u0e40\u0e04\u0e2b\u0e30", "name:en": "Kan Kheha", "public_transport": "station", "railway": "station", "ref": "RN07", "train": "yes"}}, {"type": "node", "id": 7787093478, "lat": 13.914688, "lon": 100.5978685, "tags": {"name": "\u0e14\u0e2d\u0e19\u0e40\u0e21\u0e37\u0e2d\u0e07", "name:en": "Don Muang", "name:th": "\u0e14\u0e2d\u0e19\u0e40\u0e21\u0e37\u0e2d\u0e07", "public_transport": "station", "railway": "station", "railway:ref": "RN08", "ref": "RN08", "train": "yes"}}, {"type": "node", "id": 7892607486, "lat": 13.7991608, "lon": 100.4205975, "tags": {"name": "\u0e1a\u0e49\u0e32\u0e19\u0e09\u0e34\u0e21\u0e1e\u0e25\u0e35", "name:en": "Ban Chimphli", "public_transport": "station", "railway": "halt", "ref": "\u0e09\u0e1e.", "train": "yes", "wikidata": "Q13015630"}}, {"type": "node", "id": 7892607487, "lat": 13.8000507, "lon": 100.3950237, "tags": {"name": "\u0e1e\u0e38\u0e17\u0e18\u0e21\u0e13\u0e11\u0e25\u0e2a\u0e32\u0e22 2", "name:en": "Phutthamonthon Sai 2", "public_transport": "station", "railway": "halt", "ref": "\u0e17\u0e25.", "train": "yes", "wikidata": "Q13015636"}}, {"type": "node", "id": 7947495107, "lat": 13.8034958, "lon": 100.7234661, "tags": {"construction": "railway", "name": "\u0e40\u0e04\u0e2b\u0e30\u0e23\u0e32\u0e21\u0e04\u0e33\u0e41\u0e2b\u0e07", "name:en": "Keha Ramkhamhaeng", "name:th": "\u0e40\u0e04\u0e2b\u0e30\u0e23\u0e32\u0e21\u0e04\u0e33\u0e41\u0e2b\u0e07", "public_transport": "station", "railway": "construction", "ref": "OR27", "subway": "yes", "train": "yes"}}, {"type": "node", "id": 7947551369, "lat": 13.7211055, "lon": 100.5037147, "tags": {"name": "\u0e01\u0e23\u0e38\u0e07\u0e18\u0e19\u0e1a\u0e38\u0e23\u0e35", "name:en": "Krung Thon Buri", "name:th": "\u0e01\u0e23\u0e38\u0e07\u0e18\u0e19\u0e1a\u0e38\u0e23\u0e35", "network": "BTS", "operator": "BTSC", "public_transport": "station", "railway": "station", "ref": "G1", "station": "subway", "subway": "yes", "wikidata": "Q11299499", "wikipedia": "th:\u0e2a\u0e16\u0e32\u0e19\u0e35\u0e01\u0e23\u0e38\u0e07\u0e18\u0e19\u0e1a\u0e38\u0e23\u0e35"}}, {"type": "node", "id": 8018658826, "lat": 13.7297276, "lon": 100.7181804, "tags": {"name": "\u0e0b\u0e2d\u0e22\u0e27\u0e31\u0e14\u0e25\u0e32\u0e19\u0e1a\u0e38\u0e0d", "name:en": "Soi Wat Lan Boon", "public_transport": "station", "railway": "halt", "ref": "\u0e0b\u0e27.", "train": "yes"}}, {"type": "node", "id": 8018658831, "lat": 13.7296363, "lon": 100.7181862, "tags": {"name": "\u0e0b\u0e2d\u0e22\u0e27\u0e31\u0e14\u0e25\u0e32\u0e19\u0e1a\u0e38\u0e0d", "name:en": "Soi Wat Lan Boon", "public_transport": "station", "railway": "halt", "ref": "\u0e0b\u0e27.", "train": "yes"}}, {"type": "node", "id": 8018658845, "lat": 13.7274829, "lon": 100.7485565, "tags": {"name": "\u0e25\u0e32\u0e14\u0e01\u0e23\u0e30\u0e1a\u0e31\u0e07", "name:en": "Lat Krabang", "public_transport": "station", "railway": "station", "ref": "\u0e30\u0e1a.", "train": "yes"}}, {"type": "node", "id": 8018658853, "lat": 13.7283246, "lon": 100.7829093, "tags": {"name": "\u0e2b\u0e31\u0e27\u0e15\u0e30\u0e40\u0e02\u0e49", "name:en": "Hua Takhe", "name:th": "\u0e2b\u0e31\u0e27\u0e15\u0e30\u0e40\u0e02\u0e49", "public_transport": "station", "railway": "station", "ref": "\u0e2b\u0e02.", "train": "yes", "wikidata": "Q6633437"}}, {"type": "node", "id": 8018658856, "lat": 13.7281528, "lon": 100.7754697, "tags": {"name": "\u0e1e\u0e23\u0e30\u0e08\u0e2d\u0e21\u0e40\u0e01\u0e25\u0e49\u0e32", "name:en": "Phra Chom Klao", "name:th": "\u0e1e\u0e23\u0e30\u0e08\u0e2d\u0e21\u0e40\u0e01\u0e25\u0e49\u0e32", "public_transport": "station", "railway": "halt", "ref": "\u0e1e\u0e21.", "train": "yes", "wikidata": "Q13017024"}}, {"type": "node", "id": 8093957526, "lat": 13.7123692, "lon": 100.4725837, "tags": {"name": "\u0e27\u0e38\u0e12\u0e32\u0e01\u0e32\u0e28", "name:en": "Wutthakat", "public_transport": "station", "railway": "halt", "train": "yes"}}, {"type": "node", "id": 8717933838, "lat": 13.8069829, "lon": 100.5748443, "tags": {"construction": "station", "monorail": "yes", "name": "\u0e25\u0e32\u0e14\u0e1e\u0e23\u0e49\u0e32\u0e27", "name:en": "Lat Phrao", "name:th": "\u0e25\u0e32\u0e14\u0e1e\u0e23\u0e49\u0e32\u0e27", "operator": "Eastern Bangkok Monorail Company Limited", "public_transport": "station", "railway": "construction"}}, {"type": "node", "id": 8730762307, "lat": 13.813245, "lon": 100.7390077, "tags": {"construction": "railway", "name": "\u0e41\u0e22\u0e01\u0e23\u0e48\u0e21\u0e40\u0e01\u0e25\u0e49\u0e32", "name:en": "Yaek Rom Klao", "name:th": "\u0e41\u0e22\u0e01\u0e23\u0e48\u0e21\u0e40\u0e01\u0e25\u0e49\u0e32", "public_transport": "station", "railway": "construction", "subway": "yes", "train": "yes"}}, {"type": "node", "id": 8730762308, "lat": 13.8084643, "lon": 100.7326073, "tags": {"construction": "station", "monorail": "yes", "name": "\u0e21\u0e35\u0e19\u0e1a\u0e38\u0e23\u0e35", "name:en": "Min Buri", "name:th": "\u0e21\u0e35\u0e19\u0e1a\u0e38\u0e23\u0e35", "public_transport": "station", "railway": "construction", "ref": "PK30", "train": "yes"}}, {"type": "node", "id": 8730762313, "lat": 13.8099622, "lon": 100.7330027, "tags": {"construction": "railway", "name": "\u0e21\u0e35\u0e19\u0e1a\u0e38\u0e23\u0e35", "name:en": "Min Buri", "name:th": "\u0e21\u0e35\u0e19\u0e1a\u0e38\u0e23\u0e35", "public_transport": "station", "railway": "construction", "subway": "yes", "train": "yes"}}, {"type": "node", "id": 8730802232, "lat": 13.8125209, "lon": 100.7257971, "tags": {"construction": "station", "name": "\u0e15\u0e25\u0e32\u0e14\u0e21\u0e35\u0e19\u0e1a\u0e38\u0e23\u0e35", "name:en": "Talad Min Buri", "name:th": "\u0e15\u0e25\u0e32\u0e14\u0e21\u0e35\u0e19\u0e1a\u0e38\u0e23\u0e35", "public_transport": "station", "railway": "construction", "ref": "PK29", "train": "yes"}}, {"type": "node", "id": 8730802242, "lat": 13.8127342, "lon": 100.7028437, "tags": {"construction": "station", "name": "\u0e1a\u0e32\u0e07\u0e0a\u0e31\u0e19", "name:en": "Bang Chan", "name:th": "\u0e1a\u0e32\u0e07\u0e0a\u0e31\u0e19", "public_transport": "station", "railway": "construction", "ref": "PK27", "train": "yes"}}, {"type": "node", "id": 8730802243, "lat": 13.812703, "lon": 100.712551, "tags": {"construction": "station", "name": "\u0e40\u0e28\u0e23\u0e29\u0e10\u0e1a\u0e38\u0e15\u0e23\u0e1a\u0e33\u0e40\u0e1e\u0e47\u0e0d", "name:en": "Setthabutbamphen", "name:th": "\u0e40\u0e28\u0e23\u0e29\u0e10\u0e1a\u0e38\u0e15\u0e23\u0e1a\u0e33\u0e40\u0e1e\u0e47\u0e0d", "public_transport": "station", "railway": "construction", "ref": "PK28", "train": "yes"}}, {"type": "node", "id": 8730802246, "lat": 13.8165631, "lon": 100.6855671, "tags": {"construction": "station", "name": "\u0e19\u0e1e\u0e23\u0e31\u0e15\u0e19\u0e4c", "name:en": "Noppharat", "name:th": "\u0e19\u0e1e\u0e23\u0e31\u0e15\u0e19\u0e4c", "public_transport": "station", "railway": "construction", "ref": "PK26", "train": "yes"}}, {"type": "node", "id": 8986366369, "lat": 13.8040313, "lon": 100.5417111, "tags": {"alt_name": "\u0e2a\u0e16\u0e32\u0e19\u0e35\u0e01\u0e25\u0e32\u0e07\u0e1a\u0e32\u0e07\u0e0b\u0e37\u0e48\u0e2d", "alt_name:en": "Bang Sue Grand Station", "alt_name:th": "\u0e2a\u0e16\u0e32\u0e19\u0e35\u0e01\u0e25\u0e32\u0e07\u0e1a\u0e32\u0e07\u0e0b\u0e37\u0e48\u0e2d", "name": "\u0e01\u0e23\u0e38\u0e07\u0e40\u0e17\u0e1e\u0e2d\u0e20\u0e34\u0e27\u0e31\u0e12\u0e19\u0e4c", "name:en": "Krung Thep Aphiwat", "name:ko": "\ub044\ub8fd\ud15d \uc544\ud53c\uc653 \uc911\uc559\uc5ed", "name:th": "\u0e01\u0e23\u0e38\u0e07\u0e40\u0e17\u0e1e\u0e2d\u0e20\u0e34\u0e27\u0e31\u0e12\u0e19\u0e4c", "name:zh": "\u90a6\u4f3c\u4e2d\u592e\u8f66\u7ad9", "operator": "State Railway of Thailand (SRT)", "public_transport": "station", "railway": "station", "ref": "RN01;RW01", "train": "yes", "wikidata": "Q23925684", "wikipedia": "th:\u0e2a\u0e16\u0e32\u0e19\u0e35\u0e01\u0e25\u0e32\u0e07\u0e01\u0e23\u0e38\u0e07\u0e40\u0e17\u0e1e\u0e2d\u0e20\u0e34\u0e27\u0e31\u0e12\u0e19\u0e4c"}}, {"type": "node", "id": 8990382534, "lat": 13.8221332, "lon": 100.534213, "tags": {"name": "\u0e1a\u0e32\u0e07\u0e0b\u0e48\u0e2d\u0e19", "name:en": "Bang Son", "name:th": "\u0e1a\u0e32\u0e07\u0e0b\u0e48\u0e2d\u0e19", "public_transport": "station", "railway": "station", "ref": "RW02", "train": "yes"}}, {"type": "node", "id": 9315736228, "lat": 13.6221204, "lon": 100.3866203, "tags": {"amenity": "bus_station", "bus": "yes", "name": "\u0e2d\u0e39\u0e48\u0e41\u0e2a\u0e21\u0e14\u0e33", "name:en": "Samae Dam Bus Depot", "name:th": "\u0e2d\u0e39\u0e48\u0e41\u0e2a\u0e21\u0e14\u0e33", "network": "BMTA", "operator": "BMTA", "public_transport": "station"}}, {"type": "node", "id": 9427982104, "lat": 13.7544368, "lon": 100.5415269}, {"type": "node", "id": 9427982105, "lat": 13.7540834, "lon": 100.5414436}, {"type": "node", "id": 9427982106, "lat": 13.7542512, "lon": 100.5406691}, {"type": "node", "id": 9427982107, "lat": 13.7543638, "lon": 100.5406691}, {"type": "node", "id": 9427982108, "lat": 13.7543124, "lon": 100.5411021}, {"type": "node", "id": 9427982109, "lat": 13.7545217, "lon": 100.541161}, {"type": "node", "id": 9452011776, "lat": 13.7999259, "lon": 100.5405615, "tags": {"amenity": "bus_station", "bus": "yes", "name": "\u0e2d\u0e39\u0e48\u0e01\u0e33\u0e41\u0e1e\u0e07\u0e40\u0e1e\u0e0a\u0e23", "name:en": "Kamphaeng Phet Bus Depot", "name:th": "\u0e01\u0e25\u0e38\u0e48\u0e21\u0e1b\u0e0f\u0e34\u0e1a\u0e31\u0e15\u0e34\u0e01\u0e32\u0e23\u0e40\u0e14\u0e34\u0e19\u0e23\u0e16\u0e17\u0e35\u0e48 1 \u0e40\u0e02\u0e15\u0e01\u0e32\u0e23\u0e40\u0e14\u0e34\u0e19\u0e23\u0e16\u0e17\u0e35\u0e48 8 (\u0e2d\u0e39\u0e48\u0e01\u0e33\u0e41\u0e1e\u0e07\u0e40\u0e1e\u0e0a\u0e23)", "public_transport": "station"}}, {"type": "node", "id": 9452011792, "lat": 13.6502468, "lon": 100.4191361, "tags": {"amenity": "bus_station", "bus": "yes", "name": "smart bus \u0e2a\u0e32\u0e02\u0e32\u0e40\u0e04\u0e2b\u0e30\u0e18\u0e19\u0e1a\u0e38\u0e23\u0e35", "public_transport": "station"}}, {"type": "node", "id": 9455207989, "lat": 13.9026668, "lon": 100.5933924, "tags": {"amenity": "bus_station", "bus": "yes", "name": "\u0e17\u0e48\u0e32\u0e23\u0e16\u0e17\u0e48\u0e32\u0e2d\u0e32\u0e01\u0e32\u0e28\u0e22\u0e32\u0e19\u0e14\u0e2d\u0e19\u0e40\u0e21\u0e37\u0e2d\u0e07 (\u0e04\u0e25\u0e31\u0e07\u0e2a\u0e34\u0e19\u0e04\u0e49\u0e32)", "name:en": "Don Mueang Airport Terminal (Warehouse)", "name:ko": "\ub3c8\ubbc0\uc559 \uacf5\ud56d\ud130\ubbf8\ub110(\ucc3d\uace0)", "public_transport": "station"}}, {"type": "node", "id": 9457838248, "lat": 13.7133329, "lon": 100.4598326, "tags": {"amenity": "bus_station", "bus": "yes", "name": "\u0e2d\u0e39\u0e48\u0e01\u0e31\u0e25\u0e1b\u0e1e\u0e24\u0e01\u0e29\u0e4c (\u0e02\u0e2a\u0e21\u0e01.)", "name:th": "\u0e01\u0e25\u0e38\u0e48\u0e21\u0e1b\u0e0f\u0e34\u0e1a\u0e31\u0e15\u0e34\u0e01\u0e32\u0e23\u0e40\u0e14\u0e34\u0e19\u0e23\u0e16\u0e17\u0e35\u0e48 2 \u0e40\u0e02\u0e15\u0e01\u0e32\u0e23\u0e40\u0e14\u0e34\u0e19\u0e23\u0e16\u0e17\u0e35\u0e48 5 (\u0e2d\u0e39\u0e48\u0e01\u0e31\u0e25\u0e1b\u0e1e\u0e24\u0e01\u0e29\u0e4c)", "public_transport": "station"}}, {"type": "node", "id": 9471740645, "lat": 13.6729842, "lon": 100.6849843, "tags": {"amenity": "bus_station", "bus": "yes", "name": "\u0e17\u0e48\u0e32\u0e23\u0e16 \u0e21.\u0e23\u0e32\u0e21\u0e04\u0e33\u0e41\u0e2b\u0e07 2 (\u0e2a\u0e32\u0e22 3-21)", "public_transport": "station"}}, {"type": "node", "id": 9559781328, "lat": 13.6736862, "lon": 100.6911801, "tags": {"amenity": "bus_station", "bus": "yes", "name": "\u0e2d\u0e39\u0e48\u0e23\u0e32\u0e21\u0e04\u0e33\u0e41\u0e2b\u0e07 2", "network": "smart bus", "operator": "smart bus", "public_transport": "station"}}, {"type": "node", "id": 9561902029, "lat": 13.7858496, "lon": 100.3901683, "tags": {"amenity": "bus_station", "bus": "yes", "name": "\u0e2d\u0e39\u0e48\u0e1a\u0e23\u0e21\u0e23\u0e32\u0e0a\u0e0a\u0e19\u0e19\u0e35", "name:en": "Borommaratchachonnani Bus Depot", "name:th": "\u0e2d\u0e39\u0e48\u0e1a\u0e23\u0e21\u0e23\u0e32\u0e0a\u0e0a\u0e19\u0e19\u0e35", "network": "BMTA", "operator": "BMTA", "public_transport": "station"}}, {"type": "node", "id": 9562117029, "lat": 13.7151615, "lon": 100.5644254, "tags": {"access": "private", "barrier": "gate"}}, {"type": "node", "id": 9562117030, "lat": 13.7151362, "lon": 100.5644893, "tags": {"access": "private", "barrier": "gate"}}, {"type": "node", "id": 9562117031, "lat": 13.7160311, "lon": 100.5656408, "tags": {"access": "private", "barrier": "gate"}}, {"type": "node", "id": 9562117032, "lat": 13.7166592, "lon": 100.5659044}, {"type": "node", "id": 9562117033, "lat": 13.7150121, "lon": 100.5652132}, {"type": "node", "id": 9562117034, "lat": 13.7149295, "lon": 100.5650112}, {"type": "node", "id": 9562117035, "lat": 13.7151956, "lon": 100.5643394}, {"type": "node", "id": 9562117040, "lat": 13.7149448, "lon": 100.5649726, "tags": {"access": "private", "barrier": "gate"}}, {"type": "node", "id": 9562709333, "lat": 13.6431153, "lon": 100.4790852, "tags": {"amenity": "bus_station", "bus": "yes", "name": "\u0e2d\u0e39\u0e48\u0e18\u0e32\u0e23\u0e17\u0e34\u0e1e\u0e22\u0e4c", "name:th": "\u0e2d\u0e39\u0e48\u0e18\u0e32\u0e23\u0e17\u0e34\u0e1e\u0e22\u0e4c", "public_transport": "station"}}, {"type": "node", "id": 9587622907, "lat": 13.6630928, "lon": 100.5144228, "tags": {"amenity": "bus_station", "bus": "yes", "public_transport": "station"}}, {"type": "node", "id": 9626680118, "lat": 13.8142993, "lon": 100.7287619, "tags": {"amenity": "bus_station", "bus": "yes", "name": "\u0e17\u0e48\u0e32\u0e1b\u0e25\u0e48\u0e2d\u0e22\u0e23\u0e16 \u0e2d\u0e39\u0e48\u0e21\u0e35\u0e19\u0e1a\u0e38\u0e23\u0e35", "public_transport": "station"}}, {"type": "node", "id": 9661240349, "lat": 13.7156899, "lon": 100.565384, "tags": {"amenity": "bus_station", "bus": "yes", "name": "\u0e2d\u0e39\u0e48\u0e04\u0e25\u0e2d\u0e07\u0e40\u0e15\u0e22", "network": "BMTA", "operator": "BMTA", "public_transport": "station"}}, {"type": "node", "id": 9697341532, "lat": 13.8010179, "lon": 100.6946451, "tags": {"amenity": "bus_station", "bus": "yes", "name": "\u0e2d\u0e39\u0e48\u0e2a\u0e27\u0e19\u0e2a\u0e22\u0e32\u0e21", "name:th": "\u0e2d\u0e39\u0e48\u0e2a\u0e27\u0e19\u0e2a\u0e22\u0e32\u0e21", "public_transport": "station"}}, {"type": "node", "id": 9697484713, "lat": 13.7782627, "lon": 100.6758554, "tags": {"construction": "station", "public_transport": "station", "railway": "construction", "subway": "yes"}}, {"type": "node", "id": 9710909128, "lat": 13.6714383, "lon": 100.687179, "tags": {"amenity": "bus_station", "bus": "yes", "name": "\u0e2d\u0e39\u0e48\u0e23\u0e32\u0e21\u0e04\u0e33\u0e41\u0e2b\u0e07 2 (\u0e2a\u0e32\u0e22 139)", "public_transport": "station"}}, {"type": "node", "id": 9729323727, "lat": 13.6879525, "lon": 100.4261542, "tags": {"amenity": "bus_station", "bus": "yes", "public_transport": "station"}}, {"type": "node", "id": 9729515392, "lat": 13.7158604, "lon": 100.6719766, "tags": {"amenity": "bus_station", "bus": "yes", "public_transport": "station"}}, {"type": "node", "id": 9733114201, "lat": 13.7593349, "lon": 100.5728839, "tags": {"amenity": "bus_station", "bus": "yes", "name": "\u0e2d\u0e39\u0e48\u0e1e\u0e23\u0e30\u0e23\u0e32\u0e21 9", "network": "BMTA", "operator": "BMTA", "public_transport": "station"}}, {"type": "node", "id": 9758722596, "lat": 13.7705098, "lon": 100.6558636, "tags": {"amenity": "ferry_terminal", "ferry": "yes", "name": "Phrommitpittaya School Pier", "public_transport": "station"}}, {"type": "node", "id": 9758722599, "lat": 13.7758477, "lon": 100.6658655, "tags": {"amenity": "ferry_terminal", "ferry": "yes", "name": "Paseo mall Pier", "public_transport": "station"}}, {"type": "node", "id": 9758722602, "lat": 13.7807959, "lon": 100.6745504, "tags": {"amenity": "ferry_terminal", "ferry": "yes", "name": "Seri Thai 26 Pier", "public_transport": "station"}}, {"type": "node", "id": 9758722604, "lat": 13.7830846, "lon": 100.6786888, "tags": {"amenity": "ferry_terminal", "ferry": "yes", "name": "Khlong Rahas Pier", "public_transport": "station"}}, {"type": "node", "id": 9758722607, "lat": 13.7846294, "lon": 100.6814395, "tags": {"amenity": "ferry_terminal", "ferry": "yes", "name": "Rom Sai Village Pier", "public_transport": "station"}}, {"type": "node", "id": 9758722610, "lat": 13.7888569, "lon": 100.6892481, "tags": {"amenity": "ferry_terminal", "ferry": "yes", "name": "Red Mosque Pier", "public_transport": "station"}}, {"type": "node", "id": 9758722613, "lat": 13.7924627, "lon": 100.6956592, "tags": {"amenity": "ferry_terminal", "ferry": "yes", "name": "Lolae Yai Community Pier", "public_transport": "station"}}, {"type": "node", "id": 9758735118, "lat": 13.7972371, "lon": 100.7042116, "tags": {"amenity": "ferry_terminal", "ferry": "yes", "name": "Lower Bang Chan Dam Pier", "public_transport": "station"}}, {"type": "node", "id": 9758735121, "lat": 13.7975341, "lon": 100.7047615, "tags": {"amenity": "ferry_terminal", "ferry": "yes", "name": "Upper Bang Chan Dam Pier", "public_transport": "station"}}, {"type": "node", "id": 9758735123, "lat": 13.8109446, "lon": 100.7290701, "tags": {"amenity": "ferry_terminal", "ferry": "yes", "name": "Talat Minburi Pier", "public_transport": "station"}}, {"type": "node", "id": 9758735125, "lat": 13.8120955, "lon": 100.731232, "tags": {"amenity": "ferry_terminal", "ferry": "yes", "name": "Khet Minburi Pier", "public_transport": "station"}}, {"type": "node", "id": 10100721473, "lat": 13.7493361, "lon": 100.50165, "tags": {"amenity": "bus_station", "bus": "yes", "name": "\u0e17\u0e48\u0e32\u0e23\u0e16\u0e40\u0e2a\u0e32\u0e0a\u0e34\u0e07\u0e0a\u0e49\u0e32 (\u0e2a\u0e32\u0e22 42)", "name:en": "Sao Chingcha Bus Terminal (42)", "name:th": "\u0e17\u0e48\u0e32\u0e23\u0e16\u0e40\u0e2a\u0e32\u0e0a\u0e34\u0e07\u0e0a\u0e49\u0e32 (\u0e2a\u0e32\u0e22 42)", "public_transport": "station"}}, {"type": "node", "id": 10100721497, "lat": 13.8138626, "lon": 100.7286685, "tags": {"amenity": "bus_station", "bus": "yes", "name": "\u0e17\u0e48\u0e32\u0e23\u0e16\u0e21\u0e35\u0e19\u0e1a\u0e38\u0e23\u0e35 (\u0e44\u0e17\u0e22\u0e2a\u0e21\u0e32\u0e22\u0e25\u0e4c\u0e1a\u0e31\u0e2a)", "name:en": "Min Buri Bus Terminal (TSB)", "name:th": "\u0e17\u0e48\u0e32\u0e23\u0e16\u0e21\u0e35\u0e19\u0e1a\u0e38\u0e23\u0e35 (\u0e44\u0e17\u0e22\u0e2a\u0e21\u0e32\u0e22\u0e25\u0e4c\u0e1a\u0e31\u0e2a)", "network": "TSB", "operator": "TSB", "public_transport": "station"}}, {"type": "node", "id": 10100721498, "lat": 13.8344081, "lon": 100.9074114, "tags": {"amenity": "bus_station", "bus": "yes", "name": "\u0e17\u0e48\u0e32\u0e23\u0e16\u0e40\u0e2d\u0e37\u0e49\u0e2d\u0e2d\u0e32\u0e17\u0e23\u0e2a\u0e31\u0e19\u0e15\u0e34\u0e2a\u0e38\u0e02", "public_transport": "station"}}, {"type": "node", "id": 10101111615, "lat": 13.7645566, "lon": 100.5694622, "tags": {"amenity": "bus_station", "bus": "yes", "public_transport": "station"}}, {"type": "node", "id": 10101303703, "lat": 13.9251088, "lon": 100.8640884, "tags": {"amenity": "bus_station", "bus": "yes", "name": "\u0e2b\u0e21\u0e39\u0e48\u0e1a\u0e49\u0e32\u0e19\u0e40\u0e18\u0e35\u0e22\u0e23\u0e17\u0e2d\u0e07 3", "public_transport": "station"}}, {"type": "node", "id": 10130755927, "lat": 13.6736638, "lon": 100.6903163, "tags": {"amenity": "bus_station", "bus": "yes", "name": "\u0e1a\u0e23\u0e34\u0e29\u0e31\u0e17 \u0e2a\u0e34\u0e17\u0e18\u0e34\u0e0a\u0e32\u0e0d\u0e0a\u0e31\u0e22 \u0e08\u0e33\u0e01\u0e31\u0e14 (\u0e2a\u0e32\u0e22 46)", "public_transport": "station"}}, {"type": "node", "id": 10599332769, "lat": 13.7288614, "lon": 100.5101214, "tags": {"historic:railway": "station", "name": "\u0e2a\u0e16\u0e32\u0e19\u0e35\u0e1b\u0e32\u0e01\u0e04\u0e25\u0e2d\u0e07\u0e2a\u0e32\u0e19", "name:en": "Pak Khlong San", "name:th": "\u0e2a\u0e16\u0e32\u0e19\u0e35\u0e1b\u0e32\u0e01\u0e04\u0e25\u0e2d\u0e07\u0e2a\u0e32\u0e19", "public_transport": "station", "railway": "site", "train": "yes", "wikidata": "Q13021737", "wikipedia": "th:\u0e2a\u0e16\u0e32\u0e19\u0e35\u0e23\u0e16\u0e44\u0e1f\u0e1b\u0e32\u0e01\u0e04\u0e25\u0e2d\u0e07\u0e2a\u0e32\u0e19"}}, {"type": "node", "id": 10610358534, "lat": 13.7598196, "lon": 100.4866902, "tags": {"historic:railway": "station", "name": "\u0e18\u0e19\u0e1a\u0e38\u0e23\u0e35 (\u0e40\u0e14\u0e34\u0e21)", "name:en": "Thonburi (Original)", "name:th": "\u0e18\u0e19\u0e1a\u0e38\u0e23\u0e35 (\u0e40\u0e14\u0e34\u0e21)", "public_transport": "station", "railway": "site", "train": "yes", "wikidata": "Q130198", "wikipedia": "th:\u0e1e\u0e34\u0e1e\u0e34\u0e18\u0e20\u0e31\u0e13\u0e11\u0e4c\u0e28\u0e34\u0e23\u0e34\u0e23\u0e32\u0e0a\u0e1e\u0e34\u0e21\u0e38\u0e02\u0e2a\u0e16\u0e32\u0e19"}}, {"type": "node", "id": 10830450762, "lat": 13.6549747, "lon": 100.6421608, "tags": {"construction": "station", "monorail": "yes", "name": "\u0e28\u0e23\u0e35\u0e25\u0e32\u0e0b\u0e32\u0e25", "name:en": "Si La Salle", "name:th": "\u0e28\u0e23\u0e35\u0e25\u0e32\u0e0b\u0e32\u0e25", "operator": "Eastern Bangkok Monorail Company Limited", "public_transport": "station", "railway": "construction", "ref": "YL18"}}, {"type": "node", "id": 10830450763, "lat": 13.6676858, "lon": 100.6450683, "tags": {"construction": "station", "monorail": "yes", "name": "\u0e28\u0e23\u0e35\u0e40\u0e2d\u0e35\u0e48\u0e22\u0e21", "name:en": "Sri Iam", "name:th": "\u0e28\u0e23\u0e35\u0e40\u0e2d\u0e35\u0e48\u0e22\u0e21", "operator": "Eastern Bangkok Monorail Company Limited", "public_transport": "station", "railway": "construction", "ref": "YL17"}}, {"type": "way", "id": 31151623, "nodes": [346614000, 346614001, 346614002, 346614003, 346614005, 346614006, 346614007, 346614008, 1710338306, 346614010, 346614011, 346614012, 346614013, 6346292335, 346614015, 346614000], "tags": {"alt_name:en": "Bangkok Northern Bus Terminal (Mo Chit 2);Mo Chit Bus Station;New Mo Chit;Mochit New Van Terminal;Minibus Station Chatuchak", "alt_name:th": "\u0e2b\u0e21\u0e2d\u0e0a\u0e34\u0e15\u0e43\u0e2b\u0e21\u0e48;\u0e2b\u0e21\u0e2d\u0e0a\u0e34\u0e15 2;\u0e2a\u0e16\u0e32\u0e19\u0e35\u0e02\u0e19\u0e2a\u0e48\u0e07\u0e08\u0e15\u0e38\u0e08\u0e31\u0e01\u0e23", "amenity": "bus_station", "bus": "yes", "name": "\u0e2a\u0e16\u0e32\u0e19\u0e35\u0e02\u0e19\u0e2a\u0e48\u0e07\u0e1c\u0e39\u0e49\u0e42\u0e14\u0e22\u0e2a\u0e32\u0e23\u0e01\u0e23\u0e38\u0e07\u0e40\u0e17\u0e1e (\u0e08\u0e15\u0e38\u0e08\u0e31\u0e01\u0e23)", "name:en": "Bangkok Bus Terminal (Chatuchak)", "name:th": "\u0e2a\u0e16\u0e32\u0e19\u0e35\u0e02\u0e19\u0e2a\u0e48\u0e07\u0e1c\u0e39\u0e49\u0e42\u0e14\u0e22\u0e2a\u0e32\u0e23\u0e01\u0e23\u0e38\u0e07\u0e40\u0e17\u0e1e (\u0e08\u0e15\u0e38\u0e08\u0e31\u0e01\u0e23)", "public_transport": "station", "wikidata": "Q13021613", "wikipedia": "th:\u0e2a\u0e16\u0e32\u0e19\u0e35\u0e02\u0e19\u0e2a\u0e48\u0e07\u0e1c\u0e39\u0e49\u0e42\u0e14\u0e22\u0e2a\u0e32\u0e23\u0e01\u0e23\u0e38\u0e07\u0e40\u0e17\u0e1e (\u0e08\u0e15\u0e38\u0e08\u0e31\u0e01\u0e23)"}}, {"type": "way", "id": 61232359, "nodes": [765319524, 765319591, 1286879207, 1286877715, 765319486, 1286878296, 1286877745, 765319625, 765319524], "tags": {"addr:housenumber": "928", "addr:street": "Sukhumvit Road", "alt_name": "Ekamai Eastern Bus Terminal;Ekkamai Bus Station", "amenity": "bus_station", "bus": "yes", "name": "Bangkok Bus Terminal (Eastern)", "name:de": "Ekamai \u00d6stliche Busstation", "public_transport": "station"}}, {"type": "way", "id": 158916754, "nodes": [1710382705, 1710382707, 6346292293, 6346292294, 6346292296, 6346292295, 1710382741, 1710382691, 1710382705], "tags": {"amenity": "bus_station", "building": "yes", "bus": "yes", "name": "Mochit 2 Bus Depot", "public_transport": "station", "source": "Bing"}}, {"type": "way", "id": 194447052, "nodes": [2049513954, 2049513960, 2049513958, 2049513951, 2049513954], "tags": {"amenity": "bus_station", "building": "yes;roof", "bus": "yes", "public_transport": "station"}}, {"type": "way", "id": 194447055, "nodes": [2049513969, 2049513967, 2049513956, 2049513958, 2049513960, 2049513962, 2049513969], "tags": {"amenity": "bus_station", "building": "yes;roof", "bus": "yes", "public_transport": "station"}}, {"type": "way", "id": 198877008, "nodes": [2089581593, 2089581594, 2089581603, 2089581599, 2089581601, 2089581602, 2089581598, 2089581596, 2089581592, 2089581587, 2089581585, 2089581571, 2089581570, 2089581568, 2089581580, 2089581578, 2089581597, 2089581595, 2089581589, 2089581588, 2089581573, 2089581569, 2089581584, 2089581579, 2089581591, 2089581583, 2089581582, 2089581593], "tags": {"alt_name": "\u0e2a\u0e16\u0e32\u0e19\u0e35\u0e23\u0e16\u0e42\u0e14\u0e22\u0e2a\u0e32\u0e23\u0e14\u0e48\u0e27\u0e19\u0e1e\u0e34\u0e40\u0e28\u0e29 (\u0e1a\u0e35\u0e2d\u0e32\u0e23\u0e4c\u0e17\u0e35) \u0e2d\u0e32\u0e04\u0e32\u0e23\u0e2a\u0e07\u0e40\u0e04\u0e23\u0e32\u0e30\u0e2b\u0e4c", "amenity": "bus_station", "building": "station", "layer": "1", "name": "\u0e2d\u0e32\u0e04\u0e32\u0e23\u0e2a\u0e07\u0e40\u0e04\u0e23\u0e32\u0e30\u0e2b\u0e4c", "name:en": "Arkan Songkhro BRT", "public_transport": "station", "ref": "2", "source": "Bing"}}, {"type": "way", "id": 198877009, "nodes": [2089581623, 4574662277, 2089581636, 2089581638, 2089581639, 2089581624, 2089581627, 2089581618, 2089581616, 2089581619, 2089581613, 2089581612, 2089581610, 2089581621, 2089581623], "tags": {"alt_name": "\u0e2a\u0e16\u0e32\u0e19\u0e35\u0e23\u0e16\u0e42\u0e14\u0e22\u0e2a\u0e32\u0e23\u0e14\u0e48\u0e27\u0e19\u0e1e\u0e34\u0e40\u0e28\u0e29 (\u0e1a\u0e35\u0e2d\u0e32\u0e23\u0e4c\u0e17\u0e35) \u0e2a\u0e32\u0e17\u0e23", "amenity": "bus_station", "building": "station", "name": "\u0e2a\u0e32\u0e17\u0e23", "name:en": "Sathorn BRT", "network": "BRT", "public_transport": "station", "ref": "1", "source": "Bing"}}, {"type": "way", "id": 341608544, "nodes": [3487510830, 3487510832, 3487510837, 3487510835, 3487510830], "tags": {"building": "yes", "layer": "3", "name": "\u0e27\u0e07\u0e28\u0e4c\u0e2a\u0e27\u0e48\u0e32\u0e07", "name:en": "Wong Sawang", "network": "MRT", "public_transport": "station"}}, {"type": "way", "id": 783486500, "nodes": [7317217011, 7317217010, 7317217009, 7317217008, 7317217007, 7317217006, 7317217005, 7317217004, 7317217003, 7317217002, 7317217001, 7317217011], "tags": {"amenity": "bus_station", "bus": "yes", "name": "\u0e2a\u0e16\u0e32\u0e19\u0e35\u0e40\u0e14\u0e34\u0e19\u0e23\u0e16\u0e42\u0e14\u0e22\u0e2a\u0e32\u0e23\u0e02\u0e19\u0e32\u0e14\u0e40\u0e25\u0e47\u0e01 (\u0e08\u0e15\u0e38\u0e08\u0e31\u0e01\u0e23)", "name:en": "Minibus Station (Chatuchak)", "public_transport": "station"}}, {"type": "way", "id": 1022245048, "nodes": [9427982104, 9427982105, 9427982106, 9427982107, 9427982108, 9427982109, 9427982104], "tags": {"amenity": "bus_station", "building": "yes", "bus": "yes", "public_transport": "station"}}, {"type": "way", "id": 1038193539, "nodes": [2397868510, 2397868508, 9562117035, 9562117029, 9562117030, 9562117040, 9562117034, 9562117033, 9562117031, 9562117032, 2397868509, 2397868510], "tags": {"amenity": "bus_station", "bus": "yes", "name": "\u0e2d\u0e39\u0e48\u0e04\u0e25\u0e2d\u0e07\u0e40\u0e15\u0e22", "name:th": "\u0e2d\u0e39\u0e48\u0e04\u0e25\u0e2d\u0e07\u0e40\u0e15\u0e22", "public_transport": "station"}}]}