{"version": 0.6, "generator": "Overpass API 0.7.60 f4c14d41", "osm3s": {"timestamp_osm_base": "2023-05-02T21:15:23Z", "copyright": "The data included in this document is from www.openstreetmap.org. The data is made available under ODbL."}, "elements": [{"type": "node", "id": 248303090, "lat": -33.7181843, "lon": 151.1168687, "tags": {"amenity": "bank", "atm": "yes", "full_name": "Westpac Wahroonga", "name": "Westpac", "source": "knowledge", "website": "https://www.westpac.com.au/"}}, {"type": "node", "id": 248389164, "lat": -33.7333593, "lon": 151.1280377, "tags": {"amenity": "bank", "atm": "yes", "branch": "Turramurra", "brand": "ANZ", "brand:wikidata": "Q714641", "brand:wikipedia": "en:Australia and New Zealand Banking Group", "name": "ANZ", "official_name": "Australia and New Zealand Banking Group Limited", "source": "local knowledge"}}, {"type": "node", "id": 1495424921, "lat": -33.6939548, "lon": 151.0188326, "tags": {"amenity": "bank", "atm": "yes", "brand": "Commonwealth Bank", "brand:wikidata": "Q285328", "brand:wikipedia": "en:Commonwealth Bank", "name": "Commonwealth Bank"}}, {"type": "node", "id": 1680950522, "lat": -33.7210974, "lon": 151.0430533, "tags": {"amenity": "bank", "atm": "yes", "name": "Commonwealth Bank"}}, {"type": "node", "id": 1858194308, "lat": -33.7039093, "lon": 151.1011996, "tags": {"addr:city": "Hornsby", "addr:housenumber": "Shop 106/7/8 Westfield Hornsby", "addr:postcode": "2077", "addr:street": "Hunter Street", "amenity": "bank", "atm": "yes", "branch": "Hornsby", "brand": "Commonwealth Bank", "brand:wikidata": "Q285328", "brand:wikipedia": "en:Commonwealth Bank", "full_name": "Commonwealth Bank Hornsby", "level": "1", "name": "Commonwealth Bank", "opening_hours": "Mo-Th 09:30-16:00; Fr 09:30-17:00; Sa 09:30-13:00", "operator": "Commonwealth Bank", "phone:AU": "13 22 21", "website": "https://www.commbank.com.au"}}, {"type": "node", "id": 1858194310, "lat": -33.7038489, "lon": 151.1004168, "tags": {"addr:housenumber": "33", "addr:postcode": "2077", "addr:street": "Florence Street", "amenity": "bank", "atm": "yes", "branch": "Hornsby", "brand": "st.george", "brand:wikidata": "Q1606050", "brand:wikipedia": "en:St.George Bank", "check_date:opening_hours": "2022-12-12", "name": "st.george Hornsby", "opening_hours": "Mo-Th 09:30-16:00; Fr 09:30-17:00; Sa 09:30-14:00", "operator": "St George", "phone:AU": "13 33 30", "website": "https://www.stgeorge.com.au/"}}, {"type": "node", "id": 2573959562, "lat": -33.7548761, "lon": 151.1521666, "tags": {"amenity": "bank", "brand": "st.george", "brand:wikidata": "Q1606050", "brand:wikipedia": "en:St.George Bank", "name": "st.george", "wheelchair": "yes"}}, {"type": "node", "id": 3159172028, "lat": -33.7037275, "lon": 151.1005016, "tags": {"addr:housenumber": "19", "addr:postcode": "2077", "addr:street": "Hunter Street", "amenity": "bank", "brand": "ANZ", "brand:wikidata": "Q714641", "brand:wikipedia": "en:Australia and New Zealand Banking Group", "name": "ANZ", "official_name": "Australia and New Zealand Banking Group Limited", "opening_hours": "Mo-Th 09:30-16:00; Fr 09:30-17:00", "phone:AU": "13 13 14"}}, {"type": "node", "id": 3296509024, "lat": -33.7548884, "lon": 151.1526293, "tags": {"addr:country": "AU", "addr:housenumber": "775", "addr:postcode": "2072", "addr:state": "NSW", "addr:street": "Pacific Highway", "addr:suburb": "Gordon", "amenity": "bank", "atm": "yes", "branch": "Gordon", "brand": "Commonwealth Bank", "brand:wikidata": "Q285328", "brand:wikipedia": "en:Commonwealth Bank", "level": "1", "name": "Commonwealth Bank Gordon", "opening_hours": "Mo-Th 09:30-16:00; Fr 09:30-17:00", "operator": "Commonwealth Bank", "operator:type": "private", "operator:wikidata": "Q285328", "ref": "06 2173", "website": "https://www.commbank.com.au/personal/locate-us/nsw/gordon/062173.html"}}, {"type": "node", "id": 4013849200, "lat": -33.7685698, "lon": 151.0275789, "tags": {"amenity": "bank", "brand": "St.George", "brand:wikidata": "Q1606050", "brand:wikipedia": "en:St.George Bank", "name": "St.George", "wheelchair": "yes"}}, {"type": "node", "id": 4352243051, "lat": -33.704203, "lon": 151.1010269, "tags": {"amenity": "bank", "atm": "yes", "branch": "Hornsby", "brand": "Westpac", "brand:wikidata": "Q2031726", "brand:wikipedia": "en:Westpac", "name": "Westpac"}}, {"type": "node", "id": 6052095588, "lat": -33.6933351, "lon": 151.0197161, "tags": {"amenity": "bank", "atm": "yes", "brand": "Westpac", "brand:wikidata": "Q2031726", "brand:wikipedia": "en:Westpac", "name": "Westpac", "name:fr": "Banque Westpac"}}, {"type": "node", "id": 6179625894, "lat": -33.7559879, "lon": 151.1531263, "tags": {"addr:country": "AU", "addr:housenumber": "737-739", "addr:postcode": "2072", "addr:state": "NSW", "addr:street": "Pacific Highway", "addr:suburb": "Gordon", "amenity": "bank", "atm": "yes", "branch": "Gordon", "brand": "Westpac", "level": "1", "name": "Westpac Branch Gordon", "opening_hours": "Mo-Th 09:30-16:00; Fr 09:30-17:00", "operator": "Westpac", "operator:type": "private", "operator:wikidata": "Q2031726", "website": "https://www.westpac.com.au/locateus/branch/NSW/Gordon/Gordon"}}, {"type": "node", "id": 6515021029, "lat": -33.7528175, "lon": 151.286805, "tags": {"amenity": "bank", "brand": "Commonwealth Bank", "brand:wikidata": "Q285328", "brand:wikipedia": "en:Commonwealth Bank", "name": "Commonwealth Bank"}}, {"type": "node", "id": 6515032434, "lat": -33.7527139, "lon": 151.2869526, "tags": {"amenity": "bank", "brand": "NAB", "brand:wikidata": "Q1430985", "brand:wikipedia": "en:National Australia Bank", "name": "NAB"}}, {"type": "node", "id": 6698681712, "lat": -33.6369448, "lon": 151.3292361, "tags": {"addr:street": "Old Barrenjoey Road", "amenity": "bank", "atm": "yes", "brand": "Westpac", "name": "Westpac bank", "opening_hours": "Mo-Th 09:30-16:00; Fr 09:30-17:00"}}, {"type": "node", "id": 6761419175, "lat": -33.7548022, "lon": 151.2849174, "tags": {"amenity": "bank", "branch": "Dee Why Branch", "brand": "St George", "name": "St. Georges"}}, {"type": "node", "id": 7196668785, "lat": -33.7662837, "lon": 151.2656083, "tags": {"amenity": "bank", "atm": "yes", "brand": "Commonwealth Bank", "brand:wikidata": "Q285328", "brand:wikipedia": "en:Commonwealth Bank", "name": "Commonwealth Bank"}}, {"type": "node", "id": 9028584931, "lat": -33.7327974, "lon": 151.005107}, {"type": "node", "id": 9028584932, "lat": -33.7328187, "lon": 151.0051329}, {"type": "node", "id": 9028584933, "lat": -33.7329305, "lon": 151.0053216}, {"type": "node", "id": 9028584934, "lat": -33.7327526, "lon": 151.0052114}, {"type": "node", "id": 9028584935, "lat": -33.7328637, "lon": 151.0053989}, {"type": "node", "id": 9028584936, "lat": -33.7329384, "lon": 151.0053357}, {"type": "node", "id": 9036810609, "lat": -33.732731, "lon": 151.0051851}, {"type": "node", "id": 9676296120, "lat": -33.7501758, "lon": 151.224181, "tags": {"amenity": "bank", "brand": "Commonwealth Bank", "brand:wikidata": "Q285328", "brand:wikipedia": "en:Commonwealth Bank", "name": "Commonwealth Bank"}}, {"type": "way", "id": 975640629, "nodes": [9028584932, 9028584931, 9036810609, 9028584934, 9028584935, 9028584936, 9028584933, 9028584932], "tags": {"amenity": "bank", "brand": "Westpac", "brand:wikidata": "Q2031726", "brand:wikipedia": "en:Westpac", "building": "yes", "name": "Westpac", "opening_hours": "Mo-Th 09:30-16:00; Fr 09:30-17:00; Sa 10:00-14:00; Su off"}}]}