{"version": 0.6, "generator": "Overpass API 0.7.60 f4c14d41", "osm3s": {"timestamp_osm_base": "2023-05-02T21:17:24Z", "copyright": "The data included in this document is from www.openstreetmap.org. The data is made available under ODbL."}, "elements": [{"type": "node", "id": 20979900, "lat": -33.8896752, "lon": 151.2754242, "tags": {"amenity": "bar", "created_by": "JOSM", "name": "The Blue Chip"}}, {"type": "node", "id": 20980071, "lat": -33.8900743, "lon": 151.2744492, "tags": {"amenity": "bar", "name": "Hurricanes Grill and Bar"}}, {"type": "node", "id": 20980081, "lat": -33.8912972, "lon": 151.2736865, "tags": {"amenity": "bar", "name": "Ravesi's", "source": "survey"}}, {"type": "node", "id": 497623836, "lat": -33.7994952, "lon": 151.2839177, "tags": {"amenity": "bar", "name": "Bavarian Bier Caf\u00e9", "wheelchair": "yes"}}, {"type": "node", "id": 501791364, "lat": -33.893714, "lon": 151.1830351, "tags": {"addr:city": "Newtown", "addr:housenumber": "157", "addr:postcode": "2042", "addr:street": "King Street", "amenity": "bar", "name": "Kuletos Cocktail Bar", "wheelchair": "yes"}}, {"type": "node", "id": 594438636, "lat": -33.8801237, "lon": 151.2100648, "tags": {"amenity": "bar", "historic:amenity": "cafe", "name": "Madame nhu", "note": "closed down permanently 2012-06-30", "outdoor_seating": "yes", "website": "https://www.madamenhu.com/"}}, {"type": "node", "id": 837057118, "lat": -33.8230433, "lon": 151.1952602, "tags": {"amenity": "bar", "name": "St Leonards Tavern"}}, {"type": "node", "id": 936413320, "lat": -33.8784615, "lon": 151.2153018, "tags": {"amenity": "bar", "name": "Pocket Bar"}}, {"type": "node", "id": 936414315, "lat": -33.8789603, "lon": 151.2156183, "tags": {"amenity": "bar", "name": "Shady Pines"}}, {"type": "node", "id": 936416956, "lat": -33.8756764, "lon": 151.2152835, "tags": {"amenity": "bar", "name": "Time to Vino"}}, {"type": "node", "id": 1121134788, "lat": -33.961562, "lon": 151.1558162, "tags": {"amenity": "bar"}}, {"type": "node", "id": 1160951403, "lat": -33.8787401, "lon": 151.2142976, "tags": {"amenity": "bar", "check_date": "2022-10-12", "lgbtq": "primary", "name": "The Riley", "opening_hours": "Th-Sa 10:00-03:00, Su-We 10:00-23:00", "outdoor_seating": "yes"}}, {"type": "node", "id": 1160951407, "lat": -33.8618286, "lon": 151.2107144, "tags": {"amenity": "bar", "name": "Quay Bar"}}, {"type": "node", "id": 1164927681, "lat": -34.0624657, "lon": 151.1405034, "tags": {"amenity": "bar", "name": "Royal Motor Yacht Club"}}, {"type": "node", "id": 1270148820, "lat": -34.0518461, "lon": 151.1542249, "tags": {"amenity": "bar", "source": "survey", "source:location": "nearmap"}}, {"type": "node", "id": 1270148824, "lat": -34.0518494, "lon": 151.1546679, "tags": {"amenity": "bar", "level": "1", "name": "Zink", "source": "survey", "source:location": "nearmap"}}, {"type": "node", "id": 1305682773, "lat": -33.8568544, "lon": 151.1785357, "tags": {"addr:housenumber": "350", "addr:postcode": "2041", "addr:street": "Darling Street", "amenity": "bar", "name": "Cantina Bar"}}, {"type": "node", "id": 1326017118, "lat": -33.848742, "lon": 151.2100723}, {"type": "node", "id": 1326017131, "lat": -33.8486447, "lon": 151.2101861}, {"type": "node", "id": 1326017161, "lat": -33.8490733, "lon": 151.2104773}, {"type": "node", "id": 1326017183, "lat": -33.8489621, "lon": 151.2105436}, {"type": "node", "id": 1349091873, "lat": -33.8004218, "lon": 151.2849078, "tags": {"amenity": "bar", "name": "Wharf Bar"}}, {"type": "node", "id": 1460809671, "lat": -33.8694919, "lon": 151.1936233, "tags": {"amenity": "bar", "name": "Gallon", "wheelchair": "yes"}}, {"type": "node", "id": 1613890758, "lat": -33.8677637, "lon": 151.1929232, "tags": {"amenity": "bar", "name": "Barzini", "opening_hours": "We-Fr 07:00-15:00", "wheelchair": "no"}}, {"type": "node", "id": 1707176771, "lat": -33.8790473, "lon": 151.2146574, "tags": {"addr:housenumber": "85-91", "addr:postcode": "2010", "addr:state": "NSW", "addr:street": "Oxford Street", "amenity": "bar", "lgbtq": "primary", "name": "Midnight Shift", "opening_hours": "Fr,Sa 12:00-03:00, Su-Th 12:00-01:00", "website": "http://www.themidnightshift.com.au"}}, {"type": "node", "id": 1833251512, "lat": -33.8717965, "lon": 151.1923361, "tags": {"al_fresco": "yes", "amenity": "bar", "name": "Deep, Oyster & Crustacean Bar", "wheelchair": "yes"}}, {"type": "node", "id": 1858244743, "lat": -33.8922987, "lon": 151.1996728, "tags": {"amenity": "bar", "name": "RSL"}}, {"type": "node", "id": 1862583505, "lat": -33.8868802, "lon": 151.1989852, "tags": {"addr:housenumber": "86", "addr:street": "Abercrombie Street", "amenity": "bar", "name": "Sneaky Possum", "phone": "+61 2 9310 5010", "website": "https://www.sneakypossum.com/"}}, {"type": "node", "id": 2262406272, "lat": -33.8748089, "lon": 151.2237462, "tags": {"addr:housenumber": "24", "addr:postcode": "2011", "addr:street": "Bayswater Road", "amenity": "bar", "name": "Cali Club", "source": "(02) 9357 7700"}}, {"type": "node", "id": 2262414276, "lat": -33.8641755, "lon": 151.2084057, "tags": {"addr:postcode": "2000", "addr:street": "Abercrombie Lane", "amenity": "bar", "name": "Palmer & Co", "source": "(02) 9240 3172", "website": "http://merivale.com.au/palmerandco/"}}, {"type": "node", "id": 2262425348, "lat": -33.8661593, "lon": 151.2016131, "tags": {"addr:housenumber": "3", "addr:postcode": "2000", "addr:street": "Lime Street", "amenity": "bar", "name": "The Loft", "source": "+61 2 9299 4770", "website": "http://www.theloftsydney.com"}}, {"type": "node", "id": 2284287892, "lat": -33.8184775, "lon": 151.0051105, "tags": {"amenity": "bar", "name": "Velvet Lounge"}}, {"type": "node", "id": 2399943169, "lat": -33.866057, "lon": 151.2052036, "tags": {"amenity": "bar", "coffee": "yes", "name": "York Lane"}}, {"type": "node", "id": 2473165002, "lat": -33.8865086, "lon": 151.2093751, "tags": {"addr:housename": "121 BC", "addr:housenumber": "4/50", "addr:street": "Holt Street (enter via Gladstone Street)", "amenity": "bar", "name": "121BC", "website": "https://www.121bc.com.au/"}}, {"type": "node", "id": 2493382916, "lat": -34.0513516, "lon": 151.1543722, "tags": {"amenity": "bar", "name": "Northies Cronulla Hotel", "source": "survey", "source:location": "extrapolation"}}, {"type": "node", "id": 2524142389, "lat": -33.8660985, "lon": 151.2014165, "tags": {"addr:city": "Sydney", "addr:housenumber": "3", "addr:postcode": "2000", "addr:street": "Lime Street", "amenity": "bar", "name": "Bungalow 8", "toilets:wheelchair": "yes", "website": "http://www.bungalow8sydney.com", "wheelchair": "yes"}}, {"type": "node", "id": 2524810477, "lat": -33.8813567, "lon": 151.2181527, "tags": {"addr:city": "Sydney", "addr:housenumber": "231", "addr:postcode": "2010", "addr:street": "Oxford Street", "addr:suburb": "Darlinghurst", "amenity": "bar", "lgbtq": "primary", "name": "The Gay Bar", "website": "http://thegaybar.tumblr.com"}}, {"type": "node", "id": 2524810481, "lat": -33.8810663, "lon": 151.2174777, "tags": {"addr:city": "Sydney", "addr:housenumber": "197", "addr:postcode": "2010", "addr:street": "Oxford Street", "addr:suburb": "Darlinghurst", "amenity": "bar", "name": "Name this Bar", "website": "http://www.namethisbar.com.au"}}, {"type": "node", "id": 2525071481, "lat": -33.8137378, "lon": 151.0066743}, {"type": "node", "id": 2525071482, "lat": -33.8136015, "lon": 151.0066739}, {"type": "node", "id": 2525071486, "lat": -33.8137399, "lon": 151.0071864}, {"type": "node", "id": 2525071487, "lat": -33.8135952, "lon": 151.0066885}, {"type": "node", "id": 2525071488, "lat": -33.813686, "lon": 151.0072031}, {"type": "node", "id": 2613244987, "lat": -34.0511981, "lon": 151.1531912, "tags": {"amenity": "bar", "contact:phone": "+61 02 9527 6069", "name": "Sting", "source": "survey", "source:location": "extrapolation"}}, {"type": "node", "id": 2613255871, "lat": -34.0554682, "lon": 151.1518714, "tags": {"addr:housenumber": "134", "amenity": "bar", "contact:phone": "+61 02 9527 5099", "contact:website": "http://www.2230restaurantandbar.com", "name": "Drift", "source": "survey", "source:location": "bing"}}, {"type": "node", "id": 2624034912, "lat": -33.8800584, "lon": 151.2148157}, {"type": "node", "id": 2624138285, "lat": -33.8800206, "lon": 151.2147224}, {"type": "node", "id": 2624138286, "lat": -33.880106, "lon": 151.2146742}, {"type": "node", "id": 2624138287, "lat": -33.8801318, "lon": 151.2147997}, {"type": "node", "id": 2626698092, "lat": -33.8926697, "lon": 151.2006704, "tags": {"addr:city": "Redfern", "addr:housenumber": "7", "addr:postcode": "2016", "addr:street": "Cope Street", "amenity": "bar", "name": "Arcadia Liquors", "opening_hours": "Mo-Fr 16:00-12:00; Sa 15:00-12:00; Su 15:00-22:00", "website": "http://www.arcadialiquors.com/"}}, {"type": "node", "id": 2629969663, "lat": -33.996875, "lon": 151.144224, "tags": {"amenity": "bar", "name": "The River Club"}}, {"type": "node", "id": 2699744957, "lat": -33.883727, "lon": 151.2015599, "tags": {"addr:city": "sydney", "addr:housenumber": "15", "addr:postcode": "2007", "addr:street": "Broadway", "amenity": "bar", "name": "The Loft UTS"}}, {"type": "node", "id": 2748930192, "lat": -33.8690049, "lon": 151.2061917, "tags": {"addr:city": "Sydney", "addr:housenumber": "32", "addr:postcode": "2000", "addr:street": "York Street", "alt_name": "Spooning Goats", "amenity": "bar", "name": "The SG", "opening_hours": "16:00-24:00", "payment:bitcoin": "yes", "phone": "+61 402 813 035"}}, {"type": "node", "id": 2751718684, "lat": -33.874789, "lon": 151.2215016, "tags": {"addr:city": "Potts Point", "addr:housenumber": "22/154", "addr:postcode": "2011", "addr:street": "Brougham Street", "amenity": "bar", "name": "EL Rocco", "phone": "+61 2 9368 0894", "smoking": "no", "source": "http://www.elrocco.com.au", "website": "http://www.elrocco.com.au", "wheelchair": "yes"}}, {"type": "node", "id": 2839108290, "lat": -33.8999587, "lon": 151.1847839, "tags": {"addr:city": "Erskineville", "addr:housenumber": "93", "addr:postcode": "2043", "addr:street": "Erskineville Road", "amenity": "bar", "name": "The Hive Bar", "opening_hours": "Mo-Fr 12:00-24:00, Sa 10:00-24:00, Su 10:00-22:00", "phone": "+61 2 9519 9911", "website": "http://www.thehivebar.com.au/"}}, {"type": "node", "id": 2998959150, "lat": -33.7994856, "lon": 151.285099, "tags": {"addr:city": "Manly", "addr:housenumber": "50", "addr:postcode": "2095", "addr:street": "East Esplanade", "amenity": "bar", "name": "El Beau Room", "phone": "+61 2 9976 3065", "website": "http://www.elbeauroom.com.au"}}, {"type": "node", "id": 3108393376, "lat": -33.9018394, "lon": 151.2136004, "tags": {"addr:city": "Waterloo", "addr:housenumber": "24", "addr:postcode": "2017", "addr:street": "Amelia Street", "amenity": "bar", "name": "1346Venice - Cafe & Bar", "website": "http://www.1346venice.com/cafebar/"}}, {"type": "node", "id": 3143326372, "lat": -33.8944763, "lon": 151.1995759, "tags": {"addr:housenumber": "183", "addr:street": "Regent Street", "amenity": "bar", "level": "0", "lgbtq": "primary", "name": "The Bearded Tit", "name:en": "Bearded Tit", "payment:cash": "yes", "payment:contactless": "yes", "payment:credit_cards": "yes", "toilets:unisex": "yes"}}, {"type": "node", "id": 3157640567, "lat": -33.8278277, "lon": 151.2028443, "tags": {"amenity": "bar", "name": "The Foxtrot", "smoking": "no", "website": "http://thefoxtrotinn.com.au"}}, {"type": "node", "id": 3278505535, "lat": -33.8877055, "lon": 151.1684708, "tags": {"addr:housenumber": "95", "addr:postcode": "2038", "addr:street": "Parramatta Road", "amenity": "bar", "name": "Buena Suerte Tapas Bar", "opening_hours:signed": "no"}}, {"type": "node", "id": 3338959238, "lat": -33.8389686, "lon": 151.2065659, "tags": {"amenity": "bar", "name": "TreeHouse Hotel"}}, {"type": "node", "id": 3464167275, "lat": -33.893537, "lon": 151.1832437, "tags": {"addr:city": "Newtown", "addr:housenumber": "153A", "addr:postcode": "2042", "addr:street": "King Street", "amenity": "bar", "name": "Corridor", "toilets:wheelchair": "no", "wheelchair": "no"}}, {"type": "node", "id": 3487901506, "lat": -33.8694218, "lon": 151.2051817, "tags": {"addr:city": "Sydney", "addr:housenumber": "199", "addr:postcode": "2000", "addr:street": "Clarence Street", "amenity": "bar", "name": "Spawn Point Small Bar", "opening_hours": "Tu-We 17:00-22:00; Th-Sa 17:00-24:00", "payment:bitcoin": "yes", "website": "https://www.spawnpoint.com.au/"}}, {"type": "node", "id": 3487907044, "lat": -33.8694276, "lon": 151.2048541, "tags": {"addr:city": "Sydney", "addr:housenumber": "338", "addr:postcode": "2000", "addr:street": "Kent Street", "amenity": "bar", "internet_access": "yes", "name": "Since I Left You", "opening_hours": "Mo-Tu 16:30-22:00, We-Fr 16:30-00:00, Sa 18:00-00:00", "phone": "+61 (2) 9262-4986", "website": "http://www.sinceileftyou.com.au/"}}, {"type": "node", "id": 3664013696, "lat": -33.882174, "lon": 151.1895275, "tags": {"addr:city": "Glebe", "addr:housenumber": "92", "addr:street": "Glebe Point Road", "amenity": "bar", "internet_access": "wlan", "internet_access:fee": "no", "name": "Mr Falcon's"}}, {"type": "node", "id": 3960768719, "lat": -33.9374065, "lon": 151.16628, "tags": {"amenity": "bar", "check_date": "2022-07-26", "indoor_seating": "yes", "level": "1", "name": "Grand Cru", "outdoor_seating": "no"}}, {"type": "node", "id": 3963771864, "lat": -33.8845776, "lon": 151.2117022, "tags": {"addr:city": "Surry Hills", "addr:housenumber": "84", "addr:street": "Fouveaux Street", "amenity": "bar", "cuisine": "japanese", "name": "Kagura", "opening_hours": "Mo-Sa 18:00-23:00", "phone": "+61 2 9212 1981", "smoking": "no"}}, {"type": "node", "id": 4002324889, "lat": -33.8725688, "lon": 151.2020487, "tags": {"amenity": "bar", "level": "1", "name": "Blackbird Caf\u00e9", "toilets:wheelchair": "yes", "wheelchair": "yes"}}, {"type": "node", "id": 4002324890, "lat": -33.8706115, "lon": 151.2026554, "tags": {"amenity": "bar", "level": "1", "name": "Helm Bar", "toilets:wheelchair": "yes", "wheelchair": "yes"}}, {"type": "node", "id": 4032662390, "lat": -33.8850399, "lon": 151.2128183, "tags": {"amenity": "bar", "name": "Bar Conte"}}, {"type": "node", "id": 4046247463, "lat": -33.9341402, "lon": 151.1792892, "tags": {"access": "private", "amenity": "bar", "brand": "Virgin Australia", "indoor_seating": "yes", "internet_access": "wlan", "level": "2", "name": "Virgin Australia Lounge", "operator": "Virgin Australia", "outdoor_seating": "no", "source": "survey", "source:position": "extrapolation", "toilets": "yes"}}, {"type": "node", "id": 4046247567, "lat": -33.9367367, "lon": 151.1691214, "tags": {"access": "private", "amenity": "bar", "name": "American Express Lounge", "operator": "American Express", "source": "survey", "source:position": "extrapolation"}}, {"type": "node", "id": 4046247568, "lat": -33.9367057, "lon": 151.169231, "tags": {"access": "private", "amenity": "bar", "name": "SkyTeam Lounge", "operator": "SkyTeam", "source": "survey", "source:position": "extrapolation"}}, {"type": "node", "id": 4046247581, "lat": -33.9384367, "lon": 151.1657913, "tags": {"access": "private", "amenity": "bar", "name": "Etihad First & Business Class Lounge", "operator": "Etihad", "source": "survey", "source:geometry": "extrapolation"}}, {"type": "node", "id": 4046247582, "lat": -33.9396693, "lon": 151.1653961, "tags": {"access": "private", "amenity": "bar", "name": "Singapore Airlines Silver Kris Lounge", "operator": "Singapore Airlines", "source": "survey", "source:geometry": "extrapolation"}}, {"type": "node", "id": 4046247583, "lat": -33.9397491, "lon": 151.1650321, "tags": {"access": "private", "amenity": "bar", "internet_access": "wlan", "kids_area": "yes", "name": "Air New Zealand Lounge", "operator": "Air New Zealand", "self_service": "yes", "source": "survey", "source:geometry": "extrapolation", "toilets": "yes"}}, {"type": "node", "id": 4057784092, "lat": -33.8666657, "lon": 151.2036294, "tags": {"addr:housenumber": "46", "addr:street": "Erskine Street", "amenity": "bar", "name": "The Captain's Balcony"}}, {"type": "node", "id": 4252208293, "lat": -33.880683, "lon": 151.1878373, "tags": {"addr:housenumber": "185", "addr:street": "St Johns Road", "amenity": "bar", "name": "Different Drummer", "outdoor_seating": "no"}}, {"type": "node", "id": 4265330839, "lat": -33.8312349, "lon": 151.2237455, "tags": {"amenity": "bar", "name": "Honey Rider"}}, {"type": "node", "id": 4265330848, "lat": -33.8309062, "lon": 151.2213858, "tags": {"amenity": "bar", "cocktails": "yes", "name": "So Cal", "wheelchair": "no"}}, {"type": "node", "id": 4275395217, "lat": -33.8238971, "lon": 151.1979054, "tags": {"amenity": "bar", "name": "Pide on Pizzeria"}}, {"type": "node", "id": 4305154594, "lat": -33.864137, "lon": 151.2076285, "tags": {"amenity": "bar", "name": "Establishment"}}, {"type": "node", "id": 4305154595, "lat": -33.8663182, "lon": 151.2075706, "tags": {"amenity": "bar", "name": "Ivy"}}, {"type": "node", "id": 4307263999, "lat": -33.8840256, "lon": 151.1942975}, {"type": "node", "id": 4307264000, "lat": -33.8840356, "lon": 151.1941598}, {"type": "node", "id": 4307264002, "lat": -33.8841646, "lon": 151.1943122}, {"type": "node", "id": 4307264003, "lat": -33.8841746, "lon": 151.1941745}, {"type": "node", "id": 4422272798, "lat": -33.8743979, "lon": 151.2241433, "tags": {"amenity": "bar", "name": "The Powder Keg"}}, {"type": "node", "id": 4453076291, "lat": -33.8778866, "lon": 151.2117851, "tags": {"amenity": "bar", "name": "The Soda Factory"}}, {"type": "node", "id": 4455774889, "lat": -33.8824608, "lon": 151.2045468, "tags": {"addr:housenumber": "509", "addr:postcode": "2000", "addr:street": "Pitt Street", "amenity": "bar", "name": "Sidebar", "phone": "+61 2 9288 7888", "website": "https://sidebarsydney.com.au/"}}, {"type": "node", "id": 4464011889, "lat": -33.8697467, "lon": 151.2055275, "tags": {"amenity": "bar", "name": "The Baxter Inn"}}, {"type": "node", "id": 4466562407, "lat": -33.9000266, "lon": 151.177932, "tags": {"amenity": "bar", "name": "Earl's Juke Joint"}}, {"type": "node", "id": 4466584796, "lat": -33.8697846, "lon": 151.205947, "tags": {"amenity": "bar", "name": "The Barber Shop"}}, {"type": "node", "id": 4467079514, "lat": -33.8685466, "lon": 151.2064079, "tags": {"amenity": "bar", "name": "PJ O Brien's"}}, {"type": "node", "id": 4469809890, "lat": -33.8923848, "lon": 151.2485795, "tags": {"amenity": "bar", "name": "Spring Street Social"}}, {"type": "node", "id": 4514217709, "lat": -33.8625799, "lon": 151.2095667, "tags": {"addr:city": "Sydney", "addr:housenumber": "10-14", "addr:street": "Bulletin Place", "amenity": "bar", "name": "Bulletin Place", "opening_hours": "Mo-We 16:00-24:00, Th-Sa 16:00-01:00", "website": "https://bulletinplace.com/", "wikidata": "Q60233495"}}, {"type": "node", "id": 4547810601, "lat": -33.8827918, "lon": 150.9992517, "tags": {"amenity": "bar", "name": "El Bahsa Sweets", "name:en": "El Bahsa Sweets"}}, {"type": "node", "id": 4548498301, "lat": -33.9361324, "lon": 151.1674364, "tags": {"amenity": "bar"}}, {"type": "node", "id": 4548498302, "lat": -33.937972, "lon": 151.1689659, "tags": {"amenity": "bar", "cuisine": "cafe;snacks", "indoor_seating": "yes", "level": "2", "name": "Viaggio", "name:en": "Viaggio", "opening_hours:signed": "no", "outdoor_seating": "no", "wheelchair": "yes"}}, {"type": "node", "id": 4586307695, "lat": -33.8814473, "lon": 151.2050872, "tags": {"addr:street": "Rawson Place", "amenity": "bar", "name": "Scubar", "name:en": "Scubar"}}, {"type": "node", "id": 4593693593, "lat": -33.9025451, "lon": 151.0836447, "tags": {"addr:housenumber": "12", "addr:postcode": "2191", "addr:street": "Burwood Road", "amenity": "bar", "name": "Brick Lane N12", "opening_hours": "24/7"}}, {"type": "node", "id": 4605174392, "lat": -33.8799049, "lon": 151.2096233, "tags": {"addr:housenumber": "72", "addr:postcode": "2010", "addr:state": "NSW", "addr:street": "Campbell Street", "addr:suburb": "Surry Hills", "amenity": "bar", "name:en": "Play Bar"}}, {"type": "node", "id": 4605190991, "lat": -33.8776482, "lon": 151.2119491, "tags": {"amenity": "bar", "name:en": "The Soda Factory"}}, {"type": "node", "id": 4605191889, "lat": -33.8801769, "lon": 151.2097591, "tags": {"amenity": "bar", "name:en": "The Wild Rover"}}, {"type": "node", "id": 4605196689, "lat": -33.8845524, "lon": 151.2108186, "tags": {"amenity": "bar", "name:en": "Button Bar"}}, {"type": "node", "id": 4674066689, "lat": -33.8743802, "lon": 151.2239696, "tags": {"addr:housenumber": "9", "addr:street": "Kellett Street", "amenity": "bar"}}, {"type": "node", "id": 4682834393, "lat": -33.8827519, "lon": 151.2185781, "tags": {"addr:housenumber": "353", "addr:street": "South Dowling Street", "amenity": "bar", "name": "South dowling", "name:en": "South dowling"}}, {"type": "node", "id": 4683268697, "lat": -33.91478, "lon": 151.1644293}, {"type": "node", "id": 4683268698, "lat": -33.9148912, "lon": 151.1643322}, {"type": "node", "id": 4683268699, "lat": -33.9149833, "lon": 151.1644755}, {"type": "node", "id": 4683268700, "lat": -33.9149065, "lon": 151.1645895}, {"type": "node", "id": 4683268701, "lat": -33.9125082, "lon": 151.1607469}, {"type": "node", "id": 4683268702, "lat": -33.9123045, "lon": 151.160911}, {"type": "node", "id": 4683268703, "lat": -33.9123147, "lon": 151.1609321}, {"type": "node", "id": 4683268704, "lat": -33.9123487, "lon": 151.1609055}, {"type": "node", "id": 4683268705, "lat": -33.9123627, "lon": 151.1609304}, {"type": "node", "id": 4683268706, "lat": -33.9123933, "lon": 151.1609061}, {"type": "node", "id": 4683268707, "lat": -33.9123905, "lon": 151.1608997}, {"type": "node", "id": 4683268708, "lat": -33.9124881, "lon": 151.1608209}, {"type": "node", "id": 4683268709, "lat": -33.9124909, "lon": 151.1608258}, {"type": "node", "id": 4683268710, "lat": -33.9125302, "lon": 151.1607962}, {"type": "node", "id": 4683268711, "lat": -33.9109226, "lon": 151.1562919}, {"type": "node", "id": 4683268712, "lat": -33.9108603, "lon": 151.1561558}, {"type": "node", "id": 4683268713, "lat": -33.9108386, "lon": 151.1561397}, {"type": "node", "id": 4683268716, "lat": -33.9107947, "lon": 151.1563908}, {"type": "node", "id": 4689142298, "lat": -33.869973, "lon": 151.2050656, "tags": {"amenity": "bar", "name": "Lobo Plantation", "website": "http://thelobo.com.au/"}}, {"type": "node", "id": 4689160343, "lat": -33.8906409, "lon": 151.2102592, "tags": {"amenity": "bar", "fax": "+61 2 8399 2569", "name": "Gardel's Bar", "phone": "+61 2 8399 1440"}}, {"type": "node", "id": 4689175709, "lat": -33.8747267, "lon": 151.2160768, "tags": {"amenity": "bar", "email": "tilly@lovetillydevine.com", "name": "Love Tilley Devine", "phone": "+61 2 9326 9297", "website": "http://www.lovetillydevine.com/"}}, {"type": "node", "id": 4734067127, "lat": -33.8769092, "lon": 151.2209894, "tags": {"amenity": "bar", "name": "Eau de vie"}}, {"type": "node", "id": 4739109531, "lat": -33.8603285, "lon": 151.2128992, "tags": {"amenity": "bar", "level": "0", "name": "Buckley's"}}, {"type": "node", "id": 4742555327, "lat": -33.7966372, "lon": 151.2877058, "tags": {"amenity": "bar", "name": "Sugar Lounge", "name:en": "Sugar Lounge"}}, {"type": "node", "id": 4761109922, "lat": -33.8696668, "lon": 151.206493, "tags": {"amenity": "bar", "name": "The Rook", "name:en": "The Rook"}}, {"type": "node", "id": 4763237122, "lat": -33.8720681, "lon": 151.2054888, "tags": {"amenity": "bar", "name": "Grandma's Bar", "name:en": "Grandma's Bar"}}, {"type": "node", "id": 4772745421, "lat": -33.883037, "lon": 151.2095282, "tags": {"addr:housenumber": "84-86", "addr:postcode": "2010", "addr:state": "NSW", "addr:street": "Mary Street", "addr:suburb": "Surry Hills", "amenity": "bar", "name": "Goro's Japanese Karaoke Bar", "opening_hours": "Mo-Su 11:30-03:00", "phone": "+61 2 9212 0214", "website": "https://www.goros.com.au/"}}, {"type": "node", "id": 4772770123, "lat": -33.9126299, "lon": 151.2425209, "tags": {"addr:housenumber": "123", "addr:postcode": "2031", "addr:street": "Avoca Street", "amenity": "bar", "email": "randiwix@gmail.com", "name": "Randywixs", "name:en": "Randy Wixs", "opening_hours": "Mo-Su 21:00-03:00"}}, {"type": "node", "id": 4775808421, "lat": -33.8693431, "lon": 151.1298051, "tags": {"addr:housenumber": "84", "addr:postcode": "2046", "addr:street": "Ramsay Road", "amenity": "bar", "name": "Cremeria Giuseppina", "phone": "+61297124606", "website": "https://cremeriagiuseppina.com.au/#ece339ad-5c71-4d37-865c-202a95b80c9d"}}, {"type": "node", "id": 4826190610, "lat": -33.8591834, "lon": 151.2081885, "tags": {"amenity": "bar", "name": "Tap Rooms", "name:fr": "Tap Rooms"}}, {"type": "node", "id": 4903495621, "lat": -33.895999, "lon": 151.18093, "tags": {"addr:housenumber": "256", "addr:street": "King Street", "amenity": "bar", "name": "The Black Sheep"}}, {"type": "node", "id": 4905476790, "lat": -33.8718524, "lon": 151.2073345, "tags": {"addr:city": "Sydney", "addr:housenumber": "488", "addr:postcode": "2000", "addr:state": "NSW", "addr:street": "George Street", "amenity": "bar", "contact:facebook": "https://www.facebook.com/zetabarsydney", "contact:instagram": "https://www.instagram.com/zetabarsyd/", "contact:linkedin": "https://www.linkedin.com/company/zeta-bar/", "email": "zetaenquiries.sydney@hilton.com", "level": "4", "name": "Zeta Bar", "opening_hours": "Mo-Th 17:00-24:00, Fr 17:00-02:00, Sa 17:00-03:00", "operator": "Hilton", "phone": "+61 2 9265 6070", "website": "https://www.zetabar.com.au/"}}, {"type": "node", "id": 4936515751, "lat": -33.8441979, "lon": 151.2838412, "tags": {"amenity": "bar", "name": "Tucker Bar"}}, {"type": "node", "id": 5007822721, "lat": -33.8827743, "lon": 151.1907568, "tags": {"amenity": "bar", "name": "Food & tunes", "name:en": "Food & tunes"}}, {"type": "node", "id": 5052981621, "lat": -33.8874849, "lon": 151.2716733, "tags": {"amenity": "bar", "name": "Bondi Rumba", "name:en": "Bondi Rumba"}}, {"type": "node", "id": 5053309521, "lat": -33.8900501, "lon": 151.2723372, "tags": {"amenity": "bar", "name": "Cafe Bikini", "name:en": "Cafe Bikini"}}, {"type": "node", "id": 5081278289, "lat": -33.8928895, "lon": 151.203742, "tags": {"addr:city": "Redfern", "addr:housenumber": "92", "addr:postcode": "2016", "addr:province": "NSW", "addr:street": "Pitt Street", "amenity": "bar", "name": "Bart Jr.", "opening_hours": "We-Sa 12:00-00:00; Su 12:00-18:00", "outdoor_seating": "no"}}, {"type": "node", "id": 5110562323, "lat": -33.8798487, "lon": 151.2156232, "tags": {"addr:housenumber": "1/137", "addr:postcode": "2010", "addr:street": "Oxford Street", "amenity": "bar", "indoor_seating:comfort": "lounge;stool;chair", "name": "Bitter Phew", "opening_hours": "Fr-Su 12:00-00:00; Mo 17:00-00:00; Tu-Th 15:00-00:00", "website": "http://www.bitterphew.com"}}, {"type": "node", "id": 5239047482, "lat": -33.8760173, "lon": 151.2046892, "tags": {"amenity": "bar", "name": "Nine Bar"}}, {"type": "node", "id": 5303957107, "lat": -33.8919736, "lon": 151.1381756}, {"type": "node", "id": 5303957108, "lat": -33.8919853, "lon": 151.1382218}, {"type": "node", "id": 5303957109, "lat": -33.8921679, "lon": 151.1382051}, {"type": "node", "id": 5303957110, "lat": -33.8921662, "lon": 151.1381588}, {"type": "node", "id": 5303957111, "lat": -33.8919614, "lon": 151.1381253}, {"type": "node", "id": 5303957112, "lat": -33.8921458, "lon": 151.1381606}, {"type": "node", "id": 5303957116, "lat": -33.8919513, "lon": 151.1380757}, {"type": "node", "id": 5303957117, "lat": -33.8920634, "lon": 151.1381148}, {"type": "node", "id": 5303957118, "lat": -33.8920638, "lon": 151.1381045}, {"type": "node", "id": 5303957119, "lat": -33.8921328, "lon": 151.1380998}, {"type": "node", "id": 5303957120, "lat": -33.8921306, "lon": 151.1380609}, {"type": "node", "id": 5303957921, "lat": -33.8921224, "lon": 151.1380616}, {"type": "node", "id": 5338188422, "lat": -33.8660919, "lon": 151.2099222, "tags": {"addr:housenumber": "37", "addr:street": "Bligh Street", "amenity": "bar", "name": "The Wolf Wine Bar", "website": "http://wolfwinebar.com.au"}}, {"type": "node", "id": 5357599152, "lat": -33.8489042, "lon": 151.2104983}, {"type": "node", "id": 5357599153, "lat": -33.8489114, "lon": 151.2104901}, {"type": "node", "id": 5357599155, "lat": -33.8489999, "lon": 151.210491}, {"type": "node", "id": 5359966540, "lat": -33.8472656, "lon": 151.2131978, "tags": {"addr:city": "Kirribilli", "addr:housenumber": "1/1-3", "addr:street": "Broughton Street", "amenity": "bar", "name": "SBK Sydney", "website": "sbksydney.com.au"}}, {"type": "node", "id": 5367304345, "lat": -33.880388, "lon": 151.2151199, "tags": {"amenity": "bar", "name": "Low 302"}}, {"type": "node", "id": 5367484797, "lat": -33.8753647, "lon": 151.2152627, "tags": {"amenity": "bar", "name": "Stop Valve Espresso and Bar"}}, {"type": "node", "id": 5417951771, "lat": -33.813599, "lon": 151.0067124}, {"type": "node", "id": 5417951772, "lat": -33.813587, "lon": 151.0067424}, {"type": "node", "id": 5417951773, "lat": -33.8137739, "lon": 151.0071491}, {"type": "node", "id": 5417951774, "lat": -33.8138341, "lon": 151.0071346}, {"type": "node", "id": 5417951775, "lat": -33.8136973, "lon": 151.0066467}, {"type": "node", "id": 5453203621, "lat": -33.8814084, "lon": 151.2172668, "tags": {"addr:housenumber": "16", "addr:postcode": "2010", "addr:street": "Flinders Street", "amenity": "bar", "name": "ARQ Sydney"}}, {"type": "node", "id": 5646660247, "lat": -33.9363927, "lon": 151.1680663, "tags": {"access": "private", "amenity": "bar", "brand": "Qantas", "name": "Qantas First Lounge", "operator": "Qantas"}}, {"type": "node", "id": 5739975353, "lat": -33.8922607, "lon": 151.2009391, "tags": {"amenity": "bar", "name": "Sunshine Lounge"}}, {"type": "node", "id": 5739975363, "lat": -33.892277, "lon": 151.2010647, "tags": {"amenity": "bar", "name": "The Martian Embassy"}}, {"type": "node", "id": 5742388167, "lat": -33.8801197, "lon": 151.2147138}, {"type": "node", "id": 5748029016, "lat": -33.875945, "lon": 151.2155911, "tags": {"amenity": "bar", "name": "Dumplings & Beer"}}, {"type": "node", "id": 5748029017, "lat": -33.8759488, "lon": 151.2156204, "tags": {"amenity": "bar", "name": "The Long Goodbye"}}, {"type": "node", "id": 5777928067, "lat": -33.9681228, "lon": 151.1053378, "tags": {"amenity": "bar", "name": "OK Karaoke"}}, {"type": "node", "id": 5829254682, "lat": -33.9642606, "lon": 151.132756, "tags": {"amenity": "bar", "name": "The Bank Tavern"}}, {"type": "node", "id": 5869708342, "lat": -33.8692491, "lon": 151.2100341, "tags": {"amenity": "bar", "name": "SubSolo"}}, {"type": "node", "id": 5870368073, "lat": -33.8638351, "lon": 151.2087616, "tags": {"amenity": "bar", "name": "Taylor's Rooftop Bar", "website": "https://republichotel.com/"}}, {"type": "node", "id": 5870368074, "lat": -33.8637743, "lon": 151.2087698, "tags": {"amenity": "bar", "name": "Republic Hotel", "website": "https://republichotel.com/"}}, {"type": "node", "id": 5890093399, "lat": -33.8919469, "lon": 151.2729874, "tags": {"amenity": "bar", "name": "Vue Bar"}}, {"type": "node", "id": 5892457584, "lat": -33.8890649, "lon": 151.2711212, "tags": {"amenity": "bar", "name": "Rosenbaum & Fuller", "survey:date": "2021-12-19"}}, {"type": "node", "id": 5893163785, "lat": -33.8821841, "lon": 151.209976, "tags": {"amenity": "bar", "name": "Sydney Brewery Surry Hills"}}, {"type": "node", "id": 5905743868, "lat": -33.8640536, "lon": 151.2118952, "tags": {"amenity": "bar", "name": "Bar Luca"}}, {"type": "node", "id": 5996637985, "lat": -33.8797354, "lon": 151.2155024, "tags": {"amenity": "bar", "name": "Ching-a-Lings"}}, {"type": "node", "id": 6009432985, "lat": -33.8686811, "lon": 151.2102778, "tags": {"amenity": "bar", "name": "Momo"}}, {"type": "node", "id": 6048331476, "lat": -33.8683758, "lon": 151.2099704, "tags": {"amenity": "bar", "name": "Verandah"}}, {"type": "node", "id": 6075296894, "lat": -33.8680715, "lon": 151.2107904, "tags": {"amenity": "bar", "name": "Barrio Cellar", "opening_hours": "Mo 12:00-22:30; Tu, We 12:00-23:00; Th 12:00-00:00; Fr 12:00-03:00; Sa 18:00-03:00"}}, {"type": "node", "id": 6076073744, "lat": -33.862657, "lon": 151.2205464}, {"type": "node", "id": 6076073745, "lat": -33.8626964, "lon": 151.220572}, {"type": "node", "id": 6076073746, "lat": -33.8627213, "lon": 151.2205168}, {"type": "node", "id": 6077594785, "lat": -33.868009, "lon": 151.2092428, "tags": {"amenity": "bar", "name": "Amber Bar"}}, {"type": "node", "id": 6139562464, "lat": -33.7998048, "lon": 151.2846851}, {"type": "node", "id": 6139562465, "lat": -33.7999375, "lon": 151.2851167}, {"type": "node", "id": 6139562466, "lat": -33.799982, "lon": 151.2850969}, {"type": "node", "id": 6139562467, "lat": -33.799995, "lon": 151.2851392}, {"type": "node", "id": 6139562468, "lat": -33.800228, "lon": 151.2850355}, {"type": "node", "id": 6139562469, "lat": -33.8000863, "lon": 151.2845748}, {"type": "node", "id": 6139562470, "lat": -33.7999031, "lon": 151.2846563}, {"type": "node", "id": 6139562471, "lat": -33.7998991, "lon": 151.2846431}, {"type": "node", "id": 6172511741, "lat": -33.9232635, "lon": 151.187511, "tags": {"amenity": "bar", "name": "Platform 62"}}, {"type": "node", "id": 6185388985, "lat": -33.8693675, "lon": 151.2050857, "tags": {"amenity": "bar", "name": "Old Mates Place"}}, {"type": "node", "id": 6185388991, "lat": -33.8698605, "lon": 151.2049055, "tags": {"amenity": "bar", "name": "Papa Gedes Cocktail Bar"}}, {"type": "node", "id": 6203169388, "lat": -33.8626819, "lon": 151.2204911}, {"type": "node", "id": 6250776659, "lat": -33.8825943, "lon": 151.2066088, "tags": {"amenity": "bar", "name": "Eternity Bar & Grill", "phone": "+61 459 325 482"}}, {"type": "node", "id": 6261169201, "lat": -33.8653107, "lon": 151.2018811, "tags": {"amenity": "bar", "name": "Corso Brio", "opening_hours": "Mo-Sa 07:00-23:00; Sa 08:00-12:00"}}, {"type": "node", "id": 6269418385, "lat": -33.8807991, "lon": 151.2153556, "tags": {"addr:housenumber": "182", "addr:street": "Campbell Street", "amenity": "bar", "lgbtq": "primary", "name": "Surly's American Tavern", "website": "https://www.surlys.com.au/"}}, {"type": "node", "id": 6287371356, "lat": -33.8641838, "lon": 151.2024651, "tags": {"amenity": "bar", "name": "Shirt Bar"}}, {"type": "node", "id": 6387154128, "lat": -33.8660287, "lon": 151.2020516, "tags": {"amenity": "bar", "name": "Vessel Bar", "website": "https://vesselsydney.com.au/"}}, {"type": "node", "id": 6390517385, "lat": -33.8661792, "lon": 151.2089983, "tags": {"addr:housenumber": "B2/70", "addr:postcode": "2000", "amenity": "bar", "name": "door knock", "website": "https://www.doorknock.com.au/"}}, {"type": "node", "id": 6442329171, "lat": -33.8668565, "lon": 151.2083386, "tags": {"addr:housenumber": "125", "addr:postcode": "2000", "addr:state": "NSW", "addr:street": "Pitt Street", "addr:suburb": "Sydney", "amenity": "bar", "min_age": "18", "name": "Angel Hotel", "opening_hours": "Mo-Sa 08:00-02:00", "opening_hours:covid19": "Mo-Fr 08:00-00:00"}}, {"type": "node", "id": 6460914871, "lat": -33.8666405, "lon": 151.2039784, "tags": {"amenity": "bar", "name": "Bandit's Roost"}}, {"type": "node", "id": 6474184897, "lat": -33.8638747, "lon": 151.2025328, "tags": {"amenity": "bar", "name": "Sushi Hon Izakaya", "outdoor_seating": "yes"}}, {"type": "node", "id": 6477384269, "lat": -33.8661954, "lon": 151.2054189, "tags": {"amenity": "bar", "description": "Pizza and Drinks", "name": "Next Door", "website": "https://www.nextdoorcbd.com.au/"}}, {"type": "node", "id": 6498942200, "lat": -33.8623931, "lon": 151.2032769, "tags": {"amenity": "bar", "name": "Solera Bar"}}, {"type": "node", "id": 6499096473, "lat": -33.9361431, "lon": 151.1677096, "tags": {"access": "private", "amenity": "bar", "brand": "Qantas", "name": "Qantas Business Lounge", "operator": "Qantas"}}, {"type": "node", "id": 6512253686, "lat": -33.9164391, "lon": 151.1920058, "tags": {"amenity": "bar", "name": "Rocks Brewing Co."}}, {"type": "node", "id": 6585202821, "lat": -33.9342449, "lon": 151.1777057, "tags": {"air_conditioning": "yes", "amenity": "bar", "indoor_seating": "yes", "level": "1", "name": "Fat Yak", "opening_hours:signed": "no", "outdoor_seating": "no", "payment:credit_cards": "yes", "payment:debit_cards": "yes", "smoking": "no", "wheelchair": "yes"}}, {"type": "node", "id": 6669730485, "lat": -33.8747385, "lon": 151.2157992, "tags": {"amenity": "bar", "name": "Love Tilly Devine"}}, {"type": "node", "id": 6888264585, "lat": -33.8627091, "lon": 151.0882376, "tags": {"amenity": "bar", "name": "Cookies Lounge Bar"}}, {"type": "node", "id": 6943927087, "lat": -33.8906676, "lon": 151.2128181, "tags": {"amenity": "bar", "name": "4 Pines Brewing"}}, {"type": "node", "id": 6957602992, "lat": -33.7971193, "lon": 151.2868871, "tags": {"amenity": "bar", "name": "Insitu"}}, {"type": "node", "id": 6957602993, "lat": -33.7974184, "lon": 151.2860701, "tags": {"amenity": "bar", "name": "Donny's"}}, {"type": "node", "id": 6961582088, "lat": -33.8619888, "lon": 151.2103766, "tags": {"amenity": "bar", "name": "Paragon Hotel"}}, {"type": "node", "id": 6984161886, "lat": -33.8768817, "lon": 151.2070051, "tags": {"amenity": "bar", "check_date": "2022-07-25", "cuisine": "german", "level": "1", "name": "The Bavarian", "theme": "german"}}, {"type": "node", "id": 7024426986, "lat": -33.9121686, "lon": 151.1887866, "tags": {"addr:street": "Burrows Road", "amenity": "bar", "diet:vegan": "yes", "name": "Yulli's Brews brewery"}}, {"type": "node", "id": 7043521286, "lat": -33.8697588, "lon": 151.2052239, "tags": {"amenity": "bar", "name": "RedOak"}}, {"type": "node", "id": 7048946585, "lat": -33.8935863, "lon": 151.183149, "tags": {"amenity": "bar", "name": "Corridor"}}, {"type": "node", "id": 7140658886, "lat": -33.898255, "lon": 151.1745814, "tags": {"amenity": "bar", "name": "Young Henry's Brewery"}}, {"type": "node", "id": 7252098788, "lat": -33.9171339, "lon": 151.2027963, "tags": {"amenity": "bar", "name": "Archie Rose distilling co."}}, {"type": "node", "id": 7637531005, "lat": -33.9118039, "lon": 151.1586614, "tags": {"amenity": "bar"}}, {"type": "node", "id": 7701378365, "lat": -33.8889384, "lon": 151.2706661, "tags": {"amenity": "bar", "name": "Copo", "survey:date": "2021-12-19"}}, {"type": "node", "id": 7732728718, "lat": -33.8756222, "lon": 151.1841159, "tags": {"amenity": "bar", "contact:facebook": "https://www.facebook.com/TimbahWineBar/", "level": "-1", "name": "Timbah Wine Bar"}}, {"type": "node", "id": 7746605730, "lat": -33.8925834, "lon": 151.1868883, "tags": {"amenity": "bar", "changing_table": "no", "name": "1989 Arcade Bar", "opening_hours": "Th-Fr 17:00-24:00; Sa 13:00-01:00; Su 17:00-22:00", "smoking": "no", "toilets:access": "customers", "wheelchair": "limited"}}, {"type": "node", "id": 7937140298, "lat": -33.7731342, "lon": 151.1135392, "tags": {"amenity": "bar", "name": "Ubar", "opening_hours": "Mo-Fr 09:30-18:00"}}, {"type": "node", "id": 7994030552, "lat": -33.7789859, "lon": 151.2856149, "tags": {"amenity": "bar", "level": "1", "name": "Stowaway Bar", "website": "stowawaybar.com.au"}}, {"type": "node", "id": 8023597686, "lat": -33.8584642, "lon": 151.2029825, "tags": {"amenity": "bar", "check_date": "2022-07-25", "level": "0", "name": "Argyle Bar", "opening_hours:covid19": "closed"}}, {"type": "node", "id": 8042700697, "lat": -33.8800407, "lon": 151.2147741}, {"type": "node", "id": 8111240774, "lat": -33.8136114, "lon": 151.0052619, "tags": {"amenity": "bar", "name": "TOUKA Japanese Yakiniku Restaurant and Bar", "name:ja": "\u6771\u5bb6\u713c\u8089\u6d77\u9bae\u9152\u5834"}}, {"type": "node", "id": 8456132520, "lat": -33.8651168, "lon": 151.2080796, "tags": {"addr:housenumber": "264-278", "addr:street": "George Street", "amenity": "bar", "name": "Ryan's Bar", "website": "https://www.ryansbar.com.au"}}, {"type": "node", "id": 8456142517, "lat": -33.798085, "lon": 151.2883996, "tags": {"amenity": "bar", "name": "The Blind Barrel"}}, {"type": "node", "id": 8505686303, "lat": -33.8799089, "lon": 151.2096313, "tags": {"addr:housenumber": "70-72", "addr:postcode": "2010", "addr:state": "NSW", "addr:street": "Campbell Street", "addr:suburb": "Surry Hills", "amenity": "bar", "description": "Soultrap bar is renown for its endless possibilities of classic cocktails! Whether your thirst is craving a \u2018Martini\u2019, \u2018Negroni\u2019 or perhaps a traditional \u2018Old Fashioned\u2019, our classic cocktails are anywhere from a few years to decades old.", "image": "https://soultrap.com.au/wp-content/uploads/2020/08/st-logo.png", "min_age": "18", "name": "Soultrap", "name:en": "Soultrap", "opening_hours": "Th-Sa 16:00-24:00", "phone": "+61 452 275 707", "website": "https://soultrap.com.au/"}}, {"type": "node", "id": 8597096432, "lat": -33.8596545, "lon": 151.2085723, "tags": {"amenity": "bar", "name": "Philips Foot"}}, {"type": "node", "id": 8699896534, "lat": -33.8123429, "lon": 151.0049007, "tags": {"amenity": "bar", "name": "BAR 30 & Bistro"}}, {"type": "node", "id": 8699896584, "lat": -33.8153118, "lon": 151.0011815, "tags": {"amenity": "bar", "name": "Nick & Nora's Parramatta"}}, {"type": "node", "id": 9180089743, "lat": -33.8968564, "lon": 151.1991994, "tags": {"amenity": "bar", "name": "Redfern Surf Club"}}, {"type": "node", "id": 9322952330, "lat": -33.9191741, "lon": 151.0304172, "tags": {"addr:housenumber": "41", "addr:postcode": "2200", "addr:state": "NSW", "addr:street": "Northham Avenue", "addr:suburb": "Bankstown", "amenity": "bar", "name": "The Bar", "phone": "+61297900176", "website": "https://www.bankstownsportsbowls.com/the-bar"}}, {"type": "node", "id": 9442108217, "lat": -33.8587885, "lon": 151.2088237, "tags": {"amenity": "bar", "name": "Doss House Whiskey Bar"}}, {"type": "node", "id": 9465706817, "lat": -33.8702686, "lon": 151.205053, "tags": {"amenity": "bar", "check_date": "2023-03-18", "cocktails": "yes", "food": "no", "indoor_seating": "yes", "name": "Cantina OK!", "outdoor_seating": "no", "payment:credit_cards": "yes", "payment:debit_cards": "yes", "reservation": "no", "survey:date": "2022-02-01", "website": "https://www.okokok.com.au/"}}, {"type": "node", "id": 9480981817, "lat": -33.8808128, "lon": 151.2033137, "tags": {"amenity": "bar", "name": "Bancho", "survey:date": "2022-02-05", "website": "https://www.banchobar.com.au/"}}, {"type": "node", "id": 9503865446, "lat": -33.8613301, "lon": 151.2123617, "tags": {"amenity": "bar", "name": "Cafe Gigi"}}, {"type": "node", "id": 9549346054, "lat": -33.8848028, "lon": 151.2015056, "tags": {"amenity": "bar", "name": "Old Clare Hotel Rooftop Bar", "outdoor_seating": "yes", "phone": "+61 2 8277 8277", "website": "https://www.theoldclarehotel.com.au/rooftop"}}, {"type": "node", "id": 9574133065, "lat": -33.9363972, "lon": 151.1791751, "tags": {"amenity": "bar", "check_date": "2022-07-19", "check_date:opening_hours": "2022-10-31", "indoor_seating": "yes", "level": "1", "name": "Coopers Alehouse", "opening_hours:signed": "no", "outdoor_seating": "no", "smoking": "no"}}, {"type": "node", "id": 9574195645, "lat": -33.9343591, "lon": 151.1774864, "tags": {"air_conditioning": "yes", "amenity": "bar", "indoor_seating": "yes", "level": "1", "name": "Wine Selectors", "opening_hours:signed": "no", "outdoor_seating": "no", "payment:credit_cards": "yes", "payment:debit_cards": "yes", "smoking": "no", "wheelchair": "yes"}}, {"type": "node", "id": 9886729727, "lat": -33.8789169, "lon": 151.2145189, "tags": {"amenity": "bar", "lgbtq": "primary", "name": "Universal"}}, {"type": "node", "id": 9886729729, "lat": -33.8771154, "lon": 151.2129476, "tags": {"addr:housenumber": "2-4", "addr:street": "Oxford Street", "amenity": "bar", "lgbtq": "primary", "name": "Burdekin"}}, {"type": "node", "id": 9889606712, "lat": -33.8941591, "lon": 151.1997126, "tags": {"amenity": "bar", "name": "Scarlet Weasel"}}, {"type": "node", "id": 9892778762, "lat": -33.8695468, "lon": 151.2086788, "tags": {"amenity": "bar", "check_date": "2022-07-17", "name": "Babylon"}}, {"type": "node", "id": 9917014549, "lat": -33.9105133, "lon": 151.1971921, "tags": {"addr:housenumber": "Unit 5 29-31", "addr:street": "O\u2019Riordan Street", "amenity": "bar", "name": "The Beer Bar", "opening_hours": "Tu-Sa 12:00-22:00; Mo, Su 12:00-20:00", "website": "https://thebeerbar.com.au/"}}, {"type": "node", "id": 9989051797, "lat": -33.9395646, "lon": 151.1659306, "tags": {"amenity": "bar", "description": "Near Gates 50-63", "name": "AMEX Lounge", "opening_hours": "Mo-Su 06:00-22:00"}}, {"type": "node", "id": 10057290840, "lat": -33.8672576, "lon": 151.2052563, "tags": {"amenity": "bar", "cuisine": "japanese;ramen;sake", "description": "Ramen and Sake bar", "name": "O'Uchi", "opening_hours": "Tu-Fr 11:30-14:30, 17:00-20:30; Sa 17:00-20:30", "outdoor_seating": "no", "takeaway": "yes"}}, {"type": "node", "id": 10093768537, "lat": -33.9120001, "lon": 151.1600146}, {"type": "node", "id": 10093768538, "lat": -33.9120717, "lon": 151.1601741}, {"type": "node", "id": 10093768539, "lat": -33.9120979, "lon": 151.1601479}, {"type": "node", "id": 10093768540, "lat": -33.9121125, "lon": 151.1601214}, {"type": "node", "id": 10093768541, "lat": -33.9121338, "lon": 151.1600422}, {"type": "node", "id": 10093768542, "lat": -33.9121321, "lon": 151.1599927}, {"type": "node", "id": 10093768543, "lat": -33.9121119, "lon": 151.1599284}, {"type": "node", "id": 10093768544, "lat": -33.912125, "lon": 151.1600886}, {"type": "node", "id": 10093779955, "lat": -33.9107366, "lon": 151.1562662}, {"type": "node", "id": 10093790647, "lat": -33.9120121, "lon": 151.1600414}, {"type": "node", "id": 10096983502, "lat": -33.8794845, "lon": 151.2157521, "tags": {"amenity": "bar", "name": "Big Poppa's", "opening_hours": "Mo-Su 17:00-03:00"}}, {"type": "node", "id": 10099489012, "lat": -33.9098194, "lon": 151.1550855}, {"type": "node", "id": 10099489013, "lat": -33.9098412, "lon": 151.1551333}, {"type": "node", "id": 10099489014, "lat": -33.9097676, "lon": 151.1551972}, {"type": "node", "id": 10099489015, "lat": -33.9096571, "lon": 151.1552889}, {"type": "node", "id": 10099489016, "lat": -33.9096345, "lon": 151.1552526}, {"type": "node", "id": 10099505817, "lat": -33.9097459, "lon": 151.155152}, {"type": "node", "id": 10099505818, "lat": -33.9097162, "lon": 151.1552399}, {"type": "node", "id": 10117658880, "lat": -33.870446, "lon": 151.2056743, "tags": {"amenity": "bar", "name": "Southern Grill Bar"}}, {"type": "node", "id": 10117675773, "lat": -33.8685682, "lon": 151.2061399, "tags": {"amenity": "bar", "name": "The Charles"}}, {"type": "node", "id": 10125996450, "lat": -33.8742236, "lon": 151.2145695, "tags": {"amenity": "bar", "name": "Slim's Rooftop Bar"}}, {"type": "node", "id": 10131610764, "lat": -33.8897482, "lon": 151.190651, "tags": {"amenity": "bar", "name": "Hermann's Bar"}}, {"type": "node", "id": 10172439747, "lat": -33.9061128, "lon": 151.2033683, "tags": {"amenity": "bar", "level": "0", "name": "f(x)", "opening_hours": "We-Fri 07:00-15:00;Sa-Su 08:00-15:00;Th-Su 17:00-00:00", "outdoor_seating": "yes", "phone": "+61290376588"}}, {"type": "node", "id": 10202697558, "lat": -33.8871743, "lon": 151.1989248, "tags": {"addr:housenumber": "86", "addr:street": "Abercrombie Street", "amenity": "bar", "check_date": "2022-11-20", "name": "Sneakyposs"}}, {"type": "node", "id": 10241615660, "lat": -33.8137683, "lon": 151.0068429}, {"type": "node", "id": 10241615661, "lat": -33.8137494, "lon": 151.0067227}, {"type": "node", "id": 10241615662, "lat": -33.8137547, "lon": 151.006721}, {"type": "node", "id": 10241615663, "lat": -33.8137703, "lon": 151.0067905}, {"type": "node", "id": 10255057309, "lat": -33.8917753, "lon": 151.2136427, "tags": {"addr:housenumber": "421", "addr:postcode": "2010", "addr:street": "Cleveland Street", "amenity": "bar", "cuisine": "italian;italian_pizza", "name": "Vasco", "opening_hours": "Tu-Fr 17:00-12:00; Sa-Su 12:00-00:00", "phone": "+61 433 841 195", "website": "https://www.vascojoint.com/"}}, {"type": "node", "id": 10277193409, "lat": -33.8263388, "lon": 151.2009865, "tags": {"addr:postcode": "2065", "amenity": "bar", "contact:facebook": "thestonedcrow", "contact:instagram": "stonedcrowsydney", "name": "The Stoned Crow", "opening_hours": "Mo-Su 00:00-23:59", "website": "https://www.stonedcrow.com.au"}}, {"type": "node", "id": 10290585140, "lat": -33.8844002, "lon": 151.2143042, "tags": {"amenity": "bar", "drink:gin": "yes", "name": "Four Pillars Gin Laboratory", "website": "https://www.fourpillarsgin.com/drinks-lab/"}}, {"type": "node", "id": 10290585142, "lat": -33.8809805, "lon": 151.214966, "tags": {"amenity": "bar", "cuisine": "jamaican", "food": "yes", "name": "Rosie Campbell's"}}, {"type": "node", "id": 10290585144, "lat": -33.8753104, "lon": 151.2067169, "tags": {"amenity": "bar", "name": "Star Bar"}}, {"type": "node", "id": 10290612751, "lat": -33.8845959, "lon": 151.1949685, "tags": {"amenity": "bar", "name": "The Two Wolves", "source": "LPI NSW Base Map;LPI NSW Imagery;local knowledge", "wheelchair": "no"}}, {"type": "node", "id": 10290612760, "lat": -33.8776353, "lon": 151.2435544, "tags": {"amenity": "bar", "name": "The Golden Sheaf", "outdoor_seating": "yes", "website": "https://thegoldensheaf.com.au"}}, {"type": "node", "id": 10290612765, "lat": -33.8985601, "lon": 151.1766795, "tags": {"amenity": "bar", "changing_table": "no", "name": "The Midnight Special", "outdoor_seating": "no", "toilets": "yes", "toilets:access": "customers", "website": "https://www.themidnightspecial.com.au/", "wheelchair": "yes"}}, {"type": "node", "id": 10294309325, "lat": -33.869112, "lon": 151.2254766, "tags": {"amenity": "bar", "name": "Bar Sopra"}}, {"type": "node", "id": 10316177663, "lat": -33.8917551, "lon": 151.2008317, "tags": {"amenity": "bar", "name": "Moyas Juniper Lounge"}}, {"type": "node", "id": 10575475744, "lat": -33.8679075, "lon": 151.2168802, "tags": {"amenity": "bar", "name": "Terrace Bar", "outdoor_seating": "yes", "website": "https://www.terraceonthedomain.com.au/bar-menu/"}}, {"type": "node", "id": 10636131070, "lat": -33.8821849, "lon": 151.2062545, "tags": {"amenity": "bar", "name": "City Ultra"}}, {"type": "node", "id": 10636147335, "lat": -33.8826595, "lon": 151.2071249, "tags": {"amenity": "bar", "name": "Shades bar and Culture Club"}}, {"type": "node", "id": 10648006085, "lat": -33.8827398, "lon": 151.2073056, "tags": {"amenity": "bar", "name": "Shades", "opening_hours": "We-Sa 17:00-00:00", "website": "https://shadesbar.com.au/"}}, {"type": "node", "id": 10672024889, "lat": -33.8651803, "lon": 151.2066571, "tags": {"amenity": "bar", "name": "Menzies Bar", "outdoor_seating": "yes"}}, {"type": "node", "id": 10679626461, "lat": -33.8830149, "lon": 151.2113013, "tags": {"amenity": "bar", "name": "Bar Copains"}}, {"type": "node", "id": 10740494606, "lat": -33.8783728, "lon": 151.2212524, "tags": {"amenity": "bar", "name": "Fortuna"}}, {"type": "node", "id": 10740562205, "lat": -33.8862824, "lon": 151.2136608, "tags": {"amenity": "bar", "name": "Cuckoo Callay"}}, {"type": "node", "id": 10740588805, "lat": -33.882887, "lon": 151.2075659, "tags": {"amenity": "bar", "name": "Bear\u2019s"}}, {"type": "node", "id": 10740658805, "lat": -33.8579515, "lon": 151.2022573, "tags": {"amenity": "bar", "name": "Hotel Bar"}}, {"type": "node", "id": 10774441289, "lat": -33.8625735, "lon": 151.2080444, "tags": {"amenity": "bar", "name": "Alleyway", "outdoor_seating": "yes"}}, {"type": "node", "id": 10813115206, "lat": -33.86835, "lon": 151.2056398, "tags": {"amenity": "bar", "name": "Jolene's"}}, {"type": "way", "id": 117759134, "nodes": [1326017131, 5357599152, 5357599153, 1326017183, 5357599155, 1326017161, 1326017118, 1326017131], "tags": {"amenity": "bar", "building": "yes", "name": "The Deck", "source": "Bing Imagery"}}, {"type": "way", "id": 245282310, "nodes": [2525071482, 5417951775, 2525071481, 10241615661, 10241615662, 10241615663, 10241615660, 5417951774, 5417951773, 2525071486, 2525071488, 5417951772, 5417951771, 2525071487, 2525071482], "tags": {"amenity": "bar", "building": "yes", "building:levels": "2", "name": "Collector Hotel"}}, {"type": "way", "id": 256781063, "nodes": [2624034912, 8042700697, 2624138285, 2624138286, 5742388167, 2624138287, 2624034912], "tags": {"addr:housenumber": "277", "addr:postcode": "2010", "addr:state": "NSW", "addr:street": "Goulburn Street", "addr:suburb": "Surry Hills", "amenity": "bar", "building": "yes", "name": "The Cafe Lounge", "opening_hours": "Mo-Tu 17:00-24:00, Fr-Sa 16:00-24:00, Su 16:00-24:00", "website": "http://www.cafelounge.com.au"}}, {"type": "way", "id": 431517981, "nodes": [4307264002, 4307263999, 4307264000, 4307264003, 4307264002], "tags": {"amenity": "bar", "name": "Stave's Brewery"}}, {"type": "way", "id": 474350616, "nodes": [4683268697, 4683268698, 4683268699, 4683268700, 4683268697], "tags": {"amenity": "bar", "building": "barn", "name": "Camelot Lounge"}}, {"type": "way", "id": 474350617, "nodes": [4683268701, 4683268702, 4683268703, 4683268704, 4683268705, 4683268706, 4683268707, 4683268708, 4683268709, 4683268710, 4683268701], "tags": {"amenity": "bar", "building": "retail", "name": "Gasoline Pony", "outdoor_seating": "yes", "smoking": "outside"}}, {"type": "way", "id": 474350619, "nodes": [4683268711, 4683268712, 4683268713, 10093779955, 4683268716, 4683268711], "tags": {"amenity": "bar", "building": "yes", "name": "Lazy Bones", "outdoor_seating": "no", "smoking": "outside"}}, {"type": "way", "id": 549060502, "nodes": [5303957107, 5303957108, 5303957109, 5303957110, 5303957112, 5303957107], "tags": {"addr:city": "Summer Hill", "addr:housenumber": "122", "addr:postcode": "2130", "addr:province": "NSW", "addr:street": "Smith Street", "amenity": "bar", "building": "yes", "name": "The Temperance Project"}}, {"type": "way", "id": 549060504, "nodes": [5303957116, 5303957111, 5303957117, 5303957118, 5303957119, 5303957120, 5303957921, 5303957116], "tags": {"addr:city": "Summer Hill", "addr:housenumber": "126", "addr:postcode": "2130", "addr:province": "NSW", "addr:street": "Smith Street", "amenity": "bar", "building": "yes", "check_date": "2023-03-11", "indoor_seating": "yes", "name": "The Rio Wine Bar", "outdoor_seating": "yes", "toilets:wheelchair": "yes", "website": "https://www.theriosummerhill.com/"}}, {"type": "way", "id": 646822668, "nodes": [6203169388, 6076073744, 6076073745, 6076073746, 6203169388], "tags": {"amenity": "bar", "building": "container", "building:levels": "1", "building:use": "retail", "name": "Busbys Bar", "name:de": "Busbys Container Bar", "name:en": "Busbys Container Bar", "roof:shape": "flat"}}, {"type": "way", "id": 655265190, "nodes": [6139562464, 6139562465, 6139562466, 6139562467, 6139562468, 6139562469, 6139562470, 6139562471, 6139562464], "tags": {"amenity": "bar", "building": "yes", "building:levels": "2", "name": "El Camino cantina Manly"}}, {"type": "way", "id": 1103042838, "nodes": [10093768537, 10093790647, 10093768538, 10093768539, 10093768540, 10093768544, 10093768541, 10093768542, 10093768543, 10093768537], "tags": {"amenity": "bar", "building": "yes", "name": "12 Taps"}}, {"type": "way", "id": 1103684080, "nodes": [10099489012, 10099489013, 10099489014, 10099505818, 10099489015, 10099489016, 10099505817, 10099489012], "tags": {"amenity": "bar", "building": "yes", "name": "Miss Wolf"}}]}