{"version": 0.6, "generator": "Overpass API 0.7.60 f4c14d41", "osm3s": {"timestamp_osm_base": "2023-05-02T21:15:23Z", "copyright": "The data included in this document is from www.openstreetmap.org. The data is made available under ODbL."}, "elements": [{"type": "node", "id": 248743045, "lat": 41.8316917, "lon": 12.4669184, "tags": {"amenity": "atm", "opening_hours": "24/7", "operator": "Poste Italiane"}}, {"type": "node", "id": 259216293, "lat": 41.9289137, "lon": 12.5164966, "tags": {"amenity": "atm", "created_by": "Potlatch 0.8a"}}, {"type": "node", "id": 290070468, "lat": 41.7770786, "lon": 12.3410602, "tags": {"amenity": "atm", "operator": "Postamat"}}, {"type": "node", "id": 334082849, "lat": 41.9259684, "lon": 12.5168539, "tags": {"amenity": "atm", "odbl": "clean"}}, {"type": "node", "id": 465627962, "lat": 41.8898049, "lon": 12.4954479, "tags": {"amenity": "atm", "brand": "Monte dei Paschi di Siena", "brand:wikidata": "Q46730", "brand:wikipedia": "en:Banca Monte dei Paschi di Siena", "name": "Monte dei Paschi di Siena", "operator": "Monte dei Paschi di Siena", "operator:wikidata": "Q46730", "operator:wikipedia": "en:Banca Monte dei Paschi di Siena"}}, {"type": "node", "id": 635396700, "lat": 41.795641, "lon": 12.251826, "tags": {"amenity": "atm", "created_by": "iLOE 1.8"}}, {"type": "node", "id": 887597216, "lat": 41.7740207, "lon": 12.6716712, "tags": {"amenity": "atm", "currency:EUR": "yes", "operator": "BCC"}}, {"type": "node", "id": 968096988, "lat": 41.809235, "lon": 12.301064, "tags": {"amenity": "atm", "created_by": "iLOE 1.8"}}, {"type": "node", "id": 1005384209, "lat": 41.9047556, "lon": 12.463428, "tags": {"amenity": "atm", "wheelchair": "limited"}}, {"type": "node", "id": 1119375677, "lat": 41.8881214, "lon": 12.4689364, "tags": {"amenity": "atm", "brand": "Postamat", "brand:wikidata": "Q3909447", "brand:wikipedia": "it:Postamat", "name": "Postamat", "operator": "Poste Italiane", "operator:wikidata": "Q495026", "operator:wikipedia": "it:Poste italiane", "ref": "5788"}}, {"type": "node", "id": 1152505213, "lat": 41.8872652, "lon": 12.5203539, "tags": {"amenity": "atm", "operator": "Unicredit"}}, {"type": "node", "id": 1270745444, "lat": 41.8764397, "lon": 12.5203466, "tags": {"addr:city": "Roma", "addr:housenumber": "43", "addr:postcode": "00181", "addr:street": "Piazza dell'Alberone", "amenity": "atm", "check_date": "2021-08-12", "name": "Intesa San Paolo"}}, {"type": "node", "id": 1271631082, "lat": 41.8769862, "lon": 12.5206007, "tags": {"amenity": "atm", "name": "Monte dei Paschi di Siena"}}, {"type": "node", "id": 1288809859, "lat": 41.8739061, "lon": 12.6292594, "tags": {"amenity": "atm", "wheelchair": "yes"}}, {"type": "node", "id": 1308364700, "lat": 41.8750111, "lon": 12.5229747, "tags": {"addr:city": "Roma", "addr:country": "IT", "addr:housenumber": "375", "addr:postcode": "00181", "addr:street": "Via Appia Nuova", "amenity": "atm"}}, {"type": "node", "id": 1313263394, "lat": 41.8169942, "lon": 12.4895997, "tags": {"amenity": "atm"}}, {"type": "node", "id": 1349265258, "lat": 41.8405764, "lon": 12.6213991, "tags": {"amenity": "atm", "operator": "BNL - BNP Paribas"}}, {"type": "node", "id": 1359078144, "lat": 41.8860538, "lon": 12.521543, "tags": {"amenity": "atm"}}, {"type": "node", "id": 1507319107, "lat": 41.9106614, "lon": 12.6531943, "tags": {"amenity": "atm", "brand": "BCC Roma", "brand:wikidata": "Q25060394", "brand:wikipedia": "en:Banca di Credito Cooperativo di Roma", "name": "BCC Roma", "official_name": "Banca di Credito Cooperativo di Roma", "operator": "BCC Roma", "operator:wikidata": "Q25060394", "operator:wikipedia": "en:Banca di Credito Cooperativo di Roma", "source": "survey"}}, {"type": "node", "id": 1507331780, "lat": 41.9111095, "lon": 12.6528522, "tags": {"amenity": "atm", "check_date": "2022-05-22"}}, {"type": "node", "id": 1507344613, "lat": 41.913172, "lon": 12.6614569, "tags": {"amenity": "atm", "note": "posizione approssimativa"}}, {"type": "node", "id": 1511867892, "lat": 41.9204052, "lon": 12.4422334, "tags": {"amenity": "atm", "brand": "Monte dei Paschi di Siena", "brand:wikidata": "Q46730", "name": "Monte dei Paschi di Siena", "operator": "Monte dei Paschi di Siena", "operator:wikidata": "Q46730"}}, {"type": "node", "id": 1519508828, "lat": 41.8454612, "lon": 12.4866997, "tags": {"amenity": "atm", "check_date": "2020-12-29", "operator": "Poste Italiane"}}, {"type": "node", "id": 1534324871, "lat": 41.8961616, "lon": 12.4832698, "tags": {"amenity": "atm", "operator": "Cassa di Risparmio di Ferrara"}}, {"type": "node", "id": 1546320716, "lat": 41.8941356, "lon": 12.4763057, "tags": {"amenity": "atm", "brand": "Postamat", "brand:wikidata": "Q3909447", "brand:wikipedia": "it:Postamat", "check_date": "2021-09-06", "name": "Postamat", "operator": "Poste Italiane", "operator:wikidata": "Q495026", "operator:wikipedia": "it:Poste italiane"}}, {"type": "node", "id": 1547599734, "lat": 41.8946229, "lon": 12.5022614, "tags": {"amenity": "atm", "brand": "UniCredit Bank", "brand:wikidata": "Q45568", "brand:wikipedia": "en:UniCredit", "name": "UniCredit Bank", "operator": "UniCredit Bank", "operator:wikidata": "Q45568", "operator:wikipedia": "en:UniCredit"}}, {"type": "node", "id": 1561397563, "lat": 41.8565964, "lon": 12.4723036, "tags": {"amenity": "atm", "operator": "Poste Italiane"}}, {"type": "node", "id": 1572507027, "lat": 42.036283, "lon": 12.3093035, "tags": {"amenity": "atm", "brand": "Postamat", "brand:wikidata": "Q3909447", "name": "Postamat", "operator": "Poste Italiane", "operator:wikidata": "Q495026"}}, {"type": "node", "id": 1591545076, "lat": 41.8555326, "lon": 12.4502023, "tags": {"amenity": "atm", "operator": "BPM"}}, {"type": "node", "id": 1600550370, "lat": 41.8695419, "lon": 12.5301972, "tags": {"amenity": "atm", "wheelchair": "no"}}, {"type": "node", "id": 1654303556, "lat": 41.8622751, "lon": 12.4672998, "tags": {"amenity": "atm"}}, {"type": "node", "id": 1654328995, "lat": 41.8624789, "lon": 12.467214, "tags": {"amenity": "atm"}}, {"type": "node", "id": 1660412603, "lat": 41.8939638, "lon": 12.4900911, "tags": {"amenity": "atm", "brand": "Postamat", "brand:wikidata": "Q3909447", "brand:wikipedia": "it:Postamat", "name": "Postamat", "operator": "Poste Italiane", "operator:wikidata": "Q495026", "operator:wikipedia": "it:Poste italiane"}}, {"type": "node", "id": 1661285311, "lat": 41.9029324, "lon": 12.4810228, "tags": {"amenity": "atm", "brand": "Postamat", "brand:wikidata": "Q3909447", "brand:wikipedia": "it:Postamat", "name": "Postamat", "operator": "Poste Italiane", "operator:wikidata": "Q495026", "operator:wikipedia": "it:Poste italiane", "wheelchair": "yes"}}, {"type": "node", "id": 1694629046, "lat": 41.778714, "lon": 12.5416974, "tags": {"amenity": "atm"}}, {"type": "node", "id": 1694664148, "lat": 41.8214458, "lon": 12.5186465, "tags": {"amenity": "atm"}}, {"type": "node", "id": 1694664155, "lat": 41.8214817, "lon": 12.5184547, "tags": {"amenity": "atm"}}, {"type": "node", "id": 1712119370, "lat": 41.8870443, "lon": 12.5035357, "tags": {"amenity": "atm", "opening_hours": "24/7"}}, {"type": "node", "id": 1719366094, "lat": 41.9392159, "lon": 12.4348059, "tags": {"amenity": "atm"}}, {"type": "node", "id": 1754675434, "lat": 41.9430817, "lon": 12.6494923, "tags": {"amenity": "atm"}}, {"type": "node", "id": 1754675455, "lat": 41.9416124, "lon": 12.6474552, "tags": {"amenity": "atm"}}, {"type": "node", "id": 1759881704, "lat": 41.8897479, "lon": 12.5224537, "tags": {"amenity": "atm"}}, {"type": "node", "id": 1759881710, "lat": 41.8908544, "lon": 12.5267351, "tags": {"amenity": "atm"}}, {"type": "node", "id": 1772632275, "lat": 41.9659303, "lon": 12.5138405, "tags": {"addr:city": "Roma", "addr:housenumber": "100", "addr:postcode": "00139", "addr:street": "Piazza Fernando de Lucia", "amenity": "atm", "brand": "Postamat", "brand:wikidata": "Q3909447", "brand:wikipedia": "it:Postamat", "name": "Postamat", "operator": "Poste Italiane", "operator:wikidata": "Q495026", "operator:wikipedia": "it:Poste italiane"}}, {"type": "node", "id": 1773058712, "lat": 41.8687404, "lon": 12.4946649, "tags": {"amenity": "atm", "brand": "Postamat", "brand:wikidata": "Q3909447", "name": "Postamat", "operator": "Poste Italiane", "operator:wikidata": "Q495026"}}, {"type": "node", "id": 1786103921, "lat": 41.8787115, "lon": 12.4788966, "tags": {"amenity": "atm", "check_date": "2021-04-06", "operator": "Deutsche Bank S.p.A."}}, {"type": "node", "id": 1798859053, "lat": 41.8732187, "lon": 12.5251614, "tags": {"addr:city": "Roma", "addr:housenumber": "449", "addr:postcode": "00181", "addr:street": "Via Appia Nuova", "amenity": "atm", "operator": "Banca Popolare di Milano"}}, {"type": "node", "id": 1822697229, "lat": 41.8708681, "lon": 12.5303497, "tags": {"amenity": "atm", "brand": "Postamat", "brand:wikidata": "Q3909447", "name": "Postamat", "operator": "Poste Italiane", "operator:wikidata": "Q495026", "wheelchair": "yes"}}, {"type": "node", "id": 1823155814, "lat": 41.9019382, "lon": 12.4799067, "tags": {"amenity": "atm", "brand": "UniCredit Bank", "brand:wikidata": "Q45568", "brand:wikipedia": "en:UniCredit", "name": "UniCredit Bank", "operator": "UniCredit Bank", "operator:wikidata": "Q45568", "operator:wikipedia": "en:UniCredit", "source": "local_knowledge"}}, {"type": "node", "id": 1836204185, "lat": 41.7847543, "lon": 12.4355171, "tags": {"amenity": "atm"}}, {"type": "node", "id": 1839187631, "lat": 41.8982707, "lon": 12.4302443, "tags": {"amenity": "atm"}}, {"type": "node", "id": 1925477296, "lat": 41.9456225, "lon": 12.5606103, "tags": {"addr:city": "Roma", "addr:housenumber": "22", "addr:postcode": "00137", "addr:street": "Via Gaspara Stampa", "amenity": "atm", "operator": "Poste Italiane"}}, {"type": "node", "id": 1925496364, "lat": 41.9461246, "lon": 12.5654779, "tags": {"amenity": "atm"}}, {"type": "node", "id": 1993580444, "lat": 41.8674956, "lon": 12.8264389, "tags": {"amenity": "atm"}}, {"type": "node", "id": 2060762228, "lat": 41.8567935, "lon": 12.4900038, "tags": {"amenity": "atm", "brand": "Postamat", "brand:wikidata": "Q3909447", "operator": "Poste Italiane", "operator:wikidata": "Q495026", "ref": "0160"}}, {"type": "node", "id": 2121520760, "lat": 41.8502573, "lon": 12.4941377, "tags": {"amenity": "atm", "brand": "Intesa Sanpaolo", "brand:wikidata": "Q1343118", "brand:wikipedia": "it:Intesa Sanpaolo", "name": "Intesa Sanpaolo", "operator": "Intesa Sanpaolo", "operator:wikidata": "Q1343118", "operator:wikipedia": "it:Intesa Sanpaolo"}}, {"type": "node", "id": 2125862313, "lat": 41.9041543, "lon": 12.4432248, "tags": {"amenity": "atm"}}, {"type": "node", "id": 2147585879, "lat": 41.9188183, "lon": 12.545958, "tags": {"amenity": "atm", "operator": "Poste Italiane"}}, {"type": "node", "id": 2167576507, "lat": 41.904286, "lon": 12.4443031, "tags": {"amenity": "atm", "name": "Postamat", "operator": "Poste Italiane"}}, {"type": "node", "id": 2192567049, "lat": 41.8735153, "lon": 12.4571727, "tags": {"amenity": "atm", "operator": "Banca Popolare di Milano"}}, {"type": "node", "id": 2218655330, "lat": 41.8509159, "lon": 12.5991194, "tags": {"amenity": "atm", "operator": "Unicredit"}}, {"type": "node", "id": 2270358580, "lat": 41.9467319, "lon": 12.6005714, "tags": {"amenity": "atm", "operator": "CARIM"}}, {"type": "node", "id": 2270359500, "lat": 41.9479675, "lon": 12.6007949, "tags": {"amenity": "atm", "check_date": "2021-08-15", "operator": "Banco di Brescia"}}, {"type": "node", "id": 2310876998, "lat": 41.9097216, "lon": 12.4527155, "tags": {"amenity": "atm"}}, {"type": "node", "id": 2465242597, "lat": 41.9021761, "lon": 12.4597986, "tags": {"amenity": "atm"}}, {"type": "node", "id": 2529105598, "lat": 41.811807, "lon": 12.6813361, "tags": {"amenity": "atm", "check_date": "2022-01-04", "operator": "Poste Italiane"}}, {"type": "node", "id": 2846108335, "lat": 41.737615, "lon": 12.2732608, "tags": {"addr:city": "Roma", "addr:postcode": "00121", "addr:street": "Via Isole del Capo Verde", "amenity": "atm", "name": "Banca Popolare del Lazio", "note": "Banca Popolare del Lazio", "operator": "Banca Popolare del Lazio", "source": "Bing"}}, {"type": "node", "id": 2858622058, "lat": 41.8983091, "lon": 12.4309225, "tags": {"amenity": "atm", "wheelchair": "no"}}, {"type": "node", "id": 2907007698, "lat": 41.8961839, "lon": 12.5626209, "tags": {"amenity": "atm"}}, {"type": "node", "id": 3002847295, "lat": 41.8258063, "lon": 12.4784367, "tags": {"amenity": "atm", "operator": "Poste Italiane"}}, {"type": "node", "id": 3006498296, "lat": 41.9545608, "lon": 12.522647, "tags": {"addr:city": "Roma", "addr:housenumber": "8", "addr:postcode": "00139", "addr:street": "Largo Renato Angiolillo", "amenity": "atm", "opening_hours": "24/7", "operator": "UniCredit"}}, {"type": "node", "id": 3006498297, "lat": 41.9534855, "lon": 12.523035, "tags": {"amenity": "atm"}}, {"type": "node", "id": 3098344516, "lat": 41.8981744, "lon": 12.4511854, "tags": {"amenity": "atm", "operator": "Intesa Sanpaolo"}}, {"type": "node", "id": 3272577048, "lat": 41.7119828, "lon": 12.4484177, "tags": {"amenity": "atm"}}, {"type": "node", "id": 3272577049, "lat": 41.7114127, "lon": 12.4475965, "tags": {"amenity": "atm"}}, {"type": "node", "id": 3287626240, "lat": 41.7169328, "lon": 12.4437169, "tags": {"amenity": "atm"}}, {"type": "node", "id": 3395324168, "lat": 41.8342499, "lon": 12.7510189, "tags": {"amenity": "atm"}}, {"type": "node", "id": 3610336640, "lat": 41.8638967, "lon": 12.5498355, "tags": {"amenity": "atm", "operator": "Banca Popolare di Novara"}}, {"type": "node", "id": 3661046004, "lat": 41.9304722, "lon": 12.5245561, "tags": {"amenity": "atm"}}, {"type": "node", "id": 3789238720, "lat": 41.8661367, "lon": 12.4860163, "tags": {"amenity": "atm", "brand": "Postamat", "brand:wikidata": "Q3909447", "name": "Postamat", "operator": "Poste Italiane", "operator:wikidata": "Q495026"}}, {"type": "node", "id": 3789241173, "lat": 41.8669855, "lon": 12.4857444, "tags": {"amenity": "atm", "operator": "Banca di Credito Cooperativa di Roma"}}, {"type": "node", "id": 4113797945, "lat": 41.8798437, "lon": 12.4752879, "tags": {"amenity": "atm", "check_date": "2022-09-22", "operator": "Poste Italiane"}}, {"type": "node", "id": 4162996389, "lat": 41.885609, "lon": 12.5127262, "tags": {"addr:housenumber": "4", "addr:street": "Via Pozzuoli", "amenity": "atm", "brand": "Postamat", "brand:wikidata": "Q3909447", "brand:wikipedia": "it:Postamat", "name": "Postamat", "network": "Postamat", "operator": "Poste Italiane", "operator:wikidata": "Q495026", "operator:wikipedia": "it:Poste italiane"}}, {"type": "node", "id": 4228363205, "lat": 41.9069686, "lon": 12.4616702, "tags": {"amenity": "atm", "name": "Imprebanca", "wheelchair": "yes"}}, {"type": "node", "id": 4296842157, "lat": 41.8947521, "lon": 12.476107, "tags": {"amenity": "atm", "operator": "Unipol"}}, {"type": "node", "id": 4296842171, "lat": 41.8962148, "lon": 12.4770848, "tags": {"amenity": "atm", "brand": "UniCredit Bank", "brand:wikidata": "Q45568", "brand:wikipedia": "en:UniCredit", "name": "UniCredit Bank", "operator": "UniCredit Bank", "operator:wikidata": "Q45568", "operator:wikipedia": "en:UniCredit"}}, {"type": "node", "id": 4311240362, "lat": 41.8970303, "lon": 12.4724311, "tags": {"amenity": "atm", "brand": "UniCredit Bank", "brand:wikidata": "Q45568", "brand:wikipedia": "en:UniCredit", "name": "UniCredit Bank", "operator": "UniCredit Bank", "operator:wikidata": "Q45568", "operator:wikipedia": "en:UniCredit", "source": "Bing, Local knowledge"}}, {"type": "node", "id": 4351577094, "lat": 41.8931968, "lon": 12.4136765, "tags": {"amenity": "atm"}}, {"type": "node", "id": 4376086302, "lat": 42.0009432, "lon": 12.4940052, "tags": {"addr:city": "Roma", "addr:housenumber": "13", "addr:postcode": "00188", "addr:street": "Piazza di Saxa Rubra", "amenity": "atm", "operator": "UniCredit"}}, {"type": "node", "id": 4377755228, "lat": 41.8934959, "lon": 12.4891075, "tags": {"amenity": "atm", "brand": "Euronet", "brand:wikidata": "Q5412010", "brand:wikipedia": "en:Euronet Worldwide", "check_date": "2021-11-01", "drive_through": "no", "name": "Euronet", "operator": "Euronet", "operator:wikidata": "Q5412010", "operator:wikipedia": "en:Euronet Worldwide"}}, {"type": "node", "id": 4434081990, "lat": 41.9527523, "lon": 12.7255767, "tags": {"amenity": "atm", "operator": "Unicredit"}}, {"type": "node", "id": 4435855299, "lat": 41.8090899, "lon": 12.6811266, "tags": {"amenity": "atm"}}, {"type": "node", "id": 4445339653, "lat": 41.9003526, "lon": 12.4730367, "tags": {"amenity": "atm", "cash_in": "no", "check_date": "2021-10-28", "operator": "Euronet Worldwide"}}, {"type": "node", "id": 4445339654, "lat": 41.9012591, "lon": 12.4722828, "tags": {"amenity": "atm", "check_date": "2022-07-23", "operator": "ATM", "wheelchair": "limited"}}, {"type": "node", "id": 4463705568, "lat": 41.8859303, "lon": 12.4702931, "tags": {"amenity": "atm", "brand": "BCC Roma", "brand:wikidata": "Q25060394", "brand:wikipedia": "en:Banca di Credito Cooperativo di Roma", "name": "BCC Roma", "official_name": "Banca di Credito Cooperativo di Roma", "opening_hours": "24/7", "operator": "BCC Roma", "operator:wikidata": "Q25060394", "operator:wikipedia": "en:Banca di Credito Cooperativo di Roma", "ref": "7103"}}, {"type": "node", "id": 4596295389, "lat": 41.861743, "lon": 12.5528598, "tags": {"amenity": "atm", "operator": "BNL", "wheelchair": "yes"}}, {"type": "node", "id": 4599719399, "lat": 41.7962554, "lon": 12.2547338, "tags": {"amenity": "atm", "brand": "UniCredit Bank", "brand:wikidata": "Q45568", "name": "UniCredit Bank", "operator": "UniCredit Bank", "operator:wikidata": "Q45568", "wheelchair": "yes"}}, {"type": "node", "id": 4599903107, "lat": 41.7962521, "lon": 12.2478792, "tags": {"amenity": "atm", "brand": "Euronet", "brand:wikidata": "Q5412010", "name": "Euronet", "opening_hours": "24/7", "operator": "Euronet", "operator:wikidata": "Q5412010", "wheelchair": "limited"}}, {"type": "node", "id": 4599903397, "lat": 41.795407, "lon": 12.2499276, "tags": {"amenity": "atm", "brand": "Euronet", "brand:wikidata": "Q5412010", "name": "Euronet", "operator": "Euronet", "operator:wikidata": "Q5412010"}}, {"type": "node", "id": 4610449090, "lat": 41.8536607, "lon": 12.5906433, "tags": {"amenity": "atm", "operator": "Intesa San Paolo"}}, {"type": "node", "id": 4647653020, "lat": 41.8501861, "lon": 12.5923883, "tags": {"amenity": "atm", "operator": "Poste Italiane"}}, {"type": "node", "id": 4712272534, "lat": 41.7816051, "lon": 12.6831917, "tags": {"amenity": "atm", "name": "bancomat"}}, {"type": "node", "id": 4716609910, "lat": 41.9069365, "lon": 12.4686324, "tags": {"amenity": "atm", "name": "Fideuram"}}, {"type": "node", "id": 4716611992, "lat": 41.9066559, "lon": 12.4687758, "tags": {"amenity": "atm"}}, {"type": "node", "id": 4731213825, "lat": 41.9401265, "lon": 12.5362598, "tags": {"amenity": "atm", "drive_through": "no", "name": "Intesa San Paolo", "operator": "intesa San Paolo", "wheelchair": "yes"}}, {"type": "node", "id": 4754734735, "lat": 41.8907605, "lon": 12.4773416, "tags": {"amenity": "atm", "brand": "UniCredit Bank", "brand:wikidata": "Q45568", "brand:wikipedia": "en:UniCredit", "name": "UniCredit Bank", "name:it": "UniCredit", "operator": "UniCredit Bank", "operator:wikidata": "Q45568", "operator:wikipedia": "en:UniCredit"}}, {"type": "node", "id": 4943583048, "lat": 41.8504693, "lon": 12.4593705, "tags": {"amenity": "atm"}}, {"type": "node", "id": 5022160823, "lat": 41.8203558, "lon": 12.7781149, "tags": {"amenity": "atm", "operator": "BCC"}}, {"type": "node", "id": 5066136424, "lat": 41.890738, "lon": 12.4716187, "tags": {"addr:housenumber": "5", "addr:street": "Vicolo della Renella", "amenity": "atm", "name": "Pan Pan", "name:it": "Pan Pan", "opening_hours": "24/7", "shop": "bakery"}}, {"type": "node", "id": 5083047272, "lat": 41.9101877, "lon": 12.4737542, "tags": {"amenity": "atm", "operator": "UBI Banca S.p.a."}}, {"type": "node", "id": 5109709779, "lat": 41.89602, "lon": 12.4908144, "tags": {"amenity": "atm", "network": "Euronet worldwide"}}, {"type": "node", "id": 5112584925, "lat": 41.7935765, "lon": 12.2518797, "tags": {"amenity": "atm"}}, {"type": "node", "id": 5112611022, "lat": 41.795728, "lon": 12.2522781, "tags": {"amenity": "atm", "brand": "Euronet", "brand:wikidata": "Q5412010", "name": "Euronet", "opening_hours": "Mo-Su 09:00-18:00", "operator": "Euronet", "operator:wikidata": "Q5412010"}}, {"type": "node", "id": 5113424221, "lat": 41.870873, "lon": 12.480195, "tags": {"amenity": "atm", "brand": "UniCredit Bank", "brand:wikidata": "Q45568", "name": "UniCredit Bank", "opening_hours": "24/7", "operator": "UniCredit Bank", "operator:wikidata": "Q45568"}}, {"type": "node", "id": 5153632824, "lat": 41.9032931, "lon": 12.4208961, "tags": {"amenity": "atm", "operator": "BANCOMAT3", "wheelchair": "yes"}}, {"type": "node", "id": 5214004305, "lat": 41.7742632, "lon": 12.6951801, "tags": {"amenity": "atm"}}, {"type": "node", "id": 5242486005, "lat": 41.8965683, "lon": 12.5010014, "tags": {"amenity": "atm", "brand": "Banca Popolare di Sondrio", "brand:wikidata": "Q686176", "brand:wikipedia": "en:Banca Popolare di Sondrio", "name": "Banca Popolare di Sondrio", "opening_hours": "24/7", "operator": "Banca Popolare di Sondrio", "operator:wikidata": "Q686176", "operator:wikipedia": "en:Banca Popolare di Sondrio"}}, {"type": "node", "id": 5242486006, "lat": 41.8969709, "lon": 12.5002824, "tags": {"amenity": "atm", "opening_hours": "24/7", "operator": "Banca Popolare di Milano"}}, {"type": "node", "id": 5314906621, "lat": 41.9043736, "lon": 12.4887423, "tags": {"amenity": "atm", "opening_hours": "24/7", "operator": "Plus Network"}}, {"type": "node", "id": 5329720622, "lat": 41.9048225, "lon": 12.4857949, "tags": {"amenity": "atm", "check_date": "2023-02-18", "operator": "Credit Agricole"}}, {"type": "node", "id": 5370529421, "lat": 41.8643404, "lon": 12.4842706, "tags": {"amenity": "atm", "opening_hours": "24/7", "operator": "Intesa San Paolo"}}, {"type": "node", "id": 5383621823, "lat": 41.9127412, "lon": 12.5208886, "tags": {"amenity": "atm", "brand": "CheBanca!", "wheelchair": "no"}}, {"type": "node", "id": 5398112031, "lat": 41.8375922, "lon": 12.5945471, "tags": {"amenity": "atm", "currency:EUR": "yes", "operator": "banca di credito cooperativo di Anagni"}}, {"type": "node", "id": 5402298487, "lat": 41.8645714, "lon": 12.5498809, "tags": {"amenity": "atm", "operator": "Poste Italiane"}}, {"type": "node", "id": 5431690560, "lat": 41.9105178, "lon": 12.5206643, "tags": {"amenity": "atm", "check_date": "2021-10-09", "operator": "Poste Italiane"}}, {"type": "node", "id": 5661549344, "lat": 41.8342425, "lon": 12.7511833, "tags": {"amenity": "atm", "operator": "Poste Italiane"}}, {"type": "node", "id": 5825454654, "lat": 41.9025422, "lon": 12.4632465, "tags": {"amenity": "atm", "check_date": "2022-07-23", "operator": "Atm"}}, {"type": "node", "id": 5825505953, "lat": 41.9004584, "lon": 12.471414, "tags": {"amenity": "atm", "brand": "Euronet", "brand:wikidata": "Q5412010", "brand:wikipedia": "en:Euronet Worldwide", "check_date": "2021-10-28", "name": "Euronet", "operator": "Euronet", "operator:wikidata": "Q5412010", "operator:wikipedia": "en:Euronet Worldwide", "wheelchair": "limited"}}, {"type": "node", "id": 5826868885, "lat": 41.8974217, "lon": 12.4880026, "tags": {"amenity": "atm"}}, {"type": "node", "id": 5827137385, "lat": 41.9012214, "lon": 12.4809715, "tags": {"amenity": "atm"}}, {"type": "node", "id": 5832473885, "lat": 41.895137, "lon": 12.4774263, "tags": {"amenity": "atm"}}, {"type": "node", "id": 6084526186, "lat": 41.7476486, "lon": 12.648166, "tags": {"amenity": "atm", "operator": "BCC"}}, {"type": "node", "id": 6098005687, "lat": 41.74667, "lon": 12.6505884, "tags": {"amenity": "atm", "check_date": "2021-06-27", "operator": "Poste italiane"}}, {"type": "node", "id": 6140985587, "lat": 41.7971889, "lon": 12.2555047, "tags": {"amenity": "atm", "drive_through": "no", "level": "1", "operator": "Visa"}}, {"type": "node", "id": 6156824193, "lat": 42.0442058, "lon": 12.3017096, "tags": {"amenity": "atm", "cash_in": "no", "currency:EUR": "yes", "drive_through": "no", "name": "BNL", "operator": "Gruppo BNP Paribas"}}, {"type": "node", "id": 6263584248, "lat": 41.868455, "lon": 12.443207, "tags": {"addr:city": "Roma", "addr:housenumber": "240 B", "addr:postcode": "00151", "addr:street": "Viale dei Colli Portuensi", "amenity": "atm", "currency:XBT": "yes", "description": "Bancomat ATM di CryptoLocalAtm. Criptovalute supportate: Bitcoin, Ethereum, Litecoin, Dogecoin, Bitcoin Cash, Dash.", "email": "support@cryptolocalatm.com", "name": "CryptoLocalATM c/o Nuvole d'aromi 2.0", "website": "https://cryptolocalatm.com"}}, {"type": "node", "id": 6279371385, "lat": 41.8981854, "lon": 12.5135166, "tags": {"amenity": "atm", "brand": "UniCredit", "brand:wikidata": "Q45568", "brand:wikipedia": "en:UniCredit", "name": "UniCredit", "opening_hours": "24/7", "operator": "UniCredit Bank", "operator:wikidata": "Q45568", "operator:wikipedia": "en:UniCredit"}}, {"type": "node", "id": 6325811287, "lat": 41.9002708, "lon": 12.4923451, "tags": {"amenity": "atm", "operator": "Euronet Worldwide"}}, {"type": "node", "id": 6398559694, "lat": 41.7960151, "lon": 12.2549825, "tags": {"amenity": "atm"}}, {"type": "node", "id": 6398562386, "lat": 41.7953487, "lon": 12.2556923, "tags": {"amenity": "atm"}}, {"type": "node", "id": 6450918646, "lat": 41.8058709, "lon": 12.6013035, "tags": {"amenity": "atm", "brand": "Postamat", "brand:wikidata": "Q3909447", "brand:wikipedia": "it:Postamat", "currency:EUR": "yes", "language:en": "yes", "language:it": "yes", "name": "Postamat", "operator": "Poste Italiane", "operator:wikidata": "Q495026", "operator:wikipedia": "it:Poste italiane", "ref": "0765", "speech_output:en": "yes", "speech_output:it": "yes", "wheelchair": "yes"}}, {"type": "node", "id": 6450918648, "lat": 41.8058254, "lon": 12.6013894, "tags": {"amenity": "atm", "brand": "Postamat", "brand:wikidata": "Q3909447", "brand:wikipedia": "it:Postamat", "currency:EUR": "yes", "indoor": "yes", "language:en": "yes", "language:it": "yes", "name": "Postamat", "opening_hours": "Mo-Fr 08:20-19:05; Sa 08:20-12:05", "operator": "Poste Italiane", "operator:wikidata": "Q495026", "operator:wikipedia": "it:Poste italiane", "ref": "4110", "speech_output:en": "yes", "speech_output:it": "yes", "wheelchair": "yes"}}, {"type": "node", "id": 6467683807, "lat": 41.8938191, "lon": 12.5881488, "tags": {"addr:city": "Roma", "addr:housenumber": "738", "addr:street": "Via Prenestina", "amenity": "atm", "operator": "Unicredit"}}, {"type": "node", "id": 6697437490, "lat": 41.7977017, "lon": 12.2555688, "tags": {"amenity": "atm", "brand": "UniCredit Bank", "brand:wikidata": "Q45568", "level": "1", "name": "UniCredit Bank", "operator": "UniCredit Bank", "operator:wikidata": "Q45568"}}, {"type": "node", "id": 6833405561, "lat": 41.8146678, "lon": 12.6078803, "tags": {"addr:city": "Roma", "addr:housenumber": "69", "addr:postcode": "00118", "addr:street": "Via di Torre Morena", "amenity": "atm", "mapillary": "798522567473983", "name": "PostaMat", "operator": "Poste italiane", "ref": "4021"}}, {"type": "node", "id": 6833405565, "lat": 41.8146773, "lon": 12.6078628, "tags": {"addr:city": "Roma", "addr:housenumber": "69", "addr:postcode": "00118", "addr:street": "Via di Torre Morena", "amenity": "atm", "mapillary": "798522567473983", "name": "PostaMat", "operator": "Poste italiane", "ref": "4020"}}, {"type": "node", "id": 6853468958, "lat": 41.852753, "lon": 12.416742, "tags": {"amenity": "atm", "currency:XBT": "yes", "description": "ATM per la vendita di Bitcoin, Ethereum, Litecoin, Bitcoin Cash e Ripple, situato all'interno del centro commerciale Casetta Mattei.", "email": "support@walledo.com", "name": "Walledo Kiosk", "website": "https://walledo.com"}}, {"type": "node", "id": 6853509398, "lat": 41.847849, "lon": 12.608167, "tags": {"addr:city": "Roma", "addr:housenumber": "111", "addr:postcode": "00173", "addr:street": "Via Bernardino Alimena", "amenity": "atm", "currency:XBT": "yes", "description": "ATM per vendita di Bitcoin, Ethereum, Litecoin, Bitcoin Cash e Ripple, situato all'interno del centro commerciale Domus.", "email": "support@walledo.com", "name": "Walledo Kiosk", "website": "https://walledo.com"}}, {"type": "node", "id": 6862838925, "lat": 41.8748401, "lon": 12.4803425, "tags": {"amenity": "atm", "brand": "Credem", "brand:wikidata": "Q3696881", "official_name": "Credito Emiliano", "operator": "Credem", "operator:wikidata": "Q3696881"}}, {"type": "node", "id": 6897079044, "lat": 41.8090196, "lon": 12.5963357, "tags": {"amenity": "atm", "mapillary": "1164281163998774", "operator": "Banca Centro Lazio"}}, {"type": "node", "id": 7006289612, "lat": 41.8923278, "lon": 12.5037796, "tags": {"amenity": "atm", "brand": "Postamat", "brand:wikidata": "Q3909447", "brand:wikipedia": "it:Postamat", "currency:EUR": "yes", "language:en": "yes", "language:it": "yes", "name": "Postamat", "operator": "Poste Italiane", "operator:wikidata": "Q495026", "operator:wikipedia": "it:Poste italiane", "ref": "1856", "speech_output:en": "yes", "speech_output:it": "yes", "wheelchair": "yes"}}, {"type": "node", "id": 7055327145, "lat": 41.9047103, "lon": 12.4465247, "tags": {"addr:city": "Roma", "addr:housenumber": "86", "addr:postcode": "00136", "addr:street": "Via Angelo Emo", "amenity": "atm", "currency:XBT": "yes", "description": "ATM compra & vendi. L'ATM \u00e8 situato all'interno del negozio di sigarette elettroniche Luxury Vape. Criptovalute supportate: Bitcoin, Ethereum, Litecoin, Dogecoin, Bitcoin Cash, Dash, Monero.", "email": "support@cryptolocalatm.com", "name": "CryptoLocalATM c/o Luxury Vape", "website": "https://cryptolocalatm.com"}}, {"type": "node", "id": 7206253186, "lat": 41.8534919, "lon": 12.5719271, "tags": {"amenity": "atm", "opening_hours": "24/7", "operator": "Bitcoin Embassy"}}, {"type": "node", "id": 7332238508, "lat": 41.9748671, "lon": 12.5137257, "tags": {"addr:city": "Roma", "addr:housenumber": "3/a", "addr:postcode": "00138", "addr:street": "Via Sinalunga", "amenity": "atm", "operator": "Poste Italiane"}}, {"type": "node", "id": 7490522220, "lat": 41.9420527, "lon": 12.5265444, "tags": {"amenity": "atm", "currency:EUR": "yes", "operator": "Banca di Credito Cooperativo di Roma"}}, {"type": "node", "id": 7490522222, "lat": 41.9414101, "lon": 12.5261335, "tags": {"amenity": "atm", "operator": "Banca Popolare di Sondrio"}}, {"type": "node", "id": 7507088736, "lat": 41.8540896, "lon": 12.5905789, "tags": {"amenity": "atm"}}, {"type": "node", "id": 8099869297, "lat": 41.9095889, "lon": 12.4527635, "tags": {"amenity": "atm", "name": "La Cassa"}}, {"type": "node", "id": 8124865115, "lat": 41.9399097, "lon": 12.4251566, "tags": {"amenity": "atm"}}, {"type": "node", "id": 8133283009, "lat": 41.7160038, "lon": 12.4444997, "tags": {"amenity": "atm"}}, {"type": "node", "id": 8165268964, "lat": 41.9101782, "lon": 12.4550434, "tags": {"amenity": "atm", "name": "Monte dei paschi di Siena"}}, {"type": "node", "id": 8166604300, "lat": 41.9005038, "lon": 12.4750658, "tags": {"amenity": "atm", "brand": "Postamat", "brand:wikidata": "Q3909447", "brand:wikipedia": "it:Postamat", "name": "Postamat", "operator": "Poste Italiane", "operator:wikidata": "Q495026", "operator:wikipedia": "it:Poste italiane"}}, {"type": "node", "id": 8258568958, "lat": 41.9064353, "lon": 12.4806313, "tags": {"amenity": "atm", "brand": "Euronet", "brand:wikidata": "Q5412010", "brand:wikipedia": "en:Euronet Worldwide", "name": "Euronet", "operator": "Euronet", "operator:wikidata": "Q5412010", "operator:wikipedia": "en:Euronet Worldwide"}}, {"type": "node", "id": 8258609334, "lat": 41.9032742, "lon": 12.4822562, "tags": {"amenity": "atm", "check_date": "2022-10-29"}}, {"type": "node", "id": 8410809556, "lat": 41.9149046, "lon": 12.4612393, "tags": {"amenity": "atm", "brand": "Postamat", "brand:wikidata": "Q3909447", "brand:wikipedia": "it:Postamat", "name": "Postamat", "opening_hours": "24/7", "operator": "Poste Italiane", "operator:wikidata": "Q495026", "operator:wikipedia": "it:Poste italiane"}}, {"type": "node", "id": 8443159769, "lat": 41.916718, "lon": 12.4635336, "tags": {"amenity": "atm", "brand": "BNL", "brand:wikidata": "Q2201225", "brand:wikipedia": "it:Banca Nazionale del Lavoro", "drive_through": "no", "name": "BNL", "official_name": "Banca Nazionale del Lavoro", "operator": "BNL", "operator:wikidata": "Q2201225", "operator:wikipedia": "it:Banca Nazionale del Lavoro"}}, {"type": "node", "id": 8499785328, "lat": 41.7604525, "lon": 12.3020133, "tags": {"amenity": "atm"}}, {"type": "node", "id": 8508758000, "lat": 41.9151858, "lon": 12.4665441, "tags": {"amenity": "atm", "brand": "Postamat", "brand:wikidata": "Q3909447", "brand:wikipedia": "it:Postamat", "name": "Postamat", "opening_hours": "24/7", "operator": "Poste Italiane", "operator:wikidata": "Q495026", "operator:wikipedia": "it:Poste italiane"}}, {"type": "node", "id": 8509556444, "lat": 41.9243669, "lon": 12.5155088, "tags": {"addr:city": "Roma", "addr:housenumber": "17", "addr:postcode": "00198", "addr:street": "Piazza Annibaliano", "amenity": "atm", "currency:XBT": "yes", "description": "Bitcoin ATM che permette di acquistare Bitcoin, Ethereum, Litecoin, Dogecoin, Bitcoin Cash, Dash, Monero. L'ATM \u00e8 situato all'interno del negozio Assistenza Computer Roma.", "email": "support@cryptolocalatm.com", "name": "CryptoLocalATM c/o Melaggiusti", "phone": "+447894438974", "website": "https://cryptolocalatm.com"}}, {"type": "node", "id": 8677086519, "lat": 41.7962478, "lon": 12.2475987, "tags": {"amenity": "atm"}}, {"type": "node", "id": 8825503859, "lat": 41.9810481, "lon": 12.6208632, "tags": {"amenity": "atm", "currency:EUR": "yes", "network": "Postamat", "operator": "Poste Italiane", "source": "https://www.romatoday.it/foto/cronaca/atm-postamat-colleverde/#postamat-colleverde-guidonia-2.html"}}, {"type": "node", "id": 9113972630, "lat": 41.8807029, "lon": 12.4542382, "tags": {"amenity": "atm", "check_date": "2022-12-31", "operator": "Banca del Fucino"}}, {"type": "node", "id": 9170028026, "lat": 41.8837284, "lon": 12.543945, "tags": {"amenity": "atm", "brand": "Postamat", "brand:wikidata": "Q3909447", "brand:wikipedia": "it:Postamat", "currency:EUR": "yes", "indoor": "no", "name": "Postamat", "network": "Postamat", "operator": "Poste Italiane", "operator:wikidata": "Q495026", "operator:wikipedia": "it:Poste italiane"}}, {"type": "node", "id": 9183421148, "lat": 41.8802678, "lon": 12.5411674, "tags": {"amenity": "atm", "brand": "Postamat", "brand:wikidata": "Q3909447", "brand:wikipedia": "it:Postamat", "currency:EUR": "yes", "indoor": "no", "name": "Postamat", "network": "Postamat", "operator": "Poste Italiane", "operator:wikidata": "Q495026", "operator:wikipedia": "it:Poste italiane"}}, {"type": "node", "id": 9543419023, "lat": 41.8981554, "lon": 12.5135961, "tags": {"amenity": "atm", "brand": "UniCredit Bank", "brand:wikidata": "Q45568", "brand:wikipedia": "en:UniCredit", "name": "UniCredit", "opening_hours": "24/7", "operator": "UniCredit", "operator:wikidata": "Q45568", "operator:wikipedia": "en:UniCredit"}}, {"type": "node", "id": 9631183241, "lat": 41.9835274, "lon": 12.409081, "tags": {"amenity": "atm", "brand": "Postamat", "brand:wikidata": "Q3909447", "brand:wikipedia": "it:Postamat", "name": "Postamat", "operator": "Poste Italiane", "operator:wikidata": "Q495026", "operator:wikipedia": "it:Poste italiane"}}, {"type": "node", "id": 9704780648, "lat": 41.9228685, "lon": 12.6719489, "tags": {"amenity": "atm", "brand": "Postamat", "brand:wikidata": "Q3909447", "name": "Postamat", "operator": "Poste Italiane", "operator:wikidata": "Q495026"}}, {"type": "node", "id": 9710737454, "lat": 41.9036108, "lon": 12.5022658, "tags": {"addr:city": "Roma", "addr:housenumber": "3", "addr:postcode": "00185", "addr:street": "Via Magenta", "amenity": "atm", "brand": "Monte dei Paschi di Siena", "brand:wikidata": "Q46730", "name": "Monte dei Paschi di Siena", "operator": "Monte dei Paschi di Siena", "operator:wikidata": "Q46730"}}, {"type": "node", "id": 9710737472, "lat": 41.9034779, "lon": 12.501235, "tags": {"amenity": "atm", "brand": "BNL", "brand:wikidata": "Q2201225", "name": "BNL", "official_name": "Banca Nazionale del Lavoro", "operator": "BNL", "operator:wikidata": "Q2201225"}}, {"type": "node", "id": 9710737544, "lat": 41.8677127, "lon": 12.674949, "tags": {"amenity": "atm", "brand": "BCC Roma", "brand:wikidata": "Q25060394", "name": "BCC Roma", "official_name": "Banca di Credito Cooperativo di Roma", "operator": "BCC Roma", "operator:wikidata": "Q25060394"}}, {"type": "node", "id": 9780170488, "lat": 41.8937848, "lon": 12.4879685, "tags": {"amenity": "atm"}}, {"type": "node", "id": 9780170489, "lat": 41.8937104, "lon": 12.4880397, "tags": {"amenity": "atm"}}, {"type": "node", "id": 9784529441, "lat": 41.904237, "lon": 12.5014765, "tags": {"addr:city": "Roma", "addr:housenumber": "23", "addr:postcode": "00185", "addr:street": "Piazza dell'Indipendenza", "amenity": "atm", "operator": "Che banca!"}}, {"type": "node", "id": 9809567651, "lat": 41.7993261, "lon": 12.5911522, "tags": {"amenity": "atm", "cash_in": "no", "name": "Euronet"}}, {"type": "node", "id": 9809567826, "lat": 41.7993165, "lon": 12.5907251, "tags": {"amenity": "atm", "cash_in": "no", "name": "Euronet"}}, {"type": "node", "id": 9822876131, "lat": 41.882235, "lon": 12.7429634, "tags": {"amenity": "atm"}}, {"type": "node", "id": 9835480149, "lat": 41.7341522, "lon": 12.2647252, "tags": {"amenity": "atm"}}, {"type": "node", "id": 9858878032, "lat": 41.8873051, "lon": 12.4047492, "tags": {"amenity": "atm", "brand": "Monte dei Paschi di Siena"}}, {"type": "node", "id": 9866149399, "lat": 41.887893, "lon": 12.4702067, "tags": {"amenity": "atm"}}, {"type": "node", "id": 9896405719, "lat": 41.7972957, "lon": 12.2589929, "tags": {"amenity": "atm", "name": "fhhh"}}, {"type": "node", "id": 9896405917, "lat": 41.8051421, "lon": 12.2623487, "tags": {"amenity": "atm", "name": "Aeroport rome"}}, {"type": "node", "id": 9896405918, "lat": 41.7922427, "lon": 12.261981, "tags": {"amenity": "atm", "name": "Rome a\u00e9roport"}}, {"type": "node", "id": 10109857347, "lat": 41.9087317, "lon": 12.4889924, "tags": {"amenity": "atm", "operator": "Euronet"}}, {"type": "node", "id": 10115166326, "lat": 41.9080094, "lon": 12.4882909, "tags": {"amenity": "atm", "operator": "Banco Desio"}}, {"type": "node", "id": 10117169987, "lat": 41.9098882, "lon": 12.4942344, "tags": {"amenity": "atm", "operator": "San Paolo"}}, {"type": "node", "id": 10117170002, "lat": 41.9080471, "lon": 12.4925934, "tags": {"amenity": "atm", "brand": "Banco di Sardegna", "brand:wikidata": "Q806205", "operator": "Banco di Sardegna", "operator:wikidata": "Q806205"}}, {"type": "node", "id": 10131188461, "lat": 41.9036559, "lon": 12.5102646, "tags": {"amenity": "atm"}}, {"type": "node", "id": 10204018359, "lat": 41.8621446, "lon": 12.5584978, "tags": {"amenity": "atm", "brand": "Unicredit", "operator": "Unicredit Banca di Roma"}}, {"type": "node", "id": 10265673700, "lat": 41.9018215, "lon": 12.5026419, "tags": {"amenity": "atm", "brand": "Intesa Sanpaolo", "brand:wikidata": "Q1343118", "operator": "Intesa Sanpaolo", "operator:wikidata": "Q1343118"}}, {"type": "node", "id": 10300224604, "lat": 41.9040951, "lon": 12.4958427, "tags": {"amenity": "atm"}}, {"type": "node", "id": 10300224605, "lat": 41.9043654, "lon": 12.496263, "tags": {"amenity": "atm"}}, {"type": "node", "id": 10300778777, "lat": 41.9033431, "lon": 12.4953641, "tags": {"addr:city": "Roma", "addr:housenumber": "72", "addr:postcode": "00185", "addr:street": "Via Vittorio Emanuele Orlando", "amenity": "atm", "brand": "UniCredit Bank", "brand:wikidata": "Q45568", "operator": "UniCredit Bank", "operator:wikidata": "Q45568"}}, {"type": "node", "id": 10583939016, "lat": 41.9400315, "lon": 12.4240036, "tags": {"amenity": "atm", "fixme": "it_IT:bancomat vecchia versione obsoleta e non pi\u00f9 manutenuta e garantita dal 2019 senza schermo editabile e senza controlli biometrici (riferimento Banca D'Italia https://www.bancaditalia.it/compiti/sispaga-mercati/strumenti-pagamento/?dotcache=refresh )"}}, {"type": "node", "id": 10618589233, "lat": 41.8237472, "lon": 12.6441307, "tags": {"amenity": "atm", "brand": "UBI Banca", "brand:wikidata": "Q1476162", "level": "0", "operator": "UBI Banca", "operator:wikidata": "Q1476162"}}, {"type": "node", "id": 10728497486, "lat": 41.8586525, "lon": 12.6316356, "tags": {"amenity": "atm", "brand": "UniCredit Bank", "brand:wikidata": "Q45568", "level": "0", "operator": "UniCredit Bank", "operator:wikidata": "Q45568"}}, {"type": "node", "id": 10804196253, "lat": 41.9032594, "lon": 12.5013402, "tags": {"amenity": "atm", "brand": "BNL", "brand:wikidata": "Q2201225", "official_name": "Banca Nazionale del Lavoro", "operator": "BNL", "operator:wikidata": "Q2201225"}}, {"type": "node", "id": 10824698410, "lat": 41.8881545, "lon": 12.5214377, "tags": {"amenity": "atm", "brand": "Postamat", "brand:wikidata": "Q3909447", "operator": "Poste Italiane", "operator:wikidata": "Q495026"}}]}