{"version": 0.6, "generator": "Overpass API 0.7.60 f4c14d41", "osm3s": {"timestamp_osm_base": "2023-05-02T21:19:24Z", "copyright": "The data included in this document is from www.openstreetmap.org. The data is made available under ODbL."}, "elements": [{"type": "node", "id": 331377560, "lat": -22.9260653, "lon": -43.1758099, "tags": {"amenity": "cafe", "cuisine": "coffee_shop", "source": "survey"}}, {"type": "node", "id": 338511051, "lat": -22.9051703, "lon": -43.1787441, "tags": {"addr:housenumber": "32", "addr:street": "Rua Gon\u00e7alves Dias", "amenity": "cafe", "amenity_1": "restaurant", "contact:website": "www.confeitariacolombo.com.br", "name": "Confeitaria Colombo", "name:ru": "\u041a\u043e\u043d\u0434\u0438\u0442\u0435\u0440\u0441\u043a\u0430\u044f \u041a\u043e\u043b\u043e\u043c\u0431\u043e", "wikidata": "Q18479573"}}, {"type": "node", "id": 346248591, "lat": -22.933188, "lon": -43.1839321, "tags": {"addr:city": "Rio de Janeiro", "addr:housenumber": "143B", "addr:street": "Rua das Laranjeiras", "addr:suburb": "Laranjeiras", "amenity": "cafe", "name": "Caf\u00e9 e Bar C\u00e9u da Guanabara"}}, {"type": "node", "id": 415833902, "lat": -22.9480687, "lon": -43.1826983, "tags": {"addr:city": "Rio de Janeiro", "addr:country": "BR", "addr:street": "Praia de Botafogo", "amenity": "cafe", "brand": "Rei do Mate", "brand:wikidata": "Q7309875", "cuisine": "tea", "name": "Rei do Mate", "takeaway": "yes"}}, {"type": "node", "id": 416166042, "lat": -22.9511364, "lon": -43.1826962, "tags": {"addr:city": "Rio de Janeiro", "addr:country": "BR", "addr:street": "Rua Volunt\u00e1rios da P\u00e1tria", "amenity": "cafe", "name": "Caf\u00e9 Atelier Culin\u00e1rio"}}, {"type": "node", "id": 431013541, "lat": -22.9312795, "lon": -43.1784538, "tags": {"amenity": "cafe", "brand": "Casa do P\u00e3o de Queijo", "brand:wikidata": "Q9698946", "cuisine": "coffee_shop", "name": "Casa do P\u00e3o de Queijo", "takeaway": "yes"}}, {"type": "node", "id": 481590159, "lat": -22.9043862, "lon": -43.1762252, "tags": {"amenity": "cafe", "brand": "Rei do Mate", "brand:wikidata": "Q7309875", "cuisine": "tea", "name": "Rei do Mate", "takeaway": "yes"}}, {"type": "node", "id": 512745096, "lat": -22.9040031, "lon": -43.1750761, "tags": {"amenity": "cafe", "name": "Cereja Caf\u00e9"}}, {"type": "node", "id": 512750958, "lat": -22.9047808, "lon": -43.1758033, "tags": {"amenity": "cafe", "name": "Beirute Caf\u00e9"}}, {"type": "node", "id": 517737932, "lat": -22.9054527, "lon": -43.1773721, "tags": {"addr:housenumber": "151b", "addr:street": "Avenida Rio Branco", "amenity": "cafe", "brand": "Kopenhagen", "brand:wikidata": "Q10314624", "name": "Kopenhagen", "shop": "chocolate"}}, {"type": "node", "id": 538133914, "lat": -22.9059113, "lon": -43.1792389, "tags": {"addr:housenumber": "137", "addr:street": "Rua Sete de Setembro", "amenity": "cafe", "name": "Casa Cav\u00e9", "phone": "+55-21-22222358", "website": "http://www.confeitariacave.com.br/"}}, {"type": "node", "id": 545392363, "lat": -22.9062606, "lon": -43.1785803, "tags": {"amenity": "cafe", "brand": "Rei do Mate", "brand:wikidata": "Q7309875", "cuisine": "tea", "name": "Rei do Mate", "takeaway": "yes"}}, {"type": "node", "id": 570371361, "lat": -22.9059043, "lon": -43.1765819, "tags": {"amenity": "cafe", "name": "Ga\u00facho"}}, {"type": "node", "id": 571200589, "lat": -22.8998911, "lon": -43.2084718, "tags": {"amenity": "cafe", "name": "Lindo Rio"}}, {"type": "node", "id": 571200590, "lat": -22.8999566, "lon": -43.2086448, "tags": {"amenity": "cafe", "name": "Via Rio", "wheelchair": "no"}}, {"type": "node", "id": 571200591, "lat": -22.8998663, "lon": -43.2084557, "tags": {"amenity": "cafe", "layer": "1", "name": "Viajantes"}}, {"type": "node", "id": 571200592, "lat": -22.8999615, "lon": -43.2086287, "tags": {"amenity": "cafe", "layer": "1", "name": "Via Rio"}}, {"type": "node", "id": 571268302, "lat": -22.8995983, "lon": -43.2086712, "tags": {"amenity": "cafe", "kiosk": "yes", "name": "Via Rio Express"}}, {"type": "node", "id": 592598147, "lat": -22.9116169, "lon": -43.1767785, "tags": {"addr:city": "Rio de Janeiro", "addr:country": "BR", "addr:street": "Rua Senador Dantas", "amenity": "cafe", "brand": "Kopenhagen", "brand:wikidata": "Q10314624", "name": "Kopenhagen", "shop": "chocolate", "source": "survey"}}, {"type": "node", "id": 635795447, "lat": -22.9114276, "lon": -43.1750632, "tags": {"amenity": "cafe", "brand": "Rei do Mate", "brand:wikidata": "Q7309875", "cuisine": "tea", "name": "Rei do Mate", "takeaway": "yes"}}, {"type": "node", "id": 704970826, "lat": -22.9256829, "lon": -43.1774367, "tags": {"addr:city": "Rio de Janeiro", "addr:country": "BR", "addr:postcode": "22221-000", "addr:street": "Rua Silveira Martins", "amenity": "cafe", "name": "Mercearia Silveira Martins", "phone": "+55-21-25560193", "source": "survey"}}, {"type": "node", "id": 762110954, "lat": -22.910468, "lon": -43.1754293, "tags": {"amenity": "cafe", "name": "Samp\u00ea", "phone": "+55-21-32612589"}}, {"type": "node", "id": 810361970, "lat": -22.9307269, "lon": -43.1772642, "tags": {"amenity": "cafe", "brand": "Kopenhagen", "brand:wikidata": "Q10314624", "name": "Kopenhagen", "shop": "chocolate", "website": "https://kopenhagen.com.br/"}}, {"type": "node", "id": 814190712, "lat": -22.9114158, "lon": -43.1735474, "tags": {"amenity": "cafe", "name": "Le Chocolatier"}}, {"type": "node", "id": 814237487, "lat": -22.9510194, "lon": -43.1761131, "tags": {"amenity": "cafe", "name": "Pix Caf\u00e9 Internet", "phone": "+55-21-25418802"}}, {"type": "node", "id": 815620673, "lat": -22.9232467, "lon": -43.2327777, "tags": {"amenity": "cafe", "name": "Rico's"}}, {"type": "node", "id": 816080362, "lat": -22.911628, "lon": -43.1758029, "tags": {"amenity": "cafe", "brand": "Starbucks", "brand:wikidata": "Q37158", "brand:wikipedia": "en:Starbucks", "cuisine": "coffee_shop", "name": "Starbucks", "official_name": "Starbucks Coffee", "old_name": "Odeon", "opening_hours": "Mo-Fr 06:30-21:00; Sa 09:00-20:00", "takeaway": "yes"}}, {"type": "node", "id": 816080547, "lat": -22.9105341, "lon": -43.1761906, "tags": {"amenity": "cafe", "name": "Path\u00e9"}}, {"type": "node", "id": 816125437, "lat": -22.9252669, "lon": -43.2363637, "tags": {"amenity": "cafe", "name": "La Phenix Gourmet"}}, {"type": "node", "id": 816125451, "lat": -22.9240219, "lon": -43.2372328, "tags": {"amenity": "cafe", "name": "Galp\u00e3o do P\u00e3o"}}, {"type": "node", "id": 829100275, "lat": -22.9037899, "lon": -43.2841872, "tags": {"amenity": "cafe", "name": "Esta\u00e7\u00e3o do P\u00e3o"}}, {"type": "node", "id": 939191688, "lat": -22.9347099, "lon": -43.1803132, "tags": {"amenity": "cafe", "name": "Salvatore"}}, {"type": "node", "id": 996872795, "lat": -22.9093087, "lon": -43.1718819, "tags": {"amenity": "cafe", "brand": "Rei do Mate", "brand:wikidata": "Q7309875", "cuisine": "tea", "name": "Rei do Mate", "takeaway": "yes"}}, {"type": "node", "id": 1186720948, "lat": -22.9439398, "lon": -43.1823637, "tags": {"addr:city": "Rio de Janeiro", "addr:housenumber": "10", "addr:street": "Rua Marqu\u00eas de Olinda", "addr:suburb": "Botafogo", "amenity": "cafe", "cuisine": "brazilian", "name": "Caf\u00e9 do P\u00e1tio", "source": "survey"}}, {"type": "node", "id": 1219000568, "lat": -22.9846193, "lon": -43.2008776, "tags": {"amenity": "cafe", "cuisine": "brazilian;burger;sandwich", "name": "Baked - Paderia & Forneria", "name:en": "Nectar"}}, {"type": "node", "id": 1219009624, "lat": -22.9851004, "lon": -43.2009366, "tags": {"amenity": "cafe", "name": "Cafe\u00edna", "wheelchair": "limited"}}, {"type": "node", "id": 1219014079, "lat": -22.9852585, "lon": -43.200942, "tags": {"amenity": "cafe", "name": "Colher de Pau"}}, {"type": "node", "id": 1237891509, "lat": -22.9069977, "lon": -43.1760509, "tags": {"amenity": "cafe", "name": "Nicola", "source": "survey"}}, {"type": "node", "id": 1343584311, "lat": -22.9833956, "lon": -43.2092858, "tags": {"addr:housenumber": "117", "addr:postcode": "22421-010", "addr:street": "Rua Garcia D'\u00c1vila", "amenity": "cafe", "contact:phone": "0800-777-7737", "cuisine": "coffee_shop", "int_name": "Nespresso", "name": "Nespresso Ipanema", "website": "http://www.nespresso.com", "wifi": "no"}}, {"type": "node", "id": 1343784873, "lat": -22.9861365, "lon": -43.2280398, "tags": {"amenity": "cafe", "cuisine": "coffee_shop", "name": "Cafe\u00edna"}}, {"type": "node", "id": 1343784882, "lat": -22.9852228, "lon": -43.2279915, "tags": {"addr:housenumber": "106 / A", "addr:street": "Rua Dias Ferreira", "amenity": "cafe", "cuisine": "coffee_shop", "name": "Envidia", "phone": "02125121313", "website": "http://www.envidia.com.br"}}, {"type": "node", "id": 1345399053, "lat": -22.982905, "lon": -43.2264234, "tags": {"amenity": "cafe", "cuisine": "coffee_shop", "name": "Caf\u00e9 Severino"}}, {"type": "node", "id": 1360905911, "lat": -22.983946, "lon": -43.219571, "tags": {"addr:housenumber": "375", "addr:street": "Avenida Ataulfo de Paiva", "amenity": "cafe", "description": "Caf\u00e9 da manh\u00e3, expresso, caf\u00e9 mo\u00eddo na hora.", "name": "Armaz\u00e9m do Caf\u00e9", "opening_hours": "Mo-Th 09:00-22:00; Fr,Sa 09:00-23:30; Su 10:00-22:00"}}, {"type": "node", "id": 1457107118, "lat": -22.9033811, "lon": -43.1760335, "tags": {"amenity": "cafe", "name": "Il Piccolo Caff\u00e8"}}, {"type": "node", "id": 1619538335, "lat": -22.9028733, "lon": -43.1722492, "tags": {"amenity": "cafe", "brand": "Rei do Mate", "brand:wikidata": "Q7309875", "cuisine": "tea", "name": "Rei do Mate", "takeaway": "yes"}}, {"type": "node", "id": 1786392107, "lat": -22.9653049, "lon": -43.2269306, "tags": {"addr:housenumber": "812", "addr:street": "Rua Pacheco Le\u00e3o", "amenity": "cafe", "name": "Joj\u00f4", "opening_hours": "Mo 13:00-20:00; Tu,We 17:00-24:00; Th 17:00-01:00; Fr,Sa 13:00-01:00", "phone": "+55-21-35659007", "website": "http://www.jojocafe.com.br/"}}, {"type": "node", "id": 1787485809, "lat": -22.9117147, "lon": -43.202405}, {"type": "node", "id": 1814202909, "lat": -22.9423559, "lon": -43.1814069, "tags": {"amenity": "cafe", "brand": "Starbucks", "brand:wikidata": "Q37158", "brand:wikipedia": "en:Starbucks", "cuisine": "coffee_shop", "internet_access": "yes", "name": "Starbucks", "official_name": "Starbucks Coffee", "outdoor_seating": "yes", "takeaway": "yes"}}, {"type": "node", "id": 1910062514, "lat": -22.9708189, "lon": -43.2247307, "tags": {"amenity": "cafe", "name": "La Bicyclette", "name:pt": "Jarbo Cafe e Brasserie"}}, {"type": "node", "id": 1963006876, "lat": -22.9506475, "lon": -43.1847793, "tags": {"addr:city": "Rio de Janeiro", "addr:country": "BR", "addr:housenumber": "100 Loja 121", "addr:street": "Rua Nelson Mandela", "amenity": "cafe", "name": "Venda Mineira", "website": "https://www.facebook.com/vendamineira"}}, {"type": "node", "id": 1972470561, "lat": -22.963212, "lon": -43.2166825, "tags": {"amenity": "cafe", "name": "Kopenhagen", "source": "survey"}}, {"type": "node", "id": 2004203226, "lat": -22.910656, "lon": -43.1703, "tags": {"amenity": "cafe", "name": "Magnus Gourmet"}}, {"type": "node", "id": 2021881732, "lat": -22.845738, "lon": -43.3123667, "tags": {"amenity": "cafe", "name": "Mr. Fit Caf\u00e9", "source": "survey"}}, {"type": "node", "id": 2039081752, "lat": -22.9529527, "lon": -43.1889564, "tags": {"amenity": "cafe", "brand": "Rei do Mate", "brand:wikidata": "Q7309875", "cuisine": "tea", "name": "Rei do Mate", "source": "survey", "takeaway": "yes"}}, {"type": "node", "id": 2046834036, "lat": -22.9650393, "lon": -43.2198332, "tags": {"amenity": "cafe", "name": "Lun\u00e1tico Caf\u00e9 e Cultura", "phone": "+55-21-31140098", "source": "survey", "website": "http://www.lunaticocafeecultura.com"}}, {"type": "node", "id": 2054505441, "lat": -22.9537719, "lon": -43.1959539, "tags": {"addr:city": "Rio de Janeiro", "addr:housenumber": "132", "addr:street": "Rua Conde de Iraj\u00e1", "amenity": "cafe", "cuisine": "cake", "name": "Cake & Co.", "smoking": "no", "source": "walking"}}, {"type": "node", "id": 2083473607, "lat": -22.9580187, "lon": -43.1996228, "tags": {"amenity": "cafe", "name": "Confeitaria Uni\u00e3o"}}, {"type": "node", "id": 2148899914, "lat": -22.984197, "lon": -43.1906832, "tags": {"amenity": "cafe", "name": "Lopes"}}, {"type": "node", "id": 2148899915, "lat": -22.9853396, "lon": -43.1900618, "tags": {"amenity": "cafe", "name": "Casa da Empada"}}, {"type": "node", "id": 2167799847, "lat": -22.9318287, "lon": -43.2400122, "tags": {"addr:city": "Rio de Janeiro", "addr:housenumber": "664", "addr:street": "Rua Conde de Bonfim", "addr:suburb": "Tijuca", "amenity": "cafe", "name": "Otto Caf\u00e9", "opening_hours": "08:00-22:00", "phone": "+55 21 2268-2410", "website": "http://www.ottocafe.com.br/"}}, {"type": "node", "id": 2174317792, "lat": -22.9048144, "lon": -43.2890192, "tags": {"amenity": "cafe", "cuisine": "coffee_shop", "name": "Panneteria"}}, {"type": "node", "id": 2182536391, "lat": -22.9767958, "lon": -43.1903849, "tags": {"amenity": "cafe", "name": "Stalos", "opening_hours": "24/7", "phone": "+55-21-25215143", "source": "survey", "website": "https://www.staloscafe.com.br/"}}, {"type": "node", "id": 2187739255, "lat": -22.9048711, "lon": -43.1756655, "tags": {"amenity": "cafe", "name": "Beirute", "source": "survey"}}, {"type": "node", "id": 2249643998, "lat": -22.9489807, "lon": -43.1834442, "tags": {"amenity": "cafe", "name": "Moinho", "source": "survey"}}, {"type": "node", "id": 2294868399, "lat": -22.8991198, "lon": -43.1790379, "tags": {"addr:city": "Rio de Janeiro", "addr:housenumber": "191 A", "addr:street": "Rua da Quitanda", "amenity": "cafe", "cuisine": "coffee_shop", "internet_access": "wlan", "name": "Rubro Caf\u00e9"}}, {"type": "node", "id": 2322537077, "lat": -22.9560107, "lon": -43.1966304, "tags": {"amenity": "cafe", "name": "Caf\u00e9 Botanica", "source": "survey"}}, {"type": "node", "id": 2322537081, "lat": -22.9562506, "lon": -43.1965581, "tags": {"amenity": "cafe", "name": "Caf\u00e9 Sorelle", "source": "survey"}}, {"type": "node", "id": 2322537082, "lat": -22.9561597, "lon": -43.1963165, "tags": {"amenity": "cafe", "brand": "Kopenhagen", "brand:wikidata": "Q10314624", "name": "Kopenhagen", "shop": "chocolate", "source": "survey"}}, {"type": "node", "id": 2322567465, "lat": -22.9558139, "lon": -43.1962633, "tags": {"amenity": "cafe", "name": "Chez Regina", "source": "survey"}}, {"type": "node", "id": 2322567482, "lat": -22.9556853, "lon": -43.1971412, "tags": {"amenity": "cafe", "name": "Brownieria", "phone": "+55-21-25374438", "source": "survey"}}, {"type": "node", "id": 2380157212, "lat": -22.9511938, "lon": -43.183326, "tags": {"addr:city": "Rio de Janeiro", "addr:country": "BR", "addr:housenumber": "45c", "addr:street": "Rua Volunt\u00e1rios da P\u00e1tria", "amenity": "cafe", "brand": "Rei do Mate", "brand:wikidata": "Q7309875", "cuisine": "tea", "name": "Rei do Mate", "source": "survey", "takeaway": "yes"}}, {"type": "node", "id": 2429157442, "lat": -22.8934168, "lon": -43.1209935, "tags": {"amenity": "cafe", "name": "Cia Caf\u00e9", "source": "survey"}}, {"type": "node", "id": 2429157663, "lat": -22.893468, "lon": -43.1185649, "tags": {"amenity": "cafe", "source": "survey"}}, {"type": "node", "id": 2429268079, "lat": -22.8937764, "lon": -43.1187985, "tags": {"amenity": "cafe", "name": "Coffee Point", "source": "survey"}}, {"type": "node", "id": 2507850931, "lat": -22.9750576, "lon": -43.2273159, "tags": {"amenity": "cafe", "name": "Thalho Delicatessen"}}, {"type": "node", "id": 2563113442, "lat": -22.9702666, "lon": -43.224718, "tags": {"amenity": "cafe", "name": "Caf\u00e9 Bot\u00e2nica"}}, {"type": "node", "id": 2614715817, "lat": -22.9643734, "lon": -43.2034262, "tags": {"amenity": "cafe"}}, {"type": "node", "id": 2614717157, "lat": -22.9653611, "lon": -43.2023185, "tags": {"amenity": "cafe", "name": "Confeitaria Santa Marta"}}, {"type": "node", "id": 2632267334, "lat": -22.981686, "lon": -43.1908947, "tags": {"addr:city": "Rio de Janeiro", "addr:housename": "Apetite Caf\u00e9", "addr:housenumber": "68", "addr:postcode": "22081-010", "addr:street": "Rua Souza Lima", "amenity": "cafe", "cuisine": "Caf\u00e9,_deli_e_padaria", "name": "Apetite Caf\u00e9 e Delicatessen", "opening_hours": "08:00-20:00"}}, {"type": "node", "id": 2747719890, "lat": -22.9025553, "lon": -43.1767261, "tags": {"amenity": "cafe", "name": "Uniko"}}, {"type": "node", "id": 2857238601, "lat": -22.9842531, "lon": -43.2010959, "tags": {"amenity": "cafe", "brand": "Starbucks", "brand:wikidata": "Q37158", "brand:wikipedia": "en:Starbucks", "cuisine": "coffee_shop", "name": "Starbucks", "takeaway": "yes"}}, {"type": "node", "id": 2860226001, "lat": -22.9128972, "lon": -43.2088461, "tags": {"amenity": "cafe", "name": "La Fattoria"}}, {"type": "node", "id": 2960219600, "lat": -22.9647491, "lon": -43.2202583, "tags": {"amenity": "cafe", "cuisine": "coffee_shop", "name": "Casa Caranda\u00ed"}}, {"type": "node", "id": 2983981943, "lat": -22.9690972, "lon": -43.1848342, "tags": {"addr:housenumber": "53", "addr:street": "Rua Siqueira Campos", "amenity": "cafe", "bicycle_parking": "stands", "capacity": "4", "covered": "no", "fee": "no", "name": "Boni's Gourmet Copacabana"}}, {"type": "node", "id": 3142226955, "lat": -22.9799607, "lon": -43.2328335, "tags": {"addr:city": "Rio de Janeiro", "addr:housename": "Edificio Cardeal Leme", "addr:housenumber": "225", "addr:postcode": "22451-900", "addr:street": "Rua Marqu\u00eas de S\u00e3o Vicente", "amenity": "cafe", "name": "Cafeteria Mr. Ali", "source": "Field Survey"}}, {"type": "node", "id": 3215899665, "lat": -23.0204965, "lon": -43.4878118, "tags": {"amenity": "cafe", "brand": "Rei do Mate", "brand:wikidata": "Q7309875", "cuisine": "tea", "name": "Rei do Mate", "takeaway": "yes"}}, {"type": "node", "id": 3296531809, "lat": -22.9044843, "lon": -43.1849316, "tags": {"amenity": "cafe"}}, {"type": "node", "id": 3306091865, "lat": -22.9598005, "lon": -43.2121995, "tags": {"amenity": "cafe", "cuisine": "coffee_shop", "name": "Plage Cafe", "name:pt": "Bistr\u00f4 Plage"}}, {"type": "node", "id": 3391965249, "lat": -22.9845785, "lon": -43.2027331, "tags": {"addr:city": "Rio de Janeiro", "addr:housenumber": "80", "addr:street": "Rua Vin\u00edcius de Moraes", "addr:suburb": "Ipanema", "amenity": "cafe", "name": "Caf\u00e9 e Bar Bebadela", "phone": "+55 21 2287-0393"}}, {"type": "node", "id": 3447126291, "lat": -22.9887577, "lon": -43.3592404, "tags": {"amenity": "cafe", "name": "Dona Chica"}}, {"type": "node", "id": 3447126901, "lat": -22.9892452, "lon": -43.3593441, "tags": {"amenity": "cafe", "name": "Ristoretto"}}, {"type": "node", "id": 3634794006, "lat": -22.9157485, "lon": -43.2216305, "tags": {"amenity": "cafe", "name": "Catarina"}}, {"type": "node", "id": 3670533926, "lat": -22.9057715, "lon": -43.1746782, "tags": {"addr:city": "Rio de Janeiro", "addr:housenumber": "277", "addr:street": "Avenida Erasmo Braga", "addr:suburb": "Centro", "amenity": "cafe", "name": "Carmelo Caf\u00e9", "phone": "+55 21 2210-5040", "website": "http://www.carmelocafe.com.br/"}}, {"type": "node", "id": 3725345291, "lat": -22.960522, "lon": -43.2048291, "tags": {"addr:street": "Rua Jardim Bot\u00e2nico", "addr:suburb": "Jardim Botanico", "amenity": "cafe", "cuisine": "coffee_shop", "name": "Guerin"}}, {"type": "node", "id": 3753528502, "lat": -22.9028982, "lon": -43.1766573, "tags": {"amenity": "cafe", "name": "Armaz\u00e9m do Caf\u00e9", "phone": "+55 21 2267-5121", "website": "http://www.armazemdocafe.com.br/"}}, {"type": "node", "id": 3773273564, "lat": -22.9346017, "lon": -43.1766433, "tags": {"amenity": "cafe", "name": "Sr. Ca"}}, {"type": "node", "id": 3786831724, "lat": -22.9045286, "lon": -43.175588, "tags": {"amenity": "cafe", "brand": "Starbucks", "brand:wikidata": "Q37158", "brand:wikipedia": "en:Starbucks", "cuisine": "coffee_shop", "name": "Starbucks", "official_name": "Starbucks Coffee", "takeaway": "yes"}}, {"type": "node", "id": 3801636596, "lat": -22.9993309, "lon": -43.3666861, "tags": {"amenity": "cafe", "cuisine": "coffee_shop", "level": "1", "name": "Caf\u00e9 das Artes"}}, {"type": "node", "id": 4173572894, "lat": -22.9512647, "lon": -43.1846708, "tags": {"addr:housenumber": "86", "addr:street": "Rua Volunt\u00e1rios da P\u00e1tria", "amenity": "cafe", "name": "Le D\u00e9panneur Delicatessen", "opening_hours": "Su-Fr 08:00-22:00; Sa 08:00-23:30", "shop": "bakery"}}, {"type": "node", "id": 4223704489, "lat": -22.9783176, "lon": -43.1907899, "tags": {"addr:street": "Avenida Nossa Senhora de Copacabana", "amenity": "cafe", "brand": "Starbucks", "brand:wikidata": "Q37158", "brand:wikipedia": "en:Starbucks", "cuisine": "coffee_shop", "name": "Starbucks", "takeaway": "yes"}}, {"type": "node", "id": 4226761507, "lat": -22.9662479, "lon": -43.1788843, "tags": {"addr:city": "Rio de Janeiro", "addr:housenumber": "300", "addr:street": "Avenida Nossa Senhora de Copacabana", "addr:suburb": "Copacabana", "amenity": "cafe", "cuisine": "coffee_shop", "internet_access": "yes", "name": "Sof\u00e1 Caf\u00e9", "opening_hours": "Mo-Sa 08:00-20:00", "phone": "+55 21 25439107", "smoking": "no", "website": "https://www.sofacafe.com.br/"}}, {"type": "node", "id": 4226770690, "lat": -22.9663135, "lon": -43.1790305, "tags": {"amenity": "cafe", "name": "PEK 170"}}, {"type": "node", "id": 4227137092, "lat": -22.9650474, "lon": -43.176666, "tags": {"amenity": "cafe", "name": "Boulangerie Guerin"}}, {"type": "node", "id": 4265596579, "lat": -22.9411206, "lon": -43.1920255}, {"type": "node", "id": 4286212490, "lat": -22.9023848, "lon": -43.1724894, "tags": {"amenity": "cafe", "name": "Art Caf\u00e9"}}, {"type": "node", "id": 4317534571, "lat": -22.9087753, "lon": -43.1857022}, {"type": "node", "id": 4317534795, "lat": -22.9088064, "lon": -43.1858092}, {"type": "node", "id": 4317534801, "lat": -22.9088292, "lon": -43.1856825}, {"type": "node", "id": 4317534818, "lat": -22.9088613, "lon": -43.1857902}, {"type": "node", "id": 4317538822, "lat": -22.9122854, "lon": -43.1851589}, {"type": "node", "id": 4317538831, "lat": -22.9122944, "lon": -43.1851165}, {"type": "node", "id": 4317539339, "lat": -22.9124363, "lon": -43.1851866}, {"type": "node", "id": 4317539346, "lat": -22.9124505, "lon": -43.1851099}, {"type": "node", "id": 4317539394, "lat": -22.9123619, "lon": -43.185093}, {"type": "node", "id": 4325457131, "lat": -22.909619, "lon": -43.1936912, "tags": {"amenity": "cafe", "name": "Estrela Caf\u00e9"}}, {"type": "node", "id": 4326246962, "lat": -22.9696227, "lon": -43.1869652, "tags": {"addr:city": "Rio de Janeiro", "addr:housenumber": "467", "addr:postcode": "22040-000", "addr:street": "Rua Barata Ribeiro", "addr:suburb": "Copacabana", "amenity": "cafe", "brand": "Rei do Mate", "brand:wikidata": "Q7309875", "cuisine": "tea", "drive_through": "no", "name": "Rei do Mate", "phone": "+55 21 2235-6017", "takeaway": "yes", "website": "https://www.reidomate.com.br/"}}, {"type": "node", "id": 4336048609, "lat": -22.8949638, "lon": -43.2803913}, {"type": "node", "id": 4336048610, "lat": -22.8949057, "lon": -43.2803493}, {"type": "node", "id": 4336048611, "lat": -22.8949992, "lon": -43.2801718}, {"type": "node", "id": 4336048612, "lat": -22.8950541, "lon": -43.2802104}, {"type": "node", "id": 4346448896, "lat": -22.9522325, "lon": -43.1759974, "tags": {"amenity": "cafe", "name": "Caf\u00e9 Sorvetes"}}, {"type": "node", "id": 4413621189, "lat": -22.9839512, "lon": -43.2076988, "tags": {"amenity": "cafe", "cuisine": "breakfast;coffee_shop;french", "name:en": "Boulangerie Guerin"}}, {"type": "node", "id": 4413621690, "lat": -22.9844727, "lon": -43.2249613, "tags": {"amenity": "cafe", "name:en": "Cafe Leblon"}}, {"type": "node", "id": 4415774589, "lat": -22.9780235, "lon": -43.1905536, "tags": {"addr:housenumber": "1033", "addr:street": "Av. N. S. de Copacabana", "amenity": "cafe", "cuisine": "coffee_shop;brazilian;breakfast;burger", "name:en": "Kic\u00ea Sucos"}}, {"type": "node", "id": 4418219490, "lat": -22.9213109, "lon": -43.1864839, "tags": {"amenity": "cafe", "name:en": "Cafecito", "website": "http://wwe.cafecito.com.br"}}, {"type": "node", "id": 4419632389, "lat": -22.9494153, "lon": -43.1844519, "tags": {"addr:street": "Rue Sao Clemente", "amenity": "cafe", "cuisine": "coffee_shop", "name:en": "Expressa Mente", "name:pt": "Expressa Mente"}}, {"type": "node", "id": 4433388332, "lat": -22.9559548, "lon": -43.1815052, "tags": {"addr:housenumber": "91", "addr:street": "Rua Fernandes Guimar\u00e3es", "amenity": "cafe", "internet_access": "yes", "internet_access:fee": "no", "name": "Fica Caf\u00e9", "opening_hours": "Tu-Fr 10:00-19:00; Sa 10:00-14:00", "shop": "coffee", "smoking": "no"}}, {"type": "node", "id": 4486019789, "lat": -22.9498774, "lon": -43.1905927, "tags": {"addr:housenumber": "254", "addr:street": "Rua S\u00e3o Clemente", "amenity": "cafe", "email": "pasticceriabloise@gmail.com", "name": "Bloise Bistro", "website": "http://www.pasticceriabloise.com.br/"}}, {"type": "node", "id": 4503496654, "lat": -22.905204, "lon": -43.1787925, "tags": {"addr:housenumber": "32 centro", "addr:street": "Rua Gon\u00e7alves Dias", "amenity": "cafe", "amenity_1": "restaurant", "name": "Confeitaria Colombo", "opening_hours": "Mo-Fr 09:00-19:30; Sa 09:00-17:30", "phone": "+55 21 2505 1500", "tourism": "attraction"}}, {"type": "node", "id": 4517299607, "lat": -22.9106929, "lon": -43.1711254, "tags": {"amenity": "cafe"}}, {"type": "node", "id": 4524090875, "lat": -22.9513742, "lon": -43.1847907, "tags": {"amenity": "cafe", "name": "Esta\u00e7\u00e3o Caf\u00e9"}}, {"type": "node", "id": 4525520368, "lat": -22.9665414, "lon": -43.2266724, "tags": {"amenity": "cafe", "opening_hours": "09:00-18:00"}}, {"type": "node", "id": 4529285683, "lat": -22.9101641, "lon": -43.174365, "tags": {"amenity": "cafe", "name": "D\u00e9guster Caf\u00e9"}}, {"type": "node", "id": 4529285684, "lat": -22.908882, "lon": -43.1712192, "tags": {"amenity": "cafe", "name": "Mate Inn"}}, {"type": "node", "id": 4536046405, "lat": -22.9049126, "lon": -43.1789466, "tags": {"amenity": "cafe", "brand": "Starbucks", "brand:wikidata": "Q37158", "brand:wikipedia": "en:Starbucks", "cuisine": "coffee_shop", "name": "Starbucks", "official_name": "Starbucks Coffee", "takeaway": "yes"}}, {"type": "node", "id": 4573825034, "lat": -23.0150688, "lon": -43.4667164, "tags": {"amenity": "cafe", "cuisine": "coffee_shop", "level": "0", "name": "Papel Imagem Caf\u00e9", "outdoor_seating": "yes"}}, {"type": "node", "id": 4587505603, "lat": -22.8912329, "lon": -43.6760716, "tags": {"amenity": "cafe", "name": "Caf\u00e9 Fofoca", "name:pt": "Caf\u00e9 Fofoca"}}, {"type": "node", "id": 4605766659, "lat": -22.7608746, "lon": -43.1085513, "tags": {"amenity": "cafe"}}, {"type": "node", "id": 4663104192, "lat": -22.9103597, "lon": -43.1880559, "tags": {"amenity": "cafe", "name": "Caf\u00e9 Senado", "name:pt": "Caf\u00e9 Senado", "opening_hours": "Mo-Fr 09:00-19:00; Sa-Su 09:00-12:00"}}, {"type": "node", "id": 4674918317, "lat": -23.0210676, "lon": -43.4881596, "tags": {"amenity": "cafe", "level": "1", "name": "Melhor Gr\u00e3o"}}, {"type": "node", "id": 4689081629, "lat": -22.8952719, "lon": -43.1238355, "tags": {"amenity": "cafe", "level": "0", "name": "Caf\u00e9 e Bar Calif\u00f3rnia"}}, {"type": "node", "id": 4690659837, "lat": -22.9856073, "lon": -43.2263352, "tags": {"amenity": "cafe"}}, {"type": "node", "id": 4696338150, "lat": -23.021709, "lon": -43.4882644, "tags": {"amenity": "cafe", "level": "0", "name": "California Coffee"}}, {"type": "node", "id": 4697710529, "lat": -23.0166794, "lon": -43.4601229, "tags": {"amenity": "cafe", "cuisine": "american", "name": "California Coffee"}}, {"type": "node", "id": 4711689190, "lat": -23.0142145, "lon": -43.4693213, "tags": {"amenity": "cafe"}}, {"type": "node", "id": 4833756753, "lat": -22.9117503, "lon": -43.2023232}, {"type": "node", "id": 4833756754, "lat": -22.9117332, "lon": -43.2024093}, {"type": "node", "id": 4833756796, "lat": -22.9116805, "lon": -43.2023037}, {"type": "node", "id": 4874963958, "lat": -22.9038056, "lon": -43.174583, "tags": {"addr:city": "Rio de Janeiro", "addr:housenumber": "48", "addr:postcode": "20010-010", "addr:street": "Pra\u00e7a Quinze de Novembro", "addr:suburb": "Centro", "amenity": "cafe", "level": "0", "name": "Arlequim", "opening_hours": "Mo-Sa 10:00-20:00; Sa 10:00-18:00", "phone": "+55 21 2220-8471;2524-7242", "shop": "books"}}, {"type": "node", "id": 4874963959, "lat": -22.9035503, "lon": -43.1743436, "tags": {"addr:city": "Rio de Janeiro", "addr:housenumber": "48", "addr:postcode": "20010-010", "addr:street": "Pra\u00e7a Quinze de Novembro", "addr:suburb": "Centro", "amenity": "cafe", "cuisine": "swiss;german;coffee_shop;french", "internet_access": "no", "level": "0", "name": "Bistr\u00f4 do Pa\u00e7o", "note": "localizado dentro do Pa\u00e7o Imperial, sem acesso ao exterior do edif\u00edcio.", "opening_hours": "Mo-Su 11:30-19:30; Sa-Su 12:00-19:00", "outdoor_seating": "no", "phone": "+55 21 2262-3613", "smoking": "outside"}}, {"type": "node", "id": 4908912257, "lat": -22.8929736, "lon": -43.1935719, "tags": {"amenity": "cafe", "fixme": "confirmar posi\u00e7\u00e3o dentro do aqu\u00e1rio", "operator": "AquaRio"}}, {"type": "node", "id": 4910766246, "lat": -22.8991255, "lon": -43.1788503, "tags": {"amenity": "cafe", "brand": "Casa do P\u00e3o de Queijo", "brand:wikidata": "Q9698946", "cuisine": "coffee_shop", "name": "Casa do P\u00e3o de Queijo", "takeaway": "yes"}}, {"type": "node", "id": 4917145721, "lat": -22.9740776, "lon": -43.1887359, "tags": {"amenity": "cafe", "cuisine": "sandwich;breakfast;brazilian;savory_pancakes;tea;coffee_shop", "name": "Cafeina", "name:pt": "Cafeina"}}, {"type": "node", "id": 4931507121, "lat": -22.9055972, "lon": -43.1755139, "tags": {"amenity": "cafe", "internet_access": "no", "name": "Curto Caf\u00e9", "opening_hours": "Mo-Fr 10:00-17:00", "outdoor_seating": "no", "smoking": "no", "website": "https://www.facebook.com/curtocafe/"}}, {"type": "node", "id": 4937705785, "lat": -22.906484, "lon": -43.1700034, "tags": {"amenity": "cafe", "name": "Caf\u00e9 do P\u00e1tio"}}, {"type": "node", "id": 5002292040, "lat": -23.022514, "lon": -43.4876113, "tags": {"access": "private", "amenity": "cafe", "cuisine": "coffee_shop", "delivery": "yes", "level": "2", "name": "UPLife Caf\u00e9", "outdoor_seating": "no", "takeaway": "yes"}}, {"type": "node", "id": 5052419323, "lat": -22.8701771, "lon": -43.2936895, "tags": {"addr:street": "Rua Ibiapaba", "amenity": "cafe", "internet_access": "yes", "internet_access:ssid": "khjlkl\u00e7j"}}, {"type": "node", "id": 5072099715, "lat": -22.9113131, "lon": -43.185081, "tags": {"addr:city": "Rio de Janeiro", "addr:housenumber": "126", "addr:postcode": "20231-045", "addr:street": "Rua dos Inv\u00e1lidos", "addr:suburb": "Lapa", "amenity": "cafe", "name": "Fazenda Paradiso Caf\u00e9", "opening_hours": "Mo-Fr 08:00-19:00"}}, {"type": "node", "id": 5090208264, "lat": -22.9108594, "lon": -43.1846662, "tags": {"addr:city": "Rio de Janeiro", "addr:door": "Loja B", "addr:housenumber": "49 - Loja B", "addr:postcode": "20231-110", "addr:street": "Rua da Rela\u00e7\u00e3o", "addr:suburb": "Lapa", "amenity": "cafe", "name": "Trastevere Caf\u00e9 Bar"}}, {"type": "node", "id": 5090410927, "lat": -22.9108537, "lon": -43.1837306, "tags": {"addr:city": "Rio de Janeiro", "addr:housenumber": "453", "addr:postcode": "20231-014", "addr:street": "Avenida Gomes Freire", "addr:suburb": "Lapa", "amenity": "cafe", "name": "Lapa Caf\u00e9"}}, {"type": "node", "id": 5100483521, "lat": -22.9983632, "lon": -43.3467542, "tags": {"addr:housenumber": "3434", "addr:postcode": "22640-102", "addr:street": "Avenida das Am\u00e9ricas", "amenity": "cafe", "name": "Due Caf\u00e9", "name:en": "Due Caf\u00e9", "name:pt": "Due Caf\u00e9", "phone": "34313622"}}, {"type": "node", "id": 5216040623, "lat": -22.9220126, "lon": -43.2372584, "tags": {"amenity": "cafe", "name": "F\u00e1brica de Bolo da V\u00f3 Alzira"}}, {"type": "node", "id": 5586852422, "lat": -22.9516688, "lon": -43.1846367, "tags": {"addr:street": "Rua Volunt\u00e1rios da P\u00e1tria", "amenity": "cafe", "brand": "Starbucks", "brand:wikidata": "Q37158", "brand:wikipedia": "en:Starbucks", "cuisine": "coffee_shop", "name": "Starbucks", "official_name": "Starbucks Coffee", "opening_hours": "Mo-Su 07:00-21:00", "takeaway": "yes"}}, {"type": "node", "id": 5994418544, "lat": -22.9992596, "lon": -43.3590774, "tags": {"amenity": "cafe", "name": "Caf\u00e9 com Canela"}}, {"type": "node", "id": 6184875034, "lat": -22.8918988, "lon": -43.2795795, "tags": {"amenity": "cafe", "name": "F\u00e1brica de bolos Graja\u00fa"}}, {"type": "node", "id": 6244306672, "lat": -22.9229555, "lon": -43.176183, "tags": {"amenity": "cafe", "name": "Maya Caf\u00e9", "opening_hours": "Mo-Th 9:00-19:00; Fr 9:00-22:30", "phone": "+55 21 3251-3027", "website": "https://mayacafe.com.br/lojas/"}}, {"type": "node", "id": 6266405509, "lat": -22.985559, "lon": -43.1858939, "tags": {"amenity": "cafe", "name": "Cafe 18 do Forte"}}, {"type": "node", "id": 6276940685, "lat": -22.9049723, "lon": -43.177484, "tags": {"amenity": "cafe", "brand": "Starbucks", "brand:wikidata": "Q37158", "cuisine": "coffee_shop", "name": "Starbucks", "name:en": "Starbucks", "official_name": "Starbucks Coffee", "takeaway": "yes"}}, {"type": "node", "id": 6279573985, "lat": -22.9033603, "lon": -43.1787188, "tags": {"amenity": "cafe", "name": "Bela Mix"}}, {"type": "node", "id": 6291567786, "lat": -22.8978623, "lon": -43.1805768, "tags": {"amenity": "cafe", "name": "MegaMatte"}}, {"type": "node", "id": 6291567787, "lat": -22.9032498, "lon": -43.1787814, "tags": {"amenity": "cafe", "name": "MegaMatte"}}, {"type": "node", "id": 6291587186, "lat": -22.9035182, "lon": -43.1785543, "tags": {"amenity": "cafe", "brand": "Starbucks", "brand:wikidata": "Q37158", "brand:wikipedia": "en:Starbucks", "cuisine": "coffee_shop", "name": "Starbucks", "official_name": "Starbucks Coffee", "takeaway": "yes"}}, {"type": "node", "id": 6297346389, "lat": -22.9062457, "lon": -43.175101, "tags": {"amenity": "cafe", "name": "MegaMatte"}}, {"type": "node", "id": 6297359188, "lat": -22.9148382, "lon": -43.1885385, "tags": {"amenity": "cafe", "name": "MegaMatte"}}, {"type": "node", "id": 6302483585, "lat": -22.9105801, "lon": -43.1771666, "tags": {"amenity": "cafe", "name": "MegaMatte"}}, {"type": "node", "id": 6307188485, "lat": -22.9007819, "lon": -43.1794354, "tags": {"amenity": "cafe", "name": "MegaMatte"}}, {"type": "node", "id": 6307188488, "lat": -22.9684252, "lon": -43.1835915, "tags": {"amenity": "cafe", "name": "MegaMatte"}}, {"type": "node", "id": 6314867303, "lat": -22.9119598, "lon": -43.2020905, "tags": {"amenity": "cafe", "name": "Soho"}}, {"type": "node", "id": 6319497985, "lat": -22.9322568, "lon": -43.1774666, "tags": {"amenity": "cafe", "name": "Elias"}}, {"type": "node", "id": 6331371485, "lat": -22.9103789, "lon": -43.1830154, "tags": {"amenity": "cafe", "name": "MegaMatte"}}, {"type": "node", "id": 6331812485, "lat": -23.0108762, "lon": -43.3046544, "tags": {"amenity": "cafe", "name": "MegaMatte"}}, {"type": "node", "id": 6380071939, "lat": -22.9070552, "lon": -43.1772193, "tags": {"amenity": "cafe", "cuisine": "coffee_shop"}}, {"type": "node", "id": 6407204385, "lat": -22.9035025, "lon": -43.1837858, "tags": {"amenity": "cafe", "name": "MegaMatte"}}, {"type": "node", "id": 6484248188, "lat": -22.9845069, "lon": -43.207008, "tags": {"addr:housenumber": "62", "addr:street": "Rua Maria Quit\u00e9ria", "amenity": "cafe", "cuisine": "breakfast;coffee_shop;diner;sandwich", "email": "comercial@emporiojardimrio.com.br", "name": "Emporio Jardim la Praia", "name:en": "Emporio Jardim na Praia", "name:pt": "Emporio Jardim na Praia", "name:sv": "Emporio Jardim na Praia", "opening_hours": "Mo-Su 08:00-18:00", "phone": "+552125359862", "website": "https://www.emporiojardimrio.com.br/"}}, {"type": "node", "id": 6600534911, "lat": -22.9341461, "lon": -43.1761831, "tags": {"addr:city": "Rio de Janeiro", "addr:housenumber": "73", "addr:street": "Rua Paissandu", "addr:suburb": "Flamengo", "amenity": "cafe", "name": "Dona Duda"}}, {"type": "node", "id": 6635973345, "lat": -22.811782, "lon": -43.2515878, "tags": {"addr:city": "Rio de Janeiro", "addr:street": "Avenida Vinte de Janeiro", "amenity": "cafe", "brand": "Casa do P\u00e3o de Queijo", "brand:wikidata": "Q9698946", "brand:wikipedia": "pt:Casa do P\u00e3o de Queijo", "cuisine": "coffee_shop", "name": "Casa do P\u00e3o de Queijo", "operator": "Atos Produtos Alimenticios Ltda", "takeaway": "yes"}}, {"type": "node", "id": 6793830200, "lat": -22.9839603, "lon": -43.213267, "tags": {"amenity": "cafe", "cuisine": "brazilian", "name": "Megamatte"}}, {"type": "node", "id": 6858736685, "lat": -22.9244262, "lon": -43.2348342, "tags": {"amenity": "cafe", "name": "Rei do Matte"}}, {"type": "node", "id": 7044403091, "lat": -22.9842337, "lon": -43.2207867, "tags": {"addr:housenumber": "79", "addr:street": "Rua Cupertino Dur\u00e3o", "amenity": "cafe", "cuisine": "brazilian;cake;coffee_shop", "name:en": "Okanossa"}}, {"type": "node", "id": 7122155473, "lat": -22.993291, "lon": -43.2559285, "tags": {"addr:city": "S\u00e3o Conrado", "addr:housenumber": "636", "addr:street": "Estrada da G\u00e1vea", "amenity": "cafe", "name": "Zona Zen", "website": "https://www.zonazen.com.br/"}}, {"type": "node", "id": 7170079070, "lat": -22.9624703, "lon": -43.2742303}, {"type": "node", "id": 7171116926, "lat": -22.9211988, "lon": -43.1846911, "tags": {"addr:housenumber": "181", "addr:street": "R. Santa Cristina", "amenity": "cafe", "name": "M\u00f4 Caf\u00e9"}}, {"type": "node", "id": 8075645474, "lat": -23.0037883, "lon": -43.3169393, "tags": {"addr:city": "Rio de Janeiro", "addr:suburb": "Barra da Tijuca", "amenity": "cafe", "level": "1", "name": "Armaz\u00e9m do Caf\u00e9", "outdoor_seating": "no"}}, {"type": "node", "id": 8075696615, "lat": -22.9851217, "lon": -43.2232, "tags": {"addr:city": "Rio de Janeiro", "addr:suburb": "Leblon", "amenity": "cafe", "brand": "Starbucks", "brand:wikidata": "Q37158", "brand:wikipedia": "en:Starbucks", "cuisine": "coffee_shop", "level": "-2", "name": "Starbucks", "official_name": "Starbucks Coffee", "outdoor_seating": "yes", "takeaway": "yes"}}, {"type": "node", "id": 8111821581, "lat": -22.9124066, "lon": -43.1668093}, {"type": "node", "id": 8111821582, "lat": -22.9125077, "lon": -43.1668033}, {"type": "node", "id": 8111821584, "lat": -22.9125113, "lon": -43.166869}, {"type": "node", "id": 8111821593, "lat": -22.9133263, "lon": -43.1664157}, {"type": "node", "id": 8111821594, "lat": -22.9132888, "lon": -43.1664645}, {"type": "node", "id": 8111821595, "lat": -22.9132856, "lon": -43.1664192}, {"type": "node", "id": 8111821596, "lat": -22.913329, "lon": -43.1664577}, {"type": "node", "id": 8111821608, "lat": -22.9130858, "lon": -43.1668377}, {"type": "node", "id": 8375226878, "lat": -22.8400388, "lon": -43.3136031, "tags": {"addr:city": "Rio de Janeiro", "addr:housenumber": "42", "addr:postcode": "21210-560", "addr:street": "Estrada Padre Roser", "addr:suburb": "Iraj\u00e1", "amenity": "cafe", "contact:instagram": "http://instagram.com/maricotaconfeitariaecafe", "cuisine": "coffee_shop;cake", "email": "contato@maricotaconfeitariaecafe.com", "facebook": "https://www.facebook.com/maricotaconfeitariaecafe", "internet_access": "no", "name": "Maricota Confeitaria e Caf\u00e9", "opening_hours": "Mo-Fr 07:00-19:00; Sa 07:00-16:00; Su 07:30-14:00", "outdoor_seating": "no", "phone": "+55 21 96813 1188", "website": "https://www.maricotaconfeitariaecafe.com.br/"}}, {"type": "node", "id": 8429184969, "lat": -22.9824221, "lon": -43.2164241, "tags": {"amenity": "cafe", "branch": "Shopping Leblon", "brand": "Starbucks", "brand:wikidata": "Q37158", "brand:wikipedia": "en:Starbucks", "cuisine": "coffee_shop", "name": "Starbucks", "official_name": "Starbucks Coffee", "phone": "+55 21 2529 2787", "takeaway": "yes", "website": "https://starbucks.com.br/"}}, {"type": "node", "id": 8625799004, "lat": -23.0406252, "lon": -43.5053782}, {"type": "node", "id": 8625799005, "lat": -23.0406467, "lon": -43.5053494}, {"type": "node", "id": 8625799006, "lat": -23.0406312, "lon": -43.5052967}, {"type": "node", "id": 8625799007, "lat": -23.0405987, "lon": -43.5053051}, {"type": "node", "id": 8625799008, "lat": -23.0405706, "lon": -43.5053284}, {"type": "node", "id": 8625799009, "lat": -23.0406028, "lon": -43.5053873}, {"type": "node", "id": 8625853021, "lat": -23.0403597, "lon": -43.5049382}, {"type": "node", "id": 8625853022, "lat": -23.0403991, "lon": -43.5048922}, {"type": "node", "id": 8625853023, "lat": -23.0403682, "lon": -43.504853}, {"type": "node", "id": 8625853024, "lat": -23.0403246, "lon": -43.5048854}, {"type": "node", "id": 9067987080, "lat": -22.8959353, "lon": -43.1235403, "tags": {"amenity": "cafe", "brand": "Rei do Mate", "brand:wikidata": "Q7309875", "brand:wikipedia": "pt:Rei do Mate", "cuisine": "tea", "name": "Rei do Mate", "takeaway": "yes"}}, {"type": "node", "id": 9074464631, "lat": -22.8936452, "lon": -43.1241624, "tags": {"amenity": "cafe", "name": "Rei do Mate"}}, {"type": "node", "id": 9074464642, "lat": -22.8932516, "lon": -43.1241982, "tags": {"amenity": "cafe", "name": "Art Caf\u00e9"}}, {"type": "node", "id": 9081296887, "lat": -22.8928345, "lon": -43.1234147, "tags": {"amenity": "cafe", "name": "Art Caf\u00e9"}}, {"type": "node", "id": 9212581448, "lat": -22.9475609, "lon": -43.1835906, "tags": {"addr:city": "Rio de Janeiro", "addr:housenumber": "400", "addr:street": "Praia de Botafogo", "addr:suburb": "Botafogo", "amenity": "cafe", "brand": "Starbucks", "brand:wikidata": "Q37158", "brand:wikipedia": "en:Starbucks", "cuisine": "coffee_shop", "internet_access": "wlan", "internet_access:fee": "customers", "level": "3", "name": "Starbucks", "official_name": "Starbucks Coffee", "outdoor_seating": "no", "takeaway": "yes"}}, {"type": "node", "id": 9222297426, "lat": -22.8379746, "lon": -43.2760893, "tags": {"addr:city": "Rio de Janeiro", "addr:housenumber": "263", "addr:street": "Rua Quito", "addr:suburb": "Penha", "amenity": "cafe", "name": "Casa do P\u00e3o"}}, {"type": "node", "id": 9222313658, "lat": -22.8400775, "lon": -43.277087, "tags": {"addr:city": "Rio de Janeiro", "addr:housenumber": "154", "addr:street": "Rua Nicar\u00e1gua", "addr:suburb": "Penha", "amenity": "cafe", "name": "Sabor do P\u00e3o"}}, {"type": "node", "id": 9327697934, "lat": -22.9508765, "lon": -43.1918636, "tags": {"amenity": "cafe", "name": "Gato Caf\u00e9"}}, {"type": "node", "id": 9379958540, "lat": -22.9122834, "lon": -43.1667627, "tags": {"access": "yes", "door": "sliding", "entrance": "yes", "level": "0", "wheelchair": "no"}}, {"type": "node", "id": 9426949816, "lat": -22.8792893, "lon": -43.4664378, "tags": {"amenity": "cafe", "name": "California Coffee"}}, {"type": "node", "id": 9460279674, "lat": -22.9625195, "lon": -43.2743138}, {"type": "node", "id": 9460279675, "lat": -22.9626355, "lon": -43.2742365}, {"type": "node", "id": 9460279676, "lat": -22.962595, "lon": -43.2741614}, {"type": "node", "id": 9460279697, "lat": -22.9625819, "lon": -43.2742712}, {"type": "node", "id": 9470193552, "lat": -22.9478728, "lon": -43.2178071, "tags": {"amenity": "cafe"}}, {"type": "node", "id": 9486275603, "lat": -22.9004969, "lon": -43.1746938, "tags": {"amenity": "cafe"}}, {"type": "node", "id": 9548541717, "lat": -22.9841156, "lon": -43.224238, "tags": {"amenity": "cafe", "name": "Pasteler\u00eda kurt"}}, {"type": "node", "id": 9604351409, "lat": -22.9411666, "lon": -43.1920444}, {"type": "node", "id": 9604351410, "lat": -22.9411351, "lon": -43.1920385}, {"type": "node", "id": 9604351411, "lat": -22.9411098, "lon": -43.1919919}, {"type": "node", "id": 9604397924, "lat": -22.9411921, "lon": -43.1920453}, {"type": "node", "id": 9604397925, "lat": -22.9411926, "lon": -43.1920211}, {"type": "node", "id": 9604397926, "lat": -22.9411543, "lon": -43.192019}, {"type": "node", "id": 9609535867, "lat": -22.9411231, "lon": -43.1919885}, {"type": "node", "id": 9621862102, "lat": -22.9298351, "lon": -43.177875}, {"type": "node", "id": 9621862109, "lat": -22.929852, "lon": -43.1777277}, {"type": "node", "id": 9621862113, "lat": -22.929805, "lon": -43.1778591}, {"type": "node", "id": 9621862114, "lat": -22.929894, "lon": -43.1777462}, {"type": "node", "id": 9621862115, "lat": -22.9298137, "lon": -43.1778349, "tags": {"entrance": "yes"}}, {"type": "node", "id": 9625185785, "lat": -22.8898244, "lon": -43.1148832, "tags": {"amenity": "cafe", "brand": "Rei do Mate", "brand:wikidata": "Q7309875", "brand:wikipedia": "pt:Rei do Mate", "cuisine": "tea", "name": "Rei do Mate", "takeaway": "yes"}}, {"type": "node", "id": 9627423156, "lat": -22.8967886, "lon": -43.123477, "tags": {"amenity": "cafe", "brand": "Starbucks", "brand:wikidata": "Q37158", "brand:wikipedia": "en:Starbucks", "cuisine": "coffee_shop", "level": "0;0.5", "name": "Starbucks", "official_name": "Starbucks Coffee", "takeaway": "yes"}}, {"type": "node", "id": 9627423157, "lat": -22.8962578, "lon": -43.1239593, "tags": {"amenity": "cafe", "brand": "Starbucks", "brand:wikidata": "Q37158", "brand:wikipedia": "en:Starbucks", "cuisine": "coffee_shop", "level": "2", "name": "Starbucks", "official_name": "Starbucks Coffee", "takeaway": "yes"}}, {"type": "node", "id": 9627423175, "lat": -22.8969363, "lon": -43.1240638, "tags": {"amenity": "cafe", "brand": "McCaf\u00e9", "brand:wikidata": "Q3114287", "brand:wikipedia": "en:McCaf\u00e9", "cuisine": "coffee_shop", "level": "0", "name": "McCaf\u00e9", "takeaway": "yes"}}, {"type": "node", "id": 9665678091, "lat": -22.9138457, "lon": -43.166786, "tags": {"amenity": "cafe", "brand": "Havanna", "brand:wikidata": "Q2900869", "cuisine": "coffee_shop", "level": "0", "name": "Havanna", "shop": "kiosk", "takeaway": "yes"}}, {"type": "node", "id": 9665678454, "lat": -22.9130875, "lon": -43.1668735}, {"type": "node", "id": 9665685190, "lat": -22.9143119, "lon": -43.1666894, "tags": {"amenity": "cafe", "brand": "Rei do Mate", "brand:wikidata": "Q7309875", "brand:wikipedia": "pt:Rei do Mate", "cuisine": "tea", "level": "1", "name": "Rei do Mate", "takeaway": "yes"}}, {"type": "node", "id": 9665703156, "lat": -22.913838, "lon": -43.1672314, "tags": {"amenity": "cafe", "brand": "Starbucks", "brand:wikidata": "Q37158", "brand:wikipedia": "en:Starbucks", "cuisine": "coffee_shop", "level": "0", "name": "Starbucks", "official_name": "Starbucks Coffee", "takeaway": "yes"}}, {"type": "node", "id": 9674254013, "lat": -22.912456, "lon": -43.1668066, "tags": {"entrance": "yes"}}, {"type": "node", "id": 9674977065, "lat": -22.9122846, "lon": -43.1667873}, {"type": "node", "id": 9674977066, "lat": -22.9123244, "lon": -43.1667849}, {"type": "node", "id": 9674977067, "lat": -22.9123218, "lon": -43.1667347}, {"type": "node", "id": 9674977068, "lat": -22.9122821, "lon": -43.1667371}, {"type": "node", "id": 9675342607, "lat": -22.9125138, "lon": -43.1669172}, {"type": "node", "id": 9675342608, "lat": -22.9125124, "lon": -43.1668894}, {"type": "node", "id": 9675521480, "lat": -22.913087, "lon": -43.1668591}, {"type": "node", "id": 9676914078, "lat": -22.913306, "lon": -43.1668148, "tags": {"access": "customers", "amenity": "cafe", "internet_access": "wlan", "level": "1", "name": "Santos Du P\u00e3o", "ref": "AEI005"}}, {"type": "node", "id": 9677252448, "lat": -22.9124091, "lon": -43.1668562}, {"type": "node", "id": 9677252449, "lat": -22.9130822, "lon": -43.166802}, {"type": "node", "id": 9679853009, "lat": -22.913286, "lon": -43.1664248}, {"type": "node", "id": 9679871921, "lat": -22.9136742, "lon": -43.1664561, "tags": {"amenity": "cafe", "level": "1", "name": "Advantage Lounge"}}, {"type": "node", "id": 9680521643, "lat": -22.9130207, "lon": -43.1668061}, {"type": "node", "id": 9680521644, "lat": -22.9130249, "lon": -43.1668781}, {"type": "node", "id": 9680776148, "lat": -22.9124129, "lon": -43.1669241}, {"type": "node", "id": 9705911017, "lat": -22.9131828, "lon": -43.1829787, "tags": {"addr:city": "Rio de Janeiro", "addr:suburb": "Lapa", "amenity": "cafe", "name": "Padaria Panificadora e Confeitaria Gran Rio", "name:en": "Bakery Panificadora e Confeitaria Gran Rio"}}, {"type": "node", "id": 9885118901, "lat": -22.9148954, "lon": -43.2419063, "tags": {"addr:city": "Rio de Janeiro", "addr:housenumber": "178A", "addr:street": "Boulevard 28 de Setembro", "addr:suburb": "Vila Isabel", "amenity": "cafe", "cuisine": "coffee_shop", "name": "Casa do bolo de p\u00e3o de queijo", "opening_hours": "Mo-Fr 09:00-19:00; Sa 09:00-14:00", "outdoor_seating": "yes", "phone": "+55 21 3495-3382, +55 21 97267-0414", "website": "https://www.facebook.com/bolodepaodequeijoerian/"}}, {"type": "node", "id": 9893333657, "lat": -22.9564275, "lon": -43.3392252, "tags": {"amenity": "cafe", "brand": "Starbucks", "brand:wikidata": "Q37158", "cuisine": "coffee_shop", "name": "Starbucks", "official_name": "Starbucks Coffee", "takeaway": "yes"}}, {"type": "node", "id": 9893352060, "lat": -22.9267575, "lon": -43.5755176, "tags": {"addr:city": "Rio de Janeiro", "addr:housenumber": "1200", "addr:street": "Estrada do Monteiro", "addr:suburb": "Campo Grande", "amenity": "cafe", "brand": "Starbucks", "brand:wikidata": "Q37158", "cuisine": "coffee_shop", "name": "Starbucks", "official_name": "Starbucks Coffee", "outdoor_seating": "no", "takeaway": "yes"}}, {"type": "node", "id": 9900746794, "lat": -22.9232699, "lon": -43.2088245, "tags": {"amenity": "cafe", "name": "Padaria Vera Cruz"}}, {"type": "node", "id": 10247859110, "lat": -22.9405254, "lon": -43.1984963, "tags": {"amenity": "cafe"}}, {"type": "node", "id": 10570292483, "lat": -22.9843787, "lon": -43.1994545, "tags": {"amenity": "cafe", "name": "Spettacolo"}}, {"type": "node", "id": 10751071378, "lat": -23.0015423, "lon": -43.3080712, "tags": {"amenity": "cafe", "name": "Caf\u00e9 da Ilha", "outdoor_seating": "yes"}}, {"type": "node", "id": 10854284796, "lat": -22.9979639, "lon": -43.3513195, "tags": {"amenity": "cafe", "brand": "Starbucks", "brand:wikidata": "Q37158", "cuisine": "coffee_shop", "level": "1", "name": "Starbucks", "official_name": "Starbucks Coffee", "takeaway": "yes"}}, {"type": "node", "id": 10857006836, "lat": -22.8860415, "lon": -43.2818419, "tags": {"amenity": "cafe", "brand": "Starbucks", "brand:wikidata": "Q37158", "cuisine": "coffee_shop", "name": "Starbucks", "official_name": "Starbucks Coffee", "takeaway": "yes"}}, {"type": "node", "id": 10857006847, "lat": -22.8861172, "lon": -43.2834388, "tags": {"amenity": "cafe", "brand": "McCaf\u00e9", "brand:wikidata": "Q3114287", "cuisine": "coffee_shop", "name": "McCaf\u00e9", "takeaway": "yes"}}, {"type": "node", "id": 10857006851, "lat": -22.8862048, "lon": -43.2818222, "tags": {"amenity": "cafe", "name": "MegaMatte"}}, {"type": "node", "id": 10857006853, "lat": -22.8861086, "lon": -43.2817249, "tags": {"amenity": "cafe", "cuisine": "coffee_shop", "name": "California Coffee"}}, {"type": "way", "id": 432802100, "nodes": [4317534801, 4317534818, 4317534795, 4317534571, 4317534801], "tags": {"addr:housenumber": "15", "addr:street": "Rua dos Inv\u00e1lidos", "addr:suburb": "Centro", "amenity": "cafe", "building": "yes", "ele": "8.37", "height": "8.6", "name": "Sol Nascente", "phone": "+55 21 2240-1563", "top_ele": "16.97"}}, {"type": "way", "id": 432802325, "nodes": [4317538831, 4317539394, 4317539346, 4317539339, 4317538822, 4317538831], "tags": {"addr:city": "Rio de Janeiro", "addr:housenumber": "144", "addr:postcode": "20230-152", "addr:street": "Avenida Mem de S\u00e1", "addr:suburb": "Lapa", "amenity": "cafe", "building": "yes", "ele": "8.37", "height": "8.8", "name": "Caf\u00e9 \u00c9pico", "opening_hours": "Mo-Fr 09:00-18:00", "top_ele": "17.17"}}, {"type": "way", "id": 435706616, "nodes": [4336048609, 4336048610, 4336048611, 4336048612, 4336048609], "tags": {"amenity": "cafe", "building": "yes"}}, {"type": "way", "id": 491231355, "nodes": [4833756754, 1787485809, 4833756796, 4833756753, 4833756754], "tags": {"amenity": "cafe", "building": "yes", "name": "Kopenhagen", "wheelchair": "yes"}}, {"type": "way", "id": 870802987, "nodes": [9680776148, 9677252448, 8111821581, 9674254013, 8111821582, 8111821584, 9675342608, 9675342607, 9680776148], "tags": {"addr:city": "Rio de Janeiro", "addr:street": "Pra\u00e7a Senador Salgado Filho", "addr:suburb": "Centro", "amenity": "cafe", "brand": "Starbucks", "brand:wikidata": "Q37158", "brand:wikipedia": "en:Starbucks", "building:part": "yes", "cuisine": "coffee_shop", "level": "0", "name": "Starbucks", "official_name": "Starbucks Coffee", "outdoor_seating": "no", "payment:cash": "yes", "payment:credit_cards": "yes", "payment:debit_cards": "yes", "takeaway": "yes"}}, {"type": "way", "id": 870802991, "nodes": [8111821593, 8111821596, 8111821594, 9679853009, 8111821595, 8111821593], "tags": {"addr:suburb": "Centro", "amenity": "cafe", "brand": "Casa do P\u00e3o de Queijo", "brand:wikidata": "Q9698946", "brand:wikipedia": "pt:Casa do P\u00e3o de Queijo", "building:part": "yes", "cuisine": "coffee_shop", "indoor": "area", "level": "0", "name": "Casa do P\u00e3o de Queijo", "room": "retail", "takeaway": "yes"}}, {"type": "way", "id": 930258520, "nodes": [8625799004, 8625799005, 8625799006, 8625799007, 8625799008, 8625799009, 8625799004], "tags": {"addr:city": "Rio de Janeiro", "addr:housenumber": "1104", "addr:street": "Avenida Estado da Guanabara", "amenity": "cafe", "building": "yes", "internet_access": "no", "name": "Soul Prainha", "opening_hours:covid19": "open"}}, {"type": "way", "id": 930259333, "nodes": [8625853021, 8625853022, 8625853023, 8625853024, 8625853021], "tags": {"addr:city": "Rio de Janeiro", "addr:housenumber": "1138", "addr:street": "Avenida Estado da Guanabara", "amenity": "cafe", "building": "yes", "internet_access": "no", "name": "Brother Quiosque", "opening_hours": "Mo-Su 08:00-20:00", "opening_hours:covid19": "open"}}, {"type": "way", "id": 1026083273, "nodes": [9460279675, 9460279676, 7170079070]}, {"type": "way", "id": 1026083277, "nodes": [7170079070, 9460279674, 9460279697, 9460279675]}, {"type": "way", "id": 1043584772, "nodes": [9604397924, 9604397925, 9604397926, 9609535867, 9604351411, 4265596579, 9604351410, 9604351409, 9604397924], "tags": {"addr:city": "Rio de Janeiro", "addr:housenumber": "15B", "addr:street": "Rua Professor Ortiz Monteiro", "addr:suburb": "Laranjeiras", "amenity": "cafe", "building": "yes", "name": "Maya Caf\u00e9"}}, {"type": "way", "id": 1046305163, "nodes": [9621862102, 9621862113, 9621862115, 9621862109, 9621862114, 9621862102], "tags": {"amenity": "cafe", "brand": "McCaf\u00e9", "brand:wikidata": "Q3114287", "brand:wikipedia": "en:McCaf\u00e9", "building": "yes", "cuisine": "coffee_shop", "name": "McCaf\u00e9", "takeaway": "yes"}}, {"type": "way", "id": 1052758548, "nodes": [9674977065, 9674977066, 9674977067, 9674977068, 9379958540, 9674977065], "tags": {"addr:city": "Rio de Janeiro", "addr:street": "Pra\u00e7a Senador Salgado Filho", "addr:suburb": "Centro", "amenity": "cafe", "cuisine": "coffee_shop", "indoor": "room", "level": "1", "name": "Caf\u00e9 Tr\u00eas Cora\u00e7\u00f5es", "room": "retail"}}, {"type": "way", "id": 1053382623, "nodes": [9677252449, 9680521643, 9680521644, 9665678454, 9675521480, 8111821608, 9677252449], "tags": {"addr:city": "Rio de Janeiro", "addr:street": "Pra\u00e7a Senador Salgado Filho", "addr:suburb": "Centro", "amenity": "cafe", "indoor": "room", "level": "1", "name": "Zep Caf\u00e9", "ref": "VAI022", "room": "retail"}}, {"type": "relation", "id": 13738927, "members": [{"type": "way", "ref": 1026083273, "role": "outer"}, {"type": "way", "ref": 1026083277, "role": "outer"}], "tags": {"amenity": "cafe", "building": "yes", "name": "Lanchonete Shell Select", "outdoor_seating": "yes", "type": "multipolygon"}}]}