{"version": 0.6, "generator": "Overpass API 0.7.60 f4c14d41", "osm3s": {"timestamp_osm_base": "2023-05-02T17:35:50Z", "copyright": "The data included in this document is from www.openstreetmap.org. The data is made available under ODbL."}, "elements": [{"type": "node", "id": 232928765, "lat": 48.8307302, "lon": 2.276181, "tags": {"amenity": "cinema", "brand": "Path\u00e9 Gaumont", "brand:website": "https://www.cinemaspathegaumont.com", "brand:wikidata": "Q3060526", "brand:wikipedia": "fr:Les cin\u00e9mas Path\u00e9 Gaumont", "capacity": "2583", "name": "Gaumont Aquaboulevard", "payment:discover_card": "yes", "ref:FR:CNC": "7491", "screen": "14", "website": "https://www.cinemaspathegaumont.com/cinemas/cinema-gaumont-aquaboulevard", "wheelchair": "limited"}}, {"type": "node", "id": 259439927, "lat": 48.8430732, "lon": 2.3244918, "tags": {"amenity": "cinema", "brand": "Path\u00e9 Gaumont", "brand:wikidata": "Q3060526", "brand:wikipedia": "fr:Les cin\u00e9mas Gaumont Path\u00e9", "name": "Gaumont Parnasse", "phone": "+33892696696", "ref:FR:Allocine": "C0158", "ref:FR:CNC": "481", "website": "https://www.cinemaspathegaumont.com/cinemas/cinema-gaumont-parnasse", "wheelchair": "yes", "wikidata": "Q97319430"}}, {"type": "node", "id": 259439940, "lat": 48.8424534, "lon": 2.3289276, "tags": {"acoustic": "voice_description", "amenity": "cinema", "brand": "UGC", "brand:website": "https://www.ugc.fr/", "brand:wikidata": "Q1643241", "brand:wikipedia": "fr:Union g\u00e9n\u00e9rale cin\u00e9matographique", "name": "UGC Rotonde", "operator": "UGC", "ref:FR:CNC": "802", "screen": "3", "website": "https://www.ugc.fr/cinema.html?id=15"}}, {"type": "node", "id": 259440049, "lat": 48.8434993, "lon": 2.3257407, "tags": {"acoustic": "voice_description", "addr:housenumber": "83", "addr:street": "Boulevard du Montparnasse", "amenity": "cinema", "brand": "UGC", "brand:website": "https://www.ugc.fr/", "brand:wikidata": "Q1643241", "brand:wikipedia": "fr:Union g\u00e9n\u00e9rale cin\u00e9matographique", "contact:facebook": "https://www.facebook.com/pages/UGC-Montparnasse/2131831380188974", "name": "UGC Montparnasse", "operator": "UGC", "ref:FR:CNC": "451", "website": "https://www.ugc.fr/cinema.html?id=14", "wheelchair": "yes", "wikidata": "Q42296678"}}, {"type": "node", "id": 259440483, "lat": 48.8420387, "lon": 2.3244015, "tags": {"alt_name": "Gaumont Parnasse - C\u00f4t\u00e9 Montparnos", "amenity": "cinema", "brand": "Path\u00e9 Gaumont", "brand:wikidata": "Q3060526", "brand:wikipedia": "fr:Les cin\u00e9mas Path\u00e9 Gaumont", "name": "Gaumont Montparnos", "ref:FR:CNC": "7711", "website": "https://www.cinemaspathegaumont.com/cinemas/cinema-gaumont-parnasse", "wikidata": "Q3233921"}}, {"type": "node", "id": 260016963, "lat": 48.8432872, "lon": 2.3245561, "tags": {"alt_name": "Gaumont Parnasse - C\u00f4t\u00e9 Miramar;Path\u00e9 Parnasse", "amenity": "cinema", "brand": "Path\u00e9 Gaumont", "brand:wikidata": "Q3060526", "name": "Gaumont Parnasse", "old_name": "Gaumont Miramar", "phone": "+33892696696", "ref:FR:Allocine": "C0158", "website": "https://www.cinemaspathegaumont.com/cinemas/cinema-gaumont-parnasse", "wheelchair": "yes", "wikidata": "Q97319430"}}, {"type": "node", "id": 260017004, "lat": 48.8437904, "lon": 2.3249468, "tags": {"addr:city": "Paris", "addr:housenumber": "73", "addr:postcode": "75006", "addr:street": "Boulevard du Montparnasse", "amenity": "cinema", "cinema:3D": "yes", "description": "Cin\u00e9ma ind\u00e9pendant", "name": "Le Bretagne", "phone": "+33 1 45 48 92 19", "ref:FR:CNC": "803", "screen": "2", "website": "https://www.cinemalebretagne.fr/", "wheelchair": "yes", "wikidata": "Q2924547", "wikipedia": "fr:Bretagne (cin\u00e9ma)"}}, {"type": "node", "id": 262239996, "lat": 48.8430793, "lon": 2.2985273, "tags": {"amenity": "cinema", "contact:city": "Paris", "contact:housenumber": "6", "contact:postcode": "75015", "contact:street": "Rue P\u00e9clet", "contact:website": "https://www.lescinemaschaplin.fr/st-lambert/", "name": "Cin\u00e9ma Chaplin", "old_name": "Le Saint-Lambert", "operator": "The Boxoffice Company", "ref:FR:CNC": "7231"}}, {"type": "node", "id": 319851795, "lat": 48.8424152, "lon": 2.3276286, "tags": {"addr:city": "Paris", "addr:housenumber": "98", "addr:postcode": "75014", "addr:street": "Boulevard du Montparnasse", "alt_name": "7 parnassiens", "amenity": "cinema", "contact:phone": "+33 1 43 22 95 22", "description": "Cin\u00e9ma ind\u00e9pendant - Art et Essai", "name": "Sept Parnassiens", "opening_hours": "Mo-Su 11:00-23:00", "ref:FR:CNC": "821", "website": "https://www.parnassiens.com/", "wikidata": "Q3478900"}}, {"type": "node", "id": 320952619, "lat": 48.8499668, "lon": 2.3431463, "tags": {"alt_name": "Le Champollion", "amenity": "cinema", "changing_table": "no", "cinema:3D": "no", "contact:city": "Paris", "contact:housenumber": "51", "contact:phone": "+33 1 43 29 79 04", "contact:postcode": "75005", "contact:street": "Rue des \u00c9coles", "contact:website": "http://www.cinema-lechampo.com/", "description": "Cin\u00e9ma ind\u00e9pendant - Art et Essai", "drive_in": "no", "heritage": "3", "heritage:operator": "mhs", "mhs:inscription_date": "2000-04-07", "name": "Le Champo", "ref:FR:CNC": "8422", "ref:mhs": "PA75050004", "screen": "2", "source:heritage": "Minist\u00e8re de la Culture - 07/2018", "toilets": "yes", "toilets:access": "customers", "toilets:disposal": "flush", "toilets:position": "seated", "toilets:wheelchair": "no", "wheelchair": "no", "wikidata": "Q3220985", "wikipedia": "fr:Le Champo - Espace Jacques-Tati"}}, {"type": "node", "id": 320952621, "lat": 48.8497535, "lon": 2.3430298, "tags": {"addr:city": "Paris", "addr:housenumber": "3", "addr:postcode": "75005", "addr:street": "Rue Champollion", "amenity": "cinema", "contact:phone": "+33 1 47 23 00 15", "description": "Art et Essai", "name": "Reflet M\u00e9dicis", "not:brand:wikidata": "Q3236510", "operator": "Les \u00c9crans de Paris", "ref:FR:CNC": "8513", "website": "http://www.dulaccinemas.com/cinema/2950/reflet-medicis/portail", "wikidata": "Q3423049"}}, {"type": "node", "id": 321011961, "lat": 48.8328449, "lon": 2.3541908, "tags": {"acoustic": "voice_description", "addr:housenumber": "66 bis", "addr:postcode": "75013", "addr:street": "Avenue des Gobelins", "amenity": "cinema", "brand": "UGC", "brand:website": "https://www.ugc.fr/", "brand:wikidata": "Q1643241", "brand:wikipedia": "fr:Union g\u00e9n\u00e9rale cin\u00e9matographique", "contact:facebook": "UGC.Gobelins", "contact:housenumber": "66bis", "contact:instagram": "lescinemasugc", "contact:street": "Avenue des Gobelins", "contact:twitter": "ugccinemas", "name": "UGC Gobelins", "operator": "UGC", "phone": "+33 1 46 37 28 24", "ref:FR:CNC": "8632", "screen": "11", "website": "https://www.ugc.fr/cinema.html?id=5", "wheelchair": "yes", "wikidata": "Q42296601"}}, {"type": "node", "id": 321012070, "lat": 48.8335351, "lon": 2.3537862, "tags": {"amenity": "cinema", "brand": "Path\u00e9 Gaumont", "brand:website": "https://www.cinemaspathegaumont.com", "brand:wikidata": "Q3060526", "brand:wikipedia": "fr:Les cin\u00e9mas Path\u00e9 Gaumont", "capacity": "638", "check_date": "2023-01-14", "cinema:3D": "no", "contact:website": "https://www.cinemaspathegaumont.com/cinemas/cinema-pathe-les-fauvettes", "name": "Path\u00e9 Les Fauvettes", "old_name": "Les Fauvettes", "operator": "Gaumont-Path\u00e9", "ref:FR:CNC": "8621", "screen": "5", "wheelchair": "yes", "wikidata": "Q42296592"}}, {"type": "node", "id": 322020025, "lat": 48.8524157, "lon": 2.3382646, "tags": {"amenity": "cinema", "brand": "MK2", "brand:website": "https://www.mk2.com", "brand:wikidata": "Q19814222", "brand:wikipedia": "fr:MK2", "capacity": "815", "contact:city": "Paris", "contact:facebook": "https://www.facebook.com/mk2odeonstgermain", "contact:housenumber": "113", "contact:postcode": "75006", "contact:street": "Boulevard Saint-Germain", "contact:website": "https://www.mk2.com/salle/odeon", "name": "MK2 Od\u00e9on", "ref:FR:CNC": "731", "screen": "5", "wheelchair": "yes", "wikidata": "Q3273030"}}, {"type": "node", "id": 428064589, "lat": 48.8482399, "lon": 2.3931394, "tags": {"addr:city": "Paris", "addr:housenumber": "133", "addr:postcode": "75012", "addr:street": "Boulevard Diderot", "amenity": "cinema", "brand": "MK2", "brand:website": "https://www.mk2.com", "brand:wikidata": "Q19814222", "capacity": "551", "check_date": "2023-04-02", "contact:facebook": "https://www.facebook.com/mk2nation", "name": "MK2 Nation", "ref:FR:CNC": "6212", "screen": "6", "website": "https://www.mk2.com/salle/nation", "wheelchair": "yes", "wheelchair:--2018-01-08": "no", "wikidata": "Q3273029"}}, {"type": "node", "id": 428065606, "lat": 48.8615738, "lon": 2.3524143, "tags": {"addr:city": "Paris", "addr:housenumber": "50", "addr:postcode": "75003", "addr:street": "Rue Rambuteau", "amenity": "cinema", "brand": "MK2", "brand:website": "https://www.mk2.com", "brand:wikidata": "Q19814222", "brand:wikipedia": "fr:MK2", "capacity": "557", "cinema:sound": "Dolby SR", "facebook": "https://www.facebook.com/mk2beaubourg", "name": "MK2 Beaubourg", "ref:FR:CNC": "531", "screen": "6", "source": "survey", "website": "https://www.mk2.com/salles/mk2-beaubourg", "wheelchair": "no", "wikidata": "Q3273024", "wikipedia": "fr:MK2 Beaubourg"}}, {"type": "node", "id": 429464447, "lat": 48.8367718, "lon": 2.3496494, "tags": {"addr:city": "Paris", "addr:housenumber": "11", "addr:postcode": "75013", "addr:street": "Boulevard de Port-Royal", "amenity": "cinema", "contact:city": "Paris", "contact:housenumber": "11", "contact:phone": "+33 1 47 23 00 15", "contact:postcode": "75013", "contact:street": "Boulevard de Port-Royal", "description": "Art et Essai", "name": "L'Escurial", "not:brand:wikidata": "Q3236510", "operator": "Les \u00c9crans de Paris", "ref:FR:CNC": "8661", "website": "http://www.lesecransdeparis.fr/cinema/2794/escurial/portail", "wikidata": "Q3203236", "wikipedia": "fr:L'Escurial (cin\u00e9ma)"}}, {"type": "node", "id": 457090434, "lat": 48.8494965, "lon": 2.3428666, "tags": {"amenity": "cinema", "capacity": "164", "contact:email": "infos@lafilmotheque.fr", "description": "Cin\u00e9ma ind\u00e9pendant - Art et Essai", "facebook": "https://www.facebook.com/lafilmotheque", "name": "La Filmoth\u00e8que du Quartier Latin", "ref:FR:CNC": "8425", "ref:FR:SIREN": "392 396 339", "screen": "2", "website": "http://www.lafilmotheque.fr/", "wikidata": "Q3072152", "wikipedia": "fr:Filmoth\u00e8que du quartier latin"}}, {"type": "node", "id": 492529787, "lat": 48.8521371, "lon": 2.3427322}, {"type": "node", "id": 492529793, "lat": 48.8523199, "lon": 2.3428819}, {"type": "node", "id": 492529796, "lat": 48.852263, "lon": 2.343035}, {"type": "node", "id": 492529801, "lat": 48.8520655, "lon": 2.3428718}, {"type": "node", "id": 492529803, "lat": 48.8521104, "lon": 2.3427443}, {"type": "node", "id": 530272920, "lat": 48.8475201, "lon": 2.3719469, "tags": {"acoustic": "voice_description", "amenity": "cinema", "brand": "UGC", "brand:website": "https://www.ugc.fr/", "brand:wikidata": "Q1643241", "brand:wikipedia": "fr:Union g\u00e9n\u00e9rale cin\u00e9matographique", "capacity": "1274", "contact:facebook": "https://www.facebook.com/UGCLyonBastille/", "name": "UGC Lyon Bastille", "operator": "UGC", "phone": "+331 46 37 28 24", "ref:FR:CNC": "6531", "screen": "7", "website": "https://www.ugc.fr/cinema.html?id=11", "wikidata": "Q42296579"}}, {"type": "node", "id": 530273787, "lat": 48.8531618, "lon": 2.3707603, "tags": {"amenity": "cinema", "brand": "MK2", "brand:website": "https://www.mk2.com", "brand:wikidata": "Q19814222", "capacity": "430", "contact:city": "Paris", "contact:housenumber": "5", "contact:postcode": "75011", "contact:street": "Rue du Faubourg Saint-Antoine", "contact:website": "https://www.mk2.com/salles/mk2-bastille-beaumarchais-fg-st-antoine", "description": "Cin\u00e9ma ind\u00e9pendant - Art et Essai", "name": "MK2 Bastille (c\u00f4t\u00e9 Faubourg Saint-Antoine)", "ref:FR:CNC": "5841", "screen": "3", "short_name": "MK2 Bastille", "wikidata": "Q3206477"}}, {"type": "node", "id": 530273789, "lat": 48.8539688, "lon": 2.3699642, "tags": {"addr:city": "Paris", "addr:housenumber": "4", "addr:postcode": "75011", "addr:street": "Boulevard Richard-Lenoir", "amenity": "cinema", "brand": "Majestic", "brand:wikidata": "Q19945144", "brand:wikipedia": "fr:Groupe Majestic Cinemas", "description": "Art et Essai", "name": "Majestic Bastille", "operator": "Les \u00c9crans de Paris", "ref:FR:CNC": "5852", "website": "http://www.lesecransdeparis.fr/nos-salles~majestic-bastille", "wikidata": "Q3280482", "wikipedia": "fr:Majestic Bastille"}}, {"type": "node", "id": 530885855, "lat": 48.8482524, "lon": 2.3418405, "tags": {"alt_name": "Accattone Salle Anatole Dauman", "amenity": "cinema", "description": "Cin\u00e9ma ind\u00e9pendant - Art et Essai", "name": "Accattone", "ref:FR:CNC": "8392", "wikidata": "Q2822663"}}, {"type": "node", "id": 536572689, "lat": 48.8324687, "lon": 2.3756979}, {"type": "node", "id": 546922441, "lat": 48.8842985, "lon": 2.3268322, "tags": {"acoustic": "voice_description", "amenity": "cinema", "contact:city": "Paris", "contact:housenumber": "7", "contact:phone": "+33 1 53 42 40 20", "contact:postcode": "75017", "contact:street": "Avenue de Clichy", "contact:website": "https://cinema-des-cineastes.fr/", "description": "Art et Essai - G\u00e9r\u00e9 par la soci\u00e9t\u00e9 civile des Auteurs-R\u00e9alisateurs-Producteurs", "drive_in": "no", "name": "Cin\u00e9ma des Cin\u00e9astes", "ref:FR:CNC": "3211", "source": "local_knowledge", "wheelchair": "yes", "wikidata": "Q2973171", "wikipedia": "fr:Cin\u00e9ma des cin\u00e9astes"}}, {"type": "node", "id": 554267918, "lat": 48.8516341, "lon": 2.3471068, "tags": {"addr:city": "Paris", "addr:housenumber": "42", "addr:postcode": "75005", "addr:street": "Rue Galande", "amenity": "cinema", "contact:phone": "+33 1 43 54 72 71", "description": "Cin\u00e9ma ind\u00e9pendant - Art et Essai - Le Temple du Rocky Horror Picture Show", "name": "Studio Galande", "ref:FR:CNC": "733", "website": "http://www.studiogalande.fr/", "wikidata": "Q3500983"}}, {"type": "node", "id": 599514506, "lat": 48.8586559, "lon": 2.3536069, "tags": {"addr:city": "Paris", "addr:housenumber": "20", "addr:postcode": "75004", "addr:street": "Rue du Temple", "amenity": "cinema", "description": "Cin\u00e9ma ind\u00e9pendant - Art et Essai", "name": "Luminor - H\u00f4tel de ville", "ref:FR:CNC": "1791", "toilets": "no", "website": "https://www.luminor-hoteldeville.com", "wikidata": "Q3345032"}}, {"type": "node", "id": 674211457, "lat": 48.8376049, "lon": 2.2965304}, {"type": "node", "id": 674211469, "lat": 48.8377124, "lon": 2.2966887}, {"type": "node", "id": 674211483, "lat": 48.8377843, "lon": 2.2967936}, {"type": "node", "id": 674211484, "lat": 48.8378148, "lon": 2.2967535}, {"type": "node", "id": 674211485, "lat": 48.8378142, "lon": 2.2967512}, {"type": "node", "id": 674211489, "lat": 48.8379837, "lon": 2.2965039}, {"type": "node", "id": 678321403, "lat": 48.8379496, "lon": 2.296451}, {"type": "node", "id": 678871027, "lat": 48.8378088, "lon": 2.2962179}, {"type": "node", "id": 678871741, "lat": 48.8378968, "lon": 2.2963633}, {"type": "node", "id": 687044630, "lat": 48.8706556, "lon": 2.3344487, "tags": {"addr:city": "Paris", "addr:housenumber": "32", "addr:postcode": "75002", "addr:street": "Rue Louis Le Grand", "alt_name": "Path\u00e9 Op\u00e9ra Premier", "amenity": "cinema", "brand": "Path\u00e9 Gaumont", "brand:website": "https://www.cinemaspathegaumont.com", "brand:wikidata": "Q3060526", "brand:wikipedia": "fr:Les cin\u00e9mas Path\u00e9 Gaumont", "name": "Gaumont Op\u00e9ra Premier", "operator": "Gaumont", "ref:FR:CNC": "321", "website": "https://www.cinemaspathegaumont.com/cinemas/cinema-pathe-opera", "wheelchair": "yes", "wikidata": "Q42296156"}}, {"type": "node", "id": 690982176, "lat": 48.8705334, "lon": 2.3476486, "tags": {"amenity": "cinema", "architect": "Auguste Bluysen", "contact:city": "Paris", "contact:facebook": "https://www.facebook.com/GrandRexParis", "contact:housenumber": "1", "contact:postcode": "75002", "contact:street": "Boulevard Poissonni\u00e8re", "contact:website": "https://www.legrandrex.com", "engineer": "John Eberson", "heritage": "3", "heritage:operator": "mhs", "name": "Le Grand Rex", "name:ru": "\u0413\u0440\u0430\u043d-\u0420\u0435\u043a\u0441", "ref:FR:CNC": "311", "ref:FR:SIRET": "50763357600016", "ref:mhs": "PA00086015", "source": "survey", "start_date": "1932-12-08", "wikidata": "Q1809902", "wikipedia": "fr:Le Grand Rex"}}, {"type": "node", "id": 707076290, "lat": 48.8522685, "lon": 2.3428398, "tags": {"addr:housenumber": "7", "note": "Cette adresse existe bien en double. Ici, l'entr\u00e9e d'un appartement", "source": "cadastre-dgi-fr source : Direction G\u00e9n\u00e9rale des Imp\u00f4ts - Cadastre. Mise \u00e0 jour : 2010"}}, {"type": "node", "id": 724280343, "lat": 48.8474205, "lon": 2.3426392}, {"type": "node", "id": 724280344, "lat": 48.8473807, "lon": 2.3426196}, {"type": "node", "id": 724331662, "lat": 48.8475491, "lon": 2.3423174}, {"type": "node", "id": 724331666, "lat": 48.8474765, "lon": 2.3422709}, {"type": "node", "id": 724331671, "lat": 48.8475081, "lon": 2.3422912, "tags": {"addr:housenumber": "13", "entrance": "shop", "source": "survey"}}, {"type": "node", "id": 724331675, "lat": 48.8474156, "lon": 2.3424918}, {"type": "node", "id": 724331682, "lat": 48.8474575, "lon": 2.3426567}, {"type": "node", "id": 724331691, "lat": 48.8474803, "lon": 2.342573}, {"type": "node", "id": 724331693, "lat": 48.8474912, "lon": 2.3425356}, {"type": "node", "id": 778288996, "lat": 48.8546484, "lon": 2.3333477, "tags": {"amenity": "cinema", "description": "Art et Essai", "name": "Silencio des Pr\u00e9s", "old_name": "Le Saint-Germain des Pr\u00e9s", "ref:FR:CNC": "891", "wikidata": "Q3226863"}}, {"type": "node", "id": 779150515, "lat": 48.8324169, "lon": 2.3757309}, {"type": "node", "id": 779150540, "lat": 48.8320234, "lon": 2.3756557}, {"type": "node", "id": 779150544, "lat": 48.8323737, "lon": 2.3757847}, {"type": "node", "id": 779150569, "lat": 48.832476, "lon": 2.3756798}, {"type": "node", "id": 779150590, "lat": 48.832479, "lon": 2.3756853}, {"type": "node", "id": 779150595, "lat": 48.8321939, "lon": 2.3760115}, {"type": "node", "id": 779150598, "lat": 48.8323837, "lon": 2.3758055}, {"type": "node", "id": 779150643, "lat": 48.8322634, "lon": 2.3754621}, {"type": "node", "id": 779150650, "lat": 48.8322243, "lon": 2.3755143}, {"type": "node", "id": 779150669, "lat": 48.8327675, "lon": 2.3749498}, {"type": "node", "id": 779150672, "lat": 48.8322179, "lon": 2.3760148}, {"type": "node", "id": 779150695, "lat": 48.8326107, "lon": 2.3750985, "tags": {"addr:housenumber": "144"}}, {"type": "node", "id": 779150699, "lat": 48.832208, "lon": 2.3759953}, {"type": "node", "id": 779150720, "lat": 48.8320336, "lon": 2.3757141}, {"type": "node", "id": 779150749, "lat": 48.8322527, "lon": 2.3754381}, {"type": "node", "id": 779150797, "lat": 48.832885, "lon": 2.3751667}, {"type": "node", "id": 779150801, "lat": 48.8324273, "lon": 2.3757504}, {"type": "node", "id": 779150822, "lat": 48.832046, "lon": 2.3756982}, {"type": "node", "id": 779150826, "lat": 48.8322101, "lon": 2.3754788}, {"type": "node", "id": 784303107, "lat": 48.8834366, "lon": 2.3501399}, {"type": "node", "id": 784310417, "lat": 48.8834067, "lon": 2.3499085}, {"type": "node", "id": 784379382, "lat": 48.883444, "lon": 2.3502432}, {"type": "node", "id": 784381426, "lat": 48.8835289, "lon": 2.3497989}, {"type": "node", "id": 784387294, "lat": 48.8834552, "lon": 2.3500356}, {"type": "node", "id": 784388423, "lat": 48.883456, "lon": 2.3500655}, {"type": "node", "id": 784429409, "lat": 48.8834299, "lon": 2.3502982}, {"type": "node", "id": 784430179, "lat": 48.8836008, "lon": 2.3502688}, {"type": "node", "id": 784438295, "lat": 48.8835696, "lon": 2.3498303}, {"type": "node", "id": 784452325, "lat": 48.8834578, "lon": 2.3501215}, {"type": "node", "id": 784488864, "lat": 48.8834104, "lon": 2.3502483}, {"type": "node", "id": 785542377, "lat": 48.8511931, "lon": 2.3304049, "tags": {"acoustic": "voice_description", "amenity": "cinema", "brand": "Les \u00c9crans de Paris", "brand:wikidata": "Q3236510", "brand:wikipedia": "fr:Les \u00c9crans de Paris", "description": "Art et Essai", "name": "L'Arlequin", "official_name": "L'Arlequin Panorama", "operator": "Les \u00c9crans de Paris", "ref:FR:CNC": "8291", "source": "cadastre-dgi-fr source : Direction G\u00e9n\u00e9rale des Imp\u00f4ts - Cadastre. Mise \u00e0 jour : 2010", "website": "http://www.lesecransdeparis.fr/cinema/2625/arlequin/portail", "wikidata": "Q3202310"}}, {"type": "node", "id": 789524190, "lat": 48.8839776, "lon": 2.3716134}, {"type": "node", "id": 789527280, "lat": 48.8838907, "lon": 2.3717068}, {"type": "node", "id": 789527448, "lat": 48.8838891, "lon": 2.3717033}, {"type": "node", "id": 789528894, "lat": 48.8844037, "lon": 2.3727518}, {"type": "node", "id": 789529059, "lat": 48.8838839, "lon": 2.3717092}, {"type": "node", "id": 789529693, "lat": 48.8844941, "lon": 2.3726444}, {"type": "node", "id": 789973772, "lat": 48.8944013, "lon": 2.3886403}, {"type": "node", "id": 789974445, "lat": 48.8944539, "lon": 2.3884709}, {"type": "node", "id": 789975080, "lat": 48.8944393, "lon": 2.3888184}, {"type": "node", "id": 789975162, "lat": 48.8944271, "lon": 2.38852}, {"type": "node", "id": 789975234, "lat": 48.8946971, "lon": 2.3884946}, {"type": "node", "id": 789975990, "lat": 48.8945893, "lon": 2.3884042}, {"type": "node", "id": 789976632, "lat": 48.8944269, "lon": 2.3887925}, {"type": "node", "id": 789977564, "lat": 48.8945068, "lon": 2.3884199}, {"type": "node", "id": 789978139, "lat": 48.8944092, "lon": 2.3885776}, {"type": "node", "id": 789978235, "lat": 48.8944039, "lon": 2.3887039}, {"type": "node", "id": 789978479, "lat": 48.8848528, "lon": 2.3710354}, {"type": "node", "id": 789979183, "lat": 48.8851785, "lon": 2.371691}, {"type": "node", "id": 789979386, "lat": 48.8947351, "lon": 2.3886408}, {"type": "node", "id": 789979655, "lat": 48.8944013, "lon": 2.3886722}, {"type": "node", "id": 789980019, "lat": 48.894589, "lon": 2.3889088}, {"type": "node", "id": 789980295, "lat": 48.8947194, "lon": 2.388765}, {"type": "node", "id": 789980643, "lat": 48.8848506, "lon": 2.3710318}, {"type": "node", "id": 789980855, "lat": 48.8945065, "lon": 2.3888928}, {"type": "node", "id": 789981133, "lat": 48.8947325, "lon": 2.3886091}, {"type": "node", "id": 789981236, "lat": 48.8945471, "lon": 2.3889088}, {"type": "node", "id": 789981716, "lat": 48.8944698, "lon": 2.3888621}, {"type": "node", "id": 789981745, "lat": 48.8947095, "lon": 2.3885204}, {"type": "node", "id": 789981909, "lat": 48.8945684, "lon": 2.3884022}, {"type": "node", "id": 789981944, "lat": 48.894404, "lon": 2.3886086}, {"type": "node", "id": 789982020, "lat": 48.8946489, "lon": 2.3884337}, {"type": "node", "id": 789982519, "lat": 48.8946664, "lon": 2.3888624}, {"type": "node", "id": 789982984, "lat": 48.894568, "lon": 2.3889108}, {"type": "node", "id": 789985504, "lat": 48.8947196, "lon": 2.3885484}, {"type": "node", "id": 789985527, "lat": 48.8944875, "lon": 2.3888792}, {"type": "node", "id": 789985886, "lat": 48.8946096, "lon": 2.3889029}, {"type": "node", "id": 789985950, "lat": 48.8946099, "lon": 2.3884102}, {"type": "node", "id": 789986475, "lat": 48.8847712, "lon": 2.3711266}, {"type": "node", "id": 789986946, "lat": 48.8944395, "lon": 2.3884942}, {"type": "node", "id": 789987252, "lat": 48.8947093, "lon": 2.388793}, {"type": "node", "id": 789987384, "lat": 48.8946666, "lon": 2.3884509}, {"type": "node", "id": 789987504, "lat": 48.8947272, "lon": 2.3887353}, {"type": "node", "id": 789988324, "lat": 48.8946825, "lon": 2.388842}, {"type": "node", "id": 789988477, "lat": 48.8946828, "lon": 2.3884713}, {"type": "node", "id": 789988506, "lat": 48.8947273, "lon": 2.3885781}, {"type": "node", "id": 789988509, "lat": 48.8944536, "lon": 2.3888417}, {"type": "node", "id": 789988612, "lat": 48.8945474, "lon": 2.3884041}, {"type": "node", "id": 789989171, "lat": 48.8946969, "lon": 2.3888188}, {"type": "node", "id": 789990074, "lat": 48.8947351, "lon": 2.3886727}, {"type": "node", "id": 789991555, "lat": 48.8947324, "lon": 2.3887044}, {"type": "node", "id": 789992185, "lat": 48.8946486, "lon": 2.3888795}, {"type": "node", "id": 789992393, "lat": 48.8944878, "lon": 2.3884335}, {"type": "node", "id": 789992604, "lat": 48.8944091, "lon": 2.3887348}, {"type": "node", "id": 789992737, "lat": 48.894417, "lon": 2.388548}, {"type": "node", "id": 789992793, "lat": 48.8851805, "lon": 2.371695}, {"type": "node", "id": 789993829, "lat": 48.8851859, "lon": 2.3716888}, {"type": "node", "id": 789994239, "lat": 48.8945268, "lon": 2.3884101}, {"type": "node", "id": 789994301, "lat": 48.8848562, "lon": 2.3710253}, {"type": "node", "id": 789994651, "lat": 48.8944701, "lon": 2.3884506}, {"type": "node", "id": 789995197, "lat": 48.8946299, "lon": 2.3884201}, {"type": "node", "id": 789995373, "lat": 48.8945265, "lon": 2.3889027}, {"type": "node", "id": 789995577, "lat": 48.8944168, "lon": 2.3887645}, {"type": "node", "id": 789995615, "lat": 48.885097, "lon": 2.3717844}, {"type": "node", "id": 789995694, "lat": 48.8946296, "lon": 2.388893}, {"type": "node", "id": 828728735, "lat": 48.8694981, "lon": 2.3072977, "tags": {"amenity": "cinema", "brand": "Path\u00e9 Gaumont", "brand:wikidata": "Q3060526", "brand:wikipedia": "fr:Les cin\u00e9mas Gaumont Path\u00e9", "contact:facebook": "GaumontChampsElysees", "name": "Gaumont Champs-\u00c9lys\u00e9es", "old_name": "Gaumont Champs-Elys\u00e9es Marignan", "opening_hours": "Mo-Su 00:00-00:30,10:00-24:00; Tu 00:00-00:30,10:00-22:30; We 10:00-24:00", "phone": "+33 892 696 696", "ref:FR:Allocine": "C0007", "ref:FR:CNC": "54", "ref:FR:SIRET": "43839110400033", "website": "https://www.cinemaspathegaumont.com/cinemas/cinema-gaumont-champs-elysees", "wheelchair": "limited", "wikidata": "Q97317526"}}, {"type": "node", "id": 829202986, "lat": 48.8705479, "lon": 2.3032157, "tags": {"amenity": "cinema", "contact:city": "Paris", "contact:housenumber": "14", "contact:postcode": "75008", "contact:street": "Rue Lincoln", "contact:website": "http://www.lelincoln.com/", "description": "Cin\u00e9ma ind\u00e9pendant - Art et Essai", "name": "Le Lincoln", "ref:FR:CNC": "55", "source": "cadastre-dgi-fr source : Direction G\u00e9n\u00e9rale des Imp\u00f4ts - Cadastre. Mise \u00e0 jour : 2010", "wikidata": "Q42296693"}}, {"type": "node", "id": 829925124, "lat": 48.8724193, "lon": 2.3307455}, {"type": "node", "id": 829925254, "lat": 48.8723475, "lon": 2.3302836}, {"type": "node", "id": 829925358, "lat": 48.8724103, "lon": 2.3303009}, {"type": "node", "id": 829926715, "lat": 48.8722654, "lon": 2.330671}, {"type": "node", "id": 829927476, "lat": 48.8724414, "lon": 2.3303095}, {"type": "node", "id": 829929025, "lat": 48.8725092, "lon": 2.3303282}, {"type": "node", "id": 837773304, "lat": 48.8646629, "lon": 2.399395}, {"type": "node", "id": 837776063, "lat": 48.864776, "lon": 2.3994642}, {"type": "node", "id": 837779754, "lat": 48.8645713, "lon": 2.3993209}, {"type": "node", "id": 837798192, "lat": 48.864675, "lon": 2.3998001}, {"type": "node", "id": 837800409, "lat": 48.8646995, "lon": 2.3994559}, {"type": "node", "id": 837800635, "lat": 48.8645554, "lon": 2.3992942}, {"type": "node", "id": 837801437, "lat": 48.8646726, "lon": 2.3994111}, {"type": "node", "id": 837805139, "lat": 48.8647019, "lon": 2.3994564}, {"type": "node", "id": 837807796, "lat": 48.8644766, "lon": 2.3994795}, {"type": "node", "id": 837816314, "lat": 48.8647685, "lon": 2.3996609}, {"type": "node", "id": 837821636, "lat": 48.8646539, "lon": 2.3993802}, {"type": "node", "id": 837834411, "lat": 48.8645076, "lon": 2.3994068}, {"type": "node", "id": 837844647, "lat": 48.8645974, "lon": 2.3992861}, {"type": "node", "id": 912272318, "lat": 48.8834754, "lon": 2.3498469, "tags": {"addr:housenumber": "170", "source": "cadastre-dgi-fr source : Direction G\u00e9n\u00e9rale des Imp\u00f4ts - Cadastre. Mise \u00e0 jour : 2010"}}, {"type": "node", "id": 919127374, "lat": 48.832043, "lon": 2.3851667}, {"type": "node", "id": 919127546, "lat": 48.8318856, "lon": 2.3852963}, {"type": "node", "id": 919127611, "lat": 48.83201, "lon": 2.385168}, {"type": "node", "id": 919127771, "lat": 48.8322873, "lon": 2.3855661}, {"type": "node", "id": 919127836, "lat": 48.8323162, "lon": 2.3855208, "tags": {"entrance": "main", "level": "-1"}}, {"type": "node", "id": 919127872, "lat": 48.8321346, "lon": 2.3849066}, {"type": "node", "id": 919127939, "lat": 48.8324785, "lon": 2.3850355}, {"type": "node", "id": 919127957, "lat": 48.8320563, "lon": 2.3850939}, {"type": "node", "id": 919128020, "lat": 48.8319654, "lon": 2.3852501}, {"type": "node", "id": 919128124, "lat": 48.8318804, "lon": 2.3852796}, {"type": "node", "id": 919128235, "lat": 48.831967, "lon": 2.3852307}, {"type": "node", "id": 919128239, "lat": 48.8320228, "lon": 2.3851462}, {"type": "node", "id": 919128260, "lat": 48.8324386, "lon": 2.3849511}, {"type": "node", "id": 919128285, "lat": 48.8322005, "lon": 2.3857088}, {"type": "node", "id": 919128290, "lat": 48.8322651, "lon": 2.385539}, {"type": "node", "id": 919128298, "lat": 48.8321279, "lon": 2.3849061}, {"type": "node", "id": 919128378, "lat": 48.8318114, "lon": 2.3854041}, {"type": "node", "id": 919128390, "lat": 48.8319785, "lon": 2.385188}, {"type": "node", "id": 919128434, "lat": 48.8319722, "lon": 2.3852384}, {"type": "node", "id": 919128436, "lat": 48.8324364, "lon": 2.3853109}, {"type": "node", "id": 919128456, "lat": 48.8320396, "lon": 2.3851692}, {"type": "node", "id": 919128480, "lat": 48.8320592, "lon": 2.3851376}, {"type": "node", "id": 919128566, "lat": 48.8320892, "lon": 2.3850216}, {"type": "node", "id": 919128595, "lat": 48.832333, "lon": 2.3854247}, {"type": "node", "id": 919128609, "lat": 48.8320442, "lon": 2.3850768}, {"type": "node", "id": 919128624, "lat": 48.8324346, "lon": 2.3853023}, {"type": "node", "id": 919128642, "lat": 48.8324896, "lon": 2.3850163}, {"type": "node", "id": 919128643, "lat": 48.8324277, "lon": 2.3849692}, {"type": "node", "id": 919128678, "lat": 48.8323364, "lon": 2.384816}, {"type": "node", "id": 919128724, "lat": 48.8323247, "lon": 2.3848342}, {"type": "node", "id": 919128747, "lat": 48.832247, "lon": 2.3846999}, {"type": "node", "id": 919128799, "lat": 48.8321312, "lon": 2.3849118}, {"type": "node", "id": 919128895, "lat": 48.8325579, "lon": 2.3851057}, {"type": "node", "id": 919129033, "lat": 48.8323401, "lon": 2.3854104}, {"type": "node", "id": 919129068, "lat": 48.8322757, "lon": 2.3847674}, {"type": "node", "id": 919129075, "lat": 48.8322507, "lon": 2.3856205}, {"type": "node", "id": 919129087, "lat": 48.8320999, "lon": 2.3850175}, {"type": "node", "id": 919129260, "lat": 48.8324383, "lon": 2.3853069}, {"type": "node", "id": 919129333, "lat": 48.8318836, "lon": 2.3852846}, {"type": "node", "id": 919129341, "lat": 48.8323852, "lon": 2.3853898}, {"type": "node", "id": 919129483, "lat": 48.8323591, "lon": 2.3853572}, {"type": "node", "id": 919129597, "lat": 48.8318757, "lon": 2.3854917}, {"type": "node", "id": 919129610, "lat": 48.8319348, "lon": 2.3852087}, {"type": "node", "id": 919129651, "lat": 48.8320415, "lon": 2.3851649}, {"type": "node", "id": 919129673, "lat": 48.8322083, "lon": 2.3857123}, {"type": "node", "id": 919129899, "lat": 48.832314, "lon": 2.3855182}, {"type": "node", "id": 919129991, "lat": 48.8322054, "lon": 2.3857164}, {"type": "node", "id": 919130042, "lat": 48.8324386, "lon": 2.3853144}, {"type": "node", "id": 919130050, "lat": 48.8320846, "lon": 2.3849964}, {"type": "node", "id": 919130053, "lat": 48.8321429, "lon": 2.385837}, {"type": "node", "id": 919130214, "lat": 48.8320941, "lon": 2.3850282}, {"type": "node", "id": 919130269, "lat": 48.8322255, "lon": 2.385587}, {"type": "node", "id": 919130301, "lat": 48.8322569, "lon": 2.3855535}, {"type": "node", "id": 919130502, "lat": 48.8321375, "lon": 2.3849105}, {"type": "node", "id": 919130556, "lat": 48.8320698, "lon": 2.3850562}, {"type": "node", "id": 919130612, "lat": 48.8319854, "lon": 2.385198}, {"type": "node", "id": 919130643, "lat": 48.832211, "lon": 2.3857165}, {"type": "node", "id": 919130645, "lat": 48.8323339, "lon": 2.3854022}, {"type": "node", "id": 919130756, "lat": 48.8320626, "lon": 2.3850457}, {"type": "node", "id": 919130801, "lat": 48.8322493, "lon": 2.3855441}, {"type": "node", "id": 919130804, "lat": 48.8322851, "lon": 2.3847508}, {"type": "node", "id": 919130820, "lat": 48.8320001, "lon": 2.3851537}, {"type": "node", "id": 919130999, "lat": 48.8318807, "lon": 2.3852891}, {"type": "node", "id": 919131031, "lat": 48.8320437, "lon": 2.385116, "tags": {"addr:housenumber": "120"}}, {"type": "node", "id": 919131092, "lat": 48.8323547, "lon": 2.3854525}, {"type": "node", "id": 921510826, "lat": 48.8333789, "lon": 2.3548084}, {"type": "node", "id": 921512361, "lat": 48.8335018, "lon": 2.3546604}, {"type": "node", "id": 921513377, "lat": 48.8333634, "lon": 2.3547547}, {"type": "node", "id": 921514657, "lat": 48.8333807, "lon": 2.3548153}, {"type": "node", "id": 921515704, "lat": 48.8334494, "lon": 2.3550461}, {"type": "node", "id": 921516530, "lat": 48.8335753, "lon": 2.3549098}, {"type": "node", "id": 921517604, "lat": 48.8333634, "lon": 2.3547573}, {"type": "node", "id": 921519154, "lat": 48.8334595, "lon": 2.3546887}, {"type": "node", "id": 921519880, "lat": 48.8335709, "lon": 2.3552711}, {"type": "node", "id": 921521515, "lat": 48.8336282, "lon": 2.3551962}, {"type": "node", "id": 921522762, "lat": 48.8335926, "lon": 2.3549691}, {"type": "node", "id": 921527303, "lat": 48.8336276, "lon": 2.355273}, {"type": "node", "id": 921527524, "lat": 48.8334919, "lon": 2.3551858}, {"type": "node", "id": 921528059, "lat": 48.8334905, "lon": 2.3551836}, {"type": "node", "id": 921528513, "lat": 48.8334023, "lon": 2.3548862}, {"type": "node", "id": 921531282, "lat": 48.8334051, "lon": 2.3545076}, {"type": "node", "id": 921531604, "lat": 48.833629, "lon": 2.3550922}, {"type": "node", "id": 921531620, "lat": 48.8334065, "lon": 2.3547253}, {"type": "node", "id": 921531668, "lat": 48.8335664, "lon": 2.3548799}, {"type": "node", "id": 921531855, "lat": 48.8335738, "lon": 2.3551292}, {"type": "node", "id": 921531918, "lat": 48.8335527, "lon": 2.354833}, {"type": "node", "id": 921536566, "lat": 48.8334972, "lon": 2.3546637}, {"type": "node", "id": 921538608, "lat": 48.833527, "lon": 2.354746}, {"type": "node", "id": 921539899, "lat": 48.8335841, "lon": 2.3549398}, {"type": "node", "id": 921540492, "lat": 48.8333511, "lon": 2.3545449}, {"type": "node", "id": 921541460, "lat": 48.8336095, "lon": 2.3550258}, {"type": "node", "id": 921541633, "lat": 48.8334625, "lon": 2.3550888}, {"type": "node", "id": 921545571, "lat": 48.8336283, "lon": 2.355221}, {"type": "node", "id": 929193251, "lat": 48.8283186, "lon": 2.3275583}, {"type": "node", "id": 929193387, "lat": 48.8279197, "lon": 2.3280743}, {"type": "node", "id": 929194071, "lat": 48.8281751, "lon": 2.3280423}, {"type": "node", "id": 929195811, "lat": 48.8280472, "lon": 2.3276577}, {"type": "node", "id": 929195985, "lat": 48.8282303, "lon": 2.3278553}, {"type": "node", "id": 929196690, "lat": 48.8281652, "lon": 2.328076}, {"type": "node", "id": 929198885, "lat": 48.828003, "lon": 2.327806}, {"type": "node", "id": 929201592, "lat": 48.8281253, "lon": 2.3273926}, {"type": "node", "id": 929202825, "lat": 48.8279202, "lon": 2.3279358}, {"type": "node", "id": 929203535, "lat": 48.8281894, "lon": 2.3279944}, {"type": "node", "id": 929204023, "lat": 48.8282855, "lon": 2.3276701}, {"type": "node", "id": 929206138, "lat": 48.8280375, "lon": 2.3276899}, {"type": "node", "id": 929206153, "lat": 48.8280424, "lon": 2.3280753}, {"type": "node", "id": 929206395, "lat": 48.827964, "lon": 2.3279367}, {"type": "node", "id": 929916801, "lat": 48.8523614, "lon": 2.3398708, "tags": {"acoustic": "voice_description", "amenity": "cinema", "brand": "UGC", "brand:website": "https://www.ugc.fr/", "brand:wikidata": "Q1643241", "brand:wikipedia": "fr:Union g\u00e9n\u00e9rale cin\u00e9matographique", "name": "UGC Od\u00e9on", "operator": "UGC", "ref:FR:CNC": "8353", "screen": "5", "website": "https://www.ugc.fr/cinema.html?id=13", "wheelchair": "yes"}}, {"type": "node", "id": 929916803, "lat": 48.8521335, "lon": 2.3389545, "tags": {"acoustic": "voice_description", "amenity": "cinema", "brand": "UGC", "brand:website": "https://www.ugc.fr/", "brand:wikidata": "Q1643241", "brand:wikipedia": "fr:Union g\u00e9n\u00e9rale cin\u00e9matographique", "name": "UGC Danton", "operator": "UGC", "ref:FR:CNC": "8331", "screen": "4", "website": "https://www.ugc.fr/cinema.html?id=4", "wheelchair": "yes"}}, {"type": "node", "id": 952053744, "lat": 48.8953649, "lon": 2.3864414, "tags": {"amenity": "cinema", "level": "0", "name": "Cin\u00e9ma Louis Lumi\u00e8re", "ref:FR:CNC": "no", "source": "survey", "website": "http://www.cite-sciences.fr/fr/au-programme/animations-spectacles/cinema/", "wheelchair": "yes"}}, {"type": "node", "id": 1232624432, "lat": 48.8723356, "lon": 2.330705, "tags": {"addr:housenumber": "11 bis", "source": "cadastre-dgi-fr source : Direction G\u00e9n\u00e9rale des Imp\u00f4ts - Cadastre. Mise \u00e0 jour : 2011"}}, {"type": "node", "id": 1242991253, "lat": 48.8861381, "lon": 2.3353884, "tags": {"addr:city": "Paris", "addr:housenumber": "10", "addr:postcode": "75018", "addr:street": "Rue Tholoz\u00e9", "amenity": "cinema", "contact:phone": "+33 1 46 06 36 07", "description": "Art et Essai", "name": "Studio 28", "ref:FR:CNC": "3741", "website": "https://www.cinema-studio28.fr/", "wikidata": "Q3500949"}}, {"type": "node", "id": 1256170935, "lat": 48.82792, "lon": 2.3279837, "tags": {"addr:housenumber": "50", "source": "cadastre-dgi-fr source : Direction G\u00e9n\u00e9rale des Imp\u00f4ts - Cadastre ; mise \u00e0 jour : 2011"}}, {"type": "node", "id": 1363476829, "lat": 48.8281863, "lon": 2.3274439, "tags": {"addr:housenumber": "73", "source": "cadastre-dgi-fr source : Direction G\u00e9n\u00e9rale des Imp\u00f4ts - Cadastre. Mise \u00e0 jour : 2011"}}, {"type": "node", "id": 1390840690, "lat": 48.8325439, "lon": 2.3850873, "tags": {"addr:housenumber": "10"}}, {"type": "node", "id": 1390840992, "lat": 48.8320355, "lon": 2.3856982, "tags": {"addr:housenumber": "11"}}, {"type": "node", "id": 1390841316, "lat": 48.8322052, "lon": 2.3847723, "tags": {"addr:housenumber": "126"}}, {"type": "node", "id": 1390841434, "lat": 48.8321049, "lon": 2.3857879, "tags": {"addr:housenumber": "13"}}, {"type": "node", "id": 1390843763, "lat": 48.8323453, "lon": 2.3848277, "tags": {"addr:housenumber": "4"}}, {"type": "node", "id": 1390844559, "lat": 48.8324127, "lon": 2.3849168, "tags": {"addr:housenumber": "6"}}, {"type": "node", "id": 1390845156, "lat": 48.831972, "lon": 2.3856162, "tags": {"addr:housenumber": "9"}}, {"type": "node", "id": 1419519343, "lat": 48.8318295, "lon": 2.3853714, "tags": {"addr:housenumber": "114", "source": "cadastre-dgi-fr source : Direction G\u00e9n\u00e9rale des Imp\u00f4ts - Cadastre. Mise \u00e0 jour : 2011"}}, {"type": "node", "id": 1419519346, "lat": 48.8318705, "lon": 2.3852975, "tags": {"addr:housenumber": "116", "source": "cadastre-dgi-fr source : Direction G\u00e9n\u00e9rale des Imp\u00f4ts - Cadastre. Mise \u00e0 jour : 2011"}}, {"type": "node", "id": 1419519349, "lat": 48.8319729, "lon": 2.3852202, "tags": {"addr:housenumber": "118", "source": "cadastre-dgi-fr source : Direction G\u00e9n\u00e9rale des Imp\u00f4ts - Cadastre. Mise \u00e0 jour : 2011"}}, {"type": "node", "id": 1419519372, "lat": 48.8320985, "lon": 2.3849737, "tags": {"addr:housenumber": "122", "source": "cadastre-dgi-fr source : Direction G\u00e9n\u00e9rale des Imp\u00f4ts - Cadastre. Mise \u00e0 jour : 2011"}}, {"type": "node", "id": 1419519374, "lat": 48.8321626, "lon": 2.3848461, "tags": {"addr:housenumber": "124", "source": "cadastre-dgi-fr source : Direction G\u00e9n\u00e9rale des Imp\u00f4ts - Cadastre. Mise \u00e0 jour : 2011"}}, {"type": "node", "id": 1419519439, "lat": 48.83229, "lon": 2.3847869, "tags": {"addr:housenumber": "2", "source": "cadastre-dgi-fr source : Direction G\u00e9n\u00e9rale des Imp\u00f4ts - Cadastre. Mise \u00e0 jour : 2011"}}, {"type": "node", "id": 1419519481, "lat": 48.8318216, "lon": 2.385418, "tags": {"addr:housenumber": "3", "source": "cadastre-dgi-fr source : Direction G\u00e9n\u00e9rale des Imp\u00f4ts - Cadastre. Mise \u00e0 jour : 2011"}}, {"type": "node", "id": 1419519558, "lat": 48.8318667, "lon": 2.3854794, "tags": {"addr:housenumber": "5", "source": "cadastre-dgi-fr source : Direction G\u00e9n\u00e9rale des Imp\u00f4ts - Cadastre. Mise \u00e0 jour : 2011"}}, {"type": "node", "id": 1419519598, "lat": 48.8319157, "lon": 2.3855435, "tags": {"addr:housenumber": "7", "source": "cadastre-dgi-fr source : Direction G\u00e9n\u00e9rale des Imp\u00f4ts - Cadastre. Mise \u00e0 jour : 2011"}}, {"type": "node", "id": 1419519618, "lat": 48.8324675, "lon": 2.3850212, "tags": {"addr:housenumber": "8", "source": "cadastre-dgi-fr source : Direction G\u00e9n\u00e9rale des Imp\u00f4ts - Cadastre. Mise \u00e0 jour : 2011"}}, {"type": "node", "id": 1427838200, "lat": 48.8483619, "lon": 2.3489766, "tags": {"addr:housenumber": "23", "addr:street": "Rue des \u00c9coles", "amenity": "cinema", "description": "Cin\u00e9ma ind\u00e9pendant - Art et Essai - Jean-Pierre Mocky", "name": "\u00c9coles Cin\u00e9ma Club", "old_name": "\u00c9coles 21", "phone": "+33 1 43 25 72 07", "ref:FR:CNC": "8374", "website": "https://pariscinemaclub.com/ecoles/", "wheelchair": "no", "wikidata": "Q3222222"}}, {"type": "node", "id": 1427838201, "lat": 48.8475212, "lon": 2.3521266, "tags": {"addr:city": "Paris", "addr:housenumber": "5", "addr:postcode": "75005", "addr:street": "Rue des \u00c9coles", "amenity": "cinema", "check_date:opening_hours": "2023-03-03", "contact:phone": "+33 1 43 54 47 62", "description": "Art et Essai", "name": "Le Grand Action", "opening_hours:signed": "no", "ref:FR:CNC": "8531", "website": "http://www.legrandaction.com/", "wikidata": "Q3113488", "wikipedia": "fr:Grand Action"}}, {"type": "node", "id": 1427838202, "lat": 48.8412698, "lon": 2.3495453, "tags": {"amenity": "cinema", "description": "Cin\u00e9ma ind\u00e9pendant - Art et Essai", "name": "L'\u00c9p\u00e9e de Bois", "ref:FR:CNC": "8514", "website": "http://www.cine-epeedebois.fr", "wikidata": "Q3205404"}}, {"type": "node", "id": 1427838203, "lat": 48.8530712, "lon": 2.3442898, "tags": {"addr:street": "Boulevard Saint-Michel", "amenity": "cinema", "description": "Cin\u00e9ma ind\u00e9pendant - Art et Essai", "name": "Espace Saint-Michel", "ref:FR:CNC": "8361", "website": "http://cinemasaintmichel.free.fr/", "wheelchair": "no", "wikidata": "Q3058157"}}, {"type": "node", "id": 1427978193, "lat": 48.8508083, "lon": 2.3417802, "tags": {"addr:city": "Paris", "addr:housenumber": "6", "addr:postcode": "75006", "addr:street": "Rue de l'\u00c9cole de M\u00e9decine", "alt_name": "Le Racine Od\u00e9on", "amenity": "cinema", "brand": "Haut et Court", "brand:wikidata": "Q3128481", "contact:phone": "+33 9 62 25 24 29", "description": "Cin\u00e9ma ind\u00e9pendant - Art et Essai", "name": "Nouvel Od\u00e9on", "ref:FR:CNC": "8341", "website": "https://www.nouvelodeon.com/", "wikidata": "Q3345115"}}, {"type": "node", "id": 1427978194, "lat": 48.8533737, "lon": 2.3421249, "tags": {"amenity": "cinema", "contact:facebook": "cinema.saintandredesarts", "description": "Cin\u00e9ma ind\u00e9pendant - Art et Essai", "email": "contact@cinesaintandre.fr", "name": "Saint-Andr\u00e9 des Arts", "phone": "+33 1 43 26 48 18", "ref:FR:Allocine": "C0100", "ref:FR:CNC": "751", "ref:FR:SIRET": "38999207400010", "website": "http://www.cinesaintandre.fr/", "wheelchair": "no", "wikidata": "Q3461762"}}, {"type": "node", "id": 1427978195, "lat": 48.848402, "lon": 2.3408453, "tags": {"addr:city": "Paris", "addr:housenumber": "67", "addr:postcode": "75006", "addr:street": "Rue Monsieur le Prince", "amenity": "cinema", "contact:facebook": "https://www.facebook.com/les3luxembourg/", "contact:phone": "+33 1 46 33 97 77", "description": "Cin\u00e9ma ind\u00e9pendant - Art et Essai", "name": "Les 3 Luxembourg", "ref:FR:CNC": "741", "website": "https://www.lestroisluxembourg.com/", "wikidata": "Q3230330"}}, {"type": "node", "id": 1427978196, "lat": 48.8544954, "lon": 2.3401739, "tags": {"addr:housenumber": "4", "addr:postcode": "75006", "addr:street": "Rue Christine", "amenity": "cinema", "changing_table": "no", "contact:facebook": "ChristineCinemaClub", "contact:instagram": "pariscinemaclub", "contact:twitter": "pariscinemaclub", "description": "Cin\u00e9ma ind\u00e9pendant - Art et Essai", "name": "Christine Cin\u00e9ma Club", "old_name": "Christine 21", "phone": "+33 1 43 25 85 78", "ref:FR:CNC": "883", "screen": "2", "toilets": "yes", "toilets:access": "customers", "toilets:wheelchair": "no", "website": "https://pariscinemaclub.com/christine/", "wikidata": "Q2823639"}}, {"type": "node", "id": 1428007259, "lat": 48.8755636, "lon": 2.3279594, "tags": {"amenity": "cinema", "description": "Cin\u00e9ma ind\u00e9pendant - Art et Essai", "name": "5 Caumartin", "phone": "+33 1 53 32 85 29", "ref:FR:CNC": "2982", "source": "survey", "website": "https://www.cinqcaumartin.com", "wikidata": "Q42296703"}}, {"type": "node", "id": 1428007260, "lat": 48.8713796, "lon": 2.3448127, "tags": {"amenity": "cinema", "capacity": "580", "cinema:3D": "yes", "contact:city": "Paris", "contact:email": "contact@maxlinder.com", "contact:housenumber": "24", "contact:phone": "+33 1 48 00 90 24", "contact:postcode": "75002", "contact:street": "Boulevard Poissonni\u00e8re", "contact:website": "http://maxlinder.com/", "fee": "full:9.5, discount:7.5", "name": "Max Linder Panorama", "old_name": "Kosmorama;Cin\u00e9 Max Linder", "ref:FR:CNC": "301", "screen": "1", "wheelchair": "yes", "wikidata": "Q3302209", "wikipedia": "fr:Max Linder Panorama"}}, {"type": "node", "id": 1428007262, "lat": 48.8728804, "lon": 2.2997201, "tags": {"amenity": "cinema", "description": "Cin\u00e9ma ind\u00e9pendant - Art et Essai", "name": "Le Balzac", "ref:FR:CNC": "35", "source": "knowledge", "website": "http://www.cinemabalzac.com/", "wheelchair": "no", "wikidata": "Q3220259"}}, {"type": "node", "id": 1428007263, "lat": 48.8726035, "lon": 2.2973109, "tags": {"amenity": "cinema", "name": "Publicis Cin\u00e9mas", "official_name": "Publicis Elysees", "ref:FR:CNC": "1031", "website": "https://www.publicisdrugstore.com"}}, {"type": "node", "id": 1428007264, "lat": 48.8724534, "lon": 2.3008318, "tags": {"acoustic": "voice_description", "amenity": "cinema", "brand": "UGC", "brand:website": "https://www.ugc.fr/", "brand:wikidata": "Q1643241", "brand:wikipedia": "fr:Union g\u00e9n\u00e9rale cin\u00e9matographique", "name": "UGC Normandie", "operator": "UGC", "ref:FR:CNC": "31", "screen": "4", "website": "https://www.ugc.fr/cinema.html?id=2", "wikidata": "Q3547190", "wikipedia": "fr:UGC Normandie"}}, {"type": "node", "id": 1428020597, "lat": 48.8717708, "lon": 2.3553091, "tags": {"amenity": "cinema", "contact:city": "Paris", "contact:housenumber": "39", "contact:postcode": "75010", "contact:street": "Boulevard de Strasbourg", "contact:website": "https://www.lebrady.fr", "description": "Art et Essai", "name": "Le Brady", "ref:FR:CNC": "1393", "wikidata": "Q3220615"}}, {"type": "node", "id": 1428020598, "lat": 48.8545349, "lon": 2.3691603, "tags": {"addr:housenumber": "4", "addr:street": "Boulevard Beaumarchais", "amenity": "cinema", "brand": "MK2", "brand:website": "https://www.mk2.com", "brand:wikidata": "Q19814222", "capacity": "469", "contact:facebook": "https://www.facebook.com/mk2bastillebeaumarchais", "description": "Art et Essai", "name": "MK2 Bastille (c\u00f4t\u00e9 Beaumarchais)", "ref:FR:CNC": "5861", "screen": "4", "short_name": "MK2 Bastille", "website": "https://www.mk2.com/salles/mk2-bastille-beaumarchais-fg-st-antoine", "wikidata": "Q3273023"}}, {"type": "node", "id": 1428020599, "lat": 48.8704786, "lon": 2.3546023, "tags": {"amenity": "cinema", "contact:city": "Paris", "contact:housenumber": "17", "contact:postcode": "75010", "contact:street": "Boulevard de Strasbourg", "contact:website": "https://www.larchipel.net/", "name": "L'Archipel", "ref:FR:CNC": "1392", "wikidata": "Q3202281", "wikipedia": "fr:L'Archipel"}}, {"type": "node", "id": 1428083249, "lat": 48.83386, "lon": 2.3309675, "tags": {"addr:city": "Paris", "addr:housenumber": "24", "addr:postcode": "75014", "addr:street": "Place Denfert-Rochereau", "amenity": "cinema", "contact:phone": "+33 1 43 21 41 01", "name": "Chaplin Denfert", "operator": "The Boxoffice Company", "ref:FR:CNC": "8161", "website": "https://www.lescinemaschaplin.fr/denfert/", "wheelchair": "no"}}, {"type": "node", "id": 1428083261, "lat": 48.8755476, "lon": 2.2944347, "tags": {"amenity": "cinema", "description": "Art et Essai", "name": "Cinema Mac Mahon", "operator": "Bollor\u00e9", "ref:FR:CNC": "2543", "wikidata": "Q2973115"}}, {"type": "node", "id": 1428083267, "lat": 48.8582496, "lon": 2.2823233, "tags": {"amenity": "cinema", "brand": "Majestic", "brand:wikidata": "Q19945144", "brand:wikipedia": "fr:Les \u00c9crans de Paris", "description": "Art et Essai", "name": "Majestic Passy", "operator": "Les \u00c9crans de Paris", "ref:FR:CNC": "2251", "website": "http://www.lesecransdeparis.fr/cinema/2853/majestic-passy/portail", "wheelchair": "limited", "wikidata": "Q3280486", "wikipedia": "fr:Majestic Passy"}}, {"type": "node", "id": 1438183205, "lat": 48.8321095, "lon": 2.3758548, "tags": {"access": "yes", "addr:housenumber": "128;162", "entrance": "main", "wheelchair": "yes"}}, {"type": "node", "id": 1712034477, "lat": 48.8624585, "lon": 2.3432215}, {"type": "node", "id": 1712034525, "lat": 48.8623957, "lon": 2.343501}, {"type": "node", "id": 1872840275, "lat": 48.8842189, "lon": 2.3720951, "tags": {"access": "yes", "addr:housenumber": "7", "entrance": "main", "wheelchair": "yes"}}, {"type": "node", "id": 2055980223, "lat": 48.899573, "lon": 2.3770638}, {"type": "node", "id": 2055980335, "lat": 48.8995699, "lon": 2.3769729}, {"type": "node", "id": 2056871968, "lat": 48.877181, "lon": 2.409438}, {"type": "node", "id": 2056871972, "lat": 48.877286, "lon": 2.409791}, {"type": "node", "id": 2056871974, "lat": 48.877655, "lon": 2.409116}, {"type": "node", "id": 2056871978, "lat": 48.877628, "lon": 2.40951}, {"type": "node", "id": 2056871979, "lat": 48.87764, "lon": 2.409551}, {"type": "node", "id": 2056871981, "lat": 48.877657, "lon": 2.409268}, {"type": "node", "id": 2056871982, "lat": 48.87767, "lon": 2.409481}, {"type": "node", "id": 2056871983, "lat": 48.877682, "lon": 2.409522}, {"type": "node", "id": 2056871984, "lat": 48.877692, "lon": 2.409383}, {"type": "node", "id": 2056871985, "lat": 48.877693, "lon": 2.409243}, {"type": "node", "id": 2056871986, "lat": 48.877728, "lon": 2.409358}, {"type": "node", "id": 2056871987, "lat": 48.877762, "lon": 2.409467}, {"type": "node", "id": 2123993297, "lat": 48.8832431, "lon": 2.3117825, "tags": {"addr:city": "Paris", "addr:housenumber": "11", "addr:postcode": "75017", "addr:street": "Rue Jacques Bingen", "amenity": "cinema", "name": "Cin\u00e9math\u00e8que Robert Lynen", "official_name": "Cin\u00e9math\u00e8que Robert Lynen de la ville de Paris", "opening_hours": "Mo-Fr 09:00-18:00", "phone": "+33 1 42 12 81 54", "ref:FR:CNC": "no", "website": "http://www.cinemathequerobertlynen.paris", "wikidata": "Q2973240"}}, {"type": "node", "id": 2258928152, "lat": 48.8320323, "lon": 2.3756472, "tags": {"addr:housenumber": "134", "source": "cadastre-dgi-fr source : Direction G\u00e9n\u00e9rale des Imp\u00f4ts - Cadastre. Mise \u00e0 jour : 2013"}}, {"type": "node", "id": 2258928153, "lat": 48.8321503, "lon": 2.3755354, "tags": {"addr:housenumber": "136", "source": "cadastre-dgi-fr source : Direction G\u00e9n\u00e9rale des Imp\u00f4ts - Cadastre. Mise \u00e0 jour : 2013"}}, {"type": "node", "id": 2258928154, "lat": 48.832266, "lon": 2.3754254, "tags": {"addr:housenumber": "138", "source": "cadastre-dgi-fr source : Direction G\u00e9n\u00e9rale des Imp\u00f4ts - Cadastre. Mise \u00e0 jour : 2013"}}, {"type": "node", "id": 2258928159, "lat": 48.8323788, "lon": 2.3753185, "tags": {"addr:housenumber": "140", "source": "cadastre-dgi-fr source : Direction G\u00e9n\u00e9rale des Imp\u00f4ts - Cadastre. Mise \u00e0 jour : 2013"}}, {"type": "node", "id": 2258928161, "lat": 48.8325006, "lon": 2.3752029, "tags": {"addr:housenumber": "142", "source": "cadastre-dgi-fr source : Direction G\u00e9n\u00e9rale des Imp\u00f4ts - Cadastre. Mise \u00e0 jour : 2013"}}, {"type": "node", "id": 2258928163, "lat": 48.8327553, "lon": 2.3749614, "tags": {"addr:housenumber": "146", "source": "cadastre-dgi-fr source : Direction G\u00e9n\u00e9rale des Imp\u00f4ts - Cadastre. Mise \u00e0 jour : 2013"}}, {"type": "node", "id": 2265865829, "lat": 48.8333798, "lon": 2.3545251, "tags": {"addr:housenumber": "73", "source": "cadastre-dgi-fr source : Direction G\u00e9n\u00e9rale des Imp\u00f4ts - Cadastre. Mise \u00e0 jour : 2013"}}, {"type": "node", "id": 2284399776, "lat": 48.8990117, "lon": 2.3770894}, {"type": "node", "id": 2514332058, "lat": 48.8996784, "lon": 2.3764926}, {"type": "node", "id": 2514332059, "lat": 48.8990024, "lon": 2.3765285}, {"type": "node", "id": 2631520951, "lat": 48.8333534, "lon": 2.3545524}, {"type": "node", "id": 2631520952, "lat": 48.8334071, "lon": 2.3545143}, {"type": "node", "id": 2650871429, "lat": 48.8844246, "lon": 2.372727}, {"type": "node", "id": 2845816093, "lat": 48.8622272, "lon": 2.3451884}, {"type": "node", "id": 2867589496, "lat": 48.899007, "lon": 2.3768048, "tags": {"addr:housenumber": "166"}}, {"type": "node", "id": 2867590706, "lat": 48.8996793, "lon": 2.3765475}, {"type": "node", "id": 2867590707, "lat": 48.899742, "lon": 2.3765441}, {"type": "node", "id": 2867590708, "lat": 48.8997506, "lon": 2.3769624}, {"type": "node", "id": 2996098404, "lat": 48.8339547, "lon": 2.3165786, "tags": {"addr:city": "Paris", "addr:housenumber": "7", "addr:postcode": "75014", "addr:street": "Rue Francis de Pressens\u00e9", "amenity": "cinema", "contact:phone": "+33 1 45 40 07 51", "description": "Art et Essai", "name": "L'Entrep\u00f4t (Cin\u00e9ma)", "opening_hours": "Mo-Su 10:00-20:30", "payment:cash": "yes", "payment:debit_cards": "yes", "ref:FR:CNC": "483", "screen": "3", "source": "cadastre-dgi-fr source : Direction G\u00e9n\u00e9rale des Finances Publiques - Cadastre. Mise \u00e0 jour : 2014", "website": "http://www.lentrepot.fr", "wikidata": "Q42296611"}}, {"type": "node", "id": 3109085232, "lat": 48.8713746, "lon": 2.3353089, "tags": {"amenity": "cinema", "brand": "UGC", "brand:website": "https://www.ugc.fr/", "brand:wikidata": "Q1643241", "brand:wikipedia": "fr:Union g\u00e9n\u00e9rale cin\u00e9matographique", "name": "UGC Op\u00e9ra", "operator": "UGC", "ref:FR:CNC": "204", "screen": "4", "website": "https://www.ugc.fr/cinema.html?id=9", "wheelchair": "no"}}, {"type": "node", "id": 3166474159, "lat": 48.8623369, "lon": 2.3448325}, {"type": "node", "id": 3166474160, "lat": 48.8623122, "lon": 2.3453615}, {"type": "node", "id": 3166474461, "lat": 48.8624615, "lon": 2.344942}, {"type": "node", "id": 3697390172, "lat": 48.8611401, "lon": 2.3531387}, {"type": "node", "id": 3697390173, "lat": 48.8612781, "lon": 2.3525495}, {"type": "node", "id": 3697400986, "lat": 48.8610518, "lon": 2.3530909}, {"type": "node", "id": 3697400987, "lat": 48.8611898, "lon": 2.3525018}, {"type": "node", "id": 3699515097, "lat": 48.8600749, "lon": 2.3523681}, {"type": "node", "id": 3699515103, "lat": 48.8601295, "lon": 2.3521282}, {"type": "node", "id": 3699515104, "lat": 48.860152, "lon": 2.3524087}, {"type": "node", "id": 3699515105, "lat": 48.8602065, "lon": 2.3521696}, {"type": "node", "id": 3699515118, "lat": 48.8611765, "lon": 2.3525587, "tags": {"entrance": "yes", "level": "1"}}, {"type": "node", "id": 4302298381, "lat": 48.8443113, "lon": 2.3304411, "tags": {"addr:city": "Paris", "addr:housenumber": "53", "addr:postcode": "75006", "addr:street": "Rue Notre-Dame-des-Champs", "amenity": "cinema", "contact:phone": "+33 1 45 44 57 34", "name": "Le Lucernaire", "ref:FR:CNC": "814", "website": "http://www.lucernaire.fr/content/7-cinema"}}, {"type": "node", "id": 4362111791, "lat": 48.8491709, "lon": 2.2822785, "tags": {"addr:city": "Paris", "addr:housenumber": "12", "addr:postcode": "75015", "addr:street": "Rue Linois", "air_conditioning": "yes", "amenity": "cinema", "brand": "Path\u00e9 Gaumont", "brand:website": "https://www.cinemaspathegaumont.com", "brand:wikidata": "Q3060526", "brand:wikipedia": "fr:Les cin\u00e9mas Path\u00e9 Gaumont", "internet_access": "wlan", "level": "0,-1,-2", "name": "Path\u00e9 Beaugrenelle", "old_name": "Path\u00e9-Gaumont Beaugrenelle", "opening_hours": "Mo-Su 09:30-00:00", "payment:cash": "yes", "payment:credit_cards": "yes", "phone": "+33892696696", "ref:FR:CNC": "9700", "screen": "10", "survey:date": "2017-07-04", "website": "https://www.cinemaspathegaumont.com/cinemas/cinema-pathe-beaugrenelle", "wheelchair": "yes"}}, {"type": "node", "id": 4569383729, "lat": 48.8962096, "lon": 2.3890162, "tags": {"addr:city": "Paris", "addr:housenumber": "30", "addr:postcode": "75019", "addr:street": "Avenue Corentin Cariou", "air_conditioning": "yes", "amenity": "cinema", "brand": "Path\u00e9 Gaumont", "brand:website": "https://www.cinemaspathegaumont.com", "brand:wikidata": "Q3060526", "brand:wikipedia": "fr:Les cin\u00e9mas Path\u00e9 Gaumont", "level": "2", "name": "Path\u00e9 Gaumont", "payment:cash": "yes", "payment:contactless": "yes", "payment:credit_cards": "yes", "payment:debit_cards": "yes", "payment:mastercard_contactless": "yes", "payment:notes": "yes", "payment:prepaid_ticket": "yes", "payment:visa_debit": "yes", "ref:FR:CNC": "9920", "screen": "16", "wheelchair": "yes"}}, {"type": "node", "id": 4584193728, "lat": 48.865243, "lon": 2.3124334, "tags": {"amenity": "cinema", "brand": "MK2", "brand:website": "https://www.mk2.com", "brand:wikidata": "Q19814222", "capacity": "92", "contact:city": "Paris", "contact:facebook": "https://www.facebook.com/mk2grandpalais/", "contact:housenumber": "3", "contact:postcode": "75008", "contact:street": "Avenue Winston Churchill", "contact:website": "https://www.mk2.com/salles/mk2-grand-palais", "name": "MK2 Grand Palais", "ref:FR:Allocine": "W7508", "ref:FR:CNC": "9351", "ref:FR:SIRET": "84492398700060", "screen": "1", "wikidata": "Q65130028"}}, {"type": "node", "id": 4691885430, "lat": 48.842839, "lon": 2.330617, "tags": {"amenity": "cinema", "brand": "MK2", "brand:website": "https://www.mk2.com", "brand:wikidata": "Q19814222", "capacity": "284", "contact:facebook": "https://www.facebook.com/mk2parnasse", "name": "MK2 Parnasse", "ref:FR:CNC": "801", "screen": "3", "website": "https://www.mk2.com/salles/mk2-parnasse", "wikidata": "Q3273031"}}, {"type": "node", "id": 4975307148, "lat": 48.862283, "lon": 2.3450071, "tags": {"entrance": "yes", "indoor": "yes", "level": "-3", "source": "survey"}}, {"type": "node", "id": 5815048731, "lat": 48.8624542, "lon": 2.3438582}, {"type": "node", "id": 5815048736, "lat": 48.8622948, "lon": 2.3437544}, {"type": "node", "id": 5815048740, "lat": 48.8625512, "lon": 2.3438681}, {"type": "node", "id": 5816485155, "lat": 48.862552, "lon": 2.3438681}, {"type": "node", "id": 5816485161, "lat": 48.8626381, "lon": 2.3438213}, {"type": "node", "id": 5913768889, "lat": 48.8628416, "lon": 2.3436369}, {"type": "node", "id": 5913768891, "lat": 48.8626697, "lon": 2.3437295}, {"type": "node", "id": 5913768896, "lat": 48.8627614, "lon": 2.3436459}, {"type": "node", "id": 5913768898, "lat": 48.8627689, "lon": 2.3436689}, {"type": "node", "id": 5913768900, "lat": 48.8627334, "lon": 2.3436656}, {"type": "node", "id": 5913768901, "lat": 48.8626647, "lon": 2.3437128}, {"type": "node", "id": 5913768902, "lat": 48.8626748, "lon": 2.3437467}, {"type": "node", "id": 5913768903, "lat": 48.8628361, "lon": 2.3436197}, {"type": "node", "id": 5913768904, "lat": 48.8628471, "lon": 2.3436543}, {"type": "node", "id": 5913768933, "lat": 48.8628678, "lon": 2.343561}, {"type": "node", "id": 5913768934, "lat": 48.8627504, "lon": 2.3434692}, {"type": "node", "id": 5913768935, "lat": 48.8627165, "lon": 2.3434651}, {"type": "node", "id": 5914409055, "lat": 48.8626226, "lon": 2.3434133}, {"type": "node", "id": 5914443968, "lat": 48.8625301, "lon": 2.3433132}, {"type": "node", "id": 5927447654, "lat": 48.8825567, "lon": 2.3376897, "tags": {"amenity": "cinema", "contact:city": "Paris", "contact:housenumber": "20", "contact:postcode": "75018", "contact:street": "Boulevard de Clichy", "description": "cin\u00e9ma \u00e9rotique", "min_age": "18", "name": "Atlas", "official_name": "Cin\u00e9ma Atlas", "screen": "2", "source": "survey;local knowledge", "survey_date": "2018-09-08"}}, {"type": "node", "id": 5957744787, "lat": 48.8623894, "lon": 2.3434949}, {"type": "node", "id": 5957744798, "lat": 48.8623674, "lon": 2.3434734}, {"type": "node", "id": 5957755243, "lat": 48.8626859, "lon": 2.3437818}, {"type": "node", "id": 5957755244, "lat": 48.8628531, "lon": 2.3436813}, {"type": "node", "id": 5957755245, "lat": 48.8628963, "lon": 2.3436514}, {"type": "node", "id": 6576684299, "lat": 48.8761289, "lon": 2.2953519, "tags": {"amenity": "cinema", "capacity": "161", "contact:email": "contact@clubdeletoile.fr", "contact:facebook": "clubdeletoile", "contact:phone": "+33 1 43 80 73 69", "contact:website": "https://clubdeletoile.fr", "name": "Club de l'\u00c9toile", "ref:FR:Allocine": "W7517", "ref:FR:CNC": "9802", "ref:FR:SIRET": "32795731200017", "screen": "1", "wikidata": "Q97320830"}}, {"type": "node", "id": 7242916434, "lat": 48.8925927, "lon": 2.310101, "tags": {"addr:city": "Paris", "addr:housenumber": "25", "addr:postcode": "75017", "addr:street": "All\u00e9e Colette Heilbronner", "air_conditioning": "yes", "amenity": "cinema", "brand": "Cine-Movida", "contact:facebook": "7Batignolles", "email": "7batignolles@cine-movida.com", "name": "Les 7 Batignolles", "phone": "+33 1 84 79 92 10", "ref:FR:Allocine": "P7517", "ref:FR:CNC": "9803", "screen": "7", "start_date": "2019", "website": "https://cinema-7batignolles.fr/", "wheelchair": "yes", "wikidata": "Q97321297"}}, {"type": "node", "id": 7720101446, "lat": 48.8521237, "lon": 2.3427383, "tags": {"addr:housenumber": "7", "note": "Cette adresse existe bien en double : ici l'entr\u00e9e du cin\u00e9ma"}}, {"type": "node", "id": 7768900435, "lat": 48.8839908, "lon": 2.3281131, "tags": {"amenity": "cinema", "brand": "Path\u00e9 Gaumont", "brand:wikidata": "Q3060526", "capacity": "2139", "contact:facebook": "PatheWepler", "contact:phone": "+33 1 43 87 34 63", "contact:website": "http://www.cinemasgaumontpathe.com/cinemas/cinema-pathe-wepler/informations-pratiques.html", "name": "Path\u00e9 Wepler", "ref:FR:Allocine": "C0179", "ref:FR:CNC": "3222", "ref:FR:SIRET": "38958984700067", "screen": "12", "wikidata": "Q3368730"}}, {"type": "node", "id": 7769027851, "lat": 48.8799338, "lon": 2.284076, "tags": {"addr:place": "Palais des Congr\u00e8s", "amenity": "cinema", "brand": "UGC", "brand:wikidata": "Q1643241", "brand:wikipedia": "fr:Union g\u00e9n\u00e9rale cin\u00e9matographique", "contact:facebook": "307341253474422", "contact:housenumber": "2", "contact:street": "Place de la Porte Maillot", "level": "-1", "name": "UGC Cin\u00e9 Cit\u00e9 Maillot", "operator": "UGC", "phone": "+33 8 92 70 00 00", "ref:FR:Allocine": "C0175", "ref:FR:CNC": "612", "ref:FR:SIRET": "34780600200411", "screen": "12", "website": "https://www.ugc.fr/cinema.html?id=7", "wikidata": "Q42296729"}}, {"type": "node", "id": 8754464632, "lat": 48.8630548, "lon": 2.291028, "tags": {"addr:city": "Paris", "addr:postcode": "75016", "amenity": "cinema", "name": "Auditorium de la Cit\u00e9 de l'architecture et du patrimoine", "opening_hours": "\"Selon la programmation de la Cit\u00e9 de l'architecture\"", "screen": "1"}}, {"type": "node", "id": 8999402818, "lat": 48.8917135, "lon": 2.3920312, "tags": {"amenity": "cinema", "name": "Cin\u00e9ma en plein air de La Vilette", "opening_hours": "juillet ao\u00fbt"}}, {"type": "node", "id": 9542944867, "lat": 48.8842267, "lon": 2.3273141, "tags": {"amenity": "cinema", "name": "Path\u00e9 Wepler"}}, {"type": "node", "id": 9545578243, "lat": 48.8626074, "lon": 2.3438036, "tags": {"door": "no", "entrance": "yes", "level": "-2"}}, {"type": "node", "id": 9545578244, "lat": 48.8625728, "lon": 2.3438201}, {"type": "node", "id": 9545578245, "lat": 48.8626279, "lon": 2.3438098}, {"type": "node", "id": 9545578246, "lat": 48.8625898, "lon": 2.3438061}, {"type": "node", "id": 9545578247, "lat": 48.8625609, "lon": 2.3438414}, {"type": "node", "id": 9561300323, "lat": 48.899244, "lon": 2.3765157, "tags": {"entrance": "main", "source": "survey"}}, {"type": "node", "id": 9569632670, "lat": 48.8427477, "lon": 2.3420612, "tags": {"amenity": "cinema", "description": "Cin\u00e9ma ind\u00e9pendant - Art et Essai", "name": "Studio des Ursulines", "ref:FR:CNC": "8451", "screen": "1", "toilets": "yes", "toilets:access": "customers", "toilets:wheelchair": "no", "website": "http://www.studiodesursulines.com/", "wikidata": "Q3501027", "wikipedia": "fr:Studio des Ursulines"}}, {"type": "node", "id": 9941068596, "lat": 48.8789492, "lon": 2.2659856}, {"type": "node", "id": 9941068597, "lat": 48.8789318, "lon": 2.2660473}, {"type": "node", "id": 9941068598, "lat": 48.8789494, "lon": 2.2660588}, {"type": "node", "id": 9941068599, "lat": 48.8789021, "lon": 2.2662265}, {"type": "node", "id": 9941068600, "lat": 48.8788836, "lon": 2.2662144}, {"type": "node", "id": 9941068601, "lat": 48.8788683, "lon": 2.2662687}, {"type": "node", "id": 9941068602, "lat": 48.8787888, "lon": 2.2662169}, {"type": "node", "id": 9941068603, "lat": 48.8788057, "lon": 2.2661568}, {"type": "node", "id": 9941068604, "lat": 48.8787934, "lon": 2.2661488}, {"type": "node", "id": 9941068605, "lat": 48.8788564, "lon": 2.2659251}, {"type": "node", "id": 10031481190, "lat": 48.8322406, "lon": 2.384711, "tags": {"camera:mount": "wall", "camera:type": "dome", "man_made": "surveillance", "surveillance": "public", "surveillance:type": "camera", "surveillance:zone": "area"}}, {"type": "node", "id": 10251631961, "lat": 48.8647253, "lon": 2.3997253}, {"type": "way", "id": 40579763, "nodes": [492529787, 707076290, 492529793, 492529796, 492529801, 492529803, 7720101446, 492529787], "tags": {"addr:housenumber": "7", "addr:street": "Rue Hautefeuille", "amenity": "cinema", "brand": "MK2", "brand:website": "https://www.mk2.com", "brand:wikidata": "Q19814222", "brand:wikipedia": "fr:MK2", "building": "yes", "capacity": "690", "contact:facebook": "https://www.facebook.com/mk2odeonstmichel", "description": "Art et Essai", "name": "MK2 Od\u00e9on (c\u00f4t\u00e9 Saint-Michel)", "old_name": "MK2 Hautefeuille", "operator": "MK2", "ref:FR:CNC": "721", "screen": "4", "source": "cadastre-dgi-fr source : Direction G\u00e9n\u00e9rale des Imp\u00f4ts - Cadastre. Mise \u00e0 jour : 2009", "website": "https://www.mk2.com/salles/mk2-odeon-0", "wikidata": "Q3273028"}}, {"type": "way", "id": 58426944, "nodes": [724280344, 724280343, 724331682, 724331691, 724331693, 724331662, 724331671, 724331666, 724331675, 724280344], "tags": {"addr:city": "Paris", "addr:housenumber": "13", "addr:postcode": "75005", "addr:street": "Rue Victor Cousin", "alt_name": "Le Panth\u00e9on", "amenity": "cinema", "atm": "no", "building": "yes", "contact:phone": "+33 1 40 46 01 21", "description": "Cin\u00e9ma ind\u00e9pendant - Art et Essai", "name": "Cin\u00e9ma du Panth\u00e9on", "ref:FR:CNC": "8391", "source": "cadastre-dgi-fr source : Direction G\u00e9n\u00e9rale des Imp\u00f4ts - Cadastre ; mise \u00e0 jour : 2010", "website": "https://www.whynotproductions.fr/pantheon/", "wikidata": "Q2973174", "wikipedia": "fr:Cin\u00e9ma du Panth\u00e9on"}}, {"type": "way", "id": 62379531, "nodes": [779150669, 2258928163, 779150695, 2258928161, 2258928159, 2258928154, 779150749, 779150643, 779150650, 779150826, 2258928153, 2258928152, 779150540, 779150822, 779150720, 1438183205, 779150595, 779150699, 779150672, 779150598, 779150544, 779150515, 779150801, 536572689, 779150590, 779150569, 779150797, 779150669], "tags": {"addr:city": "Paris", "addr:country": "FR", "addr:housenumber": "128-162", "addr:postcode": "75013", "addr:street": "Avenue de France", "amenity": "cinema", "brand": "MK2", "brand:website": "https://www.mk2.com", "brand:wikidata": "Q19814222", "building": "yes", "building:levels": "4", "capacity": "2981", "cinema:3D": "yes", "contact:facebook": "mk2bibliotheque", "contact:instagram": "mk2", "contact:twitter": "MK2Cinema", "name": "MK2 Biblioth\u00e8que", "ref:FR:Allocine": "C2954", "ref:FR:CNC": "9600", "screen": "16", "source": "cadastre-dgi-fr source : Direction G\u00e9n\u00e9rale des Imp\u00f4ts - Cadastre. Mise \u00e0 jour : 2010", "toilets": "yes", "toilets:access": "customers", "toilets:wheelchair": "designated", "website": "https://www.mk2.com/salle/bibliotheque", "wheelchair": "yes", "wikidata": "Q3273025"}}, {"type": "way", "id": 63198697, "nodes": [784388423, 784452325, 784303107, 784379382, 784488864, 784429409, 784430179, 784438295, 784381426, 912272318, 784310417, 784387294, 784388423], "tags": {"acoustic": "voice_description", "amenity": "cinema", "architect": "H. Ripey", "brand": "Haut et Court", "brand:wikidata": "Q3128481", "building": "yes", "building:levels": "4", "contact:city": "Paris", "contact:housenumber": "170", "contact:postcode": "75010", "contact:street": "Boulevard de Magenta", "heritage": "3", "heritage:operator": "mhs", "mhs:inscription_date": "1981-10-05", "name": "Le Louxor", "phone": "+33 1 44 63 96 96", "ref:FR:CNC": "9452", "ref:mhs": "PA00086484", "source": "Cadastre. Mise \u00e0 jour : 2010;survey", "source:architect": "data.gouv.fr:Minist\u00e8re de la culture - 08/2017", "source:heritage": "data.gouv.fr:Minist\u00e8re de la culture - 08/2017", "start_date": "1921", "website": "https://www.cinemalouxor.fr/", "wheelchair": "yes", "wikidata": "Q1809954", "wikipedia": "fr:Le Louxor"}}, {"type": "way", "id": 63971384, "nodes": [789528894, 2650871429, 789529693, 1872840275, 789524190, 789527280, 789527448, 789529059, 789528894], "tags": {"addr:housenumber": "7", "addr:street": "Quai de la Loire", "amenity": "cinema", "brand": "MK2", "brand:website": "https://www.mk2.com", "brand:wikidata": "Q19814222", "building": "yes", "building:levels": "3", "capacity": "1108", "contact:facebook": "https://www.facebook.com/mk2quaideloire", "name": "MK2 Quai de Loire", "ref:FR:CNC": "9900", "screen": "6", "source": "cadastre-dgi-fr source : Direction G\u00e9n\u00e9rale des Imp\u00f4ts - Cadastre. Mise \u00e0 jour : 2010", "website": "https://www.mk2.com/salles/mk2-quai-seine-quai-loire", "wikidata": "Q3273032", "wikipedia": "fr:MK2 Quai de Loire / Quai de Seine"}}, {"type": "way", "id": 64039320, "nodes": [789995615, 789979183, 789992793, 789993829, 789994301, 789980643, 789978479, 789986475, 789995615], "tags": {"addr:housenumber": "14", "addr:street": "Quai de la Seine", "amenity": "cinema", "brand": "MK2", "brand:website": "https://www.mk2.com", "brand:wikidata": "Q19814222", "building": "yes", "building:levels": "2", "capacity": "992", "facebook": "https://www.facebook.com/mk2quaideseine", "name": "MK2 Quai de Seine", "ref:FR:CNC": "4731", "screen": "6", "source": "cadastre-dgi-fr source : Direction G\u00e9n\u00e9rale des Imp\u00f4ts - Cadastre. Mise \u00e0 jour : 2010", "website": "https://www.mk2.com/salles/mk2-quai-seine-quai-loire", "wikidata": "Q3273032", "wikipedia": "fr:MK2 Quai de Loire / Quai de Seine"}}, {"type": "way", "id": 64040790, "nodes": [789995694, 789992185, 789982519, 789988324, 789989171, 789987252, 789980295, 789987504, 789991555, 789990074, 789979386, 789981133, 789988506, 789985504, 789981745, 789975234, 789988477, 789987384, 789982020, 789995197, 789985950, 789975990, 789981909, 789988612, 789994239, 789977564, 789992393, 789994651, 789974445, 789986946, 789975162, 789992737, 789978139, 789981944, 789973772, 789979655, 789978235, 789992604, 789995577, 789976632, 789975080, 789988509, 789981716, 789985527, 789980855, 789995373, 789981236, 789982984, 789980019, 789985886, 789995694], "tags": {"amenity": "cinema", "architect": "Adrien Fainsilber;G\u00e9rard Chamayou", "building": "yes", "building:levels": "0", "building:material": "metal", "building:min_level": "0", "capacity": "400", "capacity:wheelchair": "4", "cinema:3D": "yes", "cinema:IMAX": "yes", "contact:email": "contact@lageode.fr", "drive_in": "no", "height": "36", "internet_access": "wlan", "language:en": "yes", "language:es": "yes", "min_age": "3", "name": "G\u00e9ode", "name:be": "\u0416\u044d\u043e\u0434", "name:es": "la Geoda", "name:it": "Geoide", "name:ja": "\u30e9\u30fb\u30b8\u30a7\u30aa\u30fc\u30c9", "name:ru": "\u0416\u0435\u043e\u0434", "name:uk": "\u0416\u0435\u043e\u0434", "phone": "+33140057999", "pregnant": "not_recommended", "ref:FR:CNC": "4571", "ref:structurae": "20006043", "roof:height": "18", "roof:material": "mirror", "roof:shape": "dome", "source": "cadastre-dgi-fr source : Direction G\u00e9n\u00e9rale des Imp\u00f4ts - Cadastre. Mise \u00e0 jour : 2010", "website": "https://www.lageode.fr/", "wheelchair": "yes", "wikidata": "Q2280550", "wikipedia": "fr:La G\u00e9ode"}}, {"type": "way", "id": 69226411, "nodes": [829925124, 829929025, 829927476, 829925358, 829925254, 829926715, 1232624432, 829925124], "tags": {"amenity": "cinema", "building": "yes", "contact:city": "Paris", "contact:facebook": "https://www.facebook.com/paris.story", "contact:housenumber": "11 bis", "contact:phone": "+33 1 42 66 62 06", "contact:postcode": "75009", "contact:street": "Rue Scribe", "contact:website": "https://www.paris-story.com", "name": "Paris Story", "source": "cadastre-dgi-fr source : Direction G\u00e9n\u00e9rale des Imp\u00f4ts - Cadastre. Mise \u00e0 jour : 2010", "tourism": "attraction"}}, {"type": "way", "id": 70150588, "nodes": [837805139, 837800409, 837801437, 837773304, 837821636, 837844647, 837779754, 837800635, 837834411, 837807796, 837798192, 10251631961, 837816314, 837776063, 837805139], "tags": {"amenity": "cinema", "brand": "MK2", "brand:website": "https://www.mk2.com", "brand:wikidata": "Q19814222", "building": "yes", "building:levels": "5", "capacity": "1238", "contact:city": "Paris", "contact:facebook": "https://www.facebook.com/mk2gambetta", "contact:housenumber": "6", "contact:postcode": "75020", "contact:street": "Rue Belgrand", "contact:website": "https://www.mk2.com/salles/mk2-gambetta", "name": "MK2 Gambetta", "opening_hours": "Mo-Su 10:00-23:00", "operator": "MK2", "ref:FR:CNC": "5691", "screen": "6", "source": "cadastre-dgi-fr source : Direction G\u00e9n\u00e9rale des Imp\u00f4ts - Cadastre. Mise \u00e0 jour : 2010", "wheelchair": "no", "wikidata": "Q3273026", "wikipedia": "fr:MK2 Gambetta"}}, {"type": "way", "id": 78271296, "nodes": [919130053, 919130643, 919129673, 919129991, 919128285, 919129075, 919130269, 919130801, 919130301, 919128290, 919127771, 919129899, 919127836, 919131092, 919128595, 919129033, 919130645, 919129483, 919129341, 919128624, 919129260, 919128436, 919130042, 919128895, 1390840690, 919128642, 919127939, 1419519618, 919128643, 919128260, 1390844559, 1390843763, 919128678, 919128724, 1419519439, 919129068, 919130804, 919128747, 10031481190, 1390841316, 1419519374, 919128298, 919128799, 919127872, 919130502, 1419519372, 919130050, 919129087, 919130214, 919128566, 919130556, 919130756, 919128609, 919127957, 919131031, 919128480, 919127374, 919129651, 919128456, 919128239, 919127611, 919130820, 919128390, 919130612, 1419519349, 919128235, 919128434, 919128020, 919129610, 919127546, 919130999, 919129333, 919128124, 1419519346, 1419519343, 919128378, 1419519481, 1419519558, 919129597, 1419519598, 1390845156, 1390840992, 1390841434, 919130053], "tags": {"acoustic": "voice_description", "addr:city": "Paris", "addr:housenumber": "2", "addr:postcode": "75012", "addr:street": "Cour Saint-\u00c9milion", "amenity": "cinema", "brand": "UGC", "brand:website": "https://www.ugc.fr", "brand:wikidata": "Q1643241", "brand:wikipedia": "fr:Union g\u00e9n\u00e9rale cin\u00e9matographique", "building": "yes", "building:levels": "6", "cinema:3D": "yes", "internet_access": "wlan", "internet_access:fee": "no", "name": "UGC Cin\u00e9 Cit\u00e9 Bercy", "name:etymology:wikidata": "Q16532200", "operator": "UGC", "phone": "+33 1 46 37 28 24", "ref:FR:CNC": "6611", "source": "cadastre-dgi-fr source : Direction G\u00e9n\u00e9rale des Imp\u00f4ts - Cadastre. Mise \u00e0 jour : 2010", "website": "https://www.ugc.fr/cinema.html?id=12", "wheelchair": "yes", "wikidata": "Q3547185"}}, {"type": "way", "id": 78534914, "nodes": [921521515, 921531604, 921541460, 921522762, 921539899, 921516530, 921531668, 921531918, 921538608, 921512361, 921536566, 921519154, 2631520952, 921531282, 2265865829, 921540492, 2631520951, 921531620, 921513377, 921517604, 921510826, 921514657, 921528513, 921515704, 921541633, 921528059, 921527524, 921531855, 921519880, 921527303, 921545571, 921521515], "tags": {"alt_name": "Le Rodin", "amenity": "cinema", "architect:1869": "Alphonse Cusin", "architect:2014": "Renzo Piano", "brand": "Path\u00e9 Gaumont", "brand:website": "https://www.cinemaspathegaumont.com", "brand:wikidata": "Q3060526", "brand:wikipedia": "fr:Les cin\u00e9mas Path\u00e9 Gaumont", "building": "yes", "building:levels": "5", "capacity": "70", "name": "Fondation J\u00e9r\u00f4me Seydoux-Path\u00e9", "note:fr": "Emplacement de L'ancienne Cin\u00e9ma, puis Salle \"Le Rodin\", seul la Fa\u00e7ade c\u00f4t\u00e9 Avenue des Gobelins a \u00e9tait gard\u00e9e", "old_capacity": "800", "old_name": "Th\u00e9\u00e2tre des Gobelins, Cin\u00e9ma Fauvette, Cin\u00e9ma Rodin, Cin\u00e9ma Gaumont Gobelins", "ref:FR:CNC": "no", "source": "cadastre-dgi-fr source : Direction G\u00e9n\u00e9rale des Imp\u00f4ts - Cadastre. Mise \u00e0 jour : 2010", "start_date": "1869, 2014", "website": "http://fondation-jeromeseydoux-pathe.com/", "wikidata": "Q3527752", "wikipedia": "fr:Th\u00e9\u00e2tre des Gobelins"}}, {"type": "way", "id": 79628456, "nodes": [929204023, 929193251, 1363476829, 929201592, 929195811, 929206138, 929198885, 929206395, 929202825, 1256170935, 929193387, 929206153, 929196690, 929194071, 929203535, 929195985, 929204023], "tags": {"amenity": "cinema", "architect": "Manuelle Gautrand", "architect:wikidata": "Q3287020", "architect:wikipedia": "fr:Manuelle Gautrand", "brand": "Path\u00e9 Gaumont", "brand:website": "https://www.cinemaspathegaumont.com", "brand:wikidata": "Q3060526", "brand:wikipedia": "fr:Les cin\u00e9mas Path\u00e9 Gaumont", "building": "yes", "building:levels": "2", "name": "Gaumont Al\u00e9sia", "phone": "+33892696696", "ref:FR:CNC": "8132", "source": "Cadastre. Mise \u00e0 jour : 2016;survey2015", "start_date": "2016", "website": "https://www.cinemaspathegaumont.com/cinemas/cinema-gaumont-alesia", "wheelchair": "yes", "wikidata": "Q42296613"}}, {"type": "way", "id": 195220622, "nodes": [2056871974, 2056871968, 2056871972, 2056871979, 2056871978, 2056871982, 2056871983, 2056871987, 2056871986, 2056871984, 2056871981, 2056871985, 2056871974], "tags": {"acoustic": "voice_description", "addr:city": "Paris", "addr:housenumber": "6", "addr:postcode": "75020", "addr:street": "Esplanade Claude Luter", "amenity": "cinema", "brand": "CGR", "brand:website": "https://www.cgrcinemas.fr/", "brand:wikidata": "Q2931406", "brand:wikipedia": "fr:Circuit Georges-Raymond", "building": "yes", "name": "CGR Cin\u00e9ma - Paris Les Lilas", "operator": "Groupe CGR Cin\u00e9mas", "phone": "+33 8 92 68 85 88", "ref:FR:CNC": "9950", "source": "cadastre-dgi-fr source : Direction G\u00e9n\u00e9rale des Imp\u00f4ts - Cadastre. Mise \u00e0 jour : 2012", "website": "https://www.cgrcinemas.fr/paris-lilas/", "wheelchair": "yes"}}, {"type": "way", "id": 244081955, "nodes": [2514332058, 9561300323, 2514332059, 2867589496, 2284399776, 2055980223, 2055980335, 2867590708, 2867590707, 2867590706, 2514332058], "tags": {"acoustic": "voice_description", "amenity": "cinema", "brand": "UGC", "brand:website": "https://www.ugc.fr", "brand:wikidata": "Q1643241", "brand:wikipedia": "fr:Union g\u00e9n\u00e9rale cin\u00e9matographique", "building": "retail", "building:levels": "4", "capacity": "2790", "contact:facebook": "ClubParis19UGC", "contact:housenumber": "166", "contact:instagram": "clubparis19ugc", "contact:street": "Boulevard Macdonald", "contact:twitter": "ClubParis19UGC", "name": "UGC Cin\u00e9 Cit\u00e9 Paris 19", "operator": "UGC", "ref:FR:CNC": "9906", "screen": "14", "source:position": "cadastre-dgi-fr source : Direction G\u00e9n\u00e9rale des Imp\u00f4ts - Cadastre. Mise \u00e0 jour : 2014 / CG93-Aerodata2013", "toilets": "customers", "toilets:wheelchair": "designated", "website": "https://www.ugc.fr/cinema.html?id=37", "wheelchair": "yes", "wikidata": "Q42296757"}}, {"type": "way", "id": 311101603, "nodes": [2845816093, 4975307148, 3166474159, 3166474461, 3166474160, 2845816093], "tags": {"addr:housenumber": "2", "addr:street": "Rue du Cin\u00e9ma", "amenity": "cinema", "drive_in": "no", "indoor": "area", "internet_access": "wlan", "internet_access:fee": "no", "internet_access:operator": "Mairie de Paris", "level": "-3", "name": "Forum des Images", "source": "survey", "source:internet_access": "Paris Open Data", "toilets": "yes", "toilets:access": "customers", "toilets:disposal": "flush", "toilets:position": "seated;urinal", "toilets:wheelchair": "designated", "website": "https://www.forumdesimages.fr/", "wheelchair": "yes"}}, {"type": "way", "id": 326832121, "nodes": [678871027, 674211457, 674211469, 674211483, 674211484, 674211485, 674211489, 678321403, 678871741, 678871027], "tags": {"amenity": "cinema", "brand": "Path\u00e9 Gaumont", "brand:website": "https://www.cinemaspathegaumont.com", "brand:wikidata": "Q3060526", "brand:wikipedia": "fr:Les cin\u00e9mas Path\u00e9 Gaumont", "building": "yes", "contact:city": "Paris", "contact:housenumber": "27", "contact:postcode": "75015", "contact:street": "Rue Alain Chartier", "contact:website": "http://www.cinemasgaumontpathe.com/cinemas/cinema-gaumont-convention/", "drive_in": "no", "name": "Path\u00e9 Convention", "old_name:1969-2022": "Gaumont Convention", "open_air": "no", "ref:FR:CNC": "7394", "screen": "9", "wikidata": "Q24931807", "wikipedia": "fr:Gaumont Convention"}}, {"type": "way", "id": 365953143, "nodes": [3697390173, 3697400987, 3699515118, 3697400986, 3697390172, 3697390173], "tags": {"amenity": "cinema", "level": "1", "name": "Cin\u00e9ma 1", "website": "https://www.centrepompidou.fr/fr/lib/Cinema-et-video"}}, {"type": "way", "id": 365953144, "nodes": [3699515105, 3699515104, 3699515097, 3699515103, 3699515105], "tags": {"amenity": "cinema", "indoor": "room", "level": "-1", "name": "Cin\u00e9ma 2", "website": "https://www.centrepompidou.fr/fr/lib/Cinema-et-video"}}, {"type": "way", "id": 630982183, "nodes": [5815048731, 5815048736, 5957744798, 5957744787, 1712034525, 1712034477, 5914443968, 5914409055, 5913768935, 5913768934, 5913768933, 5957755245, 5957755244, 5913768904, 5913768889, 5913768903, 5913768898, 5913768896, 5913768900, 5913768901, 5913768891, 5913768902, 5957755243, 5816485161, 9545578245, 9545578243, 9545578246, 9545578244, 9545578247, 5816485155, 5815048740, 5815048731], "tags": {"addr:city": "Paris", "addr:housenumber": "7", "addr:postcode": "75001", "addr:street": "Place de la Rotonde Forum des Halles", "amenity": "cinema", "brand": "UGC", "brand:website": "https://www.ugc.fr", "brand:wikidata": "Q1643241", "brand:wikipedia": "fr:Union g\u00e9n\u00e9rale cin\u00e9matographique", "indoor": "room", "level": "-3;-2", "name": "UGC Cin\u00e9-Cit\u00e9 Les Halles", "operator": "UGC", "ref:FR:CNC": "1681", "ref:FR:SIRET": "39525144000032", "room": "shop", "toilets": "yes", "toilets:access": "customers", "toilets:wheelchair": "designated", "website": "https://www.ugc.fr/cinema.html?id=10", "wheelchair": "yes", "wikidata": "Q3547183"}}, {"type": "way", "id": 1084917455, "nodes": [9941068605, 9941068604, 9941068603, 9941068602, 9941068601, 9941068600, 9941068599, 9941068598, 9941068597, 9941068596, 9941068605], "tags": {"amenity": "cinema", "building": "yes", "name": "Le Kin\u00e9torium"}}]}