{"version": 0.6, "generator": "Overpass API 0.7.60 f4c14d41", "osm3s": {"timestamp_osm_base": "2023-05-02T21:19:24Z", "copyright": "The data included in this document is from www.openstreetmap.org. The data is made available under ODbL."}, "elements": [{"type": "node", "id": 530505822, "lat": 41.0097386, "lon": 29.1388417, "tags": {"name": "Burda", "shop": "convenience"}}, {"type": "node", "id": 530531330, "lat": 41.0048654, "lon": 29.1358277, "tags": {"name": "Temur Hipermarket", "shop": "convenience"}}, {"type": "node", "id": 530589915, "lat": 41.0059616, "lon": 29.1383921, "tags": {"name": "\u00dcst\u00fcn Market", "shop": "convenience"}}, {"type": "node", "id": 530598243, "lat": 41.0132424, "lon": 29.1348077, "tags": {"name": "Mopas", "shop": "convenience"}}, {"type": "node", "id": 566635087, "lat": 41.005123, "lon": 28.9787961, "tags": {"name": "Basaran Mini Market", "shop": "convenience"}}, {"type": "node", "id": 1137609998, "lat": 40.8873603, "lon": 29.1793666, "tags": {"name": "Birlik Market", "shop": "convenience"}}, {"type": "node", "id": 1313818249, "lat": 41.0072748, "lon": 29.1385616, "tags": {"name": "Serra", "opening_hours": "Mo-Su 10:00-21:00", "shop": "convenience"}}, {"type": "node", "id": 1613977087, "lat": 41.0287397, "lon": 28.9805492, "tags": {"name": "G\u00f6zde Market", "name:ar": "\u0645\u0627\u0631\u0643\u062a \u0643\u0648\u0632\u062f\u064a", "shop": "convenience"}}, {"type": "node", "id": 1651528201, "lat": 41.0267537, "lon": 28.9750742, "tags": {"shop": "convenience"}}, {"type": "node", "id": 1657788196, "lat": 41.0341122, "lon": 28.9868346, "tags": {"name": "Kazanc\u0131 Mini Market", "shop": "convenience"}}, {"type": "node", "id": 1657788199, "lat": 41.0337254, "lon": 28.984412, "tags": {"brand": "Carrefour Express", "brand:wikidata": "Q2940190", "brand:wikipedia": "fr:Carrefour Express", "name": "Carrefour Express", "shop": "convenience"}}, {"type": "node", "id": 1863646182, "lat": 40.8781964, "lon": 29.2344818, "tags": {"addr:housename": "G\u00f6kdemir Apt.", "addr:housenumber": "57", "addr:street": "Ortanca cad.", "name": "G\u00fclbak G\u0131da Tic.Ltd.\u015eti MARKET\u0130M", "shop": "convenience", "website": "www.gulbakgida.com tr"}}, {"type": "node", "id": 1863666665, "lat": 40.879733, "lon": 29.233252, "tags": {"name": "G\u00fclbak G\u0131da \u015eube1", "shop": "convenience"}}, {"type": "node", "id": 1863667363, "lat": 40.878719, "lon": 29.2310043, "tags": {"name": "G\u00fclbak G\u0131da \u015eube 2", "shop": "convenience"}}, {"type": "node", "id": 1905650502, "lat": 40.8762696, "lon": 29.2430667, "tags": {"name": "Madalyon Market", "shop": "convenience"}}, {"type": "node", "id": 1911783254, "lat": 41.0419761, "lon": 28.980795, "tags": {"name": "Durak Tekel", "shop": "convenience"}}, {"type": "node", "id": 1911783256, "lat": 41.0408377, "lon": 28.9795646, "tags": {"name": "Seyran B\u00fcfe", "shop": "convenience"}}, {"type": "node", "id": 1912249054, "lat": 41.0277832, "lon": 28.9743172, "tags": {"name": "B\u00fcfe", "shop": "convenience", "wheelchair": "no"}}, {"type": "node", "id": 1914160129, "lat": 41.0032903, "lon": 28.9768973, "tags": {"shop": "convenience"}}, {"type": "node", "id": 1914160130, "lat": 41.0061099, "lon": 28.9801383, "tags": {"shop": "convenience"}}, {"type": "node", "id": 1915390149, "lat": 41.035185, "lon": 28.9784433, "tags": {"name": "G\u00fc\u00e7l\u00fc Tekel", "shop": "convenience"}}, {"type": "node", "id": 2258308736, "lat": 41.0230869, "lon": 29.1856095, "tags": {"shop": "convenience"}}, {"type": "node", "id": 2260490072, "lat": 41.0211296, "lon": 29.1884842, "tags": {"brand": "Carrefour Express", "brand:wikidata": "Q2940190", "brand:wikipedia": "fr:Carrefour Express", "name": "Carrefour Express", "shop": "convenience"}}, {"type": "node", "id": 2266985364, "lat": 41.025188, "lon": 29.1878203, "tags": {"shop": "convenience"}}, {"type": "node", "id": 2277774145, "lat": 40.9840891, "lon": 29.0722059, "tags": {"addr:city": "\u0130stanbul", "addr:housenumber": "19", "addr:postcode": "34732", "addr:street": "\u015eair Ar\u015fi Caddesi", "name": "Kom\u015fum Market", "shop": "convenience"}}, {"type": "node", "id": 2293643465, "lat": 41.0058378, "lon": 28.9798147, "tags": {"shop": "convenience"}}, {"type": "node", "id": 2384524273, "lat": 40.8920125, "lon": 29.258428, "tags": {"name": "Sun G\u0131da 2", "shop": "convenience"}}, {"type": "node", "id": 2452245651, "lat": 40.9749719, "lon": 29.0520837}, {"type": "node", "id": 2452245652, "lat": 40.9750457, "lon": 29.0518852}, {"type": "node", "id": 2452245655, "lat": 40.9751694, "lon": 29.0521827}, {"type": "node", "id": 2452245659, "lat": 40.9752675, "lon": 29.0519281}, {"type": "node", "id": 2457420491, "lat": 40.8774596, "lon": 29.0984044, "tags": {"name": "Cansu Market", "shop": "convenience"}}, {"type": "node", "id": 2514353741, "lat": 40.9983634, "lon": 29.1426835, "tags": {"brand": "Carrefour Express", "brand:wikidata": "Q2940190", "brand:wikipedia": "fr:Carrefour Express", "name": "Carrefour Express", "shop": "convenience"}}, {"type": "node", "id": 2514747644, "lat": 40.9969631, "lon": 29.103901, "tags": {"brand": "Carrefour Express", "brand:wikidata": "Q2940190", "brand:wikipedia": "fr:Carrefour Express", "name": "Carrefour Express", "shop": "convenience"}}, {"type": "node", "id": 2640816207, "lat": 41.0126067, "lon": 29.1720983, "tags": {"shop": "convenience"}}, {"type": "node", "id": 2647741008, "lat": 40.9755243, "lon": 29.1528806, "tags": {"name": "B\u00fclb\u00fcl G\u0131da", "shop": "convenience"}}, {"type": "node", "id": 2656411265, "lat": 41.0059412, "lon": 29.0441483, "tags": {"name": "Metin Market", "shop": "convenience"}}, {"type": "node", "id": 2793705399, "lat": 40.9444941, "lon": 29.3879341}, {"type": "node", "id": 2793705404, "lat": 40.9444979, "lon": 29.3881206}, {"type": "node", "id": 2793708684, "lat": 40.9443744, "lon": 29.3879384}, {"type": "node", "id": 2793708685, "lat": 40.9443782, "lon": 29.3881248}, {"type": "node", "id": 2799946660, "lat": 40.9200186, "lon": 29.2961802}, {"type": "node", "id": 2799946663, "lat": 40.920105, "lon": 29.2959648}, {"type": "node", "id": 2799946665, "lat": 40.9204455, "lon": 29.2964744}, {"type": "node", "id": 2799946666, "lat": 40.9204375, "lon": 29.2964299}, {"type": "node", "id": 2828513320, "lat": 41.0345291, "lon": 29.0543183, "tags": {"shop": "convenience"}}, {"type": "node", "id": 2828513321, "lat": 41.0346108, "lon": 29.0543138}, {"type": "node", "id": 2828513322, "lat": 41.0346108, "lon": 29.0544339}, {"type": "node", "id": 2828513323, "lat": 41.0345275, "lon": 29.0544339}, {"type": "node", "id": 2828692190, "lat": 40.9397649, "lon": 29.1190316, "tags": {"name": "Bayramo\u011flu G\u0131da", "shop": "convenience"}}, {"type": "node", "id": 2828752891, "lat": 40.940302, "lon": 29.1198765, "tags": {"name": "Ak\u00e7e G\u0131da", "shop": "convenience"}}, {"type": "node", "id": 2829159188, "lat": 40.9440643, "lon": 29.1248842, "tags": {"name": "Can G\u0131da", "shop": "convenience"}}, {"type": "node", "id": 2843137852, "lat": 40.9020304, "lon": 29.1675183, "tags": {"landuse": "commercial", "name": "Tekel", "shop": "convenience"}}, {"type": "node", "id": 2850578024, "lat": 40.9518454, "lon": 29.1015005, "tags": {"brand": "Carrefour Express", "brand:wikidata": "Q2940190", "brand:wikipedia": "fr:Carrefour Express", "name": "Carrefour Express", "operator": "Groupe Carrefour", "operator:wikidata": "Q3117359", "operator:wikipedia": "fr:Groupe Carrefour", "shop": "convenience"}}, {"type": "node", "id": 2902932725, "lat": 41.0189951, "lon": 29.1260137, "tags": {"name": "Migros Jet Market", "name:tr": "Migros Jet Market", "opening_hours": "Mo-Su 09:00-21:00", "shop": "convenience", "toilets:wheelchair": "no", "website": "https://www.migros.com.tr/", "wheelchair": "limited"}}, {"type": "node", "id": 3102598071, "lat": 41.0034354, "lon": 28.9760324, "tags": {"name": "Sen Market", "shop": "convenience"}}, {"type": "node", "id": 3304413776, "lat": 41.0134512, "lon": 28.9753533, "tags": {"brand": "Carrefour Express", "brand:wikidata": "Q2940190", "brand:wikipedia": "fr:Carrefour Express", "name": "Carrefour Express", "shop": "convenience"}}, {"type": "node", "id": 3374370151, "lat": 41.0259334, "lon": 28.9748175, "tags": {"brand": "\u015eok", "brand:wikidata": "Q19613992", "brand:wikipedia": "tr:\u015eok (market)", "name": "\u015eok", "opening_hours": "Mo-Su 8:00-21:00", "shop": "convenience", "wheelchair": "no"}}, {"type": "node", "id": 3499228122, "lat": 41.0132756, "lon": 28.9774169, "tags": {"operator": "Market Discount Kervan", "shop": "convenience", "wheelchair": "no"}}, {"type": "node", "id": 3499231828, "lat": 41.0133484, "lon": 28.9773418, "tags": {"name": "Tadal Discount Market", "shop": "convenience", "wheelchair": "yes"}}, {"type": "node", "id": 3499267511, "lat": 41.0140588, "lon": 28.9768241, "tags": {"shop": "convenience", "wheelchair": "no"}}, {"type": "node", "id": 3522192620, "lat": 41.0054173, "lon": 29.1453185, "tags": {"name": "Peynir Dura\u011f\u0131", "shop": "convenience"}}, {"type": "node", "id": 3522195707, "lat": 41.004778, "lon": 29.1445199, "tags": {"name": "Ekomini Market", "shop": "convenience"}}, {"type": "node", "id": 4179341887, "lat": 40.9569662, "lon": 29.086165, "tags": {"shop": "convenience"}}, {"type": "node", "id": 4332159891, "lat": 40.9794696, "lon": 29.1159185, "tags": {"addr:housenumber": "25/B", "addr:postcode": "34750", "addr:street": "Fevzi Pa\u015fa Caddesi", "name": "Fatih Kuruyemi\u015f", "opening_hours": "Mo-Su 07:00-24:00", "phone": "05432564253", "shop": "convenience"}}, {"type": "node", "id": 4437334489, "lat": 41.0132597, "lon": 29.0864995, "tags": {"fixme": "verification needed", "shop": "convenience"}}, {"type": "node", "id": 4453952971, "lat": 41.0322159, "lon": 28.9858388, "tags": {"shop": "convenience"}}, {"type": "node", "id": 4453952972, "lat": 41.0321007, "lon": 28.9854019, "tags": {"shop": "convenience"}}, {"type": "node", "id": 4458777989, "lat": 41.0402948, "lon": 28.9846418, "tags": {"shop": "convenience"}}, {"type": "node", "id": 4540062148, "lat": 40.9636011, "lon": 29.0961986, "tags": {"name": "Bacanak Bakkal", "shop": "convenience"}}, {"type": "node", "id": 4540063221, "lat": 40.9625605, "lon": 29.0966533, "tags": {"name": "Yunus Market", "shop": "convenience"}}, {"type": "node", "id": 4540157009, "lat": 40.9620925, "lon": 29.0960321, "tags": {"name": "Mopa\u015f Market", "shop": "convenience", "source": "Mapbox"}}, {"type": "node", "id": 4543170711, "lat": 40.9421065, "lon": 29.1455086, "tags": {"name": "\u00d6zlem G\u0131da", "shop": "convenience"}}, {"type": "node", "id": 4544846151, "lat": 40.9612854, "lon": 29.0891407, "tags": {"addr:city": "\u0130stanbul", "addr:housenumber": "41", "addr:postcode": "81070", "addr:street": "Emin Ali Pa\u015fa Caddesi", "name": "\u00c7iftli\u011finden Kahvalt\u0131", "shop": "convenience"}}, {"type": "node", "id": 4544855567, "lat": 41.0139223, "lon": 29.1340951, "tags": {"name": "Y\u0131ld\u0131z Ambalaj", "shop": "convenience"}}, {"type": "node", "id": 4544874338, "lat": 41.0140031, "lon": 29.1322325, "tags": {"name": "Y\u00f6rem S\u00fct \u00dcr\u00fcnleri", "shop": "convenience"}}, {"type": "node", "id": 4544882500, "lat": 41.0144703, "lon": 29.1316456, "tags": {"name": "Ya\u011fmur Tekel Kuruyemi\u015f", "shop": "convenience"}}, {"type": "node", "id": 4544922105, "lat": 41.0162941, "lon": 29.1297569, "tags": {"name": "Diyar Kuruyemi\u015f", "shop": "convenience", "wheelchair": "no"}}, {"type": "node", "id": 4545679391, "lat": 40.9897501, "lon": 29.0263232, "tags": {"name": "Shoko", "name:en": "\u0645\u062d\u0644 shoko", "shop": "convenience"}}, {"type": "node", "id": 4548349898, "lat": 40.9276847, "lon": 29.1444308, "tags": {"name": "As Mini Market", "shop": "convenience"}}, {"type": "node", "id": 4548350068, "lat": 40.9254117, "lon": 29.1452749, "tags": {"name": "Mini Market", "shop": "convenience"}}, {"type": "node", "id": 4548350109, "lat": 40.9262382, "lon": 29.1465293, "tags": {"name": "Mini Market", "shop": "convenience"}}, {"type": "node", "id": 4548350150, "lat": 40.9258857, "lon": 29.1477972, "tags": {"name": "Mini Market", "shop": "convenience"}}, {"type": "node", "id": 4549691705, "lat": 40.9077965, "lon": 29.1792295, "tags": {"name": "Oru\u00e7 Market", "shop": "convenience"}}, {"type": "node", "id": 4549693955, "lat": 40.9078176, "lon": 29.1794513, "tags": {"name": "Migros Jet", "shop": "convenience"}}, {"type": "node", "id": 4551074007, "lat": 40.9047616, "lon": 29.1786173, "tags": {"name": "Site G\u0131da", "shop": "convenience"}}, {"type": "node", "id": 4551097587, "lat": 40.9066787, "lon": 29.186906, "tags": {"name": "Ecemar", "shop": "convenience"}}, {"type": "node", "id": 4551419221, "lat": 40.9253139, "lon": 29.1424484, "tags": {"name": "Mini Market", "name:tr": "As Mini Market", "shop": "convenience"}}, {"type": "node", "id": 4551420450, "lat": 40.9248721, "lon": 29.140255, "tags": {"name": "Mini Market", "shop": "convenience"}}, {"type": "node", "id": 4551420451, "lat": 40.924601, "lon": 29.1401245, "tags": {"name": "Mini Market", "shop": "convenience"}}, {"type": "node", "id": 4552405455, "lat": 40.9478942, "lon": 29.1165159, "tags": {"name": "Bakkal", "shop": "convenience"}}, {"type": "node", "id": 4553378138, "lat": 40.9581227, "lon": 29.092613, "tags": {"name": "Sezgin Mini Market", "shop": "convenience"}}, {"type": "node", "id": 4557498670, "lat": 40.9077907, "lon": 29.1798963, "tags": {"name": "Hakmar", "shop": "convenience"}}, {"type": "node", "id": 4560460639, "lat": 41.0101714, "lon": 29.2162276, "tags": {"name": "Metin Bakkal", "shop": "convenience"}}, {"type": "node", "id": 4563051525, "lat": 40.9637833, "lon": 29.0853811, "tags": {"addr:city": "\u0130stanbul", "addr:housenumber": "21", "addr:postcode": "81070", "addr:street": "Halay Sokak", "shop": "convenience"}}, {"type": "node", "id": 4564974544, "lat": 40.9079872, "lon": 29.1801511, "tags": {"name": "Anadolu \u00d6z G\u0131da", "shop": "convenience"}}, {"type": "node", "id": 4565002035, "lat": 40.90708, "lon": 29.1851259, "tags": {"name": "Aslan G\u0131da", "shop": "convenience"}}, {"type": "node", "id": 4565579319, "lat": 41.0095304, "lon": 29.2210318, "tags": {"name": "Arzum G\u0131da", "shop": "convenience"}}, {"type": "node", "id": 4565646100, "lat": 40.925502, "lon": 29.1418785, "tags": {"shop": "convenience"}}, {"type": "node", "id": 4565646123, "lat": 40.9242598, "lon": 29.1387624, "tags": {"name": "Dere Tekel", "shop": "convenience"}}, {"type": "node", "id": 4567358866, "lat": 40.9072795, "lon": 29.1854555, "tags": {"name": "Han G\u0131da", "shop": "convenience"}}, {"type": "node", "id": 4567425154, "lat": 40.9394463, "lon": 29.1272733}, {"type": "node", "id": 4567425155, "lat": 40.9394678, "lon": 29.1275398}, {"type": "node", "id": 4567425156, "lat": 40.9393653, "lon": 29.1275543}, {"type": "node", "id": 4567425157, "lat": 40.9393438, "lon": 29.1272878}, {"type": "node", "id": 4572114075, "lat": 41.0179949, "lon": 29.0406913, "tags": {"addr:city": "\u00dcsk\u00fcdar/\u0130stanbul", "addr:street": "S\u0131rmaperde Sokak", "name": "\u00dcnsal Market", "shop": "convenience"}}, {"type": "node", "id": 4573147345, "lat": 41.0170083, "lon": 29.0431934, "tags": {"addr:city": "\u00dcsk\u00fcdar/\u0130stanbul", "addr:street": "S\u0131rmaperde Sokak", "name": "MER\u0130\u00c7 GIDA", "shop": "convenience"}}, {"type": "node", "id": 4574533741, "lat": 40.9557689, "lon": 29.0907868, "tags": {"name": "Mini Market", "shop": "convenience"}}, {"type": "node", "id": 4575518107, "lat": 40.9448379, "lon": 29.1195125, "tags": {"name": "Karayollar\u0131 Bakkal", "shop": "convenience"}}, {"type": "node", "id": 4575752199, "lat": 40.9384886, "lon": 29.1562736, "tags": {"name": "Eko market", "shop": "convenience"}}, {"type": "node", "id": 4575837879, "lat": 40.9363684, "lon": 29.153896, "tags": {"name": "UCZ Market", "shop": "convenience"}}, {"type": "node", "id": 4576007297, "lat": 40.9384296, "lon": 29.1438155, "tags": {"shop": "convenience"}}, {"type": "node", "id": 4576844337, "lat": 41.0115416, "lon": 29.0388577, "tags": {"addr:city": "\u00dcsk\u00fcdar/\u0130stanbul", "addr:street": "Ko\u015fuyolu Caddesi", "name": "FATO\u015e B\u00dcFE", "shop": "convenience"}}, {"type": "node", "id": 4577945777, "lat": 40.9410694, "lon": 29.1406944, "tags": {"name": "Deniz Bakkal", "shop": "convenience"}}, {"type": "node", "id": 4580351425, "lat": 40.9233902, "lon": 29.1430145, "tags": {"name": "Ucz", "shop": "convenience"}}, {"type": "node", "id": 4580351426, "lat": 40.9233277, "lon": 29.1428653, "tags": {"name": "\u00c7illi Tekel \u015eark\u00fcteri", "shop": "convenience"}}, {"type": "node", "id": 4580351428, "lat": 40.9233247, "lon": 29.1425702, "tags": {"name": "Mini Market", "shop": "convenience"}}, {"type": "node", "id": 4580351442, "lat": 40.9225535, "lon": 29.1414302, "tags": {"shop": "convenience"}}, {"type": "node", "id": 4580351459, "lat": 40.9218633, "lon": 29.139896, "tags": {"name": "\u0130nci Market", "shop": "convenience"}}, {"type": "node", "id": 4580351486, "lat": 40.921896, "lon": 29.1390979, "tags": {"name": "Karadeniz Tekel", "shop": "convenience"}}, {"type": "node", "id": 4580351495, "lat": 40.9218037, "lon": 29.1384541, "tags": {"name": "Akasya Market", "shop": "convenience"}}, {"type": "node", "id": 4580351508, "lat": 40.9215778, "lon": 29.1377112, "tags": {"name": "Mini Market", "shop": "convenience"}}, {"type": "node", "id": 4580351530, "lat": 40.9214902, "lon": 29.1390298, "tags": {"name": "Mini Market", "shop": "convenience"}}, {"type": "node", "id": 4580466297, "lat": 40.8901876, "lon": 29.1786219, "tags": {"name": "Tekel", "name:tr": "Tekel", "shop": "convenience"}}, {"type": "node", "id": 4584879576, "lat": 41.0442246, "lon": 29.0090879, "tags": {"name": "\u0130kizler Market", "shop": "convenience"}}, {"type": "node", "id": 4732822046, "lat": 40.9850761, "lon": 29.0303903, "tags": {"name": "As Market", "shop": "convenience"}}, {"type": "node", "id": 4732822069, "lat": 40.9861694, "lon": 29.0309104, "tags": {"name": "Peynirci 2", "shop": "convenience"}}, {"type": "node", "id": 4739580224, "lat": 41.0154173, "lon": 28.9710763, "tags": {"name": "\u0646\u0648\u0631 \u0627\u0648\u0628\u0643", "name:tr": "\u0646\u0648\u0631 \u0627\u0648\u0628\u0643", "shop": "convenience"}}, {"type": "node", "id": 4739580225, "lat": 41.0133628, "lon": 28.9690216, "tags": {"name": "IPEKCE \u0627\u064a\u0628\u0648\u0643", "name:tr": "IPEKCE \u0627\u064a\u0628\u0648\u0643", "shop": "convenience"}}, {"type": "node", "id": 4739616222, "lat": 41.0140932, "lon": 28.9700715, "tags": {"name": "\u0645\u062d\u0645\u0648\u062f \u0628\u0627\u0634\u0627", "name:tr": "\u0645\u062d\u0645\u0648\u062f \u0628\u0627\u0634\u0627", "shop": "convenience"}}, {"type": "node", "id": 4742737142, "lat": 40.9839953, "lon": 29.0299523, "tags": {"name": "Karde\u015fler Market", "shop": "convenience"}}, {"type": "node", "id": 4764930849, "lat": 41.0499638, "lon": 28.9822283, "tags": {"name": "Migros Jet", "opening_hours": "Mo-Sa 08:30-21:30; PH,Su 09:00-21:30", "shop": "convenience"}}, {"type": "node", "id": 4774656822, "lat": 40.9868802, "lon": 29.0333388, "tags": {"name": "Migros Jet", "shop": "convenience"}}, {"type": "node", "id": 4791953122, "lat": 40.9862831, "lon": 29.0309389, "tags": {"name": "SOK", "opening_hours": "Mo-Su 09:00-21:00", "shop": "convenience"}}, {"type": "node", "id": 4832891179, "lat": 40.9625702, "lon": 29.264929, "tags": {"name": "HAKMAR", "shop": "convenience"}}, {"type": "node", "id": 4853250795, "lat": 40.9657238, "lon": 29.267184, "tags": {"name": "\u00c7a\u011fr\u0131 Hipermarketleri", "shop": "convenience"}}, {"type": "node", "id": 4853250803, "lat": 40.9656068, "lon": 29.2671655, "tags": {"name": "Sultanbeyli Bal\u0131k\u00e7\u0131s\u0131", "shop": "convenience"}}, {"type": "node", "id": 4853281777, "lat": 40.9672934, "lon": 29.2604046, "tags": {"name": "HAKMAR", "shop": "convenience"}}, {"type": "node", "id": 4858343024, "lat": 40.9193191, "lon": 29.1319048, "tags": {"shop": "convenience"}}, {"type": "node", "id": 4858343232, "lat": 40.9184172, "lon": 29.1337413, "tags": {"name": "\u00c7ayirlar Bakkal", "name:tr": "\u00c7ayirlar Bakkal", "shop": "convenience"}}, {"type": "node", "id": 4858343235, "lat": 40.9195574, "lon": 29.1314478, "tags": {"shop": "convenience"}}, {"type": "node", "id": 4858344026, "lat": 40.9183303, "lon": 29.1339446, "tags": {"name": "Ercan Bakkal", "name:tr": "Ercan Bakkal", "shop": "convenience"}}, {"type": "node", "id": 4858344028, "lat": 40.9195097, "lon": 29.131496, "tags": {"shop": "convenience"}}, {"type": "node", "id": 4887115923, "lat": 41.0288288, "lon": 28.9796181, "tags": {"name": "Kamal\u0131 Market", "name:tr": "Kamal\u0131 Market", "shop": "convenience"}}, {"type": "node", "id": 4889069421, "lat": 41.0323863, "lon": 28.9823147, "tags": {"name": "Ye\u015fil\u00e7am Manavi", "name:tr": "Ye\u015fil\u00e7am Manavi", "shop": "convenience"}}, {"type": "node", "id": 4897411922, "lat": 41.0312382, "lon": 28.9725355, "tags": {"shop": "convenience"}}, {"type": "node", "id": 4952673546, "lat": 41.033624, "lon": 28.9876361, "tags": {"addr:city": "\u0130stanbul", "addr:neighbourhood": "Bolahenk Sok. No: 5", "addr:street": "Bolahenk Sk.", "drive_through": "no", "name": "Kasaro\u011flu \u015eark\u00fcteri", "shop": "convenience"}}, {"type": "node", "id": 5050279265, "lat": 40.9363392, "lon": 29.1219962}, {"type": "node", "id": 5050279266, "lat": 40.9360891, "lon": 29.1222458}, {"type": "node", "id": 5050279267, "lat": 40.9362735, "lon": 29.1225694}, {"type": "node", "id": 5050279268, "lat": 40.9365235, "lon": 29.1223198}, {"type": "node", "id": 5052121224, "lat": 40.9870076, "lon": 29.0457476, "tags": {"addr:street": "Fahrettin Kerim G\u00f6kay Caddesi", "name": "Migros Jet", "name:tr": "Migros Jet", "shop": "convenience"}}, {"type": "node", "id": 5052121423, "lat": 40.9900551, "lon": 29.0493334, "tags": {"addr:street": "Kasri Ali Caddesi", "name": "Selim Hipermarket", "name:tr": "Selim Hipermarket", "shop": "convenience"}}, {"type": "node", "id": 5052121521, "lat": 40.9899595, "lon": 29.0486609, "tags": {"addr:street": "Murat Pa\u015fa Caddesi", "name": "Giyas Tekel", "name:tr": "Giyas Tekel", "shop": "convenience"}}, {"type": "node", "id": 5064986924, "lat": 40.9817239, "lon": 29.14269, "tags": {"name": "K\u0131smet Kuruyemi\u015f", "name:tr": "K\u0131smet Kuruyemi\u015f", "shop": "convenience"}}, {"type": "node", "id": 5065006522, "lat": 40.9820893, "lon": 29.1402165, "tags": {"name": "Aziz Bakkal", "shop": "convenience"}}, {"type": "node", "id": 5067457507, "lat": 40.9845481, "lon": 29.0709249, "tags": {"addr:city": "\u0130stanbul", "addr:district": "kad\u0131k\u00f6y", "addr:housenumber": "11", "addr:neighbourhood": "Merdivenk\u00f6y", "addr:postcode": "34732", "addr:street": "G\u00fcnayd\u0131n Sokak", "name": "Canpolat", "opening_hours": "Mo-Su 09:00-21:00", "shop": "convenience"}}, {"type": "node", "id": 5106523030, "lat": 41.0048146, "lon": 28.9656536, "tags": {"name": "serhan gida", "shop": "convenience"}}, {"type": "node", "id": 5106523031, "lat": 41.0048057, "lon": 28.9649998, "tags": {"check_date": "2022-11-11", "name": "Star Tekel", "shop": "convenience"}}, {"type": "node", "id": 5108843066, "lat": 41.0089511, "lon": 28.9754514, "tags": {"addr:city": "Istanbul", "addr:district": "Fatih", "addr:street": "\u00c7atal\u00e7e\u015fme Sokak", "name": "Meydan Market", "name:ar": "\u0645\u062a\u062c\u0631 \u0645\u064a\u062f\u0627\u0646", "shop": "convenience"}}, {"type": "node", "id": 5108843073, "lat": 41.0089974, "lon": 28.9757186, "tags": {"addr:city": "Istanbul", "addr:district": "Fatih", "addr:street": "Ticarethane Sokak", "name": "Shop Market", "name:ar": "\u0645\u062a\u062c\u0631 \u0634\u0648\u0628 \u0645\u0627\u0631\u0643\u062a", "shop": "convenience"}}, {"type": "node", "id": 5108843085, "lat": 41.0082425, "lon": 28.9771667, "tags": {"addr:city": "Istanbul", "addr:district": "Fatih", "addr:street": "\u0130ncili \u00c7avu\u015f Sokak", "name": "G\u00fcven Market", "shop": "convenience"}}, {"type": "node", "id": 5108843106, "lat": 41.0078973, "lon": 28.9774728, "tags": {"addr:city": "Istanbul", "addr:district": "Fatih", "addr:street": "Divan Yolu Caddesi", "name": "Hilal B\u00fcfe", "shop": "convenience"}}, {"type": "node", "id": 5108843391, "lat": 41.0106903, "lon": 28.9772746, "tags": {"addr:city": "Istanbul", "addr:district": "Fatih", "addr:street": "H\u00fck\u00fcmet Kona\u011f\u0131 Caddesi", "name": "Antik B\u00fcfe", "shop": "convenience"}}, {"type": "node", "id": 5108843524, "lat": 41.0087653, "lon": 28.9775137, "tags": {"addr:city": "Istanbul", "addr:district": "Fatih", "addr:street": "Yerebatan Caddesi", "name": "Murat Gida Shop", "shop": "convenience"}}, {"type": "node", "id": 5108843751, "lat": 41.0082569, "lon": 28.9747302, "tags": {"addr:city": "Istanbul", "addr:district": "Fatih", "addr:street": "Divan Yolu Caddesi", "name": "\u00d6z \u015eahinler Market", "name:ar": "\u0645\u062a\u062c\u0631 \u0623\u0648\u0632 \u0634\u0627\u0647\u064a\u0646\u0644\u0627\u0631", "shop": "convenience"}}, {"type": "node", "id": 5112736058, "lat": 41.0149622, "lon": 28.9685859, "tags": {"addr:city": "Istanbul", "addr:district": "Fatih", "addr:street": "Vas\u0131f \u00c7\u0131nar Caddesi", "name": "Faruk G\u00fcll\u00fco\u011flu", "name:ar": "\u0641\u0627\u0631\u0648\u0643 \u063a\u0648\u0644\u0644\u0648 \u0623\u0648\u063a\u0644\u0648 \u0644\u0644\u062d\u0644\u0648\u064a\u0627\u062a", "shop": "convenience"}}, {"type": "node", "id": 5113487024, "lat": 41.0166276, "lon": 28.9656603, "tags": {"addr:city": "Istanbul", "addr:district": "Fatih", "addr:street": "Fetva yoku\u015fu Soka\u011f\u0131", "name": "Karde\u015fler", "name:ar": "\u0643\u0627\u0631\u062f\u064a\u0634\u0644\u0631", "shop": "convenience"}}, {"type": "node", "id": 5113500310, "lat": 41.0057245, "lon": 28.973682, "tags": {"addr:city": "Istanbul", "addr:district": "Fatih", "addr:street": "\u00dc\u00e7ler sokak", "check_date": "2022-11-12", "name": "Ertan Mini Market", "name:ar": "\u0627\u0631\u062a\u0627\u0646", "shop": "convenience"}}, {"type": "node", "id": 5113620633, "lat": 41.0060709, "lon": 28.980807, "tags": {"addr:city": "Istanbul", "addr:district": "Turkey", "addr:street": "Akb\u0131y\u0131k Caddesi", "name": "Uysal G\u0131da", "shop": "convenience"}}, {"type": "node", "id": 5113620701, "lat": 41.0138508, "lon": 28.9791609, "tags": {"addr:city": "Istanbul", "addr:district": "Turkey", "addr:street": "Tayahatun sokak", "name": "Aksu market", "shop": "convenience"}}, {"type": "node", "id": 5113620708, "lat": 41.0134373, "lon": 28.9788784, "tags": {"addr:city": "Istanbul", "addr:district": "Turkey", "addr:street": "Tayahatun sokak", "name": "Red shop", "shop": "convenience"}}, {"type": "node", "id": 5113620715, "lat": 41.012867, "lon": 28.9787241, "tags": {"addr:city": "Istanbul", "addr:district": "Turkey", "addr:street": "Tayahatun sokak", "name": "Market isranbul", "shop": "convenience"}}, {"type": "node", "id": 5113624625, "lat": 41.0052824, "lon": 28.9811157, "tags": {"addr:city": "Istanbul", "addr:district": "Fatih", "addr:street": "Cankurtaran caddesi", "name": "Bilen g\u0131da", "shop": "convenience"}}, {"type": "node", "id": 5113624626, "lat": 41.0054102, "lon": 28.9814016, "tags": {"addr:city": "Istanbul", "addr:district": "Fatih", "addr:street": "Cankurtaran caddesi", "name": "Cankurtaran mini market", "shop": "convenience"}}, {"type": "node", "id": 5113624628, "lat": 41.0051941, "lon": 28.981838, "tags": {"addr:city": "Istanbul", "addr:district": "Fatih", "addr:street": "Yeni sar\u00e7hane sokak", "name": "\u0130nce'nin yeri bakkal", "shop": "convenience"}}, {"type": "node", "id": 5139013521, "lat": 40.9077035, "lon": 29.165874, "tags": {"addr:street": "Keban Sokak", "name": "Bakkal Hasan", "opening_hours": "Mo-Su 07:00-23:00", "operator": "Hasan Bakkal", "shop": "convenience"}}, {"type": "node", "id": 5244796161, "lat": 41.0173882, "lon": 28.9686418, "tags": {"addr:city": "Istanbul", "addr:district": "Fatih", "addr:street": "Has\u0131rc\u0131lar Caddesi", "name": "Dilek", "name:ar": "\u062f\u064a\u0644\u064a\u0643", "shop": "convenience"}}, {"type": "node", "id": 5244801838, "lat": 41.0039945, "lon": 28.9755579, "tags": {"addr:city": "Istanbul", "addr:district": "Fatih", "addr:street": "\u015eifa Hamam\u0131 Sokak", "name": "Bereket Mini Market", "name:ar": "\u0628\u0631\u0643\u0627\u062a \u0645\u064a\u0646\u064a \u0645\u0627\u0631\u0643\u062a", "shop": "convenience"}}, {"type": "node", "id": 5244801855, "lat": 41.0050828, "lon": 28.9698762, "tags": {"addr:city": "Istanbul", "addr:district": "Fatih", "addr:street": "Kad\u0131rga Liman\u0131 Caddesi", "name": "Mapavri Minimarket", "name:ar": "\u0645\u0627\u0628\u0641\u0627\u0631\u064a \u0645\u064a\u0646\u064a \u0645\u0627\u0631\u0643\u062a", "shop": "convenience"}}, {"type": "node", "id": 5244801895, "lat": 41.0034672, "lon": 28.975041, "tags": {"addr:city": "Istanbul", "addr:district": "Fatih", "addr:street": "Gelinlik Sokak", "name": "Mini Market Tekel Shop", "name:ar": "\u0645\u064a\u0646\u064a \u0645\u0627\u0631\u0643\u062a \u062a\u064a\u0643\u064a\u0644 \u0634\u0648\u0628", "shop": "convenience"}}, {"type": "node", "id": 5244801917, "lat": 41.0031437, "lon": 28.974873, "tags": {"addr:city": "Istanbul", "addr:district": "Fatih", "addr:street": "Mustafa Pa\u015fa Sokak", "name": "Ufuk Mini Market", "name:ar": "\u0623\u0648\u0641\u0648\u0643 \u0645\u064a\u0646\u064a \u0645\u0627\u0631\u0643\u062a", "shop": "convenience"}}, {"type": "node", "id": 5244807856, "lat": 41.0062371, "lon": 28.9667996, "tags": {"addr:city": "Istanbul", "addr:district": "Fatih", "addr:street": "Gedik Pa\u015fa Caddesi", "name": "Turna B\u00fcfe ve Tekel", "name:ar": "\u062a\u0648\u0631\u0646\u0627 \u0628\u0648\u0641\u064a \u0641\u064a \u062a\u064a\u0643\u064a\u0644", "shop": "convenience"}}, {"type": "node", "id": 5244810305, "lat": 41.005732, "lon": 28.9648224, "tags": {"addr:city": "Istanbul", "addr:district": "Fatih", "addr:street": "Kurban Sokak", "name": "\u015f\u0131klar B\u00fcfe", "name:ar": "\u0634\u064a\u0643\u0644\u0627\u0631 \u0628\u0648\u0641\u064a", "shop": "convenience"}}, {"type": "node", "id": 5244810634, "lat": 41.0068598, "lon": 28.9677227, "tags": {"addr:city": "Istanbul", "addr:district": "Fatih", "addr:street": "Mutrip Sokak", "name": "Ko\u00e7yi\u011fit B\u00fcfe", "name:ar": "\u0643\u0648\u062a\u0634\u064a\u064a\u063a\u064a\u062a \u0628\u0648\u0641\u064a", "shop": "convenience"}}, {"type": "node", "id": 5244810645, "lat": 41.0070932, "lon": 28.9655834, "tags": {"addr:city": "Istanbul", "addr:district": "Fatih", "addr:street": "Esirci Kemalettin Camii Sokak", "name": "Cem B\u00fcfe Tekel Bayii", "name:ar": "\u062c\u064a\u0645 \u0628\u0648\u0641\u064a \u062a\u064a\u0643\u064a\u0644 \u0628\u0627\u064a\u064a", "shop": "convenience"}}, {"type": "node", "id": 5244812074, "lat": 41.0193872, "lon": 28.9644842, "tags": {"addr:city": "Istanbul", "addr:district": "Fatih", "addr:street": "K\u0131ble \u00c7e\u015fme Caddesi", "name": "AYAR GIDA", "shop": "convenience"}}, {"type": "node", "id": 5244812101, "lat": 41.0180805, "lon": 28.9680857, "tags": {"addr:city": "Istanbul", "addr:district": "Fatih", "addr:street": "Rag\u0131p G\u00fcm\u00fc\u015fpala Caddesi", "name": "Hocaogullari Gida Kuruyemis", "shop": "convenience"}}, {"type": "node", "id": 5244812114, "lat": 41.0177018, "lon": 28.9682693, "tags": {"addr:city": "Istanbul", "addr:district": "Fatih", "addr:street": "Kutucular Caddesi", "name": "Karakus Ticaret", "name:ar": "\u0643\u0627\u0631\u0627\u0643\u0648\u0633 \u062a\u062c\u0627\u0631\u064a\u062a", "shop": "convenience"}}, {"type": "node", "id": 5255840798, "lat": 40.9287695, "lon": 29.1346045, "tags": {"addr:neighbourhood": "ba\u011flarba\u015f\u0131 mahallesi", "addr:street": "Atat\u00fcrk Caddesi", "name": "Can Market", "shop": "convenience"}}, {"type": "node", "id": 5260250357, "lat": 41.0267868, "lon": 29.0331705, "tags": {"addr:city": "\u0130stanbul", "addr:district": "\u00dcsk\u00fcdar", "name": "\u00c7a\u011fr\u0131 Market", "shop": "convenience"}}, {"type": "node", "id": 5260250358, "lat": 41.0272843, "lon": 29.0315676, "tags": {"addr:city": "\u0130stanbul", "addr:district": "\u00dcsk\u00fcdar", "name": "Kim Market", "shop": "convenience"}}, {"type": "node", "id": 5263362893, "lat": 40.9479663, "lon": 29.1548012}, {"type": "node", "id": 5263362894, "lat": 40.9478905, "lon": 29.1548869}, {"type": "node", "id": 5263362895, "lat": 40.9481257, "lon": 29.1552381}, {"type": "node", "id": 5263362896, "lat": 40.9482, "lon": 29.1551587}, {"type": "node", "id": 5263428032, "lat": 40.9867924, "lon": 29.0602671, "tags": {"name": "uyum", "shop": "convenience"}}, {"type": "node", "id": 5263946553, "lat": 40.8774525, "lon": 29.2496063, "tags": {"name": "U\u011fur Market", "shop": "convenience"}}, {"type": "node", "id": 5264312887, "lat": 40.9291075, "lon": 29.2144749}, {"type": "node", "id": 5264312888, "lat": 40.9288684, "lon": 29.2146358}, {"type": "node", "id": 5264316628, "lat": 40.934293, "lon": 29.2161767}, {"type": "node", "id": 5264316629, "lat": 40.9342728, "lon": 29.2161177}, {"type": "node", "id": 5264316630, "lat": 40.9338675, "lon": 29.2165308}, {"type": "node", "id": 5264316631, "lat": 40.9338918, "lon": 29.2166005}, {"type": "node", "id": 5264343937, "lat": 40.9275917, "lon": 29.2113166}, {"type": "node", "id": 5265578994, "lat": 40.878547, "lon": 29.243361, "tags": {"name": "G\u00fcm\u00fc\u015f", "shop": "convenience"}}, {"type": "node", "id": 5265585613, "lat": 40.8792949, "lon": 29.2426698, "tags": {"name": "Enes G\u0131da", "shop": "convenience"}}, {"type": "node", "id": 5268448036, "lat": 40.9861014, "lon": 29.1428441, "tags": {"name": "ucz market", "shop": "convenience"}}, {"type": "node", "id": 5270001806, "lat": 40.8948486, "lon": 29.1831521, "tags": {"addr:housenumber": "1b", "shop": "convenience"}}, {"type": "node", "id": 5270316072, "lat": 40.8819453, "lon": 29.2456655, "tags": {"name": "Karag\u00fcl", "shop": "convenience"}}, {"type": "node", "id": 5270316088, "lat": 40.880695, "lon": 29.2409437, "tags": {"name": "Halal", "shop": "convenience"}}, {"type": "node", "id": 5270316093, "lat": 40.8767687, "lon": 29.245735, "tags": {"name": "Havana Tekel", "shop": "convenience"}}, {"type": "node", "id": 5270316094, "lat": 40.8765544, "lon": 29.2463817, "tags": {"name": "Sancak market", "shop": "convenience"}}, {"type": "node", "id": 5270522116, "lat": 40.8966783, "lon": 29.1831653, "tags": {"shop": "convenience"}}, {"type": "node", "id": 5270745213, "lat": 40.9693143, "lon": 29.1266782}, {"type": "node", "id": 5270745214, "lat": 40.9693705, "lon": 29.1270808}, {"type": "node", "id": 5270745215, "lat": 40.9692249, "lon": 29.1271164}, {"type": "node", "id": 5270745216, "lat": 40.9691688, "lon": 29.1267138}, {"type": "node", "id": 5270747752, "lat": 40.9686313, "lon": 29.1232704}, {"type": "node", "id": 5270747753, "lat": 40.9687447, "lon": 29.1235118}, {"type": "node", "id": 5270747754, "lat": 40.9687406, "lon": 29.1235708}, {"type": "node", "id": 5270747755, "lat": 40.9685786, "lon": 29.1235601}, {"type": "node", "id": 5270747756, "lat": 40.9685866, "lon": 29.1233367}, {"type": "node", "id": 5272473034, "lat": 40.9579967, "lon": 29.095703, "tags": {"addr:city": "\u0130stanbul", "addr:district": "Kad\u0131k\u00f6y", "addr:neighbourhood": "Bostanc\u0131 Mahallesi", "addr:postcode": "34744", "addr:street": "Emin Ali Pa\u015fa Caddesi", "name": "Tobacco Tekel", "shop": "convenience"}}, {"type": "node", "id": 5272473070, "lat": 40.9577367, "lon": 29.0970607, "tags": {"addr:city": "\u0130stanbul", "addr:district": "Kad\u0131k\u00f6y", "addr:neighbourhood": "Bostanc\u0131 Mahallesi", "addr:postcode": "34744", "name": "Safari Tekel", "shop": "convenience"}}, {"type": "node", "id": 5272473076, "lat": 40.9588207, "lon": 29.0972699, "tags": {"addr:city": "\u0130stanbul", "addr:district": "Kad\u0131k\u00f6y", "addr:postcode": "34744", "addr:street": "Yeni Yol Soka\u011f\u0131", "name": "Yufkac\u0131", "shop": "convenience"}}, {"type": "node", "id": 5272473082, "lat": 40.9580912, "lon": 29.0981651, "tags": {"addr:city": "\u0130stanbul", "addr:district": "Kad\u0131k\u00f6y", "addr:neighbourhood": "Bostanc\u0131 Mahallesi", "addr:postcode": "34744", "addr:street": "Prof. Dr. Ali Nihat Tarlan Caddesi", "name": "Cemre M\u0131s\u0131r", "shop": "convenience"}}, {"type": "node", "id": 5272473083, "lat": 40.9581351, "lon": 29.0982469, "tags": {"addr:city": "\u0130stanbul", "addr:district": "Kad\u0131k\u00f6y", "addr:neighbourhood": "Bostanc\u0131 Mahallesi", "addr:postcode": "34744", "addr:street": "Prof. Dr. Ali Nihat Tarlan Caddesi", "name": "Mert G\u0131da", "shop": "convenience"}}, {"type": "node", "id": 5272473084, "lat": 40.9582354, "lon": 29.0980213, "tags": {"addr:city": "\u0130stanbul", "addr:district": "Kad\u0131k\u00f6y", "addr:neighbourhood": "Bostanc\u0131 Mahallesi", "addr:postcode": "34744", "addr:street": "Prof. Dr. Ali Nihat Tarlan Caddesi", "name": "Hakpa", "shop": "convenience"}}, {"type": "node", "id": 5274083451, "lat": 40.956897, "lon": 29.096836, "tags": {"addr:city": "\u0130stanbul", "addr:district": "Kad\u0131k\u00f6y", "addr:neighbourhood": "Bostanc\u0131 Mahallesi", "addr:postcode": "34744", "addr:street": "Prof. Dr. Ali Nihat Tarlan Caddesi", "name": "Karde\u015fler G\u0131da", "shop": "convenience"}}, {"type": "node", "id": 5274083458, "lat": 40.9565716, "lon": 29.0965615, "tags": {"name": "Tur\u015fucu", "shop": "convenience"}}, {"type": "node", "id": 5274083460, "lat": 40.9563433, "lon": 29.0962453, "tags": {"addr:city": "\u0130stanbul", "addr:district": "Kad\u0131k\u00f6y", "addr:neighbourhood": "Bostanc\u0131 Mahallesi", "addr:postcode": "34744", "addr:street": "Prof. Dr. Ali Nihat Tarlan Caddesi", "name": "Moonlight Tekel", "shop": "convenience"}}, {"type": "node", "id": 5275182381, "lat": 40.9276229, "lon": 29.2112963}, {"type": "node", "id": 5275182382, "lat": 40.9276272, "lon": 29.2114788}, {"type": "node", "id": 5275182383, "lat": 40.9276604, "lon": 29.2114662}, {"type": "node", "id": 5275182396, "lat": 40.9290802, "lon": 29.2144568}, {"type": "node", "id": 5275182397, "lat": 40.928853, "lon": 29.2145984}, {"type": "node", "id": 5275500553, "lat": 40.9437558, "lon": 29.1370448, "tags": {"name": "As G\u0131da", "shop": "convenience"}}, {"type": "node", "id": 5279766090, "lat": 41.0142251, "lon": 29.1975616, "tags": {"name": "G\u00fcm\u00fc\u015f H\u0131rdavat", "shop": "convenience"}}, {"type": "node", "id": 5280587237, "lat": 40.9552239, "lon": 29.0958587, "tags": {"addr:city": "\u0130stanbul", "addr:district": "Kad\u0131k\u00f6y", "addr:neighbourhood": "Bostanc\u0131 Mahallesi", "addr:postcode": "34744", "addr:street": "Teyyareci Resmi Sokak", "name": "Akdeniz Baharat", "shop": "convenience"}}, {"type": "node", "id": 5283466145, "lat": 40.9754987, "lon": 29.1384318, "tags": {"name": "Berka", "shop": "convenience"}}, {"type": "node", "id": 5284675922, "lat": 40.8809696, "lon": 29.2405843, "tags": {"name": "Kartal Market", "shop": "convenience"}}, {"type": "node", "id": 5284675964, "lat": 40.8821601, "lon": 29.2375265, "tags": {"name": "G\u00fcm\u00fc\u015f", "shop": "convenience"}}, {"type": "node", "id": 5284690851, "lat": 40.9561801, "lon": 29.0899372, "tags": {"addr:city": "\u0130stanbul", "addr:district": "Kad\u0131k\u00f6y", "addr:housenumber": "499", "addr:neighbourhood": "Bostanc\u0131 Mahallesi", "addr:postcode": "34744", "addr:street": "Ba\u011fdat Caddesi", "name": "Cadde Market", "shop": "convenience"}}, {"type": "node", "id": 5284690854, "lat": 40.956146, "lon": 29.0890855, "tags": {"addr:city": "\u0130stanbul", "addr:district": "Kad\u0131k\u00f6y", "addr:neighbourhood": "Suadiye Mahallesi", "addr:postcode": "34740", "addr:street": "Ba\u011fdat Caddesi", "name": "D\u00fcndarlar Market", "shop": "convenience"}}, {"type": "node", "id": 5285979529, "lat": 40.9332499, "lon": 29.2136639, "tags": {"name": "Migros", "shop": "convenience"}}, {"type": "node", "id": 5286468960, "lat": 40.9559691, "lon": 29.0946222, "tags": {"addr:city": "Istanbul", "addr:district": "Kad\u0131k\u00f6y", "addr:neighbourhood": "Bostanc\u0131 Mahallesi", "addr:postcode": "34744", "addr:street": "Vukela Caddesi", "name": "K\u00fcptepe Zeytin", "shop": "convenience"}}, {"type": "node", "id": 5286468975, "lat": 40.956854, "lon": 29.0948588, "tags": {"addr:city": "Istanbul", "addr:district": "Kad\u0131k\u00f6y", "addr:neighbourhood": "Bostanc\u0131 Mahallesi", "addr:postcode": "34744", "addr:street": "Vukela Caddesi", "name": "\u015eent\u00fcrk G\u0131da", "shop": "convenience"}}, {"type": "node", "id": 5289574365, "lat": 40.8260224, "lon": 29.3059179, "tags": {"name": "Emel Market", "shop": "convenience"}}, {"type": "node", "id": 5291793659, "lat": 40.9609114, "lon": 29.0936679, "tags": {"addr:city": "\u0130stanbul", "addr:district": "Kad\u0131k\u00f6y", "addr:neighbourhood": "Bostanc\u0131 Mahallesi", "addr:postcode": "34744", "addr:street": "\u015eemsettin G\u00fcnaltay Caddesi", "name": "Do\u011fal S\u00fct", "shop": "convenience"}}, {"type": "node", "id": 5291794827, "lat": 40.9653862, "lon": 29.0866348, "tags": {"addr:city": "\u0130stanbul", "addr:district": "Kad\u0131k\u00f6y", "addr:neighbourhood": "Suadiye Mahallesi", "addr:postcode": "34740", "addr:street": "Ay\u015fe \u00c7avu\u015f Caddesi", "name": "Ailem Market", "shop": "convenience"}}, {"type": "node", "id": 5291794852, "lat": 40.9632928, "lon": 29.0856929, "tags": {"addr:city": "\u0130stanbul", "addr:district": "Kad\u0131k\u00f6y", "addr:neighbourhood": "Suadiye Mahallesi", "addr:postcode": "34740", "addr:street": "Ay\u015fe \u00c7avu\u015f Caddesi", "name": "\u00dc\u00e7ler", "shop": "convenience"}}, {"type": "node", "id": 5292265333, "lat": 40.8862732, "lon": 29.2323024, "tags": {"name": "asya market", "shop": "convenience"}}, {"type": "node", "id": 5292266876, "lat": 40.8860407, "lon": 29.2307058, "tags": {"name": "cihan", "shop": "convenience"}}, {"type": "node", "id": 5292350360, "lat": 40.8258414, "lon": 29.3080591, "tags": {"shop": "convenience"}}, {"type": "node", "id": 5292350452, "lat": 40.825472, "lon": 29.3102845, "tags": {"shop": "convenience"}}, {"type": "node", "id": 5292350453, "lat": 40.8253622, "lon": 29.3103261, "tags": {"shop": "convenience"}}, {"type": "node", "id": 5292614799, "lat": 40.7837339, "lon": 29.3738554}, {"type": "node", "id": 5292614800, "lat": 40.7836919, "lon": 29.3736643}, {"type": "node", "id": 5292614801, "lat": 40.7835939, "lon": 29.3737198}, {"type": "node", "id": 5292614802, "lat": 40.7836546, "lon": 29.3738923}, {"type": "node", "id": 5292618621, "lat": 40.7819635, "lon": 29.3745467, "tags": {"name": "Tarhanlar market", "shop": "convenience"}}, {"type": "node", "id": 5292618624, "lat": 40.7821537, "lon": 29.373623, "tags": {"name": "\u00d6zda\u011f yap\u0131 market", "shop": "convenience"}}, {"type": "node", "id": 5292618625, "lat": 40.7826626, "lon": 29.374155, "tags": {"name": "Ko\u00e7al in\u015faat malzemeleri", "shop": "convenience"}}, {"type": "node", "id": 5292639100, "lat": 40.7983693, "lon": 29.3680528, "tags": {"shop": "convenience"}}, {"type": "node", "id": 5292639167, "lat": 40.7995134, "lon": 29.3679388, "tags": {"name": "Mevlana hipermarket", "shop": "convenience"}}, {"type": "node", "id": 5292675404, "lat": 40.784677, "lon": 29.3735776, "tags": {"name": "Yusuf Market", "shop": "convenience"}}, {"type": "node", "id": 5292675411, "lat": 40.7857918, "lon": 29.3730184, "tags": {"name": "tatbak", "shop": "convenience"}}, {"type": "node", "id": 5292675418, "lat": 40.7880266, "lon": 29.3707566, "tags": {"name": "At\u0131c\u0131 market", "shop": "convenience"}}, {"type": "node", "id": 5292675624, "lat": 40.7860974, "lon": 29.3728865, "tags": {"name": "Ataman Tuhafiye", "shop": "convenience"}}, {"type": "node", "id": 5292675629, "lat": 40.7843963, "lon": 29.3751344, "tags": {"name": "Kayra giyim ve tuhafiye", "shop": "convenience"}}, {"type": "node", "id": 5292698142, "lat": 40.7852549, "lon": 29.3769839, "tags": {"name": "Karde\u015fler Market", "shop": "convenience"}}, {"type": "node", "id": 5292698143, "lat": 40.7838989, "lon": 29.3783784, "tags": {"name": "ASU i\u015f elbiseleri", "shop": "convenience"}}, {"type": "node", "id": 5292698149, "lat": 40.7805176, "lon": 29.3750206, "tags": {"name": "Oto Furkan", "shop": "convenience"}}, {"type": "node", "id": 5293735500, "lat": 40.7837171, "lon": 29.3737791}, {"type": "node", "id": 5293772248, "lat": 40.8994266, "lon": 29.2485675}, {"type": "node", "id": 5293772249, "lat": 40.8995943, "lon": 29.2485859}, {"type": "node", "id": 5293772250, "lat": 40.899585, "lon": 29.2487246}, {"type": "node", "id": 5293772251, "lat": 40.8994196, "lon": 29.248703}, {"type": "node", "id": 5293824452, "lat": 40.7887615, "lon": 29.3397034, "tags": {"name": "D\u0130A", "shop": "convenience"}}, {"type": "node", "id": 5293890886, "lat": 40.7956988, "lon": 29.3720173, "tags": {"name": "Durak Market", "shop": "convenience"}}, {"type": "node", "id": 5293976369, "lat": 40.9048317, "lon": 29.1679114, "tags": {"name": "Y\u0131lmaz Market", "shop": "convenience"}}, {"type": "node", "id": 5293976375, "lat": 40.9040107, "lon": 29.1720266, "tags": {"name": "\u015eafaklar Market", "shop": "convenience"}}, {"type": "node", "id": 5294058871, "lat": 40.7875895, "lon": 29.3771668, "tags": {"name": "Ekomini Market", "shop": "convenience"}}, {"type": "node", "id": 5294058872, "lat": 40.7893185, "lon": 29.3754529, "tags": {"name": "yi\u011fit market", "shop": "convenience"}}, {"type": "node", "id": 5294089120, "lat": 40.7895945, "lon": 29.3732792, "tags": {"name": "Y\u00f6rem S\u00fct \u00dcr\u00fcnleri", "shop": "convenience"}}, {"type": "node", "id": 5294090633, "lat": 40.7913777, "lon": 29.3740296, "tags": {"name": "Ar\u0131 market", "shop": "convenience"}}, {"type": "node", "id": 5294091644, "lat": 40.7925077, "lon": 29.3727279, "tags": {"name": "\u015eeyda G\u0131da", "shop": "convenience"}}, {"type": "node", "id": 5294611411, "lat": 40.7796252, "lon": 29.3874564, "tags": {"name": "Can Market", "shop": "convenience"}}, {"type": "node", "id": 5294611413, "lat": 40.7817106, "lon": 29.3849391, "tags": {"name": "Y\u00fckseker s\u00fcpermarket", "shop": "convenience"}}, {"type": "node", "id": 5294611417, "lat": 40.781988, "lon": 29.3850276, "tags": {"name": "Y\u0131ld\u0131z Market", "shop": "convenience"}}, {"type": "node", "id": 5294611419, "lat": 40.7824529, "lon": 29.385109, "tags": {"name": "\u00c7ar\u015f\u0131 Pazar", "shop": "convenience"}}, {"type": "node", "id": 5294681290, "lat": 40.9620317, "lon": 29.0846546, "tags": {"addr:city": "\u0130stanbul", "addr:district": "Kad\u0131k\u00f6y", "addr:housenumber": "19", "addr:neighbourhood": "Suadiye Mahallesi", "addr:postcode": "34740", "addr:street": "Ay\u015fe \u00c7avu\u015f Caddesi", "name": "\u00d6zkuru\u015flar", "shop": "convenience", "website": "https://www.ozkuruslar.com.tr/"}}, {"type": "node", "id": 5294684048, "lat": 40.9721163, "lon": 29.0883089, "tags": {"addr:city": "Istanbul", "addr:district": "kad\u0131k\u00f6y", "addr:housenumber": "no:28", "addr:neighbourhood": "19 may\u0131s mahallesi", "addr:street": "Sinan Ercan Caddesi", "name": "\u00f6zvar\u0131\u015f market", "opening_hours": "Mo-Su 07:00-22:00", "shop": "convenience"}}, {"type": "node", "id": 5294684049, "lat": 40.9696898, "lon": 29.0857836, "tags": {"addr:city": "istanbul", "addr:district": "kad\u0131k\u00f6y", "addr:housenumber": "no:7", "addr:neighbourhood": "19 May\u0131s Mah.", "addr:street": "Sinan Ercan Caddesi", "name": "K\u00f6yl\u00fc Market", "opening_hours": "Mo-Su 07:00-22:00", "shop": "convenience"}}, {"type": "node", "id": 5294707887, "lat": 40.9698577, "lon": 29.0863114, "tags": {"addr:city": "istanbul", "addr:district": "kad\u0131k\u00f6y", "addr:housenumber": "no:14", "addr:neighbourhood": "19 May\u0131s Mah.", "addr:street": "Sinan Ercan Caddesi", "name": "K\u0131smet Kuruyemi\u015f", "shop": "convenience"}}, {"type": "node", "id": 5296343844, "lat": 40.7823868, "lon": 29.3970156, "tags": {"name": "Kafkas Market", "shop": "convenience"}}, {"type": "node", "id": 5296374898, "lat": 40.9614685, "lon": 29.0925717, "tags": {"addr:city": "\u0130stanbul", "addr:district": "Kad\u0131k\u00f6y", "addr:neighbourhood": "Suadiye Mahallesi", "addr:postcode": "34740", "addr:street": "\u015eemsettin G\u00fcnaltay Caddesi", "name": "\u0130timat", "shop": "convenience"}}, {"type": "node", "id": 5296448344, "lat": 40.7846219, "lon": 29.378518, "tags": {"name": "Ayd\u0131nlar Market", "shop": "convenience"}}, {"type": "node", "id": 5296448345, "lat": 40.7846025, "lon": 29.3785939, "tags": {"shop": "convenience"}}, {"type": "node", "id": 5296448376, "lat": 40.7786395, "lon": 29.3891703, "tags": {"name": "Do\u011fan \u0130n\u015faat Malzemeleri", "shop": "convenience"}}, {"type": "node", "id": 5296534753, "lat": 40.790751, "lon": 29.3737439, "tags": {"name": "bakkal", "shop": "convenience"}}, {"type": "node", "id": 5296534757, "lat": 40.7908562, "lon": 29.3739412, "tags": {"name": "K\u0131smet kuruyemi\u015f ve \u015eark\u00fcteri", "shop": "convenience"}}, {"type": "node", "id": 5296534765, "lat": 40.7903383, "lon": 29.3737439, "tags": {"name": "Be\u015fminare market", "shop": "convenience"}}, {"type": "node", "id": 5296534788, "lat": 40.7891175, "lon": 29.3730831, "tags": {"name": "Akkaya \u0130n\u015faat Malzemeleri", "shop": "convenience"}}, {"type": "node", "id": 5296542672, "lat": 40.7889558, "lon": 29.3730469, "tags": {"name": "\u00f6z\u00e7ak\u0131r g\u0131da", "shop": "convenience"}}, {"type": "node", "id": 5296542689, "lat": 40.7874809, "lon": 29.3731335, "tags": {"name": "G\u00fcner Market", "shop": "convenience"}}, {"type": "node", "id": 5296577681, "lat": 40.7853236, "lon": 29.3733144, "tags": {"name": "Cadde B\u00fcfe", "shop": "convenience"}}, {"type": "node", "id": 5296577685, "lat": 40.7850077, "lon": 29.3734332, "tags": {"name": "Karaba\u011f Market", "shop": "convenience"}}, {"type": "node", "id": 5296577691, "lat": 40.7828804, "lon": 29.374346, "tags": {"name": "Sel\u00e7uk Market", "shop": "convenience"}}, {"type": "node", "id": 5296590922, "lat": 40.9393119, "lon": 29.1392981, "tags": {"shop": "convenience"}}, {"type": "node", "id": 5297414231, "lat": 40.9613366, "lon": 29.0843258, "tags": {"addr:city": "\u0130stanbul", "addr:district": "Kad\u0131k\u00f6y", "addr:neighbourhood": "Suadiye Mahallesi", "addr:postcode": "34740", "addr:street": "Ay\u015fe \u00c7avu\u015f Caddesi", "name": "Dilek \u015eark\u00fcteri", "shop": "convenience"}}, {"type": "node", "id": 5297533782, "lat": 40.9668322, "lon": 29.1227304, "tags": {"shop": "convenience"}}, {"type": "node", "id": 5297533785, "lat": 40.9674466, "lon": 29.1235104, "tags": {"shop": "convenience"}}, {"type": "node", "id": 5300747153, "lat": 40.8758201, "lon": 29.2504066, "tags": {"name": "Do\u011fanlar", "shop": "convenience"}}, {"type": "node", "id": 5300762910, "lat": 40.8757439, "lon": 29.251299, "tags": {"name": "\u00d6zen", "shop": "convenience"}}, {"type": "node", "id": 5300905371, "lat": 40.9694082, "lon": 29.0855401, "tags": {"name": "Canlar \u015eark\u00fcteri", "shop": "convenience"}}, {"type": "node", "id": 5300905375, "lat": 40.9695631, "lon": 29.0856675, "tags": {"name": "Esen Yufka \u015eark\u00fcteri", "shop": "convenience"}}, {"type": "node", "id": 5300949889, "lat": 40.9376594, "lon": 29.2131101, "tags": {"addr:neighbourhood": "Ugurmumcu Mah.", "addr:street": "Ak\u015femsettin Caddesi", "name": "Erdal Bakkal", "operator": "Bakkal", "shop": "convenience"}}, {"type": "node", "id": 5300958420, "lat": 40.9377011, "lon": 29.2119514, "tags": {"addr:neighbourhood": "Ugurmumcu Mah.", "addr:street": "Mazi Sokak", "name": "Servet Bakkal", "operator": "Servet Bakkal", "shop": "convenience"}}, {"type": "node", "id": 5300961992, "lat": 40.9359804, "lon": 29.2131571, "tags": {"addr:neighbourhood": "Ugurmumcu Mahallesi", "addr:street": "Akzambak Sokak", "name": "Ugur Market", "shop": "convenience"}}, {"type": "node", "id": 5303277770, "lat": 41.0102625, "lon": 29.0944577, "tags": {"name": "Dal G\u0131da", "shop": "convenience"}}, {"type": "node", "id": 5303277771, "lat": 41.0109678, "lon": 29.0955874, "tags": {"name": "G\u00fcvenal Market", "shop": "convenience"}}, {"type": "node", "id": 5303277773, "lat": 41.0108533, "lon": 29.0956394, "tags": {"name": "Emre G\u0131da ve \u015eark\u00fcteri", "shop": "convenience"}}, {"type": "node", "id": 5303352276, "lat": 41.0087207, "lon": 29.0981372, "tags": {"name": "Mazlum G\u0131da", "shop": "convenience"}}, {"type": "node", "id": 5303352533, "lat": 41.0098547, "lon": 29.096906, "tags": {"name": "Hem\u015fim G\u0131da", "shop": "convenience"}}, {"type": "node", "id": 5303372149, "lat": 41.0088827, "lon": 29.0981569}, {"type": "node", "id": 5303372150, "lat": 41.0087828, "lon": 29.0982524}, {"type": "node", "id": 5303372151, "lat": 41.0088548, "lon": 29.0983633}, {"type": "node", "id": 5303372152, "lat": 41.0089502, "lon": 29.0982724}, {"type": "node", "id": 5303372173, "lat": 41.008934, "lon": 29.0982878}, {"type": "node", "id": 5303378826, "lat": 41.0087934, "lon": 29.0982974, "tags": {"name": "\u00d6zen Hipermarketleri", "shop": "convenience"}}, {"type": "node", "id": 5303408661, "lat": 41.0100235, "lon": 29.0987522, "tags": {"name": "Oney Karadeniz G\u0131da", "shop": "convenience"}}, {"type": "node", "id": 5312681009, "lat": 40.7956118, "lon": 29.3715994, "tags": {"name": "\u015eOK", "shop": "convenience"}}, {"type": "node", "id": 5313433560, "lat": 40.8203191, "lon": 29.3084396, "tags": {"shop": "convenience"}}, {"type": "node", "id": 5313433622, "lat": 40.8183342, "lon": 29.3054477, "tags": {"shop": "convenience"}}, {"type": "node", "id": 5329298038, "lat": 40.9685694, "lon": 29.2718645, "tags": {"addr:city": "Istanbul", "addr:district": "Sultanbeyli", "addr:street": "Kaptan\u0131 Derya Caddesi", "cuisine": "dessert", "name": "\u0131stanbul B\u00f6rek\u00e7isi", "name:ar": "\u0627\u0633\u0637\u0646\u0628\u0648\u0644 \u0628\u0648\u0631\u0643\u062a\u0634\u064a\u0633\u064a", "opening_hours": "24/7", "shop": "convenience"}}, {"type": "node", "id": 5329298048, "lat": 40.9758774, "lon": 29.2647555, "tags": {"addr:city": "Istanbul", "addr:district": "Sultanbeyli", "addr:street": "Ahmet Yesevi Mahllesi", "name": "Tatl\u0131bak", "name:ar": "\u062d\u0644\u0648\u064a\u0627\u062a", "opening_hours": "24/7", "phone": "4446927", "shop": "convenience"}}, {"type": "node", "id": 5329298063, "lat": 40.9736051, "lon": 29.2741072, "tags": {"addr:city": "Istanbul", "addr:district": "Sultanbeyli", "addr:street": "Kaptan\u0131 Derya Caddesi", "name": "Y\u015fim Market", "name:ar": "\u0645\u0627\u0631\u0643\u062a", "opening_hours": "24/7", "shop": "convenience"}}, {"type": "node", "id": 5329298082, "lat": 40.9764384, "lon": 29.276023, "tags": {"addr:city": "Istanbul", "addr:district": "Sultanbeyli", "addr:street": "Y\u0131ld\u0131r\u0131m Caddesi", "name": "Efe Market", "name:ar": "\u0645\u0627\u0631\u0643\u062a", "opening_hours": "24/7", "shop": "convenience"}}, {"type": "node", "id": 5329298090, "lat": 40.9718881, "lon": 29.2686901, "tags": {"addr:city": "Istanbul", "addr:district": "Sultanbeyli", "addr:street": "\u015eeyh \u015eamil Caddesi", "name": "Ayturk G\u0131da", "name:ar": "\u0628\u0642\u0627\u0644\u0629 \u062a\u0631\u0643\u064a\u0629", "opening_hours": "24/7", "shop": "convenience"}}, {"type": "node", "id": 5329298452, "lat": 40.9680197, "lon": 29.2752617, "tags": {"addr:city": "Istanbul", "addr:district": "Sultanbeyli", "addr:street": "\u00c7aml\u0131k Caddesi", "name": "Ali osman Mini Market", "name:ar": "\u0645\u0627\u0631\u0643\u062a \u0639\u0644\u064a \u0639\u062b\u0645\u0627\u0646", "opening_hours": "24/7; Su 09:00-12:00", "shop": "convenience"}}, {"type": "node", "id": 5329298458, "lat": 40.96904, "lon": 29.2772211, "tags": {"addr:city": "Istanbul", "addr:district": "Sultanbeyli", "addr:street": "G\u00fcven Soka\u011f\u0131", "name": "Yeni Pak G\u0131da", "name:ar": "\u0628\u0642\u0627\u0644\u0629 \u064a\u0646\u064a \u0628\u0627\u0643", "opening_hours": "24/7", "shop": "convenience"}}, {"type": "node", "id": 5329298478, "lat": 40.9700795, "lon": 29.2685512, "tags": {"addr:city": "Istanbul", "addr:district": "Sultanbeyli", "addr:street": "Gecem Soka\u011f\u0131", "name": "Do\u011fa \u00c7iftli\u011fi", "name:ar": "\u062f\u0648\u063a\u0627 \u062a\u0634\u064a\u0641\u062a\u0644\u064a\u063a\u064a", "shop": "convenience"}}, {"type": "node", "id": 5329298480, "lat": 40.9743316, "lon": 29.2745867, "tags": {"addr:city": "Istanbul", "addr:district": "Sultanbeyli", "addr:street": "\u00c7i\u011fdem Soka\u011f\u0131", "name": "Metehan K\u0131rtasiye B\u00fcfe", "name:ar": "\u0628\u0648\u0641\u064a\u0647 \u0648\u0642\u0631\u0637\u0627\u0633\u064a\u0629 \u0645\u064a\u062a\u0647\u0627\u0646", "opening_hours": "24/7", "shop": "convenience"}}, {"type": "node", "id": 5329298482, "lat": 40.9697524, "lon": 29.2794769, "tags": {"addr:city": "Istanbul", "addr:district": "Sultanbeyli", "addr:street": "Ahmet Yesevi Mahllesi", "name": "Do\u011fu S\u00fcp Ermarket", "name:ar": "\u0633\u0648\u0628\u0631\u0645\u0627\u0631\u0643\u062a \u062f\u0648\u063a\u0648", "opening_hours": "24/7", "shop": "convenience"}}, {"type": "node", "id": 5329298491, "lat": 40.9543407, "lon": 29.2682471, "tags": {"addr:city": "Istanbul", "addr:district": "Sultanbeyli", "addr:street": "Hattat Soka\u011f\u0131", "name": "Elit Market", "name:ar": "\u0645\u0627\u0631\u0643\u062a \u0625\u064a\u0644\u062a", "opening_hours": "24/7", "shop": "convenience"}}, {"type": "node", "id": 5329298492, "lat": 40.9484127, "lon": 29.2766649, "tags": {"addr:city": "Istanbul", "addr:district": "Sultanbeyli", "addr:street": "Eyyubi Caddesi", "name": "Elek Trik", "name:ar": "\u0628\u0642\u0627\u0644\u0629 \u062a\u0631\u0643\u064a\u0629 (\u0627\u064a\u0644\u064a\u0643)", "opening_hours": "24/7", "shop": "convenience"}}, {"type": "node", "id": 5329298497, "lat": 40.9687528, "lon": 29.2764113, "tags": {"addr:city": "Istanbul", "addr:district": "Sultanbeyli", "addr:street": "Sema Soka\u011f\u0131", "name": "G\u00fcven Market", "name:ar": "\u063a\u0648\u0641\u064a\u0646 \u0645\u0627\u0631\u0643\u062a", "opening_hours": "24/7", "shop": "convenience"}}, {"type": "node", "id": 5329298502, "lat": 40.9728158, "lon": 29.2746312, "tags": {"addr:city": "Istanbul", "addr:district": "Sultanbeyli", "addr:street": "Kaptan\u0131 Derya Caddesi", "cuisine": "ice_cream", "name": "Dney Enfes Dondurma", "name:ar": "\u0628\u0648\u0638\u0629 \u0625\u0646\u0641\u0627\u0633 \u0623\u0648\u0646\u064a", "opening_hours": "24/7", "shop": "convenience"}}, {"type": "node", "id": 5329298825, "lat": 40.9768468, "lon": 29.2790735, "tags": {"addr:city": "Istanbul", "addr:district": "Sultanbeyli", "addr:street": "Y\u0131ld\u0131r\u0131m Caddesi", "name": "A\u011fam Holding", "name:ar": "\u0628\u0642\u0627\u0644\u0629 \u062a\u0631\u0643\u064a\u0629 \u0622\u063a\u0627\u0645", "opening_hours": "24/7", "shop": "convenience"}}, {"type": "node", "id": 5329311011, "lat": 40.9729003, "lon": 29.2746229, "tags": {"addr:city": "Istanbul", "addr:district": "Sultanbeyli", "addr:street": "Kaptani Derya Caddesi", "name": "Kaya Bakkal", "name:ar": "\u0628\u0642\u0627\u0644\u0629 \u0643\u0627\u064a\u0627", "opening_hours": "24/7", "shop": "convenience"}}, {"type": "node", "id": 5329311624, "lat": 40.973145, "lon": 29.2742711, "tags": {"addr:city": "Istanbul", "addr:district": "Sultanbeyli", "addr:street": "M\u00fccahit Caddesi", "name": "S\u00fct Evi", "name:ar": "\u062d\u0644\u064a\u0628 \u0628\u064a\u062a", "opening_hours": "24/7", "shop": "convenience"}}, {"type": "node", "id": 5329311634, "lat": 40.9708265, "lon": 29.2733894, "tags": {"addr:city": "Istanbul", "addr:district": "Sultanbeyli", "addr:street": "Kaptani Derya Caddesi", "name": "Alsafak", "name:ar": "\u0627\u0644\u0633\u0641\u0627\u0642", "opening_hours": "24/7", "shop": "convenience"}}, {"type": "node", "id": 5329311640, "lat": 40.9755589, "lon": 29.2786679, "tags": {"addr:city": "Istanbul", "addr:district": "Sultanbeyli", "addr:street": "Kahraman Soka\u011f\u0131", "name": "Yi\u011fit G\u0131da", "name:ar": "\u0645\u0627\u0631\u0643\u062a \u064a\u063a\u064a\u062a", "opening_hours": "24/7", "shop": "convenience"}}, {"type": "node", "id": 5329311657, "lat": 40.9670088, "lon": 29.2752658, "tags": {"addr:city": "Istanbul", "addr:district": "Sultanbeyli", "addr:street": "Cinnah Soka\u011f\u0131", "name": "Anadolu Kahvalt\u0131 D\u00fcnyas\u0131", "name:ar": "\u0639\u0627\u0644\u0645 \u0627\u0644\u0641\u0637\u0648\u0631 \u0623\u0646\u0627\u0636\u0648\u0644\u0648", "opening_hours": "24/7", "shop": "convenience"}}, {"type": "node", "id": 5329311666, "lat": 40.975171, "lon": 29.2643484, "tags": {"addr:city": "Istanbul", "addr:district": "Sultanbeyli", "addr:street": "Nezafet Soka\u011f\u0131", "name": "Can Tekel Kuruyemi\u015f", "name:ar": "\u0645\u0627\u0631\u0643\u062a", "opening_hours": "24/7", "shop": "convenience"}}, {"type": "node", "id": 5329311716, "lat": 40.968869, "lon": 29.2767817, "tags": {"addr:city": "Istanbul", "addr:district": "Sultanbeyli", "addr:street": "\u00c7aml\u0131k Caddesi", "name": "Han\u0131meli Peynircilik", "name:ar": "\u0623\u062c\u0628\u0627\u0646 \u0647\u0627\u0646\u064a\u0645\u064a\u0644\u064a", "opening_hours": "24/7", "shop": "convenience"}}, {"type": "node", "id": 5329311717, "lat": 40.9529452, "lon": 29.2688738, "tags": {"addr:city": "Istanbul", "addr:district": "Sultanbeyli", "addr:street": "Seyhan Caddesi", "name": "Ma\u015fallah Bakal", "name:ar": "\u0628\u0642\u0627\u0644\u0629 \u0645\u0627\u0634\u0627\u0621 \u0627\u0644\u0644\u0647", "opening_hours": "24/7", "shop": "convenience"}}, {"type": "node", "id": 5329312247, "lat": 40.9737624, "lon": 29.2774103, "tags": {"addr:city": "Istanbul", "addr:district": "Sultanbeyli", "addr:street": "\u00d6zt\u00fcrk Soka\u011f\u0131", "name": "\u00d6z Mini Market", "name:ar": "\u0645\u064a\u0646\u064a \u0645\u0627\u0631\u0643\u062a \u0623\u0648\u0632", "opening_hours": "24/7", "shop": "convenience"}}, {"type": "node", "id": 5329312257, "lat": 40.9709643, "lon": 29.267149, "tags": {"addr:city": "Istanbul", "addr:district": "Sultanbeyli", "addr:street": "Biberlik Caddesi", "name": "Tosun G\u0131da", "name:ar": "\u062a\u0648\u0633\u0648\u0646 \u063a\u064a\u062f\u0627", "phone": "592 6785", "shop": "convenience"}}, {"type": "node", "id": 5329319356, "lat": 40.955592, "lon": 29.2853805, "tags": {"addr:city": "Istanbul", "addr:district": "Sultanbeyli", "addr:street": "Eyyubi caddesi", "furniture": "used", "name": "YlLdlrm market", "name:ar": "\u064a\u0627\u0644\u062f\u0631\u0645 \u0645\u0627\u0631\u0643\u062a", "opening_hours": "Mo-Fr 07:00-13:30; Mo-Fr 17:00-20:00", "shop": "convenience"}}, {"type": "node", "id": 5329319371, "lat": 40.9511737, "lon": 29.2874215, "tags": {"addr:city": "Istanbul", "addr:district": "Sultanbeyli", "addr:street": "Z\u00fcbeyde Han\u0131m Caddesi", "name": "Nisa Markit", "name:ar": "\u0645\u0627\u0631\u0643\u0629 \u0646\u064a\u0633\u0627", "shop": "convenience"}}, {"type": "node", "id": 5329319374, "lat": 40.9547283, "lon": 29.2826638, "tags": {"addr:city": "Istanbul", "addr:district": "Sultanbeyli", "addr:street": "P", "furniture": "used", "name": "Merkez", "name:ar": "\u0628\u0642\u0627\u0644 \u0645\u0631\u0643\u0632", "opening_hours": "Mo-Fr 07:00-13:30; Mo-Fr 17:00-20:00", "shop": "convenience"}}, {"type": "node", "id": 5329319387, "lat": 40.9534156, "lon": 29.2940801, "tags": {"addr:city": "Istanbul", "addr:district": "Sultanbeyli", "addr:street": "m\u00fcr\u015fit caddesi", "furniture": "used", "name": "Zeyrek", "name:ar": "\u0632\u064a\u0631\u064a\u0643", "shop": "convenience"}}, {"type": "node", "id": 5329319391, "lat": 40.956071, "lon": 29.2854156, "tags": {"addr:city": "Istanbul", "addr:district": "Sultanbeyli", "addr:street": "Eyyubi caddesi", "furniture": "used", "name": "Yanmaz glda", "name:ar": "\u064a\u0627\u0646\u0645\u0627\u0632 \u062c\u0627\u0644\u062f\u0627", "opening_hours": "Mo-Fr 07:00-13:30; Mo-Fr 17:00-20:00", "shop": "convenience"}}, {"type": "node", "id": 5329319402, "lat": 40.9510747, "lon": 29.2831667, "tags": {"addr:city": "Istanbul", "addr:district": "Sultanbeyli", "addr:street": "Ku\u011fulu Caddesi", "name": "Ali", "name:ar": "\u0639\u0644\u064a", "opening_hours": "Mo-Fr 07:00-13:30; Mo-Fr 17:00-20:00", "shop": "convenience"}}, {"type": "node", "id": 5329319411, "lat": 40.9477352, "lon": 29.2993217, "tags": {"addr:city": "Istanbul", "addr:district": "Sultanbeyli", "addr:street": "Fatih Bulvar\u0131", "furniture": "used", "name": "Rmf market", "name:ar": "\u0631 \u0645 \u0641 \u0645\u0627\u0631\u0643\u0629", "shop": "convenience"}}, {"type": "node", "id": 5329319414, "lat": 40.9566203, "lon": 29.307936, "tags": {"addr:city": "Istanbul", "addr:district": "Sultanbeyli", "addr:street": "Mecidiye Caddesi", "furniture": "used", "name": "\u015eafafk Market", "name:ar": "\u0645\u0627\u0631\u0643\u0629 \u0634\u0641\u0642", "shop": "convenience"}}, {"type": "node", "id": 5329319415, "lat": 40.9510905, "lon": 29.2847933, "tags": {"addr:city": "Istanbul", "addr:district": "Sultanbeyli", "addr:street": "Emirgan sokak", "furniture": "used", "name": "Epo\u011flu Glda", "name:ar": "\u0625\u0628\u0648\u063a\u0644\u0648 \u063a\u0644\u062f\u0627", "shop": "convenience"}}, {"type": "node", "id": 5329319417, "lat": 40.9594816, "lon": 29.2814188, "tags": {"addr:city": "Istanbul", "addr:district": "Sultanbeyli", "addr:street": "Petrol Yolu Caddesi", "furniture": "used", "name": "Ebu Liss", "name:ar": "\u0627\u0628\u0648 \u0644\u064a\u0633", "opening_hours": "Mo-Fr 07:00-13:30; Mo-Fr 17:00-20:00", "shop": "convenience"}}, {"type": "node", "id": 5329319575, "lat": 40.9768337, "lon": 29.2635488, "tags": {"addr:city": "Istanbul", "addr:district": "Sultanbeyli", "addr:street": "4.Murat Caddesi", "cuisine": "turkish", "name": "Elsa Market", "name:ar": "\u0628\u0642\u0627\u0644\u064a\u0629 \u0627\u064a\u0641\u0633\u0627", "opening_hours": "Mo-Fr 07:00-13:30; Mo-Fr 17:00-20:00", "shop": "convenience"}}, {"type": "node", "id": 5329319829, "lat": 40.9526583, "lon": 29.2855316, "tags": {"addr:city": "Istanbul", "addr:district": "Sultanbeyli", "addr:street": "Ke\u015fmir sokak", "furniture": "used", "name": "Tllmaz Glda", "name:ar": "\u062a\u0644\u0645\u0627\u0632 \u063a\u0644\u062f\u0627", "opening_hours": "24/7", "shop": "convenience"}}, {"type": "node", "id": 5329319832, "lat": 40.9532824, "lon": 29.2867664, "tags": {"addr:city": "Istanbul", "addr:district": "Sultanbeyli", "addr:street": "Petrol Yolu Caddesi", "furniture": "used", "name": "Klasik", "name:ar": "\u0643\u0644\u0627\u0633\u0643", "opening_hours": "Mo-Fr 07:00-13:30; Mo-Fr 17:00-20:00", "shop": "convenience"}}, {"type": "node", "id": 5329319834, "lat": 40.9528737, "lon": 29.2854004, "tags": {"addr:city": "Istanbul", "addr:district": "Sultanbeyli", "addr:street": "Seyyidkutud Caddesi", "furniture": "used", "name": "Serd Aro\u011flu", "name:ar": "\u0633\u0627\u0631\u062f \u0623\u0631\u0648\u062c\u0644\u0648", "shop": "convenience"}}, {"type": "node", "id": 5329319839, "lat": 40.9512112, "lon": 29.2864074, "tags": {"addr:city": "Istanbul", "addr:district": "Sultanbeyli", "addr:street": "Z\u00fcbeyde Han\u0131m Caddesi", "furniture": "used", "name": "Akin gida", "name:ar": "\u0627\u0643\u064a\u0646 \u062c\u064a\u062f\u0627", "opening_hours": "Mo-Su 07:00-20:00", "shop": "convenience"}}, {"type": "node", "id": 5329320525, "lat": 40.9757622, "lon": 29.2585374, "tags": {"addr:city": "Istanbul", "addr:district": "Sultanbeyli", "addr:street": "C\u0130DA SOKA\u011eI", "cuisine": "turkish", "name": "NEH\u0130R MARKET", "name:ar": "\u0628\u0642\u0627\u0644\u0629 \u0646\u0647\u0631", "shop": "convenience"}}, {"type": "node", "id": 5329320550, "lat": 40.9755591, "lon": 29.2628361, "tags": {"addr:city": "Istanbul", "addr:district": "Sultanbeyli", "addr:street": "Beykoz Gaddesi", "cuisine": "turkish", "name": "Ucz", "name:ar": "\u0628\u0642\u0627\u0644\u064a\u0629 \u0627\u0648\u062c\u0632", "opening_hours": "Mo-Fr 07:00-13:30; Mo-Fr 17:00-20:00", "shop": "convenience"}}, {"type": "node", "id": 5329335345, "lat": 40.9593629, "lon": 29.2702555, "tags": {"addr:city": "Istanbul", "addr:district": "Sultanbeyli", "addr:street": "Yavuz selim caddesi", "cuisine": "syrian", "name": "Nur alhuda market", "name:ar": "\u0628\u0642\u0627\u0644\u064a\u0629 \u0646\u0648\u0631 \u0627\u0644\u0647\u062f\u0649", "opening_hours": "Mo-Fr 07:00-13:30; Mo-Fr 17:00-20:00", "shop": "convenience"}}, {"type": "node", "id": 5329335352, "lat": 40.9637784, "lon": 29.2649984, "tags": {"addr:city": "Istanbul", "addr:district": "Sultanbeyli", "addr:street": "Cami caddesi", "cuisine": "ice_cream", "name": "Bozkurt dondurma", "name:ar": "\u0628\u0648\u0638\u0629 \u0628\u0648\u0632\u0643\u0648\u0631\u062a", "opening_hours": "Mo-Fr 07:00-13:30; Mo-Fr 17:00-20:00", "shop": "convenience"}}, {"type": "node", "id": 5329335371, "lat": 40.9671405, "lon": 29.2687749, "tags": {"addr:city": "Istanbul", "addr:district": "Sultanbeyli", "addr:street": "Cenk sokak", "name": "Adiyaman bitlis pazar", "name:ar": "\u0645\u062d\u0644 \u062a\u0628\u063a \u0627\u062f\u064a\u0627\u0645\u0627\u0646", "opening_hours": "Mo-Fr 07:00-13:30; Mo-Fr 17:00-20:00", "phone": "05325413603", "shop": "convenience"}}, {"type": "node", "id": 5329335379, "lat": 40.9682342, "lon": 29.2679381, "tags": {"addr:city": "Istanbul", "addr:district": "Sultanbeyli", "addr:street": "Yusuf islam soka\u011f\u0131", "cuisine": "chicken", "name": "Pak piki\u00e7", "name:ar": "\u0628\u0627\u0643 \u0628\u064a\u0644\u064a\u062c", "opening_hours": "Mo-Fr 07:00-13:30; Mo-Fr 17:00-20:00", "phone": "02164964049", "shop": "convenience"}}, {"type": "node", "id": 5329335408, "lat": 40.9657147, "lon": 29.2666721, "tags": {"addr:city": "Istanbul", "addr:district": "Sultanbeyli", "addr:street": "Kuran kursu caddesi", "cuisine": "dessert", "name": "Gaziantepli tatl\u0131bak", "name:ar": "\u062d\u0644\u0648\u064a\u0627\u062a \u063a\u0627\u0632\u064a \u0639\u064a\u0646\u062a\u0627\u0628", "opening_hours": "Mo-Fr 07:00-13:30; Mo-Fr 17:00-20:00", "phone": "4446927", "shop": "convenience"}}, {"type": "node", "id": 5329335413, "lat": 40.965847, "lon": 29.2707922, "tags": {"addr:city": "Istanbul", "addr:district": "Sultanbeyli", "addr:street": "Fatih bulvar\u0131", "cuisine": "turkish", "name": "Sultan kuruyemi\u015f", "name:ar": "\u0628\u0642\u0627\u0644\u064a\u0629 \u0633\u0644\u0637\u0627\u0646", "opening_hours": "Mo-Fr 07:00-13:30; Mo-Fr 17:00-20:00", "shop": "convenience"}}, {"type": "node", "id": 5329335931, "lat": 40.9654555, "lon": 29.2675518, "tags": {"addr:city": "Istanbul", "addr:district": "Sultanbeyli", "addr:street": "\u015eanl\u0131urfa caddesi", "cuisine": "dessert", "name": "Kele\u015fo\u011flu tatl\u0131c\u0131l\u0131k", "name:ar": "\u062d\u0644\u0648\u064a\u0627\u062a \u0643\u0644\u0634 \u0627\u0648\u063a\u0644\u0648", "opening_hours": "Mo-Fr 07:00-13:30; Mo-Fr 17:00-20:00", "phone": "02164190593", "shop": "convenience"}}, {"type": "node", "id": 5329335937, "lat": 40.965261, "lon": 29.2696547, "tags": {"addr:city": "Istanbul", "addr:district": "Sultanbeyli", "addr:street": "G\u00fcn caddesi", "name": "Demirba\u015f ambalaj", "name:ar": "\u062f\u0645\u064a\u0631\u0628\u0627\u0634 \u0644\u0644\u0645\u0648\u0627\u062f \u0627\u0644\u0628\u0644\u0627\u0633\u062a\u064a\u0643\u064a\u0629", "opening_hours": "Mo-Fr 07:00-13:30; Mo-Fr 17:00-20:00", "phone": "02164960906", "shop": "convenience"}}, {"type": "node", "id": 5329335957, "lat": 40.9638027, "lon": 29.2674016, "tags": {"addr:city": "Istanbul", "addr:district": "Sultanbeyli", "addr:street": "G\u00fcl caddesi", "cuisine": "turkish", "name": "Reiso\u011flu t\u00fct\u00fcnu", "name:ar": "\u0627\u0631\u0627\u0643\u064a\u0644 \u0648\u062f\u062e\u0627\u0646 \u0631\u064a\u0633\u0648\u063a\u0644\u0648", "opening_hours": "Mo-Fr 07:00-13:30; Mo-Fr 17:00-20:00", "shop": "convenience"}}, {"type": "node", "id": 5329335960, "lat": 40.9648965, "lon": 29.2695045, "tags": {"addr:city": "Istanbul", "addr:district": "Sultanbeyli", "addr:street": "G\u00fcn caddesi", "name": "Altat kuruyemi\u015f", "name:ar": "\u0645\u0643\u0633\u0631\u0627\u062a \u0627\u0644\u062a\u0627\u062a", "opening_hours": "Mo-Fr 07:00-13:30; Mo-Fr 17:00-20:00", "shop": "convenience"}}, {"type": "node", "id": 5329335993, "lat": 40.9657648, "lon": 29.2711121, "tags": {"addr:city": "Istanbul", "addr:district": "Sultanbeyli", "addr:street": "Fatih bulvar\u0131", "cuisine": "turkish", "name": "Kahvalt\u0131 evim", "name:ar": "\u0627\u0648\u064a\u0645 \u0644\u0644\u0627\u0644\u0628\u0627\u0646 \u0648\u0627\u0644\u0627\u062c\u0628\u0627\u0646", "opening_hours": "Mo-Fr 07:00-13:30; Mo-Fr 17:00-20:00", "shop": "convenience"}}, {"type": "node", "id": 5329336020, "lat": 40.963665, "lon": 29.2719506, "tags": {"addr:city": "Istanbul", "addr:district": "Sultanbeyli", "addr:street": "G\u00fcne\u015f caddesi", "cuisine": "turkish", "name": "Kayalar gida", "name:ar": "\u0628\u0642\u0627\u0644\u064a\u0629 \u0643\u0627\u064a\u0627\u0644\u0627\u0631", "opening_hours": "Su 09:00-02:00; Mo-Fr 07:00-13:30; Mo-Fr 17:00-20:00", "phone": "05377146931", "shop": "convenience"}}, {"type": "node", "id": 5329336537, "lat": 40.9602866, "lon": 29.2698692, "tags": {"addr:city": "Istanbul", "addr:district": "Sultanbeyli", "addr:street": "Petrol yolu caddesi", "name": "Bizmar", "name:ar": "\u0628\u0642\u0627\u0644\u064a\u0629 \u0628\u064a\u0632\u0645\u0627\u0631", "opening_hours": "Su 09:00-02:00; Mo-Fr 07:00-13:30; Mo-Fr 17:00-20:00", "phone": "02164192184", "shop": "convenience"}}, {"type": "node", "id": 5329336538, "lat": 40.9645076, "lon": 29.2653631, "tags": {"addr:city": "Istanbul", "addr:district": "Sultanbeyli", "addr:street": "Cami caddesi", "cuisine": "turkish", "name": "Nurs lokman hekim", "name:ar": "\u0628\u0642\u0627\u0644\u064a\u0629 \u0646\u0648\u0631\u0633 \u0644\u0642\u0645\u0627\u0646 \u0627\u0644\u062d\u0643\u064a\u0645", "opening_hours": "Mo-Fr 07:00-13:30; Mo-Fr 17:00-20:00", "phone": "02164961300", "shop": "convenience"}}, {"type": "node", "id": 5329336544, "lat": 40.9653258, "lon": 29.265685, "tags": {"addr:city": "Istanbul", "addr:district": "Sultanbeyli", "addr:street": "Cami caddesi", "name": "Y\u00fczer kuruyemi\u015f", "name:ar": "\u0645\u0643\u0633\u0631\u0627\u062a \u064a\u0648\u0632\u0631", "opening_hours": "Mo-Fr 07:00-13:30; Mo-Fr 17:00-20:00", "phone": "05459194039", "shop": "convenience"}}, {"type": "node", "id": 5329336557, "lat": 41.0023389, "lon": 29.2662429, "tags": {"addr:city": "Istanbul", "addr:district": "Sultanbeyli", "addr:street": "Mimar sinan caddesi", "cuisine": "turkish", "name": "Mert food g\u0131da", "name:ar": "\u0628\u0642\u0627\u0644\u064a\u0629 \u0645\u064a\u0631\u062a \u0641\u0648\u0648\u062f", "opening_hours": "Mo-Fr 07:00-13:30; Mo-Fr 17:00-20:00", "phone": "02165928991", "shop": "convenience"}}, {"type": "node", "id": 5329336560, "lat": 40.9671405, "lon": 29.2690324, "tags": {"addr:city": "Istanbul", "addr:district": "Sultanbeyli", "addr:street": "Sar\u0131yer sokak", "name": "Ozyilmaz gida ve giyim sanayi", "name:ar": "\u0645\u0643\u0633\u0631\u0627\u062a \u0627\u0648\u0632\u064a\u0644\u0645\u0627\u0632", "opening_hours": "Mo-Fr 07:00-13:30; Mo-Fr 17:00-20:00", "phone": "02164195116", "shop": "convenience"}}, {"type": "node", "id": 5329336574, "lat": 40.9614613, "lon": 29.2658567, "tags": {"addr:city": "Istanbul", "addr:district": "Sultanbeyli", "addr:street": "Petrol yolu caddesi", "cuisine": "turkish", "name": "Nazar marketleri", "name:ar": "\u0633\u0648\u0628\u0631 \u0645\u0627\u0631\u0643\u062a \u0646\u0627\u0632\u0627\u0632", "opening_hours": "Mo-Fr 07:00-13:30; Mo-Fr 17:00-20:00", "shop": "convenience"}}, {"type": "node", "id": 5329336608, "lat": 40.9661953, "lon": 29.2695943, "tags": {"addr:city": "Istanbul", "addr:district": "Sultanbeyli", "addr:street": "Fatih bulvar\u0131", "name": "\u00c7erezcim", "name:ar": "\u0633\u0648\u0628\u0631 \u0645\u0627\u0631\u0643\u062a \u062a\u0634\u064a\u0631\u0632\u062c\u064a\u0645", "opening_hours": "Mo-Fr 07:00-13:30; Mo-Fr 17:00-20:00", "shop": "convenience"}}, {"type": "node", "id": 5329336614, "lat": 40.9656661, "lon": 29.2666506, "tags": {"addr:city": "Istanbul", "addr:district": "Sultanbeyli", "addr:street": "Kuran kursu caddesi", "cuisine": "turkish", "name": "Altuncu b\u00fcfe", "name:ar": "\u0628\u0642\u0627\u0644\u064a\u0629 \u0627\u0644\u062a\u0648\u0646\u062c\u0648", "opening_hours": "Mo-Fr 07:00-13:30; Mo-Fr 17:00-20:00", "phone": "05544305093", "shop": "convenience"}}, {"type": "node", "id": 5329336921, "lat": 40.9992944, "lon": 29.2652344, "tags": {"addr:city": "Istanbul", "addr:district": "Sultanbeyli", "addr:street": "Mimar sinan caddesi", "cuisine": "turkish", "name": "Bayraklar g\u0131da", "name:ar": "\u0628\u0642\u0627\u0644\u064a\u0629 \u0628\u0627\u064a\u0631\u0627\u0643\u0644\u0627\u0631", "opening_hours": "Mo-Fr 07:00-13:30; Mo-Fr 17:00-20:00", "phone": "02165926876", "shop": "convenience"}}, {"type": "node", "id": 5329336934, "lat": 40.9658605, "lon": 29.2681526, "tags": {"addr:city": "Istanbul", "addr:district": "Sultanbeyli", "addr:street": "G\u00fcl caddesi", "cuisine": "turkish", "name": "Aksis perakende", "name:ar": "\u0628\u0642\u0627\u0644\u064a\u0629 \u0627\u0643\u0633\u064a\u0633", "opening_hours": "Mo-Fr 07:00-13:30; Mo-Fr 17:00-20:00", "shop": "convenience"}}, {"type": "node", "id": 5329336935, "lat": 40.9661198, "lon": 29.2648052, "tags": {"addr:city": "Istanbul", "addr:district": "Sultanbeyli", "addr:street": "\u015eanl\u0131urfa caddesi", "cuisine": "syrian", "name": "Kar kar kuruyemi\u015f", "name:ar": "\u0645\u062d\u0627\u0645\u0635 \u0648\u0645\u0643\u0633\u0631\u0627\u062a \u0643\u0631\u0643\u0631", "opening_hours": "Mo-Fr 07:00-13:30; Mo-Fr 17:00-20:00", "phone": "05393071277", "shop": "convenience"}}, {"type": "node", "id": 5329336960, "lat": 41.0028247, "lon": 29.2627882, "tags": {"addr:city": "Istanbul", "addr:district": "Sultanbeyli", "addr:street": "Naif soka\u011f\u0131", "cuisine": "turkish", "name": "Tokat g\u0131da", "name:ar": "\u0628\u0642\u0627\u0644\u064a\u0629 \u062a\u0648\u0643\u0627\u062a", "opening_hours": "Mo-Fr 07:00-13:30; Mo-Fr 17:00-20:00", "phone": "05369625004", "shop": "convenience"}}, {"type": "node", "id": 5329336970, "lat": 40.9632923, "lon": 29.264183, "tags": {"addr:city": "Istanbul", "addr:district": "Sultanbeyli", "addr:street": "Yi\u011fit soka\u011f\u0131", "name": "Beyza market", "name:ar": "\u0633\u0648\u0628\u0631 \u0645\u0627\u0631\u0643\u062a \u0628\u064a\u0632\u0627", "opening_hours": "Mo-Fr 07:00-13:30; Mo-Fr 17:00-20:00", "phone": "02164962345", "shop": "convenience"}}, {"type": "node", "id": 5329336974, "lat": 40.9668894, "lon": 29.268496, "tags": {"addr:city": "Istanbul", "addr:district": "Sultanbeyli", "addr:street": "Cenk soka\u011f\u0131", "name": "Akbil dolum bayii mini bakkal", "name:ar": "\u0628\u0642\u0627\u0644\u0629 \u0627\u0643\u0628\u064a\u0644 \u062f\u0648\u0644\u0648\u0645", "opening_hours": "Mo-Fr 07:00-13:30; Mo-Fr 17:00-20:00", "shop": "convenience"}}, {"type": "node", "id": 5329336976, "lat": 40.9648334, "lon": 29.2679021, "tags": {"addr:city": "Istanbul", "addr:district": "Sultanbeyli", "addr:street": "G\u00fcl caddesi", "cuisine": "ice_cream", "name": "Kervan dondurma", "name:ar": "\u0628\u0648\u0638\u0629 \u0643\u0631\u0648\u0627\u0646", "opening_hours": "Mo-Fr 07:00-13:30; Mo-Fr 17:00-20:00", "shop": "convenience"}}, {"type": "node", "id": 5329336985, "lat": 40.9629683, "lon": 29.2700194, "tags": {"addr:city": "Istanbul", "addr:district": "Sultanbeyli", "addr:street": "Ziya-\u00fcl hak caddise", "cuisine": "dessert", "name": "Eski g\u00fcnlar", "name:ar": "\u062d\u0644\u0648\u064a\u0627\u062a \u0627\u064a\u0627\u0645 \u0632\u0645\u0627\u0646", "opening_hours": "Mo-Fr 07:00-13:30; Mo-Fr 17:00-20:00", "shop": "convenience"}}, {"type": "node", "id": 5329336987, "lat": 40.9656739, "lon": 29.2696225, "tags": {"addr:city": "Istanbul", "addr:district": "Sultanbeyli", "addr:street": "G\u00fcn caddesi", "cuisine": "turkish", "name": "Sultan kasap", "name:ar": "\u0644\u062d\u0648\u0645 \u0633\u0644\u0637\u0627\u0646", "opening_hours": "Mo-Fr 07:00-13:30; Mo-Fr 17:00-20:00", "shop": "convenience"}}, {"type": "node", "id": 5329337003, "lat": 40.9933184, "lon": 29.2716502, "tags": {"addr:city": "Istanbul", "addr:district": "Sultanbeyli", "addr:street": "Dilber soka\u011f\u0131", "cuisine": "turkish", "name": "Arslan g\u0131da", "name:ar": "\u0628\u0642\u0627\u0644\u064a\u0629 \u0627\u0631\u0633\u0644\u0627\u0646", "opening_hours": "Mo-Fr 07:00-13:30; Mo-Fr 17:00-20:00", "phone": "05377322520", "shop": "convenience"}}, {"type": "node", "id": 5329337438, "lat": 40.9644347, "lon": 29.2681312, "tags": {"addr:city": "Istanbul", "addr:district": "Sultanbeyli", "addr:street": "Mira\u00e7 caddesi", "cuisine": "turkish", "name": "T\u00fct\u00fcn \u00fcr\u00fcnkeri", "name:ar": "\u0628\u064a\u0639 \u062a\u0628\u0639 \u0648\u0627\u0631\u0627\u0643\u064a\u0644 \u0628\u062f\u0648\u0646 \u0627\u0633\u0645", "opening_hours": "Mo-Fr 07:00-13:30; Mo-Fr 17:00-20:00", "phone": "05337419302", "shop": "convenience"}}, {"type": "node", "id": 5329337448, "lat": 40.9885485, "lon": 29.2724012, "tags": {"addr:city": "Istanbul", "addr:district": "Sultanbeyli", "addr:street": "G\u00fcrses soka\u011f\u0131", "cuisine": "turkish", "name": "Beni foods", "name:ar": "\u0628\u0642\u0627\u0644\u064a\u0629 \u0628\u064a\u0646\u064a \u0641\u0648\u0648\u062f\u0632", "opening_hours": "Mo-Fr 07:00-13:30; Mo-Fr 17:00-20:00", "shop": "convenience"}}, {"type": "node", "id": 5329337482, "lat": 40.9949865, "lon": 29.2649769, "tags": {"addr:city": "Istanbul", "addr:district": "Sultanbeyli", "addr:street": "Mimar sinan caddesi", "name": "T\u00fct\u00fcnc\u00fc ismat", "name:ar": "\u0628\u064a\u0639 \u062a\u0628\u0639 \u0648\u0627\u0631\u0627\u0643\u064a\u0644 \u0639\u0635\u0645\u062a", "opening_hours": "Mo-Fr 07:00-13:30; Mo-Fr 17:00-20:00", "phone": "05353671062", "shop": "convenience"}}, {"type": "node", "id": 5329337515, "lat": 40.9660226, "lon": 29.2653631, "tags": {"addr:city": "Istanbul", "addr:district": "Sultanbeyli", "addr:street": "\u015eanl\u0131urfa caddesi", "cuisine": "turkish", "name": "Tuna \u015fark\u00fcteri", "name:ar": "\u0628\u0642\u0627\u0644\u064a\u0629 \u062a\u0648\u0646\u0627 \u0634\u0627\u0631\u0643\u0648\u062a\u0631\u064a", "opening_hours": "Mo-Fr 07:00-13:30; Mo-Fr 17:00-20:00", "phone": "02163988686", "shop": "convenience"}}, {"type": "node", "id": 5329337516, "lat": 40.9660712, "lon": 29.2651056, "tags": {"addr:city": "Istanbul", "addr:district": "Sultanbeyli", "addr:street": "\u015eanl\u0131urfa caddesi", "cuisine": "turkish", "name": "U\u011furlu A.V.M", "name:ar": "\u0628\u0642\u0627\u0644\u064a\u0629 \u064a\u0648\u063a\u0648\u0631\u0644\u0648", "opening_hours": "Mo-Fr 07:00-13:30; Mo-Fr 17:00-20:00", "phone": "02164194584", "shop": "convenience"}}, {"type": "node", "id": 5329337955, "lat": 40.9899722, "lon": 29.2630012, "tags": {"addr:city": "Istanbul", "addr:district": "Sultanbeyli", "addr:street": "Mimar sinan caddesi", "cuisine": "turkish", "name": "Bekta\u015flar", "name:ar": "\u0628\u0642\u0627\u0644\u064a\u0629 \u0628\u0643\u062a\u0627\u0634\u0644\u0627\u0631", "opening_hours": "Mo-Fr 07:00-13:30; Mo-Fr 17:00-20:00", "phone": "05325456361", "shop": "convenience"}}, {"type": "node", "id": 5329337957, "lat": 40.9687688, "lon": 29.2678737, "tags": {"addr:city": "Istanbul", "addr:district": "Sultanbeyli", "addr:street": "Yusuf islam soka\u011f\u0131", "cuisine": "dessert", "name": "Antepden baklava", "name:ar": "\u062d\u0644\u0648\u064a\u0627\u062a \u0639\u0646\u062a\u0627\u0628", "opening_hours": "Mo-Fr 07:00-13:30; Mo-Fr 17:00-20:00", "phone": "05054170027", "shop": "convenience"}}, {"type": "node", "id": 5329337961, "lat": 40.9577101, "lon": 29.2700838, "tags": {"addr:city": "Istanbul", "addr:district": "Sultanbeyli", "addr:street": "Yavuz selim caddesi", "cuisine": "turkish", "name": "\u00d6zer market", "name:ar": "\u0628\u0642\u0627\u0644\u064a\u0629 \u0627\u0648\u0632\u0631", "opening_hours": "Mo-Fr 07:00-13:30; Mo-Fr 17:00-20:00", "phone": "05459643425", "shop": "convenience"}}, {"type": "node", "id": 5329337975, "lat": 40.9667274, "lon": 29.265685, "tags": {"addr:city": "Istanbul", "addr:district": "Sultanbeyli", "addr:street": "\u015een caddesi", "cuisine": "dessert", "name": "K\u00fcnefe d\u00fcnyas\u0131", "name:ar": "\u0643\u0646\u0627\u0641\u0629 \u062f\u0648\u0646\u064a\u0627\u0633\u064a", "opening_hours": "Mo-Fr 07:00-13:30; Mo-Fr 17:00-20:00", "phone": "02163986847", "shop": "convenience"}}, {"type": "node", "id": 5329338013, "lat": 40.9628873, "lon": 29.2699336, "tags": {"addr:city": "Istanbul", "addr:district": "Sultanbeyli", "addr:street": "Ziya-\u00fcl hak caddise", "cuisine": "syrian", "name": "Mahmoud mini market", "name:ar": "\u0645\u064a\u0646\u064a \u0645\u0627\u0631\u0643\u062a \u0645\u062d\u0645\u0648\u062f", "opening_hours": "Mo-Fr 07:00-13:30; Mo-Fr 17:00-20:00", "shop": "convenience"}}, {"type": "node", "id": 5329338019, "lat": 40.9650585, "lon": 29.2709636, "tags": {"addr:city": "Istanbul", "addr:district": "Sultanbeyli", "addr:street": "Ziya-\u00fcl hak caddesi", "cuisine": "syrian", "name": "Alkheir market", "name:ar": "\u0645\u0627\u0631\u0643\u062a \u0627\u0644\u062e\u064a\u0631", "opening_hours": "Mo-Fr 07:00-13:30; Mo-Fr 17:00-20:00", "phone": "05383746333", "shop": "convenience"}}, {"type": "node", "id": 5329338129, "lat": 40.9661684, "lon": 29.2646336, "tags": {"addr:city": "Istanbul", "addr:district": "Sultanbeyli", "addr:street": "\u015eanl\u0131urfa caddesi", "cuisine": "turkish", "name": "\u0130stanbul b\u00fcfe", "name:ar": "\u0627\u0631\u0627\u0643\u064a\u0644 \u0627\u0633\u0637\u0646\u0628\u0648\u0644", "opening_hours": "Mo-Fr 07:00-13:30; Mo-Fr 17:00-20:00", "phone": "05340201201", "shop": "convenience"}}, {"type": "node", "id": 5329338132, "lat": 40.9623685, "lon": 29.2699714, "tags": {"addr:city": "Istanbul", "addr:district": "Sultanbeyli", "addr:street": "Ziya-\u00fcl hak caddise", "cuisine": "syrian", "name": "Maria mini mall", "name:ar": "\u0645\u064a\u0646\u064a \u0645\u0648\u0644 \u0645\u0627\u0631\u064a\u0627", "opening_hours": "Mo-Fr 07:00-13:30; Mo-Fr 17:00-20:00", "shop": "convenience"}}, {"type": "node", "id": 5329338134, "lat": 40.9624741, "lon": 29.2700194, "tags": {"addr:city": "Istanbul", "addr:district": "Sultanbeyli", "addr:street": "Ziya-\u00fcl hak caddise", "cuisine": "dessert", "name": "\u062d\u0644\u0648\u064a\u0627\u062a \u0627\u0644\u0631\u063a\u062f", "name:ar": "\u062d\u0644\u0648\u064a\u0627\u062a \u0648\u0645\u0639\u062c\u0646\u0627\u062a \u0627\u0644\u0631\u063a\u062f", "opening_hours": "Mo-Fr 07:00-13:30; Mo-Fr 17:00-20:00", "phone": "05389240612", "shop": "convenience"}}, {"type": "node", "id": 5329338138, "lat": 40.9636893, "lon": 29.2673158, "tags": {"addr:city": "Istanbul", "addr:district": "Sultanbeyli", "addr:street": "G\u00fcl caddesi", "cuisine": "turkish", "name": "\u00d6zg\u00fcr mini market", "name:ar": "\u0645\u064a\u0646\u064a \u0645\u0627\u0631\u0643\u062a \u0627\u0648\u0632\u063a\u0648\u0631", "opening_hours": "Mo-Fr 07:00-13:30; Mo-Fr 17:00-20:00", "shop": "convenience"}}, {"type": "node", "id": 5329338146, "lat": 40.9654879, "lon": 29.2713713, "tags": {"addr:city": "Istanbul", "addr:district": "Sultanbeyli", "addr:street": "Ziya-\u00fcl hak caddesi", "cuisine": "syrian", "name": "Alamir", "name:ar": "\u0628\u0642\u0627\u0644\u0629 \u0627\u0644\u0627\u0645\u064a\u0631", "opening_hours": "Mo-Fr 07:00-13:30; Mo-Fr 17:00-20:00", "shop": "convenience"}}, {"type": "node", "id": 5329338167, "lat": 40.9654717, "lon": 29.2711782, "tags": {"addr:city": "Istanbul", "addr:district": "Sultanbeyli", "addr:street": "Ziya-\u00fcl hak caddesi", "cuisine": "dessert", "name": "Salloura \u00f6glu", "name:ar": "\u062d\u0644\u0648\u064a\u0627\u062a \u0633\u0644\u0644\u0648\u0631\u0629", "opening_hours": "Mo-Fr 07:00-13:30; Mo-Fr 17:00-20:00", "shop": "convenience"}}, {"type": "node", "id": 5344919557, "lat": 40.9511294, "lon": 29.2910418, "tags": {"addr:city": "Istanbul", "addr:district": "Sultanbeyli", "addr:street": "Petrol Yolu Caddesi", "cuisine": "syrian", "name": "abo athman", "name:ar": "\u0628\u0642\u0627\u0644 \u0627\u0628\u0648 \u0639\u062b\u0645\u0627\u0646", "shop": "convenience"}}, {"type": "node", "id": 5344919563, "lat": 40.9540962, "lon": 29.3046735, "tags": {"addr:city": "Istanbul", "addr:district": "Sultanbeyli", "addr:street": "Mecidiye Caddesi", "name": "Cadde market", "name:ar": "\u0645\u0627\u0631\u0643\u0629 \u062c\u0627\u062f\u0647", "shop": "convenience"}}, {"type": "node", "id": 5344919576, "lat": 40.9508773, "lon": 29.2873256, "tags": {"addr:city": "Istanbul", "addr:district": "Sultanbeyli", "addr:street": "Ku\u011fulu", "name": "Ero\u011ful G\u0131da", "name:ar": "\u0645\u0627\u0631\u0643\u0629 \u0625\u0631\u0648\u062c\u0648\u0644", "shop": "convenience"}}, {"type": "node", "id": 5344919586, "lat": 40.9582173, "lon": 29.2963786, "tags": {"addr:city": "Istanbul", "addr:district": "Sultanbeyli", "addr:street": "Fatih Bulvar\u0131", "name": "Lays", "name:ar": "\u0628\u0642\u0627\u0644 \u0644\u064a\u062b", "shop": "convenience"}}, {"type": "node", "id": 5344919592, "lat": 40.9503001, "lon": 29.2884338, "tags": {"addr:city": "Istanbul", "addr:district": "Sultanbeyli", "addr:street": "Risale Caddesi", "name": "Gormar", "name:ar": "\u062c\u0648\u0631\u0645\u0627\u0631", "opening_hours": "Mo-Fr 07:00-13:30; Mo-Fr 17:00-20:00", "shop": "convenience"}}, {"type": "node", "id": 5344919593, "lat": 40.9542967, "lon": 29.3049427, "tags": {"addr:city": "Istanbul", "addr:district": "Sultanbeyli", "addr:street": "Mecidiye Caddesi", "name": "Y\u0131ld\u0131z mini market", "name:ar": "\u0645\u064a\u0646\u064a \u0645\u0627\u0631\u0643\u0629 \u064a\u0644\u062f\u0632", "shop": "convenience"}}, {"type": "node", "id": 5344919599, "lat": 40.9504011, "lon": 29.2885102, "tags": {"addr:city": "Istanbul", "addr:district": "Sultanbeyli", "addr:street": "Risale Caddesi", "name": "koka kola", "name:ar": "\u0643\u0648\u0643\u0627 \u0643\u0648\u0644\u0627", "shop": "convenience"}}, {"type": "node", "id": 5344919613, "lat": 40.9510793, "lon": 29.2894846, "tags": {"addr:city": "Istanbul", "addr:district": "Sultanbeyli", "addr:street": "F\u0131nd\u0131k Sokak", "name": "Sezenler", "name:ar": "\u0628\u0642\u0627\u0644 \u0625\u0644\u064a\u0643\u0645", "opening_hours": "24/7", "shop": "convenience"}}, {"type": "node", "id": 5344921528, "lat": 40.9484602, "lon": 29.289924, "tags": {"addr:city": "Istanbul", "addr:district": "Sultanbeyli", "addr:street": "Gen\u00e7lik caddesi", "name": "Eymen G\u0131da", "name:ar": "\u0627\u064a\u0645\u0646 \u0644\u0644\u063a\u0630\u0627\u0621", "shop": "convenience"}}, {"type": "node", "id": 5408893138, "lat": 40.937146, "lon": 29.1293119, "tags": {"name": "Babil G\u0131da", "shop": "convenience"}}, {"type": "node", "id": 5408893139, "lat": 40.9377792, "lon": 29.1288908, "tags": {"name": "Tekel", "shop": "convenience"}}, {"type": "node", "id": 5423356163, "lat": 40.8971029, "lon": 29.1959225, "tags": {"addr:city": "\u0130stanbul", "addr:district": "Kartal", "addr:neighbourhood": "Karl\u0131ktepe Mahallesi", "addr:postcode": "34870", "addr:street": "R\u00fczgar Sokak", "name": "\u00c7amoluk G\u0131da", "payment:cash": "yes", "payment:credit_cards": "yes", "payment:debit_cards": "yes", "shop": "convenience"}}, {"type": "node", "id": 5477690877, "lat": 41.0287042, "lon": 29.1282058}, {"type": "node", "id": 5477690878, "lat": 41.0284901, "lon": 29.1282426}, {"type": "node", "id": 5477690879, "lat": 41.0285471, "lon": 29.128682}, {"type": "node", "id": 5477690880, "lat": 41.0287566, "lon": 29.1286343}, {"type": "node", "id": 5514414877, "lat": 40.9840576, "lon": 29.0291614, "tags": {"name": "Tezel gida", "shop": "convenience"}}, {"type": "node", "id": 5526398465, "lat": 41.0237593, "lon": 28.9745088, "tags": {"brand": "Migros Jet", "brand:wikidata": "Q1754510", "brand:wikipedia": "tr:Migros (T\u00fcrkiye)", "check_date": "2022-11-12", "name": "Migros Jet", "opening_hours": "08:30-22:00", "shop": "convenience"}}, {"type": "node", "id": 5542882971, "lat": 40.9678109, "lon": 29.2527763, "tags": {"addr:city": "Istanbul", "addr:district": "Sultanbeyli", "addr:street": "Hasan basri caddesi\u062c\u0627\u062f\u0629 \u062d\u0633\u0646 \u0627\u0644\u0628\u0635\u0631\u064a", "cuisine": "turkish", "name": "Harpnt kabab", "name:ar": "\u0647\u0627\u0631\u0628\u0646\u062a \u0643\u0628\u0627\u0628", "opening_hours": "Mo-Su 07:00-20:00", "shop": "convenience"}}, {"type": "node", "id": 5542882979, "lat": 40.9881964, "lon": 29.2635818, "tags": {"addr:city": "Istanbul", "addr:district": "Sultanbeyli", "addr:street": "bosna Caddesi", "name": "Asaf kuruyemi\u015f", "name:ar": "\u0645\u062d\u0645\u0635\u0629 \u0645\u0648\u0627\u0644\u062d \u0639\u0633\u0627\u0641", "shop": "convenience"}}, {"type": "node", "id": 5542883007, "lat": 40.9580416, "lon": 29.2844147, "tags": {"addr:city": "Istanbul", "addr:district": "Sultanbeyli", "addr:street": "Eyyubi caddesi", "name": "\u015eahin", "name:ar": "\u0628\u0642\u0627\u0644 \u0634\u0627\u0647\u064a\u0646", "opening_hours": "Mo-Fr 07:00-13:30; Mo-Fr 17:00-20:00", "shop": "convenience"}}, {"type": "node", "id": 5542883216, "lat": 40.9540968, "lon": 29.3046845, "tags": {"addr:city": "Istanbul", "addr:district": "Sultanbeyli", "addr:street": "Mecidiye Caddesi", "name": "Cadde market", "name:ar": "\u0645\u0627\u0631\u0643\u0629 \u062c\u0627\u062f\u0647", "shop": "convenience"}}, {"type": "node", "id": 5542883339, "lat": 40.9669026, "lon": 29.2534092, "tags": {"addr:city": "Istanbul", "addr:district": "Sultanbeyli", "addr:street": "Dumlupinar caddesi \u062f\u0648\u0645\u0644\u0648 \u0628\u064a\u0646\u0627\u0631 \u062c\u0627\u062f\u064a\u0633\u064a", "cuisine": "turkish", "name": "Has \u00e7i\u011fk\u00f6fte dunyasi", "name:ar": "\u0647\u0627\u0633 \u062a\u0634\u064a \u0643\u0648\u0641\u062a\u0647", "opening_hours": "Mo-Su 07:00-20:00", "shop": "convenience"}}, {"type": "node", "id": 5542883368, "lat": 40.9454384, "lon": 29.2969651, "tags": {"addr:city": "Istanbul", "addr:district": "Sultanbeyli", "addr:street": "Alparslan caddsi", "name": "\u0627\u0628\u0648 \u0639\u0628\u062f\u0648", "name:ar": "\u0627\u0628\u0648\u0639\u0628\u062f\u0648", "phone": "05314752013", "shop": "convenience"}}, {"type": "node", "id": 5542883371, "lat": 40.9387186, "lon": 29.2963614, "tags": {"addr:city": "Istanbul", "addr:district": "Sultanbeyli", "addr:street": "E\u015fref butlis blv", "name": "Sondurak market", "name:ar": "\u0645\u062d\u0644 \u0628\u0642\u0627\u0644\u0647)\u0633\u0648\u0646\u062f\u0648\u0631\u0643 \u0645\u0627\u0631\u0643\u064a\u062a", "opening_hours": "Mo-Fr 07:00-13:30; Mo-Fr 17:00-20:00", "phone": "02164872137", "shop": "convenience"}}, {"type": "node", "id": 5542883410, "lat": 40.9484608, "lon": 29.2899351, "tags": {"addr:city": "Istanbul", "addr:district": "Sultanbeyli", "addr:street": "Gen\u00e7lik caddesi", "name": "Eymen G\u0131da", "name:ar": "\u0627\u064a\u0645\u0646 \u0644\u0644\u063a\u0630\u0627\u0621", "shop": "convenience"}}, {"type": "node", "id": 5542883555, "lat": 40.9652199, "lon": 29.2798519, "tags": {"addr:city": "Istanbul", "addr:district": "Sultanbeyli", "addr:street": "Malazgirt soka\u011f\u0131", "cuisine": "syrian", "name": "Maasa Cida", "name:ar": "\u0645\u0627\u0631\u0643\u062a \u0645\u0627\u0633\u0629", "opening_hours": "Mo-Fr 07:00-13:30; Mo-Fr 17:00-20:00", "shop": "convenience"}}, {"type": "node", "id": 5542883585, "lat": 40.9671558, "lon": 29.2532908, "tags": {"addr:city": "Istanbul", "addr:district": "Sultanbeyli", "addr:street": "Dumlupinar caddesi \u062f\u0648\u0645\u0644\u0648 \u0628\u064a\u0646\u0627\u0631 \u062c\u0627\u062f\u064a\u0633\u064a", "cuisine": "turkish", "name": "R\u00fcya d\u00f6ner&\u00e7orba", "name:ar": "\u0631\u0624\u064a\u0627 \u0644\u0644\u0634\u0627\u0648\u0631\u0645\u0627 \u0648\u0627\u0644\u0634\u0648\u0631\u0628\u0627\u062a", "opening_hours": "Mo-Su 07:00-20:00", "shop": "convenience"}}, {"type": "node", "id": 5542883590, "lat": 40.9553504, "lon": 29.2850785, "tags": {"addr:city": "Istanbul", "addr:district": "Sultanbeyli", "addr:street": "Eyyubi caddesi", "cuisine": "syrian", "name": "alhal", "name:ar": "\u0627\u0644\u062e\u0627\u0644", "opening_hours": "Mo-Fr 07:00-13:30; Mo-Fr 17:00-20:00", "shop": "convenience"}}, {"type": "node", "id": 5542883625, "lat": 40.9772251, "lon": 29.2659044, "tags": {"addr:city": "Istanbul", "addr:district": "Sultanbeyli", "addr:street": "sel\u00e7ukhan Caddesi", "cuisine": "dessert", "name": "Eminel", "name:ar": "\u062d\u0644\u0648\u064a\u0627\u062a \u0627\u064a\u0645\u064a\u0646\u064a\u0644", "opening_hours": "Mo-Fr 07:00-13:30; Mo-Fr 17:00-20:00", "shop": "convenience"}}, {"type": "node", "id": 5542883638, "lat": 40.9692261, "lon": 29.2479959, "tags": {"addr:city": "Istanbul", "addr:district": "Sultanbeyli", "addr:street": "Petrol yolu cadeci \u062c\u0627\u062f\u0629 \u0634\u0627\u0631\u0639 \u0627\u0644\u0628\u062a\u0631\u0648\u0644", "cuisine": "turkish", "name": "PA\u015eA CAFE", "name:ar": "\u0628\u0627\u0634\u0627 \u0643\u0627\u0641\u064a( \u0634\u0627\u0648\u0631\u0645\u0627 \u0648\u0634\u0648\u0631\u0628\u0627\u062a)", "phone": "3982354", "shop": "convenience"}}, {"type": "node", "id": 5542883644, "lat": 40.9395342, "lon": 29.2949968, "tags": {"addr:city": "Istanbul", "addr:district": "Sultanbeyli", "addr:street": "Su Kenari Caddesi", "name": "Diatemsan", "name:ar": "(\u0645\u062d\u0644 \u0628\u0642\u0627\u0644\u0647 \u0633\u0648\u0631\u064a)\u062f\u064a\u0627\u062a\u0627\u0645\u0633\u0627\u0646", "phone": "02164875153", "shop": "convenience"}}, {"type": "node", "id": 5542883655, "lat": 40.967945, "lon": 29.2535275, "tags": {"addr:city": "Istanbul", "addr:district": "Sultanbeyli", "addr:street": "Dumlupinar caddesi\u062f\u0648\u0645\u0644\u0648 \u0628\u064a\u0646\u0627\u0631 \u062c\u0627\u062f\u064a\u0633\u064a", "cuisine": "turkish", "name": "Durak d\u00f6ner", "name:ar": "\u062f\u0648\u0631\u0627\u0643 \u062f\u0648\u0646\u064a\u0631", "shop": "convenience"}}, {"type": "node", "id": 5542883658, "lat": 40.967543, "lon": 29.2533894, "tags": {"addr:city": "Istanbul", "addr:district": "Sultanbeyli", "addr:street": "Dumlupinar caddesi \u062f\u0648\u0645\u0644\u0648 \u0628\u064a\u0646\u0627\u0631 \u062c\u0627\u062f\u064a\u0633\u064a", "cuisine": "dessert", "name": "Seval pastanesi", "name:ar": "\u0633\u064a\u0641\u0627\u0644 \u0628\u0627\u0633\u062a\u0627\u0646\u064a\u0633\u064a", "shop": "convenience"}}, {"type": "node", "id": 5542883676, "lat": 40.9669131, "lon": 29.2765474, "tags": {"addr:city": "Istanbul", "addr:district": "Sultanbeyli", "addr:street": "huzur Caddesi", "cuisine": "dessert", "name": "Huzur gida", "name:ar": "\u062d\u0644\u0648\u064a\u0627\u062a \u0647\u0648\u0632\u0648\u0631", "opening_hours": "Mo-Fr 07:00-13:30; Mo-Fr 17:00-20:00", "shop": "convenience"}}, {"type": "node", "id": 5542883683, "lat": 40.9650056, "lon": 29.277865, "tags": {"addr:city": "Istanbul", "addr:district": "Sultanbeyli", "addr:street": "Fatih Bulvar\u0131 Caddesi", "cuisine": "dessert", "name": "Tatl\u0131bak", "name:ar": "\u062d\u0644\u0648\u064a\u0627\u062a \u0627\u0644\u062c\u0645\u0627\u0644", "opening_hours": "24/7", "shop": "convenience"}}, {"type": "node", "id": 5542883688, "lat": 40.9474675, "lon": 29.2995812, "tags": {"addr:city": "Istanbul", "addr:district": "Sultanbeyli", "addr:street": "Ak\u015femsettin Caddesi", "name": "buuap hmah", "name:ar": "\u0628\u0648\u0627\u0628\u0629 \u062d\u0645\u0627\u0647", "opening_hours": "24/7", "phone": "05378620734", "shop": "convenience"}}, {"type": "node", "id": 5542883698, "lat": 40.9403124, "lon": 29.2927597, "tags": {"addr:city": "Istanbul", "addr:district": "Sultanbeyli", "addr:street": "Merter Soka\u011f\u0131", "name": "Bereket hipermarketliyi", "name:ar": "\u0645\u062d\u0644 \u0628\u0642\u0627\u0644\u0647 \u0628\u0631\u0643\u0627\u062a \u0647\u064a\u0628\u0645\u0627\u0631\u0643\u064a\u062a", "phone": "02164871303", "shop": "convenience"}}, {"type": "node", "id": 5542883708, "lat": 40.9670143, "lon": 29.2532514, "tags": {"addr:city": "Istanbul", "addr:district": "Sultanbeyli", "addr:street": "Dumlupinar caddesi \u062f\u0648\u0645\u0644\u0648 \u0628\u064a\u0646\u0627\u0631 \u062c\u0627\u062f\u064a\u0633\u064a", "cuisine": "dessert", "name": "Gaziantepli \u015falvarl\u0131o\u011flu", "name:ar": "\u063a\u0627\u0632\u064a \u0627\u0646\u062a\u064a\u0628", "opening_hours": "Mo-Su 07:00-20:00", "shop": "convenience"}}, {"type": "node", "id": 5542883796, "lat": 40.954635, "lon": 29.3023592, "tags": {"addr:city": "Istanbul", "addr:district": "Sultanbeyli", "addr:street": "Afyon Caddesi", "name": "Karde\u015fler", "name:ar": "\u0628\u0642\u0627\u0644 \u0627\u0644\u0627\u062e\u0648\u0629", "shop": "convenience"}}, {"type": "node", "id": 5542883803, "lat": 40.9642991, "lon": 29.2503111, "tags": {"addr:city": "Istanbul", "addr:district": "Sultanbeyli", "addr:street": "bilgin soka\u011f\u0131 \u0628\u064a\u0644\u063a\u064a\u0646 \u0633\u0648\u0643\u0627\u0643", "cuisine": "dessert", "name": "Yeltepe pastani", "name:ar": "\u064a\u064a\u0644 \u062a\u064a\u0628\u064a \u0628\u0627\u0633\u062a\u0627\u0646\u064a", "shop": "convenience"}}, {"type": "node", "id": 5542884541, "lat": 40.9726913, "lon": 29.251239, "tags": {"addr:city": "Istanbul", "addr:district": "Sultanbeyli", "addr:street": "yeni sokak \u064a\u064a\u0646\u064a \u0633\u0648\u0643\u0627\u0643", "cuisine": "turkish", "name": "Maya toplu yemek", "name:ar": "\u0645\u0627\u064a\u0627 \u0644\u0644\u0637\u0639\u0627\u0645 \u0627\u0644\u0645\u0639\u0644\u0628( \u0648\u062c\u0628\u0627\u062a \u0644\u0644\u0639\u0645\u0627\u0644)", "opening_hours": "Mo-Fr 07:00-13:30; Mo-Fr 17:00-20:00", "phone": "02164195046", "shop": "convenience"}}, {"type": "node", "id": 5542884552, "lat": 40.9555764, "lon": 29.2853039, "tags": {"addr:city": "Istanbul", "addr:district": "Sultanbeyli", "addr:street": "Eyyubi caddesi", "name": "Kahvalt\u0131 d\u00fcnyas\u0131", "name:ar": "\u0643\u0647\u0641\u0627\u0644\u062a\u064a \u062f\u0648\u0646\u064a\u0627\u0633\u064a", "opening_hours": "Mo-Fr 07:00-13:30; Mo-Fr 17:00-20:00", "shop": "convenience"}}, {"type": "node", "id": 5542884553, "lat": 40.9693953, "lon": 29.2475787, "tags": {"addr:city": "Istanbul", "addr:district": "Sultanbeyli", "addr:street": "Petrol yolu cadeci \u062c\u0627\u062f\u0629 \u0634\u0627\u0631\u0639 \u0627\u0644\u0628\u062a\u0631\u0648\u0644", "cuisine": "dessert", "name": "Bayraktar", "name:ar": "\u0628\u0627\u064a\u0631\u0627\u0643\u062a\u0627\u0631 \u0644\u0644\u062d\u0644\u0648\u064a\u0627\u062a \u0648 \u0627\u0644\u0641\u0637\u0648\u0631", "opening_hours": "Mo-Fr 07:00-13:30; Mo-Fr 17:00-20:00", "shop": "convenience"}}, {"type": "node", "id": 5542884560, "lat": 40.9637889, "lon": 29.283493, "tags": {"addr:city": "Istanbul", "addr:district": "Sultanbeyli", "addr:street": "Fatih Bulvar\u0131 Caddesi", "name": "Sefa Ekmek Unlu Mam\u00fclleri MAnav ve \u015eark\u00fcteri", "name:ar": "\u0641\u0631\u0646 \u0635\u0641\u0627", "opening_hours": "24/7", "shop": "convenience"}}, {"type": "node", "id": 5542884593, "lat": 40.9720671, "lon": 29.2488469, "tags": {"addr:city": "Istanbul", "addr:district": "Sultanbeyli", "addr:street": "fatih bulvar\u0131 \u0641\u0627\u062a\u062d \u0628\u0648\u0644\u0641\u0627\u0631\u064a", "name": "Lamaz\u0131 bakkali", "name:ar": "\u0644\u0627\u0645\u0627\u0632\u064a \u0628\u0642\u0627\u0644\u064a", "opening_hours": "Mo-Fr 07:00-13:30; Mo-Fr 17:00-20:00", "shop": "convenience"}}, {"type": "node", "id": 5542884604, "lat": 40.9548173, "lon": 29.3060751, "tags": {"addr:city": "Istanbul", "addr:district": "Sultanbeyli", "addr:street": "Mecidiye Caddesi", "name": "Acamar market", "name:ar": "\u0645\u0627\u0631\u0643\u0629 \u0627\u062c\u0627\u0645\u0627\u0631", "shop": "convenience"}}, {"type": "node", "id": 5542884605, "lat": 40.954924, "lon": 29.3061962, "tags": {"addr:city": "Istanbul", "addr:district": "Sultanbeyli", "addr:street": "Mecidiye Caddesi", "name": "Halk market", "name:ar": "\u0645\u0627\u0631\u0643\u0629 \u062e\u0644\u0642", "shop": "convenience"}}, {"type": "node", "id": 5542886338, "lat": 40.9358944, "lon": 29.2842818, "tags": {"addr:city": "Istanbul", "addr:district": "Sultanbeyli", "addr:street": "Antalya", "name": "Birlik hipermarket", "name:ar": "(\u0645\u062d\u0644 \u0628\u0642\u0627\u0644\u0647) \u0645\u0627\u0631\u0643\u062a \u0628\u064a\u0631\u0644\u064a\u0643", "phone": "4974389", "shop": "convenience"}}, {"type": "node", "id": 5542886373, "lat": 40.9620827, "lon": 29.2576625, "tags": {"addr:city": "Istanbul", "addr:district": "Sultanbeyli", "addr:street": "Sakarya Caddesi", "name": "Ayd\u0131n bakkala", "name:ar": "\u0645\u0627\u0631\u0643\u062a \u0627\u064a\u062f\u064a\u0646", "opening_hours": "Mo-Fr 07:00-13:30; Mo-Fr 17:00-20:00", "phone": "05368543881", "shop": "convenience"}}, {"type": "node", "id": 5542886399, "lat": 40.9390668, "lon": 29.2867772, "tags": {"addr:city": "Istanbul", "addr:district": "Sultanbeyli", "addr:street": "\u015feyh hikmet efendi soka\u010de", "name": "Star market", "name:ar": "\u0645\u0627\u0631\u0643\u062a \u0633\u062a\u0627\u0631", "shop": "convenience"}}, {"type": "node", "id": 5542887038, "lat": 40.9642583, "lon": 29.2518248, "tags": {"addr:city": "Istanbul", "addr:district": "Sultanbeyli", "addr:street": "Hat caddesi", "cuisine": "turkish", "name": "Poyraz doner", "name:ar": "\u0628\u0627\u064a\u0631\u0627\u0632 \u062f\u0648\u0646\u064a\u0631( \u0634\u0627\u0648\u0631\u0645\u0627)", "opening_hours": "Mo-Fr 07:00-13:30; Mo-Fr 17:00-20:00", "phone": "05318706126", "shop": "convenience"}}, {"type": "node", "id": 5542887042, "lat": 40.9684791, "lon": 29.252426, "tags": {"addr:city": "Istanbul", "addr:district": "Sultanbeyli", "addr:street": "fatih bulvar\u0131", "name": "\u0130kizler Kuruyemi\u015f", "name:ar": "\u0627\u064a\u0643\u064a\u0632\u0644\u0627\u0631 \u0643\u0648\u0631\u0648 \u064a\u0645\u064a\u0634", "shop": "convenience"}}, {"type": "node", "id": 5542887079, "lat": 40.9769064, "lon": 29.2654172, "tags": {"addr:city": "Istanbul", "addr:district": "Sultanbeyli", "addr:street": "Sel\u00e7ukhan Caddesi", "name": "Baris Kuruyemis", "name:ar": "\u0628\u0642\u0627\u0644\u0629 \u0628\u0627\u0631\u064a\u0633 \u0643\u0648\u0631\u0648\u064a\u0645\u0633", "shop": "convenience"}}, {"type": "node", "id": 5542887084, "lat": 40.9686286, "lon": 29.2596261, "tags": {"addr:city": "Istanbul", "addr:district": "Sultanbeyli", "addr:street": "Fatih Bulvar\u0131 Caddesi", "name": "Nihat Kuruyemi\u015f", "name:ar": "\u0643\u0634\u0643 \u0628\u0632\u0648\u0631\u0627\u062a \u0646\u064a\u0647\u0627\u062a", "opening_hours": "Mo-Fr 07:00-13:30; Mo-Fr 17:00-20:00", "shop": "convenience"}}, {"type": "node", "id": 5542887090, "lat": 40.985276, "lon": 29.2778778, "tags": {"addr:city": "Istanbul", "addr:district": "Sultanbeyli", "addr:street": "sel\u00e7ukhan Caddesi", "cuisine": "turkish", "name": "Lezzet Mutfa\u011f\u0131", "name:ar": "\u0645\u0637\u0628\u062e \u0644\u064a\u0632\u064a\u062a", "opening_hours": "24/7", "phone": "053262266575", "shop": "convenience"}}, {"type": "node", "id": 5542887094, "lat": 40.9506523, "lon": 29.298651, "tags": {"addr:city": "Istanbul", "addr:district": "Sultanbeyli", "addr:street": "Sina iyi", "name": "Markitg\u00fctok g\u0131da", "name:ar": "\u0643\u0648\u0632\u0648\u062a\u0648\u0643\u0643\u064a\u062f\u0627", "shop": "convenience"}}, {"type": "node", "id": 5542887096, "lat": 40.9770955, "lon": 29.2656255, "tags": {"addr:city": "Istanbul", "addr:district": "Sultanbeyli", "addr:street": "sel\u00e7ukhan Caddesi", "cuisine": "chicken", "name": "Kasap erginler", "name:ar": "\u0628\u0642\u0627\u0644\u0629 \u0643\u0633\u0627\u0628 \u0627\u0631\u062c\u064a\u0646\u064a\u0644\u0631", "opening_hours": "Mo-Fr 07:00-13:30; Mo-Fr 17:00-20:00", "shop": "convenience"}}, {"type": "node", "id": 5542887102, "lat": 40.9643843, "lon": 29.2795163, "tags": {"addr:city": "Istanbul", "addr:district": "Sultanbeyli", "addr:street": "Fatih Bulvari", "cuisine": "syrian", "name": "Mahmud Mini Market", "opening_hours": "24/7", "shop": "convenience"}}, {"type": "node", "id": 5542887329, "lat": 40.9677589, "lon": 29.2536458, "tags": {"addr:city": "Istanbul", "addr:district": "Sultanbeyli", "addr:street": "Dumlupinar caddesi\u062f\u0648\u0645\u0644\u0648 \u0628\u064a\u0646\u0627\u0631 \u062c\u0627\u062f\u064a\u0633\u064a", "cuisine": "turkish", "name": "Tad\u0131m \u00e7i\u011fk\u00f6fte", "name:ar": "\u062a\u0627\u062f\u0645 \u062a\u0634\u064a \u0643\u0648\u0641\u062a\u0647", "opening_hours": "Mo-Su 07:00-20:00", "shop": "convenience"}}, {"type": "node", "id": 5542887350, "lat": 40.9762936, "lon": 29.2711186, "tags": {"addr:city": "Istanbul", "addr:district": "Sultanbeyli", "addr:street": "kaptan\u0131 derya Caddesi", "cuisine": "dessert", "name": "Sultan", "name:ar": "\u062d\u0644\u0648\u064a\u0627\u062a \u0633\u0644\u0637\u0627\u0646", "opening_hours": "Mo-Fr 07:00-13:30; Mo-Fr 17:00-20:00", "phone": "05324971121", "shop": "convenience"}}, {"type": "node", "id": 5542887413, "lat": 40.9682627, "lon": 29.2618226, "tags": {"addr:city": "Istanbul", "addr:district": "Sultanbeyli", "addr:street": "Fatih Bulvar\u0131 Caddesi", "cuisine": "dessert", "name": "Grand Asya", "name:ar": "\u062d\u0644\u0648\u064a\u0627\u062a \u063a\u0631\u0627\u0646\u062f \u0627\u0633\u064a\u0627", "opening_hours": "Mo-Fr 07:00-13:30; Mo-Fr 17:00-20:00", "shop": "convenience"}}, {"type": "node", "id": 5542887622, "lat": 40.9398149, "lon": 29.2944585, "tags": {"addr:city": "Istanbul", "addr:district": "Sultanbeyli", "addr:street": "Sukenarl Soka\u011f\u0131", "name": "Birlik hipermarket", "name:ar": "(\u0633\u0648\u0628\u0631\u0645\u0627\u0631\u0643\u062a \u062a\u0631\u0643\u064a)\u0628\u064a\u0631\u0644\u064a\u0643 \u0647\u064a\u0628\u0627\u0631\u064a\u0645 \u0645\u0627\u0631\u0643\u062a", "shop": "convenience"}}, {"type": "node", "id": 5542887631, "lat": 40.9657125, "lon": 29.2755393, "tags": {"addr:city": "Istanbul", "addr:district": "Sultanbeyli", "addr:street": "Fatih Bulvar\u0131", "cuisine": "dessert", "name": "Aztek Baklava", "name:ar": "\u0628\u0642\u0644\u0627\u0648\u0629 \u0628\u0627\u0644\u0641\u0633\u062a\u0642", "opening_hours": "24/7", "shop": "convenience"}}, {"type": "node", "id": 5542887633, "lat": 40.9939575, "lon": 29.274745, "tags": {"addr:city": "Istanbul", "addr:district": "Sultanbeyli", "addr:street": "sel\u00e7ukhan Caddesi", "cuisine": "chicken", "name": "Eren et", "name:ar": "\u0628\u0642\u0627\u0644\u0629 \u0627\u064a\u0631\u0646\u062a", "opening_hours": "Mo-Fr 07:00-13:30; Mo-Fr 17:00-20:00", "phone": "05453435933", "shop": "convenience"}}, {"type": "node", "id": 5542887636, "lat": 40.9645475, "lon": 29.2579222, "tags": {"addr:city": "Istanbul", "addr:district": "Sultanbeyli", "addr:street": "Petrol yolu Caddesi", "name": "Azim Market", "name:ar": "\u0645\u0627\u0631\u0643\u062a \u0627\u0632\u064a\u0645", "opening_hours": "Mo-Fr 07:00-13:30; Mo-Fr 17:00-20:00", "phone": "02163980901", "shop": "convenience"}}, {"type": "node", "id": 5542887717, "lat": 40.9801897, "lon": 29.27526, "tags": {"addr:city": "Istanbul", "addr:district": "Sultanbeyli", "addr:street": "Sel\u015fukhn Caddesi", "cuisine": "dessert", "name": "\u00f6z\u00e7elik", "name:ar": "\u062d\u0644\u0648\u064a\u0627\u062a \u0627\u0648\u0632\u0634\u0644\u064a\u0643", "opening_hours": "Mo-Fr 07:00-13:30; Mo-Fr 17:00-20:00", "phone": "05435863810", "shop": "convenience"}}, {"type": "node", "id": 5542887941, "lat": 40.9840368, "lon": 29.2793798, "tags": {"addr:city": "Istanbul", "addr:district": "Sultanbeyli", "addr:street": "Sel\u00e7ukhan Caddesi", "cuisine": "chicken", "name": "Kasap Aydan", "name:ar": "\u0642\u0635\u0627\u0628 \u0627\u064a\u062f\u0627\u0646", "opening_hours": "Mo-Su 07:00-20:00; Mo-Fr 07:00-13:30; Mo-Fr 17:00-20:00", "shop": "convenience"}}, {"type": "node", "id": 5542887944, "lat": 40.958218, "lon": 29.2963897, "tags": {"addr:city": "Istanbul", "addr:district": "Sultanbeyli", "addr:street": "Fatih Bulvar\u0131", "name": "Lays", "name:ar": "\u0628\u0642\u0627\u0644 \u0644\u064a\u062b", "shop": "convenience"}}, {"type": "node", "id": 5542887984, "lat": 40.964645, "lon": 29.2781424, "tags": {"addr:city": "Istanbul", "addr:district": "Sultanbeyli", "addr:street": "Fatih Bulvar\u0131 Caddesi", "cuisine": "dessert", "name": "\u015eefi", "name:ar": "\u0645\u062d\u0644 \u0627\u0644\u0634\u0627\u0641\u064a", "opening_hours": "24/7", "shop": "convenience"}}, {"type": "node", "id": 5542888000, "lat": 40.9768201, "lon": 29.2654109, "tags": {"addr:city": "Istanbul", "addr:district": "Sultanbeyli", "addr:street": "Sel\u00e7ukhan Caddesi", "cuisine": "fish", "name": "Tekin bal\u0131k", "name:ar": "\u0627\u0633\u0645\u0627\u0643 \u062a\u064a\u0643\u064a\u0646", "opening_hours": "Mo-Fr 07:00-13:30; Mo-Fr 17:00-20:00", "phone": "05357603317", "shop": "convenience"}}, {"type": "node", "id": 5542888014, "lat": 40.9398343, "lon": 29.2945354, "tags": {"addr:city": "Istanbul", "addr:district": "Sultanbeyli", "addr:street": "Su Kenari Caddesi", "name": "Birlik market", "name:ar": "(\u0645\u062d\u0644 \u0628\u064a\u0642\u0627\u0644\u0647)\u0628\u064a\u0631\u0644\u064a\u0643 \u0645\u0627\u0631\u0643\u062a", "shop": "convenience"}}, {"type": "node", "id": 5542888924, "lat": 40.9459069, "lon": 29.2967219, "tags": {"addr:city": "Istanbul", "addr:district": "Sultanbeyli", "addr:street": "Yasin sokag\u0131", "name": "\u0627\u0628\u0648 \u062f\u0627\u0648\u0648\u062f", "name:ar": "\u0627\u0628\u0648 \u062f\u0627\u0648\u0648\u062f\u0662", "phone": "05319600356", "shop": "convenience"}}, {"type": "node", "id": 5542888925, "lat": 40.9504017, "lon": 29.2885212, "tags": {"addr:city": "Istanbul", "addr:district": "Sultanbeyli", "addr:street": "Risale Caddesi", "name": "koka kola", "name:ar": "\u0643\u0648\u0643\u0627 \u0643\u0648\u0644\u0627", "shop": "convenience"}}, {"type": "node", "id": 5542888929, "lat": 40.9714244, "lon": 29.2491136, "tags": {"addr:city": "Istanbul", "addr:district": "Sultanbeyli", "addr:street": "fatih bulvar\u0131", "cuisine": "dessert", "name": "Anteplio\u011flu", "name:ar": "\u0639\u0646\u062a\u0627\u0628 \u0627\u0648\u063a\u0644\u0648 \u0644\u0644\u062d\u0644\u0648\u064a\u0627\u062a", "opening_hours": "Mo-Fr 07:00-13:30; Mo-Fr 17:00-20:00", "phone": "4987327", "shop": "convenience"}}, {"type": "node", "id": 5542888934, "lat": 40.9773443, "lon": 29.2653668, "tags": {"addr:city": "Istanbul", "addr:district": "Sultanbeyli", "addr:street": "kubbe Caddesi", "name": "Ulusal G\u0131da Kuruyemi\u015f", "name:ar": "\u0645\u0627\u0631\u0643\u062a \u0627\u0648\u0644\u0648\u0633\u0627\u0644", "opening_hours": "Mo-Fr 07:00-13:30; Mo-Fr 17:00-20:00", "phone": "05382614454", "shop": "convenience"}}, {"type": "node", "id": 5542888954, "lat": 40.9506831, "lon": 29.2927628, "tags": {"addr:city": "Istanbul", "addr:district": "Sultanbeyli", "addr:street": "E\u015fref Bey caddesi", "name": "Karada\u011f", "name:ar": "\u0627\u0644\u062c\u0628\u0644 \u0627\u0644\u0627\u0633\u0648\u062f", "shop": "convenience"}}, {"type": "node", "id": 5542888959, "lat": 40.9678852, "lon": 29.2627716, "tags": {"addr:city": "Istanbul", "addr:district": "Sultanbeyli", "addr:street": "Ferah Caddesi", "cuisine": "dessert", "name": "Gaziantepli Hac\u0131 Bedir o\u011flu", "name:ar": "\u062d\u0644\u0648\u064a\u0627\u062a \u063a\u0627\u0632\u064a \u0627\u0646\u062a\u0627\u0628\u0644\u064a", "opening_hours": "Mo-Fr 07:00-13:30; Mo-Fr 17:00-20:00", "phone": "02163980227", "shop": "convenience"}}, {"type": "node", "id": 5542888972, "lat": 40.9549896, "lon": 29.3066428, "tags": {"addr:city": "Istanbul", "addr:district": "Sultanbeyli", "addr:street": "Mecidiye Caddesi", "name": "Cihanbey Market", "name:ar": "\u0645\u0627\u0631\u0643\u0629 \u062c\u064a\u0647\u0627\u0646", "shop": "convenience"}}, {"type": "node", "id": 5542888985, "lat": 40.9683875, "lon": 29.2759681, "tags": {"addr:city": "Istanbul", "addr:district": "Sultanbeyli", "addr:street": "\u00e7amlik Caddesi", "cuisine": "dessert", "name": "Gazitanepli baklavaci", "name:ar": "\u062d\u0644\u0648\u064a\u0627\u062a \u063a\u0627\u0632\u064a\u0646\u062a\u0628\u0644\u064a", "opening_hours": "Mo-Fr 07:00-13:30; Mo-Fr 17:00-20:00", "phone": "05362919366", "shop": "convenience"}}, {"type": "node", "id": 5542889004, "lat": 40.9572314, "lon": 29.2850232, "tags": {"addr:city": "Istanbul", "addr:district": "Sultanbeyli", "addr:street": "Eyyubi caddesi", "name": "G\u00f6k\u00e7e", "name:ar": "\u0628\u0642\u0627\u0644 \u062c\u0648\u0643\u0634\u064a", "opening_hours": "Mo-Fr 07:00-13:30; Mo-Fr 17:00-20:00", "shop": "convenience"}}, {"type": "node", "id": 5542889010, "lat": 40.9691443, "lon": 29.2474782, "tags": {"addr:city": "Istanbul", "addr:district": "Sultanbeyli", "addr:street": "Petrol yolu cadeci \u062c\u0627\u062f\u0629 \u0634\u0627\u0631\u0639 \u0627\u0644\u0628\u062a\u0631\u0648\u0644", "cuisine": "turkish", "name": "\u00c7i\u011fk\u00f6fteci \u00f6mer usta", "name:ar": "\u062a\u0634\u064a \u0643\u0648\u0641\u062a\u0629 \u0639\u0645\u0631 \u0627\u0648\u0633\u062a\u0627", "opening_hours": "Mo-Fr 07:00-13:30; Mo-Fr 17:00-20:00", "shop": "convenience"}}, {"type": "node", "id": 5542889127, "lat": 40.9662464, "lon": 29.2531876, "tags": {"addr:city": "Istanbul", "addr:district": "Sultanbeyli", "addr:street": "Dumlupinar caddesi \u062f\u0648\u0645\u0644\u0648 \u0628\u064a\u0646\u0627\u0631 \u062c\u0627\u062f\u064a\u0633\u064a", "cuisine": "turkish", "name": "Ziyafet \u00e7i\u011fk\u00f6fte", "name:ar": "\u0632\u064a\u0627\u0641\u0627\u062a \u062a\u0634\u064a \u0643\u0648\u0641\u062a\u0647", "opening_hours": "Mo-Fr 07:00-13:30; Mo-Fr 17:00-20:00", "shop": "convenience"}}, {"type": "node", "id": 5542889143, "lat": 40.9691166, "lon": 29.2586946, "tags": {"addr:city": "Istanbul", "addr:district": "Sultanbeyli", "addr:street": "faith Caddesi", "cuisine": "dessert", "name": "Beyaz konak", "name:ar": "\u062d\u0644\u0648\u064a\u0627\u062a \u0628\u064a\u0627\u0632 \u0643\u0648\u0646\u0627\u0643", "opening_hours": "Mo-Fr 07:00-13:30; Mo-Fr 17:00-20:00", "phone": "02164960754", "shop": "convenience"}}, {"type": "node", "id": 5542889167, "lat": 40.95108, "lon": 29.2894956, "tags": {"addr:city": "Istanbul", "addr:district": "Sultanbeyli", "addr:street": "F\u0131nd\u0131k Sokak", "name": "Sezenler", "name:ar": "\u0628\u0642\u0627\u0644 \u0625\u0644\u064a\u0643\u0645", "opening_hours": "24/7", "shop": "convenience"}}, {"type": "node", "id": 5542889176, "lat": 40.9443447, "lon": 29.2961152, "tags": {"addr:city": "Istanbul", "addr:district": "Sultanbeyli", "addr:street": "Orhangazi Caddesi", "name": "\u0627\u0628\u0648 \u062f\u0627\u0648\u0648\u062f", "name:ar": "\u0627\u0628\u0648\u062f\u0627\u0648\u062f(\u0628\u0642\u0627\u0644 \u0633\u0648\u0631\u064a)", "shop": "convenience"}}, {"type": "node", "id": 5542889178, "lat": 40.9652383, "lon": 29.250475, "tags": {"addr:city": "Istanbul", "addr:district": "Sultanbeyli", "addr:street": "Hat caddesi \u0647\u0627\u062a \u062c\u0627\u062f\u064a\u0633\u064a", "cuisine": "turkish", "name": "Alt\u0131nsoy", "name:ar": "\u0622\u0644\u062a\u0646 \u0633\u0648\u064a( \u0628\u064a\u062f\u064a\u0647 \u0648 \u0628\u0648\u0634\u0627)", "opening_hours": "Mo-Fr 07:00-13:30; Mo-Fr 17:00-20:00", "shop": "convenience"}}, {"type": "node", "id": 5542889186, "lat": 40.95254, "lon": 29.2970717, "tags": {"addr:city": "Istanbul", "addr:district": "Sultanbeyli", "addr:neighbourhood": "Hamidiye Mah", "addr:street": "Fatih Blv", "name": "Palamutlu G\u0131da", "name:ar": "\u0628\u0627\u0644\u0645\u0648\u062a\u0644\u0648 \u062c\u064a\u062f\u0627", "phone": "05448483456", "shop": "convenience"}}, {"type": "node", "id": 5542889190, "lat": 40.971528, "lon": 29.2490151, "tags": {"addr:city": "Istanbul", "addr:district": "Sultanbeyli", "addr:street": "fatih bulvar\u0131", "cuisine": "turkish", "name": "y\u0131lbay", "name:ar": "\u0645\u0637\u0639\u0645 \u064a\u0644\u0628\u0627\u064a", "opening_hours": "Mo-Fr 07:00-13:30; Mo-Fr 17:00-20:00", "phone": "4191771", "shop": "convenience"}}, {"type": "node", "id": 5542889198, "lat": 40.9726944, "lon": 29.2501743, "tags": {"addr:city": "Istanbul", "addr:district": "Sultanbeyli", "addr:street": "tavhit cadesi \u062c\u0627\u062f\u0647 \u0627\u0644\u062a\u0648\u062d\u064a\u062f", "name": "Supir market", "name:ar": "\u0645\u0627\u0631\u0643\u062a", "opening_hours": "Mo-Fr 07:00-13:30; Mo-Fr 17:00-20:00", "shop": "convenience"}}, {"type": "node", "id": 5542889202, "lat": 40.9508779, "lon": 29.2873366, "tags": {"addr:city": "Istanbul", "addr:district": "Sultanbeyli", "addr:street": "Ku\u011fulu", "name": "Ero\u011ful G\u0131da", "name:ar": "\u0645\u0627\u0631\u0643\u0629 \u0625\u0631\u0648\u062c\u0648\u0644", "shop": "convenience"}}, {"type": "node", "id": 5542889206, "lat": 40.9773304, "lon": 29.2660332, "tags": {"addr:city": "Istanbul", "addr:district": "Sultanbeyli", "addr:street": "sel\u00e7ukhan Caddesi", "cuisine": "ice_cream", "name": "Kervan dondurma", "name:ar": "\u0645\u062b\u0644\u062c\u0627\u062a \u0643\u064a\u0631\u0641\u0627\u0646", "opening_hours": "Mo-Fr 07:00-13:30; Mo-Fr 17:00-20:00", "shop": "convenience"}}, {"type": "node", "id": 5542889214, "lat": 40.9542973, "lon": 29.3049537, "tags": {"addr:city": "Istanbul", "addr:district": "Sultanbeyli", "addr:street": "Mecidiye Caddesi", "name": "Y\u0131ld\u0131z mini market", "name:ar": "\u0645\u064a\u0646\u064a \u0645\u0627\u0631\u0643\u0629 \u064a\u0644\u062f\u0632", "shop": "convenience"}}, {"type": "node", "id": 5542890236, "lat": 40.9821173, "lon": 29.2666984, "tags": {"addr:city": "Istanbul", "addr:district": "Sultanbeyli", "addr:street": "Kubbe Caddesi", "name": "Elbir gida", "name:ar": "\u0643\u0634\u0643 \u0627\u0644\u0628\u064a\u0631 \u062c\u064a\u062f\u0627", "opening_hours": "Mo-Fr 07:00-13:30; Mo-Fr 17:00-20:00", "shop": "convenience"}}, {"type": "node", "id": 5542890241, "lat": 40.966849, "lon": 29.252598, "tags": {"addr:city": "Istanbul", "addr:district": "Sultanbeyli", "addr:street": "Petrol yolu cadeci \u062c\u0627\u062f\u0629 \u0634\u0627\u0631\u0639 \u0627\u0644\u0628\u062a\u0631\u0648\u0644", "cuisine": "dessert", "name": "Hasanpa\u015fa pasta ve b\u00f6rek", "name:ar": "\u062d\u0633\u0627\u0646 \u0628\u0627\u0634\u0627 \u0644\u0644\u0628\u0631\u0643 \u0648 \u0627\u0644\u062d\u0644\u0648\u064a\u0627\u062a", "opening_hours": "Mo-Fr 07:00-13:30; Mo-Fr 17:00-20:00", "shop": "convenience"}}, {"type": "node", "id": 5542890254, "lat": 40.9468727, "lon": 29.3012793, "tags": {"addr:city": "Istanbul", "addr:district": "Sultanbeyli", "addr:street": "Fatih bulvar\u0131", "name": "\u00d6zcan mini market", "name:ar": "(\u0633\u0648\u0628\u0631\u0645\u0627\u0631\u0643\u062a) \u0627\u0648\u0632\u062c\u0627\u0646 \u0645\u064a\u0646\u064a \u0645\u0627\u0631\u0643\u062a \u062a", "opening_hours": "Su 09:00-12:00", "shop": "convenience"}}, {"type": "node", "id": 5542890260, "lat": 40.95113, "lon": 29.2910528, "tags": {"addr:city": "Istanbul", "addr:district": "Sultanbeyli", "addr:street": "Petrol Yolu Caddesi", "cuisine": "syrian", "name": "abo athman", "name:ar": "\u0628\u0642\u0627\u0644 \u0627\u0628\u0648 \u0639\u062b\u0645\u0627\u0646", "shop": "convenience"}}, {"type": "node", "id": 5542890265, "lat": 40.9555016, "lon": 29.3073478, "tags": {"addr:city": "Istanbul", "addr:district": "Sultanbeyli", "addr:street": "Mecidiye Caddesi", "name": "Canbaz", "name:ar": "\u0645\u0627\u0631\u0643\u0629 \u062c\u0627\u0646\u0628\u0627\u0638", "shop": "convenience"}}, {"type": "node", "id": 5542890283, "lat": 40.9503007, "lon": 29.2884448, "tags": {"addr:city": "Istanbul", "addr:district": "Sultanbeyli", "addr:street": "Risale Caddesi", "name": "Gormar", "name:ar": "\u062c\u0648\u0631\u0645\u0627\u0631", "opening_hours": "Mo-Fr 07:00-13:30; Mo-Fr 17:00-20:00", "shop": "convenience"}}, {"type": "node", "id": 5542890286, "lat": 40.9762369, "lon": 29.2714405, "tags": {"addr:city": "Istanbul", "addr:district": "Sultanbeyli", "addr:street": "yildirim Caddesi", "cuisine": "chicken", "name": "Furkan kasap", "name:ar": "\u0628\u0642\u0627\u0644\u0629 \u0641\u0631\u0642\u0627\u0646", "opening_hours": "Mo-Fr 07:00-13:30; Mo-Fr 17:00-20:00", "phone": "05448921965", "shop": "convenience"}}, {"type": "node", "id": 5542890295, "lat": 40.9473437, "lon": 29.2989731, "tags": {"addr:city": "Istanbul", "addr:district": "Sultanbeyli", "addr:street": "Su Kenari Caddesi", "name": "Ailem", "name:ar": "\u064a\u0642\u0627\u0644 \u0627\u0644\u0639\u0627\u0626\u0644\u0629", "shop": "convenience"}}, {"type": "node", "id": 5542890300, "lat": 40.9670515, "lon": 29.2534486, "tags": {"addr:city": "Istanbul", "addr:district": "Sultanbeyli", "addr:street": "Dumlupinar caddesi \u062f\u0648\u0645\u0644\u0648 \u0628\u064a\u0646\u0627\u0631 \u062c\u0627\u062f\u064a\u0633\u064a", "cuisine": "turkish", "name": "Alio\u011flu kebab pide lahmacun", "name:ar": "\u0639\u0644\u064a \u0627\u0648\u0641\u0644\u0648( \u0643\u0628\u0627\u0628 \u0628\u064a\u062f\u064a\u0647 \u0644\u062d\u0645 \u0628\u0639\u062c\u064a\u0646)", "opening_hours": "Mo-Su 07:00-20:00", "shop": "convenience"}}, {"type": "node", "id": 5542890309, "lat": 40.9653559, "lon": 29.2507086, "tags": {"addr:city": "Istanbul", "addr:district": "Sultanbeyli", "addr:street": "Hat caddesi \u0647\u0627\u062a \u062c\u0627\u062f\u064a\u0633\u064a", "cuisine": "turkish", "name": "Zirve d\u00f6ner b\u00f6rek salonu", "name:ar": "\u0632\u064a\u0631\u0641\u064a \u0644\u0644\u0628\u0631\u0643 \u0648 \u0627\u0644\u0634\u0627\u0648\u0631\u0645\u0627", "opening_hours": "Mo-Fr 07:00-13:30; Mo-Fr 17:00-20:00", "shop": "convenience"}}, {"type": "node", "id": 5542891126, "lat": 40.9818905, "lon": 29.2718267, "tags": {"addr:city": "Istanbul", "addr:district": "Sultanbeyli", "addr:street": "kubbe Caddesi", "name": "Seven markete", "name:ar": "\u0645\u0627\u0631\u0643\u062a \u0633\u064a\u0641\u064a\u0646", "opening_hours": "Mo-Fr 07:00-13:30; Mo-Fr 17:00-20:00", "shop": "convenience"}}, {"type": "node", "id": 5542891149, "lat": 40.9816739, "lon": 29.2663731, "tags": {"addr:city": "Istanbul", "addr:district": "Sultanbeyli", "addr:street": "kubbe Caddesi", "name": "Sevil", "name:ar": "\u0643\u0634\u0643 \u0633\u064a\u0641\u064a\u0644", "opening_hours": "Mo-Fr 07:00-13:30; Mo-Fr 17:00-20:00", "shop": "convenience"}}, {"type": "node", "id": 5542891218, "lat": 40.9804002, "lon": 29.2759681, "tags": {"addr:city": "Istanbul", "addr:district": "Sultanbeyli", "addr:street": "Sel\u015fukhn Caddesi", "name": "Metin Market", "name:ar": "\u0645\u0627\u0631\u0643\u062a \u0645\u064a\u062a\u0646", "opening_hours": "Mo-Fr 07:00-13:30; Mo-Fr 17:00-20:00", "shop": "convenience"}}, {"type": "node", "id": 5542891431, "lat": 40.977106, "lon": 29.2652846, "tags": {"addr:city": "Istanbul", "addr:district": "Sultanbeyli", "addr:street": "kubbe Caddesi", "cuisine": "fish", "name": "Mevsim bal\u0131k", "name:ar": "\u0627\u0633\u0645\u0627\u0643 \u0645\u064a\u0641\u0633\u064a\u0645", "opening_hours": "Mo-Fr 07:00-13:30; Mo-Fr 17:00-20:00", "shop": "convenience"}}, {"type": "node", "id": 5542891447, "lat": 40.9477369, "lon": 29.2866723, "tags": {"addr:city": "Istanbul", "addr:district": "Sultanbeyli", "addr:street": "Orhan Gazi Caddesi", "name:ar": "\u0628\u0642\u0627\u0644\u064a\u0629 \u0627\u0644\u0647\u0644\u0627\u0644 \u0627\u0628\u0648 \u0641\u0627\u0636\u0644", "phone": "0531205519", "shop": "convenience"}}, {"type": "node", "id": 5542891463, "lat": 40.9648267, "lon": 29.251124, "tags": {"addr:city": "Istanbul", "addr:district": "Sultanbeyli", "addr:street": "Hat caddesi \u0647\u0627\u062a \u062c\u0627\u062f\u064a\u0633\u064a", "cuisine": "turkish", "name": "Has \u00e7i\u011fk\u00f6fte", "name:ar": "\u0647\u0627\u0633 \u062a\u0634\u064a \u0643\u0648\u0641\u062a\u0647", "opening_hours": "Mo-Fr 07:00-13:30; Mo-Fr 17:00-20:00", "shop": "convenience"}}, {"type": "node", "id": 5542891467, "lat": 40.9647824, "lon": 29.2771482, "tags": {"addr:city": "Istanbul", "addr:district": "Sultanbeyli", "name": "Ho\u015fgeldiniz", "name:ar": "\u0633\u0628\u0631 \u0645\u0627\u0631\u0643\u062a \u0623\u0647\u0644\u0627 \u0648\u0633\u0647\u0644\u0627", "opening_hours": "24/7", "shop": "convenience"}}, {"type": "node", "id": 5592628622, "lat": 40.9139937, "lon": 29.1405272, "tags": {"shop": "convenience"}}, {"type": "node", "id": 5592628624, "lat": 40.9138444, "lon": 29.1405084, "tags": {"shop": "convenience"}}, {"type": "node", "id": 5592628626, "lat": 40.9153621, "lon": 29.1427761, "tags": {"shop": "convenience"}}, {"type": "node", "id": 5592628721, "lat": 40.9175814, "lon": 29.1363628, "tags": {"shop": "convenience"}}, {"type": "node", "id": 5655490752, "lat": 41.0326154, "lon": 28.9872389, "tags": {"name": "Katis Market", "shop": "convenience"}}, {"type": "node", "id": 5668626421, "lat": 41.0278623, "lon": 28.9762362, "tags": {"name": "the Market", "shop": "convenience"}}, {"type": "node", "id": 5669065642, "lat": 40.957551, "lon": 29.1014987, "tags": {"addr:city": "\u0130stanbul", "addr:district": "Kad\u0131k\u00f6y", "addr:neighbourhood": "Bostanc\u0131 Mahallesi", "addr:postcode": "34744", "addr:street": "Mehmet \u015eevki Pa\u015fa Caddesi", "shop": "convenience"}}, {"type": "node", "id": 5706186265, "lat": 41.0015143, "lon": 29.1344585, "tags": {"addr:city": "\u0130stanbul", "addr:district": "\u00dcmraniye", "addr:housenumber": "16", "addr:neighbourhood": "Tatl\u0131su Mahallesi", "addr:postcode": "34774", "addr:street": "Esenli Sokak", "city": "\u0130stanbul", "district": "\u00dcmraniye", "housenumber": "No:8A", "name": "Timur G\u0131da", "neighbourhood": "Tatl\u0131su Mahallesi", "opening_hours": "Pzt-Pazar 07:00-24:00", "operator": "Timur G\u0131da", "payment:american_express": "yes", "payment:cash": "yes", "payment:credit_cards": "yes", "payment:debit_cards": "yes", "payment:maestro": "yes", "payment:mastercard": "yes", "payment:visa": "yes", "payment:visa_debit": "yes", "phone": "+90 216 526 09 94", "postal_code": "34774", "shop": "convenience", "street": "Esenli Sokak"}}, {"type": "node", "id": 5729991774, "lat": 40.8130259, "lon": 29.3697221, "tags": {"addr:city": "Kocaeli", "addr:district": "\u00c7ay\u0131rova", "addr:housenumber": "14/B", "addr:neighbourhood": "\u00c7ay\u0131rova", "addr:postcode": "41420", "addr:street": "5202. Sokak", "name": "\u00c7ak\u0131r Bakkal", "shop": "convenience"}}, {"type": "node", "id": 5766407153, "lat": 40.8310756, "lon": 29.3180056, "tags": {"shop": "convenience"}}, {"type": "node", "id": 5891717092, "lat": 40.980732, "lon": 29.0596389, "tags": {"addr:city": "\u0130stanbul", "addr:district": "Kad\u0131k\u00f6y", "addr:neighbourhood": "G\u00f6ztepe", "addr:street": "Sev\u00fck Sokak", "operator": "Tekel", "shop": "convenience"}}, {"type": "node", "id": 5895099933, "lat": 41.0493143, "lon": 29.0022431, "tags": {"name": "CarrefourSA", "shop": "convenience"}}, {"type": "node", "id": 5900400225, "lat": 40.8593216, "lon": 29.3391342, "tags": {"name": "K\u00f6ksallar", "shop": "convenience"}}, {"type": "node", "id": 5900475018, "lat": 40.8632427, "lon": 29.3348789, "tags": {"name": "Deniz", "old_name": "Sis Maket ve \u015eark\u00fcteri", "shop": "convenience"}}, {"type": "node", "id": 5900491176, "lat": 40.862623, "lon": 29.3347297, "tags": {"shop": "convenience"}}, {"type": "node", "id": 5903716071, "lat": 41.0127793, "lon": 29.244787, "tags": {"name": "\u015eam Kahvasi", "name:ar": "\u0628\u0646 \u0627\u0644\u0634\u0627\u0645", "opening_hours": "Mo-Su 08:00-23:00", "payment:cash": "yes", "phone": "05349376096", "shop": "convenience"}}, {"type": "node", "id": 5903716072, "lat": 41.0127996, "lon": 29.2445945, "tags": {"name": "\u015eam Ticaret", "name:ar": "\u0634\u0627\u0645 \u0644\u0644\u062a\u062c\u0627\u0631\u0629", "opening_hours": "Mo-Su 09:00-21:00", "payment:cash": "yes", "phone": "05368737888", "shop": "convenience"}}, {"type": "node", "id": 5905648718, "lat": 40.870106, "lon": 29.3290542, "tags": {"name": "Ekomini", "shop": "convenience"}}, {"type": "node", "id": 5913350811, "lat": 40.875493, "lon": 29.3323231, "tags": {"name": "Menzil Market", "shop": "convenience"}}, {"type": "node", "id": 5913552249, "lat": 40.8728586, "lon": 29.3322363, "tags": {"name": "Yonca AVM", "shop": "convenience"}}, {"type": "node", "id": 5913552257, "lat": 40.8719853, "lon": 29.3336666, "tags": {"name": "G\u00fcndo\u011fdu S\u00fcper Market", "shop": "convenience"}}, {"type": "node", "id": 5913552259, "lat": 40.8704297, "lon": 29.334561, "tags": {"name": "Alfili\u015f G\u0131da", "shop": "convenience"}}, {"type": "node", "id": 5913916790, "lat": 40.8747311, "lon": 29.330632, "tags": {"name": "I\u015f\u0131k Market", "shop": "convenience"}}, {"type": "node", "id": 5915793389, "lat": 40.8754301, "lon": 29.3235778, "tags": {"name": "Ceren G\u0131da", "shop": "convenience"}}, {"type": "node", "id": 5928469566, "lat": 40.899807, "lon": 29.2267752, "tags": {"addr:city": "\u0130stanbul", "addr:district": "Kartal", "addr:housenumber": "22/A", "addr:neighbourhood": "Cumhuriyet", "addr:street": "Abdi \u0130pekci Caddesi", "name": "Demircan Market", "opening_hours": "24/7", "payment:cash": "yes", "payment:credit_cards": "yes", "payment:notes": "yes", "shop": "convenience"}}, {"type": "node", "id": 5928723379, "lat": 40.901162, "lon": 29.2281689, "tags": {"addr:city": "\u0130stanbul", "addr:district": "Kartal", "addr:housenumber": "21/C", "addr:neighbourhood": "H\u00fcrriyet Mahallesi", "addr:street": "Abdi \u0130pekci Caddesi", "name": "Halkmar-Kurfal\u0131", "opening_hours": "07:00-22:00", "payment:cash": "yes", "payment:credit_cards": "yes", "shop": "convenience"}}, {"type": "node", "id": 5930703508, "lat": 40.8798172, "lon": 29.3387418, "tags": {"name": "Forka Hipermarket", "shop": "convenience"}}, {"type": "node", "id": 5930703530, "lat": 40.8797078, "lon": 29.33848, "tags": {"name": "\u00d6zlem Market", "shop": "convenience"}}, {"type": "node", "id": 5943316673, "lat": 40.8844421, "lon": 29.3370641, "tags": {"name": "Kaya Market", "shop": "convenience"}}, {"type": "node", "id": 5951887866, "lat": 40.9748648, "lon": 29.0571418, "tags": {"name": "\u015eok Market", "shop": "convenience"}}, {"type": "node", "id": 5957363741, "lat": 40.8796813, "lon": 29.3502143, "tags": {"shop": "convenience"}}, {"type": "node", "id": 5969777761, "lat": 40.8951541, "lon": 29.3567491, "tags": {"name": "\u015ean G\u0131da Market", "shop": "convenience"}}, {"type": "node", "id": 6044447892, "lat": 41.0037512, "lon": 28.9685225, "tags": {"shop": "convenience"}}, {"type": "node", "id": 6080235406, "lat": 40.9134307, "lon": 29.2095292, "tags": {"addr:city": "\u0130stanbul", "addr:district": "Kartal", "addr:neighbourhood": "Orta Mahalle", "addr:street": "Yalniz Selvi Caddesi", "name": "Turuncu Tekel \u015eark\u00fcteri", "shop": "convenience"}}, {"type": "node", "id": 6080343520, "lat": 40.9200933, "lon": 29.2248769, "tags": {"name": "\u00c7ar\u015f\u0131 Tekel Kuruyemi\u015f", "shop": "convenience"}}, {"type": "node", "id": 6083377101, "lat": 40.9935667, "lon": 29.1346389, "tags": {"addr:street": "Baraj Yolu Caddesi", "name": "Piya Market", "opening_hours": "Mo-Su 07:00-24:00", "payment:cash": "yes", "payment:credit_cards": "yes", "shop": "convenience"}}, {"type": "node", "id": 6085707170, "lat": 41.0099128, "lon": 29.1645188}, {"type": "node", "id": 6085707171, "lat": 41.0100058, "lon": 29.1646728}, {"type": "node", "id": 6085707172, "lat": 41.0099023, "lon": 29.1647945}, {"type": "node", "id": 6085707173, "lat": 41.009843, "lon": 29.1646959}, {"type": "node", "id": 6089392785, "lat": 41.0091527, "lon": 29.1666956, "tags": {"name": "Y\u0131lmaz Market", "opening_hours": "Mo-Su 08:00-22:00", "payment:cash": "yes", "payment:credit_cards": "yes", "shop": "convenience"}}, {"type": "node", "id": 6096414416, "lat": 40.9233853, "lon": 29.2222538, "tags": {"name": "\u00d6zen Market", "shop": "convenience"}}, {"type": "node", "id": 6157454648, "lat": 40.9895581, "lon": 29.0421984}, {"type": "node", "id": 6157454649, "lat": 40.989443, "lon": 29.042388}, {"type": "node", "id": 6157454650, "lat": 40.9895684, "lon": 29.0425147}, {"type": "node", "id": 6157454651, "lat": 40.9896765, "lon": 29.0423215}, {"type": "node", "id": 6163017172, "lat": 41.00871, "lon": 28.9743103, "tags": {"name": "Meydan", "shop": "convenience"}}, {"type": "node", "id": 6165560052, "lat": 41.0058031, "lon": 29.0868109}, {"type": "node", "id": 6165560053, "lat": 41.0058211, "lon": 29.0869108}, {"type": "node", "id": 6165560054, "lat": 41.0057443, "lon": 29.0869347}, {"type": "node", "id": 6165560055, "lat": 41.0057283, "lon": 29.0868303}, {"type": "node", "id": 6166196048, "lat": 40.969645, "lon": 29.1343502, "tags": {"name": "Elit Market", "shop": "convenience"}}, {"type": "node", "id": 6166336759, "lat": 41.0062112, "lon": 29.0883027, "tags": {"name": "furkan g\u0131da", "shop": "convenience"}}, {"type": "node", "id": 6166404691, "lat": 41.0061945, "lon": 29.0891201, "tags": {"addr:city": "istanbul", "addr:district": "ata\u015fehir", "addr:street": "mustafapa\u015fa sokak", "name": "pelin", "shop": "convenience"}}, {"type": "node", "id": 6166937549, "lat": 41.0045923, "lon": 29.0856974, "tags": {"shop": "convenience"}}, {"type": "node", "id": 6166937556, "lat": 41.0033327, "lon": 29.0851132, "tags": {"addr:city": "istanbul", "addr:district": "ata\u015fehir", "addr:street": "ziyapa", "name": "eren tekel", "shop": "convenience"}}, {"type": "node", "id": 6166937558, "lat": 41.0034723, "lon": 29.0851741, "tags": {"addr:city": "istanbul", "addr:district": "ata\u015fehir", "addr:street": "ziyapa\u015fa", "name": "dilan market", "shop": "convenience"}}, {"type": "node", "id": 6171181595, "lat": 40.9349155, "lon": 29.1235459, "tags": {"name": "Demircio\u011flu Market", "shop": "convenience"}}, {"type": "node", "id": 6172027501, "lat": 41.0049749, "lon": 29.0825859, "tags": {"addr:city": "\u0130stanbul", "addr:district": "ata\u015fehir", "addr:street": "adnan menderes", "name": "Kol\u00e7ak G\u0131da & \u015eark\u00fcteri", "shop": "convenience"}}, {"type": "node", "id": 6172085149, "lat": 41.0033883, "lon": 29.0811473, "tags": {"shop": "convenience"}}, {"type": "node", "id": 6172848728, "lat": 40.9714812, "lon": 29.1337871, "tags": {"name": "\u00c7elik Market", "shop": "convenience"}}, {"type": "node", "id": 6172848736, "lat": 40.9712785, "lon": 29.1322678, "tags": {"name": "Alem Market", "shop": "convenience"}}, {"type": "node", "id": 6190404636, "lat": 41.0234194, "lon": 29.0290523, "tags": {"addr:city": "istanbul", "addr:district": "\u00fcsk\u00fcdar", "addr:neighbourhood": "Murat reis mahallesi", "addr:street": "Gazi Caddesi", "name": "ucz", "shop": "convenience"}}, {"type": "node", "id": 6190607539, "lat": 41.0237469, "lon": 29.0354118, "tags": {"addr:city": "istanbul", "addr:district": "\u00fcsk\u00fcdar", "addr:neighbourhood": "selami ali mahallesi", "addr:street": "Gazi Caddesi", "name": "Bo\u011fazi\u00e7im Market", "shop": "convenience"}}, {"type": "node", "id": 6190621909, "lat": 41.0238601, "lon": 29.0361039}, {"type": "node", "id": 6190621910, "lat": 41.0239239, "lon": 29.0361052}, {"type": "node", "id": 6190621911, "lat": 41.0239256, "lon": 29.0359519}, {"type": "node", "id": 6190621912, "lat": 41.0238034, "lon": 29.0359494}, {"type": "node", "id": 6190621913, "lat": 41.0238023, "lon": 29.0360424}, {"type": "node", "id": 6242720619, "lat": 40.8704673, "lon": 29.3089509, "tags": {"name": "Ta\u015fk\u0131ran Market", "shop": "convenience"}}, {"type": "node", "id": 6242720622, "lat": 40.8736098, "lon": 29.3064464, "tags": {"name": "G\u00f6k\u00e7en G\u0131da Pazar\u0131", "shop": "convenience"}}, {"type": "node", "id": 6253746146, "lat": 40.8960344, "lon": 29.1858527, "tags": {"name": "Onur Market", "shop": "convenience"}}, {"type": "node", "id": 6261943124, "lat": 40.9767602, "lon": 29.1387756, "tags": {"name": "\u015eahin Market", "shop": "convenience"}}, {"type": "node", "id": 6329059544, "lat": 40.9185796, "lon": 29.302644, "tags": {"name": "Ekomini", "shop": "convenience"}}, {"type": "node", "id": 6329227433, "lat": 41.0309585, "lon": 28.9830232, "tags": {"addr:housenumber": "40", "addr:street": "Akarsu Yoku\u015fu", "name": "Antre Gourmet Shop", "opening_hours": "Mo-Su 09:00-21:00", "shop": "convenience"}}, {"type": "node", "id": 6329559885, "lat": 40.9902675, "lon": 29.0250216, "tags": {"addr:housenumber": "8", "addr:street": "G\u00fcne\u015fli Bah\u00e7e Sokak", "name": "G\u00f6zde \u015eark\u00fcteri", "opening_hours": "Mo-Su 07:00-20:30", "shop": "convenience"}}, {"type": "node", "id": 6347452823, "lat": 40.9204191, "lon": 29.2963807}, {"type": "node", "id": 6347452824, "lat": 40.9203796, "lon": 29.296316}, {"type": "node", "id": 6347452825, "lat": 40.9203343, "lon": 29.2962791}, {"type": "node", "id": 6347452826, "lat": 40.9201213, "lon": 29.2961381}, {"type": "node", "id": 6347452827, "lat": 40.9201643, "lon": 29.2960345}, {"type": "node", "id": 6389240389, "lat": 41.0273635, "lon": 28.9794204, "tags": {"addr:postcode": "34425", "addr:street": "Karaba\u015fdere Soka\u011f\u0131", "name": "A101", "name:en": "A101", "opening_hours": "Mo-Su 09:00-21:00", "shop": "convenience", "website": "https://www.a101.com.tr/"}}, {"type": "node", "id": 6400683800, "lat": 40.9941944, "lon": 29.0367487, "tags": {"addr:city": "\u0130stanbul", "addr:district": "Kad\u0131k\u00f6y", "addr:housenumber": "51-53A", "addr:neighbourhood": "Hasanpa\u015fa", "addr:street": "Kurba\u011fal\u0131dere Caddesi", "name": "Tatbak", "shop": "convenience"}}, {"type": "node", "id": 6418141186, "lat": 41.0118913, "lon": 29.3601608, "tags": {"name": "\u00c7\u00f6mert Market", "shop": "convenience"}}, {"type": "node", "id": 6425793422, "lat": 41.0439551, "lon": 28.9812938, "tags": {"shop": "convenience"}}, {"type": "node", "id": 6478639191, "lat": 40.9139467, "lon": 29.2830355, "tags": {"name": "Karag\u00f6z Market", "shop": "convenience"}}, {"type": "node", "id": 6499326687, "lat": 40.9034437, "lon": 29.2492188, "tags": {"shop": "convenience"}}, {"type": "node", "id": 6513003429, "lat": 40.8680015, "lon": 29.3047627, "tags": {"name": "Bar\u0131\u015f G\u0131da", "shop": "convenience"}}, {"type": "node", "id": 6518159835, "lat": 40.9130277, "lon": 29.2825217, "tags": {"name": "Ekomini", "shop": "convenience"}}, {"type": "node", "id": 6525073723, "lat": 40.9871655, "lon": 29.028115, "tags": {"name": "Migros Jet", "shop": "convenience"}}, {"type": "node", "id": 6532153508, "lat": 40.9140042, "lon": 29.2993608, "tags": {"name": "Veral \u015eark\u00fcteri", "shop": "convenience"}}, {"type": "node", "id": 6532153532, "lat": 40.9159208, "lon": 29.3042797, "tags": {"name": "Meydan Tekel Shop", "shop": "convenience"}}, {"type": "node", "id": 6532153547, "lat": 40.9162261, "lon": 29.3045061, "tags": {"name": "Hilal G\u0131da", "shop": "convenience"}}, {"type": "node", "id": 6550938676, "lat": 41.0102727, "lon": 29.117238, "tags": {"name": "\u00e7a\u011fmar", "shop": "convenience"}}, {"type": "node", "id": 6555196904, "lat": 40.9548989, "lon": 29.1675076, "tags": {"name": "Mini Market", "shop": "convenience"}}, {"type": "node", "id": 6640146050, "lat": 40.8810674, "lon": 29.0693042, "tags": {"name": "Adalar", "shop": "convenience"}}, {"type": "node", "id": 6649642944, "lat": 41.0026555, "lon": 29.0301716, "tags": {"name": "K\u00fcbra Market", "shop": "convenience"}}, {"type": "node", "id": 6709776891, "lat": 41.0304662, "lon": 28.9742691, "tags": {"shop": "convenience"}}, {"type": "node", "id": 6745265523, "lat": 40.9941882, "lon": 29.0637995, "tags": {"name": "Net Market", "shop": "convenience"}}, {"type": "node", "id": 6767396455, "lat": 40.8448665, "lon": 29.3055449, "tags": {"name": "Migros Jet", "shop": "convenience"}}, {"type": "node", "id": 6767608025, "lat": 40.850639, "lon": 29.3086262, "tags": {"name": "Ayd\u0131n Market", "shop": "convenience"}}, {"type": "node", "id": 6767608048, "lat": 40.8480603, "lon": 29.3027724, "tags": {"name": "Keskin", "shop": "convenience"}}, {"type": "node", "id": 6768749374, "lat": 40.9875467, "lon": 29.0332181, "tags": {"name": "Karaku\u015f Market&\u015earkuteri&Manav", "shop": "convenience"}}, {"type": "node", "id": 6790958786, "lat": 41.0162005, "lon": 29.0745286, "tags": {"name": "Karadeniz Market", "shop": "convenience"}}, {"type": "node", "id": 6795273116, "lat": 41.0187486, "lon": 29.0706436, "tags": {"name": "Mercan G\u0131da", "shop": "convenience"}}, {"type": "node", "id": 6843782425, "lat": 41.0326538, "lon": 28.9840808, "tags": {"name:en": "vegan dukkan", "shop": "convenience"}}, {"type": "node", "id": 6950312383, "lat": 40.9821175, "lon": 29.1403923, "tags": {"name": "Aydn Market", "shop": "convenience"}}, {"type": "node", "id": 6950332332, "lat": 40.9781129, "lon": 29.1447182, "tags": {"name": "G\u00fcnay G\u0131da", "shop": "convenience"}}, {"type": "node", "id": 6979179370, "lat": 40.9893853, "lon": 29.1135717, "tags": {"name": "Yakut \u00c7ar\u015f\u0131", "shop": "convenience"}}, {"type": "node", "id": 6990157496, "lat": 41.0479526, "lon": 29.0241279, "tags": {"name": "Emir B\u00fcfe", "shop": "convenience"}}, {"type": "node", "id": 7019826229, "lat": 40.8790521, "lon": 29.2336877, "tags": {"name": "Palmiye Kuruyemi\u015f", "shop": "convenience"}}, {"type": "node", "id": 7050183444, "lat": 40.9487057, "lon": 29.1151635, "tags": {"addr:city": "\u00c7\u0131nar Mahallesi", "addr:district": "Maltepe", "addr:housenumber": "26/C", "addr:neighbourhood": "K\u00fc\u00e7\u00fckyal\u0131 \u00c7\u0131nar Mahallesi", "addr:postcode": "34841", "addr:street": "Atat\u00fcrk Caddesi", "name": "\u00d6ZG\u00dcR TEKEL", "opening_hours": "24/7", "operator": "TEKEL", "shop": "convenience"}}, {"type": "node", "id": 7153690132, "lat": 41.0238254, "lon": 29.0811875}, {"type": "node", "id": 7153690133, "lat": 41.0237277, "lon": 29.0812368}, {"type": "node", "id": 7153690134, "lat": 41.0237719, "lon": 29.0814032}, {"type": "node", "id": 7153690135, "lat": 41.0238905, "lon": 29.0813539}, {"type": "node", "id": 7522126841, "lat": 40.9775932, "lon": 29.0857711, "tags": {"addr:city": "istanbul", "addr:district": "kad\u0131k\u00f6y", "addr:street": "Bayar Caddesi", "name": "Mopa\u015f", "opening_hours": "Mo-Su 09:00-21:00", "opening_hours:covid19": "Mo-Su 08:30-21:30", "phone": "0216 369 59 57", "shop": "convenience"}}, {"type": "node", "id": 7541428110, "lat": 41.0054701, "lon": 29.2151534}, {"type": "node", "id": 7541428111, "lat": 41.0054463, "lon": 29.2157622}, {"type": "node", "id": 7541428112, "lat": 41.0052668, "lon": 29.2157515}, {"type": "node", "id": 7541428113, "lat": 41.0052908, "lon": 29.2151411}, {"type": "node", "id": 7557433805, "lat": 40.9046303, "lon": 29.247247}, {"type": "node", "id": 7557433806, "lat": 40.9044998, "lon": 29.2472402}, {"type": "node", "id": 7557433807, "lat": 40.9045031, "lon": 29.2471313}, {"type": "node", "id": 7557433808, "lat": 40.9046335, "lon": 29.2471381}, {"type": "node", "id": 7572983673, "lat": 40.9076403, "lon": 29.2367166, "tags": {"name": "\u0130kizler Tekel-Market", "opening_hours": "08:00-22:30", "opening_hours:covid19": "open", "payment:cash": "yes", "payment:credit_cards": "yes", "shop": "convenience"}}, {"type": "node", "id": 7573340064, "lat": 40.9549437, "lon": 29.0958734, "tags": {"name": "\u00c7a\u011fr\u0131 Market", "shop": "convenience"}}, {"type": "node", "id": 7574935254, "lat": 40.9339672, "lon": 29.1205861, "tags": {"name": "Hasan Bakkal", "shop": "convenience"}}, {"type": "node", "id": 7574984785, "lat": 40.9342484, "lon": 29.1262638, "tags": {"name": "Demirhan MArket", "shop": "convenience"}}, {"type": "node", "id": 7593577428, "lat": 41.0021728, "lon": 29.2140327, "tags": {"name": "Karadeniz G\u0131da", "shop": "convenience"}}, {"type": "node", "id": 7593675934, "lat": 41.0070921, "lon": 29.2117304, "tags": {"name": "Hakmar", "shop": "convenience"}}, {"type": "node", "id": 7593675954, "lat": 41.0075986, "lon": 29.2118243, "tags": {"brand": "Ekomini", "brand:wikidata": "Q115534014", "name": "Ekomini", "shop": "convenience"}}, {"type": "node", "id": 7593675956, "lat": 41.0079341, "lon": 29.2184493, "tags": {"name": "File", "shop": "convenience"}}, {"type": "node", "id": 7593728324, "lat": 41.0040377, "lon": 29.2141376, "tags": {"name": "Akmar Hipermarket", "shop": "convenience"}}, {"type": "node", "id": 7593728325, "lat": 41.0057761, "lon": 29.2116415, "tags": {"name": "Alparslan Market", "shop": "convenience"}}, {"type": "node", "id": 7740140546, "lat": 40.9699058, "lon": 29.0841035, "tags": {"name": "K\u00f6\u015fem Kuruyemi\u015f", "shop": "convenience"}}, {"type": "node", "id": 7740552153, "lat": 40.9555425, "lon": 29.1005604, "tags": {"name": "Deniz Tekel", "shop": "convenience"}}, {"type": "node", "id": 7740569193, "lat": 40.9771756, "lon": 29.0474204, "tags": {"name": "Migros", "shop": "convenience"}}, {"type": "node", "id": 7743072835, "lat": 40.9714553, "lon": 29.0975233, "tags": {"name": "Mini Market", "phone": "+90 216 362 24 87", "shop": "convenience"}}, {"type": "node", "id": 7743089425, "lat": 40.9791827, "lon": 29.0770939, "tags": {"name": "Ya\u011fmur G\u0131da & Tekel", "shop": "convenience"}}, {"type": "node", "id": 7743515422, "lat": 40.9861273, "lon": 29.0474256, "tags": {"name": "Tedi", "shop": "convenience"}}, {"type": "node", "id": 7789612609, "lat": 40.9889265, "lon": 29.0224124, "tags": {"name": "Emir G\u0131da", "shop": "convenience"}}, {"type": "node", "id": 7838940785, "lat": 40.9675321, "lon": 29.1101452, "tags": {"shop": "convenience"}}, {"type": "node", "id": 7942378564, "lat": 40.8264078, "lon": 29.3234059, "tags": {"shop": "convenience"}}, {"type": "node", "id": 7942378565, "lat": 40.8255556, "lon": 29.3209829, "tags": {"shop": "convenience"}}, {"type": "node", "id": 7959546514, "lat": 40.8306954, "lon": 29.3181702}, {"type": "node", "id": 7959546515, "lat": 40.8307308, "lon": 29.3182515}, {"type": "node", "id": 7959546516, "lat": 40.8306185, "lon": 29.3183653}, {"type": "node", "id": 7959546517, "lat": 40.830497, "lon": 29.3183409}, {"type": "node", "id": 7959546518, "lat": 40.8304955, "lon": 29.3180726}, {"type": "node", "id": 7959546519, "lat": 40.8305416, "lon": 29.3180726}, {"type": "node", "id": 7959546520, "lat": 40.8305432, "lon": 29.3182088}, {"type": "node", "id": 7959546521, "lat": 40.8306108, "lon": 29.3182535}, {"type": "node", "id": 7959546522, "lat": 40.8304017, "lon": 29.3181824}, {"type": "node", "id": 7959546523, "lat": 40.8304801, "lon": 29.3184365}, {"type": "node", "id": 7959546524, "lat": 40.8305801, "lon": 29.3184344}, {"type": "node", "id": 7959546525, "lat": 40.8305862, "lon": 29.3185259}, {"type": "node", "id": 7959546526, "lat": 40.8304863, "lon": 29.3186519}, {"type": "node", "id": 7959546527, "lat": 40.8304186, "lon": 29.3185971}, {"type": "node", "id": 7959546528, "lat": 40.8304617, "lon": 29.3184995}, {"type": "node", "id": 7959546529, "lat": 40.8303509, "lon": 29.3185239}, {"type": "node", "id": 7959546530, "lat": 40.8303217, "lon": 29.3181986}, {"type": "node", "id": 7959546531, "lat": 40.8305449, "lon": 29.3185292}, {"type": "node", "id": 8043934577, "lat": 40.9788981, "lon": 29.1068763, "tags": {"name": "Kervan Kuruyemi\u015f", "shop": "convenience"}}, {"type": "node", "id": 8043934578, "lat": 40.9797722, "lon": 29.1128711, "tags": {"name": "G\u00fcltekin Tekel & \u015eark\u00fcteri", "shop": "convenience"}}, {"type": "node", "id": 8043960801, "lat": 40.9803502, "lon": 29.1134935, "tags": {"name": "Merkez B\u00fcfe", "shop": "convenience"}}, {"type": "node", "id": 8043960808, "lat": 40.9798586, "lon": 29.1142121, "tags": {"name": "Kader Kuruyemi\u015f", "shop": "convenience"}}, {"type": "node", "id": 8104077817, "lat": 41.0056988, "lon": 28.9668355, "tags": {"addr:housenumber": "65 A D:1", "addr:postcode": "34126", "addr:street": "Gedikpa\u015fa Caddesi", "name": "sar\u0131can g\u0131da", "name:en": "Grocery shop", "name:ru": "\u041c\u0430\u0433\u0430\u0437\u0438\u043d, \u0433\u0434\u0435 \u0445\u043e\u0437\u044f\u0438\u043d \u0434\u0435\u043b\u0430\u0435\u0442 \u0441\u0430\u043c\u044b\u0439 \u0432\u043a\u0443\u0441\u043d\u044b\u0439 \u0441\u0432\u0435\u0436\u0435\u0432\u044b\u0436\u0430\u0442\u044b\u0439 \u0433\u0440\u0430\u043d\u0430\u0442\u043e\u0432\u044b\u0439 \u0441\u043e\u043a (2 \u043b\u0438\u0440\u044b)", "opening_hours": "24/7", "phone": "+90 537 318 64 57", "shop": "convenience"}}, {"type": "node", "id": 8194406358, "lat": 41.0169631, "lon": 29.0191098}, {"type": "node", "id": 8194406359, "lat": 41.0168275, "lon": 29.0190868}, {"type": "node", "id": 8194406360, "lat": 41.0168289, "lon": 29.0191302}, {"type": "node", "id": 8194406361, "lat": 41.016945, "lon": 29.0191806}, {"type": "node", "id": 8234631129, "lat": 40.935078, "lon": 29.1338269, "tags": {"brand": "Carrefour Express", "brand:wikidata": "Q2940190", "brand:wikipedia": "fr:Carrefour Express", "name": "Carrefour Express", "shop": "convenience"}}, {"type": "node", "id": 8237558417, "lat": 40.9740426, "lon": 29.0784927, "tags": {"name:en": "Street market", "shop": "convenience"}}, {"type": "node", "id": 8367079666, "lat": 41.0117523, "lon": 29.1067679, "tags": {"name": "\u00d6zmar Market", "shop": "convenience"}}, {"type": "node", "id": 8489123825, "lat": 40.9795508, "lon": 29.1149856, "tags": {"name": "Makbul", "opening_hours": "Mo-Su 09:30-21:30", "shop": "convenience"}}, {"type": "node", "id": 8510769966, "lat": 40.9717659, "lon": 29.1123093, "tags": {"name": "Mahsen 44", "shop": "convenience"}}, {"type": "node", "id": 8520265341, "lat": 40.9651261, "lon": 29.062965, "tags": {"name": "Cold Shop Caddebostan", "shop": "convenience"}}, {"type": "node", "id": 8520270236, "lat": 40.964175, "lon": 29.0649479, "tags": {"name": "Aniden Tekel", "shop": "convenience"}}, {"type": "node", "id": 8520557559, "lat": 40.8178694, "lon": 29.3021534, "tags": {"name": "Tuzla Tekel", "shop": "convenience"}}, {"type": "node", "id": 8521506316, "lat": 40.9865155, "lon": 29.0476194, "tags": {"name": "G\u00fclen Tekel", "shop": "convenience"}}, {"type": "node", "id": 8553618616, "lat": 41.0345275, "lon": 29.0543138}, {"type": "node", "id": 8581425255, "lat": 40.9791476, "lon": 29.1173903, "tags": {"name": "Ak\u00e7in G\u0131da Kuruyemi\u015f", "shop": "convenience"}}, {"type": "node", "id": 8637832307, "lat": 41.0133352, "lon": 29.1965769, "tags": {"name": "Tatbak", "shop": "convenience"}}, {"type": "node", "id": 8637838493, "lat": 41.0126117, "lon": 29.1967962}, {"type": "node", "id": 8637838494, "lat": 41.0126167, "lon": 29.1969823}, {"type": "node", "id": 8637838495, "lat": 41.0125991, "lon": 29.1970853}, {"type": "node", "id": 8637838496, "lat": 41.0122102, "lon": 29.196938}, {"type": "node", "id": 8637838497, "lat": 41.0122626, "lon": 29.1966604}, {"type": "node", "id": 8637849159, "lat": 41.0105695, "lon": 29.1949826}, {"type": "node", "id": 8637849160, "lat": 41.0103421, "lon": 29.1955509}, {"type": "node", "id": 8637849161, "lat": 41.0101887, "lon": 29.1954554}, {"type": "node", "id": 8637849162, "lat": 41.0104142, "lon": 29.1948723}, {"type": "node", "id": 8637856412, "lat": 41.0124224, "lon": 29.1961495, "tags": {"name": "\u00c7a\u011fr\u0131 Market", "shop": "convenience"}}, {"type": "node", "id": 8637857139, "lat": 41.0128978, "lon": 29.202074, "tags": {"shop": "convenience"}}, {"type": "node", "id": 8637858438, "lat": 41.0131052, "lon": 29.1967134, "tags": {"shop": "convenience"}}, {"type": "node", "id": 8637869367, "lat": 41.012597, "lon": 29.1995531, "tags": {"name": "Tatl\u0131bak", "opening_hours": "PH,Mo-Su 10:00-22:00", "shop": "convenience", "wheelchair": "yes"}}, {"type": "node", "id": 8637876801, "lat": 41.0130519, "lon": 29.2027719, "tags": {"shop": "convenience"}}, {"type": "node", "id": 8734084990, "lat": 41.0095028, "lon": 29.1929547, "tags": {"name": "Site Market", "phone": "+902163131484bb", "shop": "convenience"}}, {"type": "node", "id": 8742332801, "lat": 40.987652, "lon": 29.0442281, "tags": {"name": "Tekelika Tekel", "shop": "convenience"}}, {"type": "node", "id": 8742557702, "lat": 40.9509683, "lon": 29.1024752, "tags": {"name": "Tedi", "shop": "convenience"}}, {"type": "node", "id": 8746209802, "lat": 41.0250314, "lon": 29.101411, "tags": {"name": "Makbul", "shop": "convenience"}}, {"type": "node", "id": 8746256320, "lat": 40.9975181, "lon": 29.1398069, "tags": {"name": "Ak\u00e7in G\u0131da Kuruyemi\u015f", "shop": "convenience"}}, {"type": "node", "id": 8750415586, "lat": 40.9818546, "lon": 29.1127752, "tags": {"name": "RBK Ambalaj ve Temizlik \u00dcr\u00fcnleri", "shop": "convenience"}}, {"type": "node", "id": 8787325269, "lat": 41.012293, "lon": 29.188707, "tags": {"addr:city": "\u0130stanbul", "addr:district": "\u00dcmraniye", "addr:housenumber": "2", "addr:neighbourhood": "Madenler Mah.", "addr:street": "\u015eehit \u00dcnal Kalafat Caddesi", "name": "Nar \u015eark\u00fcteri", "shop": "convenience"}}, {"type": "node", "id": 8871767965, "lat": 40.9785972, "lon": 29.1196919, "tags": {"name": "Karde\u015fler Tekel", "shop": "convenience"}}, {"type": "node", "id": 8872600365, "lat": 40.9736216, "lon": 29.0488186, "tags": {"name": "Ef&Em Tekel", "phone": "+90 216 515 41 81", "shop": "convenience"}}, {"type": "node", "id": 8904362123, "lat": 40.9776462, "lon": 29.047632, "tags": {"addr:housenumber": "57/1", "addr:street": "Gazi Muhtarpa\u015fa Soka\u011f\u0131", "name": "Feneryolu Sabit Pazar", "shop": "convenience"}}, {"type": "node", "id": 8936425031, "lat": 40.9026882, "lon": 29.2331064, "tags": {"name": "Bakkal", "shop": "convenience"}}, {"type": "node", "id": 8936703565, "lat": 40.9046582, "lon": 29.2264844, "tags": {"addr:city": "\u0130stanbul", "addr:district": "Kartal", "addr:neighbourhood": "Cumhuriyet Mahallesi", "addr:street": "Adnan Kahveci Caddesi", "name": "Happy Center Adnan Kahveci", "opening_hours": "13:00-21:30", "operator": "Happy Center", "payment:cash": "yes", "payment:credit_cards": "yes", "phone": "0216 309 95 10", "shop": "convenience", "website": "https://www.happycenter.com.tr"}}, {"type": "node", "id": 8936707386, "lat": 40.9043708, "lon": 29.2264844, "tags": {"addr:city": "\u0130stanbul", "addr:district": "Kartal", "addr:housenumber": "84/A", "addr:neighbourhood": "Cumhuriyet Mahallesi", "addr:postcode": "34876", "addr:street": "Adnan Kahveci Caddesi", "name": "Hakmar Express", "operator": "Hakmar", "phone": "(0216) 561 96 66", "shop": "convenience"}}, {"type": "node", "id": 8936763750, "lat": 40.903835, "lon": 29.2322855, "tags": {"name": "Mila Market", "shop": "convenience"}}, {"type": "node", "id": 8956729926, "lat": 40.9702988, "lon": 29.084472, "tags": {"addr:postcode": "34736", "addr:street": "\u015eemsettin G\u00fcnaltay Caddesi", "name": "Mez Efes Tekel Shop", "phone": "+90 545 7904434", "shop": "convenience"}}, {"type": "node", "id": 8956743007, "lat": 40.9726221, "lon": 29.0917471, "tags": {"name": "\u015eirin Tekel Shop", "shop": "convenience"}}, {"type": "node", "id": 8963264485, "lat": 40.9083992, "lon": 29.2335164, "tags": {"addr:city": "\u0130stanbul", "addr:district": "Kartal", "addr:housenumber": "18", "addr:neighbourhood": "H\u00fcrriyet Mahallesi", "addr:postcode": "34876", "addr:street": "M\u00fclkiye Sokak", "name": "Planet Market", "opening_hours": "08:00-21:00", "payment:cash": "yes", "payment:credit_cards": "yes", "phone": "+90 537 618 13 22", "shop": "convenience"}}, {"type": "node", "id": 8969268307, "lat": 40.9055082, "lon": 29.2341763, "tags": {"shop": "convenience"}}, {"type": "node", "id": 9022910614, "lat": 40.9051561, "lon": 29.2320742, "tags": {"name": "Ayd\u0131nlar G\u0131da 2", "shop": "convenience"}}, {"type": "node", "id": 9022910615, "lat": 40.9060332, "lon": 29.2334039, "tags": {"shop": "convenience"}}, {"type": "node", "id": 9022912920, "lat": 40.9048775, "lon": 29.2310112, "tags": {"shop": "convenience"}}, {"type": "node", "id": 9066640517, "lat": 40.9833872, "lon": 29.0261134, "tags": {"branch": "Mini", "brand": "Carrefour", "brand:wikidata": "Q217599", "name": "Carrefour", "shop": "convenience"}}, {"type": "node", "id": 9066677818, "lat": 40.988238, "lon": 29.0266126, "tags": {"addr:postcode": "34710", "branch": "Mini", "brand": "Carrefour", "brand:wikidata": "Q217599", "name": "Carrefour", "shop": "convenience"}}, {"type": "node", "id": 9067244517, "lat": 40.9751654, "lon": 29.0464938, "tags": {"name:en": "Can Market", "shop": "convenience"}}, {"type": "node", "id": 9108111292, "lat": 40.9895014, "lon": 29.0237859, "tags": {"name": "Tu\u011fba Kuruyemi\u015f", "shop": "convenience"}}, {"type": "node", "id": 9108186385, "lat": 40.9826071, "lon": 29.065363, "tags": {"name": "Acar Tur\u015fular\u0131", "shop": "convenience"}}, {"type": "node", "id": 9117319851, "lat": 40.9846775, "lon": 29.116666, "tags": {"shop": "convenience"}}, {"type": "node", "id": 9117489056, "lat": 40.9806358, "lon": 29.1271748, "tags": {"name": "Aktepe G\u0131da", "shop": "convenience"}}, {"type": "node", "id": 9122244857, "lat": 40.9030104, "lon": 29.2322002, "tags": {"addr:housenumber": "51B", "name": "Boztepe Market", "opening_hours": "07:30\u201322:00", "shop": "convenience"}}, {"type": "node", "id": 9127360629, "lat": 40.9685188, "lon": 29.0656417, "tags": {"name": "\u00c7\u0131nar Kuruyemi\u015f", "shop": "convenience"}}, {"type": "node", "id": 9139890343, "lat": 40.977896, "lon": 29.1237266, "tags": {"name": "Karako\u00e7 Tekel", "shop": "convenience"}}, {"type": "node", "id": 9139890350, "lat": 40.9796188, "lon": 29.1177185, "tags": {"name": "Yurtseven Tekel", "shop": "convenience"}}, {"type": "node", "id": 9139890364, "lat": 40.9805493, "lon": 29.1127221, "tags": {"name": "\u0130stanbul City Kuruyemi\u015f", "shop": "convenience"}}, {"type": "node", "id": 9139890391, "lat": 40.9806529, "lon": 29.1127946, "tags": {"name": "\u0130stanbul City Kuruyemi\u015f", "shop": "convenience"}}, {"type": "node", "id": 9143898121, "lat": 41.0250054, "lon": 29.1013307, "tags": {"name": "Y\u00fcksel Market & Tekel", "shop": "convenience"}}, {"type": "node", "id": 9149459895, "lat": 40.9825788, "lon": 29.0654173, "tags": {"name": "Berde Tekel", "shop": "convenience"}}, {"type": "node", "id": 9180302435, "lat": 40.972453, "lon": 29.1132184, "tags": {"name": "Ceren Tekel", "shop": "convenience"}}, {"type": "node", "id": 9180333174, "lat": 40.9843349, "lon": 29.0557202, "tags": {"name": "Sa\u011fd\u0131\u00e7 Tekel", "shop": "convenience"}}, {"type": "node", "id": 9235337317, "lat": 41.040094, "lon": 28.9830663, "tags": {"name": "Sok", "shop": "convenience"}}, {"type": "node", "id": 9255253952, "lat": 41.0433086, "lon": 29.0063057, "tags": {"name": "\u00c7ar\u015f\u0131 Tobacco", "shop": "convenience"}}, {"type": "node", "id": 9255284292, "lat": 41.0433989, "lon": 29.0059043, "tags": {"name": "\u00c7ar\u015f\u0131 Kuruyemi\u015f", "shop": "convenience"}}, {"type": "node", "id": 9255336418, "lat": 41.0430788, "lon": 29.0063651, "tags": {"name": "U\u011furlu Kuruyemi\u015f", "shop": "convenience"}}, {"type": "node", "id": 9255566040, "lat": 40.9800977, "lon": 29.0751112, "tags": {"name": "Filiz-3 Tekel", "shop": "convenience"}}, {"type": "node", "id": 9255572495, "lat": 40.9821626, "lon": 29.066805, "tags": {"name": "Atl\u0131han Kuruyemi\u015f\u00e7i", "shop": "convenience"}}, {"type": "node", "id": 9280389017, "lat": 40.9881742, "lon": 29.0317123, "tags": {"brand": "Carrefour Express", "brand:wikidata": "Q2940190", "name": "Carrefour Express", "shop": "convenience"}}, {"type": "node", "id": 9286065017, "lat": 40.9943063, "lon": 29.0297429, "tags": {"name": "Adem", "shop": "convenience"}}, {"type": "node", "id": 9288130634, "lat": 40.9796454, "lon": 29.0856843, "tags": {"name": "Elit Market", "shop": "convenience"}}, {"type": "node", "id": 9360342805, "lat": 41.0205138, "lon": 29.1217195, "tags": {"name": "Se\u00e7-Al", "shop": "convenience"}}, {"type": "node", "id": 9375784918, "lat": 40.9841375, "lon": 29.0265979, "tags": {"name": "Evce", "shop": "convenience"}}, {"type": "node", "id": 9393809464, "lat": 40.9843006, "lon": 29.1088006, "tags": {"name": "Selin Mini Market", "shop": "convenience"}}, {"type": "node", "id": 9446739062, "lat": 40.9694636, "lon": 29.1360747, "tags": {"name": "O\u011fuzhan Market", "shop": "convenience"}}, {"type": "node", "id": 9460429930, "lat": 40.9169542, "lon": 29.1758916, "tags": {"name": "Migros Jet", "shop": "convenience"}}, {"type": "node", "id": 9484006279, "lat": 40.8792313, "lon": 29.2328004, "tags": {"name": "Palmiye Kuruyemi\u015f", "shop": "convenience"}}, {"type": "node", "id": 9498366072, "lat": 41.05012, "lon": 28.978449, "tags": {"name": "Taylan Mini Market", "shop": "convenience"}}, {"type": "node", "id": 9510307317, "lat": 40.9843625, "lon": 29.0233437, "tags": {"name": "Umut \u015eark\u00fcteri", "shop": "convenience"}}, {"type": "node", "id": 9518425560, "lat": 40.9478993, "lon": 29.1064478, "tags": {"name": "Migros Jet", "operator": "Migros", "shop": "convenience"}}, {"type": "node", "id": 9555659761, "lat": 41.0040258, "lon": 29.0816902, "tags": {"name": "Maksul", "shop": "convenience"}}, {"type": "node", "id": 9623566917, "lat": 40.9848833, "lon": 29.0254987, "tags": {"addr:housenumber": "14-16", "addr:street": "Bademalt\u0131 Soka\u011f\u0131", "branch": "Mini", "brand": "Carrefour", "brand:wikidata": "Q217599", "name": "Carrefour", "shop": "convenience"}}, {"type": "node", "id": 9636408260, "lat": 40.9701913, "lon": 29.080567, "tags": {"name": "Din\u00e7el Tekel \u015eark\u00fcteri", "shop": "convenience"}}, {"type": "node", "id": 9647835496, "lat": 41.0010542, "lon": 29.1338109, "tags": {"name": "\u00c7etin Market Manav & \u015eark\u00fcteri", "shop": "convenience"}}, {"type": "node", "id": 9663226309, "lat": 40.9699347, "lon": 29.0895272, "tags": {"name": "Miray Tekel", "shop": "convenience"}}, {"type": "node", "id": 9674126322, "lat": 40.8877822, "lon": 29.2693893, "tags": {"name": "Hilal", "shop": "convenience"}}, {"type": "node", "id": 9685638612, "lat": 40.9813309, "lon": 29.1115845, "tags": {"name": "Ata\u015fehir Tekel", "shop": "convenience"}}, {"type": "node", "id": 9685661600, "lat": 40.9818979, "lon": 29.112817, "tags": {"name": "Bakkal", "shop": "convenience"}}, {"type": "node", "id": 9687948570, "lat": 40.9803252, "lon": 29.1096857, "tags": {"name": "O\u011fuz G\u0131da", "shop": "convenience"}}, {"type": "node", "id": 9691779617, "lat": 40.9842894, "lon": 29.0260267, "tags": {"name": "Yufkaci", "shop": "convenience"}}, {"type": "node", "id": 9693172869, "lat": 40.9837329, "lon": 29.0509977, "tags": {"shop": "convenience"}}, {"type": "node", "id": 9697376017, "lat": 40.9935711, "lon": 29.0303616, "tags": {"name": "B\u0130M", "shop": "convenience"}}, {"type": "node", "id": 9732319917, "lat": 40.9803158, "lon": 29.0233141, "tags": {"addr:housenumber": "3C", "addr:postcode": "34710", "addr:street": "Nene Hatun Soka\u011f\u0131", "name": "Ozturk", "shop": "convenience"}}, {"type": "node", "id": 9732323717, "lat": 40.9804111, "lon": 29.0232628, "tags": {"addr:housenumber": "4B", "addr:postcode": "34710", "branch": "mini", "brand": "Carrefour", "brand:wikidata": "Q217599", "name": "Carrefour", "shop": "convenience"}}, {"type": "node", "id": 9768173039, "lat": 40.9364264, "lon": 29.1576622, "tags": {"name": "Ayd\u0131n Market", "shop": "convenience"}}, {"type": "node", "id": 9785345643, "lat": 40.8745604, "lon": 29.1283275, "tags": {"shop": "convenience"}}, {"type": "node", "id": 9833781317, "lat": 41.0167468, "lon": 28.9706183, "tags": {"name": "Kahvalt\u0131 D\u00fcnyas\u0131", "shop": "convenience"}}, {"type": "node", "id": 9848191727, "lat": 41.0296088, "lon": 28.9820134, "tags": {"name": "Aberna G\u0131da - 1", "shop": "convenience"}}, {"type": "node", "id": 9850134378, "lat": 41.0312662, "lon": 28.9839655, "tags": {"name": "Mini market", "shop": "convenience"}}, {"type": "node", "id": 9868455117, "lat": 40.8236912, "lon": 29.3177752, "tags": {"name": "Migros jet", "name:ru": "\u041c\u0438\u0433\u0440\u043e\u0441 \u0434\u0436\u0435\u0442", "shop": "convenience"}}, {"type": "node", "id": 9869800017, "lat": 40.988737, "lon": 29.0223071, "tags": {"name": "\u015fok", "shop": "convenience"}}, {"type": "node", "id": 9902429719, "lat": 40.8198105, "lon": 29.2747079, "tags": {"name:en": "Sail", "shop": "convenience"}}, {"type": "node", "id": 9902430019, "lat": 40.8164524, "lon": 29.2900009, "tags": {"name:en": "Carrefour SA", "shop": "convenience"}}, {"type": "node", "id": 9906485550, "lat": 40.9598464, "lon": 29.1562986, "tags": {"shop": "convenience"}}, {"type": "node", "id": 9908158895, "lat": 40.9501403, "lon": 29.1328799, "tags": {"name": "Bakkal", "shop": "convenience"}}, {"type": "node", "id": 9911098972, "lat": 41.0333575, "lon": 28.9874976, "tags": {"name": "G\u00fcven Su", "shop": "convenience"}}, {"type": "node", "id": 9911103563, "lat": 41.0331542, "lon": 28.9876786, "tags": {"name": "Ozan Mini Market", "shop": "convenience"}}, {"type": "node", "id": 9935850998, "lat": 40.9921631, "lon": 29.2337347, "tags": {"name": "Memo Market", "shop": "convenience"}}, {"type": "node", "id": 9935860023, "lat": 40.9921902, "lon": 29.2342334, "tags": {"name": "Market", "shop": "convenience"}}, {"type": "node", "id": 9937499521, "lat": 40.9218716, "lon": 29.1284577, "tags": {"name": "Akta\u015f 2 Mini Market", "shop": "convenience"}}, {"type": "node", "id": 9937499532, "lat": 40.9218672, "lon": 29.1280098, "tags": {"name": "P\u0131nar B\u00fcfe & Tekel", "shop": "convenience"}}, {"type": "node", "id": 9950496828, "lat": 41.016023, "lon": 28.976143, "tags": {"addr:postcode": "34112", "level": "0", "name": "Migros jet", "opening_hours": "Mo-Su 08:30-21:30", "shop": "convenience"}}, {"type": "node", "id": 9950496921, "lat": 41.0161057, "lon": 28.9712915, "tags": {"name": "Cankurtaran Qida", "name:tr": "Cankurtaran Gida", "shop": "convenience"}}, {"type": "node", "id": 9969509518, "lat": 41.0378343, "lon": 28.9825218, "tags": {"check_date": "2022-08-22", "name": "Alkan Center", "shop": "convenience"}}, {"type": "node", "id": 9971236908, "lat": 40.9894715, "lon": 29.0423414}, {"type": "node", "id": 9971236909, "lat": 40.9896153, "lon": 29.0422587}, {"type": "node", "id": 9975406081, "lat": 41.0380466, "lon": 28.9838528, "tags": {"check_date": "2022-08-24", "shop": "convenience"}}, {"type": "node", "id": 9983876837, "lat": 40.8768485, "lon": 29.1006359, "tags": {"name": "Can Market", "shop": "convenience"}}, {"type": "node", "id": 9983964790, "lat": 40.8783283, "lon": 29.0998466, "tags": {"name": "Koray Gida", "shop": "convenience"}}, {"type": "node", "id": 9988340417, "lat": 40.9807379, "lon": 29.0230236, "tags": {"addr:housenumber": "5A", "addr:street": "L\u00fctf\u00fcbey Soka\u011f\u0131", "name": "BIM", "shop": "convenience"}}, {"type": "node", "id": 9990130117, "lat": 40.9721105, "lon": 29.1360447, "tags": {"name": "Do\u011fan G\u0131da", "shop": "convenience"}}, {"type": "node", "id": 9990534067, "lat": 40.8775305, "lon": 29.1000161, "tags": {"shop": "convenience"}}, {"type": "node", "id": 9995031608, "lat": 40.8771619, "lon": 29.1002743, "tags": {"brand": "Carrefour", "brand:wikidata": "Q217599", "name": "Carrefour", "shop": "convenience"}}, {"type": "node", "id": 9995031616, "lat": 40.8770758, "lon": 29.1004513, "tags": {"name": "G\u00fclada Market", "shop": "convenience"}}, {"type": "node", "id": 9999612217, "lat": 40.9290559, "lon": 29.1403933, "tags": {"name": "\u015eok", "shop": "convenience"}}, {"type": "node", "id": 9999940719, "lat": 40.927634, "lon": 29.1293133, "tags": {"name": "\u015eok", "shop": "convenience"}}, {"type": "node", "id": 9999961017, "lat": 40.9277537, "lon": 29.1307457, "tags": {"name": "\u015eok", "shop": "convenience"}}, {"type": "node", "id": 10001278818, "lat": 41.0044875, "lon": 29.0782041, "tags": {"name": "Adimar Market", "shop": "convenience"}}, {"type": "node", "id": 10002673219, "lat": 40.9260054, "lon": 29.1369369, "tags": {"shop": "convenience"}}, {"type": "node", "id": 10002688417, "lat": 40.9286064, "lon": 29.1412256, "tags": {"name": "Mestay", "shop": "convenience"}}, {"type": "node", "id": 10002688419, "lat": 40.9255998, "lon": 29.1368248, "tags": {"name": "Bim", "shop": "convenience"}}, {"type": "node", "id": 10002688617, "lat": 40.9265619, "lon": 29.1379876, "tags": {"shop": "convenience"}}, {"type": "node", "id": 10002688619, "lat": 40.9249801, "lon": 29.1356157, "tags": {"shop": "convenience"}}, {"type": "node", "id": 10002690517, "lat": 40.9256161, "lon": 29.1361491, "tags": {"shop": "convenience"}}, {"type": "node", "id": 10002690617, "lat": 40.9249333, "lon": 29.1350834, "tags": {"name": "Kooperatif", "shop": "convenience"}}, {"type": "node", "id": 10002691517, "lat": 40.9222399, "lon": 29.132243, "tags": {"shop": "convenience"}}, {"type": "node", "id": 10002742217, "lat": 40.9242271, "lon": 29.1295706, "tags": {"name": "Migros Jet Mini", "shop": "convenience"}}, {"type": "node", "id": 10004314117, "lat": 40.9287793, "lon": 29.1418512, "tags": {"shop": "convenience"}}, {"type": "node", "id": 10004314217, "lat": 40.9288262, "lon": 29.1415677, "tags": {"shop": "convenience"}}, {"type": "node", "id": 10004339017, "lat": 40.9267922, "lon": 29.1384566, "tags": {"shop": "convenience"}}, {"type": "node", "id": 10004360317, "lat": 40.9226054, "lon": 29.1314688, "tags": {"name": "Bim", "shop": "convenience"}}, {"type": "node", "id": 10004705517, "lat": 40.9290715, "lon": 29.1424332, "tags": {"name": "Hakmar Express", "shop": "convenience"}}, {"type": "node", "id": 10017870077, "lat": 40.9776481, "lon": 29.0932965, "tags": {"name": "Alp G\u0131da", "shop": "convenience"}}, {"type": "node", "id": 10018737219, "lat": 41.003895, "lon": 29.0783416, "tags": {"shop": "convenience"}}, {"type": "node", "id": 10025847119, "lat": 41.0337481, "lon": 28.984177, "tags": {"check_date": "2022-09-01", "name": "\u015eok", "shop": "convenience"}}, {"type": "node", "id": 10050858867, "lat": 40.9755681, "lon": 29.1219526, "tags": {"addr:city": "\u0130stanbul", "addr:district": "Ata\u015fehir", "addr:housenumber": "69", "addr:neighbourhood": "\u0130\u00e7erenk\u00f6y Mahallesi", "addr:postcode": "34752", "addr:street": "Prof. Dr. Necmettin Erbakan Caddesi", "name": "Berk \u00c7iftlik", "opening_hours": "08:30-20:00", "phone": "+90 216 577 77 48", "shop": "convenience", "website": "http://www.berksut.com.tr/"}}, {"type": "node", "id": 10132744943, "lat": 41.0235526, "lon": 29.1106193, "tags": {"name": "Limon \u015eark\u00fcteri Market", "shop": "convenience"}}, {"type": "node", "id": 10135207009, "lat": 40.9681018, "lon": 29.0688405, "tags": {"name": "Bar\u0131\u015f Market - 4", "shop": "convenience"}}, {"type": "node", "id": 10137395417, "lat": 40.8910417, "lon": 29.1996395, "tags": {"name": "Bim", "shop": "convenience"}}, {"type": "node", "id": 10137395418, "lat": 40.8911556, "lon": 29.1925279, "tags": {"name": "Bim", "shop": "convenience"}}, {"type": "node", "id": 10137395419, "lat": 40.8912216, "lon": 29.1926126, "tags": {"name": "Mopas", "shop": "convenience"}}, {"type": "node", "id": 10137395517, "lat": 40.8912115, "lon": 29.1925776, "tags": {"name": "Mopas", "shop": "convenience"}}, {"type": "node", "id": 10148197817, "lat": 40.8961212, "lon": 29.1994703, "tags": {"name": "Migros", "shop": "convenience"}}, {"type": "node", "id": 10159956556, "lat": 41.0265081, "lon": 29.242653, "tags": {"name": "Opet Ultramarket", "shop": "convenience"}}, {"type": "node", "id": 10159956596, "lat": 41.0269522, "lon": 29.2384963, "tags": {"name": "Arena Tekel & \u015eark\u00fcteri", "shop": "convenience"}}, {"type": "node", "id": 10159956599, "lat": 41.0269148, "lon": 29.2380993, "tags": {"name": "Market", "shop": "convenience"}}, {"type": "node", "id": 10159956600, "lat": 41.0269027, "lon": 29.2379893, "tags": {"name": "Tulump\u0131nar Market", "shop": "convenience"}}, {"type": "node", "id": 10159956608, "lat": 41.0267418, "lon": 29.2339003, "tags": {"name": "Karde\u015fler Tekel & \u0130ddaa Bayii", "shop": "convenience"}}, {"type": "node", "id": 10168272598, "lat": 40.8716442, "lon": 29.3271806, "tags": {"name": "Tatbak", "operator": "Tatbak", "shop": "convenience"}}, {"type": "node", "id": 10172392130, "lat": 40.9680077, "lon": 29.0746718, "tags": {"addr:city": "\u0130stanbul", "addr:district": "Kad\u0131k\u00f6y", "addr:housenumber": "20", "addr:neighbourhood": "Erenk\u00f6y Mahallesi", "addr:postcode": "34738", "addr:street": "Ka\u015faneler Soka\u011f\u0131", "name": "Anne \u015eark\u00fcteri", "phone": "+90 216 350 6917", "shop": "convenience"}}, {"type": "node", "id": 10172634831, "lat": 40.9294049, "lon": 29.3251584, "tags": {"name": "Sar\u0131\u00e7ay\u0131r Market", "shop": "convenience"}}, {"type": "node", "id": 10172634832, "lat": 40.9294384, "lon": 29.3252805, "tags": {"name": "Veral Market", "shop": "convenience"}}, {"type": "node", "id": 10178410588, "lat": 41.024178, "lon": 28.9775545, "tags": {"branch": "Mini", "brand": "Carrefour", "brand:wikidata": "Q217599", "check_date": "2022-11-12", "name": "Carrefour", "shop": "convenience"}}, {"type": "node", "id": 10178410615, "lat": 41.0048207, "lon": 28.9671736, "tags": {"check_date": "2022-11-12", "name": "\u00d6zg\u00fcr G\u0131da 5", "shop": "convenience"}}, {"type": "node", "id": 10178438638, "lat": 41.0044533, "lon": 28.9659663, "tags": {"check_date": "2022-11-12", "name": "Onur Mini Market", "shop": "convenience"}}, {"type": "node", "id": 10178438643, "lat": 41.0063801, "lon": 28.9707279, "tags": {"addr:housenumber": "4A", "addr:street": "Katip Sinan Soka\u011f\u0131", "check_date": "2022-11-12", "name": "Haseki Sultan Mini Market", "shop": "convenience"}}, {"type": "node", "id": 10178438644, "lat": 41.0053261, "lon": 28.9785034, "tags": {"check_date": "2022-11-12", "name": "Hano\u011flu Market", "shop": "convenience"}}, {"type": "node", "id": 10178438662, "lat": 41.0048269, "lon": 28.9672887, "tags": {"check_date": "2022-11-12", "name": "Furkan Kuruyemi\u015f", "shop": "convenience"}}, {"type": "node", "id": 10202740867, "lat": 40.9594694, "lon": 29.0842134, "tags": {"addr:city": "\u0130stanbul", "addr:district": "Kad\u0131k\u00f6y", "addr:housenumber": "3", "addr:neighbourhood": "Suadiye Mahallesi", "addr:postcode": "34740", "addr:street": "\u00d6nc\u00fc Soka\u011f\u0131", "name": "Asya Pazar\u0131 Suadiye", "shop": "convenience", "website": "https://www.asyapazari.com/magazalarimiz"}}, {"type": "node", "id": 10209390125, "lat": 41.024418, "lon": 29.0159922, "tags": {"name": "Marmara Kuruyemi\u015f", "shop": "convenience"}}, {"type": "node", "id": 10230521267, "lat": 40.9487874, "lon": 29.1161645, "tags": {"name": "A101", "shop": "convenience"}}, {"type": "node", "id": 10230521268, "lat": 40.9476619, "lon": 29.1141653, "tags": {"name": "B\u0130M", "shop": "convenience"}}, {"type": "node", "id": 10230521269, "lat": 40.9487634, "lon": 29.1148244, "tags": {"name": "A101", "shop": "convenience"}}, {"type": "node", "id": 10230891395, "lat": 40.830705, "lon": 29.3232278}, {"type": "node", "id": 10230891396, "lat": 40.8307423, "lon": 29.3232802}, {"type": "node", "id": 10230891397, "lat": 40.8307144, "lon": 29.3233172}, {"type": "node", "id": 10230891398, "lat": 40.8306747, "lon": 29.3232617}, {"type": "node", "id": 10261249131, "lat": 40.9671025, "lon": 29.0734447, "tags": {"addr:city": "\u0130stanbul", "addr:district": "Kad\u0131k\u00f6y", "addr:housenumber": "11", "addr:neighbourhood": "Erenk\u00f6y Mahallesi", "addr:postcode": "34738", "addr:street": "Nurettin Ali Berkol Soka\u011f\u0131", "name": "Okancan Nat\u00fcrel Gida", "shop": "convenience"}}, {"type": "node", "id": 10287472909, "lat": 40.9655992, "lon": 29.0730476, "tags": {"addr:housenumber": "6", "addr:street": "Kantarc\u0131 R\u0131za Soka\u011f\u0131", "name": "\u00dcmit G\u0131da", "phone": "+90 216 357 5110", "shop": "convenience"}}, {"type": "node", "id": 10300105609, "lat": 40.973334, "lon": 29.0411365, "tags": {"addr:street": "Fener Kalam\u0131\u015f Caddesi", "name": "Alem Tekel", "shop": "convenience"}}, {"type": "node", "id": 10310535963, "lat": 40.9715304, "lon": 29.0815989, "tags": {"addr:city": "\u0130stanbul", "addr:district": "Kad\u0131k\u00f6y", "addr:neighbourhood": "Erenk\u00f6y Mahallesi", "addr:postcode": "34738", "name": "Akyasanlar Market", "phone": "+90 216 4785079", "shop": "convenience"}}, {"type": "node", "id": 10589869516, "lat": 41.0388348, "lon": 28.9853807, "tags": {"name": "Lamartin B\u00fcfe & Tekel", "shop": "convenience"}}, {"type": "node", "id": 10605310850, "lat": 40.8226624, "lon": 29.4180064, "tags": {"name": "Karde\u015fler Kuruyemi\u015f", "shop": "convenience"}}, {"type": "node", "id": 10607967305, "lat": 40.9811994, "lon": 29.0500528, "tags": {"name": "Bar\u0131\u015f Market", "shop": "convenience"}}, {"type": "node", "id": 10648715126, "lat": 41.0437643, "lon": 29.0086234, "tags": {"name": "Meydan Market", "shop": "convenience"}}, {"type": "node", "id": 10693444005, "lat": 40.8902951, "lon": 29.1903872, "tags": {"name": "Makbul", "shop": "convenience"}}, {"type": "node", "id": 10694947200, "lat": 40.8203526, "lon": 29.4197616, "tags": {"name": "Se\u00e7 Market", "shop": "convenience"}}, {"type": "node", "id": 10718549163, "lat": 40.9924781, "lon": 29.1226081, "tags": {"name": "Kent Tekel", "shop": "convenience"}}, {"type": "node", "id": 10718549165, "lat": 40.992657, "lon": 29.1233432, "tags": {"name": "Yirmid\u00f6rt Tekel", "shop": "convenience"}}, {"type": "node", "id": 10721501085, "lat": 40.9927014, "lon": 29.0293082, "tags": {"name": "Efe G\u0131da & Kuruyemi\u015f", "shop": "convenience"}}, {"type": "node", "id": 10760353631, "lat": 40.8237644, "lon": 29.432648}, {"type": "node", "id": 10760353632, "lat": 40.8237774, "lon": 29.4326632}, {"type": "node", "id": 10760353633, "lat": 40.8237805, "lon": 29.4326978}, {"type": "node", "id": 10760353634, "lat": 40.8236851, "lon": 29.4327435}, {"type": "node", "id": 10760353635, "lat": 40.8236563, "lon": 29.4327725}, {"type": "node", "id": 10760353636, "lat": 40.8236444, "lon": 29.4327649}, {"type": "node", "id": 10760353637, "lat": 40.8236401, "lon": 29.4326775}, {"type": "node", "id": 10760353638, "lat": 40.8236571, "lon": 29.4326526}, {"type": "node", "id": 10772997305, "lat": 40.9721507, "lon": 29.0468481, "tags": {"addr:street": "Fuat Pa\u015fa Caddesi", "name": "Sembol Tekel", "shop": "convenience"}}, {"type": "node", "id": 10773111805, "lat": 40.9689069, "lon": 29.0843028, "tags": {"addr:street": "Tevfik Bey Soka\u011f\u0131", "name": "Balseven 24 G\u0131da Tekel", "shop": "convenience"}}, {"type": "node", "id": 10773133005, "lat": 40.9745376, "lon": 29.0959673, "tags": {"name": "Canbay G\u0131da Tekel \u015eark\u00fcteri", "shop": "convenience"}}, {"type": "node", "id": 10777273538, "lat": 40.9606924, "lon": 29.0846608, "tags": {"name": "Torlak Shop", "phone": "+90 535 442 3877", "shop": "convenience"}}, {"type": "node", "id": 10782652422, "lat": 40.8141773, "lon": 29.43168, "tags": {"shop": "convenience"}}, {"type": "node", "id": 10822650424, "lat": 40.8247432, "lon": 29.4137179}, {"type": "node", "id": 10822650425, "lat": 40.8247718, "lon": 29.4138119}, {"type": "node", "id": 10822650426, "lat": 40.8249548, "lon": 29.4137148}, {"type": "node", "id": 10822650427, "lat": 40.8249303, "lon": 29.4136342}, {"type": "node", "id": 10822650428, "lat": 40.8248535, "lon": 29.4136749}, {"type": "node", "id": 10822650429, "lat": 40.8248494, "lon": 29.4136616}, {"type": "node", "id": 10822999465, "lat": 40.8135262, "lon": 29.4316294, "tags": {"shop": "convenience"}}, {"type": "node", "id": 10824334120, "lat": 40.8113325, "lon": 29.4218435}, {"type": "node", "id": 10824334121, "lat": 40.8112844, "lon": 29.4219657}, {"type": "node", "id": 10824334122, "lat": 40.8111394, "lon": 29.4219565}, {"type": "node", "id": 10824334123, "lat": 40.8112624, "lon": 29.4217939}, {"type": "node", "id": 10824334124, "lat": 40.8113448, "lon": 29.4216475}, {"type": "node", "id": 10824334125, "lat": 40.8113932, "lon": 29.4216801}, {"type": "node", "id": 10824334126, "lat": 40.8112563, "lon": 29.4220399}, {"type": "node", "id": 10830462534, "lat": 40.7990814, "lon": 29.4022775, "tags": {"name": "Cengiz Market", "shop": "convenience"}}, {"type": "way", "id": 237302185, "nodes": [2452245652, 2452245651, 2452245655, 2452245659, 2452245652], "tags": {"brand": "Carrefour Express", "brand:wikidata": "Q2940190", "brand:wikipedia": "fr:Carrefour Express", "building": "yes", "name": "Carrefour Express", "operator": "Groupe Carrefour", "operator:wikidata": "Q3117359", "operator:wikipedia": "fr:Groupe Carrefour", "shop": "convenience"}}, {"type": "way", "id": 274689760, "nodes": [2793705399, 2793708684, 2793708685, 2793705404, 2793705399], "tags": {"brand": "\u041b\u0443\u043a\u043e\u0439\u043b", "brand:en": "Lukoil", "brand:ru": "\u041b\u0443\u043a\u043e\u0439\u043b", "brand:wikidata": "Q329347", "building": "yes", "name": "\u041b\u0443\u043a\u043e\u0439\u043b", "name:en": "Lukoil", "name:ru": "\u041b\u0443\u043a\u043e\u0439\u043b", "name:tr": "GO", "opening_hours": "24/7", "operator": "GO - \u0130pragaz", "shop": "convenience"}}, {"type": "way", "id": 275353704, "nodes": [2799946663, 6347452827, 6347452826, 6347452825, 6347452824, 6347452823, 2799946666, 2799946665, 2799946660, 2799946663], "tags": {"brand": "Carrefour Express", "brand:wikidata": "Q2940190", "brand:wikipedia": "fr:Carrefour Express", "building": "yes", "name": "Carrefour Express", "opening_hours": "10:00-22:30", "operator": "Groupe Carrefour", "operator:wikidata": "Q3117359", "operator:wikipedia": "fr:Groupe Carrefour", "shop": "convenience"}}, {"type": "way", "id": 278484993, "nodes": [8553618616, 2828513321, 2828513322, 2828513323, 8553618616], "tags": {"area": "yes", "building": "yes", "name": "Mini Market", "shop": "convenience"}}, {"type": "way", "id": 461205417, "nodes": [4567425154, 4567425155, 4567425156, 4567425157, 4567425154], "tags": {"addr:street": "Begonya Sokak", "building": "yes", "name": "Ya\u015far Tekel", "shop": "convenience"}}, {"type": "way", "id": 544489358, "nodes": [5263362893, 5263362894, 5263362895, 5263362896, 5263362893], "tags": {"building": "yes", "name": "uyum", "shop": "convenience"}}, {"type": "way", "id": 544607970, "nodes": [5264316628, 5264316629, 5264316630, 5264316631, 5264316628], "tags": {"addr:neighbourhood": "Ugurmumcu Mahallesi", "addr:street": "Ak\u015femsettin Caddesi", "building": "yes", "name": "Asl\u0131bahce - Migros", "operator": "Asl\u0131bahce - Migros", "shop": "convenience"}}, {"type": "way", "id": 545337449, "nodes": [5270745213, 5270745214, 5270745215, 5270745216, 5270745213], "tags": {"addr:city": "\u0130stanbul", "addr:country": "TR", "addr:district": "Maltepe", "addr:neighbourhood": "F\u0131nd\u0131kl\u0131 Mahallesi", "addr:postcode": "34854", "building": "yes", "shop": "convenience"}}, {"type": "way", "id": 545337459, "nodes": [5270747752, 5270747753, 5270747754, 5270747755, 5270747756, 5270747752], "tags": {"addr:city": "\u0130stanbul", "addr:country": "TR", "addr:district": "Maltepe", "addr:neighbourhood": "F\u0131nd\u0131kl\u0131 Mahallesi", "addr:postcode": "34854", "building": "yes", "shop": "convenience"}}, {"type": "way", "id": 545836065, "nodes": [5275182381, 5264343937, 5275182382, 5275182383, 5275182381], "tags": {"building": "yes", "shop": "convenience"}}, {"type": "way", "id": 545836075, "nodes": [5275182396, 5275182397, 5264312888, 5264312887, 5275182396], "tags": {"building": "yes", "shop": "convenience"}}, {"type": "way", "id": 547778211, "nodes": [5292614799, 5293735500, 5292614800, 5292614801, 5292614802, 5292614799], "tags": {"building": "yes", "name": "\u00c7otanak ambalaj", "shop": "convenience"}}, {"type": "way", "id": 547921307, "nodes": [5293772248, 5293772249, 5293772250, 5293772251, 5293772248], "tags": {"building": "yes", "name": "EFE MARKET", "shop": "convenience"}}, {"type": "way", "id": 549002496, "nodes": [5303372149, 5303372150, 5303372151, 5303372173, 5303372152, 5303372149], "tags": {"building": "yes", "name": "Anta\u015f Hipermarketleri", "shop": "convenience"}}, {"type": "way", "id": 569608169, "nodes": [5477690877, 5477690878, 5477690879, 5477690880, 5477690877], "tags": {"addr:city": "\u00dcmraniye / \u0130stanbul", "addr:district": "\u00fcmraniye", "addr:neighbourhood": "Fatih Sultan Mehmet Mahallesi", "addr:street": "Ye\u015fil Vadi Soka\u011f\u0131", "building": "yes", "name": "Ye\u015filvadi Market", "opening_hours": "Mo-Su 08:00-22:00", "opening_hours:covid19": "open", "operator": "Esnaf", "payment:cash": "yes", "payment:credit_cards": "yes", "shop": "convenience"}}, {"type": "way", "id": 648181413, "nodes": [6085707170, 6085707171, 6085707172, 6085707173, 6085707170], "tags": {"building": "yes", "shop": "convenience"}}, {"type": "way", "id": 657417501, "nodes": [6157454651, 6157454650, 6157454649, 9971236908, 6157454648, 9971236909, 6157454651], "tags": {"building": "yes", "building:levels": "1", "shop": "convenience"}}, {"type": "way", "id": 658397603, "nodes": [6165560052, 6165560053, 6165560054, 6165560055, 6165560052], "tags": {"addr:city": "istanbul", "addr:district": "ata\u015fehir", "addr:neighbourhood": "esatpa\u015fa", "addr:street": "ba\u015fkomutan", "building": "yes", "name": "Volkan Tekel", "opening_hours": "Mo-Su 06:00-24:00", "payment:cash": "yes", "payment:debit_cards": "yes", "shop": "convenience"}}, {"type": "way", "id": 661241264, "nodes": [6190621909, 6190621910, 6190621911, 6190621912, 6190621913, 6190621909], "tags": {"addr:city": "istanbul", "addr:district": "\u00fcsk\u00fcdar", "addr:neighbourhood": "selami ali mahallesi", "addr:street": "Gazi Caddesi", "building": "yes", "name": "Ko\u00e7ta\u015f", "shop": "convenience"}}, {"type": "way", "id": 765948695, "nodes": [7153690132, 7153690133, 7153690134, 7153690135, 7153690132], "tags": {"brand": "Bonjour", "brand:wikidata": "Q110278299", "building": "yes", "name": "Bonjour", "shop": "convenience"}}, {"type": "way", "id": 806435092, "nodes": [7541428110, 7541428111, 7541428112, 7541428113, 7541428110], "tags": {"building": "yes", "name": "Bizim Toptan Market", "shop": "convenience"}}, {"type": "way", "id": 807816444, "nodes": [5050279265, 5050279268, 5050279267, 5050279266, 5050279265], "tags": {"building": "yes", "name": "\u00d6zkuru\u015flar MArket", "shop": "convenience"}}, {"type": "way", "id": 808195044, "nodes": [7557433805, 7557433806, 7557433807, 7557433808, 7557433805], "tags": {"building": "yes", "name": "Olimpiyat Et  G\u0131da \u015eark\u00fcteri", "opening_hours": "Mo-Su 10:00-24:00", "opening_hours:covid19": "open", "payment:cash": "yes", "payment:credit_cards": "yes", "shop": "convenience"}}, {"type": "way", "id": 853280596, "nodes": [7959546514, 7959546515, 7959546516, 7959546517, 7959546518, 7959546519, 7959546520, 7959546521, 7959546514], "tags": {"building": "yes", "shop": "convenience"}}, {"type": "way", "id": 853280597, "nodes": [7959546522, 7959546523, 7959546524, 7959546525, 7959546531, 7959546526, 7959546527, 7959546528, 7959546529, 7959546530, 7959546522], "tags": {"building": "yes", "shop": "convenience"}}, {"type": "way", "id": 881034729, "nodes": [8194406358, 8194406359, 8194406360, 8194406361, 8194406358], "tags": {"addr:city": "\u0130stanbul", "addr:district": "\u00dcsk\u00fcdar", "addr:housenumber": "38A", "addr:neighbourhood": "Ahmediye Mahallesi", "addr:postcode": "34672", "addr:street": "B\u00fcy\u00fck Selim Pa\u015fa Caddesi", "building": "yes", "layer": "-1", "name": "Kaya Market", "phone": "+90 216 341 90 48", "shop": "convenience"}}, {"type": "way", "id": 931732341, "nodes": [8637838493, 8637838494, 8637838495, 8637838496, 8637838497, 8637838493], "tags": {"brand": "Carrefour Express", "brand:wikidata": "Q2940190", "brand:wikipedia": "fr:Carrefour Express", "building": "yes", "name": "Carrefour Express", "shop": "convenience"}}, {"type": "way", "id": 931732606, "nodes": [8637849159, 8637849160, 8637849161, 8637849162, 8637849159], "tags": {"building": "yes", "name": "\u00d6zkuru\u015flar", "shop": "convenience"}}, {"type": "way", "id": 1118638042, "nodes": [10230891395, 10230891396, 10230891397, 10230891398, 10230891395], "tags": {"building": "yes", "shop": "convenience"}}, {"type": "way", "id": 1157094086, "nodes": [10760353631, 10760353632, 10760353633, 10760353634, 10760353635, 10760353636, 10760353637, 10760353638, 10760353631], "tags": {"building": "yes", "shop": "convenience"}}, {"type": "way", "id": 1163708829, "nodes": [10822650424, 10822650425, 10822650426, 10822650427, 10822650428, 10822650429, 10822650424], "tags": {"building": "yes", "shop": "convenience"}}, {"type": "way", "id": 1163884148, "nodes": [10824334122, 10824334123, 10824334124, 10824334125, 10824334120, 10824334121, 10824334126, 10824334122], "tags": {"building": "yes", "shop": "convenience"}}]}