{"version": 0.6, "generator": "Overpass API 0.7.60 f4c14d41", "osm3s": {"timestamp_osm_base": "2023-05-02T21:14:21Z", "copyright": "The data included in this document is from www.openstreetmap.org. The data is made available under ODbL."}, "elements": [{"type": "node", "id": 911763036, "lat": 41.0135719, "lon": 28.9316151, "tags": {"amenity": "bank", "name": "\u015eehremini PTT", "name:ar": "\u0645\u0631\u0643\u0632 \u0628\u0631\u064a\u062f \u0634\u064a\u0647\u0631\u064a\u0645\u064a PTT", "operator": "PTT"}}, {"type": "node", "id": 911763180, "lat": 41.0168465, "lon": 28.9304832, "tags": {"amenity": "bank", "branch": "\u015eehremini \u015eubesi", "brand": "Ziraat Bankas\u0131", "brand:wikidata": "Q696003", "brand:wikipedia": "en:Ziraat Bank", "name": "Ziraat Bankas\u0131", "name:ar": "\u0641\u0631\u0639 \u0634\u064a\u0647\u0631\u064a\u0645\u064a\u0646\u064a \u0632\u0631\u0627\u0639\u0627\u062a \u0628\u0646\u0643", "operator": "Ziraat Bankas\u0131", "wheelchair": "yes"}}, {"type": "node", "id": 976511679, "lat": 41.0122151, "lon": 28.8565254, "tags": {"amenity": "bank", "name": "Fortis So\u011fanl\u0131 \u015eubesi", "name:ar": "\u0628\u0646\u0643 \u0641\u0648\u0631\u062a\u064a\u0633 \u0641\u064a \u0633\u0648\u063a\u0627\u0646\u0644\u064a"}}, {"type": "node", "id": 976511681, "lat": 41.0101182, "lon": 28.855238, "tags": {"amenity": "bank", "branch": "So\u011fanl\u0131 \u015eubesi", "brand": "T\u00fcrkiye \u0130\u015f Bankas\u0131", "brand:wikidata": "Q909613", "name": "T\u00fcrkiye \u0130\u015f Bankas\u0131", "name:ar": "\u0641\u0631\u0639 \u0627\u0634 \u0628\u0646\u0643 \u0641\u064a \u0633\u0648\u063a\u0627\u0646\u0644\u064a"}}, {"type": "node", "id": 976511682, "lat": 41.0071632, "lon": 28.8529956, "tags": {"amenity": "bank", "name": "Halk Bankas\u0131 Siyavu\u015fpa\u015fa \u015eubesi", "name:ar": "\u0641\u0631\u0639 \u0628\u0646\u0643 \u0647\u0627\u0644\u0643 \u0641\u064a \u0633\u064a\u0627\u0647\u0641\u0648\u0634 \u0628\u0627\u0634\u0627"}}, {"type": "node", "id": 976511684, "lat": 41.0142227, "lon": 28.8566113, "tags": {"amenity": "bank", "branch": "So\u011fanl\u0131 \u015eubesi", "brand": "Garanti Bankas\u0131", "brand:wikidata": "Q322962", "name": "Garanti Bankas\u0131", "name:ar": "\u0641\u0631\u0639 \u0628\u0646\u0643 \u063a\u0631\u0627\u0646\u062a\u064a \u0641\u064a \u0633\u0648\u063a\u0627\u0646\u0644\u064a"}}, {"type": "node", "id": 976511685, "lat": 41.0142632, "lon": 28.8561392, "tags": {"amenity": "bank", "branch": "So\u011fanl\u0131 \u015eubesi", "brand": "Akbank", "brand:wikidata": "Q416624", "name": "Akbank", "name:ar": "\u0641\u0631\u0639 \u0628\u0646\u0643 \u0627\u0643 \u0641\u064a \u0633\u0648\u063a\u0627\u0646\u0644\u064a"}}, {"type": "node", "id": 1025010103, "lat": 41.0087114, "lon": 28.8545069, "tags": {"amenity": "bank", "brand": "Denizbank", "brand:wikidata": "Q1115064", "name": "Denizbank", "name:ar": "\u0641\u0631\u0639 \u0628\u0646\u0643 \u062f\u064a\u0646\u064a\u0632 \u0641\u064a \u0633\u0648\u063a\u0627\u0646\u0644\u064a", "operator": "Denizbank So\u011fanl\u0131 \u015eubesi"}}, {"type": "node", "id": 1250323292, "lat": 41.0159832, "lon": 28.9308594}, {"type": "node", "id": 1250323293, "lat": 41.0160025, "lon": 28.9308251}, {"type": "node", "id": 1250323302, "lat": 41.0161372, "lon": 28.9310117}, {"type": "node", "id": 1250323309, "lat": 41.0161946, "lon": 28.9308911}, {"type": "node", "id": 1250323310, "lat": 41.0161565, "lon": 28.9309774}, {"type": "node", "id": 1250323318, "lat": 41.016053, "lon": 28.9307516}, {"type": "node", "id": 1407272961, "lat": 41.0056336, "lon": 28.7957242, "tags": {"amenity": "bank", "branch": "Sefak\u00f6y \u015eubesi", "brand": "Akbank", "brand:wikidata": "Q416624", "name": "Akbank", "name:ar": "\u0641\u0631\u0639 \u0628\u0646\u0643 \u0627\u0643 \u0641\u064a \u0635\u0641\u0627 \u0643\u0648\u064a"}}, {"type": "node", "id": 1407272969, "lat": 41.0055276, "lon": 28.7956201, "tags": {"amenity": "bank", "branch": "Sefak\u00f6y \u015eubesi", "brand": "Ziraat Bankas\u0131", "brand:wikidata": "Q696003", "name": "Ziraat Bankas\u0131", "name:ar": "\u0641\u0631\u0639 \u0628\u0646\u0643 \u0632\u0631\u0627\u0639\u0627\u062a \u0641\u064a \u0635\u0641\u0627 \u0643\u0648\u064a"}}, {"type": "node", "id": 1407272972, "lat": 41.0093692, "lon": 28.7939089, "tags": {"amenity": "bank", "branch": "Sefak\u00f6y \u015eubesi", "brand": "Garanti Bankas\u0131", "brand:wikidata": "Q322962", "name": "Garanti Bankas\u0131", "name:ar": "\u0641\u0631\u0639 \u0628\u0646\u0643 \u063a\u0631\u0627\u0646\u062a\u064a \u0641\u064a \u0635\u0641\u0627 \u0643\u0648\u064a"}}, {"type": "node", "id": 1407272974, "lat": 41.0047625, "lon": 28.7947886, "tags": {"amenity": "bank", "branch": "Sefak\u00f6y \u015eubesi", "brand": "ING", "brand:wikidata": "Q645708", "name": "ING", "name:ar": "\u0641\u0631\u0639 \u0628\u0646\u0643 \u0627\u0646\u062c \u0641\u064a \u0635\u0641\u0627 \u0643\u0648\u064a"}}, {"type": "node", "id": 1407272980, "lat": 41.0050863, "lon": 28.7948637, "tags": {"amenity": "bank", "branch": "Bank Sefak\u00f6y \u015eubesi", "brand": "HSBC", "brand:wikidata": "Q190464", "name": "HSBC", "name:ar": "\u0641\u0631\u0639 \u0628\u0646\u0643 Hsbc  \u0641\u064a \u0635\u0641\u0627 \u0643\u0648\u064a"}}, {"type": "node", "id": 1407272986, "lat": 41.0053373, "lon": 28.7959044, "tags": {"amenity": "bank", "name": "Albarakat\u00fcrk Sefak\u00f6y \u015eubesi", "name:ar": "\u0641\u0631\u0639 \u0628\u0646\u0643 \u0627\u0644\u0628\u0631\u0643\u0629 \u0641\u064a \u0635\u0641\u0627 \u0643\u0648\u064a"}}, {"type": "node", "id": 1407272988, "lat": 41.0057259, "lon": 28.7969988, "tags": {"amenity": "bank", "branch": "Sefak\u00f6y \u015eubesi", "brand": "Anadolubank", "brand:wikidata": "Q4750773", "name": "Anadolubank"}}, {"type": "node", "id": 1407272997, "lat": 41.0052402, "lon": 28.7950568, "tags": {"amenity": "bank", "branch": "Sefak\u00f6y \u00c7ar\u015f\u0131 \u015eubesi", "brand": "T\u00fcrkiye \u0130\u015f Bankas\u0131", "brand:wikidata": "Q909613", "name": "T\u00fcrkiye \u0130\u015f Bankas\u0131", "name:ar": "\u0641\u0631\u0639 \u0627\u0634 \u0628\u0646\u0643 \u0641\u064a \u0635\u0641\u0627 \u0643\u0648\u064a"}}, {"type": "node", "id": 1407273001, "lat": 41.0054911, "lon": 28.7954967, "tags": {"amenity": "bank", "branch": "Sefak\u00f6y \u015eubesi", "brand": "TEB", "brand:wikidata": "Q7862447", "name": "TEB", "name:ar": "\u0641\u0631\u0639 \u0628\u0646\u0643 \u062a\u064a\u0628 \u0641\u064a \u0635\u0641\u0627 \u0643\u0648\u064a"}}, {"type": "node", "id": 1407273010, "lat": 41.0053859, "lon": 28.7953251, "tags": {"amenity": "bank", "name": "Bankasya Sefak\u00f6y \u015eubesi"}}, {"type": "node", "id": 1407273012, "lat": 41.0057705, "lon": 28.7959742, "tags": {"amenity": "bank", "name": "Vak\u0131fbak Sefak\u00f6y \u015eubesi", "name:ar": "\u0641\u0631\u0639 \u0628\u0646\u0643 \u0648\u0642\u0641 \u0641\u064a \u0635\u0641\u0627 \u0643\u0648\u064a"}}, {"type": "node", "id": 1407273036, "lat": 41.0070689, "lon": 28.795626, "tags": {"amenity": "bank", "branch": "Sefak\u00f6y \u015eubesi", "brand": "Halkbank", "brand:wikidata": "Q3593818", "name": "Halkbank", "name:ar": "\u0641\u0631\u0639 \u0628\u0646\u0643 \u0647\u0627\u0644\u0643 \u0641\u064a \u0635\u0641\u0627 \u0643\u0648\u064a"}}, {"type": "node", "id": 1407273046, "lat": 41.0049082, "lon": 28.7950783, "tags": {"amenity": "bank", "branch": "Sefak\u00f6y \u015eubesi", "brand": "QNB Finansbank", "brand:wikidata": "Q1416237", "name": "QNB Finansbank", "name:ar": "\u0641\u0631\u0639 \u0628\u0646\u0643 \u0641\u064a\u0646\u0627\u0646\u0633 \u0641\u064a \u0635\u0641\u0627 \u0643\u0648\u064a"}}, {"type": "node", "id": 1867700383, "lat": 40.992227, "lon": 28.781713, "tags": {"amenity": "bank", "atm": "yes", "brand": "Garanti Bankas\u0131", "brand:wikidata": "Q322962", "name": "Garanti Bankas\u0131"}}, {"type": "node", "id": 1918907113, "lat": 41.0058817, "lon": 28.8710789, "tags": {"amenity": "bank", "atm": "yes", "branch": "Bah\u00e7elivler \u015eubesi", "brand": "Akbank", "brand:wikidata": "Q416624", "brand:wikipedia": "tr:Akbank", "name": "Akbank"}}, {"type": "node", "id": 1918907116, "lat": 41.0055963, "lon": 28.8707219, "tags": {"amenity": "bank", "brand": "Garanti Bankas\u0131", "brand:wikidata": "Q322962", "brand:wikipedia": "en:Garanti Bank", "name": "Garanti Bankas\u0131"}}, {"type": "node", "id": 1918917551, "lat": 41.0084037, "lon": 28.8714812, "tags": {"amenity": "bank", "atm": "yes", "branch": "Bankas\u0131", "brand": "Yap\u0131 Kredi", "brand:wikidata": "Q8049138", "name": "Yap\u0131 Kredi"}}, {"type": "node", "id": 1934787185, "lat": 40.9790255, "lon": 28.8503434, "tags": {"addr:housename": "Atak\u00f6y Plus AVM", "amenity": "bank", "atm": "yes", "brand": "Garanti Bankas\u0131", "brand:wikidata": "Q322962", "brand:wikipedia": "en:Garanti Bank", "name": "Garanti Bankas\u0131"}}, {"type": "node", "id": 2277106981, "lat": 41.0163882, "lon": 28.6453235, "tags": {"amenity": "bank", "atm": "yes", "brand": "Garanti Bankas\u0131", "brand:wikidata": "Q322962", "brand:wikipedia": "en:Garanti BBVA", "name": "Garanti Bankas\u0131"}}, {"type": "node", "id": 2277107812, "lat": 41.014477, "lon": 28.6465939, "tags": {"amenity": "bank", "atm": "yes", "brand": "QNB Finansbank", "brand:wikidata": "Q1416237", "brand:wikipedia": "en:QNB Finansbank", "name": "QNB Finansbank"}}, {"type": "node", "id": 2277111018, "lat": 41.0077137, "lon": 28.6608749, "tags": {"amenity": "bank", "atm": "yes", "brand": "Ziraat Bankas\u0131", "brand:wikidata": "Q696003", "brand:wikipedia": "en:Ziraat Bank", "name": "Ziraat Bankas\u0131"}}, {"type": "node", "id": 2277111556, "lat": 41.0163826, "lon": 28.6468135, "tags": {"amenity": "bank", "atm": "yes", "brand": "Akbank", "brand:wikidata": "Q416624", "brand:wikipedia": "tr:Akbank", "name": "Akbank"}}, {"type": "node", "id": 2277398377, "lat": 41.0162765, "lon": 28.6470962, "tags": {"amenity": "bank", "atm": "yes", "brand": "T\u00fcrkiye \u0130\u015f Bankas\u0131", "brand:wikidata": "Q909613", "brand:wikipedia": "en:\u0130\u015fbank", "name": "T\u00fcrkiye \u0130\u015f Bankas\u0131"}}, {"type": "node", "id": 2277467221, "lat": 41.0181431, "lon": 28.6279019, "tags": {"amenity": "bank", "atm": "yes", "brand": "Garanti Bankas\u0131", "brand:wikidata": "Q322962", "brand:wikipedia": "en:Garanti Bank", "name": "Garanti Bankas\u0131"}}, {"type": "node", "id": 2277468415, "lat": 41.0188919, "lon": 28.6277732, "tags": {"amenity": "bank", "atm": "yes", "brand": "Ziraat Bankas\u0131", "brand:wikidata": "Q696003", "brand:wikipedia": "en:Ziraat Bankas\u0131", "name": "Ziraat Bankas\u0131"}}, {"type": "node", "id": 2282201990, "lat": 41.0069553, "lon": 28.6597635, "tags": {"amenity": "bank", "atm": "yes", "brand": "Citibank", "brand:wikidata": "Q857063", "brand:wikipedia": "en:Citibank", "name": "Citibank", "short_name": "Citi"}}, {"type": "node", "id": 2282201994, "lat": 41.0070688, "lon": 28.6597579, "tags": {"amenity": "bank", "atm": "yes", "brand": "Denizbank", "brand:wikidata": "Q1115064", "brand:wikipedia": "en:DenizBank", "name": "Denizbank"}}, {"type": "node", "id": 2282202453, "lat": 41.0072103, "lon": 28.6597206, "tags": {"amenity": "bank", "atm": "yes", "brand": "T\u00fcrkiye \u0130\u015f Bankas\u0131", "brand:wikidata": "Q909613", "brand:wikipedia": "en:\u0130\u015fbank", "name": "T\u00fcrkiye \u0130\u015f Bankas\u0131"}}, {"type": "node", "id": 2282202485, "lat": 41.0068419, "lon": 28.6597152, "tags": {"amenity": "bank", "atm": "yes", "brand": "QNB Finansbank", "brand:wikidata": "Q1416237", "brand:wikipedia": "en:QNB Finansbank", "name": "QNB Finansbank"}}, {"type": "node", "id": 2282202486, "lat": 41.0069312, "lon": 28.6600207, "tags": {"amenity": "bank", "atm": "yes", "name": "T\u00fcrkiye Finans"}}, {"type": "node", "id": 2282202579, "lat": 41.0068543, "lon": 28.6599456, "tags": {"amenity": "bank", "atm": "yes", "brand": "TEB", "brand:wikidata": "Q7862447", "brand:wikipedia": "en:T\u00fcrk Ekonomi Bankas\u0131", "name": "TEB"}}, {"type": "node", "id": 2282202638, "lat": 41.0067935, "lon": 28.659833, "tags": {"amenity": "bank", "atm": "yes", "brand": "ING", "brand:wikidata": "Q645708", "brand:wikipedia": "en:ING Group", "name": "ING"}}, {"type": "node", "id": 2282203401, "lat": 41.0074574, "lon": 28.6605625, "tags": {"amenity": "bank", "atm": "yes", "brand": "Vak\u0131fbank", "brand:wikidata": "Q1148521", "brand:wikipedia": "en:Vak\u0131fBank", "name": "Vak\u0131fbank"}}, {"type": "node", "id": 2282203941, "lat": 41.0073763, "lon": 28.6606647, "tags": {"amenity": "bank", "atm": "yes", "brand": "Garanti Bankas\u0131", "brand:wikidata": "Q322962", "brand:wikipedia": "en:Garanti BBVA", "name": "Garanti Bankas\u0131"}}, {"type": "node", "id": 2482964068, "lat": 41.0032879, "lon": 28.9301669, "tags": {"amenity": "bank", "atm": "yes", "branch": "Bankas\u0131 Koca Mustafa Pa\u015fa \u015eubesi", "brand": "Yap\u0131 Kredi", "brand:wikidata": "Q8049138", "brand:wikipedia": "en:Yap\u0131 Kredi", "name": "Yap\u0131 Kredi", "name:ar": "\u064a\u0628\u064a \u0643\u0631\u064a\u062f\u064a \u0628\u0627\u0646\u0643 - \u0634\u0639\u0628\u0629 \u0643\u0648\u062c\u0627 \u0645\u0635\u0637\u0641\u0649 \u0628\u0627\u0634\u0627"}}, {"type": "node", "id": 2482966049, "lat": 41.0042109, "lon": 28.9330905, "tags": {"addr:city": "\u0130stanbul", "addr:district": "Fatih", "amenity": "bank", "atm": "yes", "branch": "A \u015e  Koca Mustafa Pa\u015fa \u015eubesi", "brand": "T\u00fcrkiye \u0130\u015f Bankas\u0131", "brand:wikidata": "Q909613", "brand:wikipedia": "en:\u0130\u015fbank", "name": "T\u00fcrkiye \u0130\u015f Bankas\u0131", "name:ar": "\u0628\u0646\u0643 \u0627\u0634 \u0628\u0627\u0646\u0643\u0627\u0633\u064a - \u0634\u0639\u0628\u0629 \u0643\u0648\u062c\u0627 \u0645\u0635\u0637\u0641\u0649 \u0628\u0627\u0634\u0627"}}, {"type": "node", "id": 2661346564, "lat": 41.0162218, "lon": 28.6520586, "tags": {"amenity": "bank", "brand": "Ziraat Bankas\u0131", "brand:wikidata": "Q696003", "brand:wikipedia": "en:Ziraat Bank", "name": "Ziraat Bankas\u0131"}}, {"type": "node", "id": 3127704561, "lat": 41.0160388, "lon": 28.8769399, "tags": {"amenity": "bank", "atm": "yes", "brand": "Vak\u0131fbank", "brand:wikidata": "Q1148521", "brand:wikipedia": "en:Vak\u0131fBank", "name": "Vak\u0131fbank"}}, {"type": "node", "id": 3127704564, "lat": 41.0161764, "lon": 28.8731097, "tags": {"amenity": "bank", "atm": "yes", "brand": "Yap\u0131 Kredi", "brand:wikidata": "Q8049138", "brand:wikipedia": "en:Yap\u0131 ve Kredi Bankas\u0131", "name": "Yap\u0131 Kredi"}}, {"type": "node", "id": 3128898837, "lat": 41.0159757, "lon": 28.876585, "tags": {"amenity": "bank", "name": "At\u0131l\u0131m D\u00f6viz", "name:tr": "At\u0131l\u0131m D\u00f6viz"}}, {"type": "node", "id": 3128904660, "lat": 41.0161983, "lon": 28.8773199, "tags": {"amenity": "bank", "atm": "yes", "name": "alBaraka"}}, {"type": "node", "id": 3128904664, "lat": 41.0163663, "lon": 28.8778697, "tags": {"amenity": "bank", "atm": "yes", "brand": "Denizbank", "brand:wikidata": "Q1115064", "name": "Denizbank"}}, {"type": "node", "id": 3131212870, "lat": 41.0087858, "lon": 28.8746916, "tags": {"amenity": "bank", "atm": "yes", "brand": "Ziraat Bankas\u0131", "brand:wikidata": "Q696003", "brand:wikipedia": "en:Ziraat Bankas\u0131", "name": "Ziraat Bankas\u0131"}}, {"type": "node", "id": 3182248314, "lat": 41.0028362, "lon": 28.8651608, "tags": {"amenity": "bank", "atm": "yes", "brand": "Denizbank", "brand:wikidata": "Q1115064", "brand:wikipedia": "en:DenizBank", "designation": "Bah\u00e7elievler \u015eubesi", "name": "Denizbank"}}, {"type": "node", "id": 3182249547, "lat": 41.0037976, "lon": 28.8660607, "tags": {"amenity": "bank", "atm": "yes", "brand": "Kuveyt T\u00fcrk", "brand:wikidata": "Q6036058", "brand:wikipedia": "tr:Kuveyt T\u00fcrk", "designation": "Bah\u00e7elievler \u015eubesi", "name": "Kuveyt T\u00fcrk"}}, {"type": "node", "id": 3184132276, "lat": 41.0004977, "lon": 28.8664316, "tags": {"amenity": "bank", "atm": "yes", "brand": "Halkbank", "brand:wikidata": "Q3593818", "brand:wikipedia": "en:Halkbank", "designation": "Bah\u00e7elievler \u015eubesi", "name": "Halkbank"}}, {"type": "node", "id": 3184132307, "lat": 41.003832, "lon": 28.8662548, "tags": {"amenity": "bank", "atm": "yes", "designation": "Bah\u00e7elievler \u015eubesi", "name": "Albaraka"}}, {"type": "node", "id": 3195163714, "lat": 41.0015151, "lon": 28.8705596, "tags": {"amenity": "bank", "atm": "yes", "brand": "ING", "brand:wikidata": "Q645708", "brand:wikipedia": "en:ING Group", "name": "ING"}}, {"type": "node", "id": 3195163715, "lat": 41.0013219, "lon": 28.8705306, "tags": {"amenity": "bank", "atm": "yes", "brand": "Vak\u0131fbank", "brand:wikidata": "Q1148521", "brand:wikipedia": "en:Vak\u0131fBank", "name": "Vak\u0131fbank"}}, {"type": "node", "id": 3195164049, "lat": 41.0011036, "lon": 28.8704689, "tags": {"amenity": "bank", "atm": "yes", "brand": "Denizbank", "brand:wikidata": "Q1115064", "brand:wikipedia": "en:DenizBank", "name": "Denizbank"}}, {"type": "node", "id": 3226037338, "lat": 41.0317617, "lon": 28.8229867, "tags": {"amenity": "bank", "atm": "yes", "brand": "Ziraat Bankas\u0131", "brand:wikidata": "Q696003", "brand:wikipedia": "en:Ziraat Bankas\u0131", "name": "Ziraat Bankas\u0131"}}, {"type": "node", "id": 3251617451, "lat": 41.0043219, "lon": 28.867041, "tags": {"amenity": "bank", "atm": "yes", "branch": "BAH\u00c7EL\u0130EVLER \u015eUBES\u0130", "brand": "Yap\u0131 Kredi", "brand:wikidata": "Q8049138", "designation": "BAH\u00c7EL\u0130EVLER \u015eB.", "name": "Yap\u0131 Kredi"}}, {"type": "node", "id": 3498778646, "lat": 41.0124459, "lon": 28.958405, "tags": {"amenity": "bank", "brand": "Denizbank", "brand:wikidata": "Q1115064", "brand:wikipedia": "en:DenizBank", "name": "Denizbank", "wheelchair": "limited"}}, {"type": "node", "id": 3499007595, "lat": 41.0201611, "lon": 28.9467561, "tags": {"amenity": "bank", "brand": "Halkbank", "brand:wikidata": "Q3593818", "brand:wikipedia": "en:Halkbank a.d.", "name": "Halkbank", "wheelchair": "no"}}, {"type": "node", "id": 3499035834, "lat": 41.0117051, "lon": 28.9580224, "tags": {"amenity": "bank", "brand": "QNB Finansbank", "brand:wikidata": "Q1416237", "brand:wikipedia": "en:QNB Finansbank", "name": "QNB Finansbank", "wheelchair": "no"}}, {"type": "node", "id": 3499062089, "lat": 41.0124853, "lon": 28.9397801, "tags": {"amenity": "bank", "brand": "Kuveyt T\u00fcrk", "brand:wikidata": "Q6036058", "brand:wikipedia": "tr:Kuveyt T\u00fcrk", "name": "Kuveyt T\u00fcrk", "wheelchair": "no"}}, {"type": "node", "id": 3499089085, "lat": 41.013309, "lon": 28.9379053, "tags": {"amenity": "bank", "brand": "HSBC", "brand:wikidata": "Q190464", "brand:wikipedia": "en:HSBC", "name": "HSBC", "wheelchair": "limited"}}, {"type": "node", "id": 3499094110, "lat": 41.0216833, "lon": 28.9456646, "tags": {"amenity": "bank", "branch": "\u015al\u0105ski", "brand": "ING", "brand:wikidata": "Q645708", "brand:wikipedia": "en:ING Group", "name": "ING", "wheelchair": "no"}}, {"type": "node", "id": 3499136686, "lat": 41.0130786, "lon": 28.9566122, "tags": {"amenity": "bank", "wheelchair": "yes"}}, {"type": "node", "id": 3499218687, "lat": 41.0097379, "lon": 28.9581986, "tags": {"amenity": "bank", "brand": "Yap\u0131 Kredi", "brand:wikidata": "Q8049138", "brand:wikipedia": "en:Yap\u0131 Kredi", "name": "Yap\u0131 Kredi", "wheelchair": "limited"}}, {"type": "node", "id": 3625637824, "lat": 40.9597864, "lon": 28.8228318, "tags": {"amenity": "bank", "atm": "yes", "brand": "Yap\u0131 Kredi", "brand:wikidata": "Q8049138", "brand:wikipedia": "en:Yap\u0131 Kredi", "drive_through": "no", "name": "Yap\u0131 Kredi"}}, {"type": "node", "id": 4104768543, "lat": 40.9958283, "lon": 28.8702356, "tags": {"addr:city": "Bak\u0131rk\u00f6y/\u0130stanbul", "amenity": "bank", "atm": "yes", "name": "A Bank"}}, {"type": "node", "id": 4225485399, "lat": 41.0168202, "lon": 28.9507489, "tags": {"addr:street": "Macar Karde\u015fler Caddesi", "amenity": "bank", "brand": "Akbank", "brand:wikidata": "Q416624", "brand:wikipedia": "tr:Akbank", "name": "Akbank"}}, {"type": "node", "id": 4225485400, "lat": 41.0167755, "lon": 28.9508317, "tags": {"addr:street": "Macar Karde\u015fler Caddesi", "amenity": "bank", "brand": "TEB", "brand:wikidata": "Q7862447", "brand:wikipedia": "en:T\u00fcrk Ekonomi Bankas\u0131", "name": "TEB"}}, {"type": "node", "id": 4225491195, "lat": 41.0166691, "lon": 28.9506616, "tags": {"addr:street": "Bina Emini Sokak", "amenity": "bank", "brand": "T\u00fcrkiye \u0130\u015f Bankas\u0131", "brand:wikidata": "Q909613", "brand:wikipedia": "en:T\u00fcrkiye \u0130\u015f Bankas\u0131", "name": "T\u00fcrkiye \u0130\u015f Bankas\u0131"}}, {"type": "node", "id": 4225504200, "lat": 41.0167142, "lon": 28.9505758, "tags": {"addr:street": "Bina Emini Sokak", "amenity": "bank", "brand": "Ziraat Bankas\u0131", "brand:wikidata": "Q696003", "brand:wikipedia": "en:Ziraat Bankas\u0131", "name": "Ziraat Bankas\u0131"}}, {"type": "node", "id": 4225504510, "lat": 41.0168812, "lon": 28.9506432, "tags": {"addr:street": "Macar Karde\u015fler Caddesi", "amenity": "bank", "brand": "Vak\u0131fbank", "brand:wikidata": "Q1148521", "brand:wikipedia": "en:Vak\u0131fBank", "name": "Vak\u0131fbank"}}, {"type": "node", "id": 4225569142, "lat": 41.0163265, "lon": 28.9511769, "tags": {"addr:street": "Macar Karde\u015fler Caddesi", "amenity": "bank", "branch": "K\u0131zta\u015f\u0131 \u015eubesi", "brand": "Kuveyt T\u00fcrk", "brand:wikidata": "Q6036058", "name": "Kuveyt T\u00fcrk"}}, {"type": "node", "id": 4286601012, "lat": 41.0089079, "lon": 28.9529843, "tags": {"addr:city": "Aksaray/\u0130stanbul", "amenity": "bank", "atm": "yes", "brand": "Vak\u0131fbank", "brand:wikidata": "Q1148521", "brand:wikipedia": "en:Vak\u0131fBank", "name": "Vak\u0131fbank"}}, {"type": "node", "id": 4286601037, "lat": 41.0088585, "lon": 28.9536358, "tags": {"addr:city": "Aksaray/\u0130stanbul", "amenity": "bank", "atm": "yes", "brand": "Akbank", "brand:wikidata": "Q416624", "brand:wikipedia": "tr:Akbank", "name": "Akbank"}}, {"type": "node", "id": 4286601042, "lat": 41.0090134, "lon": 28.9536411, "tags": {"amenity": "bank", "name": "T\u00fcrkiye Finans Kat\u0131l\u0131m"}}, {"type": "node", "id": 4286601043, "lat": 41.0088196, "lon": 28.9536255, "tags": {"addr:city": "Aksaray/\u0130stanbul", "amenity": "bank", "atm": "yes", "name": "Bank Asya"}}, {"type": "node", "id": 4286601044, "lat": 41.0087583, "lon": 28.9536482, "tags": {"addr:city": "Aksaray/\u0130stanbul", "amenity": "bank", "atm": "yes", "brand": "T\u00fcrkiye \u0130\u015f Bankas\u0131", "brand:wikidata": "Q909613", "brand:wikipedia": "en:\u0130\u015fbank", "name": "T\u00fcrkiye \u0130\u015f Bankas\u0131"}}, {"type": "node", "id": 4286601045, "lat": 41.0086688, "lon": 28.9536181, "tags": {"addr:city": "Aksaray/\u0130stanbul", "amenity": "bank", "atm": "yes", "name": "Halkbankas\u0131"}}, {"type": "node", "id": 4286623822, "lat": 41.0093965, "lon": 28.9553628, "tags": {"amenity": "bank", "atm": "yes", "brand": "QNB Finansbank", "brand:wikidata": "Q1416237", "brand:wikipedia": "en:QNB Finansbank", "name": "QNB Finansbank"}}, {"type": "node", "id": 4296250019, "lat": 41.005804, "lon": 28.8705074, "tags": {"amenity": "bank", "atm": "yes", "brand": "TEB", "brand:wikidata": "Q7862447", "brand:wikipedia": "en:T\u00fcrk Ekonomi Bankas\u0131", "name": "TEB"}}, {"type": "node", "id": 4296250020, "lat": 41.0057334, "lon": 28.8703123, "tags": {"amenity": "bank", "atm": "yes", "brand": "HSBC", "brand:wikidata": "Q190464", "brand:wikipedia": "en:HSBC", "name": "HSBC"}}, {"type": "node", "id": 4303115694, "lat": 41.0366676, "lon": 28.8830351, "tags": {"amenity": "bank", "brand": "Ziraat Bankas\u0131", "brand:wikidata": "Q696003", "brand:wikipedia": "en:Ziraat Bankas\u0131", "name": "Ziraat Bankas\u0131"}}, {"type": "node", "id": 4330922795, "lat": 40.9932508, "lon": 28.8454925, "tags": {"amenity": "bank", "brand": "T\u00fcrkiye \u0130\u015f Bankas\u0131", "brand:wikidata": "Q909613", "brand:wikipedia": "en:T\u00fcrkiye \u0130\u015f Bankas\u0131", "name": "T\u00fcrkiye \u0130\u015f Bankas\u0131"}}, {"type": "node", "id": 4388338089, "lat": 41.0155663, "lon": 28.874619, "tags": {"amenity": "bank", "brand": "Halkbank", "brand:wikidata": "Q3593818", "brand:wikipedia": "en:Halkbank", "name": "Halkbank", "name:tr": "Halkbank"}}, {"type": "node", "id": 4391333593, "lat": 41.0054967, "lon": 28.8712116, "tags": {"amenity": "bank", "name": "T\u00fcrkiye Finans Kat\u0131l\u0131m", "name:tr": "T\u00fcrkiye Finans Kat\u0131l\u0131m"}}, {"type": "node", "id": 4406743003, "lat": 41.0043234, "lon": 28.9071565, "tags": {"amenity": "bank", "brand": "Akbank", "brand:wikidata": "Q416624", "brand:wikipedia": "tr:Akbank", "name": "Akbank", "name:tr": "Akbank"}}, {"type": "node", "id": 4406754991, "lat": 41.0027946, "lon": 28.9042212, "tags": {"amenity": "bank", "brand": "Denizbank", "brand:wikidata": "Q1115064", "brand:wikipedia": "en:DenizBank", "name": "Denizbank", "name:tr": "Denizbank"}}, {"type": "node", "id": 4423243391, "lat": 40.9869888, "lon": 28.9052781, "tags": {"amenity": "bank", "name:en": "Kabul bank"}}, {"type": "node", "id": 4430466696, "lat": 41.0042551, "lon": 28.859413, "tags": {"amenity": "bank", "brand": "QNB Finansbank", "brand:wikidata": "Q1416237", "brand:wikipedia": "en:Finansbank", "name": "QNB Finansbank", "name:tr": "Finansbank"}}, {"type": "node", "id": 4527947830, "lat": 41.0075227, "lon": 28.5388016, "tags": {"amenity": "bank", "atm": "yes", "name": "Vak\u0131fBank-Mimaroba \u015eubesi"}}, {"type": "node", "id": 4545618278, "lat": 41.0065677, "lon": 28.5403644, "tags": {"amenity": "bank", "atm": "yes", "name": "T\u00fcrkiye \u0130\u015f Bankas\u0131-Mimaroba \u015eubesi"}}, {"type": "node", "id": 4545622978, "lat": 41.0065283, "lon": 28.5404687, "tags": {"amenity": "bank", "atm": "yes", "name": "Yap\u0131 ve Kredi Bankas\u0131 -Mimaroba \u015eubesi"}}, {"type": "node", "id": 4545642008, "lat": 41.006826, "lon": 28.5389086, "tags": {"amenity": "bank", "atm": "yes", "name": "Garanti Bankas\u0131 -Mimaroba \u015eubesi"}}, {"type": "node", "id": 4545659555, "lat": 41.0084607, "lon": 28.5367476, "tags": {"amenity": "bank", "atm": "yes", "brand": "Ziraat Bankas\u0131", "brand:wikidata": "Q696003", "brand:wikipedia": "en:Ziraat Bankas\u0131", "name": "Ziraat Bankas\u0131"}}, {"type": "node", "id": 4546020307, "lat": 41.0075347, "lon": 28.538323, "tags": {"amenity": "bank", "atm": "yes", "name": "Akbank -Mimaroba"}}, {"type": "node", "id": 4549915309, "lat": 41.0333992, "lon": 28.8618029, "tags": {"amenity": "bank", "brand": "Ziraat Bankas\u0131", "brand:wikidata": "Q696003", "brand:wikipedia": "en:Ziraat Bank", "name": "Ziraat Bankas\u0131", "name:en": "Ziraat Bank", "opening_hours": "Mo-Fr 09:00-12:30, 13:30-17:30"}}, {"type": "node", "id": 4557189678, "lat": 41.0082589, "lon": 28.5364523, "tags": {"amenity": "bank", "atm": "yes", "brand": "Finansbank", "brand:wikidata": "Q1416237", "brand:wikipedia": "en:Finansbank", "name": "Finansbank"}}, {"type": "node", "id": 4557200248, "lat": 41.0077129, "lon": 28.5379912, "tags": {"amenity": "bank", "atm": "yes", "name": "HSBC Bank"}}, {"type": "node", "id": 4567267093, "lat": 41.0073946, "lon": 28.8694493, "tags": {"amenity": "bank", "brand": "Vak\u0131fbank", "brand:wikidata": "Q1148521", "brand:wikipedia": "en:Vak\u0131fBank", "name": "Vak\u0131fbank", "name:tr": "Vak\u0131fbank"}}, {"type": "node", "id": 4567267095, "lat": 41.0041074, "lon": 28.8666637, "tags": {"amenity": "bank", "brand": "Denizbank", "brand:wikidata": "Q1115064", "brand:wikipedia": "en:DenizBank", "name": "Denizbank", "name:tr": "Denizbank"}}, {"type": "node", "id": 4571967393, "lat": 41.0491593, "lon": 28.930945, "tags": {"amenity": "bank", "brand": "Ziraat Bankas\u0131", "brand:wikidata": "Q696003", "brand:wikipedia": "en:Ziraat Bank", "name": "Ziraat Bankas\u0131", "name:tr": "Ziraat Bankas\u0131"}}, {"type": "node", "id": 4571981001, "lat": 41.0483896, "lon": 28.9332847, "tags": {"amenity": "bank", "brand": "T\u00fcrkiye \u0130\u015f Bankas\u0131", "brand:wikidata": "Q909613", "brand:wikipedia": "en:\u0130\u015fbank", "name": "T\u00fcrkiye \u0130\u015f Bankas\u0131", "name:tr": "\u0130\u015f Bankas\u0131"}}, {"type": "node", "id": 4572011190, "lat": 41.0483332, "lon": 28.9321294, "tags": {"amenity": "bank", "brand": "Garanti Bankas\u0131", "brand:wikidata": "Q322962", "brand:wikipedia": "en:Garanti BBVA", "name": "Garanti Bankas\u0131", "name:tr": "Garanti Bankas\u0131"}}, {"type": "node", "id": 4585728989, "lat": 41.0224752, "lon": 28.5849345, "tags": {"amenity": "bank", "branch": "B\u00fcy\u00fck\u00e7ekmece \u015eubesi", "brand": "QNB Finansbank", "brand:wikidata": "Q1416237", "name": "QNB Finansbank", "name:en": "QNB Finansbank Buyukcekmece Branch", "opening_hours": "Mo-Fr 09:00-12:30, 13:30-18:00"}}, {"type": "node", "id": 4586743990, "lat": 41.0046772, "lon": 28.8712225, "tags": {"amenity": "bank", "brand": "QNB Finansbank", "brand:wikidata": "Q1416237", "brand:wikipedia": "en:Finansbank", "name": "QNB Finansbank", "name:tr": "Finansbank"}}, {"type": "node", "id": 4599578268, "lat": 40.9873666, "lon": 28.8724886, "tags": {"addr:city": "Bak\u0131rk\u00f6y/\u0130stanbul", "amenity": "bank", "atm": "yes", "name": "Garanti BBVA"}}, {"type": "node", "id": 4605322732, "lat": 40.9857981, "lon": 28.8721642, "tags": {"addr:city": "Bak\u0131rk\u00f6y/\u0130stanbul", "amenity": "bank", "atm": "yes", "brand": "T\u00fcrkiye \u0130\u015f Bankas\u0131", "brand:wikidata": "Q909613", "brand:wikipedia": "en:T\u00fcrkiye \u0130\u015f Bankas\u0131", "name": "T\u00fcrkiye \u0130\u015f Bankas\u0131"}}, {"type": "node", "id": 4605322734, "lat": 40.9855777, "lon": 28.872191, "tags": {"addr:city": "Bak\u0131rk\u00f6y/\u0130stanbul", "amenity": "bank", "atm": "yes", "brand": "Akbank", "brand:wikidata": "Q416624", "brand:wikipedia": "tr:Akbank", "name": "Akbank"}}, {"type": "node", "id": 4631487222, "lat": 41.0104621, "lon": 28.8553943, "tags": {"amenity": "bank", "brand": "TEB", "brand:wikidata": "Q7862447", "brand:wikipedia": "en:T\u00fcrk Ekonomi Bankas\u0131", "name": "TEB"}}, {"type": "node", "id": 4679475810, "lat": 40.9786629, "lon": 28.874249, "tags": {"amenity": "bank", "atm": "yes", "branch": "TR Istanbul", "brand": "Akbank", "brand:wikidata": "Q416624", "name": "Akbank"}}, {"type": "node", "id": 4679475828, "lat": 41.02131, "lon": 28.96041, "tags": {"amenity": "bank", "atm": "yes", "brand": "Akbank", "brand:wikidata": "Q416624", "brand:wikipedia": "tr:Akbank", "name": "Akbank", "phone": "+90 (212) 527-3254"}}, {"type": "node", "id": 4685810491, "lat": 40.996709, "lon": 28.886065, "tags": {"addr:country": "TR", "addr:district": "Bak\u0131rk\u00f6y", "addr:housename": "Marmara Forum Al\u0131\u015fveri\u015f Merkezi B Blok", "addr:housenumber": "40", "addr:neighbourhood": "Osmaniye Mah.", "addr:place": "Marmara Forum Al\u0131\u015fveri\u015f Merkezi B Blok", "addr:postcode": "34146", "addr:province": "\u0130stanbul", "amenity": "bank", "branch": "Leasing", "brand": "Yap\u0131 Kredi", "brand:wikidata": "Q8049138", "brand:wikipedia": "en:Yap\u0131 Kredi", "email": "info@ykleasing.com.tr", "name": "Yap\u0131 Kredi", "operator": "Yap\u0131 Kredi", "phone": "2126571091"}}, {"type": "node", "id": 4704383296, "lat": 40.9594402, "lon": 28.8230834, "tags": {"amenity": "bank", "name": "Garanti BBVA"}}, {"type": "node", "id": 4915317221, "lat": 40.9803256, "lon": 28.8744529, "tags": {"amenity": "bank", "brand": "Garanti Bankas\u0131", "brand:wikidata": "Q322962", "brand:wikipedia": "en:Garanti Bank", "name": "Garanti Bankas\u0131", "phone": "02124146230", "website": "http://www.garanti.com.tr"}}, {"type": "node", "id": 4950668927, "lat": 41.0330712, "lon": 28.8147769, "tags": {"addr:neighbourhood": "Evren Mahallesi", "addr:street": "G\u00fclbahar Cd.", "amenity": "bank", "atm": "yes", "brand": "T\u00fcrkiye \u0130\u015f Bankas\u0131", "brand:wikidata": "Q909613", "brand:wikipedia": "en:T\u00fcrkiye \u0130\u015f Bankas\u0131", "drive_through": "no", "name": "T\u00fcrkiye \u0130\u015f Bankas\u0131", "phone": "0 850 724 0 724", "website": "http://www.isbank.com.tr/"}}, {"type": "node", "id": 4963632763, "lat": 41.031842, "lon": 28.8149329, "tags": {"amenity": "bank", "name": "Vak\u0131f Pazarlama"}}, {"type": "node", "id": 4963632790, "lat": 41.031167, "lon": 28.815088, "tags": {"amenity": "bank", "name": "T.C. Ziraat Bankas\u0131"}}, {"type": "node", "id": 4963632791, "lat": 41.0316155, "lon": 28.8149949, "tags": {"amenity": "bank", "name": "T\u00fcrkiye Finans Katl\u0131m Bankas\u0131"}}, {"type": "node", "id": 4963632796, "lat": 41.031358, "lon": 28.814678, "tags": {"amenity": "bank", "brand": "Denizbank", "brand:wikidata": "Q1115064", "brand:wikipedia": "en:DenizBank", "name": "Denizbank"}}, {"type": "node", "id": 4963632797, "lat": 41.031306, "lon": 28.8146885, "tags": {"amenity": "bank", "name": "A&T Bank"}}, {"type": "node", "id": 4963632798, "lat": 41.0312505, "lon": 28.814699, "tags": {"amenity": "bank", "brand": "Akbank", "brand:wikidata": "Q416624", "brand:wikipedia": "tr:Akbank", "name": "Akbank"}}, {"type": "node", "id": 4965921051, "lat": 40.9920549, "lon": 28.9064086, "tags": {"amenity": "bank"}}, {"type": "node", "id": 4966093137, "lat": 41.0339929, "lon": 28.8113254}, {"type": "node", "id": 4966093138, "lat": 41.0340408, "lon": 28.8118554}, {"type": "node", "id": 4966093139, "lat": 41.0336269, "lon": 28.811921}, {"type": "node", "id": 4966093140, "lat": 41.0335791, "lon": 28.8113911}, {"type": "node", "id": 5018190131, "lat": 40.9923953, "lon": 28.8450497, "tags": {"amenity": "bank", "brand": "QNB Finansbank", "brand:wikidata": "Q1416237", "name": "QNB Finansbank"}}, {"type": "node", "id": 5024715487, "lat": 41.0163879, "lon": 28.9515476, "tags": {"amenity": "bank", "brand": "Ziraat Kat\u0131l\u0131m", "brand:wikidata": "Q20476458", "name": "Ziraat Kat\u0131l\u0131m", "website": "https://www.ziraatkatilim.com.tr/"}}, {"type": "node", "id": 5073094760, "lat": 41.0126625, "lon": 28.9481784, "tags": {"addr:city": "Istanbul", "addr:district": "Turkey", "addr:street": "ahmediye caddesi", "amenity": "bank", "brand": "T\u00fcrkiye \u0130\u015f Bankas\u0131", "brand:wikidata": "Q909613", "brand:wikipedia": "en:\u0130\u015fbank", "description": "\u064a\u062a\u0648\u0641\u0631 \u0635\u0631\u0627\u0641\u064a\u0646 \u0639\u0644\u0649 \u062c\u0627\u0646\u0628 \u0627\u0644\u0628\u0646\u0643 \u0623\u062d\u062f\u0647\u0645\u0627 \u064a\u0642\u062f\u0645 \u0627\u0644\u0639\u0645\u0644\u0627\u062a \u0627\u0644\u0623\u062c\u0646\u0628\u064a\u0629", "name": "T\u00fcrkiye \u0130\u015f Bankas\u0131", "name:ar": "\u0628\u0646\u0643 \u0627\u064a\u0634 \u062a\u0631\u0643\u064a\u0627", "opening_hours": "Mo-Sa 09:00-19:00", "phone": "02125324284"}}, {"type": "node", "id": 5075929027, "lat": 41.0124227, "lon": 28.9398879, "tags": {"addr:city": "Istanbul", "addr:district": "Fatih", "addr:street": "Turgut \u00d6zal Millet caddesi", "amenity": "bank", "name": "Kuveyttuek banka", "name:ar": "\u0628\u0646\u0643 \u0643\u0648\u064a\u062a \u062a\u0631\u0643", "opening_hours": "mo-sa 09:00-17:00", "phone": "02125238873"}}, {"type": "node", "id": 5075929031, "lat": 41.0117228, "lon": 28.9413411, "tags": {"addr:city": "Istanbul", "addr:district": "Fatih", "addr:street": "Turgut \u00d6zal Millet caddesi", "amenity": "bank", "name": "T\u00fcrkiye Finans", "opening_hours": "mo-sa 09:00-17:00", "phone": "02124912042"}}, {"type": "node", "id": 5081264719, "lat": 41.0131394, "lon": 28.939408, "tags": {"addr:city": "Istanbul", "addr:district": "Fatih", "addr:street": "O\u011fuzhan caddesi", "amenity": "bank", "brand": "ING", "brand:wikidata": "Q645708", "brand:wikipedia": "en:ING Group", "description": "ingbank.com.tr", "name": "ING", "name:ar": "\u0628\u0646\u0643 \u0627\u064a\u062c"}}, {"type": "node", "id": 5081274103, "lat": 41.0162007, "lon": 28.9512196, "tags": {"addr:city": "Istanbul", "addr:district": "Fatih", "addr:street": "Macar karde\u015fler Caddesi", "amenity": "bank", "branch": "banka", "brand": "Kuveyt T\u00fcrk", "brand:wikidata": "Q6036058", "name": "Kuveyt T\u00fcrk", "name:ar": "\u0628\u0646\u0643 \u0643\u0648\u064a\u062a \u062a\u0631\u0643", "opening_hours": "mo-sa 09:00-17:00", "phone": "02125232303"}}, {"type": "node", "id": 5081274107, "lat": 41.0165407, "lon": 28.9506295, "tags": {"addr:city": "Istanbul", "addr:district": "Fatih", "addr:street": "Macar karde\u015fler Caddesi", "amenity": "bank", "brand": "T\u00fcrkiye \u0130\u015f Bankas\u0131", "brand:wikidata": "Q909613", "brand:wikipedia": "en:T\u00fcrkiye \u0130\u015f Bankas\u0131", "name": "T\u00fcrkiye \u0130\u015f Bankas\u0131", "name:ar": "\u0628\u0646\u0643 \u0627\u064a\u0634 \u062a\u0631\u0643\u064a\u0627", "opening_hours": "mo-sa 09:00-17:00", "phone": "02124539200"}}, {"type": "node", "id": 5081274108, "lat": 41.0166176, "lon": 28.9504579, "tags": {"addr:city": "Istanbul", "addr:district": "Fatih", "addr:street": "Macar karde\u015fler Caddesi", "amenity": "bank", "brand": "Ziraat Bankas\u0131", "brand:wikidata": "Q696003", "brand:wikipedia": "en:Ziraat Bankas\u0131", "name": "Ziraat Bankas\u0131", "name:ar": "\u0628\u0646\u0643 \u0632\u0631\u0627\u0639\u0627\u062a", "opening_hours": "mo-sa 08:00-17:00", "phone": "02125243046"}}, {"type": "node", "id": 5081442480, "lat": 41.0215954, "lon": 28.959907, "tags": {"addr:city": "Istanbul", "addr:district": "Fatih", "addr:street": "Kadir Has Kav\u015fa\u011f\u0131", "amenity": "bank", "description": "Central Bank of the Republic of Turkey Istanbul Branch", "name": "T\u00fcrkiye Cumhuriyeti Merkez Bankas\u0131 \u0130stanbul \u015eubesi", "name:ar": "\u0645\u0631\u0643\u0632 \u0628\u0646\u0643 \u0627\u0644\u062c\u0645\u0647\u0648\u0631\u064a\u0629 \u0627\u0644\u062a\u0631\u0643\u064a\u0629 \u0634\u0639\u0628\u0629 \u0627\u0633\u0637\u0646\u0628\u0648\u0644", "name:en": "Central Bank of Turkey - Istanbul Branch", "operator": "Govermental"}}, {"type": "node", "id": 5088190887, "lat": 41.0042284, "lon": 28.9331284, "tags": {"addr:city": "Istanbul", "addr:district": "Fatih", "addr:street": "Kocamustafapa\u015fa Caddesi", "amenity": "bank", "brand": "Ziraat Bankas\u0131", "brand:wikidata": "Q696003", "brand:wikipedia": "en:Ziraat Bank", "name": "Ziraat Bankas\u0131", "name:ar": "\u0628\u0646\u0643 \u0632\u0631\u0627\u0639\u0627\u062a \u0641\u0631\u0639 \u0643\u0648\u062c\u0627 \u0645\u0635\u0637\u0641\u0649 \u0628\u0627\u0634\u0627", "phone": "02125851025"}}, {"type": "node", "id": 5088192737, "lat": 41.0007573, "lon": 28.9327215, "tags": {"addr:city": "Istanbul", "addr:district": "Fatih", "addr:street": "Abdurrahman Nafiz G\u00fcrman Caddesi", "amenity": "bank", "name": "mo-fr 9:00-18:00", "name:ar": "\u0628\u0646\u0643 \u0632\u0631\u0627\u0639\u0627\u062a\u060c \u0634\u0639\u0628\u0629 \u0633\u0645\u0627\u062a\u064a\u0627", "phone": "02125851020"}}, {"type": "node", "id": 5099060712, "lat": 41.0081754, "lon": 28.9513285, "tags": {"addr:city": "Istanbul", "addr:district": "Fatih", "addr:street": "\u0130nkilap caddesi", "amenity": "bank", "brand": "\u015eekerbank", "brand:wikidata": "Q6088369", "brand:wikipedia": "en:\u015eekerbank", "description": "Aksary branch", "name": "\u015eekerbank", "name:ar": "\u0634\u064a\u0643\u064a\u0631 \u0628\u0627\u0646\u0643"}}, {"type": "node", "id": 5099065426, "lat": 41.0079249, "lon": 28.950052, "tags": {"addr:city": "Istanbul", "addr:district": "Fatih", "addr:street": "Nam\u0131k kemal caddesi", "amenity": "bank", "name": "T\u00fcrkiye \u0130\u015f Bankas", "name:ar": "\u0625\u064a\u0634 \u0628\u0646\u0643", "phone": "(0212) 529 50 50"}}, {"type": "node", "id": 5103810815, "lat": 41.0169168, "lon": 28.9304971, "tags": {"addr:city": "Istanbul", "addr:district": "Fatih", "addr:street": "Turgut \u00f6zal millet caddesi", "amenity": "bank", "branch": "\u015fehremini \u015eubesi", "brand": "Ziraat Bankas\u0131", "brand:wikidata": "Q696003", "brand:wikipedia": "en:Ziraat Bank", "name": "Ziraat Bankas\u0131", "name:ar": "\u0628\u0646\u0643 \u0632\u0631\u0627\u0639\u0627\u062a"}}, {"type": "node", "id": 5104099079, "lat": 41.0272369, "lon": 28.8879922}, {"type": "node", "id": 5104099111, "lat": 41.0271176, "lon": 28.8878958}, {"type": "node", "id": 5104099115, "lat": 41.0271282, "lon": 28.887878}, {"type": "node", "id": 5105096923, "lat": 41.0265901, "lon": 28.8801542, "tags": {"amenity": "bank", "brand": "Halkbank", "brand:wikidata": "Q3593818", "brand:wikipedia": "en:Halkbank a.d.", "name": "Halkbank"}}, {"type": "node", "id": 5105096924, "lat": 41.0258848, "lon": 28.8803386, "tags": {"amenity": "bank", "brand": "Vak\u0131fbank", "brand:wikidata": "Q1148521", "brand:wikipedia": "en:Vak\u0131fBank", "name": "Vak\u0131fbank"}}, {"type": "node", "id": 5106111908, "lat": 41.0097115, "lon": 28.9549881, "tags": {"addr:city": "Istanbul", "addr:district": "Turkey", "addr:street": "Ordu Caddesi", "amenity": "bank", "brand": "Vak\u0131fbank", "brand:wikidata": "Q1148521", "brand:wikipedia": "en:Vak\u0131fBank", "name": "Vak\u0131fbank", "name:ar": "\u0648\u0642\u0641 \u0628\u0646\u0643", "opening_hours": "mo-fr 09:00-17:00", "operator": "Private bank"}}, {"type": "node", "id": 5106111909, "lat": 41.0097152, "lon": 28.9550427, "tags": {"addr:city": "Istanbul", "addr:district": "Turkey", "addr:street": "Ordu Caddesi", "amenity": "bank", "name": "AlBaraka bank", "name:ar": "\u0628\u0646\u0643 \u0627\u0644\u0628\u0631\u0643\u0629", "opening_hours": "mo-fr 09:00-17:00", "operator": "Private bank"}}, {"type": "node", "id": 5106112130, "lat": 41.0113548, "lon": 28.9537072, "tags": {"addr:city": "Istanbul", "addr:district": "Turkey", "addr:street": "Atat\u00fcrk Bulvar\u0131", "amenity": "bank", "brand": "Denizbank", "brand:wikidata": "Q1115064", "brand:wikipedia": "en:DenizBank", "name": "Denizbank", "name:ar": "\u062f\u064a\u0646\u064a\u0632 \u0628\u0646\u0643", "opening_hours": "mo-fr 09:00-17:00", "operator": "Private bank"}}, {"type": "node", "id": 5106118243, "lat": 41.0114588, "lon": 28.9560261, "tags": {"addr:city": "Istanbul", "addr:district": "Turkey", "addr:street": "A\u011fa Yoku\u015fu", "amenity": "bank", "brand": "T\u00fcrkiye \u0130\u015f Bankas\u0131", "brand:wikidata": "Q909613", "brand:wikipedia": "en:\u0130\u015fbank", "name": "T\u00fcrkiye \u0130\u015f Bankas\u0131", "name:ar": "\u0627\u064a\u0634 \u0628\u0646\u0643", "opening_hours": "mo-fr 09:00-17:00", "operator": "Private bank"}}, {"type": "node", "id": 5106118265, "lat": 41.0097697, "lon": 28.9542617, "tags": {"addr:city": "Istanbul", "addr:district": "Turkey", "addr:street": "Ordu Caddesi", "amenity": "bank", "brand": "TEB", "brand:wikidata": "Q7862447", "brand:wikipedia": "en:T\u00fcrk Ekonomi Bankas\u0131", "name": "TEB", "opening_hours": "mo-fr 09:00-17:00"}}, {"type": "node", "id": 5106118269, "lat": 41.0118717, "lon": 28.9559269, "tags": {"addr:city": "Istanbul", "addr:district": "Turkey", "addr:street": "Gen\u00e7t\u00fcrk Caddesi", "amenity": "bank", "brand": "Garanti Bankas\u0131", "brand:wikidata": "Q322962", "brand:wikipedia": "en:Garanti BBVA", "name": "Garanti Bankas\u0131", "name:ar": "\u0628\u0646\u0643 \u063a\u0631\u0627\u0646\u062a\u064a", "opening_hours": "mo-fr 09:00-17:00", "operator": "Private bank"}}, {"type": "node", "id": 5106123771, "lat": 41.0245746, "lon": 28.9413196, "tags": {"addr:city": "Istanbul", "addr:district": "Turkey", "addr:street": "Fevzi Pa\u015fa Caddesi", "amenity": "bank", "brand": "Vak\u0131fbank", "brand:wikidata": "Q1148521", "brand:wikipedia": "en:Vak\u0131fBank", "name": "Vak\u0131fbank", "name:ar": "\u0648\u0642\u0641 \u0628\u0646\u0643", "opening_hours": "mo-fr 09:00-17:00", "operator": "Private bank"}}, {"type": "node", "id": 5106123796, "lat": 41.0225956, "lon": 28.9441574, "tags": {"addr:city": "Istanbul", "addr:district": "Turkey", "addr:street": "Fevzi Pa\u015fa Caddesi", "amenity": "bank", "brand": "Akbank", "brand:wikidata": "Q416624", "brand:wikipedia": "tr:Akbank", "name": "Akbank", "name:ar": "\u0627\u0643 \u0628\u0646\u0643", "opening_hours": "09:00-17:30", "operator": "Private bank"}}, {"type": "node", "id": 5106124375, "lat": 41.01636, "lon": 28.9517161, "tags": {"addr:city": "Istanbul", "addr:district": "Fatih", "addr:street": "Macar Karde\u015fler Caddesi", "amenity": "bank", "brand": "Ziraat Bankas\u0131", "brand:wikidata": "Q696003", "brand:wikipedia": "en:Ziraat Bankas\u0131", "name": "Ziraat Bankas\u0131", "name:ar": "\u0628\u0646\u0643 \u0632\u0631\u0627\u0639\u0627\u062a", "opening_hours": "mo-sa 09:00-17:00", "phone": "02126218676"}}, {"type": "node", "id": 5106127797, "lat": 41.0264049, "lon": 28.947714, "tags": {"addr:city": "Istanbul", "addr:district": "Turkey", "addr:street": "Manyasizade Caddesi", "amenity": "bank", "brand": "Kuveyt T\u00fcrk", "brand:wikidata": "Q6036058", "name": "Kuveyt T\u00fcrk", "name:ar": "\u0628\u0646\u0643 \u0643\u0648\u064a\u062a \u062a\u0648\u0631\u0643", "opening_hours": "mo-fr 09:00-17:00"}}, {"type": "node", "id": 5106132765, "lat": 41.0149844, "lon": 28.9332622, "tags": {"addr:city": "Istanbul", "addr:district": "Turkey", "addr:street": "Turgut \u00d6zal Millet Caddesi", "amenity": "bank", "brand": "Yap\u0131 Kredi", "brand:wikidata": "Q8049138", "brand:wikipedia": "en:Yap\u0131 Kredi", "name": "Yap\u0131 Kredi", "name:ar": "\u064a\u0627\u0628\u064a\u0643\u0631\u064a\u062f\u064a \u0628\u0646\u0643", "opening_hours": "Mo-fr 09:00-17:00"}}, {"type": "node", "id": 5106132782, "lat": 41.016142, "lon": 28.9309569, "tags": {"addr:city": "Istanbul", "addr:district": "Turkey", "addr:street": "Turgut \u00d6zal Millet Caddesi", "amenity": "bank", "name": "AlBaraka bank", "name:ar": "\u0628\u0646\u0643 \u0627\u0644\u0628\u0631\u0643\u0629", "opening_hours": "Mo-fr 09:00-17:00"}}, {"type": "node", "id": 5106132783, "lat": 41.0162078, "lon": 28.9308281, "tags": {"addr:city": "Istanbul", "addr:district": "Turkey", "addr:street": "Turgut \u00d6zal Millet Caddesi", "amenity": "bank", "brand": "Akbank", "brand:wikidata": "Q416624", "brand:wikipedia": "tr:Akbank", "name": "Akbank", "name:ar": "\u0627\u0643 \u0628\u0646\u0643", "opening_hours": "Mo-fr 09:00-17:00"}}, {"type": "node", "id": 5106132784, "lat": 41.0162574, "lon": 28.9307463, "tags": {"addr:city": "Istanbul", "addr:district": "Turkey", "addr:street": "Turgut \u00d6zal Millet Caddesi", "amenity": "bank", "brand": "T\u00fcrkiye \u0130\u015f Bankas\u0131", "brand:wikidata": "Q909613", "brand:wikipedia": "en:\u0130\u015fbank", "name": "T\u00fcrkiye \u0130\u015f Bankas\u0131", "name:ar": "\u0627\u064a\u0634 \u0628\u0646\u0643", "opening_hours": "Mo-fr 09:00-17:00"}}, {"type": "node", "id": 5106132788, "lat": 41.016482, "lon": 28.930285, "tags": {"addr:city": "Istanbul", "addr:district": "Turkey", "addr:street": "Turgut \u00d6zal Millet Caddesi", "amenity": "bank", "brand": "Vak\u0131fbank", "brand:wikidata": "Q1148521", "brand:wikipedia": "en:Vak\u0131fBank", "name": "Vak\u0131fbank", "name:ar": "\u0648\u0642\u0641 \u0628\u0646\u0643", "opening_hours": "Mo-fr 09:00-17:00"}}, {"type": "node", "id": 5106133713, "lat": 41.0114021, "lon": 28.9316046, "tags": {"addr:city": "Istanbul", "addr:district": "Turkey", "addr:street": "Vezir Caddesi", "amenity": "bank", "brand": "T\u00fcrkiye \u0130\u015f Bankas\u0131", "brand:wikidata": "Q909613", "brand:wikipedia": "en:\u0130\u015fbank", "name": "T\u00fcrkiye \u0130\u015f Bankas\u0131", "name:ar": "\u0627\u064a\u0634 \u0628\u0646\u0643", "opening_hours": "Mo-fr 09:00-17:00"}}, {"type": "node", "id": 5109654690, "lat": 41.0146768, "lon": 28.9333588, "tags": {"addr:city": "Istanbul", "addr:district": "Turkey", "addr:street": "Ba\u015fvekil Caddesi", "amenity": "bank", "brand": "Halkbank", "brand:wikidata": "Q3593818", "brand:wikipedia": "en:Halkbank a.d.", "name": "Halkbank", "name:ar": "\u0647\u0644\u0643 \u0628\u0646\u0643", "opening_hours": "Mo-fr 09:00-17:00"}}, {"type": "node", "id": 5109654691, "lat": 41.0145695, "lon": 28.9332703, "tags": {"addr:city": "Istanbul", "addr:district": "Turkey", "addr:street": "Ba\u015fvekil Caddesi", "amenity": "bank", "brand": "Garanti Bankas\u0131", "brand:wikidata": "Q322962", "brand:wikipedia": "en:Garanti BBVA", "name": "Garanti Bankas\u0131", "name:ar": "\u0628\u0646\u0643 \u063a\u0631\u0627\u0646\u062a\u064a", "name:tr": "Garanti Bankas\u0131", "opening_hours": "Mo-fr 09:00-17:00"}}, {"type": "node", "id": 5109654692, "lat": 41.0143914, "lon": 28.9331013, "tags": {"addr:city": "Istanbul", "addr:district": "Turkey", "addr:street": "Ba\u015fvekil Caddesi", "amenity": "bank", "brand": "QNB Finansbank", "brand:wikidata": "Q1416237", "name": "QNB Finansbank", "name:ar": "\u0628\u0646\u0643 \u0641\u064a\u0646\u0627\u0646\u0633", "opening_hours": "Mo-fr 09:00-17:00"}}, {"type": "node", "id": 5109654695, "lat": 41.0141324, "lon": 28.9328653, "tags": {"addr:city": "Istanbul", "addr:district": "Turkey", "addr:street": "Ba\u015fvekil Caddesi", "amenity": "bank", "brand": "Ziraat Bankas\u0131", "brand:wikidata": "Q696003", "brand:wikipedia": "en:Ziraat Bank", "name": "Ziraat Bankas\u0131", "name:ar": "\u0632\u0631\u0627\u0639\u0627\u062a \u0628\u0646\u0643", "opening_hours": "Mo-fr 09:00-17:00"}}, {"type": "node", "id": 5110342130, "lat": 41.0204038, "lon": 28.9596776, "tags": {"addr:city": "Istanbul", "addr:district": "Turkey", "addr:street": "Atat\u00fcrk Bulvar\u0131", "amenity": "bank", "brand": "Ziraat Bankas\u0131", "brand:wikidata": "Q696003", "brand:wikipedia": "en:Ziraat Bank", "name": "Ziraat Bankas\u0131", "name:ar": "\u0632\u0631\u0627\u0639\u0629 \u0628\u0627\u0646\u0643\u0627\u0633\u064a", "name:en": "Ziraat Bank"}}, {"type": "node", "id": 5110342135, "lat": 41.017845, "lon": 28.9576581, "tags": {"addr:city": "Istanbul", "addr:district": "Turkey", "addr:street": "Atat\u00fcrk bulvar\u0131", "amenity": "bank", "brand": "Garanti Bankas\u0131", "brand:wikidata": "Q322962", "brand:wikipedia": "en:Garanti BBVA", "name": "Garanti Bankas\u0131", "name:ar": "\u063a\u0631\u0627\u0646\u062a\u064a \u0628\u0627\u0646\u0643\u0627\u0633\u064a"}}, {"type": "node", "id": 5110342136, "lat": 41.0176565, "lon": 28.9577986, "tags": {"addr:city": "Istanbul", "addr:district": "Turkey", "amenity": "bank", "name": "halk bankas\u0131", "name:ar": "\u0647\u0627\u0644\u0643 \u0628\u0627\u0646\u0643\u0627\u0633\u064a"}}, {"type": "node", "id": 5110342173, "lat": 41.0171944, "lon": 28.9575577, "tags": {"addr:city": "Istanbul", "addr:district": "Turkey", "addr:street": "Atat\u00fcrk bulvar\u0131", "amenity": "bank", "brand": "T\u00fcrkiye \u0130\u015f Bankas\u0131", "brand:wikidata": "Q909613", "brand:wikipedia": "en:T\u00fcrkiye \u0130\u015f Bankas\u0131", "name": "T\u00fcrkiye \u0130\u015f Bankas\u0131", "name:ar": "\u0627\u064a\u0634 \u0628\u0627\u0646\u0643\u0627\u0633\u064a"}}, {"type": "node", "id": 5110342174, "lat": 41.0173401, "lon": 28.9575791, "tags": {"addr:city": "Istanbul", "addr:district": "Turkey", "addr:street": "Atat\u00fcrk bulvar\u0131", "amenity": "bank", "brand": "Yap\u0131 Kredi", "brand:wikidata": "Q8049138", "brand:wikipedia": "en:Yap\u0131 Kredi", "name": "Yap\u0131 Kredi", "name:ar": "\u064a\u0627\u0628\u064a \u0643\u0631\u064a\u062f\u064a"}}, {"type": "node", "id": 5110342178, "lat": 41.0169515, "lon": 28.9568067, "tags": {"addr:city": "Istanbul", "addr:district": "Turkey", "addr:street": "Atat\u00fcrk bulvar\u0131", "amenity": "bank", "name": "Vak\u0131f bankas\u0131", "name:ar": "\u0648\u0642\u0641 \u0628\u0627\u0646\u0643"}}, {"type": "node", "id": 5111215744, "lat": 41.0040751, "lon": 28.9326131, "tags": {"addr:city": "Istanbul", "addr:district": "Fatih", "addr:street": "koca mustafapasa caddesi", "amenity": "bank", "name": "Albaraka Bank", "name:ar": "\u0627\u0644\u0628\u0631\u0643\u0629 \u0628\u0646\u0643"}}, {"type": "node", "id": 5111222097, "lat": 41.009277, "lon": 28.959446, "tags": {"addr:city": "Istanbul", "addr:district": "Fatih", "addr:street": "Ordu caddesi", "amenity": "bank", "brand": "Garanti Bankas\u0131", "brand:wikidata": "Q322962", "brand:wikipedia": "en:Garanti BBVA", "name": "Garanti Bankas\u0131", "name:ar": "\u062c\u0627\u0631\u0627\u0646\u062a\u064a \u0628\u0646\u0643"}}, {"type": "node", "id": 5111222098, "lat": 41.0094875, "lon": 28.958931, "tags": {"addr:city": "Istanbul", "addr:district": "Fatih", "addr:street": "Ordu caddesi", "amenity": "bank", "brand": "T\u00fcrkiye \u0130\u015f Bankas\u0131", "brand:wikidata": "Q909613", "brand:wikipedia": "en:\u0130\u015fbank", "name": "T\u00fcrkiye \u0130\u015f Bankas\u0131", "name:ar": "\u0627\u0634 \u0628\u0627\u0646\u0643\u0627\u0633\u064a"}}, {"type": "node", "id": 5111222103, "lat": 41.0095684, "lon": 28.9581156, "tags": {"addr:city": "Istanbul", "addr:district": "Fatih", "addr:street": "Ordu caddesi", "amenity": "bank", "brand": "Denizbank", "brand:wikidata": "Q1115064", "brand:wikipedia": "en:DenizBank", "name": "Denizbank"}}, {"type": "node", "id": 5111222110, "lat": 41.0088884, "lon": 28.9593387, "tags": {"addr:city": "Istanbul", "addr:district": "Fatih", "addr:street": "Koca peceppasa sokak", "amenity": "bank", "brand": "Akbank", "brand:wikidata": "Q416624", "brand:wikipedia": "tr:Akbank", "name": "Akbank", "name:ar": "\u0627\u0643\u0628\u0646\u0643"}}, {"type": "node", "id": 5111222119, "lat": 41.0081111, "lon": 28.9576864, "tags": {"addr:city": "Istanbul", "addr:district": "Fatih", "addr:street": "Mesihpasa caddesi", "amenity": "bank", "name": "Tep", "name:ar": "\u062a\u064a\u0628"}}, {"type": "node", "id": 5112728848, "lat": 41.0116002, "lon": 28.9579083, "tags": {"addr:city": "Istanbul", "addr:district": "Fatih", "addr:street": "Vidinli Tevfik Pa\u015fa Caddesi", "amenity": "bank", "brand": "Denizbank", "brand:wikidata": "Q1115064", "brand:wikipedia": "en:DenizBank", "name": "Denizbank", "name:ar": "\u062f\u064a\u0646\u064a\u0632 \u0628\u0646\u0643"}}, {"type": "node", "id": 5112732280, "lat": 41.009731, "lon": 28.9582925, "tags": {"addr:city": "Istanbul", "addr:district": "Fatih", "addr:street": "Ordu Caddesi", "amenity": "bank", "brand": "Yap\u0131 Kredi", "brand:wikidata": "Q8049138", "brand:wikipedia": "en:Yap\u0131 Kredi", "name": "Yap\u0131 Kredi"}}, {"type": "node", "id": 5112732283, "lat": 41.0097392, "lon": 28.957963, "tags": {"addr:city": "Istanbul", "addr:district": "Fatih", "addr:street": "Ordu Caddesi", "amenity": "bank", "brand": "Kuveyt T\u00fcrk", "brand:wikidata": "Q6036058", "brand:wikipedia": "tr:Kuveyt T\u00fcrk", "name": "Kuveyt T\u00fcrk"}}, {"type": "node", "id": 5112834076, "lat": 41.0081836, "lon": 28.9530412, "tags": {"addr:city": "Istanbul", "addr:district": "Fatih", "addr:street": "\u0130nkilap caddesi", "amenity": "bank", "brand": "Vak\u0131fbank", "brand:wikidata": "Q1148521", "brand:wikipedia": "en:Vak\u0131fBank", "name": "Vak\u0131fbank", "name:ar": "\u0645\u0635\u0631\u0641 \u0648\u0642\u0641"}}, {"type": "node", "id": 5112834077, "lat": 41.008318, "lon": 28.9531525, "tags": {"addr:city": "Istanbul", "addr:district": "Fatih", "addr:street": "Gazi kemalpa\u015fa caddesi", "amenity": "bank", "brand": "Garanti Bankas\u0131", "brand:wikidata": "Q322962", "brand:wikipedia": "en:Garanti BBVA", "name": "Garanti Bankas\u0131", "name:ar": "\u0645\u0635\u0631\u0641 \u063a\u0627\u0631\u0627\u0646\u062a\u064a"}}, {"type": "node", "id": 5112834088, "lat": 41.0089081, "lon": 28.9529864, "tags": {"addr:city": "Istanbul", "addr:district": "Fatih", "addr:street": "Tecedd\u00fct soka\u011f\u0131", "amenity": "bank", "brand": "Vak\u0131fbank", "brand:wikidata": "Q1148521", "brand:wikipedia": "en:Vak\u0131fBank", "name": "Vak\u0131fbank", "name:ar": "\u0645\u0635\u0631\u0641 \u0648\u0642\u0641"}}, {"type": "node", "id": 5112834105, "lat": 41.008974, "lon": 28.9523255, "tags": {"addr:city": "Istanbul", "addr:district": "Fatih", "addr:street": "Tecedd\u00fct soka\u011f\u0131", "amenity": "bank", "brand": "ING", "brand:wikidata": "Q645708", "brand:wikipedia": "en:ING Group", "name": "ING", "name:ar": "\u0628\u0646\u0643 \u0622\u064a \u0627\u0646 \u062c\u064a"}}, {"type": "node", "id": 5112834106, "lat": 41.0089831, "lon": 28.9520302, "tags": {"addr:city": "Istanbul", "addr:district": "Fatih", "addr:street": "Tecedd\u00fct soka\u011f\u0131", "amenity": "bank", "brand": "Yap\u0131 Kredi", "brand:wikidata": "Q8049138", "brand:wikipedia": "en:Yap\u0131 Kredi", "name": "Yap\u0131 Kredi", "name:ar": "\u0645\u0635\u0631\u0641 \u064a\u0627\u0628\u064a \u0643\u0631\u064a\u062f\u064a"}}, {"type": "node", "id": 5112834107, "lat": 41.0089918, "lon": 28.9517898, "tags": {"addr:city": "Istanbul", "addr:district": "Fatih", "addr:street": "Tecedd\u00fct soka\u011f\u0131", "amenity": "bank", "brand": "QNB Finansbank", "brand:wikidata": "Q1416237", "name": "QNB Finansbank", "name:ar": "\u0628\u0646\u0643 \u0628\u0642\u0637\u0631 \u0627\u0644\u0648\u0637\u0646\u064a \u0641\u064a\u0646\u0627\u0646\u0633 \u0628\u0627\u0646\u0643"}}, {"type": "node", "id": 5113126638, "lat": 41.00396, "lon": 28.9317347, "tags": {"addr:city": "Istanbul", "addr:district": "Fatih", "addr:street": "Kuvayi Milliye Caddesi", "amenity": "bank", "brand": "Denizbank", "brand:wikidata": "Q1115064", "brand:wikipedia": "en:DenizBank", "name": "Denizbank", "name:ar": "\u062f\u064a\u0646\u064a\u0632 \u0628\u0627\u0646\u0643", "operator": "private"}}, {"type": "node", "id": 5113126641, "lat": 41.0040166, "lon": 28.9316992, "tags": {"addr:city": "Istanbul", "addr:district": "Fatih", "addr:street": "Kuvayi Milliye Caddesi", "amenity": "bank", "brand": "Kuveyt T\u00fcrk", "brand:wikidata": "Q6036058", "brand:wikipedia": "tr:Kuveyt T\u00fcrk", "name": "Kuveyt T\u00fcrk", "name:ar": "\u0643\u0648\u064a\u062a \u062a\u0648\u0631\u0643", "operator": "private"}}, {"type": "node", "id": 5113126650, "lat": 41.0042859, "lon": 28.9317086, "tags": {"addr:city": "Istanbul", "addr:district": "Fatih", "addr:street": "Kuvayi Milliye Caddesi", "amenity": "bank", "brand": "Akbank", "brand:wikidata": "Q416624", "brand:wikipedia": "tr:Akbank", "name": "Akbank", "name:ar": "\u0622\u0643 \u0628\u0627\u0646\u0643", "operator": "private"}}, {"type": "node", "id": 5113127736, "lat": 41.0041353, "lon": 28.9311517, "tags": {"addr:city": "Istanbul", "addr:district": "Fatih", "addr:street": "Kuvayi Milliye Caddesi", "amenity": "bank", "branch": "Kocamustafapa\u015fa \u015eubesi", "brand": "Garanti Bankas\u0131", "brand:wikidata": "Q322962", "brand:wikipedia": "en:Garanti BBVA", "name": "Garanti Bankas\u0131", "name:ar": "\u063a\u0627\u0631\u0627\u0646\u062a\u064a \u0628\u0627\u0646\u0643", "operator": "private"}}, {"type": "node", "id": 5113128025, "lat": 41.0082468, "lon": 28.9566145, "tags": {"addr:city": "Istanbul", "addr:district": "Fatih", "addr:street": "Mesihpa\u015fa Caddesi", "amenity": "bank", "brand": "Garanti Bankas\u0131", "brand:wikidata": "Q322962", "brand:wikipedia": "en:Garanti BBVA", "name": "Garanti Bankas\u0131", "name:ar": "\u063a\u0627\u0631\u0627\u0646\u062a\u064a \u0628\u0627\u0646\u0643", "operator": "private"}}, {"type": "node", "id": 5113128091, "lat": 41.0093849, "lon": 28.9554261, "tags": {"addr:city": "Istanbul", "addr:district": "Fatih", "addr:street": "Ordu Caddesi", "amenity": "bank", "branch": "QNB", "brand": "QNB Finansbank", "brand:wikidata": "Q1416237", "brand:wikipedia": "en:QNB Finansbank", "name": "QNB Finansbank", "operator": "private"}}, {"type": "node", "id": 5113128097, "lat": 41.0093336, "lon": 28.9548306, "tags": {"addr:city": "Istanbul", "addr:district": "Fatih", "addr:street": "Ordu Caddesi", "amenity": "bank", "brand": "Vak\u0131fbank", "brand:wikidata": "Q1148521", "brand:wikipedia": "en:Vak\u0131fBank", "name": "Vak\u0131fbank", "name:ar": "\u0648\u0643\u0641 \u0628\u0627\u0646\u0643", "operator": "Govermental"}}, {"type": "node", "id": 5113128104, "lat": 41.0093758, "lon": 28.9543269, "tags": {"addr:city": "Istanbul", "addr:district": "Fatih", "addr:street": "Ordu Caddesi", "amenity": "bank", "brand": "Fibabanka", "brand:wikidata": "Q5446343", "brand:wikipedia": "en:Fibabanka", "name": "Fibabanka", "name:ar": "\u0641\u064a\u0628\u0627 \u0628\u0627\u0646\u0643", "operator": "private"}}, {"type": "node", "id": 5113128221, "lat": 41.0090197, "lon": 28.9537943, "tags": {"addr:city": "Istanbul", "addr:district": "Fatih", "addr:street": "Gazi Mustafa Kemal Pa\u015fa Caddesi", "amenity": "bank", "name": "T\u00fcrkiye Finans Kat\u0131l\u0131m Bankas\u0131", "name:ar": "\u062a\u0648\u0631\u0643\u064a\u0627 \u0641\u064a\u0646\u0627\u0646\u0633 \u0643\u0627\u062a\u064a\u0644\u064a\u0645 \u0628\u0627\u0646\u0643", "operator": "Govermental"}}, {"type": "node", "id": 5113128222, "lat": 41.008802, "lon": 28.953783, "tags": {"addr:city": "Istanbul", "addr:district": "Fatih", "addr:street": "Gazi Mustafa Kemal Pa\u015fa Caddesi", "amenity": "bank", "brand": "Akbank", "brand:wikidata": "Q416624", "brand:wikipedia": "tr:Akbank", "name": "Akbank", "name:ar": "\u0622\u0643 \u0628\u0627\u0646\u0643", "operator": "private"}}, {"type": "node", "id": 5113128224, "lat": 41.0085831, "lon": 28.9537134, "tags": {"addr:city": "Istanbul", "addr:district": "Fatih", "addr:street": "Gazi Mustafa Kemal Pa\u015fa Caddesi", "amenity": "bank", "brand": "T\u00fcrkiye \u0130\u015f Bankas\u0131", "brand:wikidata": "Q909613", "brand:wikipedia": "en:\u0130\u015fbank", "name": "T\u00fcrkiye \u0130\u015f Bankas\u0131", "name:ar": "\u062a\u0648\u0631\u0643\u064a\u0627 \u0627\u064a\u0634 \u0628\u0627\u0646\u0643", "operator": "Govermental"}}, {"type": "node", "id": 5113128225, "lat": 41.00864, "lon": 28.9537115, "tags": {"addr:city": "Istanbul", "addr:district": "Fatih", "addr:street": "Gazi Mustafa Kemal Pa\u015fa Caddesi", "amenity": "bank", "branch": "\u0130stanbul Aksaray \u015eubesi", "brand": "Halkbank", "brand:wikidata": "Q3593818", "brand:wikipedia": "en:Halkbank a.d.", "name": "Halkbank", "name:ar": "\u0647\u0627\u0644\u0643 \u0628\u0627\u0646\u0643 \u0634\u0639\u0628\u0629 \u0627\u0643\u0633\u0627\u0631\u0627\u064a", "operator": "Govermental"}}, {"type": "node", "id": 5113486760, "lat": 41.0273286, "lon": 28.9383705, "tags": {"addr:city": "Istanbul", "addr:district": "Fatih", "addr:street": "Fevzi pa\u015fa caddesi", "amenity": "bank", "brand": "Garanti Bankas\u0131", "brand:wikidata": "Q322962", "brand:wikipedia": "en:Garanti BBVA", "name": "Garanti Bankas\u0131", "name:ar": "\u062c\u0631\u0627\u0646\u062a\u064a"}}, {"type": "node", "id": 5113486765, "lat": 41.0272085, "lon": 28.9385401, "tags": {"addr:city": "Istanbul", "addr:district": "Fatih", "addr:street": "Fevzi pa\u015fa caddesi", "amenity": "bank", "brand": "Ziraat Bankas\u0131", "brand:wikidata": "Q696003", "brand:wikipedia": "en:Ziraat Bank", "name": "Ziraat Bankas\u0131", "name:ar": "\u0632\u0631\u0627\u0639\u062a \u0628\u0627\u0646\u0643\u0627\u0633\u0649"}}, {"type": "node", "id": 5113486782, "lat": 41.0259177, "lon": 28.9398053, "tags": {"addr:city": "Istanbul", "addr:district": "Fatih", "addr:street": "Fevzi pa\u015fa caddesi", "amenity": "bank", "brand": "Yap\u0131 Kredi", "brand:wikidata": "Q8049138", "brand:wikipedia": "en:Yap\u0131 Kredi", "name": "Yap\u0131 Kredi", "name:ar": "\u0628\u0646\u0643 \u064a\u0627\u0628\u0649 \u0643\u0631\u064a\u062f\u064a"}}, {"type": "node", "id": 5113487681, "lat": 41.0231664, "lon": 28.9322276, "tags": {"addr:city": "Istanbul", "addr:district": "Fatih", "addr:street": "Kaleboyu caddesi", "amenity": "bank", "brand": "Halkbank", "brand:wikidata": "Q3593818", "brand:wikipedia": "en:Halkbank a.d.", "name": "Halkbank", "name:ar": "\u0647\u0627\u0644\u0643 \u0628\u0627\u0646\u0643"}}, {"type": "node", "id": 5113495959, "lat": 41.0256861, "lon": 28.9389321, "tags": {"addr:city": "Istanbul", "addr:district": "Fatih", "addr:street": "Prof. naci \u015fensoy caddesi", "amenity": "bank", "brand": "Kuveyt T\u00fcrk", "brand:wikidata": "Q6036058", "brand:wikipedia": "tr:Kuveyt T\u00fcrk", "name": "Kuveyt T\u00fcrk", "name:ar": "\u0643\u0648\u064a\u062a \u062a\u0631\u0643"}}, {"type": "node", "id": 5113500734, "lat": 41.0221095, "lon": 28.9453408, "tags": {"addr:city": "Istanbul", "addr:district": "Turkey", "addr:street": "Fevzi pa\u015fa caddesi", "amenity": "bank", "brand": "T\u00fcrkiye \u0130\u015f Bankas\u0131", "brand:wikidata": "Q909613", "brand:wikipedia": "en:\u0130\u015fbank", "name": "T\u00fcrkiye \u0130\u015f Bankas\u0131", "name:ar": "\u0628\u0646\u0643 \u0627\u064a\u0634", "opening_hours": "Mo-Fr 09:00-17:00"}}, {"type": "node", "id": 5113500740, "lat": 41.0216762, "lon": 28.9457716, "tags": {"addr:city": "\u0130stanbul", "addr:district": "Fatih", "addr:neighbourhood": "Ali Ku\u015f\u00e7u Mahallesi", "addr:postcode": "34083", "addr:street": "Fevzi Pa\u015fa Caddesi", "amenity": "bank", "brand": "ING", "brand:wikidata": "Q645708", "brand:wikipedia": "en:ING Group", "name": "ING", "opening_hours": "Mo-Fr 09:00-17:00"}}, {"type": "node", "id": 5113500741, "lat": 41.0216328, "lon": 28.945829, "tags": {"addr:city": "Istanbul", "addr:district": "Turkey", "addr:street": "Fevzi pa\u015fa caddesi", "amenity": "bank", "brand": "Garanti Bankas\u0131", "brand:wikidata": "Q322962", "brand:wikipedia": "en:Garanti BBVA", "name": "Garanti Bankas\u0131", "name:ar": "\u0643\u0631\u0627\u0646\u062a\u064a", "opening_hours": "Mo-Fr 09:00-17:00"}}, {"type": "node", "id": 5113500743, "lat": 41.0215617, "lon": 28.9459629, "tags": {"addr:city": "Istanbul", "addr:district": "Turkey", "addr:street": "Fevzi pa\u015fa caddesi", "amenity": "bank", "name": "Albaraka", "name:ar": "\u0627\u0644\u0628\u0631\u0643\u0629", "phone": "08502225666"}}, {"type": "node", "id": 5113500754, "lat": 41.020997, "lon": 28.9464407, "tags": {"addr:city": "Istanbul", "addr:district": "Turkey", "addr:street": "Fevzi pa\u015fa caddesi", "amenity": "bank", "brand": "Kuveyt T\u00fcrk", "brand:wikidata": "Q6036058", "brand:wikipedia": "tr:Kuveyt T\u00fcrk", "name": "Kuveyt T\u00fcrk", "name:ar": "\u0628\u0646\u0643 \u0643\u0648\u064a\u062a \u062a\u0631\u0643", "phone": "4440123"}}, {"type": "node", "id": 5113500793, "lat": 41.0173176, "lon": 28.9501285, "tags": {"addr:city": "Istanbul", "addr:district": "Fatih", "amenity": "bank", "name": "T\u00fcrkiye Finans", "name:ar": "\u062a\u0631\u0643\u064a\u0627 \u0641\u064a\u0646\u0627\u0646\u0633", "opening_hours": "Mo-Fr 09:00-17:00", "phone": "08502222244"}}, {"type": "node", "id": 5113500794, "lat": 41.0171618, "lon": 28.9503221, "tags": {"addr:city": "Istanbul", "addr:district": "Fatih", "addr:street": "Fevzi Pa\u015fa Caddesi", "amenity": "bank", "brand": "Vak\u0131f Kat\u0131l\u0131m", "brand:wikidata": "Q31188912", "brand:wikipedia": "tr:Vak\u0131f Kat\u0131l\u0131m Bankas\u0131", "name": "Vak\u0131f Kat\u0131l\u0131m", "name:ar": "\u0648\u0642\u0641 \u0643\u0627\u062a\u064a\u0644\u064a\u0645", "opening_hours": "Mo-Fr 09:00-17:00"}}, {"type": "node", "id": 5113500797, "lat": 41.0169671, "lon": 28.9506319, "tags": {"addr:city": "Istanbul", "addr:district": "Turkey", "addr:street": "Macar karde\u015fler caddesi", "amenity": "bank", "brand": "Vak\u0131fbank", "brand:wikidata": "Q1148521", "brand:wikipedia": "en:Vak\u0131fBank", "name": "Vak\u0131fbank", "name:ar": "\u0648\u0642\u0641 \u0628\u0646\u0643", "opening_hours": "Mo-Fr 09:00-17:00", "phone": "4440724"}}, {"type": "node", "id": 5113500800, "lat": 41.0168582, "lon": 28.9508265, "tags": {"addr:city": "Istanbul", "addr:district": "Turkey", "addr:street": "Macar karde\u015fler caddesi", "amenity": "bank", "brand": "Akbank", "brand:wikidata": "Q416624", "brand:wikipedia": "tr:Akbank", "name": "Akbank", "name:ar": "\u0627\u0643 \u0628\u0627\u0646\u0643", "opening_hours": "Mo-Fr 09:00-17:00"}}, {"type": "node", "id": 5113500801, "lat": 41.0168058, "lon": 28.9509058, "tags": {"addr:city": "Istanbul", "addr:district": "Turkey", "addr:street": "Macar karde\u015fler caddesi", "amenity": "bank", "branch": "bankas\u0131", "brand": "TEB", "brand:wikidata": "Q7862447", "name": "TEB", "name:ar": "\u0628\u0646\u0643 \u062a\u064a\u0628", "opening_hours": "Mo-Fr 09:00-17:00", "phone": "08502000666"}}, {"type": "node", "id": 5113500804, "lat": 41.0166925, "lon": 28.9511418, "tags": {"addr:city": "Istanbul", "addr:district": "Turkey", "addr:street": "Macar karde\u015fler caddesi", "amenity": "bank", "name": "Albaraka bankasi", "name:ar": "\u0628\u0646\u0643 \u0627\u0644\u0628\u0631\u0643\u0629", "opening_hours": "Mo-Fr 09:00-17:00", "phone": "08502225666"}}, {"type": "node", "id": 5113500805, "lat": 41.0166287, "lon": 28.9512464, "tags": {"addr:city": "Istanbul", "addr:district": "Turkey", "addr:street": "Macar karde\u015fler caddesi", "amenity": "bank", "branch": "bankas\u0131", "brand": "Yap\u0131 Kredi", "brand:wikidata": "Q8049138", "name": "Yap\u0131 Kredi", "name:ar": "\u0628\u0646\u0643 \u064a\u0627\u0628\u0649 \u0643\u0631\u064a\u062f\u064a", "opening_hours": "Mo-Fr 09:00-17:00", "phone": "+90-850-222-0444"}}, {"type": "node", "id": 5113557365, "lat": 41.009913, "lon": 28.9459322, "tags": {"addr:city": "Istanbul", "addr:district": "Fatih", "addr:street": "Turgut \u00f6zal millet Caddesi", "amenity": "bank", "brand": "Kuveyt T\u00fcrk", "brand:wikidata": "Q6036058", "name": "Kuveyt T\u00fcrk", "opening_hours": "09:00-17:30"}}, {"type": "node", "id": 5113557366, "lat": 41.0098752, "lon": 28.9460699, "tags": {"addr:city": "Istanbul", "addr:district": "Fatih", "addr:street": "Turgut \u00f6zal millet Caddesi", "amenity": "bank", "brand": "Garanti Bankas\u0131", "brand:wikidata": "Q322962", "brand:wikipedia": "en:Garanti BBVA", "name": "Garanti BBVA", "name:ar": "\u063a\u0631\u0627\u0646\u062a\u064a"}}, {"type": "node", "id": 5113557380, "lat": 41.0095163, "lon": 28.9476184, "tags": {"addr:city": "Istanbul", "addr:district": "Fatih", "addr:street": "Turgut \u00f6zal millet Caddesi", "amenity": "bank", "brand": "Vak\u0131fbank", "brand:wikidata": "Q1148521", "brand:wikipedia": "en:Vak\u0131fBank", "name": "Vak\u0131fbank", "name:ar": "\u0628\u0646\u0643 \u0648\u0642\u0641", "opening_hours": "09:00-17:30"}}, {"type": "node", "id": 5113557381, "lat": 41.009326, "lon": 28.9482213, "tags": {"addr:city": "Istanbul", "addr:district": "Fatih", "addr:street": "Turgut \u00f6zal millet Caddesi", "amenity": "bank", "branch": "genel m\u00fcd\u00fcrl\u00fck", "brand": "Ziraat Bankas\u0131", "brand:wikidata": "Q696003", "brand:wikipedia": "en:Ziraat Bank", "name": "Ziraat Bankas\u0131", "name:ar": "\u0628\u0646\u0643 \u0632\u0631\u0627\u0639\u0629", "opening_hours": "09:00-17:30"}}, {"type": "node", "id": 5113557382, "lat": 41.0093452, "lon": 28.948544, "tags": {"addr:city": "Istanbul", "addr:district": "Fatih", "addr:street": "Turgut \u00f6zal millet Caddesi", "amenity": "bank", "brand": "Ziraat Bankas\u0131", "brand:wikidata": "Q696003", "brand:wikipedia": "en:Ziraat Bankas\u0131", "name": "Ziraat Bankas\u0131", "name:ar": "\u0628\u0646\u0643 \u0632\u0631\u0627\u0639\u0629", "opening_hours": "09:00-17:30"}}, {"type": "node", "id": 5113592172, "lat": 41.0111954, "lon": 28.9387589, "tags": {"addr:city": "Istanbul", "addr:district": "Turkey", "addr:street": "KIZILELMA CADDES\u0130", "amenity": "bank", "name": "TEB t\u00fcrk ekonomi bankas\u0131", "name:ar": "TEB \u0628\u0646\u0643 \u062a\u0631\u0643\u064a\u0627 \u0627\u0644\u0627\u0642\u062a\u0635\u0627\u062f\u064a", "opening_hours": "09:00-17:00"}}, {"type": "node", "id": 5113592173, "lat": 41.011245, "lon": 28.9387831, "tags": {"addr:city": "Istanbul", "addr:district": "Turkey", "addr:street": "KIZILELMA CADDES\u0130", "amenity": "bank", "brand": "QNB Finansbank", "brand:wikidata": "Q1416237", "brand:wikipedia": "en:QNB Finansbank", "name": "QNB Finansbank", "name:ar": "QNB \u0641\u064a\u0646\u0627\u0646\u0633", "opening_hours": "09:00-17:00"}}, {"type": "node", "id": 5113592175, "lat": 41.0113662, "lon": 28.938856, "tags": {"addr:city": "Istanbul", "addr:district": "Turkey", "addr:street": "KIZILELMA CADDES\u0130", "amenity": "bank", "brand": "Ziraat Bankas\u0131", "brand:wikidata": "Q696003", "brand:wikipedia": "en:Ziraat Bank", "name": "Ziraat Bankas\u0131", "name:ar": "\u0628\u0646\u0643 \u0632\u0631\u0627\u0639\u0629", "opening_hours": "09:00-17:30"}}, {"type": "node", "id": 5113592176, "lat": 41.0114233, "lon": 28.9388886, "tags": {"addr:city": "Istanbul", "addr:district": "Turkey", "addr:street": "KIZILELMA CADDES\u0130", "amenity": "bank", "brand": "Garanti Bankas\u0131", "brand:wikidata": "Q322962", "brand:wikipedia": "en:Garanti BBVA", "name": "Garanti Bankas\u0131", "name:ar": "\u063a\u0631\u0627\u0646\u062a\u064a"}}, {"type": "node", "id": 5113592181, "lat": 41.0124922, "lon": 28.9379744, "tags": {"addr:city": "Istanbul", "addr:district": "Turkey", "addr:street": "KIZILELMA CADDES\u0130", "amenity": "bank", "name": "Albaraka", "name:ar": "\u0627\u0644\u0628\u0631\u0643\u0629", "opening_hours": "09:00-17:00"}}, {"type": "node", "id": 5113609512, "lat": 41.025946, "lon": 28.9402401, "tags": {"addr:city": "Istanbul", "addr:district": "Fatih", "addr:street": "Fevzi pa\u015fa Caddesi", "amenity": "bank", "brand": "T\u00fcrkiye \u0130\u015f Bankas\u0131", "brand:wikidata": "Q909613", "brand:wikipedia": "en:\u0130\u015fbank", "name": "T\u00fcrkiye \u0130\u015f Bankas\u0131", "name:ar": "\u0628\u0646\u0643 \u0627\u064a\u0634"}}, {"type": "node", "id": 5115933196, "lat": 41.003237, "lon": 28.9301605, "tags": {"addr:city": "Istanbul", "addr:district": "Fatih", "addr:street": "Kocamustafapa\u015fa Caddesi", "amenity": "bank", "brand": "Yap\u0131 Kredi", "brand:wikidata": "Q8049138", "brand:wikipedia": "en:Yap\u0131 Kredi", "name": "Yap\u0131 Kredi", "name:ar": "\u0628\u0646\u0643 \u064a\u0627\u0628\u064a \u0643\u0631\u064a\u062f\u064a", "phone": "02125309930"}}, {"type": "node", "id": 5115933928, "lat": 41.0041949, "lon": 28.9330084, "tags": {"addr:city": "Istanbul", "addr:district": "Fatih", "addr:street": "Kocamustafapa\u015fa Caddesi", "amenity": "bank", "name": "mo-fr 9:00-17:00", "name:ar": "\u0625\u0634 \u0628\u0627\u0646\u0643", "phone": "02125855016"}}, {"type": "node", "id": 5115937338, "lat": 41.0072083, "lon": 28.931354, "tags": {"addr:city": "Istanbul", "addr:district": "Fatih", "addr:street": "Hekimo\u011flu Alipa\u015fa Caddesi", "amenity": "bank", "brand": "QNB Finansbank", "brand:wikidata": "Q1416237", "brand:wikipedia": "en:Finansbank", "name": "QNB Finansbank", "name:ar": "\u0628\u0646\u0643 \u0641\u064a\u0646\u0627\u0646\u0633 \u0628\u0627\u0646\u0643"}}, {"type": "node", "id": 5115938138, "lat": 41.0079117, "lon": 28.9311215, "tags": {"addr:city": "Istanbul", "addr:district": "Fatih", "addr:street": "Alt\u0131mermer Caddesi", "amenity": "bank", "branch": "Kocamustafapa\u015fa", "brand": "Vak\u0131fbank", "brand:wikidata": "Q1148521", "name": "Vak\u0131fbank", "name:ar": "\u0648\u0642\u0641 \u0628\u0627\u0646\u0643 \u0641\u0631\u0639 \u0643\u0648\u062c\u0627 \u0645\u0635\u0637\u0641\u0649 \u0628\u0627\u0634\u0627", "phone": "02125893423"}}, {"type": "node", "id": 5117968458, "lat": 41.0270639, "lon": 28.8879856}, {"type": "node", "id": 5117968459, "lat": 41.0271725, "lon": 28.8880998}, {"type": "node", "id": 5243949940, "lat": 41.0201252, "lon": 28.9468385, "tags": {"addr:city": "Istanbul", "addr:district": "Turkey", "addr:street": "Fevzi Pa\u015fa Caddesi", "amenity": "bank", "brand": "Halkbank", "brand:wikidata": "Q3593818", "brand:wikipedia": "en:Halkbank a.d.", "name": "Halkbank", "name:ar": "\u0647\u0627\u0644\u0643 \u0628\u0646\u0643"}}, {"type": "node", "id": 5243949963, "lat": 41.0204191, "lon": 28.9465484, "tags": {"addr:city": "Istanbul", "addr:district": "Turkey", "addr:street": "Fevzi Pa\u015fa Caddesi", "amenity": "bank", "brand": "QNB Finansbank", "brand:wikidata": "Q1416237", "brand:wikipedia": "en:QNB Finansbank", "name": "QNB Finansbank"}}, {"type": "node", "id": 5243949967, "lat": 41.022016, "lon": 28.9449248, "tags": {"addr:city": "Istanbul", "addr:district": "Fatih", "addr:street": "Fevzi Pa\u015fa Caddesi", "amenity": "bank", "name": "T\u00fcrkiye Finans", "name:ar": "\u062a\u0631\u0643\u064a\u0627 \u0641\u064a\u0646\u0627\u0646\u0633"}}, {"type": "node", "id": 5243950180, "lat": 41.0173151, "lon": 28.9437005, "tags": {"addr:city": "Istanbul", "addr:district": "Fatih", "addr:street": "Akdeniz Caddesi", "amenity": "bank", "brand": "Kuveyt T\u00fcrk", "brand:wikidata": "Q6036058", "brand:wikipedia": "tr:Kuveyt T\u00fcrk", "name": "Kuveyt T\u00fcrk", "name:ar": "\u0628\u0646\u0643 \u0643\u0648\u064a\u062a \u062a\u0631\u0643"}}, {"type": "node", "id": 5243950194, "lat": 41.0174144, "lon": 28.9438294, "tags": {"addr:city": "Istanbul", "addr:district": "Turkey", "addr:street": "Akdeniz Caddesi", "amenity": "bank", "brand": "Yap\u0131 Kredi", "brand:wikidata": "Q8049138", "brand:wikipedia": "en:Yap\u0131 Kredi", "name": "Yap\u0131 Kredi", "name:ar": "\u064a\u0627\u0628\u064a \u0643\u0631\u064a\u062f\u064a"}}, {"type": "node", "id": 5243950751, "lat": 41.0173532, "lon": 28.9437669, "tags": {"addr:city": "Istanbul", "addr:district": "Turkey", "addr:street": "Akdeniz Caddesi", "amenity": "bank", "brand": "Garanti Bankas\u0131", "brand:wikidata": "Q322962", "brand:wikipedia": "en:Garanti BBVA", "name": "Garanti Bankas\u0131", "name:ar": "\u0628\u0646\u0643 \u063a\u0631\u0627\u0646\u062a\u064a"}}, {"type": "node", "id": 5243950758, "lat": 41.0172233, "lon": 28.9430438, "tags": {"addr:city": "Istanbul", "addr:district": "Turkey", "addr:street": "Akdeniz Caddesi", "amenity": "bank", "brand": "Ziraat Bankas\u0131", "brand:wikidata": "Q696003", "brand:wikipedia": "en:Ziraat Bank", "name": "Ziraat Bankas\u0131", "name:ar": "\u0628\u0646\u0643 \u0632\u0631\u0627\u0639"}}, {"type": "node", "id": 5243950763, "lat": 41.0191582, "lon": 28.9463571, "tags": {"addr:city": "Istanbul", "addr:district": "Fatih", "addr:street": "Akdeniz Caddesi", "amenity": "bank", "brand": "Denizbank", "brand:wikidata": "Q1115064", "brand:wikipedia": "en:DenizBank", "name": "Denizbank", "name:ar": "\u062f\u064a\u0646\u064a\u0632 \u0628\u0646\u0643"}}, {"type": "node", "id": 5243950765, "lat": 41.0189197, "lon": 28.9459359, "tags": {"addr:city": "Istanbul", "addr:district": "Fatih", "addr:street": "Akdeniz Caddesi", "amenity": "bank", "brand": "QNB Finansbank", "brand:wikidata": "Q1416237", "brand:wikipedia": "en:QNB Finansbank", "name": "QNB Finansbank", "name:ar": "\u0643\u064a\u0648 \u0627\u0646 \u0628\u064a \u0641\u0646\u0627\u0646\u0633 \u0628\u0646\u0643"}}, {"type": "node", "id": 5243950771, "lat": 41.0186514, "lon": 28.9454744, "tags": {"addr:city": "Istanbul", "addr:district": "Fatih", "addr:street": "Akdeniz Caddesi", "amenity": "bank", "brand": "T\u00fcrkiye \u0130\u015f Bankas\u0131", "brand:wikidata": "Q909613", "brand:wikipedia": "en:\u0130\u015fbank", "name": "T\u00fcrkiye \u0130\u015f Bankas\u0131", "name:ar": "\u0628\u0646\u0643 \u0627\u064a\u0634"}}, {"type": "node", "id": 5243952766, "lat": 41.0166115, "lon": 28.9415288, "tags": {"addr:city": "Istanbul", "addr:district": "Turkey", "addr:street": "VATAN caddesi", "amenity": "bank", "brand": "Vak\u0131fbank", "brand:wikidata": "Q1148521", "brand:wikipedia": "en:Vak\u0131fBank", "name": "Vak\u0131fbank", "name:ar": "\u0648\u0642\u0641 \u0628\u0646\u0643"}}, {"type": "node", "id": 5243953076, "lat": 41.032513, "lon": 28.9479274, "tags": {"addr:city": "Istanbul", "addr:district": "Turkey", "addr:street": "\u00c7i\u00e7ekli Bostan Sokak", "amenity": "bank", "brand": "Garanti Bankas\u0131", "brand:wikidata": "Q322962", "brand:wikipedia": "en:Garanti BBVA", "name": "Garanti Bankas\u0131", "name:ar": "\u0628\u0646\u0643 \u063a\u0631\u0627\u0646\u062a\u064a"}}, {"type": "node", "id": 5275950810, "lat": 41.0381717, "lon": 28.9326435, "tags": {"addr:city": "\u0130stanbul", "addr:district": "Ey\u00fcp", "addr:neighbourhood": "Ni\u015fanca", "addr:postcode": "34050", "amenity": "bank", "atm": "yes", "brand": "Halkbank", "brand:wikidata": "Q3593818", "brand:wikipedia": "en:Halkbank a.d.", "drive_through": "no", "name": "Halkbank", "operator": "Halkbank"}}, {"type": "node", "id": 5275950811, "lat": 41.0379477, "lon": 28.9322636, "tags": {"addr:city": "\u0130stanbul", "addr:district": "Ey\u00fcp", "addr:neighbourhood": "Ni\u015fanca", "addr:postcode": "34050", "amenity": "bank", "atm": "yes", "brand": "Denizbank", "brand:wikidata": "Q1115064", "brand:wikipedia": "en:DenizBank", "name": "Denizbank", "operator": "Dwnizbank"}}, {"type": "node", "id": 5275973015, "lat": 41.0379695, "lon": 28.9327298, "tags": {"addr:city": "\u0130stanbul", "addr:district": "Ey\u00fcp", "addr:neighbourhood": "Ni\u015fanca", "addr:postcode": "34050", "amenity": "bank", "atm": "yes", "brand": "T\u00fcrkiye \u0130\u015f Bankas\u0131", "brand:wikidata": "Q909613", "brand:wikipedia": "en:\u0130\u015fbank", "name": "T\u00fcrkiye \u0130\u015f Bankas\u0131"}}, {"type": "node", "id": 5275980912, "lat": 41.0380102, "lon": 28.9324443, "tags": {"addr:city": "\u0130stanbul", "addr:district": "Ey\u00fcp", "addr:neighbourhood": "Ni\u015fanca", "addr:postcode": "34050", "amenity": "bank", "atm": "yes", "brand": "Garanti Bankas\u0131", "brand:wikidata": "Q322962", "brand:wikipedia": "en:Garanti BBVA", "name": "Garanti Bankas\u0131", "operator": "Garanti Bankas\u0131"}}, {"type": "node", "id": 5280151735, "lat": 41.0068721, "lon": 28.9007587}, {"type": "node", "id": 5280151736, "lat": 41.0068663, "lon": 28.9009651}, {"type": "node", "id": 5280151737, "lat": 41.0065903, "lon": 28.9009553}, {"type": "node", "id": 5280151738, "lat": 41.0065911, "lon": 28.9007512}, {"type": "node", "id": 5280152502, "lat": 41.0065529, "lon": 28.9011264}, {"type": "node", "id": 5280152503, "lat": 41.0065519, "lon": 28.9013505}, {"type": "node", "id": 5280152504, "lat": 41.0064838, "lon": 28.9013499}, {"type": "node", "id": 5280152505, "lat": 41.0064849, "lon": 28.9011258}, {"type": "node", "id": 5280156291, "lat": 41.0043486, "lon": 28.9007129}, {"type": "node", "id": 5280156292, "lat": 41.0043487, "lon": 28.900939}, {"type": "node", "id": 5280156293, "lat": 41.0041591, "lon": 28.9009379}, {"type": "node", "id": 5280156294, "lat": 41.0041577, "lon": 28.9007164}, {"type": "node", "id": 5297867800, "lat": 40.9948067, "lon": 28.9110718, "tags": {"addr:city": "\u0130stanbul", "addr:district": "Zeytinburnu", "addr:housenumber": "2", "addr:neighbourhood": "Telsiz Mahallesi", "addr:street": "71. sok", "addr:unit": "1", "amenity": "bank", "atm": "yes", "brand": "T\u00fcrkiye \u0130\u015f Bankas\u0131", "brand:wikidata": "Q909613", "brand:wikipedia": "en:T\u00fcrkiye \u0130\u015f Bankas\u0131", "name": "T\u00fcrkiye \u0130\u015f Bankas\u0131", "opening_hours": "Mo-Su 09:00-17:30"}}, {"type": "node", "id": 5297903078, "lat": 40.9943629, "lon": 28.9107936, "tags": {"addr:city": "\u0130stanbul", "addr:district": "Zeytinburnu", "addr:housenumber": "87/A", "addr:neighbourhood": "Telsiz Mahallesi", "addr:street": "Prof. Muammer Aksoy Caddesi", "amenity": "bank", "atm": "yes", "branch": "KATILIM BANKASI", "brand": "Kuveyt T\u00fcrk", "brand:wikidata": "Q6036058", "name": "Kuveyt T\u00fcrk"}}, {"type": "node", "id": 5297926310, "lat": 40.9940934, "lon": 28.9065337}, {"type": "node", "id": 5297926311, "lat": 40.9939747, "lon": 28.9065432}, {"type": "node", "id": 5297926312, "lat": 40.9939796, "lon": 28.9066495}, {"type": "node", "id": 5297926313, "lat": 40.9940983, "lon": 28.90664}, {"type": "node", "id": 5297928607, "lat": 40.9941126, "lon": 28.9065654, "tags": {"addr:city": "istanbul", "addr:district": "zeyt\u0131nburnu", "addr:housenumber": "63/A", "addr:street": "Prof. Muammer Aksoy Caddesi", "amenity": "bank", "brand": "QNB Finansbank", "brand:wikidata": "Q1416237", "name": "QNB Finansbank"}}, {"type": "node", "id": 5298221542, "lat": 41.0042268, "lon": 28.9007115}, {"type": "node", "id": 5348274956, "lat": 40.9949722, "lon": 28.9035015, "tags": {"amenity": "bank", "branch": "zeytinburnu \u015fubesi", "brand": "Ziraat Kat\u0131l\u0131m", "brand:wikidata": "Q20476458", "name": "Ziraat Kat\u0131l\u0131m", "opening_hours": "Mo-Fr 09:00-12:30, 13:00-17:00", "website": "https://ziraatkatilim.com.tr/"}}, {"type": "node", "id": 5666801827, "lat": 41.0111256, "lon": 28.9073, "tags": {"addr:city": "Istanbul", "addr:district": "Zeytinburnu", "addr:street": "Yeni \u00c7iftlik Caddesi", "amenity": "bank", "branch": "Merkezefendi \u015eubesi", "brand": "Halkbank", "brand:wikidata": "Q3593818", "brand:wikipedia": "en:Halkbank a.d.", "name": "Halkbank", "name:ar": "\u0628\u0646\u0643 \u0647\u0627\u0644\u0643", "operator": "Halkbank"}}, {"type": "node", "id": 5666801833, "lat": 41.0110825, "lon": 28.9074455, "tags": {"addr:city": "Istanbul", "addr:district": "Zeytinburnu", "addr:street": "Yeni \u00c7iftlik Caddesi", "amenity": "bank", "branch": "Merkezefendi \u015eubesi", "brand": "Vak\u0131fbank", "brand:wikidata": "Q1148521", "brand:wikipedia": "en:Vak\u0131fBank", "name": "Vak\u0131fbank", "name:ar": "\u0628\u0646\u0643 \u0648\u0642\u0641", "operator": "Vak\u0131fbank"}}, {"type": "node", "id": 5667618122, "lat": 41.0209338, "lon": 28.9141322, "tags": {"addr:city": "Istanbul", "addr:district": "Zeytinburnu", "addr:street": "Davutpa\u015fa Caddesi", "amenity": "bank", "brand": "TEB", "brand:wikidata": "Q7862447", "brand:wikipedia": "en:T\u00fcrk Ekonomi Bankas\u0131", "name": "TEB", "name:ar": "\u0628\u0646\u0643 \u062a\u064a\u0628", "opening_hours": "Mo-Fr 09:00-17:00", "phone": "2000666"}}, {"type": "node", "id": 5667618131, "lat": 41.0187169, "lon": 28.9107905, "tags": {"addr:city": "Istanbul", "addr:district": "Zeytinburnu", "addr:street": "Yedikule \u00c7\u0131rp\u0131c\u0131 Yolu", "amenity": "bank", "brand": "Garanti Bankas\u0131", "brand:wikidata": "Q322962", "brand:wikipedia": "en:Garanti BBVA", "name": "Garanti Bankas\u0131", "name:ar": "\u0628\u0646\u0643 \u063a\u0627\u0631\u0627\u0646\u062a\u064a", "opening_hours": "Mo-Fr 09:00-17:00", "phone": "4440333"}}, {"type": "node", "id": 5667618133, "lat": 41.0202379, "lon": 28.9084153, "tags": {"addr:city": "Istanbul", "addr:district": "Zeytinburnu", "addr:street": "Davutpa\u015fa Caddesi", "amenity": "bank", "brand": "Anadolubank", "brand:wikidata": "Q4750773", "brand:wikipedia": "en:Anadolubank", "name": "Anadolubank", "name:ar": "\u0628\u0646\u0643 \u0627\u0646\u0627\u0636\u0648\u0644\u0648", "opening_hours": "Mo-Fr 09:00-17:00", "phone": "(0212) 482 31 30"}}, {"type": "node", "id": 5667618140, "lat": 41.0181602, "lon": 28.9107131, "tags": {"addr:city": "Istanbul", "addr:district": "Zeytinburnu", "addr:street": "Yedikule \u00c7\u0131rp\u0131c\u0131 Yolu", "amenity": "bank", "brand": "T\u00fcrkiye \u0130\u015f Bankas\u0131", "brand:wikidata": "Q909613", "brand:wikipedia": "en:\u0130\u015fbank", "name": "T\u00fcrkiye \u0130\u015f Bankas\u0131", "name:ar": "\u0628\u0646\u0643 \u0627\u064a\u0634", "opening_hours": "Mo-Fr 09:00-17:00", "phone": "08507240724"}}, {"type": "node", "id": 5667618155, "lat": 41.0220036, "lon": 28.9169854, "tags": {"addr:city": "Istanbul", "addr:district": "Zeytinburnu", "addr:street": "Topkap\u0131 Caddesi", "amenity": "bank", "brand": "T\u00fcrkiye \u0130\u015f Bankas\u0131", "brand:wikidata": "Q909613", "brand:wikipedia": "en:\u0130\u015fbank", "name": "T\u00fcrkiye \u0130\u015f Bankas\u0131", "name:ar": "\u0628\u0646\u0643 \u0627\u064a\u0634", "opening_hours": "Mo-Fr 09:00-17:00", "phone": "08507240724"}}, {"type": "node", "id": 5667618165, "lat": 41.0221126, "lon": 28.9172888, "tags": {"addr:city": "Istanbul", "addr:district": "Zeytinburnu", "addr:street": "Topkap\u0131 Caddesi", "amenity": "bank", "brand": "Vak\u0131fbank", "brand:wikidata": "Q1148521", "brand:wikipedia": "en:Vak\u0131fBank", "name": "Vak\u0131fbank", "name:ar": "\u0628\u0646\u0643 \u0648\u0642\u0641", "opening_hours": "Mo-Fr 09:00-17:00", "phone": "08502220724"}}, {"type": "node", "id": 5667618356, "lat": 41.0279121, "lon": 28.9098964, "tags": {"addr:city": "Istanbul", "addr:district": "Zeytinburnu", "addr:street": "G\u00fcm\u00fc\u015fsuyu Caddesi", "amenity": "bank", "brand": "Anadolubank", "brand:wikidata": "Q4750773", "brand:wikipedia": "en:Anadolubank", "name": "Anadolubank", "name:ar": "\u0628\u0646\u0643 \u0627\u0646\u0627\u0636\u0648\u0644\u0648", "opening_hours": "Mo-Fr 09:00-17:00", "phone": "02126741153"}}, {"type": "node", "id": 5667618412, "lat": 41.0243085, "lon": 28.9100746, "tags": {"addr:city": "Istanbul", "addr:district": "Zeytinburnu", "addr:street": "G\u00fcm\u00fc\u015fsuyu Caddesi", "amenity": "bank", "name": "Albaraka T\u00fcrk", "name:ar": "\u0628\u0646\u0643 \u0627\u0644\u0628\u0631\u0643\u0629", "opening_hours": "Mo-Fr 09:00-17:00", "phone": "2225666"}}, {"type": "node", "id": 5667618418, "lat": 41.0203267, "lon": 28.9040321, "tags": {"addr:city": "Istanbul", "addr:district": "Zeytinburnu", "addr:street": "Davutpa\u015fa Caddesi", "amenity": "bank", "brand": "Garanti Bankas\u0131", "brand:wikidata": "Q322962", "brand:wikipedia": "en:Garanti BBVA", "description": "Inside Building", "name": "Garanti Bankas\u0131", "name:ar": "\u0628\u0646\u0643 \u063a\u0627\u0631\u0627\u0646\u062a\u064a", "opening_hours": "Mo-Fr 09:00-17:00", "operator": "Garanti Bankas\u0131", "phone": "4440333"}}, {"type": "node", "id": 5667618420, "lat": 41.0210805, "lon": 28.914521, "tags": {"addr:city": "Istanbul", "addr:district": "Zeytinburnu", "addr:street": "Davutpa\u015fa Caddesi", "amenity": "bank", "branch": "Bankas\u0131", "brand": "Kuveyt T\u00fcrk", "brand:wikidata": "Q6036058", "brand:wikipedia": "tr:Kuveyt T\u00fcrk", "name": "Kuveyt T\u00fcrk", "name:ar": "\u0628\u0646\u0643 \u0643\u0648\u064a\u062a \u062a\u0648\u0631\u0643", "opening_hours": "Mo-Fr 09:00-17:00"}}, {"type": "node", "id": 5667618638, "lat": 41.0209851, "lon": 28.9143266, "tags": {"addr:city": "Istanbul", "addr:district": "Zeytinburnu", "addr:street": "Davutpa\u015fa Caddesi", "amenity": "bank", "brand": "Yap\u0131 Kredi", "brand:wikidata": "Q8049138", "brand:wikipedia": "en:Yap\u0131 Kredi", "name": "Yap\u0131 Kredi", "name:ar": "\u0628\u0646\u0643 \u064a\u0627\u0628\u064a \u0643\u0631\u064a\u062f\u064a", "opening_hours": "Mo-Fr 09:00-17:00", "phone": "2220444"}}, {"type": "node", "id": 5667618689, "lat": 41.0222962, "lon": 28.9178741, "tags": {"addr:city": "Istanbul", "addr:district": "Zeytinburnu", "addr:street": "Topkap\u0131 Caddesi", "amenity": "bank", "brand": "QNB Finansbank", "brand:wikidata": "Q1416237", "brand:wikipedia": "en:QNB Finansbank", "name": "QNB Finansbank", "name:ar": "\u0628\u0646\u0643 \u0642\u0637\u0631 \u0627\u0644\u062f\u0648\u0644\u064a", "opening_hours": "Mo-Fr 09:00-17:00", "phone": "2220900"}}, {"type": "node", "id": 5667618695, "lat": 41.0245099, "lon": 28.909952, "tags": {"addr:city": "Istanbul", "addr:district": "Zeytinburnu", "addr:street": "G\u00fcm\u00fc\u015fsuyu Caddesi", "amenity": "bank", "branch": "Bankas\u0131", "brand": "Yap\u0131 Kredi", "brand:wikidata": "Q8049138", "brand:wikipedia": "en:Yap\u0131 Kredi", "name": "Yap\u0131 Kredi", "name:ar": "\u0628\u0646\u0643 \u064a\u0627\u0628\u064a\u0643\u0631\u064a\u062f\u064a", "opening_hours": "Mo-Fr 09:00-17:00", "phone": "2220444"}}, {"type": "node", "id": 5667618717, "lat": 41.0215029, "lon": 28.9144562, "tags": {"addr:city": "Istanbul", "addr:district": "Zeytinburnu", "addr:street": "Davutpa\u015fa Caddesi", "amenity": "bank", "brand": "Halkbank", "brand:wikidata": "Q3593818", "brand:wikipedia": "en:Halkbank a.d.", "name": "Halkbank", "name:ar": "\u0633\u0648\u0642 \u062a\u064a\u0645 \u062a\u0648-\u0628\u0646\u0643 \u0647\u0627\u0644\u0643", "opening_hours": "Mo-Fr 09:00-17:00", "phone": "2220400"}}, {"type": "node", "id": 5667618744, "lat": 41.0202596, "lon": 28.9074392, "tags": {"addr:city": "Istanbul", "addr:district": "Zeytinburnu", "addr:street": "Davutpa\u015fa Caddesi", "amenity": "bank", "brand": "T\u00fcrkiye \u0130\u015f Bankas\u0131", "brand:wikidata": "Q909613", "brand:wikipedia": "en:\u0130\u015fbank", "name": "T\u00fcrkiye \u0130\u015f Bankas\u0131", "name:ar": "\u0628\u0646\u0643 \u0627\u064a\u0634", "opening_hours": "Mo-Fr 09:00-17:00", "phone": "(0212) 482 16 86"}}, {"type": "node", "id": 5667618751, "lat": 41.0202484, "lon": 28.90398, "tags": {"addr:city": "Istanbul", "addr:district": "Zeytinburnu", "addr:street": "Davutpa\u015fa Caddesi", "amenity": "bank", "brand": "Garanti Bankas\u0131", "brand:wikidata": "Q322962", "brand:wikipedia": "en:Garanti BBVA", "name": "Garanti Bankas\u0131", "name:ar": "\u0628\u0646\u0643 \u063a\u0627\u0631\u0627\u0646\u062a\u064a", "opening_hours": "Mo-Fr 09:00-17:00"}}, {"type": "node", "id": 5667618775, "lat": 41.0220908, "lon": 28.9174333, "tags": {"addr:city": "Istanbul", "addr:district": "Zeytinburnu", "addr:street": "Topkap\u0131 Caddesi", "amenity": "bank", "brand": "Garanti Bankas\u0131", "brand:wikidata": "Q322962", "brand:wikipedia": "en:Garanti BBVA", "name": "Garanti Bankas\u0131", "name:ar": "\u0628\u0646\u0643 \u063a\u0627\u0631\u0627\u0646\u062a\u064a", "opening_hours": "Mo-Fr 09:00-17:00", "phone": "4440333"}}, {"type": "node", "id": 5667618780, "lat": 41.0220266, "lon": 28.9168346, "tags": {"addr:city": "Istanbul", "addr:district": "Zeytinburnu", "addr:street": "Tokap\u0131 Caddesi", "amenity": "bank", "name": "T\u00fcrkiye Finans Bankas\u0131", "name:ar": "\u0628\u0646\u0643 \u062a\u0648\u0631\u0643 \u0641\u064a\u0646\u0627\u0646\u0633", "opening_hours": "Mo-Fr 09:00-17:00", "phone": "2222244"}}, {"type": "node", "id": 5667619250, "lat": 41.0220254, "lon": 28.9171154, "tags": {"addr:city": "Istanbul", "addr:district": "Zeytinburnu", "addr:street": "Topkap\u0131 Caddesi", "amenity": "bank", "brand": "Akbank", "brand:wikidata": "Q416624", "brand:wikipedia": "tr:Akbank", "name": "Akbank", "name:ar": "\u0628\u0646\u0643 \u0627\u0643", "opening_hours": "Mo-Fr 09:00-17:00", "phone": "4442525"}}, {"type": "node", "id": 5667619282, "lat": 41.021544, "lon": 28.914579, "tags": {"addr:city": "Istanbul", "addr:district": "Zeytinburnu", "addr:street": "Davutpa\u015fa Caddesi", "amenity": "bank", "brand": "Denizbank", "brand:wikidata": "Q1115064", "brand:wikipedia": "en:DenizBank", "name": "Denizbank", "name:ar": "\u0633\u0648\u0642 \u062a\u064a\u0645 \u062a\u0648-\u062f\u0646\u064a\u0632 \u0628\u0646\u0643", "opening_hours": "Mo-Fr 09:00-17:00", "phone": "2220800"}}, {"type": "node", "id": 5667636249, "lat": 41.004445, "lon": 28.9080627, "tags": {"addr:city": "Istanbul", "addr:district": "Zeytinburnu", "addr:street": "Seyit Nizam Cd", "amenity": "bank", "brand": "T\u00fcrkiye \u0130\u015f Bankas\u0131", "brand:wikidata": "Q909613", "brand:wikipedia": "en:\u0130\u015fbank", "name": "T\u00fcrkiye \u0130\u015f Bankas\u0131", "name:ar": "\u0627\u064a\u0634 \u0628\u0646\u0643"}}, {"type": "node", "id": 5667636256, "lat": 41.0044126, "lon": 28.9077838, "tags": {"addr:city": "Istanbul", "addr:district": "Zeytinburnu", "addr:street": "Seyit Nizam Cd", "amenity": "bank", "brand": "Ziraat Bankas\u0131", "brand:wikidata": "Q696003", "brand:wikipedia": "en:Ziraat Bank", "name": "Ziraat Bankas\u0131", "name:ar": "\u0628\u0646\u0643 \u0632\u0631\u0627\u0639\u0627\u062a"}}, {"type": "node", "id": 5667636267, "lat": 41.0044855, "lon": 28.9085777, "tags": {"addr:city": "Istanbul", "addr:district": "Zeytinburnu", "addr:street": "Seyit Nizam Cd", "amenity": "bank", "name": "t\u00fcrkiye finans", "name:ar": "\u0628\u0646\u0643 \u062a\u0631\u0643\u064a\u0627 \u0641\u064a\u0646\u0627\u0646\u0633"}}, {"type": "node", "id": 5667636314, "lat": 41.0038305, "lon": 28.9017769, "tags": {"addr:city": "Istanbul", "addr:district": "Zeytinburnu", "addr:street": "Demirciler sitesi 1 Cd", "amenity": "bank", "brand": "Vak\u0131fbank", "brand:wikidata": "Q1148521", "brand:wikipedia": "en:Vak\u0131fBank", "name": "Vak\u0131fbank", "name:ar": "\u0628\u0646\u0643 \u0648\u0642\u0641"}}, {"type": "node", "id": 5667636317, "lat": 41.00595, "lon": 28.9106302, "tags": {"addr:city": "Istanbul", "addr:district": "Zeytinburnu", "addr:street": "Yunus Emre Cd", "amenity": "bank", "brand": "Garanti Bankas\u0131", "brand:wikidata": "Q322962", "name": "Garanti Bankas\u0131", "name:ar": "\u0628\u0646\u0643 \u063a\u0631\u0627\u0646\u062a\u064a"}}, {"type": "node", "id": 5667637449, "lat": 41.0058062, "lon": 28.8992027, "tags": {"addr:city": "Istanbul", "addr:district": "Zeytinburnu", "addr:street": "Demirciler sitesi 5 Cd", "amenity": "bank", "branch": "BANKASI", "brand": "Yap\u0131 Kredi", "brand:wikidata": "Q8049138", "brand:wikipedia": "en:Yap\u0131 Kredi", "name": "Yap\u0131 Kredi", "name:ar": "\u0628\u0646\u0643 \u064a\u0627\u0628\u064a \u0643\u0631\u064a\u062f\u064a"}}, {"type": "node", "id": 5667637497, "lat": 41.0066388, "lon": 28.9015142, "tags": {"addr:city": "Istanbul", "addr:district": "Zeytinburnu", "addr:street": "Demirciler sitesi 1 Cd", "amenity": "bank", "brand": "Halkbank", "brand:wikidata": "Q3593818", "brand:wikipedia": "en:Halkbank a.d.", "name": "Halkbank", "name:ar": "\u0628\u0646\u0643 \u0647\u0627\u0644\u0643"}}, {"type": "node", "id": 5667637507, "lat": 41.0064075, "lon": 28.9009188, "tags": {"addr:city": "Istanbul", "addr:district": "Zeytinburnu", "addr:street": "Demirciler sitesi 2 Cd", "amenity": "bank", "brand": "TEB", "brand:wikidata": "Q7862447", "brand:wikipedia": "en:T\u00fcrk Ekonomi Bankas\u0131", "name": "TEB", "name:ar": "\u0628\u0646\u0643 \u062a\u064a\u0628"}}, {"type": "node", "id": 5667638738, "lat": 41.0064075, "lon": 28.9005511, "tags": {"addr:city": "Istanbul", "addr:district": "Zeytinburnu", "addr:street": "Demirciler sitesi 3 Cd", "amenity": "bank", "brand": "Denizbank", "brand:wikidata": "Q1115064", "brand:wikipedia": "en:DenizBank", "name": "Denizbank", "name:ar": "\u0628\u0646\u0643 \u062f\u064a\u0646\u064a\u0632"}}, {"type": "node", "id": 5667638788, "lat": 41.0034389, "lon": 28.9029635, "tags": {"addr:city": "Istanbul", "addr:district": "Zeytinburnu", "amenity": "bank", "branch": "Bankas\u0131", "brand": "Kuveyt T\u00fcrk", "brand:wikidata": "Q6036058", "brand:wikipedia": "tr:Kuveyt T\u00fcrk", "name": "Kuveyt T\u00fcrk", "name:ar": "\u0628\u0646\u0643 \u0627\u0644\u0643\u0648\u064a\u062a \u062a\u0631\u0643", "opening_hours": "Mo-Fr 09:00-17:00"}}, {"type": "node", "id": 5667640054, "lat": 41.0064075, "lon": 28.9012165, "tags": {"addr:city": "Istanbul", "addr:district": "Zeytinburnu", "addr:street": "Demirciler sitesi 2 Cd", "amenity": "bank", "brand": "T\u00fcrkiye \u0130\u015f Bankas\u0131", "brand:wikidata": "Q909613", "brand:wikipedia": "en:\u0130\u015fbank", "name": "T\u00fcrkiye \u0130\u015f Bankas\u0131", "name:ar": "\u0627\u064a\u0634 \u0628\u0646\u0643"}}, {"type": "node", "id": 5667640065, "lat": 41.0060335, "lon": 28.9106486, "tags": {"addr:city": "Istanbul", "addr:district": "Zeytinburnu", "addr:street": "Yunus Emre Cd", "amenity": "bank", "brand": "Kuveyt T\u00fcrk", "brand:wikidata": "Q6036058", "name": "Kuveyt T\u00fcrk", "name:ar": "\u0643\u0648\u064a\u062a \u062a\u0631\u0643 \u0628\u0627\u0646\u0643"}}, {"type": "node", "id": 5667640766, "lat": 41.0062886, "lon": 28.9009364, "tags": {"addr:city": "Istanbul", "addr:district": "Zeytinburnu", "addr:street": "Demirciler sitesi 2 Cd", "amenity": "bank", "brand": "Garanti Bankas\u0131", "brand:wikidata": "Q322962", "brand:wikipedia": "en:Garanti BBVA", "name": "Garanti Bankas\u0131", "name:ar": "\u0628\u0646\u0643 \u063a\u0631\u0627\u0646\u062a\u064a"}}, {"type": "node", "id": 5667641613, "lat": 41.0030766, "lon": 28.9138992, "tags": {"addr:city": "Istanbul", "addr:district": "Zeytinburnu", "amenity": "bank", "name": "T\u00fcrkiye finans bank", "name:ar": "\u0628\u0646\u0643 \u062a\u0631\u0643\u064a\u0627 \u0641\u064a\u0646\u0627\u0646\u0633", "opening_hours": "Mo-Fr 07:00-13:30; Mo-Fr 17:00-20:00"}}, {"type": "node", "id": 5667642928, "lat": 40.9991797, "lon": 28.9114717, "tags": {"addr:city": "Istanbul", "addr:district": "Zeytinburnu", "amenity": "bank", "name": "T.C. \u0130\u015f Bankas\u0131", "name:ar": "\u0627\u0634 \u0628\u0646\u0643"}}, {"type": "node", "id": 5667642969, "lat": 40.9998625, "lon": 28.9136163, "tags": {"addr:city": "Istanbul", "addr:district": "Zeytinburnu", "amenity": "bank", "brand": "Kuveyt T\u00fcrk", "brand:wikidata": "Q6036058", "brand:wikipedia": "tr:Kuveyt T\u00fcrk", "name": "Kuveyt T\u00fcrk", "name:ar": "\u0627\u0644\u0628\u0646\u0643 \u0627\u0644\u0643\u0648\u064a\u062a\u064a"}}, {"type": "node", "id": 5667655626, "lat": 40.9945482, "lon": 28.9084618, "tags": {"addr:city": "Istanbul", "addr:district": "Zeytinburnu", "addr:street": "pro. Muammer Aksoy Cd", "amenity": "bank", "brand": "Vak\u0131fbank", "brand:wikidata": "Q1148521", "brand:wikipedia": "en:Vak\u0131fBank", "name": "Vak\u0131fbank", "name:ar": "\u0648\u0642\u0641 \u0628\u0646\u0643", "opening_hours": "Mo-Fr 09:00-17:00"}}, {"type": "node", "id": 5667655628, "lat": 40.9910481, "lon": 28.9039765, "tags": {"addr:city": "Istanbul", "addr:district": "Zeytinburnu", "addr:street": "58.Blv Cd", "amenity": "bank", "brand": "Denizbank", "brand:wikidata": "Q1115064", "brand:wikipedia": "en:DenizBank", "name": "Denizbank", "name:ar": "\u062f\u064a\u0646\u064a\u0632 \u0628\u0627\u0646\u0643", "opening_hours": "Mo-Fr 09:00-17:00", "operator": "Deniz bank"}}, {"type": "node", "id": 5667657050, "lat": 40.987183, "lon": 28.9044181, "tags": {"addr:city": "Istanbul", "addr:district": "Zeytinburnu", "addr:street": "58 Blv caddesi", "amenity": "bank", "brand": "Garanti Bankas\u0131", "brand:wikidata": "Q322962", "brand:wikipedia": "en:Garanti Bank", "name": "Garanti Bankas\u0131", "name:ar": "\u062c\u0627\u0631\u0627\u0646\u062a\u064a \u0628\u0646\u0643"}}, {"type": "node", "id": 5667657776, "lat": 40.989028, "lon": 28.8936237, "tags": {"addr:city": "Istanbul", "addr:district": "Zeytinburnu", "addr:street": "Turan G\u00fcne\u015f Caddesi", "amenity": "bank", "brand": "Ziraat Bankas\u0131", "brand:wikidata": "Q696003", "brand:wikipedia": "en:Ziraat Bankas\u0131", "name": "Ziraat Bankas\u0131", "name:ar": "\u0632\u0631\u0627\u0639\u0627\u062a \u0628\u0646\u0643", "opening_hours": "Mo-Fr 09:00-17:00"}}, {"type": "node", "id": 5667658449, "lat": 40.9908685, "lon": 28.8937928, "tags": {"addr:city": "Istanbul", "addr:district": "Zeytinburnu", "addr:street": "Turan G\u00fcne\u015f Caddesi", "amenity": "bank", "brand": "Yap\u0131 Kredi", "brand:wikidata": "Q8049138", "brand:wikipedia": "en:Yap\u0131 ve Kredi Bankas\u0131", "name": "Yap\u0131 Kredi", "name:ar": "\u064a\u0627\u0628\u064a \u0643\u0631\u064a\u062f\u064a", "opening_hours": "Mo-Fr 09:00-17:00"}}, {"type": "node", "id": 5667659668, "lat": 40.9868275, "lon": 28.9046039, "tags": {"addr:city": "Istanbul", "addr:district": "Zeytinburnu", "addr:street": "58 Blv caddesi", "amenity": "bank", "brand": "Akbank", "brand:wikidata": "Q416624", "brand:wikipedia": "tr:Akbank", "name": "Akbank", "name:ar": "\u0627\u0643\u0628\u0627\u0646\u0643"}}, {"type": "node", "id": 5667659717, "lat": 40.9886368, "lon": 28.9041639, "tags": {"addr:city": "Istanbul", "addr:district": "Zeytinburnu", "addr:street": "58 Blv caddesi;58.Blv Cd", "amenity": "bank", "brand": "Kuveyt T\u00fcrk", "brand:wikidata": "Q6036058", "brand:wikipedia": "tr:Kuveyt T\u00fcrk", "name": "Kuveyt T\u00fcrk", "name:ar": "\u0643\u0648\u064a\u062a \u062a\u0631\u0643", "opening_hours": "Mo-Fr 09:00-17:00"}}, {"type": "node", "id": 5667660233, "lat": 40.9859796, "lon": 28.9044845, "tags": {"addr:city": "Istanbul", "addr:district": "Zeytinburnu", "addr:street": "58 Blv caddesi", "amenity": "bank", "brand": "Ziraat Bankas\u0131", "brand:wikidata": "Q696003", "brand:wikipedia": "en:Ziraat Bankas\u0131", "name": "Ziraat Bankas\u0131", "name:ar": "\u0632\u0631\u0627\u0627\u062a \u0628\u0627\u0646\u0643"}}, {"type": "node", "id": 5667660300, "lat": 40.9857592, "lon": 28.9047299, "tags": {"addr:city": "Istanbul", "addr:district": "Zeytinburnu", "addr:street": "Zubeyde Hanim caddesi", "amenity": "bank", "brand": "Yap\u0131 Kredi", "brand:wikidata": "Q8049138", "brand:wikipedia": "en:Yap\u0131 ve Kredi Bankas\u0131", "name": "Yap\u0131 Kredi", "name:ar": "\u064a\u0627\u0628\u064a \u0643\u0631\u064a\u062f\u064a"}}, {"type": "node", "id": 5667660862, "lat": 40.9960489, "lon": 28.9027256, "tags": {"addr:city": "Istanbul", "addr:district": "Zeytinburnu", "addr:street": "Semiha \u015fakir caddesi", "amenity": "bank", "brand": "Garanti Bankas\u0131", "brand:wikidata": "Q322962", "brand:wikipedia": "en:Garanti Bank", "name": "Garanti Bankas\u0131", "name:ar": "\u0628\u0646\u0643 \u0643\u0627\u0631\u0627\u0646\u062a\u064a"}}, {"type": "node", "id": 5667661139, "lat": 40.9876424, "lon": 28.9043008, "tags": {"addr:city": "Istanbul", "addr:district": "Zeytinburnu", "addr:street": "58 Blv caddesi", "amenity": "bank", "brand": "HSBC", "brand:wikidata": "Q190464", "name": "HSBC", "name:ar": "\u0627\u062a\u0634 \u0627\u0633 \u0628\u064a \u0633\u064a"}}, {"type": "node", "id": 5667661144, "lat": 40.9955533, "lon": 28.9022939, "tags": {"addr:city": "Istanbul", "addr:district": "Zeytinburnu", "addr:street": "Semiha \u015fakir caddesi", "amenity": "bank", "brand": "T\u00fcrkiye \u0130\u015f Bankas\u0131", "brand:wikidata": "Q909613", "brand:wikipedia": "en:T\u00fcrkiye \u0130\u015f Bankas\u0131", "name": "T\u00fcrkiye \u0130\u015f Bankas\u0131", "name:ar": "\u0628\u0646\u0643 \u0627\u064a\u0634"}}, {"type": "node", "id": 5667661163, "lat": 40.9945823, "lon": 28.9005075, "tags": {"addr:city": "Istanbul", "addr:district": "Zeytinburnu", "addr:street": "Ahmet yesevi sokak", "amenity": "bank", "brand": "Kuveyt T\u00fcrk", "brand:wikidata": "Q6036058", "brand:wikipedia": "tr:Kuveyt T\u00fcrk", "name": "Kuveyt T\u00fcrk", "name:ar": "\u0628\u0646\u0643 \u0643\u0648\u064a\u062a \u062a\u0631\u0643"}}, {"type": "node", "id": 5667661168, "lat": 40.9942445, "lon": 28.9069785, "tags": {"addr:city": "Istanbul", "addr:district": "Zeytinburnu", "addr:street": "pro. Muammer Aksoy Cd", "amenity": "bank", "brand": "QNB Finansbank", "brand:wikidata": "Q1416237", "name": "QNB Finansbank", "name:ar": "\u0643\u064a\u0648 \u0627\u0646 \u0628\u064a \u0641\u064a\u0646\u0627\u0633 \u0628\u0646\u0643", "opening_hours": "Mo-Fr 09:00-17:00"}}, {"type": "node", "id": 5667661198, "lat": 40.9943993, "lon": 28.9109205, "tags": {"addr:city": "Istanbul", "addr:district": "Zeytinburnu", "addr:street": "40. sokak", "amenity": "bank", "brand": "T\u00fcrkiye \u0130\u015f Bankas\u0131", "brand:wikidata": "Q909613", "brand:wikipedia": "en:T\u00fcrkiye \u0130\u015f Bankas\u0131", "name": "T\u00fcrkiye \u0130\u015f Bankas\u0131", "name:ar": "\u0628\u0646\u0643 \u062a\u0631\u0643\u064a\u0627", "opening_hours": "Mo-Fr 09:00-17:00"}}, {"type": "node", "id": 5667661329, "lat": 40.9858879, "lon": 28.9041889, "tags": {"addr:city": "Istanbul", "addr:district": "Zeytinburnu", "addr:street": "58. Bulvar Caddesi", "amenity": "bank", "brand": "QNB Finansbank", "brand:wikidata": "Q1416237", "name": "QNB Finansbank", "name:ar": "\u0643\u064a\u0648 \u0625\u0646 \u0628\u064a \u0641\u064a\u0646\u0627\u0646\u0633 \u0628\u0627\u0646\u0643"}}, {"type": "node", "id": 5667661723, "lat": 40.9947363, "lon": 28.9046362, "tags": {"addr:city": "Istanbul", "addr:district": "Zeytinburnu", "addr:street": "near Be\u015ftelsiz Mahallesi, \u0130n\u00f6n\u00fc Blv., 34020 Zeytinburnu/\u0130stanbul", "amenity": "bank", "brand": "TEB", "brand:wikidata": "Q7862447", "brand:wikipedia": "en:T\u00fcrk Ekonomi Bankas\u0131", "name": "TEB", "name:ar": "\u062a\u064a\u0628", "opening_hours": "Mo-Fr 09:00-17:00"}}, {"type": "node", "id": 5667661729, "lat": 40.9941531, "lon": 28.9050242, "tags": {"addr:city": "Istanbul", "addr:district": "Zeytinburnu", "addr:street": "near Be\u015ftelsiz Mahallesi, \u0130n\u00f6n\u00fc Blv., 34020 Zeytinburnu/\u0130stanbul", "amenity": "bank", "name": "T\u00fcrkiye Finans", "name:ar": "\u062a\u0631\u0643\u064a\u0627 \u0641\u0627\u064a\u0646\u0627\u0646\u0633", "opening_hours": "Mo-Fr 09:00-17:00"}}, {"type": "node", "id": 5667661733, "lat": 40.9889682, "lon": 28.9040631, "tags": {"addr:city": "Istanbul", "addr:district": "Zeytinburnu", "addr:street": "58.Blv Cd;58 Blv caddesi", "amenity": "bank", "brand": "Halkbank", "brand:wikidata": "Q3593818", "brand:wikipedia": "en:Halkbank a.d.", "name": "Halkbank", "name:ar": "\u0647\u0627\u0644\u0643 \u0628\u0646\u0643", "opening_hours": "Mo-Fr 09:00-17:00", "operator": "Halkbank"}}, {"type": "node", "id": 5667661739, "lat": 40.9944634, "lon": 28.907542, "tags": {"addr:city": "Istanbul", "addr:district": "Zeytinburnu", "addr:street": "pro. Muammer Aksoy Cd", "amenity": "bank", "brand": "\u015eekerbank", "brand:wikidata": "Q6088369", "name": "\u015eekerbank", "name:ar": "\u0628\u0646\u0643 \u0627\u0644\u0634\u0643\u0631", "opening_hours": "Mo-Fr 09:00-17:00"}}, {"type": "node", "id": 5667661782, "lat": 40.994526, "lon": 28.9081552, "tags": {"addr:city": "Istanbul", "addr:district": "Zeytinburnu", "addr:street": "pro. Muammer Aksoy Cd", "amenity": "bank", "brand": "Anadolubank", "brand:wikidata": "Q4750773", "name": "Anadolubank", "name:ar": "\u0628\u0646\u0643 \u0627\u0644\u0623\u0646\u0627\u0636\u0648\u0644", "opening_hours": "Mo-Fr 09:00-17:00"}}, {"type": "node", "id": 5667661797, "lat": 40.9914314, "lon": 28.9039923, "tags": {"addr:city": "Istanbul", "addr:district": "Zeytinburnu", "addr:street": "58.Blv Cd", "amenity": "bank", "brand": "TEB", "brand:wikidata": "Q7862447", "brand:wikipedia": "en:T\u00fcrk Ekonomi Bankas\u0131", "name": "TEB", "name:ar": "\u062a\u064a\u0628", "opening_hours": "Mo-Fr 09:00-17:00", "operator": "TEB"}}, {"type": "node", "id": 5667661813, "lat": 40.9928194, "lon": 28.9040478, "tags": {"addr:city": "Istanbul", "addr:district": "Zeytinburnu", "addr:street": "58.Blv Cd", "amenity": "bank", "brand": "ING", "brand:wikidata": "Q645708", "brand:wikipedia": "en:ING Group", "name": "ING", "name:ar": "\u0627\u0646\u062c \u0628\u0646\u0643", "opening_hours": "Mo-Fr 09:00-17:00", "operator": "ING Bank"}}, {"type": "node", "id": 5667662131, "lat": 40.9933118, "lon": 28.9037384, "tags": {"addr:city": "Istanbul", "addr:district": "Zeytinburnu", "addr:street": "58.Blv Cd", "amenity": "bank", "name": "Albaraka T\u00fcrk", "name:ar": "\u0627\u0644\u0628\u0631\u0643\u0629", "opening_hours": "Mo-Fr 09:00-17:00", "operator": "alBaraka"}}, {"type": "node", "id": 5667662171, "lat": 40.9944681, "lon": 28.9108614, "tags": {"addr:city": "Istanbul", "addr:district": "Zeytinburnu", "addr:street": "pro. Muammer Aksoy Cd", "amenity": "bank", "brand": "Kuveyt T\u00fcrk", "brand:wikidata": "Q6036058", "brand:wikipedia": "tr:Kuveyt T\u00fcrk", "name": "Kuveyt T\u00fcrk", "name:ar": "\u0643\u0648\u064a\u062a \u062a\u0631\u0643", "opening_hours": "Mo-Fr 09:00-17:00"}}, {"type": "node", "id": 5667662176, "lat": 40.9911105, "lon": 28.9039752, "tags": {"addr:city": "Istanbul", "addr:district": "Zeytinburnu", "addr:street": "58.Blv Cd", "amenity": "bank", "brand": "Yap\u0131 Kredi", "brand:wikidata": "Q8049138", "brand:wikipedia": "en:Yap\u0131 ve Kredi Bankas\u0131", "name": "Yap\u0131 Kredi", "name:ar": "\u064a\u0627\u0628\u0643\u0631\u064a\u062f\u064a", "opening_hours": "Mo-Fr 09:00-17:00", "operator": "Yap\u0131kredi"}}, {"type": "node", "id": 5667662187, "lat": 40.9888199, "lon": 28.9041435, "tags": {"addr:city": "Istanbul", "addr:district": "Zeytinburnu", "addr:street": "58. Bulvar Caddesi", "amenity": "bank", "brand": "Vak\u0131fbank", "brand:wikidata": "Q1148521", "brand:wikipedia": "en:Vak\u0131fBank", "name": "Vak\u0131fbank", "name:ar": "\u0648\u0642\u0641 \u0628\u0646\u0643;\u0648\u0627\u0642\u0641 \u0628\u0646\u0643", "opening_hours": "Mo-Fr 09:00-17:00", "operator": "Vak\u0131flar Bankas\u0131"}}, {"type": "node", "id": 5667662201, "lat": 40.9946384, "lon": 28.9111309, "tags": {"addr:city": "Istanbul", "addr:district": "Zeytinburnu", "amenity": "bank", "name": "T.C. \u0130\u015f Bankas\u0131", "name:ar": "\u0627\u0634 \u0628\u0646\u0643"}}, {"type": "node", "id": 5667662672, "lat": 40.9949787, "lon": 28.9022974, "tags": {"addr:city": "Istanbul", "addr:district": "Zeytinburnu", "addr:street": "semiha \u015fakir", "amenity": "bank", "brand": "Ziraat Bankas\u0131", "brand:wikidata": "Q696003", "brand:wikipedia": "en:Ziraat Bankas\u0131", "name": "Ziraat Bankas\u0131", "name:ar": "\u0628\u0646\u0643 \u0627\u0644\u0632\u0631\u0627\u0639\u0627\u062a"}}, {"type": "node", "id": 5667673394, "lat": 41.0467158, "lon": 28.8598207, "tags": {"addr:city": "Istanbul", "addr:district": "Ba\u011fc\u0131lar", "addr:street": "Osmangazi Caddesi", "amenity": "bank", "brand": "Kuveyt T\u00fcrk", "brand:wikidata": "Q6036058", "brand:wikipedia": "tr:Kuveyt T\u00fcrk", "name": "Kuveyt T\u00fcrk", "name:ar": "\u0643\u0648\u064a\u062a \u062a\u0631\u0643"}}, {"type": "node", "id": 5667684447, "lat": 41.0303699, "lon": 28.8284864, "tags": {"addr:city": "Istanbul", "addr:district": "Ba\u011fc\u0131lar", "amenity": "bank", "brand": "QNB Finansbank", "brand:wikidata": "Q1416237", "name": "QNB Finansbank", "name:ar": "\u062a\u0631\u0643\u064a\u0627 \u0641\u064a\u0646\u0627\u0646\u0633 \u0628\u0627\u0646\u0643"}}, {"type": "node", "id": 5667684486, "lat": 41.0303046, "lon": 28.8279168, "tags": {"addr:city": "Istanbul", "addr:district": "Ba\u011fc\u0131lar", "addr:street": "Atat\u00fcrk Caddesi", "amenity": "bank", "brand": "Ziraat Kat\u0131l\u0131m", "brand:wikidata": "Q20476458", "name": "Ziraat Kat\u0131l\u0131m", "name:ar": "\u0632\u0631\u0627\u0639\u0627\u062a \u0643\u0627\u062a\u064a\u0644\u064a\u0645"}}, {"type": "node", "id": 5667686333, "lat": 41.0308205, "lon": 28.8270597, "tags": {"addr:city": "Istanbul", "addr:district": "Ba\u011fc\u0131lar", "addr:street": "Ataturk caddesi", "amenity": "bank", "brand": "TEB", "brand:wikidata": "Q7862447", "brand:wikipedia": "en:T\u00fcrk Ekonomi Bankas\u0131", "name": "TEB", "name:ar": "\u062a\u064a\u0628 \u0628\u0627\u0646\u0643"}}, {"type": "node", "id": 5667686343, "lat": 41.0307911, "lon": 28.8274408, "tags": {"addr:city": "Istanbul", "addr:district": "Ba\u011fc\u0131lar", "addr:street": "Atat\u00fcrk Caddesi", "amenity": "bank", "brand": "Vak\u0131fbank", "brand:wikidata": "Q1148521", "brand:wikipedia": "en:Vak\u0131fBank", "name": "Vak\u0131fbank", "name:ar": "\u0648\u0642\u0641 \u0628\u0627\u0646\u0643"}}, {"type": "node", "id": 5667686373, "lat": 41.031079, "lon": 28.8268362, "tags": {"addr:city": "Istanbul", "addr:district": "Ba\u011fc\u0131lar", "addr:street": "Ataturk caddesi", "amenity": "bank", "brand": "Yap\u0131 Kredi", "brand:wikidata": "Q8049138", "brand:wikipedia": "en:Yap\u0131 ve Kredi Bankas\u0131", "name": "Yap\u0131 Kredi", "name:ar": "\u064a\u0627\u0628\u064a \u0643\u0631\u064a\u062f\u064a"}}, {"type": "node", "id": 5667686379, "lat": 41.0278286, "lon": 28.8176847, "tags": {"addr:city": "Istanbul", "addr:district": "Ba\u011fc\u0131lar", "addr:street": "Yavuz sultan selim caddesi", "amenity": "bank", "brand": "HSBC", "brand:wikidata": "Q190464", "name": "HSBC", "name:ar": "\u0627\u062a\u0634 \u0627\u0633 \u0628\u064a \u0633\u064a"}}, {"type": "node", "id": 5667686390, "lat": 41.0297751, "lon": 28.8281325, "tags": {"addr:city": "Istanbul", "addr:district": "Ba\u011fc\u0131lar", "addr:street": "Ataturk caddesi", "amenity": "bank", "brand": "Garanti Bankas\u0131", "brand:wikidata": "Q322962", "brand:wikipedia": "en:Garanti Bank", "name": "Garanti Bankas\u0131", "name:ar": "\u063a\u0631\u0627\u0646\u062a\u064a \u0628\u0646\u0643"}}, {"type": "node", "id": 5667687585, "lat": 41.0265047, "lon": 28.8145388, "tags": {"addr:city": "Istanbul", "addr:district": "Ba\u011fc\u0131lar", "addr:street": "Mimar sinan caddesi", "amenity": "bank", "brand": "Vak\u0131fbank", "brand:wikidata": "Q1148521", "brand:wikipedia": "en:Vak\u0131fBank", "name": "Vak\u0131fbank", "name:ar": "\u0648\u0642\u0641 \u0628\u0627\u0646\u0643"}}, {"type": "node", "id": 5667687619, "lat": 41.0318439, "lon": 28.8253246, "tags": {"addr:city": "Istanbul", "addr:district": "Ba\u011fc\u0131lar", "addr:street": "Cumhuriyet Caddesi", "amenity": "bank", "brand": "Vak\u0131f Kat\u0131l\u0131m", "brand:wikidata": "Q31188912", "brand:wikipedia": "tr:Vak\u0131f Kat\u0131l\u0131m Bankas\u0131", "name": "Vak\u0131f Kat\u0131l\u0131m", "name:ar": "\u0648\u0642\u0641 \u0643\u0627\u062a\u0627\u0644\u0645"}}, {"type": "node", "id": 5667688664, "lat": 41.0318439, "lon": 28.8260184, "tags": {"addr:city": "Istanbul", "addr:district": "Ba\u011fc\u0131lar", "addr:street": "Cumhuriyet Caddesi", "amenity": "bank", "brand": "Kuveyt T\u00fcrk", "brand:wikidata": "Q6036058", "brand:wikipedia": "tr:Kuveyt T\u00fcrk", "name": "Kuveyt T\u00fcrk", "name:ar": "\u0643\u0648\u064a\u062a \u062a\u0631\u0643"}}, {"type": "node", "id": 5667688685, "lat": 41.0242218, "lon": 28.8178678, "tags": {"addr:city": "Istanbul", "addr:district": "Ba\u011fc\u0131lar", "addr:street": "Mimar sinan caddesi", "amenity": "bank", "brand": "Odeabank", "brand:wikidata": "Q6036742", "name": "Odeabank", "name:ar": "\u0627\u0648\u062f\u0627\u0628\u0627\u0646\u0643"}}, {"type": "node", "id": 5667689726, "lat": 41.0309778, "lon": 28.8269405, "tags": {"addr:city": "Istanbul", "addr:district": "Ba\u011fc\u0131lar", "addr:street": "Ataturk caddesi", "amenity": "bank", "brand": "Halkbank", "brand:wikidata": "Q3593818", "brand:wikipedia": "en:Halkbank a.d.", "name": "Halkbank", "name:ar": "\u0647\u0627\u0644\u0643 \u0628\u0646\u0643"}}, {"type": "node", "id": 5667689820, "lat": 41.0301236, "lon": 28.82776, "tags": {"addr:city": "Istanbul", "addr:district": "Ba\u011fc\u0131lar", "addr:street": "Ataturk caddesi", "amenity": "bank", "brand": "ING", "brand:wikidata": "Q645708", "brand:wikipedia": "en:ING Group", "name": "ING", "name:ar": "\u0627\u0646\u062c \u0628\u0627\u0646\u0643"}}, {"type": "node", "id": 5667691051, "lat": 41.0315499, "lon": 28.8282781, "tags": {"addr:city": "Istanbul", "addr:district": "Ba\u011fc\u0131lar", "addr:street": "Cumhuriyet Caddesi", "amenity": "bank", "brand": "Ziraat Bankas\u0131", "brand:wikidata": "Q696003", "brand:wikipedia": "en:Ziraat Bankas\u0131", "name": "Ziraat Bankas\u0131", "name:ar": "\u0632\u0631\u0627\u0639\u0627\u062a \u0628\u0646\u0643"}}, {"type": "node", "id": 5667691070, "lat": 41.0305595, "lon": 28.8277019, "tags": {"addr:city": "Istanbul", "addr:district": "Ba\u011fc\u0131lar", "addr:street": "Atat\u00fcrk Caddesi", "amenity": "bank", "brand": "T\u00fcrkiye \u0130\u015f Bankas\u0131", "brand:wikidata": "Q909613", "brand:wikipedia": "en:\u0130\u015fbank", "name": "T\u00fcrkiye \u0130\u015f Bankas\u0131", "name:ar": "\u0628\u0646\u0643 \u0625\u064a\u0634"}}, {"type": "node", "id": 5667691075, "lat": 41.0318753, "lon": 28.8264763, "tags": {"addr:city": "Istanbul", "addr:district": "Ba\u011fc\u0131lar", "addr:street": "Cumhuriyet Caddesi", "amenity": "bank", "name": "Albaraka T\u00fcrk", "name:ar": "\u0627\u0644\u0628\u0631\u0643\u0629"}}, {"type": "node", "id": 5667701591, "lat": 41.0449022, "lon": 28.8467224, "tags": {"addr:city": "Istanbul", "addr:district": "Ba\u011fc\u0131lar", "addr:street": "Velio\u011flu caddesi", "amenity": "bank", "name": "T.C. Ziraat Bankas\u0131", "name:ar": "\u0628\u0646\u0643 \u0632\u0631\u0627\u0639\u062a"}}, {"type": "node", "id": 5667702728, "lat": 41.044156, "lon": 28.8470834, "tags": {"addr:city": "Istanbul", "addr:district": "Ba\u011fc\u0131lar", "addr:street": "Velio\u011flu caddesi", "amenity": "bank", "brand": "T\u00fcrkiye \u0130\u015f Bankas\u0131", "brand:wikidata": "Q909613", "brand:wikipedia": "en:T\u00fcrkiye \u0130\u015f Bankas\u0131", "name": "T\u00fcrkiye \u0130\u015f Bankas\u0131", "name:ar": "\u0628\u0646\u0643 \u0627\u064a\u0634"}}, {"type": "node", "id": 5667719054, "lat": 41.0337216, "lon": 28.8618434, "tags": {"addr:city": "Istanbul", "addr:district": "Ba\u011fc\u0131lar", "addr:street": "\u0130stanbul cd", "amenity": "bank", "brand": "Vak\u0131fbank", "brand:wikidata": "Q1148521", "brand:wikipedia": "en:Vak\u0131fBank", "name": "Vak\u0131fbank", "name:ar": "\u0628\u0646\u0643 \u0648\u0642\u0641"}}, {"type": "node", "id": 5667719060, "lat": 41.034111, "lon": 28.8604859, "tags": {"addr:city": "Istanbul", "addr:district": "Ba\u011fc\u0131lar", "addr:street": "Esenler Cd", "amenity": "bank", "brand": "Kuveyt T\u00fcrk", "brand:wikidata": "Q6036058", "brand:wikipedia": "tr:Kuveyt T\u00fcrk", "name": "Kuveyt T\u00fcrk", "name:ar": "\u0643\u0648\u064a\u062a \u062a\u0631\u0643", "opening_hours": "Mo-Fr 09:00-17:00"}}, {"type": "node", "id": 5667719108, "lat": 41.0360155, "lon": 28.8585074, "tags": {"addr:city": "Istanbul", "addr:district": "Ba\u011fc\u0131lar", "addr:street": "Osmangazi Caddesi", "amenity": "bank", "brand": "Denizbank", "brand:wikidata": "Q1115064", "brand:wikipedia": "en:DenizBank", "name": "Denizbank", "name:ar": "\u062f\u064a\u0646\u064a\u0632 \u0628\u0627\u0646\u0643", "opening_hours": "Mo-Fr 09:00-17:00"}}, {"type": "node", "id": 5667722030, "lat": 41.0343883, "lon": 28.8584528, "tags": {"addr:city": "Istanbul", "addr:district": "Ba\u011fc\u0131lar", "addr:street": "Esenler Cd", "amenity": "bank", "brand": "Akbank", "brand:wikidata": "Q416624", "brand:wikipedia": "tr:Akbank", "name": "Akbank", "name:ar": "\u0627\u0642 \u0628\u0646\u0643", "opening_hours": "Mo-Fr 09:00-17:00"}}, {"type": "node", "id": 5667722053, "lat": 41.0406903, "lon": 28.859241, "tags": {"addr:city": "Istanbul", "addr:street": "Osmangazi Caddesi", "amenity": "bank", "brand": "Garanti Bankas\u0131", "brand:wikidata": "Q322962", "brand:wikipedia": "en:Garanti BBVA", "name": "Garanti Bankas\u0131", "name:ar": "\u0643\u0631\u0627\u0646\u062a\u064a"}}, {"type": "node", "id": 5667722120, "lat": 41.0358623, "lon": 28.8585268, "tags": {"addr:city": "Istanbul", "addr:district": "Ba\u011fc\u0131lar", "addr:street": "Osmangazi Caddesi", "amenity": "bank", "branch": "Finasbank", "brand": "QNB Finansbank", "brand:wikidata": "Q1416237", "brand:wikipedia": "en:QNB Finansbank", "name": "QNB Finansbank", "opening_hours": "Mo-Fr 09:00-17:00"}}, {"type": "node", "id": 5667723821, "lat": 41.0338424, "lon": 28.8614603, "tags": {"addr:city": "Istanbul", "addr:district": "Ba\u011fc\u0131lar", "addr:street": "Esenler Cd", "amenity": "bank", "brand": "Vak\u0131fbank", "brand:wikidata": "Q1148521", "brand:wikipedia": "en:Vak\u0131fBank", "name": "Vak\u0131fbank", "name:ar": "\u0648\u0642\u0641 \u0628\u0646\u0643"}}, {"type": "node", "id": 5667723829, "lat": 41.0342697, "lon": 28.8588423, "tags": {"addr:city": "Istanbul", "addr:district": "Ba\u011fc\u0131lar", "addr:street": "\u0130stanbul cd", "amenity": "bank", "brand": "Akbank", "brand:wikidata": "Q416624", "brand:wikipedia": "tr:Akbank", "name": "Akbank", "name:ar": "ak \u0628\u0646\u0643"}}, {"type": "node", "id": 5667723839, "lat": 41.0409899, "lon": 28.8592041, "tags": {"addr:city": "Istanbul", "addr:street": "Osmangazi Caddesi", "amenity": "bank", "brand": "Ziraat Bankas\u0131", "brand:wikidata": "Q696003", "brand:wikipedia": "en:Ziraat Bank", "name": "Ziraat Bankas\u0131", "name:ar": "\u0628\u0646\u0643 \u0632\u0631\u0627\u0639\u0627\u062a"}}, {"type": "node", "id": 5667723854, "lat": 41.0356033, "lon": 28.8587575, "tags": {"addr:city": "Istanbul", "addr:district": "Ba\u011fc\u0131lar", "addr:street": "Osmangazi Caddesi", "amenity": "bank", "brand": "Ziraat Kat\u0131l\u0131m", "brand:wikidata": "Q20476458", "brand:wikipedia": "en:Ziraat Kat\u0131l\u0131m", "name": "Ziraat Kat\u0131l\u0131m", "name:ar": "\u0632\u0631\u0627\u0639\u0627\u062a \u0643\u0627\u062a\u0644\u0645", "opening_hours": "Mo-Fr 09:00-17:00", "operator": "ziraat"}}, {"type": "node", "id": 5667723856, "lat": 41.0341824, "lon": 28.8598063, "tags": {"addr:city": "Istanbul", "addr:district": "Ba\u011fc\u0131lar", "addr:street": "Esenler Cd", "amenity": "bank", "brand": "ING", "brand:wikidata": "Q645708", "brand:wikipedia": "en:ING Group", "name": "ING", "name:ar": "\u0627\u0646\u062c \u0628\u0646\u0643", "opening_hours": "Mo-Fr 09:00-17:00"}}, {"type": "node", "id": 5667725876, "lat": 41.0341481, "lon": 28.8609551, "tags": {"addr:city": "Istanbul", "addr:district": "Ba\u011fc\u0131lar", "addr:street": "Esenler Cd", "amenity": "bank", "brand": "Garanti Bankas\u0131", "brand:wikidata": "Q322962", "brand:wikipedia": "en:Garanti BBVA", "name": "Garanti Bankas\u0131", "name:ar": "\u063a\u0631\u0627\u0646\u062a\u064a", "opening_hours": "Mo-Fr 09:00-17:00"}}, {"type": "node", "id": 5667725885, "lat": 41.0362795, "lon": 28.858722, "tags": {"addr:city": "Istanbul", "addr:district": "Ba\u011fc\u0131lar", "addr:street": "Osmangazi Caddesi", "amenity": "bank", "brand": "T\u00fcrkiye \u0130\u015f Bankas\u0131", "brand:wikidata": "Q909613", "brand:wikipedia": "en:\u0130\u015fbank", "name": "T\u00fcrkiye \u0130\u015f Bankas\u0131", "name:ar": "\u062a\u0631\u0643\u064a\u0627 \u0628\u0646\u0643", "opening_hours": "Mo-Fr 09:00-17:00"}}, {"type": "node", "id": 5667725893, "lat": 41.0359698, "lon": 28.8566963, "tags": {"addr:city": "Istanbul", "addr:district": "Ba\u011fc\u0131lar", "addr:street": "Osmangazi Caddesi", "amenity": "bank", "brand": "Anadolubank", "brand:wikidata": "Q4750773", "brand:wikipedia": "en:Anadolubank", "name": "Anadolubank", "name:ar": "\u0623\u0646\u0627\u0636\u0648\u0644 \u0628\u0646\u0643", "opening_hours": "Mo-Fr 09:00-17:00"}}, {"type": "node", "id": 5667725909, "lat": 41.0410387, "lon": 28.8592041, "tags": {"addr:city": "Istanbul", "addr:street": "Osmangazi Caddesi", "amenity": "bank", "name": "PTT Bank", "name:ar": "\u0628 \u062a \u062a \u0628\u0646\u0643"}}, {"type": "node", "id": 5667725911, "lat": 41.0343482, "lon": 28.8588782, "tags": {"addr:city": "Istanbul", "addr:district": "Ba\u011fc\u0131lar", "addr:street": "Esenler Cd", "amenity": "bank", "brand": "TEB", "brand:wikidata": "Q7862447", "brand:wikipedia": "en:T\u00fcrk Ekonomi Bankas\u0131", "name": "TEB", "name:ar": "\u062a\u064a\u0628", "opening_hours": "Mo-Fr 09:00-17:00"}}, {"type": "node", "id": 5667727221, "lat": 41.0340424, "lon": 28.8617703, "tags": {"addr:city": "Istanbul", "addr:district": "Ba\u011fc\u0131lar", "addr:street": "Esenler Cd", "amenity": "bank", "brand": "Yap\u0131 Kredi", "brand:wikidata": "Q8049138", "brand:wikipedia": "en:Yap\u0131 Kredi", "name": "Yap\u0131 Kredi", "name:ar": "\u064a\u0627\u0628\u064a \u0643\u0631\u064a\u062f\u064a"}}, {"type": "node", "id": 5667727246, "lat": 41.0342578, "lon": 28.8590634, "tags": {"addr:city": "Istanbul", "addr:district": "Ba\u011fc\u0131lar", "addr:street": "\u0130stanbul cd", "amenity": "bank", "brand": "TEB", "brand:wikidata": "Q7862447", "brand:wikipedia": "en:T\u00fcrk Ekonomi Bankas\u0131", "name": "TEB", "name:ar": "teb \u0628\u0646\u0643"}}, {"type": "node", "id": 5667727252, "lat": 41.033194, "lon": 28.8616605, "tags": {"addr:city": "Istanbul", "addr:district": "Ba\u011fc\u0131lar", "addr:street": "25/4 . sokak", "amenity": "bank", "brand": "Ziraat Bankas\u0131", "brand:wikidata": "Q696003", "brand:wikipedia": "en:Ziraat Bank", "name": "Ziraat Bankas\u0131", "name:ar": "\u0628\u0646\u0643 \u0632\u0631\u0627\u0639\u0629"}}, {"type": "node", "id": 5667727273, "lat": 41.0361687, "lon": 28.8585461, "tags": {"addr:city": "Istanbul", "addr:district": "Ba\u011fc\u0131lar", "addr:street": "Osmangazi Caddesi", "amenity": "bank", "name": "T\u00fcrkiye Finans", "name:ar": "\u062a\u0631\u0643\u064a\u0627 \u0641\u0627\u064a\u0646\u0627\u0646\u0633", "opening_hours": "Mo-Fr 09:00-17:00"}}, {"type": "node", "id": 5667747230, "lat": 41.0205224, "lon": 28.858436, "tags": {"addr:city": "Istanbul", "addr:district": "Zeytinburnu", "amenity": "bank", "brand": "Garanti Bankas\u0131", "brand:wikidata": "Q322962", "name": "Garanti Bankas\u0131", "name:ar": "\u0628\u0646\u0643"}}, {"type": "node", "id": 5667747236, "lat": 41.0322309, "lon": 28.8475218, "tags": {"addr:city": "Istanbul", "addr:district": "Ba\u011fc\u0131lar", "addr:street": "Hoca Ahmet Yesevi caddesi", "amenity": "bank", "brand": "Kuveyt T\u00fcrk", "brand:wikidata": "Q6036058", "brand:wikipedia": "tr:Kuveyt T\u00fcrk", "name": "Kuveyt T\u00fcrk", "name:ar": "\u0628\u0646\u0643 \u0643\u0648\u064a\u062a \u062a\u0631\u0643"}}, {"type": "node", "id": 5667747316, "lat": 41.028146, "lon": 28.8569492, "tags": {"addr:city": "Istanbul", "addr:district": "Ba\u011fc\u0131lar", "addr:street": "Ba\u011fc\u0131lar caddesi", "amenity": "bank", "brand": "T\u00fcrkiye \u0130\u015f Bankas\u0131", "brand:wikidata": "Q909613", "brand:wikipedia": "en:\u0130\u015fbank", "name": "T\u00fcrkiye \u0130\u015f Bankas\u0131", "name:ar": "\u0628\u0646\u0643 \u0627\u064a\u0634"}}, {"type": "node", "id": 5667747923, "lat": 41.0217613, "lon": 28.8578591, "tags": {"addr:city": "Istanbul", "addr:district": "Zeytinburnu", "amenity": "bank", "brand": "Kuveyt T\u00fcrk", "brand:wikidata": "Q6036058", "brand:wikipedia": "tr:Kuveyt T\u00fcrk", "name": "Kuveyt T\u00fcrk", "name:ar": "\u0627\u0644\u0628\u0646\u0643 \u0627\u0644\u0643\u0648\u064a\u062a\u064a"}}, {"type": "node", "id": 5667747960, "lat": 41.0300416, "lon": 28.8568174, "tags": {"addr:city": "Istanbul", "addr:district": "Ba\u011fc\u0131lar", "addr:street": "Ba\u011fc\u0131lar caddesi", "amenity": "bank", "brand": "Ziraat Bankas\u0131", "brand:wikidata": "Q696003", "brand:wikipedia": "en:Ziraat Bank", "name": "Ziraat Bankas\u0131", "name:ar": "\u0628\u0646\u0643 \u0632\u0631\u0627\u0639\u0629"}}, {"type": "node", "id": 5667747978, "lat": 41.0247097, "lon": 28.8572289, "tags": {"addr:city": "Istanbul", "addr:district": "Ba\u011fc\u0131lar", "addr:street": "Ba\u011fc\u0131lar Caddesi", "amenity": "bank", "brand": "Vak\u0131fbank", "brand:wikidata": "Q1148521", "brand:wikipedia": "en:Vak\u0131fBank", "name": "Vak\u0131fbank", "name:ar": "\u0628\u0646\u0643 \u0648\u0642\u0641"}}, {"type": "node", "id": 5667747989, "lat": 41.024373, "lon": 28.857201, "tags": {"addr:city": "Istanbul", "addr:district": "Ba\u011fc\u0131lar", "addr:street": "Ba\u011fc\u0131lar Caddesi", "amenity": "bank", "brand": "Yap\u0131 Kredi", "brand:wikidata": "Q8049138", "brand:wikipedia": "en:Yap\u0131 ve Kredi Bankas\u0131", "name": "Yap\u0131 Kredi", "name:ar": "\u0628\u0646\u0643 \u064a\u0627\u0628\u064a \u0643\u0631\u064a\u062f\u064a"}}, {"type": "node", "id": 5667748689, "lat": 41.0230787, "lon": 28.8572847, "tags": {"addr:city": "Istanbul", "addr:district": "Ba\u011fc\u0131lar", "addr:street": "Ba\u011fc\u0131lar Caddesi", "amenity": "bank", "name": "alBaraka", "name:ar": "\u0628\u0646\u0643 \u0627\u0644\u0628\u0631\u0643\u0629"}}, {"type": "node", "id": 5832853786, "lat": 41.0420691, "lon": 28.6266843, "tags": {"addr:housenumber": "57A", "addr:street": "Had\u0131mk\u00f6y Yolu", "amenity": "bank", "branch": "K\u0131ra\u00e7 \u015eubesi", "brand": "QNB Finansbank", "brand:wikidata": "Q1416237", "name": "QNB Finansbank", "name:en": "Qnb Finansbank K\u0131ra\u00e7 Branch", "opening_hours": "Mo-Fr 09:00-12:30, 13:30-17:00"}}, {"type": "node", "id": 5923013885, "lat": 41.0276656, "lon": 28.7907137, "tags": {"amenity": "bank", "atm": "yes", "branch": "Sefak\u00f6y \u015eubesi", "brand": "T\u00fcrkiye \u0130\u015f Bankas\u0131", "brand:wikidata": "Q909613", "drive_through": "no", "name": "T\u00fcrkiye \u0130\u015f Bankas\u0131", "operator": "\u0130\u015f Bankas\u0131"}}, {"type": "node", "id": 6149862264, "lat": 40.9952599, "lon": 28.7914617}, {"type": "node", "id": 6149862265, "lat": 40.9952577, "lon": 28.7915072}, {"type": "node", "id": 6149862266, "lat": 40.9952379, "lon": 28.7915055}, {"type": "node", "id": 6149862267, "lat": 40.9952402, "lon": 28.79146}, {"type": "node", "id": 6259144091, "lat": 40.9930233, "lon": 28.8702326, "tags": {"amenity": "bank", "atm": "yes", "brand": "Fibabanka", "brand:wikidata": "Q5446343", "name": "Fibabanka"}}, {"type": "node", "id": 6259144092, "lat": 40.9931312, "lon": 28.8702265, "tags": {"amenity": "bank", "atm": "yes", "brand": "Yap\u0131 Kredi", "brand:wikidata": "Q8049138", "brand:wikipedia": "en:Yap\u0131 ve Kredi Bankas\u0131", "name": "Yap\u0131 Kredi"}}, {"type": "node", "id": 6259158485, "lat": 40.9846359, "lon": 28.8725837, "tags": {"amenity": "bank", "atm": "yes", "brand": "Anadolubank", "brand:wikidata": "Q4750773", "name": "Anadolubank"}}, {"type": "node", "id": 6259158486, "lat": 40.9845719, "lon": 28.872589, "tags": {"amenity": "bank", "atm": "yes", "brand": "Kuveyt T\u00fcrk", "brand:wikidata": "Q6036058", "brand:wikipedia": "tr:Kuveyt T\u00fcrk", "name": "Kuveyt T\u00fcrk"}}, {"type": "node", "id": 6259158487, "lat": 40.9847477, "lon": 28.8725744, "tags": {"amenity": "bank", "atm": "yes", "name": "Turkish Bank"}}, {"type": "node", "id": 6259170467, "lat": 40.9793466, "lon": 28.8743738, "tags": {"amenity": "bank", "atm": "yes", "brand": "Yap\u0131 Kredi", "brand:wikidata": "Q8049138", "brand:wikipedia": "en:Yap\u0131 ve Kredi Bankas\u0131", "name": "Yap\u0131 Kredi"}}, {"type": "node", "id": 6259399789, "lat": 41.0209355, "lon": 28.581714, "tags": {"amenity": "bank", "atm": "yes", "brand": "ING", "brand:wikidata": "Q645708", "brand:wikipedia": "en:ING Group", "name": "ING"}}, {"type": "node", "id": 6261249185, "lat": 40.9862253, "lon": 28.7965044, "tags": {"amenity": "bank", "brand": "Vak\u0131fbank", "brand:wikidata": "Q1148521", "brand:wikipedia": "en:Vak\u0131fBank", "name": "Vak\u0131fbank"}}, {"type": "node", "id": 6261249285, "lat": 40.9859684, "lon": 28.7963505, "tags": {"addr:housenumber": "63A", "addr:postcode": "34153", "addr:street": "Florya Caddesi", "amenity": "bank", "brand": "Ziraat Bankas\u0131", "brand:wikidata": "Q696003", "brand:wikipedia": "en:Ziraat Bankas\u0131", "name": "Ziraat Bankas\u0131"}}, {"type": "node", "id": 6262659587, "lat": 41.0056312, "lon": 28.7982212, "tags": {"amenity": "bank", "brand": "Yap\u0131 Kredi", "brand:wikidata": "Q8049138", "brand:wikipedia": "en:Yap\u0131 ve Kredi Bankas\u0131", "name": "Yap\u0131 Kredi"}}, {"type": "node", "id": 6262665987, "lat": 41.0071549, "lon": 28.7955401, "tags": {"amenity": "bank", "branch": "Sefak\u00f6y \u015eubesi", "brand": "Vak\u0131fbank", "brand:wikidata": "Q1148521", "name": "Vak\u0131fbank"}}, {"type": "node", "id": 6264639487, "lat": 41.0072129, "lon": 28.7958533, "tags": {"amenity": "bank", "brand": "TEB", "brand:wikidata": "Q7862447", "brand:wikipedia": "en:T\u00fcrk Ekonomi Bankas\u0131", "name": "TEB"}}, {"type": "node", "id": 6264639489, "lat": 41.0023103, "lon": 28.7978824, "tags": {"amenity": "bank", "atm": "yes", "name": "Albaraka"}}, {"type": "node", "id": 6264639490, "lat": 41.0020388, "lon": 28.7978208, "tags": {"amenity": "bank", "atm": "yes", "brand": "Kuveyt T\u00fcrk", "brand:wikidata": "Q6036058", "brand:wikipedia": "tr:Kuveyt T\u00fcrk", "name": "Kuveyt T\u00fcrk"}}, {"type": "node", "id": 6264767588, "lat": 40.9821808, "lon": 28.7944301, "tags": {"amenity": "bank", "branch": "Bankas\u0131", "brand": "Yap\u0131 Kredi", "brand:wikidata": "Q8049138", "name": "Yap\u0131 Kredi", "opening_hours": "Mo-Sa 09:00-17:00"}}, {"type": "node", "id": 6264796285, "lat": 40.9858424, "lon": 28.7966225, "tags": {"amenity": "bank", "brand": "T\u00fcrkiye \u0130\u015f Bankas\u0131", "brand:wikidata": "Q909613", "brand:wikipedia": "en:T\u00fcrkiye \u0130\u015f Bankas\u0131", "name": "T\u00fcrkiye \u0130\u015f Bankas\u0131"}}, {"type": "node", "id": 6264799585, "lat": 40.9833438, "lon": 28.7952272, "tags": {"amenity": "bank", "brand": "Denizbank", "brand:wikidata": "Q1115064", "name": "Denizbank"}}, {"type": "node", "id": 6264804385, "lat": 40.9806361, "lon": 28.793399, "tags": {"amenity": "bank", "name": "PTT"}}, {"type": "node", "id": 6271134794, "lat": 40.9785074, "lon": 28.8755372, "tags": {"amenity": "bank", "atm": "yes", "brand": "Kuveyt T\u00fcrk", "brand:wikidata": "Q6036058", "brand:wikipedia": "tr:Kuveyt T\u00fcrk", "name": "Kuveyt T\u00fcrk"}}, {"type": "node", "id": 6271134799, "lat": 40.9785151, "lon": 28.8757061, "tags": {"amenity": "bank", "atm": "yes", "brand": "ING", "brand:wikidata": "Q645708", "brand:wikipedia": "en:ING Group", "name": "ING"}}, {"type": "node", "id": 6284642187, "lat": 40.9921659, "lon": 28.8424904, "tags": {"amenity": "bank", "brand": "\u015eekerbank", "brand:wikidata": "Q6088369", "brand:wikipedia": "en:\u015eekerbank", "name": "\u015eekerbank"}}, {"type": "node", "id": 6286582785, "lat": 40.9924864, "lon": 28.8484754, "tags": {"amenity": "bank", "brand": "Halkbank", "brand:wikidata": "Q3593818", "brand:wikipedia": "en:Halkbank a.d.", "name": "Halkbank"}}, {"type": "node", "id": 6308074486, "lat": 41.0323108, "lon": 28.9012161, "tags": {"amenity": "bank"}}, {"type": "node", "id": 6383694897, "lat": 40.9789144, "lon": 28.8742089, "tags": {"amenity": "bank", "atm": "yes", "brand": "Vak\u0131fbank", "brand:wikidata": "Q1148521", "brand:wikipedia": "en:Vak\u0131fBank", "name": "Vak\u0131fbank"}}, {"type": "node", "id": 6383694902, "lat": 40.9789958, "lon": 28.8741913, "tags": {"amenity": "bank", "atm": "yes", "brand": "Halkbank", "brand:wikidata": "Q3593818", "brand:wikipedia": "en:Halkbank a.d.", "name": "Halkbank"}}, {"type": "node", "id": 6383694914, "lat": 40.9799075, "lon": 28.8739883, "tags": {"amenity": "bank", "atm": "yes", "brand": "Ziraat Bankas\u0131", "brand:wikidata": "Q696003", "brand:wikipedia": "en:Ziraat Bankas\u0131", "name": "Ziraat Bankas\u0131"}}, {"type": "node", "id": 6383708890, "lat": 40.9798194, "lon": 28.874259, "tags": {"amenity": "bank", "atm": "yes", "brand": "QNB Finansbank", "brand:wikidata": "Q1416237", "name": "QNB Finansbank"}}, {"type": "node", "id": 6435244488, "lat": 41.0396885, "lon": 28.8957266, "tags": {"amenity": "bank", "brand": "T\u00fcrkiye \u0130\u015f Bankas\u0131", "brand:wikidata": "Q909613", "brand:wikipedia": "en:\u0130\u015fbank", "name": "T\u00fcrkiye \u0130\u015f Bankas\u0131"}}, {"type": "node", "id": 6444997687, "lat": 40.9939565, "lon": 28.7942324, "tags": {"amenity": "bank", "brand": "Akbank", "brand:wikidata": "Q416624", "brand:wikipedia": "tr:Akbank", "name": "Akbank", "opening_hours": "Mo-Su 09:00-12:30, 13:30-17:30"}}, {"type": "node", "id": 6527732628, "lat": 41.0041292, "lon": 28.9017586, "tags": {"addr:city": "istanbul", "addr:district": "zeytinburnu", "addr:neighbourhood": "Seyit Nizam Mahallesi", "addr:street": "Demirciler sitesi 1.yol", "amenity": "bank", "atm": "yes", "brand": "Vak\u0131fbank", "brand:wikidata": "Q1148521", "brand:wikipedia": "en:Vak\u0131fBank", "name": "Vak\u0131fbank"}}, {"type": "node", "id": 6533404507, "lat": 40.9945025, "lon": 28.903636, "tags": {"addr:city": "istanbul", "addr:district": "zeyt\u0131nburnu", "addr:neighbourhood": "Ye\u015filtepe Mahallesi", "amenity": "bank", "atm": "yes", "brand": "Akbank", "brand:wikidata": "Q416624", "brand:wikipedia": "tr:Akbank", "name": "Akbank", "operator": "AKBANK"}}, {"type": "node", "id": 6567281829, "lat": 40.9950029, "lon": 28.8697025, "tags": {"amenity": "bank", "atm": "yes", "branch": "Bak\u0131rk\u00f6y \u015eubesi", "brand": "Alternatif Bank", "brand:wikidata": "Q4736403", "name": "Alternatif Bank", "operator": "Alternatif Bank", "phone": "02125425654"}}, {"type": "node", "id": 6567295016, "lat": 40.9647651, "lon": 28.837433, "tags": {"amenity": "bank", "atm": "yes", "branch": "Ye\u015filyurt \u015eubesi", "brand": "Alternatif Bank", "brand:wikidata": "Q4736403", "name": "Alternatif Bank", "operator": "Alternatif Bank", "phone": "02125818383"}}, {"type": "node", "id": 6567533596, "lat": 41.007554, "lon": 28.6605454, "tags": {"amenity": "bank", "atm": "yes", "branch": "Beylikd\u00fcz\u00fc \u015eubesi", "brand": "Alternatif Bank", "brand:wikidata": "Q4736403", "brand:wikipedia": "en:Alternatif Bank", "name": "Alternatif Bank", "operator": "Alternatif Bank", "phone": "02128792680"}}, {"type": "node", "id": 6753277233, "lat": 41.0416282, "lon": 28.8134937, "tags": {"amenity": "bank", "atm": "yes", "brand": "Kuveyt T\u00fcrk", "brand:wikidata": "Q6036058", "brand:wikipedia": "tr:Kuveyt T\u00fcrk", "contact:website": "https://www.kuveytturk.com.tr/", "name": "Kuveyt T\u00fcrk"}}, {"type": "node", "id": 6819467158, "lat": 41.0347605, "lon": 28.9128461, "tags": {"amenity": "bank", "atm": "yes", "brand": "Vak\u0131fbank", "brand:wikidata": "Q1148521", "brand:wikipedia": "en:Vak\u0131fBank", "name": "Vak\u0131fbank"}}, {"type": "node", "id": 6819467161, "lat": 41.0350718, "lon": 28.9121333, "tags": {"amenity": "bank", "atm": "yes", "brand": "Garanti Bankas\u0131", "brand:wikidata": "Q322962", "brand:wikipedia": "en:Garanti Bank", "name": "Garanti Bankas\u0131"}}, {"type": "node", "id": 6819467171, "lat": 41.0354424, "lon": 28.9121179, "tags": {"amenity": "bank", "atm": "yes", "brand": "TEB", "name": "Eminevim", "office": "estate_agent"}}, {"type": "node", "id": 6854396520, "lat": 41.030802, "lon": 28.9160766, "tags": {"amenity": "bank", "atm": "yes", "brand": "Garanti Bankas\u0131", "brand:wikidata": "Q322962", "brand:wikipedia": "en:Garanti BBVA", "name": "Garanti Bankas\u0131"}}, {"type": "node", "id": 6854422814, "lat": 41.0304821, "lon": 28.9141739, "tags": {"amenity": "bank", "brand": "T\u00fcrkiye \u0130\u015f Bankas\u0131", "brand:wikidata": "Q909613", "brand:wikipedia": "en:\u0130\u015fbank", "name": "T\u00fcrkiye \u0130\u015f Bankas\u0131"}}, {"type": "node", "id": 6854422815, "lat": 41.0297295, "lon": 28.9105485, "tags": {"amenity": "bank", "brand": "TEB", "brand:wikidata": "Q7862447", "brand:wikipedia": "en:T\u00fcrk Ekonomi Bankas\u0131", "name": "TEB"}}, {"type": "node", "id": 6854422816, "lat": 41.0296793, "lon": 28.9084672, "tags": {"amenity": "bank", "brand": "Halkbank", "brand:wikidata": "Q3593818", "brand:wikipedia": "en:Halkbank a.d.", "name": "Halkbank"}}, {"type": "node", "id": 6854422817, "lat": 41.0302553, "lon": 28.908513, "tags": {"amenity": "bank", "brand": "Yap\u0131 Kredi", "brand:wikidata": "Q8049138", "brand:wikipedia": "en:Yap\u0131 Kredi", "name": "Yap\u0131 Kredi"}}, {"type": "node", "id": 6950895956, "lat": 40.9925743, "lon": 28.8827216, "tags": {"addr:neighbourhood": "Osmaniye", "addr:street": "Cemiyet Sokak", "amenity": "bank", "atm": "yes", "brand": "Ziraat Bankas\u0131", "brand:wikidata": "Q696003", "brand:wikipedia": "en:Ziraat Bank", "name": "Ziraat Bankas\u0131", "operator": "Ziraat Bankas\u0131 Osmaniye \u015eubesi"}}, {"type": "node", "id": 6950933704, "lat": 40.9927518, "lon": 28.8837493, "tags": {"amenity": "bank", "atm": "yes", "brand": "T\u00fcrkiye \u0130\u015f Bankas\u0131", "brand:wikidata": "Q909613", "brand:wikipedia": "en:\u0130\u015fbank", "drive_through": "no", "name": "T\u00fcrkiye \u0130\u015f Bankas\u0131", "operator": "\u0130\u015f bankas\u0131"}}, {"type": "node", "id": 7592484466, "lat": 41.0033736, "lon": 28.8708773, "tags": {"amenity": "bank", "name": "PTT \u00c7al\u0131\u015flar \u015eubesi", "operator": "PTT"}}, {"type": "node", "id": 7592484467, "lat": 41.0029809, "lon": 28.8707786, "tags": {"amenity": "bank", "brand": "T\u00fcrkiye \u0130\u015f Bankas\u0131", "brand:wikidata": "Q909613", "brand:wikipedia": "en:T\u00fcrkiye \u0130\u015f Bankas\u0131", "name": "T\u00fcrkiye \u0130\u015f Bankas\u0131"}}, {"type": "node", "id": 7651602433, "lat": 41.0218518, "lon": 28.5879046, "tags": {"amenity": "bank", "brand": "Ziraat Bankas\u0131", "brand:wikidata": "Q696003", "brand:wikipedia": "en:Ziraat Bankas\u0131", "name": "Ziraat Bankas\u0131"}}, {"type": "node", "id": 7655001423, "lat": 41.0028593, "lon": 28.6425949, "tags": {"amenity": "bank", "brand": "T\u00fcrkiye \u0130\u015f Bankas\u0131", "brand:wikidata": "Q909613", "brand:wikipedia": "en:T\u00fcrkiye \u0130\u015f Bankas\u0131", "name": "T\u00fcrkiye \u0130\u015f Bankas\u0131"}}, {"type": "node", "id": 7671033636, "lat": 41.0484396, "lon": 28.9302953, "tags": {"addr:city": "\u0130stanbul", "addr:district": "Ey\u00fcpsultan", "addr:housenumber": "11", "addr:neighbourhood": "\u0130slambey", "addr:postcode": "34050", "addr:street": "Dip\u00e7ik Soka\u011f\u0131", "amenity": "bank", "atm": "yes", "branch": "Ey\u00fcpsultan", "brand": "QNB Finansbank", "brand:wikidata": "Q1416237", "brand:wikipedia": "en:QNB Finansbank", "fax": "+90 212 581 3025", "name": "QNB Finansbank", "phone": "+90 212) 581 2828"}}, {"type": "node", "id": 7698544119, "lat": 40.9909279, "lon": 28.6148171, "tags": {"addr:city": "\u0130stanbul", "addr:district": "Beylikd\u00fcz\u00fc", "amenity": "bank", "brand": "T\u00fcrkiye \u0130\u015f Bankas\u0131", "brand:wikidata": "Q909613", "brand:wikipedia": "en:T\u00fcrkiye \u0130\u015f Bankas\u0131", "name": "T\u00fcrkiye \u0130\u015f Bankas\u0131"}}, {"type": "node", "id": 7698544120, "lat": 40.9909937, "lon": 28.6147272, "tags": {"addr:city": "\u0130stanbul", "addr:district": "Beylikd\u00fcz\u00fc", "amenity": "bank", "brand": "Ziraat Bankas\u0131", "brand:wikidata": "Q696003", "brand:wikipedia": "en:Ziraat Bankas\u0131", "name": "Ziraat Bankas\u0131"}}, {"type": "node", "id": 7746338386, "lat": 41.0359853, "lon": 28.9120872, "tags": {"addr:street": "Abdi \u0130pek\u00e7i Caddesi", "amenity": "bank", "brand": "T\u00fcrkiye \u0130\u015f Bankas\u0131", "brand:wikidata": "Q909613", "brand:wikipedia": "en:T\u00fcrkiye \u0130\u015f Bankas\u0131", "name": "T\u00fcrkiye \u0130\u015f Bankas\u0131"}}, {"type": "node", "id": 7746341586, "lat": 41.0360824, "lon": 28.9119351, "tags": {"addr:street": "Abdi \u0130pek\u00e7i Caddesi", "amenity": "bank", "brand": "Akbank", "brand:wikidata": "Q416624", "brand:wikipedia": "tr:Akbank", "name": "Akbank"}}, {"type": "node", "id": 8021273098, "lat": 40.9939285, "lon": 28.7073166, "tags": {"amenity": "bank", "brand": "Yap\u0131 Kredi", "brand:wikidata": "Q8049138", "brand:wikipedia": "en:Yap\u0131 Kredi", "name": "Yap\u0131 Kredi"}}, {"type": "node", "id": 8021294582, "lat": 40.9887715, "lon": 28.7162091, "tags": {"amenity": "bank", "brand": "T\u00fcrkiye \u0130\u015f Bankas\u0131", "brand:wikidata": "Q909613", "brand:wikipedia": "en:\u0130\u015fbank", "name": "T\u00fcrkiye \u0130\u015f Bankas\u0131"}}, {"type": "node", "id": 8021296200, "lat": 40.9906489, "lon": 28.7131877, "tags": {"amenity": "bank", "brand": "Akbank", "brand:wikidata": "Q416624", "brand:wikipedia": "tr:Akbank", "name": "Akbank"}}, {"type": "node", "id": 8021304302, "lat": 40.9855529, "lon": 28.7209979, "tags": {"amenity": "bank", "name": "Garanti BBVA"}}, {"type": "node", "id": 8027722953, "lat": 40.9608639, "lon": 28.8242957, "tags": {"amenity": "bank", "brand": "Ziraat Bankas\u0131", "brand:wikidata": "Q696003", "brand:wikipedia": "en:Ziraat Bankas\u0131", "name": "Ziraat Bankas\u0131"}}, {"type": "node", "id": 8027748396, "lat": 40.9597278, "lon": 28.8234441, "tags": {"amenity": "bank", "brand": "HSBC", "brand:wikidata": "Q190464", "name": "HSBC"}}, {"type": "node", "id": 8027754431, "lat": 40.9606763, "lon": 28.8241787, "tags": {"amenity": "bank", "brand": "\u015eekerbank", "brand:wikidata": "Q6088369", "name": "\u015eekerbank"}}, {"type": "node", "id": 8027757290, "lat": 40.9605248, "lon": 28.823735, "tags": {"amenity": "bank", "brand": "TEB", "brand:wikidata": "Q7862447", "brand:wikipedia": "en:T\u00fcrk Ekonomi Bankas\u0131", "name": "TEB"}}, {"type": "node", "id": 8027768239, "lat": 40.9612452, "lon": 28.8245322, "tags": {"amenity": "bank", "brand": "Akbank", "brand:wikidata": "Q416624", "brand:wikipedia": "tr:Akbank", "name": "Akbank"}}, {"type": "node", "id": 8296307008, "lat": 40.9797206, "lon": 28.8553336, "tags": {"amenity": "bank", "branch": "Atak\u00f6y \u0130stanbul \u015eubesi", "brand": "Vak\u0131fbank", "brand:wikidata": "Q1148521", "name": "Vak\u0131fbank"}}, {"type": "node", "id": 8310464338, "lat": 40.9866461, "lon": 28.8726233, "tags": {"amenity": "bank", "brand": "Vak\u0131fbank", "brand:wikidata": "Q1148521", "brand:wikipedia": "en:Vak\u0131fBank", "name": "Vak\u0131fbank"}}, {"type": "node", "id": 8310467738, "lat": 40.9846736, "lon": 28.8721975, "tags": {"amenity": "bank", "brand": "Yap\u0131 Kredi", "brand:wikidata": "Q8049138", "brand:wikipedia": "en:Yap\u0131 ve Kredi Bankas\u0131", "name": "Yap\u0131 Kredi"}}, {"type": "node", "id": 8310468944, "lat": 40.9844636, "lon": 28.8726349, "tags": {"amenity": "bank", "brand": "Denizbank", "brand:wikidata": "Q1115064", "brand:wikipedia": "en:DenizBank", "name": "Denizbank"}}, {"type": "node", "id": 8310472832, "lat": 40.9831485, "lon": 28.8729406, "tags": {"amenity": "bank", "brand": "TEB", "brand:wikidata": "Q7862447", "brand:wikipedia": "en:T\u00fcrk Ekonomi Bankas\u0131", "name": "TEB", "opening_hours": "Mo-Fr 09:00-17:00"}}, {"type": "node", "id": 8322016279, "lat": 41.0033722, "lon": 28.6320453, "tags": {"amenity": "bank", "brand": "Kuveyt T\u00fcrk", "brand:wikidata": "Q6036058", "brand:wikipedia": "tr:Kuveyt T\u00fcrk", "name": "Kuveyt T\u00fcrk"}}, {"type": "node", "id": 8439019720, "lat": 41.002957, "lon": 28.8306839, "tags": {"amenity": "bank", "brand": "QNB Finansbank", "brand:wikidata": "Q1416237", "brand:wikipedia": "en:Finansbank", "name": "QNB Finansbank", "opening_hours": "Mo-Fr 09:00-18:00"}}, {"type": "node", "id": 8504482194, "lat": 41.0446531, "lon": 28.8795168, "tags": {"amenity": "bank", "atm": "yes", "brand": "Ziraat Bankas\u0131", "brand:wikidata": "Q696003", "brand:wikipedia": "en:Ziraat Bank", "name": "Ziraat Bankas\u0131"}}, {"type": "node", "id": 8504482195, "lat": 41.0454567, "lon": 28.8787047, "tags": {"amenity": "bank", "atm": "yes", "brand": "Denizbank", "brand:wikidata": "Q1115064", "brand:wikipedia": "en:DenizBank", "name": "Denizbank"}}, {"type": "node", "id": 8504482197, "lat": 41.0489303, "lon": 28.876455, "tags": {"amenity": "bank", "atm": "yes", "brand": "Garanti Bankas\u0131", "brand:wikidata": "Q322962", "brand:wikipedia": "en:Garanti BBVA", "name": "Garanti Bankas\u0131"}}, {"type": "node", "id": 9025307832, "lat": 40.9790013, "lon": 28.8732478, "tags": {"addr:city": "\u0130stanbul", "addr:district": "Bak\u0131rk\u00f6y", "addr:housenumber": "12", "addr:neighbourhood": "Zeytinlik Mahallesi", "addr:postcode": "34140", "addr:street": "Halk\u00e7\u0131 Soka\u011f\u0131", "amenity": "bank", "atm": "true", "branch": "\u00c7ar\u015f\u0131 Bak\u0131rk\u00f6y \u0130stanbul \u015eubesi", "brand": "T\u00fcrkiye \u0130\u015f Bankas\u0131", "brand:wikidata": "Q909613", "brand:wikipedia": "en:\u0130\u015fbank", "name": "T\u00fcrkiye \u0130\u015f Bankas\u0131", "opening_hours": "Mo-Fr 09:00-12:30,13:30-17:00", "opening_hours:covid19": "Mo-Fr 09:00-12:30,13:30-16:30", "opening_hours:url": "https://www.isbank.com.tr/bankamizi-taniyin/yeni-donem-gise-calisma-saatleri", "phone": "+90 850 724 0 724", "website": "https://www.isbank.com.tr/"}}, {"type": "node", "id": 9132025845, "lat": 41.0105091, "lon": 28.8299809, "tags": {"amenity": "bank", "atm": "yes", "brand": "Anadolubank", "brand:wikidata": "Q4750773", "brand:wikipedia": "en:Anadolubank", "name": "Anadolubank"}}, {"type": "node", "id": 9132025846, "lat": 41.0102007, "lon": 28.8303844, "tags": {"amenity": "bank", "atm": "yes", "brand": "TEB", "brand:wikidata": "Q7862447", "brand:wikipedia": "en:T\u00fcrk Ekonomi Bankas\u0131", "name": "TEB"}}, {"type": "node", "id": 9132025847, "lat": 41.0090086, "lon": 28.8309048, "tags": {"amenity": "bank", "atm": "yes", "brand": "Halkbank", "brand:wikidata": "Q3593818", "brand:wikipedia": "en:Halkbank a.d.", "name": "Halkbank"}}, {"type": "node", "id": 9134602821, "lat": 40.9797458, "lon": 28.8743615, "tags": {"amenity": "bank", "name": "Albaraka"}}, {"type": "node", "id": 9141461901, "lat": 41.0359097, "lon": 28.9120863, "tags": {"amenity": "bank", "brand": "Ziraat Bankas\u0131", "brand:wikidata": "Q696003", "name": "Ziraat Bankas\u0131"}}, {"type": "node", "id": 9141475653, "lat": 41.03617, "lon": 28.9121019, "tags": {"amenity": "bank", "brand": "ING", "brand:wikidata": "Q645708", "brand:wikipedia": "en:ING Group", "name": "ING"}}, {"type": "node", "id": 9141477058, "lat": 41.0357733, "lon": 28.9120581, "tags": {"amenity": "bank", "brand": "Kuveyt T\u00fcrk", "brand:wikidata": "Q6036058", "name": "Kuveyt T\u00fcrk"}}, {"type": "node", "id": 9141478416, "lat": 41.035394, "lon": 28.9121156, "tags": {"amenity": "bank", "brand": "TEB", "brand:wikidata": "Q7862447", "name": "TEB"}}, {"type": "node", "id": 9141618971, "lat": 40.9993693, "lon": 28.7128707, "tags": {"amenity": "bank", "brand": "Yap\u0131 Kredi", "brand:wikidata": "Q8049138", "brand:wikipedia": "en:Yap\u0131 Kredi", "name": "Yap\u0131 Kredi"}}, {"type": "node", "id": 9141664836, "lat": 41.0088995, "lon": 28.702239, "tags": {"amenity": "bank", "brand": "Ziraat Bankas\u0131", "brand:wikidata": "Q696003", "brand:wikipedia": "en:Ziraat Bank", "name": "Ziraat Bankas\u0131"}}, {"type": "node", "id": 9141666099, "lat": 41.0023498, "lon": 28.7100533, "tags": {"amenity": "bank", "brand": "TEB", "brand:wikidata": "Q7862447", "brand:wikipedia": "en:T\u00fcrk Ekonomi Bankas\u0131", "name": "TEB"}}, {"type": "node", "id": 9225907660, "lat": 41.0316187, "lon": 28.8146524, "tags": {"amenity": "bank", "brand": "Yap\u0131 Kredi", "brand:wikidata": "Q8049138", "brand:wikipedia": "en:Yap\u0131 Kredi", "name": "Yap\u0131 Kredi"}}, {"type": "node", "id": 9385532752, "lat": 41.0420755, "lon": 28.9185171, "tags": {"addr:city": "\u0130stanbul", "addr:district": "Ey\u00fcpsultan", "addr:housenumber": "61/N", "addr:neighbourhood": "Top\u00e7ular", "addr:postcode": "34055", "addr:street": "Rami K\u0131\u015fla Caddesi", "amenity": "bank", "branch": "K\u0131\u015fla Caddesi", "brand": "T\u00fcrkiye \u0130\u015f Bankas\u0131", "brand:wikidata": "Q909613", "brand:wikipedia": "en:\u0130\u015fbank", "name": "T\u00fcrkiye \u0130\u015f Bankas\u0131"}}, {"type": "node", "id": 9455375729, "lat": 40.9824833, "lon": 28.7226755, "tags": {"amenity": "bank", "name": "Garanti BBVA"}}, {"type": "node", "id": 9463371551, "lat": 41.0492708, "lon": 28.9202792}, {"type": "node", "id": 9463371552, "lat": 41.0492164, "lon": 28.9203427}, {"type": "node", "id": 9463371553, "lat": 41.0491539, "lon": 28.9202407}, {"type": "node", "id": 9463371554, "lat": 41.0492091, "lon": 28.9201792}, {"type": "node", "id": 9500535272, "lat": 41.0009165, "lon": 28.7975228, "tags": {"addr:city": "\u0130stanbul", "addr:district": "K\u00fc\u00e7\u00fck\u00e7ekmece", "addr:housenumber": "62/A", "addr:neighbourhood": "Kartaltepe", "addr:postcode": "34295", "addr:street": "Halkal\u0131 Caddesi", "amenity": "bank", "atm": "yes", "branch": "Sefak\u00f6y", "brand": "TEB", "brand:wikidata": "Q7862447", "brand:wikipedia": "en:T\u00fcrk Ekonomi Bankas\u0131", "fax": "+90 216 636 3563", "name": "TEB", "phone": "+90 850 204 0122"}}, {"type": "node", "id": 9500617804, "lat": 41.0011702, "lon": 28.7976758, "tags": {"amenity": "bank", "brand": "Vak\u0131fbank", "brand:wikidata": "Q1148521", "name": "Vak\u0131fbank"}}, {"type": "node", "id": 9500621686, "lat": 41.0012981, "lon": 28.7976664, "tags": {"amenity": "bank", "brand": "T\u00fcrkiye \u0130\u015f Bankas\u0131", "brand:wikidata": "Q909613", "name": "T\u00fcrkiye \u0130\u015f Bankas\u0131"}}, {"type": "node", "id": 9500627344, "lat": 41.0018847, "lon": 28.7978259, "tags": {"amenity": "bank", "name": "Emlak Kat\u0131l\u0131m"}}, {"type": "node", "id": 9506588799, "lat": 41.0476727, "lon": 28.9189837, "tags": {"addr:city": "\u0130stanbul", "addr:district": "Ey\u00fcpsultan", "addr:housenumber": "21/A", "addr:neighbourhood": "Rami Cuma", "addr:postcode": "34055", "addr:street": "Talimhane Caddesi", "amenity": "bank", "atm": "yes", "branch": "Rami", "brand": "Halkbank", "brand:wikidata": "Q3593818", "brand:wikipedia": "en:Halkbank a.d.", "fax": "+90 212 919 3316", "name": "Halkbank", "phone": "+90 212 953 3420"}}, {"type": "node", "id": 9550875409, "lat": 40.9924039, "lon": 28.8455019, "tags": {"amenity": "bank", "brand": "Yap\u0131 Kredi", "brand:wikidata": "Q8049138", "name": "Yap\u0131 Kredi"}}, {"type": "node", "id": 9550928900, "lat": 40.9922369, "lon": 28.8443975, "tags": {"amenity": "bank", "brand": "TEB", "brand:wikidata": "Q7862447", "name": "TEB"}}, {"type": "node", "id": 9550928906, "lat": 40.9923638, "lon": 28.8435123, "tags": {"amenity": "bank", "brand": "Kuveyt T\u00fcrk", "brand:wikidata": "Q6036058", "name": "Kuveyt T\u00fcrk"}}, {"type": "node", "id": 9550928910, "lat": 40.9924298, "lon": 28.8441254, "tags": {"amenity": "bank", "brand": "Akbank", "brand:wikidata": "Q416624", "name": "Akbank"}}, {"type": "node", "id": 9742988935, "lat": 41.0087566, "lon": 28.5357959, "tags": {"amenity": "bank", "name": "Halkbank"}}, {"type": "node", "id": 9833313917, "lat": 41.0058533, "lon": 28.6600958, "tags": {"amenity": "bank", "brand": "Ziraat Bankas\u0131", "brand:wikidata": "Q696003", "name": "Ziraat Bankas\u0131", "name:en": "Ziraat Bank"}}, {"type": "node", "id": 9897543817, "lat": 41.0118317, "lon": 28.938817, "tags": {"amenity": "bank", "brand": "Denizbank", "brand:wikidata": "Q1115064", "name": "Denizbank", "name:en": "DenizBank"}}, {"type": "node", "id": 10029610265, "lat": 41.0325726, "lon": 28.9019955, "tags": {"amenity": "bank", "brand": "T\u00fcrkiye \u0130\u015f Bankas\u0131", "brand:wikidata": "Q909613", "name": "T\u00fcrkiye \u0130\u015f Bankas\u0131"}}, {"type": "node", "id": 10029619945, "lat": 41.0452009, "lon": 28.9051661, "tags": {"amenity": "bank", "brand": "Ziraat Bankas\u0131", "brand:wikidata": "Q696003", "name": "Ziraat Bankas\u0131"}}, {"type": "node", "id": 10029665219, "lat": 41.0325926, "lon": 28.908715, "tags": {"amenity": "bank", "brand": "Akbank", "name": "Akbank"}}, {"type": "node", "id": 10240011731, "lat": 40.9832741, "lon": 28.7951792, "tags": {"amenity": "bank", "brand": "HSBC", "brand:wikidata": "Q190464", "name": "HSBC"}}, {"type": "node", "id": 10695491199, "lat": 41.0261424, "lon": 28.6849492, "tags": {"amenity": "bank", "brand": "Halkbank", "brand:wikidata": "Q3593818", "name": "Halkbank", "operator": "Halkbank Esenyurt \u015eubesi"}}, {"type": "node", "id": 10695491209, "lat": 41.0253281, "lon": 28.6853111, "tags": {"amenity": "bank", "name": "Albaraka T\u00fcrk Eesnyurt \u015eubesi"}}, {"type": "node", "id": 10695491210, "lat": 41.0239617, "lon": 28.6862364, "tags": {"amenity": "bank", "brand": "Garanti Bankas\u0131", "brand:wikidata": "Q322962", "name": "Garanti Bankas\u0131", "operator": "Garanti BBVA Esenyurt Yeni Meydan \u015eubesi"}}, {"type": "node", "id": 10695491211, "lat": 41.023741, "lon": 28.6862503, "tags": {"amenity": "bank", "brand": "Yap\u0131 Kredi", "brand:wikidata": "Q8049138", "name": "Yap\u0131 Kredi", "operator": "Yap\u0131 Kredi Esenyurt \u015eubesi"}}, {"type": "node", "id": 10695491212, "lat": 41.0233994, "lon": 28.6864302, "tags": {"amenity": "bank", "brand": "Ziraat Kat\u0131l\u0131m", "brand:wikidata": "Q20476458", "name": "Ziraat Kat\u0131l\u0131m", "operator": "Ziraat Kat\u0131l\u0131m Esenyurt \u015eubesi"}}, {"type": "node", "id": 10695491213, "lat": 41.0229355, "lon": 28.687053, "tags": {"amenity": "bank", "brand": "Vak\u0131f Kat\u0131l\u0131m", "brand:wikidata": "Q31188912", "name": "Vak\u0131f Kat\u0131l\u0131m", "operator": "Vak\u0131f Kat\u0131l\u0131m Esenyurt \u015eubesi"}}, {"type": "node", "id": 10695491214, "lat": 41.0221777, "lon": 28.6871894, "tags": {"amenity": "bank", "brand": "Vak\u0131fbank", "brand:wikidata": "Q1148521", "name": "Vak\u0131fbank", "operator": "Vak\u0131fbank Esenyurt \u015eubesi"}}, {"type": "way", "id": 109149449, "nodes": [1250323318, 1250323309, 1250323310, 1250323293, 1250323318], "tags": {"amenity": "bank", "brand": "Vak\u0131fbank", "brand:wikidata": "Q1148521", "brand:wikipedia": "en:Vak\u0131fBank", "building": "yes", "name": "Vak\u0131fbank", "name:ar": "\u0628\u0646\u0643 \u0648\u0642\u0641", "wheelchair": "limited"}}, {"type": "way", "id": 109149452, "nodes": [1250323293, 1250323310, 1250323302, 1250323292, 1250323293], "tags": {"amenity": "bank", "brand": "Akbank", "brand:wikidata": "Q416624", "brand:wikipedia": "tr:Akbank", "building": "yes", "name": "Akbank", "name:ar": "\u0628\u0646\u0643 \u0627\u0643", "wheelchair": "limited"}}, {"type": "way", "id": 507011658, "nodes": [4966093137, 4966093138, 4966093139, 4966093140, 4966093137], "tags": {"addr:city": "Istanbul", "addr:district": "Ba\u011fc\u0131lar", "addr:housenumber": "No:71", "addr:neighbourhood": "15 Temmuz Mahallesi", "addr:street": "Bahar Cd.", "amenity": "bank", "atm": "yes", "building": "yes", "name": "\u0130stanbul Avrupa 4-5-6 B\u00f6lge M\u00fcd\u00fcrl\u00fc\u011f\u00fc ve \u0130stanbul Avrupa 4-5-6 B\u00f6lge Krediler M\u00fcd\u00fcrl\u00fc\u011f\u00fc", "operator": "T. Garanti Bankas\u0131 A.\u015e."}}, {"type": "way", "id": 526253157, "nodes": [5117968459, 5104099079, 5104099115, 5104099111, 5117968458, 5117968459], "tags": {"amenity": "bank", "atm": "yes", "brand": "T\u00fcrkiye \u0130\u015f Bankas\u0131", "brand:wikidata": "Q909613", "brand:wikipedia": "en:\u0130\u015fbank", "name": "T\u00fcrkiye \u0130\u015f Bankas\u0131"}}, {"type": "way", "id": 546395189, "nodes": [5280151735, 5280151736, 5280151737, 5280151738, 5280151735], "tags": {"addr:city": "istanbul", "addr:district": "zeyt\u0131nburnu", "addr:neighbourhood": "Seyit Nizam Mahalesi", "addr:street": "Demirciler Sitesi yol 2.", "amenity": "bank", "atm": "yes", "brand": "Halkbank", "brand:wikidata": "Q3593818", "brand:wikipedia": "en:Halkbank a.d.", "building": "yes", "name": "Halkbank"}}, {"type": "way", "id": 546395253, "nodes": [5280152502, 5280152503, 5280152504, 5280152505, 5280152502], "tags": {"addr:city": "istanbul", "addr:district": "zeyt\u0131nburnu", "addr:neighbourhood": "Seyit Nizam Mahalesi", "addr:street": "Demirciler Sitesi yol 2.", "amenity": "bank", "atm": "yes", "brand": "\u0130\u015f Bankas\u0131", "building": "yes", "name": "\u0130\u015f Bankas\u0131", "not:brand:wikidata": "Q909613", "operator": "\u0130\u015f Bankas\u0131"}}, {"type": "way", "id": 546395457, "nodes": [5280156291, 5280156292, 5280156293, 5280156294, 5298221542, 5280156291], "tags": {"addr:city": "istanbul", "addr:district": "zeytinburnu", "addr:neighbourhood": "Seyit Nizam Mahallesi", "addr:street": "Demirciler Sitesi yol 2.", "amenity": "bank", "atm": "yes", "brand": "Akbank", "brand:wikidata": "Q416624", "brand:wikipedia": "tr:Akbank", "building": "yes", "name": "Akbank"}}, {"type": "way", "id": 548398242, "nodes": [5297926310, 5297926311, 5297926312, 5297926313, 5297926310], "tags": {"addr:city": "istanbul", "addr:district": "zeyt\u0131nburnu", "addr:housenumber": "63/A", "addr:street": "Prof. Muammer Aksoy Caddesi", "amenity": "bank", "branch": "ZEYT\u0130NBURNU \u015eUBES\u0130", "brand": "QNB Finansbank", "brand:wikidata": "Q1416237", "building": "yes", "name": "QNB Finansbank"}}, {"type": "way", "id": 656518850, "nodes": [6149862264, 6149862265, 6149862266, 6149862267, 6149862264], "tags": {"addr:city": "istanbul", "addr:district": "K\u00fc\u00e7\u00fck\u00e7ekmece", "addr:neighbourhood": "G\u00fcltepe Mahallesi", "amenity": "bank", "atm": "yes", "brand": "Ziraat Bankas\u0131", "brand:wikidata": "Q696003", "brand:wikipedia": "en:Ziraat Bankas\u0131", "building": "yes", "name": "Ziraat Bankas\u0131"}}, {"type": "way", "id": 1026424811, "nodes": [9463371551, 9463371552, 9463371553, 9463371554, 9463371551], "tags": {"addr:city": "\u0130stanbul", "addr:district": "Ey\u00fcpsultan", "addr:housenumber": "18", "addr:neighbourhood": "Rami Cuma", "addr:postcode": "34055", "addr:street": "Re\u015fadiye Caddesi", "amenity": "bank", "atm": "yes", "branch": "Rami", "brand": "Ziraat Bankas\u0131", "brand:wikidata": "Q696003", "brand:wikipedia": "en:Ziraat Bank", "building": "yes", "building:levels": "3", "fax": "+90 212 563 1707", "name": "Ziraat Bankas\u0131", "phone": "+90 212 563 7703"}}]}