{"version": 0.6, "generator": "Overpass API 0.7.60.2 e4cf9f7a", "osm3s": {"timestamp_osm_base": "2023-05-02T19:39:17Z", "copyright": "The data included in this document is from www.openstreetmap.org. The data is made available under ODbL."}, "elements": [{"type": "node", "id": 374190402, "lat": 41.0850465, "lon": 29.0075256, "tags": {"name": "4. Levent Metro", "railway": "subway_entrance", "wheelchair": "yes"}}, {"type": "node", "id": 670232250, "lat": 41.0644061, "lon": 28.9928995, "tags": {"name": "\u015ei\u015fli", "public_transport": "stop_position", "railway": "stop", "subway": "yes"}}, {"type": "node", "id": 670233794, "lat": 41.0690337, "lon": 29.0111192, "tags": {"name": "Gayrettepe", "network": "\u0130stanbul Metrosu", "operator": "Metro \u0130stanbul", "public_transport": "station", "railway": "station", "station": "subway", "subway": "yes", "wheelchair": "yes", "wikidata": "Q20717398", "wikipedia": "tr:Gayrettepe (\u0130stanbul metrosu)"}}, {"type": "node", "id": 670234242, "lat": 41.0861497, "lon": 29.0073449, "tags": {"name": "4. Levent", "public_transport": "stop_position", "railway": "stop", "subway": "yes"}}, {"type": "node", "id": 687472249, "lat": 41.1079102, "lon": 29.0210014, "tags": {"name": "\u0130T\u00dc - Ayaza\u011fa", "public_transport": "stop_position", "railway": "stop", "station": "subway", "subway": "yes"}}, {"type": "node", "id": 2171927595, "lat": 41.1011898, "lon": 28.9957261, "tags": {"name": "Seyrantepe", "network": "\u0130stanbul Metrosu", "public_transport": "station", "railway": "station", "station": "subway", "subway": "yes", "wheelchair": "yes"}}, {"type": "node", "id": 2171927596, "lat": 41.0942135, "lon": 29.0051754, "tags": {"name": "Sanayi", "network": "\u0130stanbul Metrosu", "public_transport": "station", "railway": "station", "station": "subway", "subway": "yes", "wheelchair": "yes", "wikidata": "Q20718122", "wikipedia": "tr:Sanayi Mahallesi (\u0130stanbul metrosu)"}}, {"type": "node", "id": 2239404700, "lat": 41.1180498, "lon": 29.0241763, "tags": {"name": "Atat\u00fcrk Oto Sanayi", "network": "\u0130stanbul Metrosu", "public_transport": "station", "railway": "station", "station": "subway", "subway": "yes", "wheelchair": "yes", "wikidata": "Q20312760", "wikipedia": "tr:Atat\u00fcrk Oto Sanayi (\u0130stanbul metrosu)"}}, {"type": "node", "id": 2470464528, "lat": 41.0665482, "lon": 29.0135501, "tags": {"railway": "subway_entrance"}}, {"type": "node", "id": 2531803919, "lat": 41.0782115, "lon": 29.0136416, "tags": {"name": "Levent", "railway": "subway_entrance"}}, {"type": "node", "id": 2531803920, "lat": 41.0870376, "lon": 29.0071845, "tags": {"name": "4. Levent", "railway": "subway_entrance"}}, {"type": "node", "id": 2564327371, "lat": 41.1079838, "lon": 29.0195932}, {"type": "node", "id": 2564327372, "lat": 41.1077999, "lon": 29.0196336}, {"type": "node", "id": 2564327373, "lat": 41.1081392, "lon": 29.0220524}, {"type": "node", "id": 2564327374, "lat": 41.1082863, "lon": 29.0220219}, {"type": "node", "id": 2564338650, "lat": 41.1081944, "lon": 29.0220923, "tags": {"railway": "subway_entrance"}}, {"type": "node", "id": 2595434580, "lat": 41.1084531, "lon": 29.0200324, "tags": {"designation": "Metro exit", "name": "\u0130T\u00dc - Ayaza\u011fa", "operator": "\u0130stanbul B\u00fcy\u00fck \u015eehir Belediyesi", "railway": "subway_entrance"}}, {"type": "node", "id": 2766607530, "lat": 41.0868133, "lon": 29.0064103, "tags": {"amenity": "pharmacy", "healthcare": "pharmacy", "name": "4. Levent", "phone": "0212 281 30 55", "railway": "subway_entrance"}}, {"type": "node", "id": 2777293148, "lat": 41.0855928, "lon": 29.0077918, "tags": {"name": "4. Levent", "railway": "subway_entrance"}}, {"type": "node", "id": 2789440531, "lat": 41.1167937, "lon": 29.0248532, "tags": {"railway": "subway_entrance"}}, {"type": "node", "id": 2831649822, "lat": 41.1301964, "lon": 29.0254651, "tags": {"name": "Dar\u00fc\u015f\u015fafaka", "railway": "subway_entrance"}}, {"type": "node", "id": 2831649823, "lat": 41.1396603, "lon": 29.030603, "tags": {"name": "Hac\u0131osman", "public_transport": "stop_position", "railway": "stop", "station": "subway", "subway": "yes"}}, {"type": "node", "id": 3755456221, "lat": 41.0758404, "lon": 29.0144803, "tags": {"name": "Levent", "network": "\u0130stanbul Metrosu", "public_transport": "station", "railway": "station", "station": "subway", "subway": "yes", "wheelchair": "limited", "wikidata": "Q20470914", "wikimedia_commons": "Category:Levent Station", "wikipedia": "en:Levent (Istanbul Metro)"}}, {"type": "node", "id": 3755460331, "lat": 41.0853915, "lon": 29.0456269, "tags": {"name": "Bo\u011fazi\u00e7i \u00dcniversitesi", "public_transport": "stop_position", "railway": "stop", "subway": "yes"}}, {"type": "node", "id": 3786188199, "lat": 41.0666669, "lon": 28.9909726}, {"type": "node", "id": 3937514078, "lat": 41.0774646, "lon": 29.0237071, "tags": {"name": "Nispetiye", "railway": "subway_entrance"}}, {"type": "node", "id": 3937514080, "lat": 41.0773859, "lon": 29.0240046, "tags": {"addr:city": "\u0130stanbul", "addr:district": "Be\u015fikta\u015f", "addr:housenumber": "no:111", "addr:postcode": "34335", "addr:street": "Nispetiye Caddesi", "bus": "yes", "name": "Nispetiye", "network": "\u0130stanbul Metrosu", "public_transport": "station", "railway": "station", "station": "subway", "subway": "yes", "wikidata": "Q47004404", "wikimedia_commons": "Category:Nispetiye Station", "wikipedia": "tr:Nispetiye (\u0130stanbul metrosu)"}}, {"type": "node", "id": 3937514082, "lat": 41.0824567, "lon": 29.0375989, "tags": {"name": "Etiler", "network": "\u0130stanbul Metrosu", "public_transport": "station", "railway": "station", "station": "subway", "subway": "yes", "wikidata": "Q47000639", "wikimedia_commons": "Category:Etiler Station", "wikipedia": "tr:Etiler (\u0130stanbul metrosu)"}}, {"type": "node", "id": 3937514083, "lat": 41.0850858, "lon": 29.0455614, "tags": {"name": "Bo\u011fazi\u00e7i \u00dcniversitesi", "railway": "subway_entrance"}}, {"type": "node", "id": 4053774755, "lat": 41.0758745, "lon": 29.0149753, "tags": {"name": "levent", "railway": "subway_entrance", "wheelchair": "limited"}}, {"type": "node", "id": 4304560595, "lat": 41.1397781, "lon": 29.0307651, "tags": {"name": "Hac\u0131osman", "railway": "subway_entrance"}}, {"type": "node", "id": 4304560596, "lat": 41.1293048, "lon": 29.0252532, "tags": {"name": "Dar\u00fc\u015f\u015fafaka", "public_transport": "stop_position", "railway": "stop", "station": "subway", "subway": "yes"}}, {"type": "node", "id": 4573326656, "lat": 41.0759852, "lon": 29.0142494, "tags": {"name": "Levent", "railway": "subway_entrance"}}, {"type": "node", "id": 5218796192, "lat": 41.0768932, "lon": 29.0137913, "tags": {"name": "Levent", "network": "\u0130stanbul Metrosu", "public_transport": "station", "railway": "station", "station": "subway", "subway": "yes", "wheelchair": "limited", "wikidata": "Q20470914", "wikipedia": "tr:Levent (\u0130stanbul metrosu)"}}, {"type": "node", "id": 5265282302, "lat": 41.1008739, "lon": 28.9948797, "tags": {"railway": "subway_entrance"}}, {"type": "node", "id": 5359097016, "lat": 41.1075837, "lon": 28.988238, "tags": {"light_rail": "yes", "name": "Vadi \u0130stanbul", "public_transport": "stop_position", "railway": "stop"}}, {"type": "node", "id": 5359098834, "lat": 41.10313, "lon": 28.99462, "tags": {"light_rail": "yes", "name": "Seyrantepe", "public_transport": "stop_position", "railway": "stop"}}, {"type": "node", "id": 6157384266, "lat": 41.0941844, "lon": 29.0053682, "tags": {"name": "Sanayi", "public_transport": "stop_position", "railway": "stop", "subway": "yes"}}, {"type": "node", "id": 6251280785, "lat": 41.1075562, "lon": 28.9884311, "tags": {"light_rail": "yes", "name": "Vadi \u0130stanbul", "name:en": "Vadistanbul", "public_transport": "station", "railway": "station", "station": "light_rail"}}, {"type": "node", "id": 6277860811, "lat": 41.0527916, "lon": 28.9876243, "tags": {"name": "Osmanbey", "public_transport": "stop_position", "railway": "stop", "subway": "yes"}}, {"type": "node", "id": 6398327971, "lat": 41.1030755, "lon": 28.9947104, "tags": {"light_rail": "yes", "name": "Seyrantepe", "public_transport": "station", "railway": "station", "station": "light_rail", "wheelchair": "yes"}}, {"type": "node", "id": 6507293770, "lat": 41.054072, "lon": 29.009666, "tags": {"name": "Y\u0131ld\u0131z", "network": "\u0130stanbul Metrosu", "operator": "Metro \u0130stanbul", "public_transport": "station", "railway": "station", "station": "subway", "subway": "yes", "wikidata": "Q107050618", "wikipedia": "tr:Y\u0131ld\u0131z (\u0130stanbul metrosu)"}}, {"type": "node", "id": 6507293771, "lat": 41.0540017, "lon": 29.0094506, "tags": {"name": "Y\u0131ld\u0131z", "public_transport": "stop_position", "railway": "stop", "subway": "yes"}}, {"type": "node", "id": 6507303852, "lat": 41.0798589, "lon": 28.9634762, "tags": {"name": "Nurtepe", "network": "\u0130stanbul Metrosu", "operator": "Metro \u0130stanbul", "public_transport": "station", "railway": "station", "station": "subway", "subway": "yes", "wheelchair": "yes", "wikidata": "Q105427153", "wikipedia": "tr:Nurtepe (\u0130stanbul metrosu)"}}, {"type": "node", "id": 6507303868, "lat": 41.0796544, "lon": 28.9731198, "tags": {"name": "Ka\u011f\u0131thane", "network": "\u0130stanbul Metrosu", "operator": "Metro \u0130stanbul", "public_transport": "station", "railway": "station", "station": "subway", "subway": "yes", "wheelchair": "yes", "wikidata": "Q55887158", "wikipedia": "tr:K\u00e2\u011f\u0131thane (\u0130stanbul metrosu)"}}, {"type": "node", "id": 6507303869, "lat": 41.0623115, "lon": 29.0069778, "tags": {"name": "Fulya", "network": "\u0130stanbul Metrosu", "operator": "Metro \u0130stanbul", "public_transport": "station", "railway": "station", "station": "subway", "subway": "yes", "wikidata": "Q107050617", "wikipedia": "tr:Fulya (\u0130stanbul metrosu)"}}, {"type": "node", "id": 6507340892, "lat": 41.0707068, "lon": 28.9805133, "tags": {"name": "\u00c7a\u011flayan", "network": "\u0130stanbul Metrosu", "operator": "Metro \u0130stanbul", "public_transport": "station", "railway": "station", "station": "subway", "subway": "yes", "wikidata": "Q105388397", "wikipedia": "tr:\u00c7a\u011flayan (\u0130stanbul metrosu)"}}, {"type": "node", "id": 6507340893, "lat": 41.0706138, "lon": 28.9803433, "tags": {"name": "\u00c7a\u011flayan", "public_transport": "stop_position", "railway": "stop", "subway": "yes"}}, {"type": "node", "id": 6508650238, "lat": 41.0708424, "lon": 28.9807287, "tags": {"name": "\u00c7a\u011flayan", "public_transport": "stop_position", "railway": "stop", "subway": "yes"}}, {"type": "node", "id": 6508650248, "lat": 41.0649724, "lon": 28.9954199, "tags": {"name": "Mecidiyek\u00f6y", "public_transport": "stop_position", "railway": "stop", "subway": "yes"}}, {"type": "node", "id": 6508688805, "lat": 41.0796801, "lon": 28.9635883, "tags": {"name": "Nurtepe", "public_transport": "stop_position", "railway": "stop", "subway": "yes"}}, {"type": "node", "id": 6508688806, "lat": 41.0799595, "lon": 28.9632821, "tags": {"name": "Nurtepe", "public_transport": "stop_position", "railway": "stop", "subway": "yes"}}, {"type": "node", "id": 6508688856, "lat": 41.0796289, "lon": 28.9731331, "tags": {"name": "Ka\u011f\u0131thane", "public_transport": "stop_position", "railway": "stop", "subway": "yes"}}, {"type": "node", "id": 6508688857, "lat": 41.079665, "lon": 28.9731572, "tags": {"name": "Ka\u011f\u0131thane", "public_transport": "stop_position", "railway": "stop", "subway": "yes"}}, {"type": "node", "id": 6508688858, "lat": 41.0791906, "lon": 28.974322}, {"type": "node", "id": 6508688859, "lat": 41.0791521, "lon": 28.974298, "tags": {"highway": "elevator"}}, {"type": "node", "id": 6508688860, "lat": 41.0799038, "lon": 28.9721747}, {"type": "node", "id": 6508688861, "lat": 41.0799427, "lon": 28.9721989}, {"type": "node", "id": 6508688862, "lat": 41.0792909, "lon": 28.9743869, "tags": {"highway": "elevator"}}, {"type": "node", "id": 6630276188, "lat": 41.085243, "lon": 29.0458339}, {"type": "node", "id": 6660116577, "lat": 41.1401559, "lon": 29.0315117}, {"type": "node", "id": 6660116578, "lat": 41.1404545, "lon": 29.0312028}, {"type": "node", "id": 6929906120, "lat": 41.0691687, "lon": 29.0109105}, {"type": "node", "id": 6929906121, "lat": 41.0691191, "lon": 29.010941}, {"type": "node", "id": 6929906129, "lat": 41.0758591, "lon": 29.0149323}, {"type": "node", "id": 6929906130, "lat": 41.0758898, "lon": 29.0150179}, {"type": "node", "id": 6929927788, "lat": 41.0544084, "lon": 28.9873131, "tags": {"railway": "subway_entrance"}}, {"type": "node", "id": 6929927791, "lat": 41.0543983, "lon": 28.9870374, "tags": {"railway": "subway_entrance"}}, {"type": "node", "id": 6929927792, "lat": 41.0539196, "lon": 28.9873848, "tags": {"name": "Osmanbey", "railway": "subway_entrance", "wheelchair": "yes"}}, {"type": "node", "id": 6929927793, "lat": 41.0538948, "lon": 28.9871112, "tags": {"railway": "subway_entrance"}}, {"type": "node", "id": 6966349319, "lat": 41.0823298, "lon": 29.0378431, "tags": {"name": "Etiler", "railway": "subway_entrance"}}, {"type": "node", "id": 7580243677, "lat": 41.067507, "lon": 28.9908739}, {"type": "node", "id": 7580243679, "lat": 41.0672544, "lon": 28.9924569, "tags": {"railway": "subway_entrance"}}, {"type": "node", "id": 7580271786, "lat": 41.0662025, "lon": 28.9924892, "tags": {"railway": "subway_entrance"}}, {"type": "node", "id": 7580271789, "lat": 41.0662404, "lon": 28.9930362, "tags": {"railway": "subway_entrance"}}, {"type": "node", "id": 7580271792, "lat": 41.0665708, "lon": 28.9924777, "tags": {"railway": "subway_entrance"}}, {"type": "node", "id": 7580271803, "lat": 41.0669657, "lon": 28.9926603}, {"type": "node", "id": 7580271804, "lat": 41.0669479, "lon": 28.9929728}, {"type": "node", "id": 7580271805, "lat": 41.0664852, "lon": 28.9929199}, {"type": "node", "id": 7580271806, "lat": 41.0665885, "lon": 28.9926253}, {"type": "node", "id": 7580271812, "lat": 41.0665718, "lon": 28.992774, "tags": {"railway": "subway_entrance"}}, {"type": "node", "id": 7580271825, "lat": 41.0661818, "lon": 28.9946389, "tags": {"railway": "subway_entrance"}}, {"type": "node", "id": 7580271840, "lat": 41.0651094, "lon": 28.9938351, "tags": {"railway": "subway_entrance"}}, {"type": "node", "id": 7580271844, "lat": 41.0660535, "lon": 28.995524, "tags": {"railway": "subway_entrance"}}, {"type": "node", "id": 7596061886, "lat": 41.0646058, "lon": 28.9926418, "tags": {"name": "\u015ei\u015fli", "public_transport": "stop_position", "railway": "stop", "subway": "yes"}}, {"type": "node", "id": 7596061898, "lat": 41.0691294, "lon": 29.0110495, "tags": {"name": "Gayrettepe", "public_transport": "stop_position", "railway": "stop", "subway": "yes"}}, {"type": "node", "id": 7596061909, "lat": 41.086047, "lon": 29.0069725, "tags": {"name": "4. Levent", "public_transport": "stop_position", "railway": "stop", "subway": "yes"}}, {"type": "node", "id": 7635342550, "lat": 41.1401701, "lon": 29.0312962, "tags": {"railway": "subway_entrance"}}, {"type": "node", "id": 7635342551, "lat": 41.1399993, "lon": 29.0305309, "tags": {"access": "no", "name": "Hac\u0131osman", "railway": "subway_entrance"}}, {"type": "node", "id": 7635342552, "lat": 41.1275083, "lon": 29.0251205, "tags": {"railway": "subway_entrance"}}, {"type": "node", "id": 7635342553, "lat": 41.1263899, "lon": 29.0257138, "tags": {"railway": "subway_entrance"}}, {"type": "node", "id": 7635342554, "lat": 41.1186418, "lon": 29.0239069, "tags": {"railway": "subway_entrance"}}, {"type": "node", "id": 7635342555, "lat": 41.1170212, "lon": 29.0239927, "tags": {"railway": "subway_entrance"}}, {"type": "node", "id": 7635342557, "lat": 41.1008461, "lon": 28.9975697, "tags": {"railway": "subway_entrance"}}, {"type": "node", "id": 7635342558, "lat": 41.0935799, "lon": 29.0048477, "tags": {"railway": "subway_entrance"}}, {"type": "node", "id": 7635342559, "lat": 41.0948662, "lon": 29.0052526, "tags": {"railway": "subway_entrance"}}, {"type": "node", "id": 7635342561, "lat": 41.0848023, "lon": 29.0070776, "tags": {"railway": "subway_entrance"}}, {"type": "node", "id": 7635342567, "lat": 41.0691448, "lon": 29.0118103, "tags": {"railway": "subway_entrance"}}, {"type": "node", "id": 7635342568, "lat": 41.069146, "lon": 29.0109245, "tags": {"railway": "subway_entrance"}}, {"type": "node", "id": 7635342569, "lat": 41.0667308, "lon": 29.0126423, "tags": {"railway": "subway_entrance"}}, {"type": "node", "id": 7635342570, "lat": 41.0661102, "lon": 29.0123101, "tags": {"railway": "subway_entrance"}}, {"type": "node", "id": 7635342571, "lat": 41.0669531, "lon": 29.0137222, "tags": {"railway": "subway_entrance"}}, {"type": "node", "id": 7635342574, "lat": 41.0655938, "lon": 29.0131032, "tags": {"railway": "subway_entrance"}}, {"type": "node", "id": 7635342575, "lat": 41.0667112, "lon": 29.0130436, "tags": {"railway": "subway_entrance"}}, {"type": "node", "id": 7635342577, "lat": 41.0639811, "lon": 28.9917008, "tags": {"railway": "subway_entrance"}}, {"type": "node", "id": 7635342578, "lat": 41.0637855, "lon": 28.9913884, "tags": {"railway": "subway_entrance"}}, {"type": "node", "id": 7635342579, "lat": 41.0640142, "lon": 28.9925032, "tags": {"railway": "subway_entrance"}}, {"type": "node", "id": 7635347585, "lat": 41.0514857, "lon": 28.9873181, "tags": {"railway": "subway_entrance"}}, {"type": "node", "id": 7635347586, "lat": 41.0515104, "lon": 28.9876872, "tags": {"railway": "subway_entrance"}}, {"type": "node", "id": 7641092427, "lat": 41.1011338, "lon": 28.9972745}, {"type": "node", "id": 7684409191, "lat": 41.1012886, "lon": 28.9957442, "tags": {"name": "Seyrantepe", "public_transport": "stop_position", "railway": "stop", "subway": "yes"}}, {"type": "node", "id": 7687714979, "lat": 41.0854184, "lon": 29.04619}, {"type": "node", "id": 7687714980, "lat": 41.0853172, "lon": 29.0450899}, {"type": "node", "id": 7687714981, "lat": 41.0852729, "lon": 29.0450972}, {"type": "node", "id": 7687714982, "lat": 41.0853739, "lon": 29.0461972}, {"type": "node", "id": 7687714984, "lat": 41.0827291, "lon": 29.0379737}, {"type": "node", "id": 7687754185, "lat": 41.0827589, "lon": 29.037932}, {"type": "node", "id": 7687754186, "lat": 41.0821516, "lon": 29.0371687}, {"type": "node", "id": 7687754187, "lat": 41.0821216, "lon": 29.0372107}, {"type": "node", "id": 7687754188, "lat": 41.0773229, "lon": 29.0234329}, {"type": "node", "id": 7687754189, "lat": 41.0773678, "lon": 29.0234272}, {"type": "node", "id": 7687754190, "lat": 41.0774492, "lon": 29.0245297}, {"type": "node", "id": 7687754191, "lat": 41.0774044, "lon": 29.0245354}, {"type": "node", "id": 7687754192, "lat": 41.0756533, "lon": 29.0139717}, {"type": "node", "id": 7687754193, "lat": 41.0756868, "lon": 29.0139517}, {"type": "node", "id": 7687754194, "lat": 41.0760178, "lon": 29.0149697}, {"type": "node", "id": 7687754195, "lat": 41.0759764, "lon": 29.0149933}, {"type": "node", "id": 7707406389, "lat": 41.0947112, "lon": 29.0055516}, {"type": "node", "id": 7707406390, "lat": 41.0936676, "lon": 29.0053564}, {"type": "node", "id": 7707406391, "lat": 41.093683, "lon": 29.0052625}, {"type": "node", "id": 7707406392, "lat": 41.0936423, "lon": 29.0052501}, {"type": "node", "id": 7707406393, "lat": 41.0936269, "lon": 29.005343}, {"type": "node", "id": 7707406394, "lat": 41.0933853, "lon": 29.0052712}, {"type": "node", "id": 7707406395, "lat": 41.0933776, "lon": 29.0053166}, {"type": "node", "id": 7707406396, "lat": 41.0949182, "lon": 29.0057736}, {"type": "node", "id": 7707406397, "lat": 41.0949265, "lon": 29.0057243}, {"type": "node", "id": 7707406398, "lat": 41.094739, "lon": 29.0056687}, {"type": "node", "id": 7707406399, "lat": 41.094756, "lon": 29.0055644}, {"type": "node", "id": 7707406400, "lat": 41.0939002, "lon": 29.0054255}, {"type": "node", "id": 7707406402, "lat": 41.0939299, "lon": 29.0053871}, {"type": "node", "id": 7707406403, "lat": 41.0939404, "lon": 29.0054337}, {"type": "node", "id": 7707406404, "lat": 41.0941415, "lon": 29.0054934}, {"type": "node", "id": 7707406405, "lat": 41.0941198, "lon": 29.0054538}, {"type": "node", "id": 7707406406, "lat": 41.0942286, "lon": 29.0054274}, {"type": "node", "id": 7707406407, "lat": 41.0941921, "lon": 29.0055096}, {"type": "node", "id": 7707406408, "lat": 41.0946931, "lon": 29.0056585}, {"type": "node", "id": 7707406582, "lat": 41.0693547, "lon": 29.0122004}, {"type": "node", "id": 7707406583, "lat": 41.0686897, "lon": 29.0103021}, {"type": "node", "id": 7707406584, "lat": 41.0688246, "lon": 29.0102189}, {"type": "node", "id": 7707406585, "lat": 41.0694898, "lon": 29.012117}, {"type": "node", "id": 7707406586, "lat": 41.077605, "lon": 29.0134284}, {"type": "node", "id": 7707406587, "lat": 41.0761835, "lon": 29.0143371}, {"type": "node", "id": 7707406588, "lat": 41.0761189, "lon": 29.0141593}, {"type": "node", "id": 7707406589, "lat": 41.0775402, "lon": 29.0132502}, {"type": "node", "id": 7710654615, "lat": 41.065606, "lon": 28.9966386, "tags": {"railway": "subway_entrance"}}, {"type": "node", "id": 7710654616, "lat": 41.0649178, "lon": 28.9972485, "tags": {"railway": "subway_entrance"}}, {"type": "node", "id": 7710654618, "lat": 41.0712118, "lon": 28.9792709, "tags": {"railway": "subway_entrance"}}, {"type": "node", "id": 7710654619, "lat": 41.0710416, "lon": 28.9801611, "tags": {"railway": "subway_entrance"}}, {"type": "node", "id": 7710654620, "lat": 41.0694632, "lon": 28.9825864, "tags": {"name": "\u00c7a\u011flayan", "railway": "subway_entrance"}}, {"type": "node", "id": 7710654632, "lat": 41.0794238, "lon": 28.9628279, "tags": {"level": "0", "name": "Giri\u015f 3", "railway": "subway_entrance", "wheelchair": "yes"}}, {"type": "node", "id": 7710654633, "lat": 41.0800041, "lon": 28.9632579, "tags": {"level": "0", "name": "Giri\u015f2", "railway": "subway_entrance", "wheelchair": "yes"}}, {"type": "node", "id": 7721022302, "lat": 41.1010734, "lon": 28.9967836}, {"type": "node", "id": 7721022303, "lat": 41.1011746, "lon": 28.9946947}, {"type": "node", "id": 7721022304, "lat": 41.1013231, "lon": 28.9947074}, {"type": "node", "id": 7721022305, "lat": 41.1012221, "lon": 28.9967963}, {"type": "node", "id": 7721147951, "lat": 41.0527755, "lon": 28.9874046, "tags": {"name": "Osmanbey", "network": "\u0130stanbul Metrosu", "public_transport": "station", "railway": "station", "station": "subway", "subway": "yes", "wheelchair": "yes", "wikidata": "Q20718086", "wikipedia": "tr:Osmanbey (\u0130stanbul metrosu)"}}, {"type": "node", "id": 7721147952, "lat": 41.0527563, "lon": 28.9872434, "tags": {"name": "Osmanbey", "public_transport": "stop_position", "railway": "stop", "train": "yes"}}, {"type": "node", "id": 7721147954, "lat": 41.0645059, "lon": 28.9927696, "tags": {"addr:street": "Halaskargazi Caddesi", "name": "\u015ei\u015fli", "network": "\u0130stanbul Metrosu", "operator": "Metro \u0130stanbul", "public_transport": "station", "railway": "station", "station": "subway", "subway": "yes", "wheelchair": "yes", "wikidata": "Q19613989", "wikipedia": "tr:\u015ei\u015fli-Mecidiyek\u00f6y (\u0130stanbul metrosu)"}}, {"type": "node", "id": 7721147957, "lat": 41.0689762, "lon": 29.0111637, "tags": {"name": "Gayrettepe", "public_transport": "stop_position", "railway": "stop", "subway": "yes"}}, {"type": "node", "id": 7723416061, "lat": 41.085298, "lon": 29.0456373, "tags": {"name": "Bo\u011fazi\u00e7i \u00dcniversitesi", "public_transport": "stop_position", "railway": "stop", "subway": "yes"}}, {"type": "node", "id": 7723416062, "lat": 41.0851583, "lon": 29.0456561, "tags": {"name": "Bo\u011fazi\u00e7i \u00dcniversitesi", "network": "\u0130stanbul Metrosu", "public_transport": "station", "railway": "station", "station": "subway", "subway": "yes", "wikidata": "Q20646948", "wikimedia_commons": "Category:Bo\u011fazi\u00e7i University Station", "wikipedia": "tr:Bo\u011fazi\u00e7i \u00dcniversitesi - Hisar\u00fcst\u00fc (\u0130stanbul metrosu)"}}, {"type": "node", "id": 7725394063, "lat": 41.086111, "lon": 29.0071653, "tags": {"name": "4. Levent", "network": "\u0130stanbul Metrosu", "public_transport": "station", "railway": "station", "station": "subway", "subway": "yes", "wheelchair": "yes", "wikidata": "Q20312758", "wikimedia_commons": "Category:4. Levent Station", "wikipedia": "tr:4. Levent (\u0130stanbul metrosu)"}}, {"type": "node", "id": 7725394064, "lat": 41.0942446, "lon": 29.0049849, "tags": {"name": "Sanayi", "public_transport": "stop_position", "railway": "stop", "subway": "yes"}}, {"type": "node", "id": 7725394065, "lat": 41.0941569, "lon": 29.0055719, "tags": {"name": "Sanayi", "public_transport": "stop_position", "railway": "stop", "subway": "yes"}}, {"type": "node", "id": 7725394066, "lat": 41.1080715, "lon": 29.0209695, "tags": {"internet_access": "no", "name": "\u0130T\u00dc - Ayaza\u011fa", "network": "\u0130stanbul Metrosu", "operator": "Metro \u0130stanbul", "public_transport": "station", "railway": "station", "station": "subway", "subway": "yes", "wikidata": "Q20717475", "wikipedia": "tr:\u0130T\u00dc-Ayaza\u011fa (\u0130stanbul metrosu)"}}, {"type": "node", "id": 7725394067, "lat": 41.1082049, "lon": 29.0209202, "tags": {"name": "\u0130T\u00dc - Ayaza\u011fa", "public_transport": "stop_position", "railway": "stop", "subway": "yes"}}, {"type": "node", "id": 7725394068, "lat": 41.118037, "lon": 29.0239729, "tags": {"name": "Atat\u00fcrk Oto Sanayi", "public_transport": "stop_position", "railway": "stop", "subway": "yes"}}, {"type": "node", "id": 7725394069, "lat": 41.1180577, "lon": 29.0243605, "tags": {"name": "Atat\u00fcrk Oto Sanayi", "public_transport": "stop_position", "railway": "stop", "subway": "yes"}}, {"type": "node", "id": 7725394070, "lat": 41.1292759, "lon": 29.0250803, "tags": {"name": "Dar\u00fc\u015f\u015fafaka", "network": "\u0130stanbul Metrosu", "public_transport": "station", "railway": "station", "station": "subway", "subway": "yes", "wheelchair": "yes", "wikidata": "Q20717238", "wikipedia": "tr:Dar\u00fc\u015f\u015fafaka (\u0130stanbul metrosu)"}}, {"type": "node", "id": 7725394071, "lat": 41.1292867, "lon": 29.0248677, "tags": {"name": "Dar\u00fc\u015f\u015fafaka", "public_transport": "stop_position", "railway": "stop", "subway": "yes"}}, {"type": "node", "id": 7725394072, "lat": 41.1397645, "lon": 29.0304548, "tags": {"name": "Hac\u0131osman", "network": "\u0130stanbul Metrosu", "public_transport": "station", "railway": "station", "station": "subway", "subway": "yes", "wheelchair": "yes", "wikidata": "Q18791428", "wikipedia": "tr:Hac\u0131osman (\u0130stanbul metrosu)"}}, {"type": "node", "id": 7725394073, "lat": 41.1398775, "lon": 29.0303462, "tags": {"name": "Hac\u0131osman", "public_transport": "stop_position", "railway": "stop", "subway": "yes"}}, {"type": "node", "id": 7725394075, "lat": 41.0770628, "lon": 29.0138091, "tags": {"name": "Levent", "public_transport": "stop_position", "railway": "stop", "subway": "yes"}}, {"type": "node", "id": 7725394076, "lat": 41.0769897, "lon": 29.0135828, "tags": {"name": "Levent", "public_transport": "stop_position", "railway": "stop", "subway": "yes"}}, {"type": "node", "id": 7794603849, "lat": 41.0525304, "lon": 28.9874802}, {"type": "node", "id": 7794603850, "lat": 41.0525247, "lon": 28.9874217}, {"type": "node", "id": 7794603859, "lat": 41.0524424, "lon": 28.9874881}, {"type": "node", "id": 7794603860, "lat": 41.0524617, "lon": 28.9875427}, {"type": "node", "id": 7794603864, "lat": 41.052193, "lon": 28.987514}, {"type": "node", "id": 7794603865, "lat": 41.0521873, "lon": 28.9874605}, {"type": "node", "id": 7794603869, "lat": 41.0528483, "lon": 28.9874151}, {"type": "node", "id": 7794603870, "lat": 41.052854, "lon": 28.9874736}, {"type": "node", "id": 7794603877, "lat": 41.052851, "lon": 28.9874423}, {"type": "node", "id": 7794603879, "lat": 41.0525274, "lon": 28.9874493}, {"type": "node", "id": 7794603882, "lat": 41.0521903, "lon": 28.9874897}, {"type": "node", "id": 7794607912, "lat": 41.0543969, "lon": 28.9870226}, {"type": "node", "id": 7794607913, "lat": 41.0543993, "lon": 28.9870509}, {"type": "node", "id": 7794607914, "lat": 41.0541831, "lon": 28.9870805}, {"type": "node", "id": 7794607915, "lat": 41.0542032, "lon": 28.9873257}, {"type": "node", "id": 7794607916, "lat": 41.054407, "lon": 28.9872987}, {"type": "node", "id": 7794607917, "lat": 41.0544101, "lon": 28.9873279}, {"type": "node", "id": 7794607918, "lat": 41.0539202, "lon": 28.9873968}, {"type": "node", "id": 7794607919, "lat": 41.0539187, "lon": 28.9873683}, {"type": "node", "id": 7794607920, "lat": 41.0541657, "lon": 28.9873311}, {"type": "node", "id": 7794607921, "lat": 41.0541554, "lon": 28.9872207}, {"type": "node", "id": 7794607922, "lat": 41.0532564, "lon": 28.987267}, {"type": "node", "id": 7794607923, "lat": 41.0534486, "lon": 28.987225}, {"type": "node", "id": 7794607924, "lat": 41.0534576, "lon": 28.9873033}, {"type": "node", "id": 7794607925, "lat": 41.0537764, "lon": 28.9872414}, {"type": "node", "id": 7794607926, "lat": 41.0537615, "lon": 28.9869765}, {"type": "node", "id": 7794607927, "lat": 41.0538139, "lon": 28.9869693}, {"type": "node", "id": 7794607928, "lat": 41.0538182, "lon": 28.9870114}, {"type": "node", "id": 7794607929, "lat": 41.053798, "lon": 28.9870167}, {"type": "node", "id": 7794607930, "lat": 41.0538128, "lon": 28.987232}, {"type": "node", "id": 7794607931, "lat": 41.0541475, "lon": 28.9871679}, {"type": "node", "id": 7794607932, "lat": 41.0541401, "lon": 28.987086}, {"type": "node", "id": 7794607933, "lat": 41.0538955, "lon": 28.9871254}, {"type": "node", "id": 7794607934, "lat": 41.0538941, "lon": 28.9870966}, {"type": "node", "id": 7794607935, "lat": 41.052207, "lon": 28.9876094}, {"type": "node", "id": 7794607936, "lat": 41.0521794, "lon": 28.9875563}, {"type": "node", "id": 7794607937, "lat": 41.0519173, "lon": 28.9876005}, {"type": "node", "id": 7794607938, "lat": 41.0519125, "lon": 28.9875658}, {"type": "node", "id": 7794607939, "lat": 41.0517748, "lon": 28.987532}, {"type": "node", "id": 7794607940, "lat": 41.0517712, "lon": 28.9874784}, {"type": "node", "id": 7794607941, "lat": 41.0514955, "lon": 28.9872906}, {"type": "node", "id": 7794607942, "lat": 41.0514763, "lon": 28.9873442}, {"type": "node", "id": 7794607943, "lat": 41.0517163, "lon": 28.9874986}, {"type": "node", "id": 7794607944, "lat": 41.0517262, "lon": 28.9876402}, {"type": "node", "id": 7794607945, "lat": 41.0515081, "lon": 28.987664}, {"type": "node", "id": 7794607946, "lat": 41.0515083, "lon": 28.9877089}, {"type": "node", "id": 7794607947, "lat": 41.0517668, "lon": 28.9876825}, {"type": "node", "id": 7794607948, "lat": 41.052152, "lon": 28.9876397}, {"type": "node", "id": 7794607949, "lat": 41.0521811, "lon": 28.9876786}, {"type": "node", "id": 7794607950, "lat": 41.0524519, "lon": 28.9875149}, {"type": "node", "id": 7794607952, "lat": 41.0518642, "lon": 28.9876683}, {"type": "node", "id": 7794675821, "lat": 41.067278, "lon": 28.9924578}, {"type": "node", "id": 7794675822, "lat": 41.0673277, "lon": 28.9928296}, {"type": "node", "id": 7794675823, "lat": 41.0671493, "lon": 28.9929365}, {"type": "node", "id": 7794675824, "lat": 41.0669509, "lon": 28.9929114}, {"type": "node", "id": 7794675825, "lat": 41.0660695, "lon": 28.9945386}, {"type": "node", "id": 7794675826, "lat": 41.066328, "lon": 28.9943817}, {"type": "node", "id": 7794675827, "lat": 41.0662399, "lon": 28.9928192}, {"type": "node", "id": 7794675828, "lat": 41.0662555, "lon": 28.9930333}, {"type": "node", "id": 7794675829, "lat": 41.0662283, "lon": 28.9930384}, {"type": "node", "id": 7794675830, "lat": 41.0661888, "lon": 28.9924892}, {"type": "node", "id": 7794675831, "lat": 41.0662172, "lon": 28.9924892}, {"type": "node", "id": 7794675832, "lat": 41.0662372, "lon": 28.992771}, {"type": "node", "id": 7794675833, "lat": 41.0665418, "lon": 28.9927773}, {"type": "node", "id": 7794675834, "lat": 41.0665459, "lon": 28.9924777}, {"type": "node", "id": 7794675835, "lat": 41.0665912, "lon": 28.9924808}, {"type": "node", "id": 7794675836, "lat": 41.0669555, "lon": 28.9928359}, {"type": "node", "id": 7794675837, "lat": 41.0671465, "lon": 28.9928608}, {"type": "node", "id": 7794675838, "lat": 41.0672251, "lon": 28.992801}, {"type": "node", "id": 7794675839, "lat": 41.06723, "lon": 28.992456}, {"type": "node", "id": 7794675840, "lat": 41.0665063, "lon": 28.9927761}, {"type": "node", "id": 7794675841, "lat": 41.0664898, "lon": 28.9927287}, {"type": "node", "id": 7794675842, "lat": 41.0662676, "lon": 28.9928573}, {"type": "node", "id": 7794675843, "lat": 41.0664629, "lon": 28.9926907}, {"type": "node", "id": 7794675844, "lat": 41.0664283, "lon": 28.9926658}, {"type": "node", "id": 7794675845, "lat": 41.0662876, "lon": 28.9927246}, {"type": "node", "id": 7794675846, "lat": 41.06627, "lon": 28.9927713}, {"type": "node", "id": 7794675847, "lat": 41.0662802, "lon": 28.9929002}, {"type": "node", "id": 7794675848, "lat": 41.0663013, "lon": 28.9929367}, {"type": "node", "id": 7794675849, "lat": 41.0664033, "lon": 28.9929783}, {"type": "node", "id": 7794675851, "lat": 41.0663536, "lon": 28.9944833}, {"type": "node", "id": 7794675852, "lat": 41.0663838, "lon": 28.9945174}, {"type": "node", "id": 7794675853, "lat": 41.0664199, "lon": 28.9945403}, {"type": "node", "id": 7794675854, "lat": 41.0665333, "lon": 28.9945088}, {"type": "node", "id": 7794675855, "lat": 41.0665595, "lon": 28.9944686}, {"type": "node", "id": 7794675856, "lat": 41.0665746, "lon": 28.9944195}, {"type": "node", "id": 7794675857, "lat": 41.066577, "lon": 28.9943665}, {"type": "node", "id": 7794675858, "lat": 41.066566, "lon": 28.9943138}, {"type": "node", "id": 7794675859, "lat": 41.0665425, "lon": 28.9942689}, {"type": "node", "id": 7794675860, "lat": 41.0665092, "lon": 28.9942367}, {"type": "node", "id": 7794675861, "lat": 41.0663902, "lon": 28.9942435}, {"type": "node", "id": 7794675862, "lat": 41.066359, "lon": 28.9942794}, {"type": "node", "id": 7794675863, "lat": 41.0663386, "lon": 28.9943269}, {"type": "node", "id": 7794675864, "lat": 41.0662646, "lon": 28.9928154}, {"type": "node", "id": 7794675865, "lat": 41.0663292, "lon": 28.992964}, {"type": "node", "id": 7794675866, "lat": 41.0664009, "lon": 28.9926576}, {"type": "node", "id": 7794675867, "lat": 41.0663973, "lon": 28.9926025}, {"type": "node", "id": 7794675868, "lat": 41.0663105, "lon": 28.9926124}, {"type": "node", "id": 7794675869, "lat": 41.0663154, "lon": 28.9926876}, {"type": "node", "id": 7794675870, "lat": 41.0664701, "lon": 28.9929473}, {"type": "node", "id": 7794675871, "lat": 41.0664426, "lon": 28.9929712}, {"type": "node", "id": 7794675872, "lat": 41.0664852, "lon": 28.9942232}, {"type": "node", "id": 7794675873, "lat": 41.0664142, "lon": 28.9942319}, {"type": "node", "id": 7794675874, "lat": 41.0665153, "lon": 28.9945516}, {"type": "node", "id": 7794675875, "lat": 41.0664369, "lon": 28.994563}, {"type": "node", "id": 7794675876, "lat": 41.06657, "lon": 28.9943331}, {"type": "node", "id": 7794675877, "lat": 41.0665718, "lon": 28.9944284}, {"type": "node", "id": 7794675878, "lat": 41.0665139, "lon": 28.994524}, {"type": "node", "id": 7794675879, "lat": 41.0664349, "lon": 28.9945426}, {"type": "node", "id": 7794675880, "lat": 41.0665418, "lon": 28.9944957}, {"type": "node", "id": 7794675881, "lat": 41.0659296, "lon": 28.9944865}, {"type": "node", "id": 7794675883, "lat": 41.0651253, "lon": 28.9934718}, {"type": "node", "id": 7794685085, "lat": 41.0660667, "lon": 28.9945783}, {"type": "node", "id": 7794685086, "lat": 41.0661859, "lon": 28.9946162}, {"type": "node", "id": 7794685087, "lat": 41.066176, "lon": 28.9946711}, {"type": "node", "id": 7794685088, "lat": 41.0660442, "lon": 28.9946291}, {"type": "node", "id": 7794685089, "lat": 41.0659929, "lon": 28.994674}, {"type": "node", "id": 7794685090, "lat": 41.066002, "lon": 28.9948323}, {"type": "node", "id": 7794685091, "lat": 41.0660574, "lon": 28.9951159}, {"type": "node", "id": 7794685092, "lat": 41.0659891, "lon": 28.9953674}, {"type": "node", "id": 7794685093, "lat": 41.0660663, "lon": 28.9955081}, {"type": "node", "id": 7794685094, "lat": 41.0660382, "lon": 28.9955352}, {"type": "node", "id": 7794685095, "lat": 41.0659434, "lon": 28.9953625}, {"type": "node", "id": 7794685096, "lat": 41.0660076, "lon": 28.995122}, {"type": "node", "id": 7794685097, "lat": 41.065015, "lon": 28.9935981}, {"type": "node", "id": 7794685098, "lat": 41.0649963, "lon": 28.993617}, {"type": "node", "id": 7794685099, "lat": 41.0651285, "lon": 28.9938136}, {"type": "node", "id": 7794685100, "lat": 41.0650927, "lon": 28.9938595}, {"type": "node", "id": 7794685101, "lat": 41.0649058, "lon": 28.9935775}, {"type": "node", "id": 7794685111, "lat": 41.0643061, "lon": 28.9924816}, {"type": "node", "id": 7794685112, "lat": 41.0643401, "lon": 28.9924434}, {"type": "node", "id": 7794685115, "lat": 41.0644682, "lon": 28.9927373}, {"type": "node", "id": 7794685116, "lat": 41.0644452, "lon": 28.9927791}, {"type": "node", "id": 7794685119, "lat": 41.0645688, "lon": 28.9927787}, {"type": "node", "id": 7794685120, "lat": 41.0645423, "lon": 28.9928236}, {"type": "node", "id": 7794685123, "lat": 41.0647535, "lon": 28.9931512}, {"type": "node", "id": 7794685124, "lat": 41.0647221, "lon": 28.9931885}, {"type": "node", "id": 7794685132, "lat": 41.0645555, "lon": 28.9928041}, {"type": "node", "id": 7794685134, "lat": 41.0647359, "lon": 28.9931698}, {"type": "node", "id": 7794685139, "lat": 41.065099, "lon": 28.993502}, {"type": "node", "id": 7794685140, "lat": 41.0647932, "lon": 28.9930335}, {"type": "node", "id": 7794685141, "lat": 41.0647632, "lon": 28.9930778}, {"type": "node", "id": 7794685142, "lat": 41.0649573, "lon": 28.9933821}, {"type": "node", "id": 7794685143, "lat": 41.0649306, "lon": 28.9934104}, {"type": "node", "id": 7794685144, "lat": 41.0649466, "lon": 28.9935255}, {"type": "node", "id": 7794685147, "lat": 41.0663433, "lon": 28.9944693}, {"type": "node", "id": 7794685148, "lat": 41.0644569, "lon": 28.9927573}, {"type": "node", "id": 7794685150, "lat": 41.0643233, "lon": 28.9924622}, {"type": "node", "id": 7794685171, "lat": 41.0643092, "lon": 28.9925605}, {"type": "node", "id": 7794685172, "lat": 41.0641232, "lon": 28.9922492}, {"type": "node", "id": 7794685173, "lat": 41.0641419, "lon": 28.992228}, {"type": "node", "id": 7794685174, "lat": 41.0641012, "lon": 28.9920466}, {"type": "node", "id": 7794685175, "lat": 41.0640665, "lon": 28.9919838}, {"type": "node", "id": 7794685176, "lat": 41.0640665, "lon": 28.9919404}, {"type": "node", "id": 7794685177, "lat": 41.0638659, "lon": 28.9916151}, {"type": "node", "id": 7794685178, "lat": 41.0638932, "lon": 28.9915851}, {"type": "node", "id": 7794685179, "lat": 41.0639724, "lon": 28.9917116}, {"type": "node", "id": 7794685180, "lat": 41.0639908, "lon": 28.9916888}, {"type": "node", "id": 7794685181, "lat": 41.0637954, "lon": 28.9913775}, {"type": "node", "id": 7794685182, "lat": 41.0637771, "lon": 28.9914}, {"type": "node", "id": 7794685183, "lat": 41.0638657, "lon": 28.9915412}, {"type": "node", "id": 7794685184, "lat": 41.0637686, "lon": 28.991652}, {"type": "node", "id": 7794685185, "lat": 41.0638892, "lon": 28.9918322}, {"type": "node", "id": 7794685186, "lat": 41.0636923, "lon": 28.9920774}, {"type": "node", "id": 7794685187, "lat": 41.063996, "lon": 28.9925247}, {"type": "node", "id": 7794685188, "lat": 41.0640291, "lon": 28.9924855}, {"type": "node", "id": 7794685189, "lat": 41.063939, "lon": 28.9923506}, {"type": "node", "id": 7794685193, "lat": 41.0642886, "lon": 28.9926032}, {"type": "node", "id": 7794737841, "lat": 41.0691728, "lon": 29.0117931}, {"type": "node", "id": 7794737842, "lat": 41.068871, "lon": 29.0110928}, {"type": "node", "id": 7794737843, "lat": 41.0689175, "lon": 29.0110642}, {"type": "node", "id": 7794737844, "lat": 41.0691256, "lon": 29.011822}, {"type": "node", "id": 7794737846, "lat": 41.0693684, "lon": 29.0113388}, {"type": "node", "id": 7794737847, "lat": 41.0692704, "lon": 29.0113989}, {"type": "node", "id": 7794737848, "lat": 41.0696275, "lon": 29.0122278}, {"type": "node", "id": 7794737849, "lat": 41.069378, "lon": 29.0123772}, {"type": "node", "id": 7794737850, "lat": 41.0691034, "lon": 29.0109506}, {"type": "node", "id": 7794737851, "lat": 41.0688139, "lon": 29.0099557}, {"type": "node", "id": 7794737852, "lat": 41.0685761, "lon": 29.0101087}, {"type": "node", "id": 7794737858, "lat": 41.0692101, "lon": 29.0108851}, {"type": "node", "id": 7795360999, "lat": 41.0775886, "lon": 29.0131651}, {"type": "node", "id": 7795361000, "lat": 41.0775414, "lon": 29.0130341}, {"type": "node", "id": 7795361001, "lat": 41.0777982, "lon": 29.0128713}, {"type": "node", "id": 7795361002, "lat": 41.0779404, "lon": 29.0132662}, {"type": "node", "id": 7795361003, "lat": 41.0776991, "lon": 29.0134191}, {"type": "node", "id": 7795361004, "lat": 41.0780379, "lon": 29.0137122}, {"type": "node", "id": 7795361005, "lat": 41.0782004, "lon": 29.0136105}, {"type": "node", "id": 7795361006, "lat": 41.0782247, "lon": 29.0136787}, {"type": "node", "id": 7795361007, "lat": 41.0780373, "lon": 29.0137961}, {"type": "node", "id": 7795361008, "lat": 41.0776374, "lon": 29.0134628}, {"type": "node", "id": 7795361009, "lat": 41.0762215, "lon": 29.0143808}, {"type": "node", "id": 7795361010, "lat": 41.0761892, "lon": 29.0148286}, {"type": "node", "id": 7795361011, "lat": 41.0760917, "lon": 29.0147852}, {"type": "node", "id": 7795361012, "lat": 41.0761496, "lon": 29.014418}, {"type": "node", "id": 7795361013, "lat": 41.0759773, "lon": 29.014525}, {"type": "node", "id": 7795361014, "lat": 41.0758186, "lon": 29.0140753}, {"type": "node", "id": 7795361015, "lat": 41.0761025, "lon": 29.013899}, {"type": "node", "id": 7795361016, "lat": 41.0761618, "lon": 29.014067}, {"type": "node", "id": 7795361017, "lat": 41.0761614, "lon": 29.0147513}, {"type": "node", "id": 7795361042, "lat": 41.0759511, "lon": 29.0144587}, {"type": "node", "id": 7795379088, "lat": 41.0762298, "lon": 29.0140266}, {"type": "node", "id": 7795379089, "lat": 41.0761804, "lon": 29.0140555}, {"type": "node", "id": 7795379090, "lat": 41.0762052, "lon": 29.0140173}, {"type": "node", "id": 7795379091, "lat": 41.0761847, "lon": 29.0140302}, {"type": "node", "id": 7795379094, "lat": 41.075959, "lon": 29.014482}, {"type": "node", "id": 7795379095, "lat": 41.0758971, "lon": 29.014519}, {"type": "node", "id": 7795379096, "lat": 41.0756835, "lon": 29.0138901}, {"type": "node", "id": 7795379097, "lat": 41.0756688, "lon": 29.0138989}, {"type": "node", "id": 7795379098, "lat": 41.0756203, "lon": 29.0138745}, {"type": "node", "id": 7795379099, "lat": 41.0757131, "lon": 29.013819}, {"type": "node", "id": 7795379100, "lat": 41.075926, "lon": 29.0144456}, {"type": "node", "id": 7795379101, "lat": 41.0759431, "lon": 29.0144354}, {"type": "node", "id": 7795379102, "lat": 41.0756475, "lon": 29.0139746}, {"type": "node", "id": 7795379103, "lat": 41.0756891, "lon": 29.0139509}, {"type": "node", "id": 7795379104, "lat": 41.0760123, "lon": 29.0149728}, {"type": "node", "id": 7795379105, "lat": 41.0759806, "lon": 29.0149908}, {"type": "node", "id": 7795379106, "lat": 41.0760203, "lon": 29.0151141}, {"type": "node", "id": 7795379107, "lat": 41.0761341, "lon": 29.0150909}, {"type": "node", "id": 7795379108, "lat": 41.0763352, "lon": 29.0146048}, {"type": "node", "id": 7795379109, "lat": 41.0763963, "lon": 29.0145496}, {"type": "node", "id": 7795379110, "lat": 41.0763306, "lon": 29.0143085}, {"type": "node", "id": 7795379111, "lat": 41.0762697, "lon": 29.0143504}, {"type": "node", "id": 7795379112, "lat": 41.0763162, "lon": 29.0145214}, {"type": "node", "id": 7795379113, "lat": 41.0762912, "lon": 29.0145433}, {"type": "node", "id": 7795379114, "lat": 41.0760879, "lon": 29.0150239}, {"type": "node", "id": 7795379115, "lat": 41.0760327, "lon": 29.0150376}, {"type": "node", "id": 7795379127, "lat": 41.0756704, "lon": 29.0139615}, {"type": "node", "id": 7795379139, "lat": 41.0759921, "lon": 29.0149843, "tags": {"highway": "elevator"}}, {"type": "node", "id": 7795379140, "lat": 41.0760032, "lon": 29.014978}, {"type": "node", "id": 7798445262, "lat": 41.0941974, "lon": 29.0054781}, {"type": "node", "id": 7798445263, "lat": 41.0941467, "lon": 29.0054624}, {"type": "node", "id": 7798445264, "lat": 41.0941294, "lon": 29.0053971}, {"type": "node", "id": 7798445265, "lat": 41.094219, "lon": 29.0054841}, {"type": "node", "id": 7798445266, "lat": 41.0947101, "lon": 29.0055577}, {"type": "node", "id": 7798445267, "lat": 41.0947004, "lon": 29.0056158}, {"type": "node", "id": 7798445268, "lat": 41.0946674, "lon": 29.0055958}, {"type": "node", "id": 7798445269, "lat": 41.0946855, "lon": 29.005543}, {"type": "node", "id": 7798445282, "lat": 41.0936823, "lon": 29.0052694}, {"type": "node", "id": 7798445283, "lat": 41.0936726, "lon": 29.0053266}, {"type": "node", "id": 7798445284, "lat": 41.0937107, "lon": 29.0053239}, {"type": "node", "id": 7798504085, "lat": 41.0937104, "lon": 29.0052679}, {"type": "node", "id": 7798504090, "lat": 41.0939474, "lon": 29.0053921}, {"type": "node", "id": 7798504091, "lat": 41.0939338, "lon": 29.0053661}, {"type": "node", "id": 7798504092, "lat": 41.0939077, "lon": 29.0053832}, {"type": "node", "id": 7798504093, "lat": 41.0938931, "lon": 29.0053532}, {"type": "node", "id": 7798504094, "lat": 41.0938884, "lon": 29.0053784}, {"type": "node", "id": 7798504095, "lat": 41.0938818, "lon": 29.0053626}, {"type": "node", "id": 7798504096, "lat": 41.0938857, "lon": 29.0053553}, {"type": "node", "id": 7798504097, "lat": 41.0938829, "lon": 29.0053729}, {"type": "node", "id": 7798504116, "lat": 41.0946777, "lon": 29.0055659}, {"type": "node", "id": 7798504118, "lat": 41.0942242, "lon": 29.0054531}, {"type": "node", "id": 7798504121, "lat": 41.094125, "lon": 29.0054228}, {"type": "node", "id": 7798504123, "lat": 41.0937105, "lon": 29.0052935}, {"type": "node", "id": 7798600157, "lat": 41.1084892, "lon": 29.0200289}, {"type": "node", "id": 7798600158, "lat": 41.1084219, "lon": 29.0200327}, {"type": "node", "id": 7798600159, "lat": 41.1084474, "lon": 29.0206321}, {"type": "node", "id": 7798600160, "lat": 41.1085114, "lon": 29.0206792}, {"type": "node", "id": 7798600162, "lat": 41.1084823, "lon": 29.0207061}, {"type": "node", "id": 7798600163, "lat": 41.1081728, "lon": 29.0208857}, {"type": "node", "id": 7798600164, "lat": 41.1081761, "lon": 29.0209769}, {"type": "node", "id": 7798600165, "lat": 41.1084565, "lon": 29.0207301}, {"type": "node", "id": 7798600166, "lat": 41.1084883, "lon": 29.0207325}, {"type": "node", "id": 7798600167, "lat": 41.1084613, "lon": 29.0207534}, {"type": "node", "id": 7798600168, "lat": 41.1081292, "lon": 29.0205727}, {"type": "node", "id": 7798600169, "lat": 41.1081955, "lon": 29.0211429}, {"type": "node", "id": 7798600170, "lat": 41.1081062, "lon": 29.0205758}, {"type": "node", "id": 7798600171, "lat": 41.1081772, "lon": 29.0211457}, {"type": "node", "id": 7798600174, "lat": 41.1080723, "lon": 29.0203037, "tags": {"name": "\u0130T\u00dc", "railway": "subway_entrance"}}, {"type": "node", "id": 7800963432, "lat": 41.1175185, "lon": 29.0241738}, {"type": "node", "id": 7800963433, "lat": 41.1175131, "lon": 29.0242033}, {"type": "node", "id": 7800963434, "lat": 41.1175069, "lon": 29.0242367}, {"type": "node", "id": 7800963439, "lat": 41.1179678, "lon": 29.0241989}, {"type": "node", "id": 7800963440, "lat": 41.1179609, "lon": 29.0241763}, {"type": "node", "id": 7800963441, "lat": 41.1179516, "lon": 29.0241447}, {"type": "node", "id": 7800981899, "lat": 41.1177707, "lon": 29.0243196}, {"type": "node", "id": 7800981900, "lat": 41.1177695, "lon": 29.0242456}, {"type": "node", "id": 7800981901, "lat": 41.1177644, "lon": 29.0239759}, {"type": "node", "id": 7800981902, "lat": 41.1176456, "lon": 29.023935}, {"type": "node", "id": 7800981903, "lat": 41.1170191, "lon": 29.0239604}, {"type": "node", "id": 7800981904, "lat": 41.1170203, "lon": 29.0240229}, {"type": "node", "id": 7800981905, "lat": 41.1171423, "lon": 29.0241428}, {"type": "node", "id": 7800981906, "lat": 41.1172974, "lon": 29.0244734}, {"type": "node", "id": 7800981907, "lat": 41.1169597, "lon": 29.0245681}, {"type": "node", "id": 7800981908, "lat": 41.1167781, "lon": 29.024834}, {"type": "node", "id": 7800981909, "lat": 41.1168083, "lon": 29.0248672}, {"type": "node", "id": 7800981910, "lat": 41.1169829, "lon": 29.0246174}, {"type": "node", "id": 7800981911, "lat": 41.1173024, "lon": 29.0245212}, {"type": "node", "id": 7800981912, "lat": 41.1173027, "lon": 29.0245327}, {"type": "node", "id": 7800981913, "lat": 41.1173392, "lon": 29.0245296}, {"type": "node", "id": 7800981914, "lat": 41.1173294, "lon": 29.0241332}, {"type": "node", "id": 7800981917, "lat": 41.1177257, "lon": 29.0241113}, {"type": "node", "id": 7800981918, "lat": 41.1177303, "lon": 29.0242523}, {"type": "node", "id": 7800981919, "lat": 41.1177708, "lon": 29.0243072}, {"type": "node", "id": 7800981920, "lat": 41.1177324, "lon": 29.0243099}, {"type": "node", "id": 7800981921, "lat": 41.117732, "lon": 29.0243236}, {"type": "node", "id": 7800981922, "lat": 41.1185394, "lon": 29.024092}, {"type": "node", "id": 7800981923, "lat": 41.1185484, "lon": 29.02412}, {"type": "node", "id": 7800981924, "lat": 41.1185571, "lon": 29.0241473}, {"type": "node", "id": 7800981925, "lat": 41.1183521, "lon": 29.0242674}, {"type": "node", "id": 7800981926, "lat": 41.1183541, "lon": 29.0242808}, {"type": "node", "id": 7800981927, "lat": 41.1183154, "lon": 29.0242848}, {"type": "node", "id": 7800981928, "lat": 41.1183138, "lon": 29.0242726}, {"type": "node", "id": 7800981929, "lat": 41.118064, "lon": 29.0241958}, {"type": "node", "id": 7800981930, "lat": 41.1180697, "lon": 29.0241608}, {"type": "node", "id": 7800981931, "lat": 41.1180737, "lon": 29.0241364}, {"type": "node", "id": 7800981932, "lat": 41.1183079, "lon": 29.0242115}, {"type": "node", "id": 7800981933, "lat": 41.1188539, "lon": 29.0238697}, {"type": "node", "id": 7800981934, "lat": 41.1183536, "lon": 29.0242005}, {"type": "node", "id": 7800981935, "lat": 41.1183512, "lon": 29.024122}, {"type": "node", "id": 7800981936, "lat": 41.1182945, "lon": 29.0239057}, {"type": "node", "id": 7800981937, "lat": 41.1183494, "lon": 29.02408}, {"type": "node", "id": 7800981938, "lat": 41.1183767, "lon": 29.02412}, {"type": "node", "id": 7800981939, "lat": 41.1183756, "lon": 29.0240778}, {"type": "node", "id": 7800981940, "lat": 41.1183478, "lon": 29.0240381}, {"type": "node", "id": 7800981941, "lat": 41.1188573, "lon": 29.0240032}, {"type": "node", "id": 7801066178, "lat": 41.1298116, "lon": 29.0250259}, {"type": "node", "id": 7801066179, "lat": 41.1298164, "lon": 29.0249898}, {"type": "node", "id": 7801066180, "lat": 41.1298217, "lon": 29.0249625}, {"type": "node", "id": 7801108703, "lat": 41.1288275, "lon": 29.0251076}, {"type": "node", "id": 7801108704, "lat": 41.1288226, "lon": 29.025134}, {"type": "node", "id": 7801108705, "lat": 41.128817, "lon": 29.025164}, {"type": "node", "id": 7801108758, "lat": 41.1301211, "lon": 29.0252894}, {"type": "node", "id": 7801108759, "lat": 41.1300686, "lon": 29.025357}, {"type": "node", "id": 7801108760, "lat": 41.1301656, "lon": 29.0254896}, {"type": "node", "id": 7801108761, "lat": 41.1302265, "lon": 29.0254336}, {"type": "node", "id": 7801108762, "lat": 41.1299763, "lon": 29.025089}, {"type": "node", "id": 7801108763, "lat": 41.1296842, "lon": 29.025127}, {"type": "node", "id": 7801108764, "lat": 41.1296943, "lon": 29.0250012}, {"type": "node", "id": 7801108765, "lat": 41.1290424, "lon": 29.0248094}, {"type": "node", "id": 7801108766, "lat": 41.1289583, "lon": 29.0247882}, {"type": "node", "id": 7801108767, "lat": 41.1284655, "lon": 29.0248976}, {"type": "node", "id": 7801108768, "lat": 41.1289504, "lon": 29.0248529}, {"type": "node", "id": 7801108769, "lat": 41.1289811, "lon": 29.0248599}, {"type": "node", "id": 7801108770, "lat": 41.1289693, "lon": 29.025071}, {"type": "node", "id": 7801108771, "lat": 41.1289888, "lon": 29.0251363}, {"type": "node", "id": 7801108772, "lat": 41.1297826, "lon": 29.0252638}, {"type": "node", "id": 7801108773, "lat": 41.1299599, "lon": 29.0252334}, {"type": "node", "id": 7801108774, "lat": 41.1295842, "lon": 29.0253068}, {"type": "node", "id": 7801108776, "lat": 41.1289959, "lon": 29.0250789}, {"type": "node", "id": 7801108790, "lat": 41.1284802, "lon": 29.0249647}, {"type": "node", "id": 7801108791, "lat": 41.1281735, "lon": 29.0250135}, {"type": "node", "id": 7801108792, "lat": 41.1281776, "lon": 29.0250765}, {"type": "node", "id": 7801108793, "lat": 41.1278333, "lon": 29.0251334}, {"type": "node", "id": 7801108794, "lat": 41.1278247, "lon": 29.0250668}, {"type": "node", "id": 7801108795, "lat": 41.1275017, "lon": 29.0251596}, {"type": "node", "id": 7801108796, "lat": 41.1275009, "lon": 29.0250868}, {"type": "node", "id": 7801190624, "lat": 41.1391313, "lon": 29.0297655}, {"type": "node", "id": 7801190625, "lat": 41.1394296, "lon": 29.0294568}, {"type": "node", "id": 7846512907, "lat": 41.101363, "lon": 28.9944356}, {"type": "node", "id": 7846512908, "lat": 41.1012475, "lon": 28.9972827}, {"type": "node", "id": 7846512909, "lat": 41.1010985, "lon": 28.997272}, {"type": "node", "id": 7846512910, "lat": 41.1010841, "lon": 28.9976259}, {"type": "node", "id": 7846512911, "lat": 41.1008445, "lon": 28.9976087}, {"type": "node", "id": 7846512912, "lat": 41.1008475, "lon": 28.997534}, {"type": "node", "id": 7846512913, "lat": 41.1009793, "lon": 28.9975435}, {"type": "node", "id": 7846512914, "lat": 41.1009999, "lon": 28.9970371}, {"type": "node", "id": 7846512915, "lat": 41.1010384, "lon": 28.9970399}, {"type": "node", "id": 7846512916, "lat": 41.1010325, "lon": 28.994685}, {"type": "node", "id": 7846512917, "lat": 41.1009233, "lon": 28.9946771}, {"type": "node", "id": 7846512918, "lat": 41.1009149, "lon": 28.9948826}, {"type": "node", "id": 7846512919, "lat": 41.1008287, "lon": 28.9948764}, {"type": "node", "id": 7846512920, "lat": 41.1008451, "lon": 28.9944749}, {"type": "node", "id": 7846512921, "lat": 41.1010567, "lon": 28.9943492}, {"type": "node", "id": 7846512937, "lat": 41.1010125, "lon": 28.9951761}, {"type": "node", "id": 7846512938, "lat": 41.1011143, "lon": 28.9951834}, {"type": "node", "id": 7846512962, "lat": 41.101143, "lon": 28.9967896}, {"type": "node", "id": 7846512975, "lat": 41.101051, "lon": 28.9944897}, {"type": "node", "id": 7846512976, "lat": 41.1011914, "lon": 28.9943589}, {"type": "node", "id": 7846512977, "lat": 41.101237, "lon": 28.9947001}, {"type": "node", "id": 7846513408, "lat": 41.1013454, "lon": 28.9948699}, {"type": "node", "id": 7846513410, "lat": 41.1013354, "lon": 28.99511}, {"type": "node", "id": 7846513412, "lat": 41.1013556, "lon": 28.9946186}, {"type": "node", "id": 7881062703, "lat": 41.0775069, "lon": 29.0232951}, {"type": "node", "id": 7881062704, "lat": 41.0773147, "lon": 29.0233197}, {"type": "node", "id": 7881062705, "lat": 41.0773646, "lon": 29.0233829}, {"type": "node", "id": 7881062706, "lat": 41.0774547, "lon": 29.0233715}, {"type": "node", "id": 7881062707, "lat": 41.077476, "lon": 29.0236652}, {"type": "node", "id": 7881062708, "lat": 41.0774278, "lon": 29.0236713}, {"type": "node", "id": 7881062709, "lat": 41.0774675, "lon": 29.0242211}, {"type": "node", "id": 7881062710, "lat": 41.0775007, "lon": 29.0242169}, {"type": "node", "id": 7881062711, "lat": 41.0775252, "lon": 29.0245561}, {"type": "node", "id": 7881062712, "lat": 41.0774518, "lon": 29.0245654}, {"type": "node", "id": 7881062713, "lat": 41.0774112, "lon": 29.0246287}, {"type": "node", "id": 7881062714, "lat": 41.0775775, "lon": 29.0246075}, {"type": "node", "id": 7881062715, "lat": 41.0775487, "lon": 29.0242107}, {"type": "node", "id": 7881062716, "lat": 41.0776304, "lon": 29.0242003}, {"type": "node", "id": 7881062717, "lat": 41.0775906, "lon": 29.0236517}, {"type": "node", "id": 7881062718, "lat": 41.0775333, "lon": 29.023659}, {"type": "node", "id": 7881062720, "lat": 41.077422, "lon": 29.0239918, "tags": {"name": "Nispetiye", "public_transport": "stop_position", "railway": "stop", "subway": "yes"}}, {"type": "node", "id": 7881062729, "lat": 41.0773416, "lon": 29.0234305}, {"type": "node", "id": 7881062731, "lat": 41.0774243, "lon": 29.0245328}, {"type": "node", "id": 7881062746, "lat": 41.0773556, "lon": 29.0234287}, {"type": "node", "id": 7881062751, "lat": 41.0773521, "lon": 29.0240014, "tags": {"name": "Nispetiye", "public_transport": "stop_position", "railway": "stop", "subway": "yes"}}, {"type": "node", "id": 7881078191, "lat": 41.0824907, "lon": 29.037567, "tags": {"name": "Etiler", "public_transport": "stop_position", "railway": "stop", "subway": "yes"}}, {"type": "node", "id": 7881078192, "lat": 41.0824433, "lon": 29.0376406, "tags": {"name": "Etiler", "public_transport": "stop_position", "railway": "stop", "subway": "yes"}}, {"type": "node", "id": 7881078213, "lat": 41.0823702, "lon": 29.0378211}, {"type": "node", "id": 7881078214, "lat": 41.0821748, "lon": 29.038136}, {"type": "node", "id": 7881078215, "lat": 41.0820981, "lon": 29.0380573}, {"type": "node", "id": 7881078216, "lat": 41.0822895, "lon": 29.0377441}, {"type": "node", "id": 7881078217, "lat": 41.0823028, "lon": 29.0377512}, {"type": "node", "id": 7881078218, "lat": 41.0823602, "lon": 29.0376627}, {"type": "node", "id": 7881078219, "lat": 41.0824089, "lon": 29.0376087}, {"type": "node", "id": 7881078220, "lat": 41.0823182, "lon": 29.0374928}, {"type": "node", "id": 7881078221, "lat": 41.0823742, "lon": 29.0374017}, {"type": "node", "id": 7881078222, "lat": 41.0826123, "lon": 29.037706}, {"type": "node", "id": 7881078223, "lat": 41.0825503, "lon": 29.0377857}, {"type": "node", "id": 7881078224, "lat": 41.0824436, "lon": 29.0376565}, {"type": "node", "id": 7881078225, "lat": 41.0823815, "lon": 29.0377184}, {"type": "node", "id": 7881078226, "lat": 41.0823348, "lon": 29.0377892}, {"type": "node", "id": 7881101108, "lat": 41.0851357, "lon": 29.0450113}, {"type": "node", "id": 7881101109, "lat": 41.0853074, "lon": 29.0449842}, {"type": "node", "id": 7881101110, "lat": 41.0852692, "lon": 29.0450538}, {"type": "node", "id": 7881101111, "lat": 41.0852056, "lon": 29.0450651}, {"type": "node", "id": 7881101112, "lat": 41.0851812, "lon": 29.045443}, {"type": "node", "id": 7881101113, "lat": 41.0851983, "lon": 29.0454339}, {"type": "node", "id": 7881101114, "lat": 41.0852698, "lon": 29.0456699}, {"type": "node", "id": 7881101115, "lat": 41.0852441, "lon": 29.0456837}, {"type": "node", "id": 7881101116, "lat": 41.0853229, "lon": 29.0462446}, {"type": "node", "id": 7881101117, "lat": 41.0853775, "lon": 29.0462354}, {"type": "node", "id": 7881101118, "lat": 41.085428, "lon": 29.046288}, {"type": "node", "id": 7881101119, "lat": 41.0852618, "lon": 29.0463152}, {"type": "node", "id": 7881101120, "lat": 41.0852022, "lon": 29.045706}, {"type": "node", "id": 7881101121, "lat": 41.0849658, "lon": 29.045839}, {"type": "node", "id": 7881101122, "lat": 41.0848947, "lon": 29.0455959}, {"type": "node", "id": 7881101123, "lat": 41.085134, "lon": 29.0454682}, {"type": "node", "id": 7881101124, "lat": 41.0852845, "lon": 29.0458109}, {"type": "node", "id": 7881101125, "lat": 41.0852766, "lon": 29.0462519}, {"type": "node", "id": 7881101126, "lat": 41.0851778, "lon": 29.0452379}, {"type": "node", "id": 7881101127, "lat": 41.0851313, "lon": 29.0452296}, {"type": "node", "id": 7881101128, "lat": 41.0851775, "lon": 29.0454137}, {"type": "node", "id": 7881101129, "lat": 41.0851291, "lon": 29.0453225}, {"type": "node", "id": 7881101148, "lat": 41.0852972, "lon": 29.0450932}, {"type": "node", "id": 7881101160, "lat": 41.0853986, "lon": 29.0461932}, {"type": "node", "id": 7881101163, "lat": 41.0852857, "lon": 29.0450951, "tags": {"highway": "elevator"}}, {"type": "node", "id": 7897142412, "lat": 41.0621694, "lon": 29.0076372, "tags": {"name": "Fulya", "public_transport": "stop_position", "railway": "stop", "subway": "yes"}}, {"type": "node", "id": 7897142413, "lat": 41.0619126, "lon": 29.0073783, "tags": {"name": "Fulya", "public_transport": "stop_position", "railway": "stop", "subway": "yes"}}, {"type": "node", "id": 7897142455, "lat": 41.0540063, "lon": 29.0098445, "tags": {"name": "Y\u0131ld\u0131z", "public_transport": "stop_position", "railway": "stop", "subway": "yes"}}, {"type": "node", "id": 7993244682, "lat": 41.0653135, "lon": 28.9955607, "tags": {"name": "Mecidiyek\u00f6y", "public_transport": "stop_position", "railway": "stop", "subway": "yes"}}, {"type": "node", "id": 8050455173, "lat": 41.0651758, "lon": 28.9955189, "tags": {"name": "Mecidiyek\u00f6y", "network": "\u0130stanbul Metrosu", "operator": "Metro \u0130stanbul", "public_transport": "station", "railway": "station", "station": "subway", "subway": "yes", "wheelchair": "yes", "wikidata": "Q19613989", "wikipedia": "tr:\u015ei\u015fli-Mecidiyek\u00f6y (\u0130stanbul metrosu)"}}, {"type": "node", "id": 8050593452, "lat": 41.0799335, "lon": 28.9723203, "tags": {"level": "0", "name": "Giri\u015f 2", "railway": "subway_entrance", "wheelchair": "yes"}}, {"type": "node", "id": 8050593453, "lat": 41.0792152, "lon": 28.9743671, "tags": {"level": "0", "name": "Giri\u015f 1", "railway": "subway_entrance", "wheelchair": "yes"}}, {"type": "node", "id": 8050612013, "lat": 41.0803155, "lon": 28.9649662, "tags": {"level": "0", "name": "Giri\u015f 1", "railway": "subway_entrance", "wheelchair": "yes"}}, {"type": "node", "id": 8051307678, "lat": 41.0793535, "lon": 28.9736592}, {"type": "node", "id": 8051340591, "lat": 41.0793592, "lon": 28.9735995}, {"type": "node", "id": 8051340592, "lat": 41.0793411, "lon": 28.9736505}, {"type": "node", "id": 8051340593, "lat": 41.0793122, "lon": 28.973732}, {"type": "node", "id": 8051340594, "lat": 41.0793132, "lon": 28.9737911}, {"type": "node", "id": 8051340595, "lat": 41.0792955, "lon": 28.9737792}, {"type": "node", "id": 8051340598, "lat": 41.0797589, "lon": 28.9725837}, {"type": "node", "id": 8051340599, "lat": 41.0797373, "lon": 28.9726446}, {"type": "node", "id": 8051340600, "lat": 41.0797344, "lon": 28.9725685}, {"type": "node", "id": 8051340601, "lat": 41.0796977, "lon": 28.97262}, {"type": "node", "id": 8051340606, "lat": 41.0800081, "lon": 28.9722389}, {"type": "node", "id": 8051340607, "lat": 41.080049, "lon": 28.9722646}, {"type": "node", "id": 8051340608, "lat": 41.0798756, "lon": 28.972751}, {"type": "node", "id": 8051340609, "lat": 41.0798993, "lon": 28.9727659}, {"type": "node", "id": 8051340610, "lat": 41.0799019, "lon": 28.9728266}, {"type": "node", "id": 8051340611, "lat": 41.0798584, "lon": 28.9727993}, {"type": "node", "id": 8051340612, "lat": 41.0795659, "lon": 28.9737286}, {"type": "node", "id": 8051340613, "lat": 41.0795472, "lon": 28.973781}, {"type": "node", "id": 8051340614, "lat": 41.0795324, "lon": 28.973772}, {"type": "node", "id": 8051340615, "lat": 41.0795193, "lon": 28.9738607}, {"type": "node", "id": 8051340616, "lat": 41.0795016, "lon": 28.9739105}, {"type": "node", "id": 8051340617, "lat": 41.079482, "lon": 28.9738982}, {"type": "node", "id": 8051340618, "lat": 41.0792508, "lon": 28.9743617}, {"type": "node", "id": 8051340622, "lat": 41.0797192, "lon": 28.9725591}, {"type": "node", "id": 8051340623, "lat": 41.0799191, "lon": 28.9727783}, {"type": "node", "id": 8051340624, "lat": 41.079578, "lon": 28.9735834}, {"type": "node", "id": 8051340625, "lat": 41.0794367, "lon": 28.9734945}, {"type": "node", "id": 8051340626, "lat": 41.0792441, "lon": 28.9740382}, {"type": "node", "id": 8051340627, "lat": 41.0793839, "lon": 28.9741263}, {"type": "node", "id": 8051340628, "lat": 41.0797074, "lon": 28.9727285}, {"type": "node", "id": 8051340629, "lat": 41.0798515, "lon": 28.9728187}, {"type": "node", "id": 8051340630, "lat": 41.0799861, "lon": 28.9724404}, {"type": "node", "id": 8051340631, "lat": 41.0798419, "lon": 28.9723502}, {"type": "node", "id": 8051340632, "lat": 41.0793286, "lon": 28.9737999}, {"type": "node", "id": 8051340633, "lat": 41.0793923, "lon": 28.9736201}, {"type": "node", "id": 8051340634, "lat": 41.0793741, "lon": 28.9736711}, {"type": "node", "id": 8051340635, "lat": 41.0793453, "lon": 28.9737526}, {"type": "node", "id": 8051340636, "lat": 41.0794684, "lon": 28.9738896}, {"type": "node", "id": 8051340637, "lat": 41.0795334, "lon": 28.9737082}, {"type": "node", "id": 8051340638, "lat": 41.0795146, "lon": 28.9737605}, {"type": "node", "id": 8051340639, "lat": 41.0794862, "lon": 28.9738399}, {"type": "node", "id": 8062776603, "lat": 41.0649928, "lon": 28.9963834}, {"type": "node", "id": 8062776604, "lat": 41.064954, "lon": 28.9963696}, {"type": "node", "id": 8062776607, "lat": 41.0651849, "lon": 28.9954023}, {"type": "node", "id": 8062776608, "lat": 41.0651461, "lon": 28.9953885}, {"type": "node", "id": 8062776611, "lat": 41.0651606, "lon": 28.9955261}, {"type": "node", "id": 8062776612, "lat": 41.0651218, "lon": 28.9955123}, {"type": "node", "id": 8062776615, "lat": 41.0653466, "lon": 28.994554}, {"type": "node", "id": 8062776616, "lat": 41.0653077, "lon": 28.9945402}, {"type": "node", "id": 8062776636, "lat": 41.0701893, "lon": 28.9811883}, {"type": "node", "id": 8062776637, "lat": 41.0701638, "lon": 28.9811471}, {"type": "node", "id": 8062776721, "lat": 41.0800076, "lon": 28.9639448}, {"type": "node", "id": 8062776722, "lat": 41.080043, "lon": 28.9639196}, {"type": "node", "id": 8062776727, "lat": 41.0797425, "lon": 28.9632076}, {"type": "node", "id": 8062776728, "lat": 41.079707, "lon": 28.9632328}, {"type": "node", "id": 8085969210, "lat": 41.0712386, "lon": 28.9792614}, {"type": "node", "id": 8085969211, "lat": 41.0711797, "lon": 28.9792822}, {"type": "node", "id": 8085969212, "lat": 41.0712412, "lon": 28.9795677}, {"type": "node", "id": 8085969213, "lat": 41.0706194, "lon": 28.9803605}, {"type": "node", "id": 8085969214, "lat": 41.070571, "lon": 28.9804923}, {"type": "node", "id": 8085969215, "lat": 41.0706846, "lon": 28.9806744}, {"type": "node", "id": 8085969216, "lat": 41.071354, "lon": 28.9798825}, {"type": "node", "id": 8085974997, "lat": 41.0800268, "lon": 28.9639311}, {"type": "node", "id": 8085974999, "lat": 41.0797262, "lon": 28.9632192}, {"type": "node", "id": 8085983244, "lat": 41.0795611, "lon": 28.962363}, {"type": "node", "id": 8085983245, "lat": 41.0792732, "lon": 28.9625627}, {"type": "node", "id": 8085983246, "lat": 41.079755, "lon": 28.9637457}, {"type": "node", "id": 8085983247, "lat": 41.0798844, "lon": 28.9636545}, {"type": "node", "id": 8085983248, "lat": 41.0798521, "lon": 28.9635768}, {"type": "node", "id": 8085983249, "lat": 41.0797671, "lon": 28.9636385}, {"type": "node", "id": 8085983250, "lat": 41.0794942, "lon": 28.9629639}, {"type": "node", "id": 8085983251, "lat": 41.0799875, "lon": 28.9632992}, {"type": "node", "id": 8085983252, "lat": 41.0800209, "lon": 28.963216}, {"type": "node", "id": 8085983253, "lat": 41.079788, "lon": 28.9630512}, {"type": "node", "id": 8085983254, "lat": 41.0798986, "lon": 28.9627882}, {"type": "node", "id": 8085983255, "lat": 41.0798098, "lon": 28.9625935}, {"type": "node", "id": 8085983256, "lat": 41.0796863, "lon": 28.9626675}, {"type": "node", "id": 8085983262, "lat": 41.0803407, "lon": 28.9645677}, {"type": "node", "id": 8085983263, "lat": 41.0804548, "lon": 28.964803}, {"type": "node", "id": 8085983264, "lat": 41.0804381, "lon": 28.9649437}, {"type": "node", "id": 8085983265, "lat": 41.0803267, "lon": 28.9650012}, {"type": "node", "id": 8085983266, "lat": 41.080234, "lon": 28.9649729}, {"type": "node", "id": 8085983267, "lat": 41.0801747, "lon": 28.9648154}, {"type": "node", "id": 8085983268, "lat": 41.0802787, "lon": 28.9647544}, {"type": "node", "id": 8085983269, "lat": 41.0802367, "lon": 28.9646464}, {"type": "node", "id": 8085983270, "lat": 41.0803015, "lon": 28.9649351}, {"type": "node", "id": 8085983274, "lat": 41.0803076, "lon": 28.9649485, "tags": {"highway": "elevator"}}, {"type": "node", "id": 8086032817, "lat": 41.0713804, "lon": 28.9797704}, {"type": "node", "id": 8086032818, "lat": 41.0713047, "lon": 28.9795848}, {"type": "node", "id": 8086032819, "lat": 41.071027, "lon": 28.9798976}, {"type": "node", "id": 8086032820, "lat": 41.0710016, "lon": 28.9798412}, {"type": "node", "id": 8086032857, "lat": 41.0701781, "lon": 28.9811702}, {"type": "node", "id": 8086032875, "lat": 41.0696882, "lon": 28.982626}, {"type": "node", "id": 8086032876, "lat": 41.0696457, "lon": 28.9827138}, {"type": "node", "id": 8086032877, "lat": 41.0694304, "lon": 28.9825931}, {"type": "node", "id": 8086032878, "lat": 41.0694764, "lon": 28.9825023}, {"type": "node", "id": 8086032879, "lat": 41.069408, "lon": 28.9824381}, {"type": "node", "id": 8086032880, "lat": 41.0694299, "lon": 28.9823865}, {"type": "node", "id": 8086032881, "lat": 41.0694481, "lon": 28.9824022}, {"type": "node", "id": 8086032882, "lat": 41.0695096, "lon": 28.9823087}, {"type": "node", "id": 8086032883, "lat": 41.0697246, "lon": 28.9817521}, {"type": "node", "id": 8086032884, "lat": 41.0697666, "lon": 28.9817955}, {"type": "node", "id": 8086032885, "lat": 41.0695525, "lon": 28.9823405}, {"type": "node", "id": 8086032886, "lat": 41.0694904, "lon": 28.9824414}, {"type": "node", "id": 8086116233, "lat": 41.065328, "lon": 28.9945474}, {"type": "node", "id": 8086116236, "lat": 41.0651617, "lon": 28.995394}, {"type": "node", "id": 8086116237, "lat": 41.0651401, "lon": 28.9955188}, {"type": "node", "id": 8086116240, "lat": 41.0649687, "lon": 28.9963748}, {"type": "node", "id": 8086116248, "lat": 41.0655148, "lon": 28.9943655}, {"type": "node", "id": 8086116295, "lat": 41.0652291, "lon": 28.99492}, {"type": "node", "id": 8086116296, "lat": 41.0651389, "lon": 28.9948874}, {"type": "node", "id": 8086116297, "lat": 41.0652945, "lon": 28.9940272}, {"type": "node", "id": 8086116298, "lat": 41.0652527, "lon": 28.993963}, {"type": "node", "id": 8086116299, "lat": 41.0650922, "lon": 28.9949118}, {"type": "node", "id": 8086116300, "lat": 41.064883, "lon": 28.9959292}, {"type": "node", "id": 8086116301, "lat": 41.0650278, "lon": 28.995979}, {"type": "node", "id": 8086116302, "lat": 41.065072, "lon": 28.9960014}, {"type": "node", "id": 8086116303, "lat": 41.0652168, "lon": 28.9960514}, {"type": "node", "id": 8086116304, "lat": 41.0651214, "lon": 28.9965017}, {"type": "node", "id": 8086116305, "lat": 41.0647956, "lon": 28.9968196}, {"type": "node", "id": 8086116306, "lat": 41.0649426, "lon": 28.9971678}, {"type": "node", "id": 8086116307, "lat": 41.0649016, "lon": 28.9972056}, {"type": "node", "id": 8086116308, "lat": 41.0649326, "lon": 28.997281}, {"type": "node", "id": 8086116309, "lat": 41.0652659, "lon": 28.9969883}, {"type": "node", "id": 8086116310, "lat": 41.0652834, "lon": 28.997013}, {"type": "node", "id": 8086116311, "lat": 41.0656214, "lon": 28.9966756}, {"type": "node", "id": 8086116312, "lat": 41.0655898, "lon": 28.9966108}, {"type": "node", "id": 8086116313, "lat": 41.0654227, "lon": 28.996768}, {"type": "node", "id": 8086116314, "lat": 41.0653136, "lon": 28.996537}, {"type": "node", "id": 8086116315, "lat": 41.0652659, "lon": 28.9964476}, {"type": "node", "id": 8086116316, "lat": 41.0651695, "lon": 28.9965493}, {"type": "node", "id": 8086124617, "lat": 41.0652613, "lon": 28.9960717}, {"type": "node", "id": 8086124618, "lat": 41.0652785, "lon": 28.9960792}, {"type": "node", "id": 8086124619, "lat": 41.0652943, "lon": 28.9959987}, {"type": "node", "id": 8086124620, "lat": 41.0650848, "lon": 28.9959285}, {"type": "node", "id": 8086124621, "lat": 41.0650417, "lon": 28.9959157}, {"type": "node", "id": 8086124622, "lat": 41.0649415, "lon": 28.9958812}, {"type": "node", "id": 8086124623, "lat": 41.0651302, "lon": 28.9949549}, {"type": "node", "id": 8086124624, "lat": 41.065218, "lon": 28.99499}, {"type": "node", "id": 8086124625, "lat": 41.0652582, "lon": 28.9950037}, {"type": "node", "id": 8086124626, "lat": 41.0654082, "lon": 28.9950557}, {"type": "node", "id": 8086124627, "lat": 41.0654207, "lon": 28.9949962}, {"type": "node", "id": 8086124628, "lat": 41.0654067, "lon": 28.9949868}, {"type": "node", "id": 8086124629, "lat": 41.0655373, "lon": 28.9943999}, {"type": "node", "id": 8086124630, "lat": 41.0654987, "lon": 28.9943406}, {"type": "node", "id": 8086124631, "lat": 41.0653626, "lon": 28.9949712}, {"type": "node", "id": 8086124632, "lat": 41.0652684, "lon": 28.994935}, {"type": "node", "id": 8086124634, "lat": 41.0652757, "lon": 28.9939982}, {"type": "node", "id": 8408227928, "lat": 41.0658799, "lon": 29.0126205, "tags": {"railway": "subway_entrance"}}, {"type": "node", "id": 8408227934, "lat": 41.0673866, "lon": 29.0143661, "tags": {"railway": "subway_entrance"}}, {"type": "node", "id": 8408253758, "lat": 41.0689978, "lon": 29.011456}, {"type": "node", "id": 8408276024, "lat": 41.0689813, "lon": 29.0114086}, {"type": "node", "id": 8658882160, "lat": 41.0798719, "lon": 28.9631106}, {"type": "node", "id": 8691061383, "lat": 41.0798407, "lon": 28.9631994}, {"type": "node", "id": 8827251811, "lat": 41.067277, "lon": 28.9925462}, {"type": "node", "id": 8827251812, "lat": 41.0673329, "lon": 28.9925898}, {"type": "node", "id": 8827251814, "lat": 41.0672926, "lon": 28.9925452}, {"type": "node", "id": 8827251815, "lat": 41.0675361, "lon": 28.9923657}, {"type": "node", "id": 8827251816, "lat": 41.067534, "lon": 28.9924462}, {"type": "node", "id": 8827294717, "lat": 41.067535, "lon": 28.9924082, "tags": {"barrier": "kissing_gate", "name": "Trump AVM giri\u015fi"}}, {"type": "node", "id": 8827294720, "lat": 41.0640476, "lon": 28.9922208}, {"type": "node", "id": 8853285384, "lat": 41.079696, "lon": 28.9774776}, {"type": "node", "id": 8853285385, "lat": 41.0806332, "lon": 28.9757246}, {"type": "node", "id": 8853285386, "lat": 41.0805158, "lon": 28.9756142}, {"type": "node", "id": 8853285387, "lat": 41.0795788, "lon": 28.9773673}, {"type": "node", "id": 8853285388, "lat": 41.0807004, "lon": 28.9756937}, {"type": "node", "id": 8853285389, "lat": 41.0797219, "lon": 28.9775486}, {"type": "node", "id": 8853285390, "lat": 41.079516, "lon": 28.9773574}, {"type": "node", "id": 8853285391, "lat": 41.0804946, "lon": 28.9755026}, {"type": "node", "id": 8853285393, "lat": 41.080086, "lon": 28.9765616, "tags": {"name": "Ka\u011f\u0131thane", "network": "M11", "operator": "TCDD Ta\u015f\u0131mac\u0131l\u0131k", "public_transport": "station", "railway": "station", "station": "subway", "subway": "yes", "wikidata": "Q55887158", "wikipedia": "tr:K\u00e2\u011f\u0131thane (\u0130stanbul metrosu)"}}, {"type": "node", "id": 8853978851, "lat": 41.0516323, "lon": 28.9876964}, {"type": "node", "id": 8853978852, "lat": 41.0516297, "lon": 28.9876517}, {"type": "node", "id": 8853978853, "lat": 41.0516012, "lon": 28.9874275}, {"type": "node", "id": 8853978854, "lat": 41.0516213, "lon": 28.9873745}, {"type": "node", "id": 8853978855, "lat": 41.0542873, "lon": 28.9873158}, {"type": "node", "id": 8853978856, "lat": 41.0542897, "lon": 28.9873451}, {"type": "node", "id": 8853978857, "lat": 41.0542669, "lon": 28.9870695}, {"type": "node", "id": 8853978858, "lat": 41.0542646, "lon": 28.9870412}, {"type": "node", "id": 8853978859, "lat": 41.0540707, "lon": 28.9873454}, {"type": "node", "id": 8853978860, "lat": 41.0540731, "lon": 28.9873738}, {"type": "node", "id": 8853978861, "lat": 41.0540432, "lon": 28.9871028}, {"type": "node", "id": 8853978862, "lat": 41.0540407, "lon": 28.9870742}, {"type": "node", "id": 8853999137, "lat": 41.0639057, "lon": 28.9923896}, {"type": "node", "id": 8853999139, "lat": 41.0638688, "lon": 28.9923356, "tags": {"railway": "subway_entrance"}}, {"type": "node", "id": 8853999142, "lat": 41.0649704, "lon": 28.9936775}, {"type": "node", "id": 8853999143, "lat": 41.0650075, "lon": 28.9936336}, {"type": "node", "id": 8853999145, "lat": 41.0660568, "lon": 28.9946332}, {"type": "node", "id": 8853999146, "lat": 41.0659736, "lon": 28.9954175}, {"type": "node", "id": 8853999147, "lat": 41.0660019, "lon": 28.9953906}, {"type": "node", "id": 8853999148, "lat": 41.0662091, "lon": 28.9927746}, {"type": "node", "id": 8853999149, "lat": 41.0662126, "lon": 28.9928227}, {"type": "node", "id": 8853999152, "lat": 41.0665417, "lon": 28.9927008}, {"type": "node", "id": 8853999154, "lat": 41.0672273, "lon": 28.9927025}, {"type": "node", "id": 8853999156, "lat": 41.0650734, "lon": 28.9971513}, {"type": "node", "id": 8853999158, "lat": 41.0655078, "lon": 28.996784}, {"type": "node", "id": 8853999159, "lat": 41.0654739, "lon": 28.9967214}, {"type": "node", "id": 8854053344, "lat": 41.0690778, "lon": 29.0116846}, {"type": "node", "id": 8854166393, "lat": 41.0760448, "lon": 29.0149217}, {"type": "node", "id": 8854166394, "lat": 41.0760145, "lon": 29.0148358}, {"type": "node", "id": 8854166395, "lat": 41.0780974, "lon": 29.013756}, {"type": "node", "id": 8854166396, "lat": 41.0780737, "lon": 29.0136874}, {"type": "node", "id": 8854166401, "lat": 41.0776989, "lon": 29.0132293, "tags": {"railway": "subway_entrance"}}, {"type": "node", "id": 8854435298, "lat": 41.1082136, "lon": 29.0220366}, {"type": "node", "id": 8854435299, "lat": 41.1082188, "lon": 29.0220854}, {"type": "node", "id": 8854435300, "lat": 41.1081634, "lon": 29.0221001}, {"type": "node", "id": 8854435301, "lat": 41.1081578, "lon": 29.022047}, {"type": "node", "id": 8854463474, "lat": 41.1168731, "lon": 29.0247681}, {"type": "node", "id": 8854463475, "lat": 41.1168435, "lon": 29.024734}, {"type": "node", "id": 8854463476, "lat": 41.1171376, "lon": 29.0240174}, {"type": "node", "id": 8854463477, "lat": 41.1171359, "lon": 29.0239549}, {"type": "node", "id": 8854463478, "lat": 41.1186504, "lon": 29.0238824}, {"type": "node", "id": 8854463479, "lat": 41.1187703, "lon": 29.0238748}, {"type": "node", "id": 8854535475, "lat": 41.0712592, "lon": 28.9793644}, {"type": "node", "id": 8854535476, "lat": 41.0712004, "lon": 28.9793852}, {"type": "node", "id": 8854535481, "lat": 41.0694619, "lon": 28.98261}, {"type": "node", "id": 8854535482, "lat": 41.069548, "lon": 28.9826568}, {"type": "node", "id": 8872627979, "lat": 41.0791766, "lon": 28.9743132}, {"type": "node", "id": 8872627980, "lat": 41.0799345, "lon": 28.9721938}, {"type": "node", "id": 8872627987, "lat": 41.0800202, "lon": 28.9722466}, {"type": "node", "id": 8872627988, "lat": 41.0792638, "lon": 28.9743699}, {"type": "node", "id": 8872627990, "lat": 41.0800161, "lon": 28.9723569}, {"type": "node", "id": 8872627991, "lat": 41.0800015, "lon": 28.9723977}, {"type": "node", "id": 8872627992, "lat": 41.0800465, "lon": 28.972375}, {"type": "node", "id": 8872627993, "lat": 41.080032, "lon": 28.9724161}, {"type": "node", "id": 8872627995, "lat": 41.0798762, "lon": 28.9722527}, {"type": "node", "id": 8872627996, "lat": 41.0798911, "lon": 28.9722107}, {"type": "node", "id": 8872627997, "lat": 41.0798437, "lon": 28.9722331}, {"type": "node", "id": 8872627998, "lat": 41.0798603, "lon": 28.9721916}, {"type": "node", "id": 9022727116, "lat": 41.0540211, "lon": 29.0094868}, {"type": "node", "id": 9022743456, "lat": 41.0537535, "lon": 29.0096351}, {"type": "node", "id": 9022743464, "lat": 41.0548446, "lon": 29.009741}, {"type": "node", "id": 9022743465, "lat": 41.0540325, "lon": 29.0099513}, {"type": "node", "id": 9022743466, "lat": 41.0539734, "lon": 29.0095497}, {"type": "node", "id": 9022743467, "lat": 41.0541324, "lon": 29.0095085}, {"type": "node", "id": 9022743468, "lat": 41.0551716, "lon": 29.0096953}, {"type": "node", "id": 9022743469, "lat": 41.0551606, "lon": 29.0097993}, {"type": "node", "id": 9022743470, "lat": 41.054028, "lon": 29.0095666}, {"type": "node", "id": 9022743471, "lat": 41.0523941, "lon": 29.0083437}, {"type": "node", "id": 9022743472, "lat": 41.0528986, "lon": 29.0083885}, {"type": "node", "id": 9022743473, "lat": 41.0524046, "lon": 29.0082654}, {"type": "node", "id": 9022743474, "lat": 41.0533505, "lon": 29.0091943}, {"type": "node", "id": 9022743475, "lat": 41.0534123, "lon": 29.0091374}, {"type": "node", "id": 9022743476, "lat": 41.0528495, "lon": 29.0081557}, {"type": "node", "id": 9022743477, "lat": 41.052799, "lon": 29.0082065}, {"type": "node", "id": 9022743484, "lat": 41.053454, "lon": 29.0086714}, {"type": "node", "id": 9022743485, "lat": 41.055347, "lon": 29.009282}, {"type": "node", "id": 9022743486, "lat": 41.0553591, "lon": 29.0092009}, {"type": "node", "id": 9022743487, "lat": 41.0543767, "lon": 29.0095533}, {"type": "node", "id": 9022743488, "lat": 41.0544363, "lon": 29.0095642}, {"type": "node", "id": 9022743489, "lat": 41.0545298, "lon": 29.0091179}, {"type": "node", "id": 9022743490, "lat": 41.0543354, "lon": 29.0090643}, {"type": "node", "id": 9022743491, "lat": 41.0540291, "lon": 29.0095793}, {"type": "node", "id": 9022743492, "lat": 41.0541172, "lon": 29.0095659}, {"type": "node", "id": 9022743493, "lat": 41.0533507, "lon": 29.0090285}, {"type": "node", "id": 9022743494, "lat": 41.0534736, "lon": 29.0089835}, {"type": "node", "id": 9022743495, "lat": 41.05353, "lon": 29.008663}, {"type": "node", "id": 9022743496, "lat": 41.0535767, "lon": 29.0093317}, {"type": "node", "id": 9022743497, "lat": 41.0535964, "lon": 29.0096502}, {"type": "node", "id": 9022743498, "lat": 41.0535161, "lon": 29.0096613}, {"type": "node", "id": 9022743499, "lat": 41.0534786, "lon": 29.0090636}, {"type": "node", "id": 9022743500, "lat": 41.0533906, "lon": 29.0090965}, {"type": "node", "id": 9022743508, "lat": 41.0549098, "lon": 29.0091676}, {"type": "node", "id": 9022743509, "lat": 41.0546788, "lon": 29.0096043}, {"type": "node", "id": 9022743510, "lat": 41.0548434, "lon": 29.0091505}, {"type": "node", "id": 9022743511, "lat": 41.0547888, "lon": 29.0091362}, {"type": "node", "id": 9022743512, "lat": 41.0548009, "lon": 29.0090547}, {"type": "node", "id": 9022743513, "lat": 41.0535711, "lon": 29.0092522}, {"type": "node", "id": 9022743514, "lat": 41.0545002, "lon": 29.0091876}, {"type": "node", "id": 9022743515, "lat": 41.0540986, "lon": 29.0093624}, {"type": "node", "id": 9022743516, "lat": 41.0540695, "lon": 29.0090107}, {"type": "node", "id": 9022743517, "lat": 41.0539817, "lon": 29.0090283}, {"type": "node", "id": 9022743518, "lat": 41.0539923, "lon": 29.0091509}, {"type": "node", "id": 9022743519, "lat": 41.0539991, "lon": 29.0092301}, {"type": "node", "id": 9022743521, "lat": 41.0537425, "lon": 29.0095569}, {"type": "node", "id": 9022743522, "lat": 41.0541077, "lon": 29.0094556}, {"type": "node", "id": 9022743523, "lat": 41.0544288, "lon": 29.0091342}, {"type": "node", "id": 9022743524, "lat": 41.0546101, "lon": 29.009596}, {"type": "node", "id": 9141373563, "lat": 41.1394474, "lon": 29.0303042}, {"type": "node", "id": 9230312036, "lat": 41.0798851, "lon": 28.9728527}, {"type": "node", "id": 9230312040, "lat": 41.0799607, "lon": 28.9721624}, {"type": "node", "id": 9248209052, "lat": 41.108099, "lon": 29.0220339}, {"type": "node", "id": 9292868469, "lat": 41.0668495, "lon": 28.9913699}, {"type": "node", "id": 9292868470, "lat": 41.0667506, "lon": 28.9929259}, {"type": "node", "id": 9351048506, "lat": 41.0758569, "lon": 29.0144399, "tags": {"name": "Levent", "network": "M6", "public_transport": "stop_position", "railway": "stop", "subway": "yes"}}, {"type": "node", "id": 9351048507, "lat": 41.0757982, "lon": 29.0144691, "tags": {"name": "Levent", "network": "M6", "public_transport": "stop_position", "railway": "stop", "subway": "yes"}}, {"type": "node", "id": 9487440684, "lat": 41.1012266, "lon": 28.9943163}, {"type": "node", "id": 9487440685, "lat": 41.1012848, "lon": 28.994321}, {"type": "node", "id": 9487440686, "lat": 41.1012254, "lon": 28.9943634}, {"type": "node", "id": 9487440688, "lat": 41.1012934, "lon": 28.9944306}, {"type": "node", "id": 9558487701, "lat": 41.0659287, "lon": 28.9949148}, {"type": "node", "id": 9613463597, "lat": 41.0852634, "lon": 29.0450987}, {"type": "node", "id": 9613463598, "lat": 41.0853295, "lon": 29.0450879}, {"type": "node", "id": 9613463599, "lat": 41.0854314, "lon": 29.0461879}, {"type": "node", "id": 9613463600, "lat": 41.0853651, "lon": 29.0461987}, {"type": "node", "id": 9613463605, "lat": 41.0851763, "lon": 29.0453245}, {"type": "node", "id": 9613463607, "lat": 41.0851295, "lon": 29.0454236}, {"type": "node", "id": 9613463608, "lat": 41.0851413, "lon": 29.045074}, {"type": "node", "id": 9613463609, "lat": 41.0851567, "lon": 29.0450716}, {"type": "node", "id": 9613463610, "lat": 41.0852562, "lon": 29.0462552}, {"type": "node", "id": 9633093221, "lat": 41.080413, "lon": 28.9758727, "tags": {"name": "1", "railway": "subway_entrance"}}, {"type": "node", "id": 9633093253, "lat": 41.0804545, "lon": 28.9759119}, {"type": "node", "id": 9633093254, "lat": 41.0803652, "lon": 28.9760785}, {"type": "node", "id": 9633093255, "lat": 41.0802842, "lon": 28.9760021}, {"type": "node", "id": 9633093256, "lat": 41.0803735, "lon": 28.9758355}, {"type": "node", "id": 9633093257, "lat": 41.0799025, "lon": 28.9772062}, {"type": "node", "id": 9633093258, "lat": 41.0796986, "lon": 28.9770112}, {"type": "node", "id": 9652306831, "lat": 41.0668884, "lon": 28.9907515}, {"type": "node", "id": 9652306832, "lat": 41.0669695, "lon": 28.9903872}, {"type": "node", "id": 9652306833, "lat": 41.0669549, "lon": 28.9903836}, {"type": "node", "id": 9652306835, "lat": 41.066758, "lon": 28.9926564}, {"type": "node", "id": 9652306836, "lat": 41.0667997, "lon": 28.992928}, {"type": "node", "id": 9727911468, "lat": 41.0659393, "lon": 28.9947344}, {"type": "node", "id": 9727911469, "lat": 41.0658037, "lon": 28.9945138}, {"type": "node", "id": 9851315146, "lat": 41.0799223, "lon": 28.9722739}, {"type": "node", "id": 9851315152, "lat": 41.079837, "lon": 28.9728233}, {"type": "node", "id": 9851315155, "lat": 41.0799764, "lon": 28.9725895}, {"type": "node", "id": 9851315156, "lat": 41.0799285, "lon": 28.9725596}, {"type": "node", "id": 9851315157, "lat": 41.0798776, "lon": 28.9722469}, {"type": "node", "id": 9851315158, "lat": 41.079916, "lon": 28.9721354}, {"type": "node", "id": 9961376659, "lat": 41.0689233, "lon": 29.0102619}, {"type": "node", "id": 9961376660, "lat": 41.0688853, "lon": 29.0102913}, {"type": "node", "id": 9962558884, "lat": 41.0629647, "lon": 29.0067259}, {"type": "node", "id": 9962558885, "lat": 41.0625365, "lon": 29.0068591}, {"type": "node", "id": 9962558886, "lat": 41.0625284, "lon": 29.0068121}, {"type": "node", "id": 9962558887, "lat": 41.0622155, "lon": 29.0069226}, {"type": "node", "id": 9962558888, "lat": 41.0618861, "lon": 29.0070488}, {"type": "node", "id": 9962558889, "lat": 41.0619008, "lon": 29.0071055}, {"type": "node", "id": 9962558891, "lat": 41.0617164, "lon": 29.0071916}, {"type": "node", "id": 9962558892, "lat": 41.0617618, "lon": 29.007319}, {"type": "node", "id": 9962558893, "lat": 41.062002, "lon": 29.0076835}, {"type": "node", "id": 9962558894, "lat": 41.0623075, "lon": 29.0075331}, {"type": "node", "id": 9962558895, "lat": 41.0625824, "lon": 29.007388}, {"type": "node", "id": 9962558896, "lat": 41.0625464, "lon": 29.0071456}, {"type": "node", "id": 9962558897, "lat": 41.0630187, "lon": 29.0070075}, {"type": "node", "id": 9962558914, "lat": 41.0617412, "lon": 29.0075669}, {"type": "node", "id": 9962558915, "lat": 41.0617881, "lon": 29.007621}, {"type": "node", "id": 9962558919, "lat": 41.0627425, "lon": 29.0067574}, {"type": "node", "id": 9962558920, "lat": 41.0625833, "lon": 29.0065052}, {"type": "node", "id": 9962558921, "lat": 41.0626456, "lon": 29.006436}, {"type": "node", "id": 9962558922, "lat": 41.0628048, "lon": 29.0066884}, {"type": "node", "id": 9962558923, "lat": 41.0626966, "lon": 29.006806}, {"type": "node", "id": 9962558924, "lat": 41.06261, "lon": 29.0068359}, {"type": "node", "id": 9962558956, "lat": 41.0624568, "lon": 29.0067611}, {"type": "node", "id": 9962558957, "lat": 41.0624218, "lon": 29.0067008}, {"type": "node", "id": 9962558959, "lat": 41.0625904, "lon": 29.0065164}, {"type": "node", "id": 9962558960, "lat": 41.0626285, "lon": 29.0065739}, {"type": "node", "id": 9962558961, "lat": 41.062693, "lon": 29.0066785}, {"type": "node", "id": 9962558962, "lat": 41.0627315, "lon": 29.0067398}, {"type": "node", "id": 9962558963, "lat": 41.0626772, "lon": 29.0066529}, {"type": "node", "id": 9962558964, "lat": 41.0617991, "lon": 29.0080794}, {"type": "node", "id": 9962558965, "lat": 41.061744, "lon": 29.0080759}, {"type": "node", "id": 9970100510, "lat": 41.1172893, "lon": 29.0241346}, {"type": "node", "id": 10034818039, "lat": 41.0851592, "lon": 29.0457325}, {"type": "node", "id": 10034818040, "lat": 41.0852013, "lon": 29.0458673}, {"type": "node", "id": 10034818041, "lat": 41.0851366, "lon": 29.0460027}, {"type": "node", "id": 10034818042, "lat": 41.0851013, "lon": 29.0460255}, {"type": "node", "id": 10034818043, "lat": 41.0849072, "lon": 29.0458713}, {"type": "node", "id": 10034818048, "lat": 41.0849944, "lon": 29.0455427}, {"type": "node", "id": 10034818049, "lat": 41.0850623, "lon": 29.0457859}, {"type": "node", "id": 10034818050, "lat": 41.0850819, "lon": 29.0460102}, {"type": "node", "id": 10034818053, "lat": 41.0850076, "lon": 29.0459511}, {"type": "node", "id": 10034818055, "lat": 41.0849479, "lon": 29.0463078}, {"type": "node", "id": 10034818056, "lat": 41.0849293, "lon": 29.0462938}, {"type": "node", "id": 10034818057, "lat": 41.0850917, "lon": 29.045915}, {"type": "node", "id": 10034818058, "lat": 41.0851102, "lon": 29.045929}, {"type": "node", "id": 10034818059, "lat": 41.0849014, "lon": 29.0462708}, {"type": "node", "id": 10034818060, "lat": 41.0848829, "lon": 29.0462568}, {"type": "node", "id": 10034818061, "lat": 41.0850453, "lon": 29.045878}, {"type": "node", "id": 10034818062, "lat": 41.0850638, "lon": 29.045892}, {"type": "node", "id": 10034818063, "lat": 41.0814864, "lon": 29.0541936}, {"type": "node", "id": 10034818064, "lat": 41.0814679, "lon": 29.0541793}, {"type": "node", "id": 10034818065, "lat": 41.0816325, "lon": 29.0538022}, {"type": "node", "id": 10034818066, "lat": 41.0816509, "lon": 29.0538164}, {"type": "node", "id": 10034818067, "lat": 41.0814388, "lon": 29.0541535}, {"type": "node", "id": 10034818068, "lat": 41.0814203, "lon": 29.0541393}, {"type": "node", "id": 10034818069, "lat": 41.0815849, "lon": 29.0537621}, {"type": "node", "id": 10034818070, "lat": 41.0816033, "lon": 29.0537763}, {"type": "node", "id": 10034818071, "lat": 41.0816819, "lon": 29.0537709}, {"type": "node", "id": 10034818072, "lat": 41.0814334, "lon": 29.0543402}, {"type": "node", "id": 10034818073, "lat": 41.0813512, "lon": 29.0542763}, {"type": "node", "id": 10034818074, "lat": 41.0815997, "lon": 29.053707}, {"type": "node", "id": 10034818075, "lat": 41.0814084, "lon": 29.0549225}, {"type": "node", "id": 10034818076, "lat": 41.0813039, "lon": 29.0550195}, {"type": "node", "id": 10034818077, "lat": 41.0814142, "lon": 29.0552537}, {"type": "node", "id": 10034818078, "lat": 41.0815246, "lon": 29.0551459}, {"type": "node", "id": 10034818079, "lat": 41.0814742, "lon": 29.0542524}, {"type": "node", "id": 10034818080, "lat": 41.0814553, "lon": 29.0542932}, {"type": "node", "id": 10034818081, "lat": 41.081558, "lon": 29.0549256}, {"type": "node", "id": 10034818082, "lat": 41.0814575, "lon": 29.0550203}, {"type": "node", "id": 10034818083, "lat": 41.0814815, "lon": 29.0550648}, {"type": "node", "id": 10034818084, "lat": 41.0815818, "lon": 29.0549675}, {"type": "node", "id": 10034818085, "lat": 41.0815353, "lon": 29.0549474}, {"type": "node", "id": 10034818086, "lat": 41.0814973, "lon": 29.0549818}, {"type": "node", "id": 10132990392, "lat": 41.0850943, "lon": 29.0458748, "tags": {"name": "Bo\u011fazi\u00e7i \u00dcniversitesi/Hisar\u00fcst\u00fc", "network": "\u0130stanbul Metrosu", "public_transport": "station", "railway": "station", "station": "funicular", "wikidata": "Q110228398", "wikimedia_commons": "Category:Bo\u011fazi\u00e7i \u00dcniversitesi/Hisar\u00fcst\u00fc (F4) Station", "wikipedia": "tr:Bo\u011fazi\u00e7i \u00dcniversitesi/Hisar\u00fcst\u00fc (\u0130stanbul f\u00fcnik\u00fcleri)"}}, {"type": "node", "id": 10132990393, "lat": 41.0850008, "lon": 29.0460846, "tags": {"funicular": "yes", "name": "Rumeli Hisar\u00fcst\u00fc", "public_transport": "stop_position"}}, {"type": "node", "id": 10132990394, "lat": 41.0815409, "lon": 29.0539745, "tags": {"funicular": "yes", "name": "A\u015fiyan", "public_transport": "stop_position"}}, {"type": "node", "id": 10132990395, "lat": 41.08138, "lon": 29.0549987, "tags": {"name": "A\u015fiyan", "network": "F4", "operator": "Metro \u0130stanbul", "public_transport": "station", "railway": "station", "station": "funicular", "wikidata": "Q48966872", "wikimedia_commons": "Category:A\u015fiyan Station", "wikipedia": "tr:A\u015fiyan (\u0130stanbul f\u00fcnik\u00fcleri)"}}, {"type": "node", "id": 10132990396, "lat": 41.0848582, "lon": 29.0463017}, {"type": "node", "id": 10132990397, "lat": 41.0849322, "lon": 29.0463527}, {"type": "node", "id": 10136103053, "lat": 41.0851022, "lon": 29.0459229}, {"type": "node", "id": 10136103056, "lat": 41.0850524, "lon": 29.0458834}, {"type": "node", "id": 10136103061, "lat": 41.0815739, "lon": 29.0542807}, {"type": "node", "id": 10136103062, "lat": 41.0815329, "lon": 29.0543664}, {"type": "node", "id": 10136103063, "lat": 41.0815348, "lon": 29.0543097}, {"type": "node", "id": 10136103064, "lat": 41.0815364, "lon": 29.0542728}, {"type": "node", "id": 10136103065, "lat": 41.081478, "lon": 29.0541871}, {"type": "node", "id": 10136103070, "lat": 41.08143, "lon": 29.0541468}, {"type": "node", "id": 10167775311, "lat": 41.0800228, "lon": 28.9764623, "tags": {"name": "Ka\u011f\u0131thane", "public_transport": "stop_position", "railway": "stop", "subway": "yes"}}, {"type": "node", "id": 10167775312, "lat": 41.0801857, "lon": 28.9766216, "tags": {"name": "Ka\u011f\u0131thane", "public_transport": "stop_position", "railway": "stop", "subway": "yes"}}, {"type": "node", "id": 10186602188, "lat": 41.0694709, "lon": 29.0119709}, {"type": "node", "id": 10186602189, "lat": 41.0695343, "lon": 29.0119327}, {"type": "node", "id": 10186602190, "lat": 41.0687989, "lon": 29.0099653, "tags": {"amenity": "parking_entrance"}}, {"type": "node", "id": 10231955516, "lat": 41.0665474, "lon": 28.9944871}, {"type": "node", "id": 10279873799, "lat": 41.0523992, "lon": 29.008306, "tags": {"railway": "subway_entrance"}}, {"type": "node", "id": 10279873800, "lat": 41.0551662, "lon": 29.0097462, "tags": {"railway": "subway_entrance"}}, {"type": "node", "id": 10281078237, "lat": 41.0525524, "lon": 29.0083807}, {"type": "node", "id": 10281078239, "lat": 41.0523994, "lon": 29.0083449}, {"type": "node", "id": 10281078240, "lat": 41.0525614, "lon": 29.0082993}, {"type": "node", "id": 10281078241, "lat": 41.0550197, "lon": 29.0097713}, {"type": "node", "id": 10281078242, "lat": 41.0550315, "lon": 29.0096674}, {"type": "node", "id": 10286508942, "lat": 41.0618931, "lon": 29.0070784, "tags": {"railway": "subway_entrance"}}, {"type": "node", "id": 10286508943, "lat": 41.0625327, "lon": 29.0068372, "tags": {"railway": "subway_entrance"}}, {"type": "node", "id": 10300860617, "lat": 41.0540737, "lon": 29.0090598}, {"type": "node", "id": 10300860618, "lat": 41.0544855, "lon": 29.0091766}, {"type": "node", "id": 10300860619, "lat": 41.0543485, "lon": 29.0089822}, {"type": "node", "id": 10300860620, "lat": 41.0543188, "lon": 29.0090519}, {"type": "node", "id": 10300860621, "lat": 41.0543874, "lon": 29.0091033}, {"type": "node", "id": 10300860658, "lat": 41.0537484, "lon": 29.0095988}, {"type": "node", "id": 10300860685, "lat": 41.0529432, "lon": 29.0084812}, {"type": "node", "id": 10303152735, "lat": 41.0619229, "lon": 29.0075439}, {"type": "node", "id": 10303152736, "lat": 41.0618878, "lon": 29.0074835}, {"type": "node", "id": 10303152737, "lat": 41.0618436, "lon": 29.0075905}, {"type": "node", "id": 10303152738, "lat": 41.0617639, "lon": 29.0076344}, {"type": "node", "id": 10303152747, "lat": 41.061771, "lon": 29.0080776}, {"type": "node", "id": 10303152759, "lat": 41.0624395, "lon": 29.0067312}, {"type": "node", "id": 10724063256, "lat": 41.0669634, "lon": 28.9907735}, {"type": "way", "id": 249895821, "nodes": [2564327372, 9248209052, 2564327373, 8854435301, 8854435300, 2564338650, 8854435299, 8854435298, 2564327374, 7798600171, 7798600169, 7798600164, 7798600165, 7798600167, 7798600166, 7798600162, 7798600160, 7798600157, 7798600158, 7798600159, 7798600163, 7798600168, 7798600170, 7798600174, 2564327371, 2564327372], "tags": {"building": "train_station", "layer": "-1"}}, {"type": "way", "id": 693297249, "nodes": [6508688861, 8872627980, 6508688860, 8872627996, 8872627998, 8872627997, 8872627995, 8051340631, 8051340598, 8051340600, 8051340622, 8051340601, 8051340599, 8051340628, 8051340625, 8051340633, 8051340591, 8051340592, 8051307678, 8051340634, 8051340635, 8051340593, 8051340595, 8051340594, 8051340632, 8051340626, 6508688859, 8872627979, 6508688858, 6508688861], "tags": {"area": "yes", "bridge": "viaduct", "landuse": "railway", "layer": "2", "public_transport": "platform", "railway": "platform", "subway": "yes"}}, {"type": "way", "id": 693597445, "nodes": [6660116578, 7801190625, 7801190624, 9141373563, 6660116577, 6660116578], "tags": {"building": "train_station", "layer": "-1", "location": "underground", "name": "Hac\u0131osman Metro"}}, {"type": "way", "id": 823440655, "nodes": [7687714979, 9613463599, 9613463598, 7687714980, 7881101148, 7881101163, 7687714981, 9613463597, 9613463600, 7687714982, 7881101160, 7687714979], "tags": {"area": "yes", "layer": "-3", "public_transport": "platform", "railway": "platform", "subway": "yes", "tunnel": "yes"}}, {"type": "way", "id": 823440656, "nodes": [7687714984, 7687754185, 7687754186, 7687754187, 7687714984], "tags": {"area": "yes", "landuse": "railway", "layer": "-3", "public_transport": "platform", "railway": "platform", "subway": "yes", "tunnel": "yes"}}, {"type": "way", "id": 823440657, "nodes": [7795379102, 7687754192, 7795379127, 7687754193, 7795379103, 7687754194, 7795379104, 7795379140, 7795379139, 7795379105, 7687754195, 7795379102], "tags": {"area": "yes", "landuse": "railway", "layer": "-5", "public_transport": "platform", "railway": "platform", "subway": "yes", "tunnel": "yes"}}, {"type": "way", "id": 823440658, "nodes": [7687754189, 7881062746, 7881062729, 7687754188, 7687754191, 7881062731, 7687754190, 7687754189], "tags": {"area": "yes", "landuse": "railway", "layer": "-3", "public_transport": "platform", "railway": "platform", "subway": "yes", "tunnel": "yes"}}, {"type": "way", "id": 825437262, "nodes": [7707406389, 7798445266, 7798445269, 7798504116, 7798445268, 7798445267, 7707406408, 7707406407, 7798445262, 7798445265, 7798504118, 7707406406, 7798445264, 7798504121, 7707406405, 7798445263, 7707406404, 7707406403, 7798504090, 7707406402, 7798504091, 7798504093, 7798504096, 7798504095, 7798504097, 7798504094, 7798504092, 7707406400, 7707406390, 7798445283, 7798445284, 7798504123, 7798504085, 7798445282, 7707406391, 7707406392, 7707406393, 7707406394, 7707406395, 7707406396, 7707406397, 7707406398, 7707406399, 7707406389], "tags": {"area": "yes", "landuse": "railway", "layer": "-3", "level": "-3", "public_transport": "platform", "railway": "platform", "station": "subway", "subway": "yes", "tunnel": "yes"}}, {"type": "way", "id": 825437291, "nodes": [7707406582, 7707406583, 7707406584, 7707406585, 7707406582], "tags": {"area": "yes", "landuse": "railway", "layer": "-3", "level": "-3", "public_transport": "platform", "railway": "platform", "station": "subway", "subway": "yes", "tunnel": "yes"}}, {"type": "way", "id": 825437292, "nodes": [7707406586, 7707406587, 7707406588, 7707406589, 7707406586], "tags": {"area": "yes", "landuse": "railway", "layer": "-4", "level": "-4", "public_transport": "platform", "railway": "platform", "station": "subway", "subway": "yes", "tunnel": "yes"}}, {"type": "way", "id": 827010336, "nodes": [7721022302, 7721022303, 7846512977, 7721022304, 7721022305, 7846512962, 7721022302], "tags": {"area": "yes", "layer": "-3", "level": "-3", "public_transport": "platform", "railway": "platform", "station": "subway", "subway": "yes", "tunnel": "yes"}}, {"type": "way", "id": 835036894, "nodes": [7794607912, 6929927791, 7794607913, 8853978857, 7794607914, 7794607915, 8853978855, 7794607916, 6929927788, 7794607917, 8853978856, 8853978860, 7794607918, 6929927792, 7794607919, 8853978859, 7794607920, 7794607921, 7794603870, 7794603877, 7794603869, 7794603849, 7794603879, 7794603850, 7794607922, 7794607923, 7794607924, 7794607925, 7794607926, 7794607927, 7794607928, 7794607929, 7794607930, 7794607931, 7794607932, 8853978861, 7794607933, 6929927793, 7794607934, 8853978862, 8853978858, 7794607912], "tags": {"building": "train_station", "layer": "-1", "location": "underground"}}, {"type": "way", "id": 835036895, "nodes": [7794603859, 7794607935, 7794607936, 7794607937, 7794607938, 7794603864, 7794603882, 7794603865, 7794607939, 7794607940, 8853978854, 7794607941, 7635347585, 7794607942, 8853978853, 7794607943, 7794607944, 8853978852, 7794607945, 7635347586, 7794607946, 8853978851, 7794607947, 7794607952, 7794607948, 7794607949, 7794603860, 7794607950, 7794603859], "tags": {"building": "train_station", "layer": "-1", "location": "underground", "nohousenumber": "yes"}}, {"type": "way", "id": 835045671, "nodes": [7794675881, 7794675826, 7794675863, 7794675862, 7794675861, 7794675873, 7794675865, 7794675848, 7794675847, 7794675842, 7794675864, 7794675827, 7794675828, 7580271789, 7794675829, 8853999149, 8853999148, 7794675830, 7580271786, 7794675831, 7794675832, 7794675846, 7794675845, 7794675869, 7794675868, 7794675867, 7794675866, 7794675844, 7794675843, 7794675841, 7794675840, 7794675833, 8853999152, 7794675834, 7580271792, 7794675835, 7580271806, 7580271803, 7794675836, 7794675837, 7794675838, 8853999154, 7794675839, 7580243679, 7794675821, 8827251811, 8827251814, 8827251815, 8827294717, 8827251816, 8827251812, 7794675822, 7794675823, 7794675824, 7580271804, 7580271805, 7794675870, 7794675871, 7794675849, 7794675872, 7794675860, 7794675859, 7794675858, 7794675876, 7794675857, 7794675856, 7794675877, 7794675855, 10231955516, 7794675880, 7794675854, 7794675878, 7794675874, 7794675875, 7794675879, 7794675853, 7794675852, 7794675851, 7794685147, 7794675825, 7794685085, 7794685086, 7580271825, 7794685087, 8853999145, 7794685088, 7794685089, 7794675881], "tags": {"building": "train_station", "layer": "-1"}}, {"type": "way", "id": 835045691, "nodes": [7794685115, 7794685171, 7794685172, 7794685173, 7794685111, 7794685150, 7794685112, 7794685174, 7794685175, 7794685176, 7794685177, 7794685178, 7794685179, 7635342577, 7794685180, 7794685181, 7635342578, 7794685182, 7794685183, 7794685184, 7794685185, 7794685186, 8853999139, 8853999137, 7794685187, 7635342579, 7794685188, 7794685189, 8827294720, 7794685193, 7794685116, 7794685148, 7794685115], "tags": {"building": "train_station", "layer": "-1"}}, {"type": "way", "id": 835057038, "nodes": [7794737841, 7635342567, 7794737844, 8854053344, 8408253758, 8408276024, 7794737842, 7794737843, 7794737852, 10186602190, 7794737851, 9961376659, 9961376660, 7794737850, 6929906121, 7635342568, 6929906120, 7794737858, 7794737846, 7794737847, 10186602188, 10186602189, 7794737848, 7794737849, 7794737841], "tags": {"building": "train_station", "layer": "-2"}}, {"type": "way", "id": 835129059, "nodes": [7795360999, 7795361000, 7795361001, 7795361002, 7795361003, 7795361004, 8854166396, 7795361005, 2531803919, 7795361006, 8854166395, 7795361007, 7795361008, 7795379110, 7795379111, 7795361009, 7795361017, 7795361010, 8854166393, 6929906130, 4053774755, 6929906129, 8854166394, 7795361011, 7795361012, 7795361013, 7795379094, 7795361042, 7795379101, 7795361014, 7795361015, 7795361016, 7795379089, 7795379091, 7795379090, 7795379088, 7795360999], "tags": {"building": "train_station", "layer": "-3"}}, {"type": "way", "id": 835129103, "nodes": [7795379094, 7795379095, 7795379096, 7795379097, 7687754193, 7795379127, 7687754192, 7795379098, 7795379099, 7795379100, 7795379101, 7795361042, 7795379094], "tags": {"building": "train_station", "layer": "-4"}}, {"type": "way", "id": 835129104, "nodes": [7795379104, 7795379140, 7795379139, 7795379105, 7795379106, 7795379107, 7795379108, 7795379109, 7795379110, 7795379111, 7795379112, 7795379113, 7795379114, 7795379115, 7795379104], "tags": {"building": "train_station", "layer": "-4"}}, {"type": "way", "id": 835761906, "nodes": [7800963432, 7800963433, 7800963434, 7800981920, 7800981921, 7800981899, 7800981919, 7800963439, 7800963440, 7800963441, 7800981900, 7800981901, 7800981902, 8854463477, 7800981903, 7800981904, 8854463476, 7800981905, 9970100510, 7800981906, 7800981907, 8854463475, 7800981908, 7800981909, 8854463474, 7800981910, 7800981911, 7800981912, 7800981913, 7800981914, 7800981917, 7800981918, 7800963432], "tags": {"building": "train_station", "layer": "-1"}}, {"type": "way", "id": 835761907, "nodes": [7800981922, 7800981923, 7800981924, 7800981925, 7800981926, 7800981927, 7800981928, 7800981929, 7800981930, 7800981931, 7800981932, 7800981936, 8854463478, 8854463479, 7800981933, 7800981941, 7800981940, 7800981937, 7800981939, 7800981938, 7800981935, 7800981934, 7800981922], "tags": {"building": "train_station", "layer": "-1"}}, {"type": "way", "id": 835776069, "nodes": [7801108760, 2831649822, 7801108761, 7801108758, 7801108762, 7801108763, 7801108764, 7801066178, 7801066179, 7801066180, 7801108765, 7801108766, 7801108767, 7801108791, 7801108794, 7801108796, 7801108795, 7801108793, 7801108792, 7801108790, 7801108768, 7801108769, 7801108770, 7801108776, 7801108771, 7801108703, 7801108704, 7801108705, 7801108774, 7801108772, 7801108773, 7801108759, 7801108760], "tags": {"building": "train_station", "layer": "-1"}}, {"type": "way", "id": 840914576, "nodes": [9487440685, 9487440688, 7846512907, 7846513412, 7846513408, 7846513410, 7846512908, 7641092427, 7846512909, 7846512910, 7846512911, 7635342557, 7846512912, 7846512913, 7846512914, 7846512915, 7846512938, 7846512937, 7846512916, 7846512917, 7846512918, 5265282302, 7846512919, 7846512920, 7846512975, 7846512921, 7846512976, 9487440686, 9487440684, 9487440685], "tags": {"building": "train_station", "layer": "-2", "location": "underground"}}, {"type": "way", "id": 844754769, "nodes": [7881062703, 7881062704, 7687754188, 7881062729, 7881062746, 7687754189, 7881062705, 7881062706, 7881062707, 7881062708, 7881062709, 7881062710, 7881062711, 7881062712, 7687754190, 7881062731, 7687754191, 7881062713, 7881062714, 7881062715, 7881062716, 7881062717, 7881062718, 7881062703], "tags": {"building": "train_station", "layer": "-1"}}, {"type": "way", "id": 844756990, "nodes": [7881078213, 7881078214, 7881078215, 7881078216, 7881078217, 7881078218, 7881078219, 7881078220, 7881078221, 7881078222, 7881078223, 7881078224, 7881078225, 7881078226, 7881078213], "tags": {"building": "train_station", "layer": "-1"}}, {"type": "way", "id": 844759890, "nodes": [7881101115, 7881101124, 7881101116, 7881101117, 7687714982, 7881101160, 7687714979, 7881101118, 7881101119, 9613463610, 7881101125, 6630276188, 7881101120, 7881101115], "tags": {"building": "train_station", "layer": "-2"}}, {"type": "way", "id": 864248790, "nodes": [8051340606, 8872627987, 8051340607, 8872627990, 8872627992, 8872627993, 8872627991, 8051340630, 8051340608, 8051340609, 8051340623, 8051340610, 8051340611, 8051340629, 8051340624, 8051340637, 8051340612, 8051340613, 8051340614, 8051340638, 8051340639, 8051340615, 8051340616, 8051340617, 8051340636, 8051340627, 6508688862, 8872627988, 8051340618, 8051340606], "tags": {"area": "yes", "bridge": "viaduct", "landuse": "railway", "layer": "2", "public_transport": "platform", "railway": "platform", "subway": "yes"}}, {"type": "way", "id": 864248796, "nodes": [8051340624, 8051340625, 8051340633, 8051340634, 8051340635, 8051340632, 8051340626, 8051340627, 8051340636, 8051340639, 8051340638, 8051340637, 8051340624], "tags": {"area": "yes", "building": "train_station"}}, {"type": "way", "id": 864248797, "nodes": [9851315152, 9230312036, 9851315155, 9851315156, 9851315152], "tags": {"building": "train_station"}}, {"type": "way", "id": 867505458, "nodes": [8085983244, 8085983245, 8085983246, 8085983247, 8062776721, 8085974997, 8062776722, 8062776727, 8085974999, 8062776728, 8085983248, 8085983249, 8085983250, 8691061383, 8085983251, 7710654633, 8085983252, 8658882160, 8085983253, 8085983254, 8085983255, 8085983256, 8085983244], "tags": {"building": "train_station", "layer": "-1"}}, {"type": "way", "id": 867505460, "nodes": [8085983262, 8085983263, 8085983264, 8085983265, 8050612013, 8085983274, 8085983270, 8085983266, 8085983267, 8085983268, 8085983269, 8085983262], "tags": {"building": "train_station", "layer": "-1"}}, {"type": "way", "id": 867508550, "nodes": [8085969210, 7710654618, 8085969211, 8854535476, 8085969212, 8086032820, 8086032819, 8085969213, 8085969214, 8085969215, 8085969216, 8086032817, 8086032818, 8854535475, 8085969210], "tags": {"building": "train_station", "layer": "-1"}}, {"type": "way", "id": 867508568, "nodes": [8086032875, 8086032876, 8854535482, 8854535481, 8086032877, 8086032878, 8086032879, 8086032880, 8086032881, 8086032882, 8086032883, 8062776637, 8086032857, 8062776636, 8086032884, 8086032885, 8086032886, 8086032875], "tags": {"building": "train_station", "layer": "-1"}}, {"type": "way", "id": 867519529, "nodes": [8062776615, 8086116233, 8062776616, 8086116295, 8086116296, 8086116297, 8086124634, 8086116298, 8086116299, 8086116300, 8086116301, 8062776604, 8086116240, 8062776603, 8086116302, 8086116303, 8086116304, 8086116305, 8086116306, 8086116307, 8086116308, 8853999156, 8086116309, 8086116310, 8853999158, 8086116311, 7710654615, 8086116312, 8853999159, 8086116313, 8086116314, 8086116315, 8086116316, 8086124617, 8086124618, 8086124619, 8086124620, 8062776611, 8086116237, 8062776612, 8086124621, 8086124622, 8086124623, 8086124624, 8062776608, 8086116236, 8062776607, 8086124625, 8086124626, 8086124627, 8086124628, 8086124629, 8086116248, 8086124630, 8086124631, 8086124632, 8062776615], "tags": {"building": "train_station", "layer": "-2"}}, {"type": "way", "id": 956617726, "nodes": [8853285384, 8853285385, 8853285386, 8853285387, 8853285384], "tags": {"area": "yes", "landuse": "railway", "layer": "-2", "public_transport": "platform", "railway": "platform", "subway": "yes", "tunnel": "yes"}}, {"type": "way", "id": 956617727, "nodes": [8853285388, 9633093257, 8853285389, 8853285390, 9633093258, 8853285391, 8853285388], "tags": {"building": "train_station", "layer": "-1"}}, {"type": "way", "id": 974983617, "nodes": [9022743473, 10281078240, 9022743472, 9022743477, 9022743476, 9022743493, 9022743494, 9022743484, 9022743495, 9022743513, 9022743496, 9022743497, 9022743498, 9022743499, 9022743500, 9022743475, 9022743474, 10300860685, 10281078237, 10281078239, 9022743471, 10279873799, 9022743473], "tags": {"building": "train_station", "layer": "-1"}}, {"type": "way", "id": 974983618, "nodes": [9022743485, 9022743508, 9022743509, 10281078242, 9022743468, 10279873800, 9022743469, 10281078241, 9022743464, 9022743465, 9022743466, 9022743467, 9022743487, 9022743488, 9022743524, 9022743510, 9022743511, 9022743512, 9022743486, 9022743485], "tags": {"building": "train_station", "layer": "-1"}}, {"type": "way", "id": 974983619, "nodes": [9022743488, 10300860618, 9022743514, 9022743489, 10300860619, 10300860620, 9022743490, 9022743515, 10300860617, 9022743516, 9022743517, 9022743518, 9022743513, 9022743496, 9022743519, 9022727116, 9022743521, 10300860658, 9022743456, 9022743470, 9022743491, 9022743492, 9022743522, 10300860621, 9022743523, 9022743487, 9022743488], "tags": {"building": "train_station", "layer": "-2"}}, {"type": "way", "id": 1007293782, "nodes": [9652306831, 9292868469, 9652306835, 9292868470, 9652306836, 10724063256, 9652306832, 9652306833, 9652306831], "tags": {"area": "yes", "bus": "yes", "departures_board": "timetable", "name": "Mecidiyek\u00f6y", "network": "Metrob\u00fcs", "operator": "IETT", "public_transport": "platform", "ref": "1", "surface": "concrete"}}, {"type": "way", "id": 1047601994, "nodes": [9633093253, 9633093254, 9633093255, 9633093256, 9633093221, 9633093253], "tags": {"building": "roof", "layer": "1"}}, {"type": "way", "id": 1047601995, "nodes": [9633093257, 8853285389, 8853285390, 9633093258, 9633093257], "tags": {"building": "yes"}}, {"type": "way", "id": 1058678605, "nodes": [7794685139, 7794675883, 9727911469, 7794675881, 7794685089, 9727911468, 7794685090, 9558487701, 7794685091, 7794685092, 8853999147, 7794685093, 7794685094, 8853999146, 7794685095, 7794685096, 8086124629, 8086116248, 8086124630, 8086116297, 8086124634, 8086116298, 7794685097, 7794685139], "tags": {"building": "train_station", "layer": "-1"}}, {"type": "way", "id": 1058678606, "nodes": [7794685097, 7794685098, 8853999143, 7794685099, 7580271840, 7794685100, 8853999142, 7794685101, 7794685144, 7794685124, 7794685134, 7794685123, 7794685143, 7794685142, 7794685141, 7794685120, 7794685132, 7794685119, 7794685140, 7794685139, 7794685097], "tags": {"building": "train_station", "layer": "-1"}}, {"type": "way", "id": 1073977600, "nodes": [9851315146, 9851315157, 9851315158, 9230312040, 9851315146], "tags": {"building": "train_station"}}, {"type": "way", "id": 1087330020, "nodes": [9962558884, 9962558923, 9962558924, 9962558885, 10286508943, 9962558886, 9962558887, 9962558888, 10286508942, 9962558889, 9962558891, 9962558892, 10303152736, 9962558914, 10303152738, 9962558915, 9962558965, 10303152747, 9962558964, 10303152737, 10303152735, 9962558893, 9962558894, 9962558895, 9962558896, 9962558897, 9962558884], "tags": {"building": "train_station", "layer": "-1"}}, {"type": "way", "id": 1087330024, "nodes": [9962558923, 9962558924, 9962558961, 9962558963, 9962558960, 9962558956, 10303152759, 9962558957, 9962558959, 9962558920, 9962558921, 9962558922, 9962558919, 9962558962, 9962558923], "tags": {"building": "train_station", "layer": "-1"}}, {"type": "way", "id": 1095709451, "nodes": [10034818039, 10034818040, 10034818041, 10034818042, 10034818050, 10132990397, 10132990396, 10034818053, 10034818043, 7881101121, 10034818049, 10034818039], "tags": {"building": "train_station", "layer": "-1"}}, {"type": "way", "id": 1095709454, "nodes": [7881101123, 9613463607, 7881101129, 7881101127, 9613463609, 9613463608, 7881101108, 7881101109, 7687714980, 7881101148, 7881101163, 7687714981, 7881101110, 7881101111, 7881101126, 9613463605, 7881101128, 7881101112, 7881101123], "tags": {"building": "train_station", "layer": "-2"}}, {"type": "way", "id": 1095709455, "nodes": [7881101123, 7881101112, 7881101113, 7881101114, 7881101115, 7881101120, 10034818039, 10034818049, 7881101121, 7881101122, 10034818048, 7881101123], "tags": {"building": "train_station", "layer": "-1"}}, {"type": "way", "id": 1095709459, "nodes": [10034818055, 10034818056, 10034818057, 10136103053, 10034818058, 10034818055], "tags": {"layer": "-3", "public_transport": "platform", "tunnel": "yes"}}, {"type": "way", "id": 1095709460, "nodes": [10034818059, 10034818060, 10034818061, 10136103056, 10034818062, 10034818059], "tags": {"layer": "-3", "public_transport": "platform", "tunnel": "yes"}}, {"type": "way", "id": 1095709461, "nodes": [10034818063, 10136103065, 10034818064, 10034818065, 10034818066, 10034818063], "tags": {"landuse": "railway", "layer": "-3", "public_transport": "platform", "tunnel": "yes"}}, {"type": "way", "id": 1095709462, "nodes": [10034818067, 10136103070, 10034818068, 10034818069, 10034818070, 10034818067], "tags": {"landuse": "railway", "layer": "-3", "public_transport": "platform", "tunnel": "yes"}}, {"type": "way", "id": 1095709463, "nodes": [10034818084, 10034818081, 10034818085, 10136103061, 10136103064, 10136103063, 10034818079, 10034818071, 10034818074, 10034818073, 10034818072, 10034818080, 10136103062, 10034818086, 10034818082, 10034818075, 10034818076, 10034818077, 10034818078, 10034818083, 10034818084], "tags": {"building": "train_station", "layer": "-2"}}, {"type": "relation", "id": 7647234, "members": [{"type": "node", "ref": 687472249, "role": "stop"}, {"type": "node", "ref": 7725394067, "role": "stop"}, {"type": "relation", "ref": 11295493, "role": "platform"}, {"type": "node", "ref": 7725394066, "role": "station"}, {"type": "node", "ref": 7798600174, "role": "entrance"}, {"type": "node", "ref": 2595434580, "role": "entrance"}, {"type": "node", "ref": 2564338650, "role": "entrance"}, {"type": "way", "ref": 249895821, "role": "building"}], "tags": {"name": "\u0130T\u00dc - Ayaza\u011fa", "network": "M2", "operator": "Metro \u0130stanbul", "public_transport": "stop_area", "type": "public_transport", "wikidata": "Q20717475", "wikipedia": "tr:\u0130T\u00dc-Ayaza\u011fa (\u0130stanbul metrosu)"}}, {"type": "relation", "id": 7647238, "members": [{"type": "way", "ref": 823440657, "role": "platform"}, {"type": "node", "ref": 4053774755, "role": "entrance"}, {"type": "node", "ref": 4573326656, "role": "entrance"}, {"type": "node", "ref": 2531803919, "role": "entrance"}, {"type": "node", "ref": 3755456221, "role": "station"}, {"type": "way", "ref": 835129104, "role": "building"}, {"type": "way", "ref": 835129103, "role": "building"}, {"type": "node", "ref": 9351048506, "role": "stop"}, {"type": "node", "ref": 9351048507, "role": "stop"}], "tags": {"name": "Levent (M6)", "network": "M6", "operator": "Metro \u0130stanbul", "public_transport": "stop_area", "type": "public_transport", "wikidata": "Q113561945", "wikipedia": "tr:Levent (\u0130stanbul metrosu)"}}, {"type": "relation", "id": 7647240, "members": [{"type": "node", "ref": 4304560596, "role": "stop"}, {"type": "node", "ref": 7725394071, "role": "stop"}, {"type": "node", "ref": 2831649822, "role": "entrance"}, {"type": "node", "ref": 7725394070, "role": "station"}, {"type": "node", "ref": 7635342552, "role": "entrance"}, {"type": "node", "ref": 7635342553, "role": "entrance"}, {"type": "way", "ref": 835776069, "role": "building"}, {"type": "relation", "ref": 11489858, "role": "platform"}], "tags": {"name": "Dar\u00fc\u015f\u015fafaka", "network": "M2", "operator": "Metro \u0130stanbul", "public_transport": "stop_area", "type": "public_transport", "wikidata": "Q20717238", "wikipedia": "tr:Dar\u00fc\u015f\u015fafaka (\u0130stanbul metrosu)"}}, {"type": "relation", "id": 7647242, "members": [{"type": "node", "ref": 3755460331, "role": "stop"}, {"type": "node", "ref": 7723416061, "role": "stop"}, {"type": "way", "ref": 823440655, "role": "platform"}, {"type": "node", "ref": 7723416062, "role": ""}, {"type": "node", "ref": 3937514083, "role": "entrance"}, {"type": "way", "ref": 1095709455, "role": "building"}, {"type": "way", "ref": 844759890, "role": "building"}, {"type": "way", "ref": 1095709454, "role": "building"}], "tags": {"name": "Bo\u011fazi\u00e7i \u00dcniversitesi", "network": "M6", "operator": "Metro \u0130stanbul", "public_transport": "stop_area", "type": "public_transport", "wikidata": "Q20646948", "wikipedia": "tr:Bo\u011fazi\u00e7i \u00dcniversitesi - Hisar\u00fcst\u00fc (\u0130stanbul metrosu)"}}, {"type": "relation", "id": 7647250, "members": [{"type": "node", "ref": 374190402, "role": "entrance"}, {"type": "node", "ref": 2531803920, "role": "entrance"}, {"type": "node", "ref": 670234242, "role": "stop"}, {"type": "node", "ref": 2777293148, "role": "entrance"}, {"type": "node", "ref": 2766607530, "role": "entrance"}, {"type": "node", "ref": 7596061909, "role": "stop"}, {"type": "relation", "ref": 11295491, "role": "platform"}, {"type": "node", "ref": 7725394063, "role": "station"}, {"type": "node", "ref": 7635342561, "role": "entrance"}], "tags": {"name": "4. Levent", "network": "M2", "operator": "Metro \u0130stanbul", "public_transport": "stop_area", "type": "public_transport", "wikidata": "Q20312758", "wikipedia": "tr:4. Levent (\u0130stanbul metrosu)"}}, {"type": "relation", "id": 7647252, "members": [{"type": "node", "ref": 6966349319, "role": "entrance"}, {"type": "node", "ref": 7881078191, "role": "sto"}, {"type": "node", "ref": 7881078192, "role": "stop"}, {"type": "node", "ref": 3937514082, "role": "station"}, {"type": "way", "ref": 844756990, "role": "building"}, {"type": "way", "ref": 823440656, "role": "platform"}], "tags": {"name": "Etiler", "network": "M6", "operator": "Metro \u0130stanbul", "public_transport": "stop_area", "type": "public_transport", "wikidata": "Q47000639", "wikipedia": "tr:Etiler (\u0130stanbul metrosu)"}}, {"type": "relation", "id": 7647254, "members": [{"type": "node", "ref": 7725394072, "role": ""}, {"type": "node", "ref": 2831649823, "role": "stop"}, {"type": "node", "ref": 7725394073, "role": "stop"}, {"type": "way", "ref": 693597445, "role": "building"}, {"type": "node", "ref": 4304560595, "role": "entrance"}, {"type": "node", "ref": 7635342551, "role": "entrance"}, {"type": "node", "ref": 7635342550, "role": "entrance"}, {"type": "relation", "ref": 11490035, "role": "platform"}], "tags": {"name": "Hac\u0131osman", "network": "M2", "operator": "Metro \u0130stanbul", "public_transport": "stop_area", "type": "public_transport", "wikidata": "Q18791428", "wikipedia": "tr:Hac\u0131osman (\u0130stanbul metrosu)"}}, {"type": "relation", "id": 7647256, "members": [{"type": "node", "ref": 3937514078, "role": "entrance"}, {"type": "node", "ref": 7881062751, "role": "stop"}, {"type": "node", "ref": 7881062720, "role": "stop"}, {"type": "node", "ref": 3937514080, "role": "stop"}, {"type": "way", "ref": 844754769, "role": "building"}, {"type": "way", "ref": 823440658, "role": "platform"}], "tags": {"name": "Nispetiye", "network": "M6", "operator": "Metro \u0130stanbul", "public_transport": "stop_area", "type": "public_transport", "wikidata": "Q47004404", "wikipedia": "tr:Nispetiye (\u0130stanbul metrosu)"}}, {"type": "relation", "id": 7647261, "members": [{"type": "node", "ref": 7725394068, "role": "stop"}, {"type": "node", "ref": 7725394069, "role": "stop"}, {"type": "relation", "ref": 11489683, "role": "platform"}, {"type": "node", "ref": 2239404700, "role": "station"}, {"type": "node", "ref": 7635342554, "role": "entrance"}, {"type": "node", "ref": 2789440531, "role": "entrance"}, {"type": "node", "ref": 7635342555, "role": "entrance"}, {"type": "way", "ref": 835761907, "role": "building"}, {"type": "way", "ref": 835761906, "role": "building"}], "tags": {"name": "Atat\u00fcrk Oto Sanayi", "network": "M2", "operator": "Metro \u0130stanbul", "public_transport": "stop_area", "type": "public_transport", "wikidata": "Q20312760", "wikipedia": "tr:Atat\u00fcrk Oto Sanayi (\u0130stanbul metrosu)"}}, {"type": "relation", "id": 7718966, "members": [{"type": "node", "ref": 6277860811, "role": "stop"}, {"type": "node", "ref": 7721147952, "role": "stop"}, {"type": "relation", "ref": 11482063, "role": "platform"}, {"type": "node", "ref": 7721147951, "role": "station"}, {"type": "node", "ref": 6929927792, "role": "entrance"}, {"type": "node", "ref": 6929927791, "role": "entrance"}, {"type": "node", "ref": 6929927788, "role": "entrance"}, {"type": "node", "ref": 6929927793, "role": "entrance"}, {"type": "node", "ref": 7635347586, "role": "entrance"}, {"type": "node", "ref": 7635347585, "role": "entrance"}, {"type": "way", "ref": 835036894, "role": "building"}, {"type": "way", "ref": 835036895, "role": "building"}], "tags": {"name": "Osmanbey", "network": "M2", "operator": "Metro \u0130stanbul", "public_transport": "stop_area", "type": "public_transport", "wikidata": "Q20718086", "wikipedia": "tr:Osmanbey (\u0130stanbul metrosu)"}}, {"type": "relation", "id": 7719782, "members": [{"type": "node", "ref": 5218796192, "role": "station"}, {"type": "node", "ref": 7725394075, "role": "stop"}, {"type": "node", "ref": 7725394076, "role": "stop"}, {"type": "way", "ref": 825437292, "role": "platform"}, {"type": "node", "ref": 4053774755, "role": "entrance"}, {"type": "node", "ref": 4573326656, "role": "entrance"}, {"type": "node", "ref": 2531803919, "role": "entrance"}, {"type": "node", "ref": 8854166401, "role": ""}, {"type": "way", "ref": 835129059, "role": "building"}], "tags": {"name": "Levent (M2)", "network": "M2", "operator": "Metro \u0130stanbul", "public_transport": "stop_area", "type": "public_transport", "wikidata": "Q20470914", "wikipedia": "tr:Levent (\u0130stanbul metrosu)"}}, {"type": "relation", "id": 7786671, "members": [{"type": "node", "ref": 7684409191, "role": "stop"}, {"type": "way", "ref": 827010336, "role": "platform"}, {"type": "node", "ref": 2171927595, "role": "station"}, {"type": "node", "ref": 5265282302, "role": "entrance"}, {"type": "node", "ref": 7635342557, "role": "entrance"}, {"type": "way", "ref": 840914576, "role": "building"}], "tags": {"name": "Seyrantepe", "public_transport": "stop_area", "type": "public_transport"}}, {"type": "relation", "id": 9488736, "members": [{"type": "node", "ref": 6251280785, "role": ""}, {"type": "node", "ref": 5359097016, "role": "stop"}], "tags": {"light_rail": "yes", "name": "Vadi \u0130stanbul", "public_transport": "stop_area", "type": "public_transport"}}, {"type": "relation", "id": 9488737, "members": [{"type": "node", "ref": 6398327971, "role": ""}, {"type": "node", "ref": 5359098834, "role": "stop"}], "tags": {"light_rail": "yes", "name": "Seyrantepe", "public_transport": "stop_area", "type": "public_transport"}}, {"type": "relation", "id": 10813162, "members": [{"type": "node", "ref": 670232250, "role": "stop"}, {"type": "node", "ref": 7596061886, "role": "stop"}, {"type": "relation", "ref": 11295498, "role": "platform"}, {"type": "node", "ref": 7721147954, "role": "station"}, {"type": "node", "ref": 7635342579, "role": "entrance"}, {"type": "node", "ref": 7635342577, "role": "entrance"}, {"type": "node", "ref": 7635342578, "role": "entrance"}, {"type": "node", "ref": 7580271840, "role": "entrance"}, {"type": "node", "ref": 8853999139, "role": "entrance"}, {"type": "way", "ref": 835045691, "role": "building"}, {"type": "way", "ref": 1058678606, "role": "building"}], "tags": {"name": "\u015ei\u015fli", "network": "M2", "operator": "Metro \u0130stanbul", "public_transport": "stop_area", "type": "public_transport", "wikidata": "Q19613989", "wikipedia": "tr:\u015ei\u015fli-Mecidiyek\u00f6y (\u0130stanbul metrosu)"}}, {"type": "relation", "id": 11311379, "members": [{"type": "node", "ref": 7721147957, "role": "stop"}, {"type": "node", "ref": 7596061898, "role": "stop"}, {"type": "way", "ref": 825437291, "role": "platform"}, {"type": "node", "ref": 670233794, "role": ""}, {"type": "node", "ref": 7635342568, "role": ""}, {"type": "node", "ref": 7635342567, "role": ""}, {"type": "way", "ref": 835057038, "role": "building"}], "tags": {"name": "Gayrettepe", "network": "M2", "operator": "Metro \u0130stanbul", "public_transport": "stop_area", "type": "public_transport", "wikidata": "Q20717398", "wikipedia": "tr:Gayrettepe (\u0130stanbul metrosu)"}}, {"type": "relation", "id": 11316619, "members": [{"type": "relation", "ref": 11295492, "role": "platform"}, {"type": "way", "ref": 825437262, "role": "platform"}, {"type": "node", "ref": 7635342558, "role": "entrance"}, {"type": "node", "ref": 7635342559, "role": "entrance"}, {"type": "node", "ref": 7725394065, "role": "stop"}, {"type": "node", "ref": 6157384266, "role": "stop"}, {"type": "node", "ref": 2171927596, "role": "station"}, {"type": "node", "ref": 7725394064, "role": "stop"}], "tags": {"name": "Sanayi", "network": "M2", "operator": "Metro \u0130stanbul", "public_transport": "stop_area", "type": "public_transport", "wikidata": "Q20718122", "wikipedia": "tr:Sanayi Mahallesi (\u0130stanbul metrosu)"}}, {"type": "relation", "id": 11345461, "members": [{"type": "way", "ref": 1007293782, "role": "platform"}, {"type": "node", "ref": 7580271792, "role": "entrance"}, {"type": "node", "ref": 7580271786, "role": "entrance"}, {"type": "node", "ref": 7580271789, "role": "entrance"}, {"type": "node", "ref": 7580271812, "role": "entrance"}, {"type": "node", "ref": 7580243679, "role": "entrance"}, {"type": "node", "ref": 7580243677, "role": "entrance"}, {"type": "node", "ref": 3786188199, "role": "entrance"}, {"type": "way", "ref": 835045671, "role": "building"}, {"type": "node", "ref": 7580271825, "role": "entrance"}], "tags": {"name": "Mecidiyek\u00f6y", "public_transport": "stop_area", "type": "public_transport", "wikidata": "Q48802674", "wikipedia": "tr:Mecidiyek\u00f6y Metrob\u00fcs \u0130stasyonu"}}, {"type": "relation", "id": 11376953, "members": [{"type": "node", "ref": 6507303852, "role": "stop"}, {"type": "node", "ref": 6508688806, "role": "stop"}, {"type": "node", "ref": 6508688805, "role": "stop"}, {"type": "relation", "ref": 11808138, "role": "platform"}, {"type": "node", "ref": 7710654633, "role": "entrance"}, {"type": "node", "ref": 7710654632, "role": "entrance"}, {"type": "node", "ref": 8050612013, "role": "entrance"}, {"type": "way", "ref": 867505458, "role": "building"}, {"type": "way", "ref": 867505460, "role": "building"}], "tags": {"name": "Nurtepe", "network": "M7", "operator": "Metro \u0130stanbul", "public_transport": "stop_area", "type": "public_transport", "wikidata": "Q105427153", "wikipedia": "tr:Nurtepe (\u0130stanbul metrosu)"}}, {"type": "relation", "id": 11799442, "members": [{"type": "node", "ref": 7993244682, "role": "stop"}, {"type": "node", "ref": 6508650248, "role": "stop"}, {"type": "relation", "ref": 11808136, "role": "platform"}, {"type": "node", "ref": 8050455173, "role": "station"}, {"type": "node", "ref": 7710654615, "role": "entrance"}, {"type": "node", "ref": 7710654616, "role": "entrance"}, {"type": "node", "ref": 7580271844, "role": "entrance"}, {"type": "way", "ref": 867519529, "role": "building"}, {"type": "way", "ref": 1058678605, "role": "building"}], "tags": {"name": "Mecidiyek\u00f6y", "network": "M7", "operator": "Metro \u0130stanbul", "public_transport": "stop_area", "type": "public_transport", "wikidata": "Q113555727"}}, {"type": "relation", "id": 11799454, "members": [{"type": "node", "ref": 6507340893, "role": "stop"}, {"type": "node", "ref": 6508650238, "role": "stop"}, {"type": "relation", "ref": 11808137, "role": "platform"}, {"type": "node", "ref": 7710654618, "role": "entrance"}, {"type": "node", "ref": 7710654619, "role": "entrance"}, {"type": "node", "ref": 6507340892, "role": "station"}, {"type": "node", "ref": 7710654620, "role": "entrance"}, {"type": "way", "ref": 867508550, "role": "building"}, {"type": "way", "ref": 867508568, "role": "building"}], "tags": {"name": "\u00c7a\u011flayan", "network": "M7", "operator": "Metro \u0130stanbul", "public_transport": "stop_area", "type": "public_transport", "wikidata": "Q105388397", "wikipedia": "tr:\u00c7a\u011flayan (\u0130stanbul metrosu)"}}, {"type": "relation", "id": 11799460, "members": [{"type": "node", "ref": 6508688857, "role": "stop"}, {"type": "node", "ref": 6508688856, "role": "stop"}, {"type": "way", "ref": 693297249, "role": "platform"}, {"type": "way", "ref": 864248790, "role": "platform"}, {"type": "node", "ref": 6507303868, "role": "station"}, {"type": "node", "ref": 8050593452, "role": "entrance"}, {"type": "node", "ref": 8050593453, "role": "entrance"}, {"type": "way", "ref": 864248796, "role": "building"}, {"type": "way", "ref": 1073977600, "role": "building"}, {"type": "way", "ref": 864248797, "role": "building"}], "tags": {"name": "Ka\u011f\u0131thane", "network": "M7", "operator": "Metro \u0130stanbul", "public_transport": "stop_area", "type": "public_transport", "wikidata": "Q55887158", "wikipedia": "tr:K\u00e2\u011f\u0131thane (\u0130stanbul metrosu)"}}, {"type": "relation", "id": 12923839, "members": [{"type": "node", "ref": 7635342574, "role": ""}, {"type": "node", "ref": 8408227928, "role": ""}, {"type": "node", "ref": 7635342570, "role": ""}, {"type": "node", "ref": 7635342569, "role": ""}, {"type": "node", "ref": 7635342575, "role": ""}, {"type": "node", "ref": 7635342571, "role": ""}, {"type": "node", "ref": 2470464528, "role": ""}, {"type": "node", "ref": 8408227934, "role": ""}], "tags": {"description": "M11 station", "name": "Gayrettepe", "public_transport": "stop_area", "type": "public_transport"}}, {"type": "relation", "id": 14738979, "members": [{"type": "node", "ref": 10132990392, "role": "station"}, {"type": "node", "ref": 3937514083, "role": "entrance"}, {"type": "way", "ref": 1095709451, "role": "building"}, {"type": "way", "ref": 1095709459, "role": "platform"}, {"type": "way", "ref": 1095709460, "role": "platform"}, {"type": "node", "ref": 10132990393, "role": "stop"}], "tags": {"name": "Rumeli Hisar\u00fcst\u00fc", "network": "F4", "operator": "Metro \u0130stanbul", "public_transport": "stop_area", "type": "public_transport"}}, {"type": "relation", "id": 14738981, "members": [{"type": "node", "ref": 10132990394, "role": "stop"}, {"type": "way", "ref": 1095709463, "role": "building"}, {"type": "way", "ref": 1095709461, "role": "platform"}, {"type": "way", "ref": 1095709462, "role": "platform"}, {"type": "node", "ref": 10132990395, "role": "station"}], "tags": {"public_transport": "stop_area", "type": "public_transport"}}, {"type": "relation", "id": 14785992, "members": [{"type": "node", "ref": 10167775312, "role": "stop"}, {"type": "node", "ref": 10167775311, "role": "stop"}, {"type": "way", "ref": 956617726, "role": "platform"}, {"type": "node", "ref": 8853285393, "role": "station"}, {"type": "node", "ref": 9633093221, "role": "entrance"}, {"type": "way", "ref": 956617727, "role": "building"}, {"type": "way", "ref": 1047601994, "role": "building"}, {"type": "way", "ref": 1047601995, "role": "building"}], "tags": {"name": "Ka\u011f\u0131thane", "public_transport": "stop_area", "type": "public_transport"}}, {"type": "relation", "id": 15061726, "members": [{"type": "node", "ref": 6507303869, "role": "station"}, {"type": "node", "ref": 7897142413, "role": "stop"}, {"type": "node", "ref": 7897142412, "role": "stop"}, {"type": "node", "ref": 10286508943, "role": "entrance"}, {"type": "node", "ref": 10286508942, "role": "entrance"}, {"type": "way", "ref": 1087330024, "role": "building"}, {"type": "way", "ref": 1087330020, "role": "building"}, {"type": "relation", "ref": 14474363, "role": "platform"}], "tags": {"name": "Fulya", "network": "M7", "operator": "Metro \u0130stanbul", "public_transport": "stop_area", "type": "public_transport", "wikidata": "Q107050617", "wikipedia": "tr:Fulya (\u0130stanbul metrosu)"}}, {"type": "relation", "id": 15061727, "members": [{"type": "node", "ref": 6507293770, "role": "station"}, {"type": "node", "ref": 6507293771, "role": "stop"}, {"type": "node", "ref": 7897142455, "role": "stop"}, {"type": "node", "ref": 10279873800, "role": "entrance"}, {"type": "node", "ref": 10279873799, "role": "entrance"}, {"type": "way", "ref": 974983617, "role": "building"}, {"type": "way", "ref": 974983619, "role": "building"}, {"type": "way", "ref": 974983618, "role": "building"}, {"type": "relation", "ref": 13110215, "role": ""}], "tags": {"name": "Y\u0131ld\u0131z", "network": "M7", "operator": "Metro \u0130stanbul", "public_transport": "stop_area", "type": "public_transport"}}]}