{"version": 0.6, "generator": "Overpass API 0.7.60 f4c14d41", "osm3s": {"timestamp_osm_base": "2023-05-02T21:19:24Z", "copyright": "The data included in this document is from www.openstreetmap.org. The data is made available under ODbL."}, "elements": [{"type": "node", "id": 427492044, "lat": -33.7461983, "lon": 150.6225397, "tags": {"name": "Chambers Cellars", "shop": "alcohol", "source": "survey"}}, {"type": "node", "id": 1327239035, "lat": -33.7587707, "lon": 150.6918881}, {"type": "node", "id": 1327239056, "lat": -33.758543, "lon": 150.6910366}, {"type": "node", "id": 1327239083, "lat": -33.7583727, "lon": 150.6914422}, {"type": "node", "id": 1327239084, "lat": -33.7590181, "lon": 150.6915687}, {"type": "node", "id": 1849704579, "lat": -33.5863182, "lon": 150.8595828, "tags": {"shop": "alcohol"}}, {"type": "node", "id": 1930102546, "lat": -33.7301729, "lon": 150.9026206, "tags": {"addr:housename": "Shop 1", "addr:housenumber": "454", "addr:postcode": "2763", "addr:street": "Quakers Hill Parkway", "brand": "BWS", "brand:wikidata": "Q4836848", "name": "BWS", "shop": "alcohol", "website": "http://www.beerwinespirits.com.au/home.html"}}, {"type": "node", "id": 2152985089, "lat": -33.6963467, "lon": 150.8702184, "tags": {"name": "Pop's Liquor", "shop": "alcohol"}}, {"type": "node", "id": 2435100335, "lat": -33.6793233, "lon": 150.8621612, "tags": {"brand": "BWS", "brand:wikidata": "Q4836848", "brand:wikipedia": "en:BWS (liquor retailer)", "name": "BWS", "shop": "alcohol"}}, {"type": "node", "id": 2802835902, "lat": -33.6982927, "lon": 150.9412386, "tags": {"shop": "alcohol"}}, {"type": "node", "id": 3039225286, "lat": -33.746605, "lon": 150.740784, "tags": {"addr:housenumber": "11", "addr:postcode": "2747", "addr:state": "NSW", "addr:street": "Dunheved Road", "addr:suburb": "Werrington County", "addr:unit": "Shop 1B", "brand": "BWS", "brand:wikidata": "Q4836848", "brand:wikipedia": "en:BWS (liquor retailer)", "drive_through": "no", "name": "BWS", "opening_hours": "Mo-Sa 08:00-20:00; Su 10:00-18:00", "opening_hours:covid19": "same", "operator": "BWS", "payment:cash": "yes", "payment:credit_cards": "yes", "payment:debit_cards": "yes", "phone": "+61 2 9673 3832", "shop": "alcohol", "website": "https://store.bws.com.au/storelocator/nsw-werrington-1667"}}, {"type": "node", "id": 4057889775, "lat": -33.7414718, "lon": 150.7171175, "tags": {"brand": "Bottlemart", "brand:wikidata": "Q102863175", "name": "Bottlemart", "shop": "alcohol"}}, {"type": "node", "id": 4102343041, "lat": -33.74352, "lon": 150.7136377}, {"type": "node", "id": 4102343042, "lat": -33.7434719, "lon": 150.7136589}, {"type": "node", "id": 4102343045, "lat": -33.7433652, "lon": 150.7137058}, {"type": "node", "id": 4102343046, "lat": -33.7433164, "lon": 150.7135454}, {"type": "node", "id": 4102343047, "lat": -33.7434713, "lon": 150.7134774}, {"type": "node", "id": 4430147098, "lat": -33.7665722, "lon": 150.8259752}, {"type": "node", "id": 4430147100, "lat": -33.7667689, "lon": 150.8262077}, {"type": "node", "id": 4430147105, "lat": -33.7667681, "lon": 150.8259361}, {"type": "node", "id": 4430147135, "lat": -33.7668105, "lon": 150.825976}, {"type": "node", "id": 4430147158, "lat": -33.766837, "lon": 150.8261957}, {"type": "node", "id": 4789534884, "lat": -33.7140092, "lon": 150.9726746, "tags": {"brand": "First Choice Liquor", "brand:wikidata": "Q4596269", "drive_through": "no", "name": "First Choice Liquor", "shop": "alcohol"}}, {"type": "node", "id": 5174209148, "lat": -33.6860274, "lon": 150.9516752, "tags": {"brand": "BWS", "brand:wikidata": "Q4836848", "brand:wikipedia": "en:BWS (liquor retailer)", "name": "BWS", "shop": "alcohol", "wheelchair": "yes"}}, {"type": "node", "id": 5450121064, "lat": -33.5965855, "lon": 150.7530887}, {"type": "node", "id": 5450121065, "lat": -33.5967938, "lon": 150.7529469}, {"type": "node", "id": 5450121066, "lat": -33.5969624, "lon": 150.7533041}, {"type": "node", "id": 5450121067, "lat": -33.5967541, "lon": 150.7534459}, {"type": "node", "id": 5549461784, "lat": -33.7665538, "lon": 150.8260033}, {"type": "node", "id": 5973961237, "lat": -33.7133581, "lon": 150.9714266, "tags": {"branch": "Kellyville", "brand": "BWS", "brand:wikidata": "Q4836848", "brand:wikipedia": "en:BWS (liquor retailer)", "name": "BWS", "operator": "BWS", "shop": "alcohol"}}, {"type": "node", "id": 6124214997, "lat": -33.5953426, "lon": 150.7498192, "tags": {"brand": "Liquorland", "brand:wikidata": "Q2283837", "brand:wikipedia": "en:Liquorland", "name": "Liquorland", "shop": "alcohol"}}, {"type": "node", "id": 6747648758, "lat": -33.7036833, "lon": 150.8755473, "tags": {"addr:state": "NSW", "addr:suburb": "Schofields", "brand": "BWS", "brand:wikidata": "Q4836848", "brand:wikipedia": "en:BWS (liquor retailer)", "name": "BWS", "shop": "alcohol"}}, {"type": "node", "id": 6796103238, "lat": -33.5509653, "lon": 150.6898454, "tags": {"name": "The Bottle-O Kurmond", "shop": "alcohol"}}, {"type": "node", "id": 7176945848, "lat": -33.7530976, "lon": 150.656774, "tags": {"brand": "Dan Murphy's", "brand:wikidata": "Q5214075", "brand:wikipedia": "en:Dan Murphy's", "name": "Dan Murphy's", "shop": "alcohol"}}, {"type": "node", "id": 7176946457, "lat": -33.7508018, "lon": 150.6907744, "tags": {"brand": "BWS", "brand:wikidata": "Q4836848", "brand:wikipedia": "en:BWS (liquor retailer)", "name": "BWS", "shop": "alcohol"}}, {"type": "node", "id": 7187432670, "lat": -33.6712819, "lon": 150.9561, "tags": {"name": "Liquor Co.", "shop": "alcohol"}}, {"type": "node", "id": 7211281039, "lat": -33.7584974, "lon": 150.6912811}, {"type": "node", "id": 7211281040, "lat": -33.7584222, "lon": 150.6911969}, {"type": "node", "id": 7211281046, "lat": -33.7584446, "lon": 150.6911628}, {"type": "node", "id": 7211281048, "lat": -33.75858, "lon": 150.6913717, "tags": {"name": "First Choice Liquor", "shop": "alcohol"}}, {"type": "node", "id": 7221980995, "lat": -33.7584259, "lon": 150.718189, "tags": {"name": "Kingswood Cellars", "shop": "alcohol"}}, {"type": "node", "id": 8380734741, "lat": -33.746421, "lon": 150.8994106, "tags": {"name": "Chambers Cellars", "shop": "alcohol"}}, {"type": "node", "id": 8380734767, "lat": -33.7400283, "lon": 150.8859622, "tags": {"brand": "BWS", "brand:wikidata": "Q4836848", "brand:wikipedia": "en:BWS (liquor retailer)", "name": "BWS", "shop": "alcohol"}}, {"type": "node", "id": 8380905183, "lat": -33.749107, "lon": 150.8793469, "tags": {"brand": "Liquorland", "brand:wikidata": "Q2283837", "brand:wikipedia": "en:Liquorland", "name": "Liquorland", "shop": "alcohol"}}, {"type": "node", "id": 8911213268, "lat": -33.7580085, "lon": 150.7563543, "tags": {"addr:housenumber": "6", "addr:postcode": "2747", "addr:state": "NSW", "addr:street": "Victoria Street", "addr:suburb": "Werrington", "addr:unit": "Shop 13", "name": "Pauls Liquor Outlet", "name:en": "Supercellars", "opening_hours": "Mo-Sa 08:00-20:00; Su 10:00-19:00", "shop": "alcohol"}}, {"type": "node", "id": 8930549388, "lat": -33.7487591, "lon": 150.8240475, "tags": {"addr:housename": "Hebersham Shopping Centre", "addr:housenumber": "16", "addr:street": "Welwyn Road", "addr:unit": "5", "name": "The Liquor Loft", "opening_hours": "Mo-Sa 07:30-19:15; Su 10:00-17:00", "phone": "(02) 9675 5246", "shop": "alcohol", "website": "https://the-liquor-loft.business.site/"}}, {"type": "node", "id": 8930749198, "lat": -33.7544946, "lon": 150.6537019, "tags": {"addr:housenumber": "234", "email": "emu.plains@chamberscellars.com.au", "name": "Chambers Cellars Emu Plains", "phone": "+61 2 4735 4046", "shop": "alcohol", "website": "https://chamberscellars.com.au/stores/emu-plains/"}}, {"type": "node", "id": 8931654982, "lat": -33.7478223, "lon": 150.7215353, "tags": {"name": "Cambridge Park Cellars", "phone": "+61 2 4732 3757", "shop": "alcohol"}}, {"type": "node", "id": 9259022018, "lat": -33.7458219, "lon": 150.621877, "tags": {"name": "Porters Liquor", "shop": "alcohol"}}, {"type": "node", "id": 9279553441, "lat": -33.695512, "lon": 150.8199883, "tags": {"brand": "Liquorland", "brand:wikidata": "Q2283837", "brand:wikipedia": "en:Liquorland", "name": "Liquorland", "shop": "alcohol"}}, {"type": "node", "id": 9295247729, "lat": -33.705878, "lon": 150.8759084, "tags": {"brand": "Liquorland", "brand:wikidata": "Q2283837", "brand:wikipedia": "en:Liquorland", "name": "Liquorland", "shop": "alcohol"}}, {"type": "node", "id": 9318665507, "lat": -33.7579065, "lon": 150.6920961, "tags": {"brand": "Liquorland", "brand:wikidata": "Q2283837", "brand:wikipedia": "en:Liquorland", "name": "Liquorland", "shop": "alcohol"}}, {"type": "node", "id": 9364661993, "lat": -33.763045, "lon": 150.7742629, "tags": {"drive_through": "yes", "name": "Liquor Stax Drive Through", "shop": "alcohol"}}, {"type": "node", "id": 9448721608, "lat": -33.7462373, "lon": 150.9521389, "tags": {"brand": "BWS", "brand:wikidata": "Q4836848", "brand:wikipedia": "en:BWS (liquor retailer)", "name": "BWS", "shop": "alcohol"}}, {"type": "node", "id": 9491471844, "lat": -33.720251, "lon": 150.7104967, "tags": {"branch": "Cranebrook", "brand": "BWS", "brand:wikidata": "Q4836848", "brand:wikipedia": "en:BWS (liquor retailer)", "name": "BWS", "shop": "alcohol", "wheelchair": "yes"}}, {"type": "node", "id": 9491813157, "lat": -33.7439782, "lon": 150.8091222, "tags": {"addr:housenumber": "40", "addr:street": "Jersey Road", "addr:unit": "12", "branch": "Emerton", "name": "Chambers Cellars", "phone": "+61 2 9628 6042", "shop": "alcohol", "website": "https://www.chamberscellars.com.au/"}}, {"type": "node", "id": 9492200625, "lat": -33.745913, "lon": 150.8359333, "tags": {"brand": "BWS", "brand:wikidata": "Q4836848", "brand:wikipedia": "en:BWS (liquor retailer)", "name": "BWS", "shop": "alcohol"}}, {"type": "node", "id": 9860469366, "lat": -33.6426715, "lon": 150.7357249, "tags": {"addr:housenumber": "486", "addr:street": "Londonderry Road", "addr:unit": "5", "branch": "Londonderry", "name": "The Bottle-O", "shop": "alcohol", "website": "https://www.thebottle-o.com.au/"}}, {"type": "node", "id": 10251609271, "lat": -33.6920389, "lon": 150.9256511, "tags": {"brand": "Liquorland", "brand:wikidata": "Q2283837", "name": "Liquorland", "shop": "alcohol"}}, {"type": "node", "id": 10253960770, "lat": -33.7057872, "lon": 150.911034, "tags": {"addr:unit": "Shop 1", "brand": "BWS", "brand:wikidata": "Q4836848", "name": "BWS", "shop": "alcohol"}}, {"type": "node", "id": 10587996270, "lat": -33.5966608, "lon": 150.7532484}, {"type": "node", "id": 10587996271, "lat": -33.5967192, "lon": 150.753372}, {"type": "node", "id": 10588048822, "lat": -33.5965979, "lon": 150.7531163}, {"type": "node", "id": 10588048823, "lat": -33.5966527, "lon": 150.7532369}, {"type": "node", "id": 10593148050, "lat": -33.6097041, "lon": 150.8157839, "tags": {"brand": "Bottlemart", "brand:wikidata": "Q102863175", "name": "Bottlemart", "shop": "alcohol"}}, {"type": "way", "id": 117917150, "nodes": [1327239083, 7211281039, 7211281040, 7211281046, 1327239056, 1327239084, 1327239035, 1327239083], "tags": {"building": "yes", "shop": "alcohol"}}, {"type": "way", "id": 408277734, "nodes": [4102343042, 4102343045, 4102343046, 4102343047, 4102343041, 4102343042], "tags": {"brand": "Cellarbrations", "brand:wikidata": "Q109807592", "building": "yes", "name": "Cellarbrations", "shop": "alcohol"}}, {"type": "way", "id": 445609267, "nodes": [4430147098, 4430147105, 4430147135, 4430147158, 4430147100, 5549461784, 4430147098], "tags": {"building": "yes", "name": "Chambers Cellars", "shop": "alcohol"}}, {"type": "way", "id": 566024759, "nodes": [5450121064, 5450121065, 5450121066, 5450121067, 10587996271, 10587996270, 10588048823, 10588048822, 5450121064], "tags": {"brand": "Dan Murphy's", "brand:wikidata": "Q5214075", "building": "retail", "description": "Bottle shop", "name": "Dan Murphy's", "shop": "alcohol", "website": "https://www.danmurphys.com.au/"}}]}