{"version": 0.6, "generator": "Overpass API 0.7.60 f4c14d41", "osm3s": {"timestamp_osm_base": "2023-05-02T21:20:24Z", "copyright": "The data included in this document is from www.openstreetmap.org. The data is made available under ODbL."}, "elements": [{"type": "node", "id": 400705914, "lat": -22.99318, "lon": -43.2557532, "tags": {"amenity": "fuel", "operator": "Ipiranga", "shop": "convenience"}}, {"type": "node", "id": 430992447, "lat": -22.8941485, "lon": -43.1217835, "tags": {"addr:street": "Rua da Concei\u00e7\u00e3o", "name": "Mercad\u00e3o de 1,99", "shop": "convenience"}}, {"type": "node", "id": 452638362, "lat": -22.8050095, "lon": -43.2099771}, {"type": "node", "id": 454457367, "lat": -22.9321362, "lon": -43.1821075, "tags": {"addr:city": "Rio de Janeiro", "addr:street": "Rua das Laranjeiras", "addr:suburb": "Laranjeiras", "name": "Mercado S\u00e3o Jos\u00e9 das Artes", "opening_hours": "closed", "shop": "convenience", "source": "survey"}}, {"type": "node", "id": 545504386, "lat": -22.9054918, "lon": -43.1783482, "tags": {"addr:city": "Rio de Janeiro", "addr:country": "BR", "addr:housenumber": "111B", "addr:postcode": "20050-006", "addr:street": "Rua Sete de Setembro", "addr:suburb": "Centro", "cnpj": "33.032.442/0012-21", "contact:phone": "+55-21-22520131", "contact:website": "http://www.lojasmagal.com.br", "ie": "86293048", "name": "Lojas Magal", "official_name": "Lojas Magal de Utilidades Ltda.", "shop": "convenience"}}, {"type": "node", "id": 557557705, "lat": -22.9833007, "lon": -43.2180006, "tags": {"name": "Lojas Americanas Express", "shop": "convenience"}}, {"type": "node", "id": 559645108, "lat": -22.912421, "lon": -43.1768977, "tags": {"addr:city": "Rio de Janeiro", "addr:housenumber": "42", "addr:street": "Rua do Passeio", "addr:suburb": "Centro", "name": "Lojas Americanas", "opening_hours": "Mo-Fr 08:30-21:00; Sa 09:00-18:00", "shop": "convenience", "source": "Site Lojas Americanas", "website": "http://www.americanas.com.br"}}, {"type": "node", "id": 633041119, "lat": -22.7985509, "lon": -43.1957096, "tags": {"name": "AM&PM", "opening_hours": "24/7", "shop": "convenience"}}, {"type": "node", "id": 634187588, "lat": -22.9245099, "lon": -43.2340552, "tags": {"name": "Lojas Bandeirantes", "shop": "convenience"}}, {"type": "node", "id": 698802731, "lat": -22.9548953, "lon": -43.197192, "tags": {"name": "Farinha Pura", "shop": "convenience"}}, {"type": "node", "id": 698803723, "lat": -22.9643592, "lon": -43.2033431, "tags": {"amenity": "fuel", "brand": "Ipiranga", "brand:wikidata": "Q2081136", "brand:wikipedia": "pt:Ipiranga (empresa)", "name": "Ipiranga", "opening_hours": "24/7", "shop": "convenience"}}, {"type": "node", "id": 708319698, "lat": -22.932481, "lon": -43.1817982, "tags": {"shop": "convenience", "source": "survey"}}, {"type": "node", "id": 722351166, "lat": -22.8759789, "lon": -43.4480256, "tags": {"shop": "convenience"}}, {"type": "node", "id": 725873014, "lat": -22.9334893, "lon": -43.1762807, "tags": {"brand": "Shell", "brand:wikidata": "Q110716465", "name": "Shell", "operator": "Shell", "shop": "convenience"}}, {"type": "node", "id": 725873015, "lat": -22.9334795, "lon": -43.1765167, "tags": {"name": "Flamar Mini Market", "shop": "convenience"}}, {"type": "node", "id": 727704330, "lat": -22.9254615, "lon": -43.1768028, "tags": {"name": "Casa do Biscoito", "shop": "convenience"}}, {"type": "node", "id": 766016602, "lat": -22.9057708, "lon": -43.17931, "tags": {"addr:housenumber": "120", "addr:street": "Rua Sete de Setembro", "name": "TECNOMEDI CENTRO", "name:pt": "TECNOMEDI CENTRO", "phone": "2122245011", "shop": "convenience", "source": "survey"}}, {"type": "node", "id": 810362090, "lat": -22.9312061, "lon": -43.1769745, "tags": {"name": "Deli Sabores do Mundo", "phone": "+55-21-25585585", "shop": "convenience"}}, {"type": "node", "id": 816008348, "lat": -22.904038, "lon": -43.1766744, "tags": {"addr:city": "Rio de Janeiro", "addr:housenumber": "45", "addr:postcode": "20011-030", "addr:street": "Rua da Quitanda", "addr:suburb": "Centro", "name": "Mundo Verde", "opening_hours": "Mo-Sa 8:00-19:15", "phone": "+55 21 2221-5690", "shop": "convenience"}}, {"type": "node", "id": 816207455, "lat": -22.9207907, "lon": -43.2169553, "tags": {"name": "Gr\u00e3o de Minas", "shop": "convenience"}}, {"type": "node", "id": 817602990, "lat": -22.9129395, "lon": -43.225451}, {"type": "node", "id": 847350424, "lat": -22.9532321, "lon": -43.1706992, "tags": {"branch": "Mania", "brand": "BR", "brand:wikidata": "Q4836468", "name": "BR", "shop": "convenience", "source": "survey", "wheelchair": "yes"}}, {"type": "node", "id": 892159741, "lat": -22.9700698, "lon": -43.1824117, "tags": {"atm": "yes", "branch": "Mania", "brand": "BR", "brand:wikidata": "Q4836468", "name": "BR", "operator": "BR", "shop": "convenience", "source": "Bing"}}, {"type": "node", "id": 892159761, "lat": -22.9699135, "lon": -43.1838056, "tags": {"addr:city": "Rio de Janeiro", "addr:country": "BR", "addr:housenumber": "18A", "addr:street": "Rua Siqueira Campos", "name": "Multifruti", "phone": "+55-21-25479267; +55-21-25498663", "shop": "convenience"}}, {"type": "node", "id": 893345849, "lat": -22.874833, "lon": -43.3421485, "tags": {"name": "J.D.R.", "shop": "convenience"}}, {"type": "node", "id": 939170978, "lat": -22.9358305, "lon": -43.1807355, "tags": {"phone": "+55-21-22853470", "shop": "convenience"}}, {"type": "node", "id": 1012821101, "lat": -22.9049786, "lon": -43.1861041, "tags": {"addr:city": "Rio de Janeiro", "addr:country": "BR", "addr:housenumber": "240", "addr:street": "Rua Senhor dos Passos", "name": "Casas Pedro", "phone": "+55-21-38619040", "shop": "convenience", "website": "https://www.casaspedro.com.br/"}}, {"type": "node", "id": 1012821149, "lat": -22.903867, "lon": -43.1833134, "tags": {"addr:city": "Rio de Janeiro", "addr:country": "BR", "addr:housenumber": "110", "addr:street": "Rua Senhor dos Passos", "name": "Casas Pedro", "phone": "+55-21-38619040", "shop": "convenience", "website": "https://www.casaspedro.com.br/"}}, {"type": "node", "id": 1105680063, "lat": -22.9643354, "lon": -43.1715005, "tags": {"branch": "Mania", "brand": "BR", "brand:wikidata": "Q4836468", "name": "BR", "operator": "Petrobras", "shop": "convenience"}}, {"type": "node", "id": 1108247167, "lat": -22.9836064, "lon": -43.1896394, "tags": {"name": "BR Mania", "operator": "Petrobras", "shop": "convenience", "source": "Bing"}}, {"type": "node", "id": 1148259042, "lat": -22.8169575, "lon": -43.2034091, "tags": {"name": "Mercado do Grego", "shop": "convenience"}}, {"type": "node", "id": 1180395497, "lat": -22.9373335, "lon": -43.177737, "tags": {"name": "Mundo Verde", "shop": "convenience", "source": "survey"}}, {"type": "node", "id": 1180395819, "lat": -22.9359178, "lon": -43.1750592, "tags": {"name": "Mundinho Verde", "shop": "convenience", "source": "survey"}}, {"type": "node", "id": 1180397420, "lat": -22.9362148, "lon": -43.1756254, "tags": {"name": "Rede Varej\u00e3o", "shop": "convenience", "source": "survey"}}, {"type": "node", "id": 1219027482, "lat": -22.9847652, "lon": -43.2005927, "tags": {"shop": "convenience"}}, {"type": "node", "id": 1297577647, "lat": -22.9040297, "lon": -43.178668, "tags": {"addr:city": "Rio de Janeiro", "addr:country": "BR", "addr:housenumber": "129", "addr:street": "Rua do Ouvidor", "name": "Toca do Biscoito", "shop": "convenience"}}, {"type": "node", "id": 1301340282, "lat": -22.9715924, "lon": -43.3854229, "tags": {"name": "Rio Dois Shopping", "shop": "convenience"}}, {"type": "node", "id": 1358495055, "lat": -23.0004641, "lon": -43.357449}, {"type": "node", "id": 1396142874, "lat": -22.9239157, "lon": -43.2409036, "tags": {"name": "Mei Sim", "shop": "convenience"}}, {"type": "node", "id": 1401486890, "lat": -22.9268635, "lon": -43.2358142, "tags": {"name": "Casas Pedro", "shop": "convenience"}}, {"type": "node", "id": 1437137242, "lat": -22.9086387, "lon": -43.2214949}, {"type": "node", "id": 1538321789, "lat": -22.8302663, "lon": -43.2905046, "tags": {"name": "Padaria Guanabara", "shop": "convenience"}}, {"type": "node", "id": 1611102918, "lat": -22.8267405, "lon": -43.3161681, "tags": {"shop": "convenience"}}, {"type": "node", "id": 1613303623, "lat": -22.8245008, "lon": -43.3083774, "tags": {"shop": "convenience"}}, {"type": "node", "id": 1622795636, "lat": -22.9245698, "lon": -43.1792531, "tags": {"shop": "convenience"}}, {"type": "node", "id": 1752969454, "lat": -23.0045349, "lon": -43.3093873, "tags": {"name": "Amendoeira II", "shop": "convenience"}}, {"type": "node", "id": 1753413886, "lat": -22.7864645, "lon": -43.3231538, "tags": {"description": "Mercado de bairro com alimentos, produtos de limpeza e padaria", "name": "Mercado do Sab\u00e3o", "shop": "convenience"}}, {"type": "node", "id": 1753516949, "lat": -22.7852206, "lon": -43.3196696, "tags": {"name": "Padaria e Merceaia APE", "shop": "convenience"}}, {"type": "node", "id": 1787996617, "lat": -22.9282837, "lon": -43.2361954, "tags": {"name": "Jinlong", "shop": "convenience"}}, {"type": "node", "id": 1788101432, "lat": -22.8101127, "lon": -43.3712595, "tags": {"shop": "convenience"}}, {"type": "node", "id": 1795738600, "lat": -22.7842439, "lon": -43.3167135, "tags": {"shop": "convenience"}}, {"type": "node", "id": 1809229073, "lat": -22.8594176, "lon": -43.2776534, "tags": {"atm": "yes", "name": "Estrela do Largo", "shop": "convenience", "source": "survey"}}, {"type": "node", "id": 1836645779, "lat": -22.8235361, "lon": -43.1770109, "tags": {"shop": "convenience"}}, {"type": "node", "id": 1836649048, "lat": -22.8236246, "lon": -43.1786582, "tags": {"shop": "convenience"}}, {"type": "node", "id": 1837862354, "lat": -22.9509042, "lon": -43.1924871, "tags": {"name": "Select", "shop": "convenience"}}, {"type": "node", "id": 1909433968, "lat": -22.9303772, "lon": -43.2434496, "tags": {"brand": "ampm", "brand:wikidata": "Q306960", "name": "ampm", "shop": "convenience"}}, {"type": "node", "id": 2000100483, "lat": -22.9554879, "lon": -43.1898591}, {"type": "node", "id": 2003518319, "lat": -22.9112111, "lon": -43.238243, "tags": {"shop": "convenience"}}, {"type": "node", "id": 2010074637, "lat": -22.8265385, "lon": -43.3116136, "tags": {"name": "Novelty", "shop": "convenience"}}, {"type": "node", "id": 2014093746, "lat": -22.8489932, "lon": -43.325398, "tags": {"name": "Atacad\u00e3o dos Biscoitos", "shop": "convenience", "source": "survey"}}, {"type": "node", "id": 2014516073, "lat": -22.9665673, "lon": -43.2304609, "tags": {"addr:housenumber": "1206", "addr:street": "Rua Pacheco Le\u00e3o", "name": "Mini Mercado Pacheco Le\u00e3o", "shop": "convenience", "source": "survey"}}, {"type": "node", "id": 2014576880, "lat": -22.9648352, "lon": -43.2225832, "tags": {"name": "Toquinha da Globo", "shop": "convenience", "source": "survey"}}, {"type": "node", "id": 2074418480, "lat": -22.84331, "lon": -43.3345264, "tags": {"shop": "convenience", "source": "survey"}}, {"type": "node", "id": 2082579013, "lat": -22.9017498, "lon": -43.2837817, "tags": {"addr:housenumber": "115", "addr:street": "Rua Venceslau", "name": "Dika do M\u00e9ier", "phone": "+55-21-35925628", "shop": "convenience", "source": "survey"}}, {"type": "node", "id": 2084558768, "lat": -22.8257674, "lon": -43.309588, "tags": {"name": "Casa de Ra\u00e7\u00e3o Duas Irm\u00e3es", "shop": "convenience", "source": "survey"}}, {"type": "node", "id": 2084613545, "lat": -22.8255883, "lon": -43.3107145, "tags": {"name": "K e G", "shop": "convenience", "source": "survey"}}, {"type": "node", "id": 2099879878, "lat": -22.9650733, "lon": -43.2185206, "tags": {"name": "Mundo Verde", "shop": "convenience", "source": "survey"}}, {"type": "node", "id": 2146477134, "lat": -22.8282315, "lon": -43.3193356, "tags": {"addr:housenumber": "2820", "addr:street": "Avenida Br\u00e1s de Pina", "name": "Mundo Verde", "shop": "convenience", "source": "survey"}}, {"type": "node", "id": 2163857715, "lat": -22.9013836, "lon": -43.2796928, "tags": {"name": "Magal", "shop": "convenience", "source": "survey"}}, {"type": "node", "id": 2182117818, "lat": -22.8274416, "lon": -43.3110472, "tags": {"shop": "convenience", "source": "survey"}}, {"type": "node", "id": 2182332992, "lat": -22.9712754, "lon": -43.2174906, "tags": {"name": "BR Mania", "operator": "Petrobras", "shop": "convenience", "source": "survey"}}, {"type": "node", "id": 2206135815, "lat": -22.9211504, "lon": -43.2360199, "tags": {"name": "Select", "shop": "convenience", "source": "survey"}}, {"type": "node", "id": 2223016086, "lat": -22.8371397, "lon": -43.3173036, "tags": {"brand": "Shell Select", "brand:wikidata": "Q110716465", "name": "Shell Select", "operator": "Shell", "shop": "convenience", "source": "survey"}}, {"type": "node", "id": 2223016346, "lat": -22.8350067, "lon": -43.3189138, "tags": {"brand": "ampm", "brand:wikidata": "Q306960", "brand:wikipedia": "en:Ampm", "name": "ampm", "operator": "Ipiranga", "shop": "convenience", "source": "survey"}}, {"type": "node", "id": 2261441789, "lat": -22.8838583, "lon": -43.2481832, "tags": {"shop": "convenience"}}, {"type": "node", "id": 2261490720, "lat": -22.8838048, "lon": -43.2479693, "tags": {"shop": "convenience"}}, {"type": "node", "id": 2261515652, "lat": -22.8836606, "lon": -43.2475811, "tags": {"shop": "convenience"}}, {"type": "node", "id": 2261515654, "lat": -22.8830005, "lon": -43.2454699, "tags": {"shop": "convenience"}}, {"type": "node", "id": 2262788389, "lat": -22.840123, "lon": -43.3345313, "tags": {"name": "Cest\u00e3o da Economia", "shop": "convenience", "source": "survey"}}, {"type": "node", "id": 2262997613, "lat": -22.9139723, "lon": -43.5795051, "tags": {"name": "Padaria Spinosa", "shop": "convenience"}}, {"type": "node", "id": 2263476694, "lat": -23.008763, "lon": -43.3058056, "tags": {"brand": "ampm", "brand:wikidata": "Q306960", "brand:wikipedia": "en:Ampm", "name": "ampm", "shop": "convenience"}}, {"type": "node", "id": 2263515533, "lat": -23.0097579, "lon": -43.3504121, "tags": {"name": "BR Mania", "shop": "convenience", "source": "survey"}}, {"type": "node", "id": 2283434796, "lat": -22.83773, "lon": -43.3134246, "tags": {"name": "Super Mercadinho Nossa Senhora de F\u00e1tima", "shop": "convenience", "source": "survey"}}, {"type": "node", "id": 2283435010, "lat": -22.8382236, "lon": -43.3127988, "tags": {"addr:housenumber": "1615", "addr:street": "Avenida Br\u00e1s de Pina", "name": "Bazar Fofurinha", "shop": "convenience"}}, {"type": "node", "id": 2283490326, "lat": -22.830317, "lon": -43.3091544, "tags": {"name": "J\u00f4", "shop": "convenience", "source": "survey"}}, {"type": "node", "id": 2284587250, "lat": -22.9082954, "lon": -43.6995252, "tags": {"name": "Mercado Novo Horizonte", "shop": "convenience"}}, {"type": "node", "id": 2284588681, "lat": -22.9080531, "lon": -43.700373, "tags": {"name": "Mercado Tropical", "shop": "convenience"}}, {"type": "node", "id": 2287236922, "lat": -22.9100482, "lon": -43.2930229, "tags": {"name": "Mercapan", "shop": "convenience"}}, {"type": "node", "id": 2288321627, "lat": -22.8244051, "lon": -43.3121951, "tags": {"name": "Minishop", "shop": "convenience", "source": "survey"}}, {"type": "node", "id": 2297005572, "lat": -22.8274747, "lon": -43.3081074, "tags": {"shop": "convenience", "source": "survey"}}, {"type": "node", "id": 2316528888, "lat": -22.9583703, "lon": -43.1917507, "tags": {"brand": "ampm", "brand:wikidata": "Q306960", "brand:wikipedia": "en:Ampm", "name": "ampm", "shop": "convenience", "source": "survey"}}, {"type": "node", "id": 2322537088, "lat": -22.9569623, "lon": -43.1963978, "tags": {"name": "Mercado Humait\u00e1", "phone": "+55-21-25380011; +55-21-25393588; +55-21-25393417", "shop": "convenience", "source": "survey"}}, {"type": "node", "id": 2322551297, "lat": -22.9576039, "lon": -43.1948599, "tags": {"shop": "convenience", "source": "survey"}}, {"type": "node", "id": 2324928284, "lat": -23.0031028, "lon": -43.323692}, {"type": "node", "id": 2324928303, "lat": -23.0031689, "lon": -43.3237252}, {"type": "node", "id": 2324928356, "lat": -23.0032507, "lon": -43.3235329}, {"type": "node", "id": 2324928362, "lat": -23.0031846, "lon": -43.3234997}, {"type": "node", "id": 2379181547, "lat": -22.9601666, "lon": -43.2062215, "tags": {"brand": "ampm", "brand:wikidata": "Q306960", "brand:wikipedia": "en:Ampm", "name": "ampm", "shop": "convenience", "source": "survey"}}, {"type": "node", "id": 2407930776, "lat": -22.8430661, "lon": -43.3354616, "tags": {"shop": "convenience", "source": "survey"}}, {"type": "node", "id": 2429268082, "lat": -22.8937928, "lon": -43.1189805, "tags": {"name": "Delazeri", "phone": "+55-21-81875374", "shop": "convenience", "source": "survey"}}, {"type": "node", "id": 2429294635, "lat": -22.914, "lon": -43.5839391, "tags": {"name": "Mercado Moranga", "shop": "convenience"}}, {"type": "node", "id": 2458141780, "lat": -22.9722267, "lon": -43.3634377, "tags": {"brand": "ampm", "brand:wikidata": "Q306960", "brand:wikipedia": "en:Ampm", "name": "ampm", "shop": "convenience", "source": "survey"}}, {"type": "node", "id": 2654469800, "lat": -22.9159012, "lon": -43.2355113, "tags": {"name": "A Prop\u00f3sito", "shop": "convenience"}}, {"type": "node", "id": 2661169011, "lat": -22.8279207, "lon": -43.3236932, "tags": {"name": "Trakinas do Bairro", "shop": "convenience", "source": "survey"}}, {"type": "node", "id": 2665701111, "lat": -22.9068315, "lon": -43.1807709, "tags": {"addr:housenumber": "55", "addr:street": "Rua da Carioca", "contact:phone": "+55-21-22825088", "name": "Mercado Batist\u00e3o da Carioca", "phone": "+55-21-22825293", "shop": "convenience"}}, {"type": "node", "id": 2686628533, "lat": -22.9732246, "lon": -43.2076927, "tags": {"name": "ampm", "shop": "convenience", "source": "survey"}}, {"type": "node", "id": 2707800306, "lat": -23.0009182, "lon": -43.4151221, "tags": {"amenity": "fuel", "brand": "Ipiranga", "shop": "convenience"}}, {"type": "node", "id": 2841026923, "lat": -23.0031819, "lon": -43.3661684, "tags": {"amenity": "fuel", "atm": "yes", "brand": "Ipiranga", "car_wash": "yes", "drink:alcohol": "yes", "drink:soft_drink": "yes", "fuel:diesel": "yes", "fuel:ethanol": "yes", "fuel:gasoline": "yes", "ice_cream": "yes", "operator": "Ipiranga", "parking": "surface", "service:vehicle:glass": "yes", "service:vehicle:tyres": "yes", "shop": "convenience"}}, {"type": "node", "id": 2857238908, "lat": -22.9844016, "lon": -43.1993035, "tags": {"name": "Americanas Express", "shop": "convenience"}}, {"type": "node", "id": 2857262601, "lat": -22.9412245, "lon": -43.1813329, "tags": {"brand": "ampm", "brand:wikidata": "Q306960", "brand:wikipedia": "en:Ampm", "name": "ampm", "shop": "convenience"}}, {"type": "node", "id": 2862594104, "lat": -22.9313868, "lon": -43.1820094, "tags": {"name": "Vossa Merc\u00ea Mercearia", "shop": "convenience", "wheelchair": "no"}}, {"type": "node", "id": 2882855968, "lat": -22.9270813, "lon": -43.3670664, "tags": {"amenity": "fuel", "brand": "Ipiranga", "shop": "convenience"}}, {"type": "node", "id": 2887249201, "lat": -22.8017767, "lon": -43.3626163, "tags": {"name": "FBX", "shop": "convenience"}}, {"type": "node", "id": 2896981615, "lat": -22.9128944, "lon": -43.2253682}, {"type": "node", "id": 2900103802, "lat": -22.8007424, "lon": -43.3602787, "tags": {"shop": "convenience"}}, {"type": "node", "id": 2912270602, "lat": -22.8013048, "lon": -43.3598206, "tags": {"name": "S\u00e3o Jo\u00e3o Batista", "shop": "convenience"}}, {"type": "node", "id": 2912270704, "lat": -22.801314, "lon": -43.3609547, "tags": {"name": "Ki-Caldos", "shop": "convenience"}}, {"type": "node", "id": 2913253820, "lat": -22.9127941, "lon": -43.2251633}, {"type": "node", "id": 2913253830, "lat": -22.912868, "lon": -43.2251315}, {"type": "node", "id": 2913253841, "lat": -22.912981, "lon": -43.2253789}, {"type": "node", "id": 2913773146, "lat": -22.9083987, "lon": -43.2209968}, {"type": "node", "id": 2913773149, "lat": -22.9084881, "lon": -43.2207687}, {"type": "node", "id": 2913773155, "lat": -22.9085372, "lon": -43.2207348}, {"type": "node", "id": 2913773157, "lat": -22.9085747, "lon": -43.2216393}, {"type": "node", "id": 2913773163, "lat": -22.9085924, "lon": -43.2207364}, {"type": "node", "id": 2913773169, "lat": -22.9086862, "lon": -43.2207849}, {"type": "node", "id": 2913773171, "lat": -22.9087041, "lon": -43.2211472}, {"type": "node", "id": 2913773175, "lat": -22.9087354, "lon": -43.2208787}, {"type": "node", "id": 2913773176, "lat": -22.9087562, "lon": -43.2210389}, {"type": "node", "id": 2913773180, "lat": -22.9087819, "lon": -43.2215741}, {"type": "node", "id": 2913773185, "lat": -22.9088485, "lon": -43.2217081}, {"type": "node", "id": 2913773186, "lat": -22.9088602, "lon": -43.2216429}, {"type": "node", "id": 2913788887, "lat": -22.9080894, "lon": -43.2197622}, {"type": "node", "id": 2913789801, "lat": -22.9083662, "lon": -43.2195149}, {"type": "node", "id": 2913789809, "lat": -22.908542, "lon": -43.2202751}, {"type": "node", "id": 2913789811, "lat": -22.9087087, "lon": -43.2199249}, {"type": "node", "id": 2916517819, "lat": -22.9107527, "lon": -43.2168366}, {"type": "node", "id": 2916517821, "lat": -22.9107586, "lon": -43.2169001}, {"type": "node", "id": 2916517831, "lat": -22.910996, "lon": -43.2168088}, {"type": "node", "id": 2916517832, "lat": -22.9110019, "lon": -43.2168737}, {"type": "node", "id": 2917450758, "lat": -22.8450263, "lon": -43.2684539}, {"type": "node", "id": 2920276201, "lat": -22.9021874, "lon": -43.2813019, "tags": {"name": "Tuti Fruti", "shop": "convenience"}}, {"type": "node", "id": 2921321173, "lat": -22.9129484, "lon": -43.2253988}, {"type": "node", "id": 2921321175, "lat": -22.9129689, "lon": -43.2254414}, {"type": "node", "id": 2936376858, "lat": -22.9171179, "lon": -43.3773579}, {"type": "node", "id": 2936376862, "lat": -22.9171661, "lon": -43.377324}, {"type": "node", "id": 2936376865, "lat": -22.9171769, "lon": -43.3774566}, {"type": "node", "id": 2936376867, "lat": -22.9172251, "lon": -43.3774227}, {"type": "node", "id": 2962123171, "lat": -22.9246465, "lon": -43.3581807}, {"type": "node", "id": 2982803834, "lat": -23.0124739, "lon": -43.540378}, {"type": "node", "id": 2982804034, "lat": -23.0123732, "lon": -43.5402669}, {"type": "node", "id": 2982804233, "lat": -23.0124015, "lon": -43.5404553}, {"type": "node", "id": 2982804433, "lat": -23.0123008, "lon": -43.5403442}, {"type": "node", "id": 2983241536, "lat": -23.0144733, "lon": -43.5193598}, {"type": "node", "id": 2983242033, "lat": -23.0143908, "lon": -43.5195902}, {"type": "node", "id": 2983242133, "lat": -23.0143185, "lon": -43.5194673}, {"type": "node", "id": 2983242134, "lat": -23.0145455, "lon": -43.5194827}, {"type": "node", "id": 2988653286, "lat": -22.9694527, "lon": -43.3596804}, {"type": "node", "id": 2988653293, "lat": -22.9696017, "lon": -43.3598138}, {"type": "node", "id": 2988653295, "lat": -22.9694878, "lon": -43.3596341}, {"type": "node", "id": 2988653296, "lat": -22.9696368, "lon": -43.3597675}, {"type": "node", "id": 3016654569, "lat": -22.8845327, "lon": -43.57005}, {"type": "node", "id": 3195614761, "lat": -22.8417258, "lon": -43.3174925, "tags": {"addr:housenumber": "471", "addr:street": "Estrada Padre Roser", "shop": "convenience"}}, {"type": "node", "id": 3208365178, "lat": -22.8781099, "lon": -43.3426286, "tags": {"shop": "convenience"}}, {"type": "node", "id": 3229166461, "lat": -23.000896, "lon": -43.3513092}, {"type": "node", "id": 3229166462, "lat": -23.0009269, "lon": -43.351218}, {"type": "node", "id": 3229166463, "lat": -23.0005775, "lon": -43.3510705}, {"type": "node", "id": 3229166464, "lat": -23.0005293, "lon": -43.3512234}, {"type": "node", "id": 3229166465, "lat": -23.0006639, "lon": -43.351277}, {"type": "node", "id": 3229166466, "lat": -23.0006837, "lon": -43.3512234}, {"type": "node", "id": 3248372101, "lat": -23.0169077, "lon": -43.4740008}, {"type": "node", "id": 3248372102, "lat": -23.0168358, "lon": -43.4737072}, {"type": "node", "id": 3248372103, "lat": -23.0169156, "lon": -43.4736842}, {"type": "node", "id": 3248372104, "lat": -23.0169875, "lon": -43.4739777}, {"type": "node", "id": 3266080933, "lat": -22.9320678, "lon": -43.1809151}, {"type": "node", "id": 3301821816, "lat": -22.8987845, "lon": -43.5550946, "tags": {"name": "Ashop", "shop": "convenience"}}, {"type": "node", "id": 3311177774, "lat": -23.0177321, "lon": -43.4829975, "tags": {"name": "Select", "shop": "convenience"}}, {"type": "node", "id": 3322503193, "lat": -22.9122599, "lon": -43.679586, "tags": {"name": "Mercearia do Ch\u00e1", "shop": "convenience"}}, {"type": "node", "id": 3324207575, "lat": -22.9229338, "lon": -43.6828137, "tags": {"name": "Mercearia dos Lopes", "shop": "convenience"}}, {"type": "node", "id": 3327632711, "lat": -22.8450728, "lon": -43.2685229}, {"type": "node", "id": 3327632713, "lat": -22.8451519, "lon": -43.2683601}, {"type": "node", "id": 3327632714, "lat": -22.8452, "lon": -43.2684326}, {"type": "node", "id": 3355158264, "lat": -22.9346108, "lon": -43.1880775, "tags": {"addr:city": "Rio de Janeiro", "addr:housenumber": "280D", "addr:postcode": "22240-001", "addr:street": "Rua das Laranjeiras", "addr:suburb": "Laranjeiras", "alcohol": "yes", "cuisine": "japanese", "name": "Mercearia Fuji", "phone": "+55 21 2226 4894", "shop": "convenience"}}, {"type": "node", "id": 3396080696, "lat": -23.0127326, "lon": -43.4576629}, {"type": "node", "id": 3396080697, "lat": -23.0125671, "lon": -43.4577152}, {"type": "node", "id": 3396080698, "lat": -23.0125979, "lon": -43.4578304}, {"type": "node", "id": 3396080699, "lat": -23.0127634, "lon": -43.4577781}, {"type": "node", "id": 3397739119, "lat": -22.9266129, "lon": -43.2463639}, {"type": "node", "id": 3397739123, "lat": -22.9266889, "lon": -43.2465323}, {"type": "node", "id": 3397739124, "lat": -22.9266937, "lon": -43.2463422}, {"type": "node", "id": 3397739127, "lat": -22.92672, "lon": -43.246501}, {"type": "node", "id": 3397739128, "lat": -22.9267464, "lon": -43.2465983}, {"type": "node", "id": 3397739129, "lat": -22.9267569, "lon": -43.2466567}, {"type": "node", "id": 3397739130, "lat": -22.9267608, "lon": -43.2464255}, {"type": "node", "id": 3397739131, "lat": -22.9267616, "lon": -43.2465158}, {"type": "node", "id": 3397739132, "lat": -22.9267784, "lon": -43.2465028}, {"type": "node", "id": 3397739133, "lat": -22.9268056, "lon": -43.2465688}, {"type": "node", "id": 3397739134, "lat": -22.9268193, "lon": -43.2466468}, {"type": "node", "id": 3466168695, "lat": -23.0004645, "lon": -43.3573617}, {"type": "node", "id": 3466168696, "lat": -23.0006769, "lon": -43.3574502}, {"type": "node", "id": 3466168697, "lat": -23.0006793, "lon": -43.357359}, {"type": "node", "id": 3793895578, "lat": -22.8991819, "lon": -43.2225857}, {"type": "node", "id": 3793895581, "lat": -22.8992769, "lon": -43.2225247}, {"type": "node", "id": 3793895582, "lat": -22.8992847, "lon": -43.2227741}, {"type": "node", "id": 3793895589, "lat": -22.8993796, "lon": -43.2227131}, {"type": "node", "id": 3827613404, "lat": -22.9112387, "lon": -43.1883825, "tags": {"shop": "convenience"}}, {"type": "node", "id": 4161152996, "lat": -22.9127145, "lon": -43.1861551, "tags": {"addr:city": "Rio de Janeiro", "addr:street": "Rua Ubaldino do Amaral", "addr:suburb": "Lapa", "name": "Mercearia Gabi", "shop": "convenience"}}, {"type": "node", "id": 4192535590, "lat": -22.847278, "lon": -43.311074, "tags": {"addr:city": "Rio de Janeiro", "addr:housenumber": "1282", "addr:postcode": "21221-006", "addr:street": "Avenida Meriti", "addr:suburb": "Vila da Penha", "name": "1928 Carnes Nobres", "shop": "convenience"}}, {"type": "node", "id": 4257951692, "lat": -22.9105948, "lon": -43.1842681, "tags": {"addr:city": "Rio de Janeiro", "addr:housenumber": "33", "addr:postcode": "20231-110", "addr:street": "Rua da Rela\u00e7\u00e3o", "addr:suburb": "Lapa", "name": "Lojas Americanas - Express", "shop": "convenience"}}, {"type": "node", "id": 4264652848, "lat": -22.8907937, "lon": -43.2942079, "tags": {"name": "Casa da Coxita", "shop": "convenience"}}, {"type": "node", "id": 4264652851, "lat": -22.8950703, "lon": -43.2958837, "tags": {"name": "Papeleria - Bazar - Lanches O Limao", "shop": "convenience"}}, {"type": "node", "id": 4311017099, "lat": -23.0109445, "lon": -43.4503293}, {"type": "node", "id": 4311017100, "lat": -23.0108733, "lon": -43.4503495}, {"type": "node", "id": 4311017101, "lat": -23.0107994, "lon": -43.4500422}, {"type": "node", "id": 4311017102, "lat": -23.0108706, "lon": -43.4500219}, {"type": "node", "id": 4407261333, "lat": -22.9156045, "lon": -43.2456303, "tags": {"name": "Casa do Biscoito", "payment:alelo_refei\u00e7\u00e3o": "yes", "payment:cards": "yes", "payment:cash": "yes", "payment:ticket_restaurant": "yes", "shop": "convenience"}}, {"type": "node", "id": 4419686889, "lat": -22.9209745, "lon": -43.1896311, "tags": {"shop": "convenience"}}, {"type": "node", "id": 4428133495, "lat": -22.9496589, "lon": -43.1872464, "tags": {"name": "Americanas Express", "shop": "convenience"}}, {"type": "node", "id": 4499237654, "lat": -22.9245637, "lon": -43.3581293}, {"type": "node", "id": 4499237655, "lat": -22.9245039, "lon": -43.358243}, {"type": "node", "id": 4499237656, "lat": -22.9245867, "lon": -43.3582944}, {"type": "node", "id": 4596419946, "lat": -22.9724831, "lon": -43.3867777}, {"type": "node", "id": 4596419947, "lat": -22.97255, "lon": -43.386673}, {"type": "node", "id": 4596419948, "lat": -22.9724599, "lon": -43.386605}, {"type": "node", "id": 4596419949, "lat": -22.972393, "lon": -43.3867097}, {"type": "node", "id": 4864017621, "lat": -22.9394779, "lon": -43.3428759, "tags": {"addr:street": "Estrada dos Tr\u00eas Rios", "name": "Americanas", "name:pt": "Americanas", "shop": "convenience"}}, {"type": "node", "id": 4987422722, "lat": -22.9844266, "lon": -43.2046474, "tags": {"addr:housenumber": "303", "addr:street": "Rua Visconde de Piraj\u00e1", "name": "TECNOMEDI IPANEMA", "name:pt": "TECNOMEDI IPANEMA", "opening_hours": "Mo-Fr 08:30-18:30; Sa 08:30-13:00", "phone": "2122677209", "shop": "convenience"}}, {"type": "node", "id": 4987422723, "lat": -22.9394819, "lon": -43.3420511, "tags": {"addr:housenumber": "200 bl 1 loja B", "addr:street": "Estrada dos Tr\u00eas Rios", "name": "TECNOMEDI FREGUESIA", "name:pt": "TECNOMEDI FREGUESIA", "opening_hours": "Mo-Fr 08:30-18:30; Sa 08:30-13:00", "phone": "2134127627", "shop": "convenience"}}, {"type": "node", "id": 4987422724, "lat": -22.9037513, "lon": -43.2846522, "tags": {"addr:housenumber": "286", "addr:street": "Rua Dias da Cruz", "name": "TECNOMEDI M\u00c9IER", "name:pt": "TECNOMEDI M\u00c9IER", "opening_hours": "Mo-Fr 08:30-18:30; Sa 08:30-13:00", "phone": "2125973456", "shop": "convenience"}}, {"type": "node", "id": 4987422922, "lat": -22.7919409, "lon": -43.3114764, "tags": {"addr:housenumber": "95 A", "addr:street": "Rua Jos\u00e9 de Alvarenga", "name": "TECNOMEDI CAXIAS I", "name:pt": "TECNOMEDI CAXIAS I", "opening_hours": "Mo-Fr 09:00-21:00; Sa 09:00-13:00", "phone": "2126682472", "shop": "convenience"}}, {"type": "node", "id": 4987422923, "lat": -22.7888566, "lon": -43.3090032, "tags": {"addr:housenumber": "292", "addr:street": "Avenida Presidente Vargas", "name": "TECNOMEDI CAXIAS II", "name:pt": "TECNOMEDI CAXIAS II", "opening_hours": "Mo-Fr 09:00-18:30; Sa 09:00-13:00", "phone": "2137745573", "shop": "convenience"}}, {"type": "node", "id": 4987422924, "lat": -22.9545357, "lon": -43.1934189, "tags": {"addr:housenumber": "336", "addr:street": "Rua Volunt\u00e1rios da P\u00e1tria", "name": "TECNOMEDI BOTAFOGO", "opening_hours": "Mo-Fr 08:30-18:30; Sa 08:30-13:00", "phone": "2125377935", "shop": "convenience"}}, {"type": "node", "id": 4987423322, "lat": -22.9242546, "lon": -43.2345941, "tags": {"addr:housenumber": "445", "addr:street": "Rua Santo Afonso", "name": "TECNOMEDI TIJUCA", "name:pt": "TECNOMEDI TIJUCA", "opening_hours": "Mo-Fr 08:30-18:30; Sa 08:30-13:00", "phone": "2125672320", "shop": "convenience"}}, {"type": "node", "id": 4987423323, "lat": -22.8729204, "lon": -43.3388639, "tags": {"addr:housenumber": "99 loja 257", "addr:street": "Estrada do Portela", "name": "Tecnomedi Madureira", "opening_hours": "Mo-Fr 08:30-18:30; Sa 08:30-13:00", "phone": "+55 21 2489 9413", "shop": "convenience"}}, {"type": "node", "id": 5064997299, "lat": -22.9093953, "lon": -43.1855517, "tags": {"addr:city": "Rio de Janeiro", "addr:housename": "Loja", "addr:housenumber": "41", "addr:street": "Rua dos Inv\u00e1lidos", "addr:suburb": "Centro", "name": "Via Verde", "shop": "convenience"}}, {"type": "node", "id": 5110313418, "lat": -22.9110575, "lon": -43.3626569, "tags": {"shop": "convenience"}}, {"type": "node", "id": 5117257128, "lat": -23.0073147, "lon": -43.3120985, "tags": {"brand": "Shell", "name": "Select", "shop": "convenience", "toilets:wheelchair": "yes", "wheelchair": "limited"}}, {"type": "node", "id": 5142775776, "lat": -22.940487, "lon": -43.1974253, "tags": {"shop": "convenience"}}, {"type": "node", "id": 5168213228, "lat": -22.9859896, "lon": -43.4588566, "tags": {"shop": "convenience"}}, {"type": "node", "id": 5192646613, "lat": -23.0044688, "lon": -43.4267651, "tags": {"shop": "convenience"}}, {"type": "node", "id": 5238607632, "lat": -23.0033525, "lon": -43.3661076, "tags": {"name": "ampm", "shop": "convenience"}}, {"type": "node", "id": 5238607634, "lat": -22.9965813, "lon": -43.3557074, "tags": {"name": "ampm", "shop": "convenience"}}, {"type": "node", "id": 5241143054, "lat": -22.9752696, "lon": -43.2259546, "tags": {"name": "am/pm", "shop": "convenience"}}, {"type": "node", "id": 5243723099, "lat": -22.8494696, "lon": -43.337809, "tags": {"addr:city": "Rocha Miranda", "addr:housenumber": "369", "addr:street": "Rua Lageado", "name": "Mercearia Lageado", "shop": "convenience"}}, {"type": "node", "id": 5340834321, "lat": -22.8990915, "lon": -43.1800715, "tags": {"addr:city": "Rio de Janeiro", "addr:housenumber": "26", "addr:street": "Avenida Rio Branco", "addr:suburb": "Centro", "name": "Americanas express", "payment:cash": "yes", "payment:credit_cards": "yes", "payment:debit_cards": "yes", "shop": "convenience"}}, {"type": "node", "id": 5615988105, "lat": -22.9916799, "lon": -43.4446812, "tags": {"name": "Caf\u00e9 & Cia", "shop": "convenience"}}, {"type": "node", "id": 5680657691, "lat": -23.0100561, "lon": -43.3593827, "tags": {"brand": "ampm", "brand:wikidata": "Q306960", "brand:wikipedia": "en:Ampm", "name": "ampm", "shop": "convenience"}}, {"type": "node", "id": 5687989666, "lat": -22.9729598, "lon": -43.3693514, "tags": {"brand": "ampm", "brand:wikidata": "Q306960", "brand:wikipedia": "en:Ampm", "name": "ampm", "shop": "convenience"}}, {"type": "node", "id": 5720157508, "lat": -22.9738759, "lon": -43.3863806, "tags": {"name": "ampm", "shop": "convenience"}}, {"type": "node", "id": 5871807834, "lat": -22.86613, "lon": -43.3070496}, {"type": "node", "id": 5871807835, "lat": -22.8660838, "lon": -43.3069969}, {"type": "node", "id": 5871807836, "lat": -22.8661146, "lon": -43.306966}, {"type": "node", "id": 5871807837, "lat": -22.86613, "lon": -43.3069506}, {"type": "node", "id": 5871807838, "lat": -22.866181, "lon": -43.3069377}, {"type": "node", "id": 5871807846, "lat": -22.8661988, "lon": -43.3069686}, {"type": "node", "id": 5994248189, "lat": -22.8772249, "lon": -43.2722099, "tags": {"name": "LOTERIA - TIO PATINHAS", "opening_hours": "Mo-Su 09:00-20:00", "shop": "convenience"}}, {"type": "node", "id": 6201144330, "lat": -22.9404516, "lon": -43.1713101, "tags": {"branch": "Mania", "brand": "BR", "brand:wikidata": "Q4836468", "name": "BR", "shop": "convenience"}}, {"type": "node", "id": 6239044925, "lat": -22.8931382, "lon": -43.3491319, "tags": {"name": "Auto Posto Bittig", "shop": "convenience"}}, {"type": "node", "id": 6314867294, "lat": -22.9118679, "lon": -43.2024195, "tags": {"name": "Americanas Local", "shop": "convenience"}}, {"type": "node", "id": 6638792348, "lat": -22.9393515, "lon": -43.1768769, "tags": {"name": "Maguila", "shop": "convenience"}}, {"type": "node", "id": 6641838683, "lat": -22.9402128, "lon": -43.1783212, "tags": {"addr:city": "Rio de Janeiro", "addr:housenumber": "207", "addr:street": "Rua Marqu\u00eas de Abrantes", "addr:suburb": "Flamengo", "name": "Mei-jo", "payment:cash": "yes", "payment:debit_cards": "yes", "shop": "convenience"}}, {"type": "node", "id": 6725064068, "lat": -22.932473, "lon": -43.1818798}, {"type": "node", "id": 6725064069, "lat": -22.932579, "lon": -43.181839}, {"type": "node", "id": 6725064080, "lat": -22.9325252, "lon": -43.1817691}, {"type": "node", "id": 6725064081, "lat": -22.9324569, "lon": -43.181815}, {"type": "node", "id": 6725064082, "lat": -22.9324353, "lon": -43.1818606}, {"type": "node", "id": 7045493669, "lat": -22.860206, "lon": -43.350307}, {"type": "node", "id": 7045493676, "lat": -22.8600404, "lon": -43.3503645}, {"type": "node", "id": 7045493677, "lat": -22.8601369, "lon": -43.3502408}, {"type": "node", "id": 7045493678, "lat": -22.8601078, "lon": -43.3504295}, {"type": "node", "id": 7123541385, "lat": -22.9124273, "lon": -43.2107537, "tags": {"shop": "convenience"}}, {"type": "node", "id": 7171309031, "lat": -22.9493555, "lon": -43.1780709}, {"type": "node", "id": 7171309032, "lat": -22.9493821, "lon": -43.1779991}, {"type": "node", "id": 7171309033, "lat": -22.9493692, "lon": -43.1779568}, {"type": "node", "id": 7171309034, "lat": -22.9492949, "lon": -43.1779243}, {"type": "node", "id": 7171309035, "lat": -22.9492565, "lon": -43.1780276}, {"type": "node", "id": 7201716006, "lat": -22.9529873, "lon": -43.1836757, "tags": {"addr:city": "Rio de Janeiro", "addr:housenumber": "58", "addr:street": "Rua General Polidoro", "addr:suburb": "Botafogo", "brand": "Lojas Americanas", "name": "Americanas Local", "shop": "convenience"}}, {"type": "node", "id": 7201716011, "lat": -22.9547502, "lon": -43.1820902}, {"type": "node", "id": 7343676185, "lat": -22.972271, "lon": -43.6929352, "tags": {"addr:housenumber": "2626", "addr:street": "Rua Jos\u00e9 Fernandes", "name": "Amig\u00e3o de Sepetiba", "shop": "convenience"}}, {"type": "node", "id": 7679900132, "lat": -22.9231762, "lon": -43.2598825}, {"type": "node", "id": 7679900133, "lat": -22.9232838, "lon": -43.2598326}, {"type": "node", "id": 7679900134, "lat": -22.9231294, "lon": -43.2597638}, {"type": "node", "id": 7679900137, "lat": -22.923237, "lon": -43.2597139}, {"type": "node", "id": 8078008462, "lat": -22.932106, "lon": -43.1810232}, {"type": "node", "id": 8078008463, "lat": -22.9323099, "lon": -43.1809436}, {"type": "node", "id": 8078008464, "lat": -22.9322801, "lon": -43.1808383}, {"type": "node", "id": 8165913113, "lat": -22.9719626, "lon": -43.1873757, "tags": {"addr:city": "Rio de Janeiro", "addr:housenumber": "723", "addr:postcode": "22050-001", "addr:street": "Avenida Nossa Senhora de Copacabana", "addr:suburb": "Copacabana", "name": "Gr\u00e3o da terra", "opening_hours": "Mo-Sa 09:00-21:00", "phone": "+55 21 3298-2620", "shop": "convenience"}}, {"type": "node", "id": 8209946522, "lat": -22.8841002, "lon": -43.5701781}, {"type": "node", "id": 8209946531, "lat": -22.8842321, "lon": -43.5701973}, {"type": "node", "id": 8209946533, "lat": -22.8842693, "lon": -43.5702026}, {"type": "node", "id": 8209946536, "lat": -22.8843115, "lon": -43.5703165}, {"type": "node", "id": 8209946537, "lat": -22.8843147, "lon": -43.5702917}, {"type": "node", "id": 8209946538, "lat": -22.884325, "lon": -43.5702108}, {"type": "node", "id": 8209946539, "lat": -22.8842797, "lon": -43.5702042}, {"type": "node", "id": 8210032693, "lat": -22.8841188, "lon": -43.5699937}, {"type": "node", "id": 8210032694, "lat": -22.8841237, "lon": -43.5699736}, {"type": "node", "id": 8210032695, "lat": -22.8841274, "lon": -43.5699534}, {"type": "node", "id": 8210032696, "lat": -22.884141, "lon": -43.5699266}, {"type": "node", "id": 8210032697, "lat": -22.8842263, "lon": -43.5698475}, {"type": "node", "id": 8210032698, "lat": -22.8843128, "lon": -43.5697751}, {"type": "node", "id": 8210032699, "lat": -22.8843548, "lon": -43.5697523}, {"type": "node", "id": 8210032700, "lat": -22.8843795, "lon": -43.5697375}, {"type": "node", "id": 8210032701, "lat": -22.8843955, "lon": -43.5697362}, {"type": "node", "id": 8210032702, "lat": -22.8844165, "lon": -43.5697362}, {"type": "node", "id": 8210032703, "lat": -22.8844363, "lon": -43.5697389}, {"type": "node", "id": 8210032704, "lat": -22.8844573, "lon": -43.5697509}, {"type": "node", "id": 8210032705, "lat": -22.8844796, "lon": -43.5697764}, {"type": "node", "id": 8210032706, "lat": -22.8844993, "lon": -43.5698676}, {"type": "node", "id": 8210032707, "lat": -22.8845549, "lon": -43.5702203}, {"type": "node", "id": 8210032708, "lat": -22.8845586, "lon": -43.5703625}, {"type": "node", "id": 8394447041, "lat": -22.920073, "lon": -43.2346331}, {"type": "node", "id": 8394447042, "lat": -22.9199499, "lon": -43.2346756}, {"type": "node", "id": 8394447048, "lat": -22.9201361, "lon": -43.2346694}, {"type": "node", "id": 8394447049, "lat": -22.9200909, "lon": -43.2347558}, {"type": "node", "id": 8429492304, "lat": -22.8495731, "lon": -43.3082233, "tags": {"addr:housenumber": "999", "addr:street": "Avenida Vicente de Carvalho", "name": "Gir\u00e3o Gir\u00e3o Horti-Fruti", "opening_hours": "Mo-Sa 07:00-20:00; Su 07:00-13:00", "phone": "+55 21 3391 4940", "shop": "convenience"}}, {"type": "node", "id": 8429610724, "lat": -22.8469206, "lon": -43.3112994, "tags": {"addr:city": "Rio de Janeiro", "addr:housenumber": "1340", "addr:street": "Avenida Meriti", "addr:suburb": "Vila da Penha", "delivery": "yes", "name": "R\u00e3o Conveni\u00eancia", "phone": "+55 0800 000 1231", "shop": "convenience", "website": "https://raoconveniencia.com.br/"}}, {"type": "node", "id": 8430018335, "lat": -22.8400071, "lon": -43.3045621, "tags": {"name": "Mercadinho Tondela", "shop": "convenience"}}, {"type": "node", "id": 8431857853, "lat": -22.8405569, "lon": -43.3046933}, {"type": "node", "id": 8431857854, "lat": -22.8406078, "lon": -43.3046732}, {"type": "node", "id": 8431857855, "lat": -22.8405787, "lon": -43.3045838}, {"type": "node", "id": 8431857856, "lat": -22.8405682, "lon": -43.304575}, {"type": "node", "id": 8431857857, "lat": -22.8405521, "lon": -43.3045733}, {"type": "node", "id": 8431857858, "lat": -22.8405198, "lon": -43.3045934}, {"type": "node", "id": 8442611366, "lat": -22.8429306, "lon": -43.3082613, "tags": {"addr:city": "Rio de Janeiro", "addr:housenumber": "875C", "addr:postcode": "21221-300", "addr:street": "Rua Oliveira Belo", "addr:suburb": "Vila da Penha", "email": "mnboutiquedecarnes@gmail.com", "facebook": "https://www.facebook.com/mnboutiquede", "name": "MN Boutique de Carnes", "opening_hours": "Tu-Sa 10:00-19:00; Su 09:13:00", "phone": "+55 21 3586 6815", "shop": "convenience"}}, {"type": "node", "id": 8442758118, "lat": -22.8407121, "lon": -43.3061952, "tags": {"addr:city": "Rio de Janeiro", "addr:street": "Avenida Br\u00e1s de Pina", "addr:suburb": "Vila da Penha", "name": "Hortivila", "opening_hours": "Mo-Sa 07:00-20:00; Su 07:00-14:00", "shop": "convenience"}}, {"type": "node", "id": 8517826680, "lat": -22.8404291, "lon": -43.3019102, "tags": {"addr:city": "Rio de Janeiro", "addr:street": "Avenida Br\u00e1s de Pina", "addr:suburb": "Penha Circular", "name": "Mercadinho Transcosense", "shop": "convenience"}}, {"type": "node", "id": 8611578899, "lat": -22.8458258, "lon": -43.311863, "tags": {"addr:city": "Rio de Janeiro", "addr:suburb": "Vila da Penha", "name": "Hortifruti Pomar", "shop": "convenience"}}, {"type": "node", "id": 9218892269, "lat": -22.943228, "lon": -43.1766425}, {"type": "node", "id": 9218892270, "lat": -22.9432519, "lon": -43.1767545}, {"type": "node", "id": 9218892271, "lat": -22.9431786, "lon": -43.1767727}, {"type": "node", "id": 9218892272, "lat": -22.9431547, "lon": -43.1766607}, {"type": "node", "id": 9219478982, "lat": -22.9554869, "lon": -43.1898151}, {"type": "node", "id": 9219478983, "lat": -22.9555003, "lon": -43.1898542}, {"type": "node", "id": 9219478984, "lat": -22.9555056, "lon": -43.189911}, {"type": "node", "id": 9219478985, "lat": -22.9554994, "lon": -43.1899279}, {"type": "node", "id": 9219480912, "lat": -22.9554421, "lon": -43.1898196}, {"type": "node", "id": 9219480913, "lat": -22.9554468, "lon": -43.1898311}, {"type": "node", "id": 9219480914, "lat": -22.9554884, "lon": -43.1899332}, {"type": "node", "id": 9219480915, "lat": -22.9554253, "lon": -43.1899636}, {"type": "node", "id": 9219480916, "lat": -22.9553814, "lon": -43.1898461}, {"type": "node", "id": 9234244580, "lat": -22.9547213, "lon": -43.1821077}, {"type": "node", "id": 9234244582, "lat": -22.9546979, "lon": -43.1821467}, {"type": "node", "id": 9234244669, "lat": -22.9547077, "lon": -43.1821677}, {"type": "node", "id": 9234244670, "lat": -22.954773, "lon": -43.1821302}, {"type": "node", "id": 9234245975, "lat": -22.9546878, "lon": -43.1821522}, {"type": "node", "id": 9234247368, "lat": -22.9547115, "lon": -43.1820868}, {"type": "node", "id": 9234247369, "lat": -22.9546694, "lon": -43.182113}, {"type": "node", "id": 9278272217, "lat": -22.9049457, "lon": -43.1828999, "tags": {"name": "Kalunga", "shop": "convenience"}}, {"type": "node", "id": 9314257135, "lat": -22.8050531, "lon": -43.2099476}, {"type": "node", "id": 9314257136, "lat": -22.8050535, "lon": -43.2099763}, {"type": "node", "id": 9314257137, "lat": -22.8050091, "lon": -43.2099483}, {"type": "node", "id": 9616225867, "lat": -22.932484, "lon": -43.1817899}, {"type": "node", "id": 9616225868, "lat": -22.9324821, "lon": -43.1818046}, {"type": "node", "id": 9616225871, "lat": -22.9323776, "lon": -43.1819156}, {"type": "node", "id": 9616225872, "lat": -22.9323718, "lon": -43.1818869}, {"type": "node", "id": 9616225873, "lat": -22.9325522, "lon": -43.1817585}, {"type": "node", "id": 9663357922, "lat": -22.9168394, "lon": -43.1953065}, {"type": "node", "id": 9663357923, "lat": -22.9168488, "lon": -43.1954524}, {"type": "node", "id": 9663357933, "lat": -22.9167498, "lon": -43.1953295}, {"type": "node", "id": 9663357934, "lat": -22.9166946, "lon": -43.1953454}, {"type": "node", "id": 9663357935, "lat": -22.916715, "lon": -43.1955503}, {"type": "node", "id": 9663357936, "lat": -22.9167627, "lon": -43.1955395}, {"type": "node", "id": 9663357937, "lat": -22.916761, "lon": -43.1955115}, {"type": "node", "id": 9663357938, "lat": -22.9168406, "lon": -43.1955037}, {"type": "node", "id": 9663357939, "lat": -22.9168418, "lon": -43.195487}, {"type": "node", "id": 9663357940, "lat": -22.91685, "lon": -43.195487}, {"type": "node", "id": 9665678090, "lat": -22.9138163, "lon": -43.1667384, "tags": {"brand": "ampm", "brand:wikidata": "Q306960", "brand:wikipedia": "en:Ampm", "level": "0", "name": "ampm", "shop": "convenience"}}, {"type": "node", "id": 9688367161, "lat": -22.9103806, "lon": -43.5320458, "tags": {"name": "Avi\u00e1rio e mercadinho do Russo", "shop": "convenience"}}, {"type": "node", "id": 9688367165, "lat": -22.9115117, "lon": -43.5339131}, {"type": "node", "id": 9688367166, "lat": -22.9116006, "lon": -43.5338037}, {"type": "node", "id": 9688367167, "lat": -22.9114929, "lon": -43.5337054}, {"type": "node", "id": 9688367168, "lat": -22.9114289, "lon": -43.5338371}, {"type": "node", "id": 9688367169, "lat": -22.9114438, "lon": -43.533761}, {"type": "node", "id": 9688367170, "lat": -22.9114235, "lon": -43.5337963}, {"type": "node", "id": 9932259213, "lat": -22.9107769, "lon": -43.2168981}, {"type": "node", "id": 10054629802, "lat": -22.9526227, "lon": -43.387203, "tags": {"addr:city": "Rio de Janeiro", "addr:street": "Rua Do Dialogo", "addr:suburb": "curicica", "name": "Mercearia Sabel", "shop": "convenience"}}, {"type": "node", "id": 10115352100, "lat": -22.9167055, "lon": -43.1954482}, {"type": "node", "id": 10265640734, "lat": -22.9843005, "lon": -43.2014302, "tags": {"shop": "convenience"}}, {"type": "node", "id": 10284589602, "lat": -22.9136985, "lon": -43.1883578, "tags": {"name": "ArmaZen", "shop": "convenience"}}, {"type": "node", "id": 10552889680, "lat": -23.0058175, "lon": -43.3155949}, {"type": "node", "id": 10552889681, "lat": -23.0056845, "lon": -43.3157023}, {"type": "node", "id": 10552889682, "lat": -23.005642, "lon": -43.3156526}, {"type": "node", "id": 10552889683, "lat": -23.005761, "lon": -43.3155351}, {"type": "node", "id": 10751071368, "lat": -23.0026201, "lon": -43.3094893, "tags": {"name": "Mini Market Gigoia", "shop": "convenience"}}, {"type": "way", "id": 223611352, "nodes": [2324928356, 2324928303, 2324928284, 2324928362, 2324928356], "tags": {"building": "yes", "shop": "convenience", "source": "Bing"}}, {"type": "way", "id": 287756142, "nodes": [817602990, 2921321175, 2921321173, 2913253841, 2913253830, 2913253820, 2896981615, 817602990], "tags": {"shop": "convenience"}}, {"type": "way", "id": 287811991, "nodes": [2913773157, 1437137242, 2913773180, 2913773186, 2913773185, 2913773157], "tags": {"building": "yes", "shop": "convenience"}}, {"type": "way", "id": 287811999, "nodes": [2913773146, 2913773171, 2913773176, 2913773175, 2913773169, 2913773163, 2913773155, 2913773149, 2913773146], "tags": {"amenity": "fuel", "brand": "Ipiranga", "shop": "convenience"}}, {"type": "way", "id": 287813124, "nodes": [2913788887, 2913789801, 2913789811, 2913789809, 2913788887], "tags": {"amenity": "fuel", "brand": "Ipiranga", "brand:wikidata": "Q2081136", "brand:wikipedia": "pt:Ipiranga (empresa)", "operator": "Ipiranga", "shop": "convenience"}}, {"type": "way", "id": 288109606, "nodes": [2916517821, 9932259213, 2916517832, 2916517831, 2916517819, 2916517821], "tags": {"building": "yes", "shop": "convenience"}}, {"type": "way", "id": 290100963, "nodes": [2936376865, 2936376867, 2936376862, 2936376858, 2936376865], "tags": {"building": "yes", "shop": "convenience"}}, {"type": "way", "id": 294684620, "nodes": [2982804233, 2982804433, 2982804034, 2982803834, 2982804233], "tags": {"building": "yes", "shop": "convenience"}}, {"type": "way", "id": 294715509, "nodes": [2983242033, 2983242133, 2983241536, 2983242134, 2983242033], "tags": {"building": "yes", "shop": "convenience"}}, {"type": "way", "id": 295170226, "nodes": [2988653293, 2988653286, 2988653295, 2988653296, 2988653293], "tags": {"brand": "ampm", "brand:wikidata": "Q306960", "brand:wikipedia": "en:Ampm", "building": "yes", "name": "ampm", "shop": "convenience"}}, {"type": "way", "id": 316749629, "nodes": [3229166461, 3229166462, 3229166463, 3229166464, 3229166465, 3229166466, 3229166461], "tags": {"building": "yes", "shop": "convenience"}}, {"type": "way", "id": 318432323, "nodes": [3248372101, 3248372102, 3248372103, 3248372104, 3248372101], "tags": {"building": "yes", "shop": "convenience"}}, {"type": "way", "id": 326149114, "nodes": [3327632711, 2917450758, 3327632713, 3327632714, 3327632711], "tags": {"amenity": "fuel", "brand": "Shell", "brand:wikidata": "Q110716465", "building": "yes", "fuel:cng": "yes", "fuel:diesel": "yes", "fuel:octane_92": "yes", "name": "Shell", "shop": "convenience"}}, {"type": "way", "id": 332470206, "nodes": [3396080696, 3396080697, 3396080698, 3396080699, 3396080696], "tags": {"brand": "ampm", "brand:wikidata": "Q306960", "brand:wikipedia": "en:Ampm", "building": "yes", "name": "ampm", "shop": "convenience"}}, {"type": "way", "id": 332625396, "nodes": [3397739129, 3397739128, 3397739123, 3397739127, 3397739119, 3397739124, 3397739130, 3397739132, 3397739131, 3397739133, 3397739134, 3397739129], "tags": {"building": "yes", "shop": "convenience"}}, {"type": "way", "id": 339423183, "nodes": [3466168695, 1358495055, 3466168696, 3466168697, 3466168695], "tags": {"building": "yes", "name": "Select", "operator": "Shell", "shop": "convenience"}}, {"type": "way", "id": 376043851, "nodes": [3793895578, 3793895582, 3793895589, 3793895581, 3793895578], "tags": {"building": "commercial", "shop": "convenience"}}, {"type": "way", "id": 431870802, "nodes": [4311017099, 4311017100, 4311017101, 4311017102, 4311017099], "tags": {"building": "yes", "shop": "convenience"}}, {"type": "way", "id": 453125528, "nodes": [2962123171, 4499237656, 4499237655, 4499237654, 2962123171], "tags": {"building": "yes", "shop": "convenience"}}, {"type": "way", "id": 464541451, "nodes": [4596419946, 4596419947, 4596419948, 4596419949, 4596419946], "tags": {"addr:city": "Rio de Janeiro", "addr:housenumber": "2300", "addr:street": "Avenida Embaixador Abelardo Bueno", "building": "yes", "name": "BR Mania", "opening_hours": "24/7", "shop": "convenience"}}, {"type": "way", "id": 621573096, "nodes": [5871807834, 5871807846, 5871807838, 5871807837, 5871807836, 5871807835, 5871807834], "tags": {"building": "yes", "shop": "convenience"}}, {"type": "way", "id": 754143751, "nodes": [7045493676, 7045493677, 7045493669, 7045493678, 7045493676], "tags": {"building": "yes", "shop": "convenience"}}, {"type": "way", "id": 768067615, "nodes": [7171309031, 7171309032, 7171309033, 7171309034, 7171309035, 7171309031], "tags": {"brand": "Shell", "brand:wikidata": "Q110716465", "brand:wikipedia": "en:Royal Dutch Shell", "building": "yes", "name": "Shell", "shop": "convenience"}}, {"type": "way", "id": 822497961, "nodes": [7679900132, 7679900133, 7679900137, 7679900134, 7679900132], "tags": {"building": "yes", "shop": "convenience"}}, {"type": "way", "id": 866656621, "nodes": [8078008462, 8078008463, 8078008464, 3266080933, 8078008462], "tags": {"addr:city": "Rio de Janeiro", "addr:street": "Rua das Laranjeiras", "addr:suburb": "Laranjeiras", "building": "yes", "name": "Lojas Americanas", "shop": "convenience"}}, {"type": "way", "id": 882820660, "nodes": [8210032708, 8210032707, 3016654569, 8210032706, 8210032705, 8210032704, 8210032703, 8210032702, 8210032701, 8210032700, 8210032699, 8210032698, 8210032697, 8210032696, 8210032695, 8210032694, 8210032693, 8209946522, 8209946531, 8209946533, 8209946539, 8209946538, 8209946537, 8209946536, 8210032708], "tags": {"amenity": "fuel", "fuel:cng": "yes", "fuel:diesel": "yes", "fuel:ethanol": "yes", "fuel:octane_87": "yes", "name": "Posto 500", "opening_hours": "24/7", "shop": "convenience"}}, {"type": "way", "id": 903852370, "nodes": [8394447049, 8394447042, 8394447041, 8394447048, 8394447049], "tags": {"brand": "Shell Select", "brand:wikidata": "Q110716465", "building": "yes", "name": "Shell Select", "shop": "convenience"}}, {"type": "way", "id": 908066700, "nodes": [8431857853, 8431857854, 8431857855, 8431857856, 8431857857, 8431857858, 8431857853], "tags": {"building": "yes", "name": "EntrePosto", "shop": "convenience"}}, {"type": "way", "id": 998441484, "nodes": [9218892272, 9218892271, 9218892270, 9218892269, 9218892272], "tags": {"IPP:CodEdificio": "1589064", "building": "yes", "ele": "2.39", "height": "3.95", "shop": "convenience", "source": "data.rio"}}, {"type": "way", "id": 998511970, "nodes": [9219480916, 9219480915, 9219480914, 9219478985, 9219478984, 2000100483, 9219478983, 9219478982, 9219480913, 9219480912, 9219480916], "tags": {"IPP:CodEdificio": "1581592", "building": "yes", "ele": "3.24", "height": "3.64", "shop": "convenience", "source": "data.rio"}}, {"type": "way", "id": 1000399416, "nodes": [9234247369, 9234245975, 9234244582, 9234244669, 9234244670, 7201716011, 9234244580, 9234247368, 9234247369], "tags": {"IPP:CodEdificio": "2172346", "addr:city": "Rio de Janeiro", "addr:housenumber": "32", "addr:street": "Rua Arnaldo Quintela", "addr:suburb": "Botafogo", "brand": "Lojas Americanas", "building": "yes", "ele": "2.68", "height": "8.57", "name": "Americanas Local", "shop": "convenience", "source": "data.rio"}}, {"type": "way", "id": 1009476951, "nodes": [9314257137, 452638362, 9314257136, 9314257135, 9314257137], "tags": {"IPP:CodEdificio": "2270321", "building": "yes", "ele": "18.96", "height": "2.79", "name": "Stop Shop", "shop": "convenience", "source": "data.rio"}}, {"type": "way", "id": 1045347138, "nodes": [6725064069, 6725064068, 9616225871, 9616225872, 6725064082, 6725064081, 9616225868, 9616225867, 6725064080, 9616225873, 6725064069], "tags": {"building": "yes", "shop": "convenience"}}, {"type": "way", "id": 1051537748, "nodes": [9663357933, 9663357934, 10115352100, 9663357935, 9663357936, 9663357937, 9663357933], "tags": {"addr:housenumber": "3", "addr:street": "Rua do Catumbi, 94", "building": "yes", "shop": "convenience"}}, {"type": "way", "id": 1051537749, "nodes": [9663357922, 9663357933, 9663357937, 9663357938, 9663357939, 9663357940, 9663357923, 9663357922], "tags": {"building": "yes", "shop": "convenience"}}, {"type": "way", "id": 1054248947, "nodes": [9688367165, 9688367166, 9688367167, 9688367169, 9688367170, 9688367168, 9688367165], "tags": {"building": "yes", "name": "Mercadinho Zeca Russo", "shop": "convenience"}}, {"type": "way", "id": 1131779045, "nodes": [10552889680, 10552889681, 10552889682, 10552889683, 10552889680], "tags": {"building": "yes", "shop": "convenience"}}]}