{"version": 0.6, "generator": "Overpass API 0.7.60 f4c14d41", "osm3s": {"timestamp_osm_base": "2023-05-02T21:16:21Z", "copyright": "The data included in this document is from www.openstreetmap.org. The data is made available under ODbL."}, "elements": [{"type": "node", "id": 4580089772, "lat": 41.0782303, "lon": 29.0099356, "tags": {"amenity": "ice_cream", "brand": "Pinkberry", "brand:wikidata": "Q2904053", "brand:wikipedia": "en:Pinkberry", "cuisine": "frozen_yogurt", "name": "Pinkberry", "takeaway": "yes"}}, {"type": "node", "id": 6334116588, "lat": 41.1174912, "lon": 29.0640895, "tags": {"amenity": "ice_cream", "name:en": "Girandola"}}, {"type": "node", "id": 7529750253, "lat": 41.1187169, "lon": 29.0673217, "tags": {"addr:city": "istanbul", "addr:district": "sar\u0131yer", "addr:housenumber": "No:126", "addr:neighbourhood": "Yenik\u00f6y mahallesi", "addr:street": "K\u00f6yba\u015f\u0131 Caddesi", "amenity": "ice_cream", "delivery": "yes", "name": "MUA Gelatieri d'italia", "opening_hours": "Mo-Su 11:00-00:00", "outdoor_seating": "yes", "phone": "+90 (212) 299 84 84"}}, {"type": "node", "id": 7542045640, "lat": 41.0845288, "lon": 29.0563907, "tags": {"addr:city": "istanbul", "addr:district": "sar\u0131yer", "addr:housenumber": "No:36", "addr:neighbourhood": "rumeli hisar\u0131 mahallesi", "addr:street": "Yahya Kemal Caddesi", "amenity": "ice_cream", "description": "Evcil hayvanlara izin verilir", "internet_access": "yes", "internet_access:fee": "no", "name": "Thai Roll Ice", "opening_hours": "Mo-Su 11:30-00:30", "phone": "0535 353 90 87", "website": "thairollice.com", "wheelchair": "no"}}, {"type": "node", "id": 7542268290, "lat": 41.078467, "lon": 29.0449268, "tags": {"addr:city": "\u0130stanbul", "addr:district": "Be\u015fikta\u015f", "addr:housenumber": "No:58", "addr:neighbourhood": "Bebek", "addr:street": "Cevdetpa\u015fa Caddesi", "amenity": "ice_cream", "name": "G\u00fcne\u015f Dondurma& Waffle", "opening_hours": "Mo-Su 09:00-03:00", "opening_hours:covid19": "open", "outdoor_seating": "yes", "payment:cash": "yes", "payment:credit_cards": "yes", "phone": "0212 263 27 70", "website": "https://instagram.com/guneswaffle"}}, {"type": "node", "id": 7552238652, "lat": 41.0761292, "lon": 29.0429443, "tags": {"addr:city": "\u0130stanbul", "addr:district": "Be\u015fikta\u015f", "addr:housenumber": "No:43/D", "addr:neighbourhood": "Bebek", "addr:street": "Cevdetpa\u015fa Caddesi", "amenity": "ice_cream", "name": "cremeria MILANO", "opening_hours": "Mo-Su 12:00-23:00", "outdoor_seating": "yes", "payment:cash": "yes", "payment:credit_cards": "yes", "website": "cremeriamilano.com"}}, {"type": "node", "id": 7553183588, "lat": 41.0677682, "lon": 29.045367, "tags": {"addr:city": "\u0130stanbul", "addr:district": "Be\u015fikta\u015f", "addr:housenumber": "No:109", "addr:neighbourhood": "Arnavutk\u00f6y", "addr:street": "Bebek Arnavutk\u00f6y Caddesi", "amenity": "ice_cream", "delivery": "yes", "internet_access": "yes", "name": "Girandola", "opening_hours": "Mo-Su 10:00-00:30", "opening_hours:covid19": "open", "outdoor_seating": "yes", "phone": "0212 265 26 29", "website": "girandola.com.tr"}}, {"type": "node", "id": 7568766034, "lat": 41.051707, "lon": 28.9911839, "tags": {"addr:city": "\u0130stanbul", "addr:district": "\u015ei\u015fli", "addr:housenumber": "No:95", "addr:neighbourhood": "Halaskargazi Mahallesi", "addr:postcode": "34371", "addr:street": "Valikona\u011f\u0131 Caddesi", "amenity": "ice_cream", "delivery": "yes", "description": "Dondurma d\u0131\u015f\u0131nda kahvalt\u0131, hamur i\u015fi, \u00e7e\u015fitli tatl\u0131lar, kahve sat\u0131\u015flar\u0131 da mevcuttur.", "internet_access": "yes", "name": "Bolulu Hasan Usta", "opening_hours": "Mo-Su 08:00-24:00", "outdoor_seating": "yes", "payment:cash": "yes", "payment:credit_cards": "yes", "payment:yemek_kartlar\u0131": "yes", "phone": "0212 291 80 77", "website": "bhu.com.tr"}}, {"type": "node", "id": 7739054097, "lat": 41.219973, "lon": 29.0349284, "tags": {"addr:city": "\u0130stanbul", "addr:district": "Sar\u0131yer", "addr:housenumber": "5", "addr:neighbourhood": "Uskumruk\u00f6y Mahallesi", "addr:postcode": "34450", "addr:street": "Sultanotu Sokak", "amenity": "ice_cream", "name": "Hugs Dondurma", "opening_hours": "Mo-Su 11:00-23:00", "website": "https://www.hugsdondurma.com/"}}, {"type": "node", "id": 9553815928, "lat": 41.16845, "lon": 29.056357, "tags": {"amenity": "ice_cream", "name": "Me\u015fhur B\u00fcy\u00fckdere Dondurmac\u0131s\u0131"}}, {"type": "node", "id": 10054488460, "lat": 41.2071292, "lon": 29.1318903, "tags": {"amenity": "ice_cream"}}]}