{"version": 0.6, "generator": "Overpass API 0.7.60 f4c14d41", "osm3s": {"timestamp_osm_base": "2023-05-02T21:20:24Z", "copyright": "The data included in this document is from www.openstreetmap.org. The data is made available under ODbL."}, "elements": [{"type": "node", "id": 1447439095, "lat": 41.9224928, "lon": 12.4386655, "tags": {"shop": "alcohol"}}, {"type": "node", "id": 1507325149, "lat": 41.9103347, "lon": 12.6535065, "tags": {"name": "Enoteca", "shop": "alcohol"}}, {"type": "node", "id": 1641654346, "lat": 41.9284115, "lon": 12.522887, "tags": {"shop": "alcohol"}}, {"type": "node", "id": 1641654376, "lat": 41.9308737, "lon": 12.5188542, "tags": {"shop": "alcohol"}}, {"type": "node", "id": 1720368246, "lat": 41.9348224, "lon": 12.4421792, "tags": {"description": "Enoteca", "shop": "alcohol"}}, {"type": "node", "id": 1770257964, "lat": 41.923284, "lon": 12.4456842, "tags": {"addr:housenumber": "419a", "addr:street": "Viale delle Medaglie d'Oro", "name": "Vinoteca Belsito", "shop": "alcohol"}}, {"type": "node", "id": 1827735253, "lat": 41.7779842, "lon": 12.3427713, "tags": {"addr:housenumber": "36/b", "addr:street": "Via Francesco Donati", "name": "Il cantinore", "shop": "alcohol"}}, {"type": "node", "id": 2627732060, "lat": 41.9090384, "lon": 12.4762126, "tags": {"addr:housenumber": "19/20", "name": "Buccone Enoteca", "phone": "+39 06 3612154", "shop": "alcohol", "source": "Bing, Local knowledge", "website": "http://www.enotecabuccone.com", "wheelchair": "limited"}}, {"type": "node", "id": 2662956853, "lat": 41.8627792, "lon": 12.5507928, "tags": {"addr:city": "Roma", "addr:country": "IT", "addr:housenumber": "904", "addr:postcode": "00174", "addr:street": "Via Tuscolana", "name": "Enoteca Bomprezzi", "phone": "+39 06 7610135", "shop": "alcohol", "website": "http://www.enotecatuscolana.it/"}}, {"type": "node", "id": 2663050782, "lat": 41.884593, "lon": 12.5103197, "tags": {"addr:city": "Roma", "addr:housenumber": "4", "addr:postcode": "00183", "addr:street": "Via Veio", "drink": "beer", "name": "Off License", "shop": "alcohol"}}, {"type": "node", "id": 2773352696, "lat": 41.8977958, "lon": 12.4673444, "tags": {"addr:housenumber": "14", "addr:street": "Via dei Banchi Vecchi", "amenity": "restaurant", "cuisine": "italian", "name": "Il Goccetto", "phone": "+39 06 686 4268", "shop": "alcohol", "smoking": "no", "source": "Bing, Local knowledge"}}, {"type": "node", "id": 3061568278, "lat": 41.9012758, "lon": 12.4847969, "tags": {"addr:city": "Roma", "addr:housenumber": "26", "addr:postcode": "00186", "addr:street": "Via del Lavatore", "name": "Enoteca", "shop": "alcohol"}}, {"type": "node", "id": 3368413646, "lat": 41.8674613, "lon": 12.4906199, "tags": {"addr:housenumber": "219", "addr:street": "Circonvallazione Ostiense", "name": "Enoteca Virdis", "operator": "Virdis Pierfrancesco", "phone": "+39 06 5746039", "ref:vatin": "IT12748991002", "shop": "alcohol"}}, {"type": "node", "id": 3656863067, "lat": 41.8812416, "lon": 12.4759054, "tags": {"addr:housenumber": "44", "addr:postcode": "00153", "addr:street": "Via Giovanni Branca", "email": "info@gradiplato.it", "name": "Gradiplato", "note": "only beer", "phone": "+39 06 87755419", "shop": "alcohol", "website": "http://www.gradiplato.it"}}, {"type": "node", "id": 3661055089, "lat": 41.9270205, "lon": 12.5104214, "tags": {"name": "Enoteca Arcioni", "shop": "alcohol"}}, {"type": "node", "id": 4575549716, "lat": 41.8787679, "lon": 12.4779278, "tags": {"addr:city": "Roma", "addr:housenumber": "24", "addr:postcode": "00153", "addr:street": "Via Luca della Robbia", "name": "Enoteca Bernabei", "phone": "+39 06 57287464", "shop": "alcohol", "website": "https://www.bernabei.it/"}}, {"type": "node", "id": 4677185594, "lat": 41.8615289, "lon": 12.4552242, "tags": {"addr:city": "Roma", "addr:housenumber": "23", "addr:street": "Via Gaetano Rappini", "name": "L'acino che vola", "shop": "alcohol"}}, {"type": "node", "id": 5067052022, "lat": 41.8992278, "lon": 12.4717828, "tags": {"addr:housenumber": "8", "addr:street": "Via di Tor Millina", "name": "Liquori e Pasta", "shop": "alcohol"}}, {"type": "node", "id": 5269741725, "lat": 41.8863168, "lon": 12.4685857, "tags": {"name": "Les Vignerons", "shop": "alcohol"}}, {"type": "node", "id": 5367747521, "lat": 41.8629768, "lon": 12.4848123, "tags": {"name": "La Mescita", "shop": "alcohol"}}, {"type": "node", "id": 5458000922, "lat": 41.945475, "lon": 12.5313144, "tags": {"addr:housenumber": "305", "addr:street": "Viale Jonio", "name": "Organic%L", "shop": "alcohol"}}, {"type": "node", "id": 5486069751, "lat": 41.9180995, "lon": 12.4391487, "tags": {"name": "Consoli", "shop": "alcohol"}}, {"type": "node", "id": 5826794985, "lat": 41.8981639, "lon": 12.4706772, "tags": {"drink:wine": "yes", "name": "Guerrini Enoteche", "shop": "alcohol"}}, {"type": "node", "id": 6065480468, "lat": 41.8979149, "lon": 12.5169739, "tags": {"addr:housenumber": "131", "addr:street": "Via dei Sabelli", "name": "Vina della cantina", "opening_hours": "Mo-Th 10:00-13:30, 16:00-22:00; Fr, Sa 10:30-13:30, 16:00-00:00", "shop": "alcohol"}}, {"type": "node", "id": 8251208672, "lat": 42.0830803, "lon": 12.2834244, "tags": {"addr:city": "Anguillara Sabazia", "addr:housenumber": "47", "addr:postcode": "00061", "addr:street": "Via Anguillarese", "drive_through": "no", "facebook": "https://it-it.facebook.com/Papi-vini-e-distillati-314977252024762/", "name": "Papi Vini e Distillati", "opening_hours": "Mo-Sa 08:30-13:00, 15:30-19:00", "opening_hours:covid19": "same", "payment:cash": "yes", "payment:credit_cards": "yes", "phone": "+39069995254", "shop": "alcohol"}}, {"type": "node", "id": 8833503091, "lat": 41.9234291, "lon": 12.4262177, "tags": {"addr:housenumber": "35", "addr:street": "Via Vittorio Montiglio", "email": "piso35bistrot@gmail.com", "mobile": "+39 389 001 0754", "name": "Piso 35 Pub & Beer Bakery", "opening_hours": "Mo-Fr 11:30-22:00; Sa-Su 09:00-22:00;", "phone": "+39 06 8923 7996", "shop": "alcohol"}}, {"type": "node", "id": 9010332374, "lat": 41.80786, "lon": 12.2967531, "tags": {"contact:email": "fiumicino@doreca.it", "name": "Doreca", "opening_hours": "Mo-Su 10:00-21:00", "phone": "+393407093763", "shop": "alcohol", "website": "https://www.doreca.it/online/page.xhtml?contenuto=store&cn=fiumicino"}}, {"type": "node", "id": 9492173197, "lat": 41.7236941, "lon": 12.6085449, "tags": {"name": "Malto Da Legare", "shop": "alcohol"}}, {"type": "node", "id": 10816630305, "lat": 41.9095445, "lon": 12.5425039, "tags": {"name": "Vineria", "name:en": "Wine shop", "shop": "alcohol"}}]}