{"version": 0.6, "generator": "Overpass API 0.7.60 f4c14d41", "osm3s": {"timestamp_osm_base": "2023-05-02T21:14:21Z", "copyright": "The data included in this document is from www.openstreetmap.org. The data is made available under ODbL."}, "elements": [{"type": "node", "id": 292568789, "lat": 40.9779393, "lon": 28.7020436, "tags": {"amenity": "atm"}}, {"type": "node", "id": 795612976, "lat": 40.9886854, "lon": 28.8459187, "tags": {"amenity": "atm", "name": "Atrium AVM", "name:ar": "\u0635\u0631\u0627\u0641 \u0627\u062a\u0631\u064a\u0648\u0645 \u0628\u0646\u0643"}}, {"type": "node", "id": 1654299806, "lat": 40.9797473, "lon": 28.7408616, "tags": {"amenity": "atm", "fee": "Akbank ATM", "name:ar": "\u0635\u0631\u0627\u0641 \u0628\u0646\u0643 \u0627\u0643", "operator": "AK Bankas\u0131"}}, {"type": "node", "id": 2278156998, "lat": 41.0040693, "lon": 28.6256241, "tags": {"amenity": "atm", "brand": "Ziraat Bankas\u0131", "brand:wikidata": "Q696003", "name": "Ziraat Bankas\u0131", "operator": "Ziraat Bankas\u0131", "operator:wikidata": "Q696003"}}, {"type": "node", "id": 2278157191, "lat": 41.0041762, "lon": 28.6256238, "tags": {"amenity": "atm", "brand": "T\u00fcrkiye \u0130\u015f Bankas\u0131", "brand:wikidata": "Q909613", "name": "T\u00fcrkiye \u0130\u015f Bankas\u0131", "operator": "T\u00fcrkiye \u0130\u015f Bankas\u0131", "operator:wikidata": "Q909613"}}, {"type": "node", "id": 2278157633, "lat": 41.0039802, "lon": 28.6256404, "tags": {"amenity": "atm", "brand": "TEB", "brand:wikidata": "Q7862447", "name": "TEB", "operator": "TEB", "operator:wikidata": "Q7862447"}}, {"type": "node", "id": 2278157649, "lat": 41.0042634, "lon": 28.62556, "tags": {"amenity": "atm", "brand": "HSBC", "brand:wikidata": "Q190464", "name": "HSBC", "operator": "HSBC", "operator:wikidata": "Q190464"}}, {"type": "node", "id": 2278157695, "lat": 41.0050263, "lon": 28.6261334, "tags": {"amenity": "atm", "brand": "ING", "brand:wikidata": "Q645708", "name": "ING", "operator": "ING", "operator:wikidata": "Q645708"}}, {"type": "node", "id": 2282172081, "lat": 41.0113088, "lon": 28.655794, "tags": {"amenity": "atm", "brand": "QNB Finansbank", "brand:wikidata": "Q1416237", "brand:wikipedia": "en:QNB Finansbank", "name": "QNB Finansbank", "operator": "QNB Finansbank", "operator:wikidata": "Q1416237", "operator:wikipedia": "en:QNB Finansbank"}}, {"type": "node", "id": 2282172168, "lat": 41.0113715, "lon": 28.655845, "tags": {"amenity": "atm", "brand": "HSBC", "brand:wikidata": "Q190464", "brand:wikipedia": "en:HSBC", "name": "HSBC", "operator": "HSBC", "operator:wikidata": "Q190464", "operator:wikipedia": "en:HSBC"}}, {"type": "node", "id": 2282172196, "lat": 41.0114418, "lon": 28.6558973, "tags": {"amenity": "atm", "brand": "Yap\u0131 Kredi", "brand:wikidata": "Q8049138", "brand:wikipedia": "en:Yap\u0131 Kredi", "name": "Yap\u0131 Kredi", "operator": "Yap\u0131 Kredi", "operator:wikidata": "Q8049138", "operator:wikipedia": "en:Yap\u0131 Kredi"}}, {"type": "node", "id": 2282172541, "lat": 41.011492, "lon": 28.6559388, "tags": {"amenity": "atm", "brand": "TEB", "brand:wikidata": "Q7862447", "brand:wikipedia": "en:T\u00fcrk Ekonomi Bankas\u0131", "name": "TEB", "operator": "TEB", "operator:wikidata": "Q7862447", "operator:wikipedia": "en:T\u00fcrk Ekonomi Bankas\u0131"}}, {"type": "node", "id": 2282172590, "lat": 41.0115436, "lon": 28.6559791, "tags": {"amenity": "atm", "brand": "Denizbank", "brand:wikidata": "Q1115064", "brand:wikipedia": "en:DenizBank", "name": "Denizbank", "operator": "Denizbank", "operator:wikidata": "Q1115064", "operator:wikipedia": "en:DenizBank"}}, {"type": "node", "id": 2282172686, "lat": 41.0112714, "lon": 28.6557617, "tags": {"amenity": "atm", "operator": "Ziraat"}}, {"type": "node", "id": 2282172885, "lat": 41.011577, "lon": 28.6560072, "tags": {"amenity": "atm", "operator": "BankAsya"}}, {"type": "node", "id": 2282172896, "lat": 41.0116185, "lon": 28.6560327, "tags": {"amenity": "atm", "brand": "T\u00fcrkiye \u0130\u015f Bankas\u0131", "brand:wikidata": "Q909613", "brand:wikipedia": "en:\u0130\u015fbank", "name": "T\u00fcrkiye \u0130\u015f Bankas\u0131", "operator": "T\u00fcrkiye \u0130\u015f Bankas\u0131", "operator:wikidata": "Q909613", "operator:wikipedia": "en:\u0130\u015fbank"}}, {"type": "node", "id": 2342490804, "lat": 40.9949073, "lon": 28.8701766, "tags": {"amenity": "atm", "brand": "T\u00fcrkiye \u0130\u015f Bankas\u0131", "brand:wikidata": "Q909613", "name": "T\u00fcrkiye \u0130\u015f Bankas\u0131", "operator": "T\u00fcrkiye \u0130\u015f Bankas\u0131", "operator:wikidata": "Q909613"}}, {"type": "node", "id": 2542960323, "lat": 40.9782372, "lon": 28.8197932, "tags": {"amenity": "atm", "opening_hours": "24/7", "operator": "alBaraka", "payment:bitcoin": "yes"}}, {"type": "node", "id": 3195164121, "lat": 41.0011543, "lon": 28.8704769, "tags": {"amenity": "atm", "brand": "TEB", "brand:wikidata": "Q7862447", "name": "TEB", "operator": "TEB", "operator:wikidata": "Q7862447"}}, {"type": "node", "id": 3280225763, "lat": 41.0405423, "lon": 28.7897151, "tags": {"amenity": "atm"}}, {"type": "node", "id": 3305604963, "lat": 41.049284, "lon": 28.931006, "tags": {"amenity": "atm", "brand": "Kuveyt T\u00fcrk", "brand:wikidata": "Q6036058", "brand:wikipedia": "tr:Kuveyt T\u00fcrk", "name": "Kuveyt T\u00fcrk", "operator": "Kuveyt T\u00fcrk", "operator:wikidata": "Q6036058", "operator:wikipedia": "tr:Kuveyt T\u00fcrk"}}, {"type": "node", "id": 3305658162, "lat": 41.049384, "lon": 28.9309, "tags": {"amenity": "atm", "name": "Al Baraka"}}, {"type": "node", "id": 3305663161, "lat": 41.049184, "lon": 28.931312, "tags": {"amenity": "atm", "brand": "HSBC", "brand:wikidata": "Q190464", "brand:wikipedia": "en:HSBC", "name": "HSBC", "operator": "HSBC", "operator:wikidata": "Q190464", "operator:wikipedia": "en:HSBC"}}, {"type": "node", "id": 3305665962, "lat": 41.048783, "lon": 28.931405, "tags": {"amenity": "atm", "brand": "Vak\u0131fbank", "brand:wikidata": "Q1148521", "brand:wikipedia": "en:Vak\u0131fBank", "name": "Vak\u0131fbank", "operator": "Vak\u0131fbank", "operator:wikidata": "Q1148521", "operator:wikipedia": "en:Vak\u0131fBank"}}, {"type": "node", "id": 3499007598, "lat": 41.0268962, "lon": 28.9387735, "tags": {"amenity": "atm", "name": "ATM", "wheelchair": "yes"}}, {"type": "node", "id": 3968165745, "lat": 40.9633001, "lon": 28.8386764, "tags": {"amenity": "atm", "brand": "ING", "brand:wikidata": "Q645708", "name": "ING", "operator": "ING", "operator:wikidata": "Q645708"}}, {"type": "node", "id": 4114125890, "lat": 40.9641083, "lon": 28.8364562, "tags": {"amenity": "atm"}}, {"type": "node", "id": 4114125891, "lat": 40.9644259, "lon": 28.8379108, "tags": {"amenity": "atm", "brand": "HSBC", "brand:wikidata": "Q190464", "name": "HSBC", "operator": "HSBC", "operator:wikidata": "Q190464"}}, {"type": "node", "id": 4114125894, "lat": 40.9637431, "lon": 28.8386566, "tags": {"amenity": "atm", "name": "Burgan Bank"}}, {"type": "node", "id": 4114125895, "lat": 40.9643743, "lon": 28.8380139, "tags": {"amenity": "atm"}}, {"type": "node", "id": 4114125896, "lat": 40.9646292, "lon": 28.8371151, "tags": {"amenity": "atm", "brand": "Odeabank", "brand:wikidata": "Q6036742", "name": "Odeabank", "operator": "Odeabank", "operator:wikidata": "Q6036742"}}, {"type": "node", "id": 4114125897, "lat": 40.9621338, "lon": 28.8412883, "tags": {"amenity": "atm"}}, {"type": "node", "id": 4114125898, "lat": 40.9643168, "lon": 28.8381253, "tags": {"amenity": "atm"}}, {"type": "node", "id": 4114125899, "lat": 40.9645864, "lon": 28.8371814, "tags": {"amenity": "atm", "name": "Bankamatik"}}, {"type": "node", "id": 4114125900, "lat": 40.9635345, "lon": 28.8393193, "tags": {"amenity": "atm", "brand": "QNB Finansbank", "brand:wikidata": "Q1416237", "name": "QNB Finansbank", "operator": "QNB Finansbank", "operator:wikidata": "Q1416237"}}, {"type": "node", "id": 4114125902, "lat": 40.9638938, "lon": 28.8384117, "tags": {"amenity": "atm", "brand": "Akbank", "brand:wikidata": "Q416624", "name": "Akbank", "operator": "Akbank", "operator:wikidata": "Q416624"}}, {"type": "node", "id": 4146392290, "lat": 41.0116966, "lon": 28.6497236, "tags": {"amenity": "atm", "opening_hours": "24/7"}}, {"type": "node", "id": 4303108299, "lat": 41.0318311, "lon": 28.8854482, "tags": {"amenity": "atm", "brand": "Ziraat Bankas\u0131", "brand:wikidata": "Q696003", "brand:wikipedia": "en:Ziraat Bank", "name": "Ziraat Bankas\u0131", "operator": "Ziraat Bankas\u0131", "operator:wikidata": "Q696003", "operator:wikipedia": "en:Ziraat Bank"}}, {"type": "node", "id": 4349322490, "lat": 41.0125835, "lon": 28.9596239, "tags": {"amenity": "atm"}}, {"type": "node", "id": 4388338289, "lat": 41.0158321, "lon": 28.8739881, "tags": {"amenity": "atm", "brand": "T\u00fcrkiye \u0130\u015f Bankas\u0131", "brand:wikidata": "Q909613", "name": "T\u00fcrkiye \u0130\u015f Bankas\u0131", "name:tr": "T\u00fcrkiye \u0130\u015f Bankas\u0131", "operator": "T\u00fcrkiye \u0130\u015f Bankas\u0131", "operator:wikidata": "Q909613"}}, {"type": "node", "id": 4389256489, "lat": 41.0157516, "lon": 28.8741588, "tags": {"amenity": "atm", "brand": "ING", "brand:wikidata": "Q645708", "name": "ING", "name:tr": "ING Bank", "operator": "ING", "operator:wikidata": "Q645708"}}, {"type": "node", "id": 4391333594, "lat": 41.005361, "lon": 28.8710247, "tags": {"amenity": "atm", "name": "Ziraat ATM", "name:tr": "Ziraat ATM"}}, {"type": "node", "id": 4508588284, "lat": 41.0225061, "lon": 28.5849634, "tags": {"amenity": "atm", "brand": "QNB Finansbank", "brand:wikidata": "Q1416237", "name": "QNB Finansbank", "operator": "QNB Finansbank", "operator:wikidata": "Q1416237"}}, {"type": "node", "id": 4508655302, "lat": 41.0223853, "lon": 28.5853822, "tags": {"amenity": "atm", "brand": "T\u00fcrkiye \u0130\u015f Bankas\u0131", "brand:wikidata": "Q909613", "name": "T\u00fcrkiye \u0130\u015f Bankas\u0131", "operator": "T\u00fcrkiye \u0130\u015f Bankas\u0131", "operator:wikidata": "Q909613"}}, {"type": "node", "id": 4786907749, "lat": 41.0156645, "lon": 28.9522031, "tags": {"amenity": "atm", "brand": "Denizbank", "brand:wikidata": "Q1115064", "name": "Denizbank", "operator": "Denizbank", "operator:wikidata": "Q1115064"}}, {"type": "node", "id": 4828476530, "lat": 41.0424941, "lon": 28.6465227, "tags": {"amenity": "atm", "operator": "halkbank ing"}}, {"type": "node", "id": 4828476531, "lat": 41.041813, "lon": 28.6460912, "tags": {"amenity": "atm", "brand": "Garanti Bankas\u0131", "brand:wikidata": "Q322962", "name": "Garanti Bankas\u0131", "operator": "Garanti Bankas\u0131", "operator:wikidata": "Q322962"}}, {"type": "node", "id": 4878464124, "lat": 41.0390073, "lon": 28.9078339, "tags": {"amenity": "atm", "name": "Garanti Bankas\u0131, \u0130\u015f Bankas\u0131"}}, {"type": "node", "id": 4895705717, "lat": 41.0447976, "lon": 28.782223, "tags": {"amenity": "atm"}}, {"type": "node", "id": 4902467989, "lat": 41.0305627, "lon": 28.8133466, "tags": {"amenity": "atm", "brand": "T\u00fcrkiye \u0130\u015f Bankas\u0131", "brand:wikidata": "Q909613", "name": "T\u00fcrkiye \u0130\u015f Bankas\u0131", "operator": "T\u00fcrkiye \u0130\u015f Bankas\u0131", "operator:wikidata": "Q909613"}}, {"type": "node", "id": 4942286618, "lat": 41.0067916, "lon": 28.932685, "tags": {"amenity": "atm", "brand": "Ziraat Bankas\u0131", "brand:wikidata": "Q696003", "name": "Ziraat Bankas\u0131", "operator": "Ziraat Bankas\u0131", "operator:wikidata": "Q696003"}}, {"type": "node", "id": 4943336511, "lat": 41.0006825, "lon": 28.8026279, "tags": {"amenity": "atm", "brand": "Garanti Bankas\u0131", "brand:wikidata": "Q322962", "name": "Garanti Bankas\u0131", "operator": "Garanti Bankas\u0131", "operator:wikidata": "Q322962"}}, {"type": "node", "id": 4945688049, "lat": 41.0015901, "lon": 28.799707, "tags": {"amenity": "atm", "brand": "Halkbank", "brand:wikidata": "Q3593818", "name": "Halkbank", "operator": "Halkbank", "operator:wikidata": "Q3593818"}}, {"type": "node", "id": 4945688050, "lat": 41.0016146, "lon": 28.7997144, "tags": {"amenity": "atm", "brand": "\u015eekerbank", "brand:wikidata": "Q6088369", "name": "\u015eekerbank", "operator": "\u015eekerbank", "operator:wikidata": "Q6088369"}}, {"type": "node", "id": 4945688051, "lat": 41.0016404, "lon": 28.7997175, "tags": {"amenity": "atm", "brand": "QNB Finansbank", "brand:wikidata": "Q1416237", "name": "QNB Finansbank", "operator": "QNB Finansbank", "operator:wikidata": "Q1416237"}}, {"type": "node", "id": 4945688052, "lat": 41.0016739, "lon": 28.799719, "tags": {"amenity": "atm", "brand": "Akbank", "brand:wikidata": "Q416624", "name": "Akbank", "operator": "Akbank", "operator:wikidata": "Q416624"}}, {"type": "node", "id": 4949635263, "lat": 41.0006814, "lon": 28.7995621, "tags": {"amenity": "atm", "brand": "Ziraat Bankas\u0131", "brand:wikidata": "Q696003", "name": "Ziraat Bankas\u0131", "operator": "Ziraat Bankas\u0131", "operator:wikidata": "Q696003"}}, {"type": "node", "id": 4954042231, "lat": 41.0003854, "lon": 28.7990214, "tags": {"amenity": "atm", "brand": "HSBC", "brand:wikidata": "Q190464", "name": "HSBC", "operator": "HSBC", "operator:wikidata": "Q190464"}}, {"type": "node", "id": 4954042232, "lat": 41.0003739, "lon": 28.7990779, "tags": {"amenity": "atm", "brand": "ING", "brand:wikidata": "Q645708", "name": "ING", "operator": "ING", "operator:wikidata": "Q645708"}}, {"type": "node", "id": 4956536925, "lat": 41.0305651, "lon": 28.8133539, "tags": {"amenity": "atm", "brand": "HSBC", "brand:wikidata": "Q190464", "name": "HSBC", "operator": "HSBC", "operator:wikidata": "Q190464"}}, {"type": "node", "id": 4956536926, "lat": 41.0305682, "lon": 28.8133655, "tags": {"amenity": "atm"}}, {"type": "node", "id": 4961053499, "lat": 41.0459578, "lon": 28.8983227, "tags": {"amenity": "atm", "brand": "T\u00fcrkiye \u0130\u015f Bankas\u0131", "brand:wikidata": "Q909613", "brand:wikipedia": "en:\u0130\u015fbank", "name": "T\u00fcrkiye \u0130\u015f Bankas\u0131", "operator": "T\u00fcrkiye \u0130\u015f Bankas\u0131", "operator:wikidata": "Q909613", "operator:wikipedia": "en:\u0130\u015fbank"}}, {"type": "node", "id": 4961053500, "lat": 41.0459338, "lon": 28.8983236, "tags": {"amenity": "atm", "brand": "HSBC", "brand:wikidata": "Q190464", "brand:wikipedia": "en:HSBC", "name": "HSBC", "operator": "HSBC", "operator:wikidata": "Q190464", "operator:wikipedia": "en:HSBC"}}, {"type": "node", "id": 4961053501, "lat": 41.047151, "lon": 28.8982408, "tags": {"amenity": "atm", "brand": "Garanti Bankas\u0131", "brand:wikidata": "Q322962", "brand:wikipedia": "en:Garanti BBVA", "name": "Garanti Bankas\u0131", "operator": "Garanti Bankas\u0131", "operator:wikidata": "Q322962", "operator:wikipedia": "en:Garanti BBVA"}}, {"type": "node", "id": 4961053502, "lat": 41.0471916, "lon": 28.8982408, "tags": {"amenity": "atm", "brand": "Ziraat Bankas\u0131", "brand:wikidata": "Q696003", "brand:wikipedia": "en:Ziraat Bank", "name": "Ziraat Bankas\u0131", "operator": "Ziraat Bankas\u0131", "operator:wikidata": "Q696003", "operator:wikipedia": "en:Ziraat Bank"}}, {"type": "node", "id": 4963632800, "lat": 41.0305665, "lon": 28.8133593, "tags": {"amenity": "atm", "brand": "QNB Finansbank", "brand:wikidata": "Q1416237", "name": "QNB Finansbank", "operator": "QNB Finansbank", "operator:wikidata": "Q1416237"}}, {"type": "node", "id": 4982504955, "lat": 41.0482883, "lon": 28.8958085, "tags": {"amenity": "atm", "brand": "Garanti Bankas\u0131", "brand:wikidata": "Q322962", "brand:wikipedia": "en:Garanti BBVA", "name": "Garanti Bankas\u0131", "operator": "Garanti Bankas\u0131", "operator:wikidata": "Q322962", "operator:wikipedia": "en:Garanti BBVA"}}, {"type": "node", "id": 4982504956, "lat": 41.0482839, "lon": 28.8957897, "tags": {"amenity": "atm", "brand": "T\u00fcrkiye \u0130\u015f Bankas\u0131", "brand:wikidata": "Q909613", "brand:wikipedia": "en:\u0130\u015fbank", "name": "T\u00fcrkiye \u0130\u015f Bankas\u0131", "operator": "T\u00fcrkiye \u0130\u015f Bankas\u0131", "operator:wikidata": "Q909613", "operator:wikipedia": "en:\u0130\u015fbank"}}, {"type": "node", "id": 5024263225, "lat": 41.0086548, "lon": 28.8589399, "tags": {"amenity": "atm", "opening_hours": "24/7"}}, {"type": "node", "id": 5036070436, "lat": 41.0482777, "lon": 28.8957702, "tags": {"amenity": "atm", "brand": "Halkbank", "brand:wikidata": "Q3593818", "brand:wikipedia": "en:Halkbank a.d.", "name": "Halkbank", "operator": "Halkbank", "operator:wikidata": "Q3593818", "operator:wikipedia": "en:Halkbank a.d."}}, {"type": "node", "id": 5036070437, "lat": 41.0482948, "lon": 28.895831, "tags": {"amenity": "atm", "brand": "Denizbank", "brand:wikidata": "Q1115064", "brand:wikipedia": "en:DenizBank", "name": "Denizbank", "operator": "Denizbank", "operator:wikidata": "Q1115064", "operator:wikipedia": "en:DenizBank"}}, {"type": "node", "id": 5037239425, "lat": 41.0482717, "lon": 28.8957486, "tags": {"amenity": "atm", "opening_hours": "24/7"}}, {"type": "node", "id": 5075960980, "lat": 41.0157144, "lon": 28.9521785, "tags": {"addr:city": "Istanbul", "addr:district": "Fatih", "addr:street": "Macar Karde\u015fler Caddesi", "amenity": "atm", "brand": "Denizbank", "brand:wikidata": "Q1115064", "name": "Denizbank", "name:ar": "\u0635\u0631\u0627\u0641\u0629 \u0628\u0646\u0643 \u062f\u0646\u064a\u0632", "opening_hours": "24/7", "operator": "Denizbank", "operator:wikidata": "Q1115064"}}, {"type": "node", "id": 5075961006, "lat": 41.0168562, "lon": 28.9495588, "tags": {"addr:city": "Istanbul", "addr:district": "Fatih", "addr:street": "Feyzullah Efendi Sokak", "amenity": "atm", "brand": "Garanti Bankas\u0131", "brand:wikidata": "Q322962", "name": "Garanti Bankas\u0131", "name:ar": "\u0635\u0631\u0627\u0641 \u0628\u0646\u0643 \u063a\u0631\u0627\u0646\u062a\u064a", "opening_hours": "24/7", "operator": "Garanti Bankas\u0131", "operator:wikidata": "Q322962"}}, {"type": "node", "id": 5081442441, "lat": 41.0239395, "lon": 28.9581369, "tags": {"addr:city": "Istanbul", "addr:district": "Fatih", "addr:street": "Abd\u00fclezelpa\u015fa Caddesi", "amenity": "atm", "brand": "Garanti Bankas\u0131", "brand:wikidata": "Q322962", "brand:wikipedia": "en:Garanti BBVA", "name": "Garanti Bankas\u0131", "name:ar": "\u0635\u0631\u0627\u0641 \u063a\u0627\u0631\u0627\u0646\u062a\u064a", "operator": "Garanti Bankas\u0131", "operator:wikidata": "Q322962", "operator:wikipedia": "en:Garanti BBVA"}}, {"type": "node", "id": 5081442478, "lat": 41.0213102, "lon": 28.9594026, "tags": {"addr:city": "Istanbul", "addr:district": "Fatih", "addr:street": "Atat\u00fcrk Boulevard", "amenity": "atm", "brand": "Vak\u0131fbank", "brand:wikidata": "Q1148521", "brand:wikipedia": "en:Vak\u0131fBank", "name": "Vak\u0131fbank", "name:ar": "\u0635\u0631\u0627\u0641 \u0648\u0642\u0641 \u0628\u0646\u0643", "operator": "Vak\u0131fbank", "operator:wikidata": "Q1148521", "operator:wikipedia": "en:Vak\u0131fBank"}}, {"type": "node", "id": 5081445034, "lat": 41.0276139, "lon": 28.9551271, "tags": {"addr:city": "Istanbul", "addr:district": "Fatih", "addr:street": "Miralay Naz\u0131mbey Caddesi", "amenity": "atm", "branch": "Bankamatik", "brand": "T\u00fcrkiye \u0130\u015f Bankas\u0131", "brand:wikidata": "Q909613", "description": "ATM", "name": "T\u00fcrkiye \u0130\u015f Bankas\u0131", "name:ar": "\u0635\u0631\u0627\u0641 \u0628\u0627\u0646\u0643 \u062a\u0648\u0631\u0643\u064a\u0627 \u0627\u064a\u0634", "operator": "T\u00fcrkiye \u0130\u015f Bankas\u0131", "operator:wikidata": "Q909613"}}, {"type": "node", "id": 5081445035, "lat": 41.0275515, "lon": 28.9552472, "tags": {"addr:city": "Istanbul", "addr:district": "Fatih", "addr:street": "Miralay Naz\u0131mbey Caddesi", "amenity": "atm", "branch": "Paramatik", "brand": "Garanti Bankas\u0131", "brand:wikidata": "Q322962", "cash_in": "yes", "description": "ATM", "name": "Garanti Bankas\u0131", "name:ar": "\u0635\u0631\u0627\u0641 \u0628\u0627\u0646\u0643 \u063a\u0627\u0631\u0627\u0646\u062a\u064a", "operator": "Garanti Bankas\u0131", "operator:wikidata": "Q322962"}}, {"type": "node", "id": 5081445038, "lat": 41.027413, "lon": 28.9550515, "tags": {"addr:city": "Istanbul", "addr:district": "Fatih", "addr:street": "Miralay Naz\u0131mbey Caddesi", "amenity": "atm", "brand": "Akbank", "brand:wikidata": "Q416624", "cash_in": "yes", "description": "ATM", "name": "Akbank", "name:ar": "\u0635\u0631\u0627\u0641 \u0627\u0643\u0628\u0627\u0646\u0643", "operator": "Akbank", "operator:wikidata": "Q416624"}}, {"type": "node", "id": 5081445039, "lat": 41.0274037, "lon": 28.9550429, "tags": {"addr:city": "Istanbul", "addr:district": "Fatih", "addr:street": "Miralay Naz\u0131mbey Caddesi", "amenity": "atm", "brand": "Yap\u0131 Kredi", "brand:wikidata": "Q8049138", "cash_in": "yes", "description": "ATM", "name": "Yap\u0131 Kredi", "name:ar": "\u0635\u0631\u0627\u0641 \u0628\u0646\u0643 \u064a\u0627\u0628\u0648 \u0643\u0631\u064a\u062f\u064a", "operator": "Yap\u0131 Kredi", "operator:wikidata": "Q8049138"}}, {"type": "node", "id": 5081445041, "lat": 41.0270765, "lon": 28.9545935, "tags": {"addr:city": "Istanbul", "addr:district": "Fatih", "addr:street": "Hali\u00e7 Caddesi", "amenity": "atm", "brand": "Ziraat Bankas\u0131", "brand:wikidata": "Q696003", "cash_in": "yes", "name": "Ziraat Bankas\u0131", "name:ar": "\u0635\u0631\u0627\u0641\u0628 \u0628\u0646\u0643 \u0632\u0631\u0627\u0639\u0627\u062a", "operator": "Ziraat Bankas\u0131", "operator:wikidata": "Q696003"}}, {"type": "node", "id": 5087172323, "lat": 40.9960385, "lon": 28.9268766, "tags": {"addr:city": "Istanbul", "addr:district": "Fatih", "addr:street": "\u0130mrahor ilyasbey caddesi", "amenity": "atm", "brand": "Akbank", "brand:wikidata": "Q416624", "brand:wikipedia": "tr:Akbank", "name": "Akbank", "name:ar": "\u0635\u0631\u0627\u0641 \u0622\u0644\u064a \u0623\u0643\u0628\u0646\u0643", "operator": "Akbank", "operator:wikidata": "Q416624", "operator:wikipedia": "tr:Akbank"}}, {"type": "node", "id": 5087179455, "lat": 40.9958858, "lon": 28.9270308, "tags": {"addr:city": "Istanbul", "addr:district": "Fatih", "addr:street": "\u0130mrahor ilyasbey caddesi", "amenity": "atm", "brand": "T\u00fcrkiye \u0130\u015f Bankas\u0131", "brand:wikidata": "Q909613", "brand:wikipedia": "en:\u0130\u015fbank", "name": "T\u00fcrkiye \u0130\u015f Bankas\u0131", "name:ar": "\u0635\u0631\u0627\u0641 \u0622\u0644\u064a \u0625\u064a\u0634 \u0628\u0627\u0646\u0643", "operator": "T\u00fcrkiye \u0130\u015f Bankas\u0131", "operator:wikidata": "Q909613", "operator:wikipedia": "en:\u0130\u015fbank"}}, {"type": "node", "id": 5087179458, "lat": 40.9959753, "lon": 28.9271306, "tags": {"addr:city": "Istanbul", "addr:district": "Fatih", "addr:street": "\u0130mrahor \u0130lyasbey Caddesi", "amenity": "atm", "brand": "ING", "brand:wikidata": "Q645708", "brand:wikipedia": "en:ING Group", "name": "ING", "name:ar": "\u0635\u0631\u0627\u0641 \u0622\u0644\u064a \u0625\u064a \u0646\u064a \u063a\u064a \u0628\u0646\u0643", "operator": "ING", "operator:wikidata": "Q645708", "operator:wikipedia": "en:ING Group"}}, {"type": "node", "id": 5088190895, "lat": 41.0046194, "lon": 28.9341048, "tags": {"addr:city": "Istanbul", "addr:district": "Fatih", "addr:street": "Kocamustafapa\u015fa Caddesi", "amenity": "atm", "name": "24/7", "name:ar": "\u0635\u0631\u0627\u0641 \u0647\u0644\u0643 \u0628\u0646\u0643"}}, {"type": "node", "id": 5088192738, "lat": 41.0006844, "lon": 28.9325478, "tags": {"addr:city": "Istanbul", "addr:district": "Fatih", "addr:street": "Abdurrahman Nafiz G\u00fcrman Caddesi", "amenity": "atm", "name": "24/7", "name:ar": "\u0635\u0631\u0627\u0641 \u0622\u0644\u064a \u064a\u0627\u0628\u064a \u0643\u0631\u064a\u062f\u064a"}}, {"type": "node", "id": 5088192798, "lat": 41.0014958, "lon": 28.9346544, "tags": {"addr:city": "Istanbul", "addr:district": "Fatih", "addr:street": "Abdurrahman Nafiz G\u00fcrman Caddesi", "amenity": "atm", "brand": "Halkbank", "brand:wikidata": "Q3593818", "brand:wikipedia": "en:Halkbank a.d.", "name": "Halkbank", "name:ar": "\u0635\u0631\u0627\u0641 \u0622\u0644\u064a \u0647\u0627\u0644\u0643 \u0628\u0646\u0643", "operator": "Halkbank", "operator:wikidata": "Q3593818", "operator:wikipedia": "en:Halkbank a.d."}}, {"type": "node", "id": 5088192799, "lat": 41.0014856, "lon": 28.9346248, "tags": {"addr:city": "Istanbul", "addr:district": "Fatih", "addr:street": "Abdurrahman Nafiz G\u00fcrman Caddesi", "amenity": "atm", "name": "FinanseBank ATM", "name:ar": "\u0635\u0631\u0627\u0641 \u0622\u0644\u064a \u0628\u0646\u0643 \u0641\u064a\u0646\u0627\u0646\u0633"}}, {"type": "node", "id": 5088192809, "lat": 40.9972347, "lon": 28.9291141, "tags": {"addr:city": "Istanbul", "addr:district": "Fatih", "addr:street": "\u0130mrahor \u0130lyasbey Caddesi", "amenity": "atm", "name": "T.C. Ziraat Bankas\u0131 ATM", "name:ar": "\u0635\u0631\u0627\u0641 \u0622\u0644\u064a \u0628\u0646\u0643 \u0632\u0631\u0627\u0639\u0627\u062a"}}, {"type": "node", "id": 5088194832, "lat": 40.9994609, "lon": 28.9311829, "tags": {"addr:city": "Istanbul", "addr:district": "Fatih", "addr:street": "Abdurrahman Nafiz G\u00fcrman Caddesi", "amenity": "atm", "brand": "Vak\u0131fbank", "brand:wikidata": "Q1148521", "brand:wikipedia": "en:Vak\u0131fBank", "name": "Vak\u0131fbank", "name:ar": "\u0635\u0631\u0627\u0641 \u0622\u0644\u064a \u0648\u0642\u0641 \u0628\u0627\u0646\u0643", "operator": "Vak\u0131fbank", "operator:wikidata": "Q1148521", "operator:wikipedia": "en:Vak\u0131fBank"}}, {"type": "node", "id": 5088194862, "lat": 40.9996142, "lon": 28.9311597, "tags": {"addr:city": "Istanbul", "addr:district": "Fatih", "addr:street": "Abdurrahman Nafiz G\u00fcrman Caddesi", "amenity": "atm", "name": "Garanti ATM", "name:ar": "\u0635\u0631\u0627\u0641 \u0622\u0644\u064a \u0628\u0646\u0643 \u063a\u0627\u0631\u0627\u0646\u062a\u064a"}}, {"type": "node", "id": 5088194863, "lat": 40.9996676, "lon": 28.931188, "tags": {"addr:city": "Istanbul", "addr:district": "Fatih", "addr:street": "Abdurrahman Nafiz G\u00fcrman Caddesi", "amenity": "atm", "name": "DenizBank ATM", "name:ar": "\u0635\u0631\u0627\u0641 \u0622\u0644\u064a \u0628\u0646\u0643 \u062f\u064a\u0646\u064a\u0632"}}, {"type": "node", "id": 5088194870, "lat": 41.0000699, "lon": 28.9317473, "tags": {"addr:city": "Istanbul", "addr:district": "Fatih", "addr:street": "Abdurrahman Nafiz G\u00fcrman Caddesi", "amenity": "atm", "name": "ING", "name:ar": "\u0635\u0631\u0627\u0641 \u0622\u0644\u064a \u0625\u0646\u063a \u0628\u0627\u0646\u0643"}}, {"type": "node", "id": 5088194871, "lat": 41.0000781, "lon": 28.9317729, "tags": {"addr:city": "Istanbul", "addr:district": "Fatih", "addr:street": "Abdurrahman Nafiz G\u00fcrman Caddesi", "amenity": "atm", "name": "\u0130\u015f Bankas\u0131 ATM", "name:ar": "\u0635\u0631\u0627\u0641 \u0622\u0644\u064a \u0625\u0634 \u0628\u0627\u0646\u0643"}}, {"type": "node", "id": 5088870828, "lat": 41.0497054, "lon": 28.8955093, "tags": {"amenity": "atm", "brand": "Denizbank", "brand:wikidata": "Q1115064", "brand:wikipedia": "en:DenizBank", "drive_through": "no", "name": "Denizbank", "operator": "Denizbank", "operator:wikidata": "Q1115064", "operator:wikipedia": "en:DenizBank"}}, {"type": "node", "id": 5099062121, "lat": 41.0078709, "lon": 28.9502532, "tags": {"addr:city": "Istanbul", "addr:district": "Fatih", "addr:street": "Nam\u0131k kemal caddesi", "amenity": "atm", "brand": "Yap\u0131 Kredi", "brand:wikidata": "Q8049138", "brand:wikipedia": "en:Yap\u0131 Kredi", "name": "Yap\u0131 Kredi", "name:ar": "\u0635\u0631\u0627\u0641 \u0622\u0644\u064a \u0644\u0628\u0646\u0643 \u064a\u0627\u0628\u064a \u0643\u0631\u064a\u062f\u064a", "operator": "Yap\u0131 Kredi", "operator:wikidata": "Q8049138", "operator:wikipedia": "en:Yap\u0131 Kredi"}}, {"type": "node", "id": 5099065425, "lat": 41.0078754, "lon": 28.9500733, "tags": {"addr:city": "Istanbul", "addr:district": "Fatih", "addr:street": "Nam\u0131k kemal caddesi", "amenity": "atm", "brand": "Denizbank", "brand:wikidata": "Q1115064", "brand:wikipedia": "en:DenizBank", "name": "Denizbank", "name:ar": "\u0635\u0631\u0627\u0641 \u0622\u0644\u064a \u062f\u064a\u0646\u064a\u0632 \u0628\u0646\u0643", "operator": "Denizbank", "operator:wikidata": "Q1115064", "operator:wikipedia": "en:DenizBank"}}, {"type": "node", "id": 5106123765, "lat": 41.0256957, "lon": 28.9399973, "tags": {"addr:city": "Istanbul", "addr:district": "Turkey", "addr:street": "Fevzi Pa\u015fa Caddesi", "amenity": "atm", "brand": "Akbank", "brand:wikidata": "Q416624", "brand:wikipedia": "tr:Akbank", "name": "Akbank", "name:ar": "\u0627\u0643 \u0628\u0646\u0643", "opening_hours": "24/7", "operator": "Akbank", "operator:wikidata": "Q416624", "operator:wikipedia": "tr:Akbank"}}, {"type": "node", "id": 5106123766, "lat": 41.0256451, "lon": 28.9400268, "tags": {"addr:city": "Istanbul", "addr:district": "Turkey", "addr:street": "Fevzi Pa\u015fa Caddesi", "amenity": "atm", "brand": "Ziraat Bankas\u0131", "brand:wikidata": "Q696003", "brand:wikipedia": "en:Ziraat Bank", "name": "Ziraat Bankas\u0131", "name:ar": "\u0632\u0631\u0627\u0639\u0627\u062a \u0628\u0646\u0643", "opening_hours": "24/7", "operator": "Ziraat Bankas\u0131", "operator:wikidata": "Q696003", "operator:wikipedia": "en:Ziraat Bank"}}, {"type": "node", "id": 5106123810, "lat": 41.0212357, "lon": 28.9430067, "tags": {"addr:city": "Istanbul", "addr:district": "Turkey", "addr:street": "Ak\u015femsettin Caddesi", "amenity": "atm", "brand": "Akbank", "brand:wikidata": "Q416624", "brand:wikipedia": "tr:Akbank", "name": "Akbank", "name:ar": "\u0627\u0643 \u0628\u0646\u0643", "opening_hours": "24/7", "operator": "Akbank", "operator:wikidata": "Q416624", "operator:wikipedia": "tr:Akbank"}}, {"type": "node", "id": 5106127818, "lat": 41.0242286, "lon": 28.9423549, "tags": {"addr:city": "Istanbul", "addr:district": "Turkey", "addr:street": "Fevzi Pa\u015fa Caddesi", "amenity": "atm", "brand": "Halkbank", "brand:wikidata": "Q3593818", "brand:wikipedia": "en:Halkbank a.d.", "name": "Halkbank", "name:ar": "\u0647\u0644\u0643 \u0628\u0646\u0643", "opening_hours": "24/7", "operator": "Halkbank", "operator:wikidata": "Q3593818", "operator:wikipedia": "en:Halkbank a.d."}}, {"type": "node", "id": 5106129522, "lat": 41.0241193, "lon": 28.9425641, "tags": {"addr:city": "Istanbul", "addr:district": "Turkey", "addr:street": "Fevzi Pa\u015fa Caddesi", "amenity": "atm", "brand": "Denizbank", "brand:wikidata": "Q1115064", "brand:wikipedia": "en:DenizBank", "name": "Denizbank", "name:ar": "\u062f\u064a\u0646\u064a\u0632 \u0628\u0646\u0643", "opening_hours": "24/7", "operator": "Denizbank", "operator:wikidata": "Q1115064", "operator:wikipedia": "en:DenizBank"}}, {"type": "node", "id": 5106132745, "lat": 41.0130405, "lon": 28.9372453, "tags": {"addr:city": "Istanbul", "addr:district": "Turkey", "addr:street": "Turgut \u00d6zal Millet Caddesi", "amenity": "atm", "brand": "Ziraat Bankas\u0131", "brand:wikidata": "Q696003", "brand:wikipedia": "en:Ziraat Bank", "name": "Ziraat Bankas\u0131", "name:ar": "\u0632\u0631\u0627\u0639\u0627\u062a \u0628\u0646\u0643", "opening_hours": "24/7", "operator": "Ziraat Bankas\u0131", "operator:wikidata": "Q696003", "operator:wikipedia": "en:Ziraat Bank"}}, {"type": "node", "id": 5106132780, "lat": 41.0160246, "lon": 28.9311795, "tags": {"addr:city": "Istanbul", "addr:district": "Turkey", "addr:street": "Turgut \u00d6zal Millet Caddesi", "amenity": "atm", "brand": "Halkbank", "brand:wikidata": "Q3593818", "brand:wikipedia": "en:Halkbank a.d.", "name": "Halkbank", "name:ar": "\u0647\u0644\u0643 \u0628\u0646\u0643", "opening_hours": "24/7", "operator": "Halkbank", "operator:wikidata": "Q3593818", "operator:wikipedia": "en:Halkbank a.d."}}, {"type": "node", "id": 5106134524, "lat": 41.0112544, "lon": 28.9385073, "tags": {"addr:city": "Istanbul", "addr:district": "Turkey", "addr:street": "K\u0131z\u0131lelma Caddesi", "amenity": "atm", "brand": "ING", "brand:wikidata": "Q645708", "brand:wikipedia": "en:ING Group", "name": "ING", "name:ar": "\u0627\u0646\u0643 \u0628\u0646\u0643", "opening_hours": "24/7", "operator": "ING", "operator:wikidata": "Q645708", "operator:wikipedia": "en:ING Group"}}, {"type": "node", "id": 5106135544, "lat": 41.015018, "lon": 28.9292587, "tags": {"addr:city": "Istanbul", "addr:district": "Turkey", "addr:street": "B\u00fcy\u00fck Saray Meydan\u0131 Caddesi", "amenity": "atm", "brand": "Yap\u0131 Kredi", "brand:wikidata": "Q8049138", "brand:wikipedia": "en:Yap\u0131 Kredi", "name": "Yap\u0131 Kredi", "name:ar": "\u0628\u0646\u0643 \u064a\u0627\u0628\u064a \u0643\u0631\u064a\u062f\u064a", "opening_hours": "24/7", "operator": "Yap\u0131 Kredi", "operator:wikidata": "Q8049138", "operator:wikipedia": "en:Yap\u0131 Kredi"}}, {"type": "node", "id": 5106135545, "lat": 41.015034, "lon": 28.9292662, "tags": {"addr:city": "Istanbul", "addr:district": "Turkey", "addr:street": "B\u00fcy\u00fck Saray Meydan\u0131 Caddesi", "amenity": "atm", "brand": "Halkbank", "brand:wikidata": "Q3593818", "brand:wikipedia": "en:Halkbank a.d.", "name": "Halkbank", "name:ar": "\u0647\u0627\u0644\u0643 \u0628\u0646\u0643", "opening_hours": "24/7", "operator": "Halkbank", "operator:wikidata": "Q3593818", "operator:wikipedia": "en:Halkbank a.d."}}, {"type": "node", "id": 5106135546, "lat": 41.0149996, "lon": 28.9292512, "tags": {"addr:city": "Istanbul", "addr:district": "Turkey", "addr:street": "B\u00fcy\u00fck Saray Meydan\u0131 Caddesi", "amenity": "atm", "brand": "Akbank", "brand:wikidata": "Q416624", "brand:wikipedia": "tr:Akbank", "name": "Akbank", "name:ar": "\u0627\u0643 \u0628\u0646\u0643", "opening_hours": "24/7", "operator": "Akbank", "operator:wikidata": "Q416624", "operator:wikipedia": "tr:Akbank"}}, {"type": "node", "id": 5106135548, "lat": 41.014867, "lon": 28.9292121, "tags": {"addr:city": "Istanbul", "addr:district": "Turkey", "addr:street": "B\u00fcy\u00fck Saray Meydan\u0131 Caddesi", "amenity": "atm", "brand": "Denizbank", "brand:wikidata": "Q1115064", "brand:wikipedia": "en:DenizBank", "name": "Denizbank", "name:ar": "\u062f\u064a\u0646\u064a\u0632 \u0628\u0646\u0643", "opening_hours": "24/7", "operator": "Denizbank", "operator:wikidata": "Q1115064", "operator:wikipedia": "en:DenizBank"}}, {"type": "node", "id": 5106135549, "lat": 41.0147233, "lon": 28.9285791, "tags": {"addr:city": "Istanbul", "addr:district": "Turkey", "addr:street": "B\u00fcy\u00fck Saray Meydan\u0131 Caddesi", "amenity": "atm", "brand": "Ziraat Bankas\u0131", "brand:wikidata": "Q696003", "brand:wikipedia": "en:Ziraat Bank", "name": "Ziraat Bankas\u0131", "name:ar": "\u0628\u0646\u0643 \u0632\u0631\u0627\u0639\u0627\u062a", "opening_hours": "24/7", "operator": "Ziraat Bankas\u0131", "operator:wikidata": "Q696003", "operator:wikipedia": "en:Ziraat Bank"}}, {"type": "node", "id": 5107245376, "lat": 41.0067027, "lon": 28.9326992, "tags": {"addr:city": "Istanbul", "addr:district": "Fatih", "addr:street": "Hekimo\u011flu Alipa\u015fa Caddesi", "amenity": "atm", "brand": "Ziraat Bankas\u0131", "brand:wikidata": "Q696003", "description": "ATM", "name": "Ziraat Bankas\u0131", "name:ar": "\u0622 \u062a\u064a \u0645\u064a \u0632\u0631\u0627\u0639\u0627\u062a \u0628\u0646\u0643\u0633\u064a", "operator": "Ziraat Bankas\u0131", "operator:wikidata": "Q696003"}}, {"type": "node", "id": 5107245377, "lat": 41.0066906, "lon": 28.9326241, "tags": {"addr:city": "Istanbul", "addr:district": "Fatih", "addr:street": "Hekimo\u011flu Alipa\u015fa Caddesi", "amenity": "atm", "brand": "Halkbank", "brand:wikidata": "Q3593818", "description": "ATM", "name": "Halkbank", "name:ar": "\u0622 \u062a\u064a \u0645\u064a \u0647\u0627\u0644\u0643 \u0628\u0627\u0646\u0643", "operator": "Halkbank", "operator:wikidata": "Q3593818"}}, {"type": "node", "id": 5107245378, "lat": 41.0066961, "lon": 28.9327843, "tags": {"addr:city": "Istanbul", "addr:district": "Fatih", "addr:street": "Hekimo\u011flu Alipa\u015fa Caddesi", "amenity": "atm", "branch": "Bankamatik", "brand": "T\u00fcrkiye \u0130\u015f Bankas\u0131", "brand:wikidata": "Q909613", "description": "ATM", "name": "T\u00fcrkiye \u0130\u015f Bankas\u0131", "name:ar": "\u0622 \u062a\u064a \u0645\u064a \u062a\u0648\u0631\u0643\u064a\u0627 \u0627\u064a\u0634 \u0628\u0646\u0643\u0633\u064a", "operator": "T\u00fcrkiye \u0130\u015f Bankas\u0131", "operator:wikidata": "Q909613"}}, {"type": "node", "id": 5107247556, "lat": 41.0041373, "lon": 28.9295732, "tags": {"addr:city": "Istanbul", "addr:district": "Fatih", "addr:street": "Sebzeci Sokak", "amenity": "atm", "brand": "Vak\u0131fbank", "brand:wikidata": "Q1148521", "brand:wikipedia": "en:Vak\u0131fBank", "name": "Vak\u0131fbank", "name:ar": "\u0635\u0631\u0627\u0641 \u0648\u0642\u0641 \u0628\u0646\u0643", "operator": "Vak\u0131fbank", "operator:wikidata": "Q1148521", "operator:wikipedia": "en:Vak\u0131fBank"}}, {"type": "node", "id": 5109654702, "lat": 41.015456, "lon": 28.9317736, "tags": {"addr:city": "Istanbul", "addr:district": "Turkey", "addr:street": "B\u00f6rek\u00e7i Veli Soka\u011f\u0131", "amenity": "atm", "brand": "ING", "brand:wikidata": "Q645708", "brand:wikipedia": "en:ING Group", "name": "ING", "name:ar": "\u0628\u0646\u0643 ING", "opening_hours": "24/7", "operator": "ING", "operator:wikidata": "Q645708", "operator:wikipedia": "en:ING Group"}}, {"type": "node", "id": 5109654703, "lat": 41.0154802, "lon": 28.9317629, "tags": {"addr:city": "Istanbul", "addr:district": "Turkey", "addr:street": "B\u00f6rek\u00e7i Veli Soka\u011f\u0131", "amenity": "atm", "branch": "Bankas\u0131", "brand": "TEB", "brand:wikidata": "Q7862447", "brand:wikipedia": "en:T\u00fcrk Ekonomi Bankas\u0131", "name": "TEB", "name:ar": "\u0628\u0646\u0643 TEB", "opening_hours": "24/7", "operator": "TEB", "operator:wikidata": "Q7862447", "operator:wikipedia": "en:T\u00fcrk Ekonomi Bankas\u0131"}}, {"type": "node", "id": 5111215122, "lat": 41.00516, "lon": 28.9358103, "tags": {"addr:city": "Istanbul", "addr:district": "Fatih", "addr:street": "koca mustafapasa caddesi", "amenity": "atm", "brand": "Denizbank", "brand:wikidata": "Q1115064", "brand:wikipedia": "en:DenizBank", "name": "Denizbank", "name:ar": "\u062f\u064a\u0646\u064a\u0632 \u0628\u0627\u0646\u0643", "operator": "Denizbank", "operator:wikidata": "Q1115064", "operator:wikipedia": "en:DenizBank"}}, {"type": "node", "id": 5111215177, "lat": 41.007257, "lon": 28.9424193, "tags": {"addr:city": "Istanbul", "addr:district": "Fatih", "addr:street": "koca mustafapasa caddesi", "amenity": "atm", "brand": "Yap\u0131 Kredi", "brand:wikidata": "Q8049138", "name": "Yap\u0131 Kredi", "name:ar": "\u064a\u0627\u0628\u064a \u0643\u0631\u064a\u062f\u064a", "operator": "Yap\u0131 Kredi", "operator:wikidata": "Q8049138"}}, {"type": "node", "id": 5111215182, "lat": 41.007427, "lon": 28.9428055, "tags": {"addr:city": "Istanbul", "addr:district": "Fatih", "addr:street": "Haseki kadin sokak", "amenity": "atm", "brand": "Denizbank", "brand:wikidata": "Q1115064", "name": "Denizbank", "name:ar": "\u062f\u064a\u0646\u064a\u0632 \u0628\u0627\u0646\u0643", "operator": "Denizbank", "operator:wikidata": "Q1115064"}}, {"type": "node", "id": 5111215183, "lat": 41.0074189, "lon": 28.9428055, "tags": {"addr:city": "Istanbul", "addr:district": "Fatih", "addr:street": "Haseki kadin sokak", "amenity": "atm", "name": "ziraat bank", "name:ar": "\u0632\u0631\u0627\u0639\u0627\u062a \u0628\u0646\u0643"}}, {"type": "node", "id": 5111215211, "lat": 41.0059697, "lon": 28.9364111, "tags": {"addr:city": "Istanbul", "addr:district": "Fatih", "addr:street": "Kizilama caddesi", "amenity": "atm", "brand": "Akbank", "brand:wikidata": "Q416624", "brand:wikipedia": "tr:Akbank", "name": "Akbank", "name:ar": "\u0627\u0643\u0628\u0646\u0643", "operator": "Akbank", "operator:wikidata": "Q416624", "operator:wikipedia": "tr:Akbank"}}, {"type": "node", "id": 5111215213, "lat": 41.0058401, "lon": 28.9363897, "tags": {"addr:city": "Istanbul", "addr:district": "Fatih", "addr:street": "Kizilama caddesi", "amenity": "atm", "brand": "Yap\u0131 Kredi", "brand:wikidata": "Q8049138", "brand:wikipedia": "en:Yap\u0131 Kredi", "name": "Yap\u0131 Kredi", "name:ar": "\u064a\u0627\u0628\u064a \u0643\u0631\u064a\u062f\u064a", "operator": "Yap\u0131 Kredi", "operator:wikidata": "Q8049138", "operator:wikipedia": "en:Yap\u0131 Kredi"}}, {"type": "node", "id": 5111215220, "lat": 41.0054353, "lon": 28.9360678, "tags": {"addr:city": "Istanbul", "addr:district": "Fatih", "addr:street": "Esekapi sokak", "amenity": "atm", "brand": "T\u00fcrkiye \u0130\u015f Bankas\u0131", "brand:wikidata": "Q909613", "name": "T\u00fcrkiye \u0130\u015f Bankas\u0131", "name:ar": "\u0627\u0634 \u0628\u0627\u0646\u0643\u0627\u0633\u064a", "operator": "T\u00fcrkiye \u0130\u015f Bankas\u0131", "operator:wikidata": "Q909613"}}, {"type": "node", "id": 5112728858, "lat": 41.0119141, "lon": 28.9589071, "tags": {"addr:city": "Istanbul", "addr:district": "Fatih", "addr:street": "Vidinli Tevfikpa\u015fa Caddesi", "amenity": "atm", "branch": "bank ATM", "brand": "TEB", "brand:wikidata": "Q7862447", "brand:wikipedia": "en:T\u00fcrk Ekonomi Bankas\u0131", "name": "TEB", "name:ar": "\u0635\u0631\u0627\u0641 \u062a\u064a\u0628 \u0628\u0646\u0643", "operator": "TEB", "operator:wikidata": "Q7862447", "operator:wikipedia": "en:T\u00fcrk Ekonomi Bankas\u0131"}}, {"type": "node", "id": 5112728859, "lat": 41.0119224, "lon": 28.9589443, "tags": {"addr:city": "Istanbul", "addr:district": "Fatih", "addr:street": "Vidinli Tevfikpa\u015fa Caddesi", "amenity": "atm", "brand": "Akbank", "brand:wikidata": "Q416624", "brand:wikipedia": "tr:Akbank", "name": "Akbank", "name:ar": "\u0635\u0631\u0627\u0641 \u0623\u0643 \u0628\u0646\u0643", "operator": "Akbank", "operator:wikidata": "Q416624", "operator:wikipedia": "tr:Akbank"}}, {"type": "node", "id": 5112728860, "lat": 41.011933, "lon": 28.958982, "tags": {"addr:city": "Istanbul", "addr:district": "Fatih", "addr:street": "Vidinli Tevfikpa\u015fa Caddesi", "amenity": "atm", "brand": "ING", "brand:wikidata": "Q645708", "brand:wikipedia": "en:ING Group", "name": "ING", "name:ar": "\u0635\u0631\u0627\u0641 \u0625\u064a \u0646\u064a \u063a\u064a", "operator": "ING", "operator:wikidata": "Q645708", "operator:wikipedia": "en:ING Group"}}, {"type": "node", "id": 5112728861, "lat": 41.0119365, "lon": 28.9590199, "tags": {"addr:city": "Istanbul", "addr:district": "Fatih", "addr:street": "Vidinli Tevfikpa\u015fa Caddesi", "amenity": "atm", "brand": "Halkbank", "brand:wikidata": "Q3593818", "brand:wikipedia": "en:Halkbank a.d.", "name": "Halkbank", "name:ar": "\u0647\u0627\u0644\u0643 \u0628\u0646\u0643", "operator": "Halkbank", "operator:wikidata": "Q3593818", "operator:wikipedia": "en:Halkbank a.d."}}, {"type": "node", "id": 5112732255, "lat": 41.0109196, "lon": 28.9610916, "tags": {"addr:city": "Istanbul", "addr:district": "Fatih", "addr:street": "Dar\u00fclf\u00fcnun Caddesi", "amenity": "atm", "brand": "Akbank", "brand:wikidata": "Q416624", "brand:wikipedia": "tr:Akbank", "name": "Akbank", "name:ar": "\u0635\u0631\u0627\u0641 \u0623\u0643 \u0628\u0646\u0643", "operator": "Akbank", "operator:wikidata": "Q416624", "operator:wikipedia": "tr:Akbank"}}, {"type": "node", "id": 5112732256, "lat": 41.010869, "lon": 28.9611365, "tags": {"addr:city": "Istanbul", "addr:district": "Fatih", "addr:street": "Dar\u00fclf\u00fcnun Caddesi", "amenity": "atm", "brand": "T\u00fcrkiye \u0130\u015f Bankas\u0131", "brand:wikidata": "Q909613", "brand:wikipedia": "en:\u0130\u015fbank", "name": "T\u00fcrkiye \u0130\u015f Bankas\u0131", "name:ar": "\u0635\u0631\u0627\u0641 \u0625\u064a\u0634 \u0628\u0646\u0643", "operator": "T\u00fcrkiye \u0130\u015f Bankas\u0131", "operator:wikidata": "Q909613", "operator:wikipedia": "en:\u0130\u015fbank"}}, {"type": "node", "id": 5112732257, "lat": 41.0108251, "lon": 28.9612043, "tags": {"addr:city": "Istanbul", "addr:district": "Fatih", "addr:street": "Dar\u00fclf\u00fcnun Caddesi", "amenity": "atm", "brand": "Garanti Bankas\u0131", "brand:wikidata": "Q322962", "brand:wikipedia": "en:Garanti BBVA", "name": "Garanti Bankas\u0131", "name:ar": "\u0635\u0631\u0627\u0641 \u0628\u0646\u0643 \u063a\u0627\u0631\u0627\u0646\u062a\u064a", "operator": "Garanti Bankas\u0131", "operator:wikidata": "Q322962", "operator:wikipedia": "en:Garanti BBVA"}}, {"type": "node", "id": 5112834109, "lat": 41.0092195, "lon": 28.9508493, "tags": {"addr:city": "Istanbul", "addr:district": "Fatih", "addr:street": "Turgut \u00f6zal caddesi", "amenity": "atm", "branch": "bank atm", "brand": "Garanti Bankas\u0131", "brand:wikidata": "Q322962", "brand:wikipedia": "en:Garanti BBVA", "name": "Garanti Bankas\u0131", "name:ar": "\u0635\u0631\u0627\u0641 \u0622\u0644\u064a \u063a\u0631\u0627\u0646\u062a\u064a \u0628\u0646\u0643", "operator": "Garanti Bankas\u0131", "operator:wikidata": "Q322962", "operator:wikipedia": "en:Garanti BBVA"}}, {"type": "node", "id": 5113125932, "lat": 41.0039804, "lon": 28.9294316, "tags": {"addr:city": "Istanbul", "addr:district": "Fatih", "addr:street": "Koca Mustafapa\u015fa Caddesi", "amenity": "atm", "brand": "Finansbank", "brand:wikidata": "Q1416237", "brand:wikipedia": "en:QNB Finansbank", "name": "Finansbank", "name:ar": "\u0625\u064a \u062a\u064a \u0645\u064a \u0641\u064a\u0646\u0627\u0646\u0633 \u0628\u0627\u0646\u0643", "operator": "Finansbank", "operator:wikidata": "Q1416237", "operator:wikipedia": "en:QNB Finansbank"}}, {"type": "node", "id": 5113126639, "lat": 41.0039595, "lon": 28.931702, "tags": {"addr:city": "Istanbul", "addr:district": "Fatih", "addr:street": "Kuvayi Milliye Caddesi", "amenity": "atm", "brand": "Denizbank", "brand:wikidata": "Q1115064", "brand:wikipedia": "en:DenizBank", "name": "Denizbank", "name:ar": "\u062f\u064a\u0646\u064a\u0632 \u0628\u0627\u0646\u0643 \u0622 \u062a\u064a \u0645\u064a", "operator": "Denizbank", "operator:wikidata": "Q1115064", "operator:wikipedia": "en:DenizBank"}}, {"type": "node", "id": 5113126640, "lat": 41.0040147, "lon": 28.9316742, "tags": {"addr:city": "Istanbul", "addr:district": "Fatih", "addr:street": "Kuvayi Milliye Caddesi", "amenity": "atm", "brand": "Kuveyt T\u00fcrk", "brand:wikidata": "Q6036058", "brand:wikipedia": "tr:Kuveyt T\u00fcrk", "name": "Kuveyt T\u00fcrk", "name:ar": "\u0643\u0648\u064a\u062a \u062a\u0648\u0631\u0643 \u0622 \u062a\u064a \u0645\u064a", "operator": "Kuveyt T\u00fcrk", "operator:wikidata": "Q6036058", "operator:wikipedia": "tr:Kuveyt T\u00fcrk"}}, {"type": "node", "id": 5113126649, "lat": 41.0042889, "lon": 28.9316698, "tags": {"addr:city": "Istanbul", "addr:district": "Fatih", "addr:street": "Kuvayi Milliye Caddesi", "amenity": "atm", "brand": "Akbank", "brand:wikidata": "Q416624", "brand:wikipedia": "tr:Akbank", "name": "Akbank", "name:ar": "\u0622\u0643 \u0628\u0627\u0646\u0643 \u0622 \u062a\u064a \u0645\u064a", "operator": "Akbank", "operator:wikidata": "Q416624", "operator:wikipedia": "tr:Akbank"}}, {"type": "node", "id": 5113126655, "lat": 41.0043709, "lon": 28.9314757, "tags": {"addr:city": "Istanbul", "addr:district": "Fatih", "addr:street": "Kuvayi Milliye Caddesi", "amenity": "atm", "brand": "T\u00fcrkiye \u0130\u015f Bankas\u0131", "brand:wikidata": "Q909613", "brand:wikipedia": "en:\u0130\u015fbank", "name": "T\u00fcrkiye \u0130\u015f Bankas\u0131", "name:ar": "\u062a\u0631\u0643\u064a\u0627 \u0627\u064a\u0634 \u0628\u0627\u0646\u0643 \u0622 \u062a\u064a \u0645\u064a", "operator": "T\u00fcrkiye \u0130\u015f Bankas\u0131", "operator:wikidata": "Q909613", "operator:wikipedia": "en:\u0130\u015fbank"}}, {"type": "node", "id": 5113126656, "lat": 41.0044661, "lon": 28.9314533, "tags": {"addr:city": "Istanbul", "addr:district": "Fatih", "addr:street": "Kuvayi Milliye Caddesi", "amenity": "atm", "name": "QNB Finansbank ATM", "name:ar": "\u0643\u064a \u0627\u0646 \u0628\u064a \u0641\u064a\u0646\u0627\u0646\u0633 \u0628\u0627\u0646\u0643 \u0622 \u062a\u064a \u0645\u064a", "operator": "private"}}, {"type": "node", "id": 5113126657, "lat": 41.0044965, "lon": 28.9314561, "tags": {"addr:city": "Istanbul", "addr:district": "Fatih", "addr:street": "Kuvayi Milliye Caddesi", "amenity": "atm", "brand": "Garanti Bankas\u0131", "brand:wikidata": "Q322962", "brand:wikipedia": "en:Garanti BBVA", "name": "Garanti Bankas\u0131", "name:ar": "\u063a\u0627\u0631\u0627\u0646\u062a\u064a \u0622 \u062a\u064a \u0645\u064a", "operator": "Garanti Bankas\u0131", "operator:wikidata": "Q322962", "operator:wikipedia": "en:Garanti BBVA"}}, {"type": "node", "id": 5113127737, "lat": 41.0041469, "lon": 28.9312067, "tags": {"addr:city": "Istanbul", "addr:district": "Fatih", "addr:street": "Kuvayi Milliye Caddesi", "amenity": "atm", "brand": "Garanti Bankas\u0131", "brand:wikidata": "Q322962", "brand:wikipedia": "en:Garanti BBVA", "name": "Garanti Bankas\u0131", "name:ar": "\u063a\u0627\u0631\u0627\u0646\u062a\u064a \u0622 \u062a\u064a \u0645\u064a", "operator": "Garanti Bankas\u0131", "operator:wikidata": "Q322962", "operator:wikipedia": "en:Garanti BBVA"}}, {"type": "node", "id": 5113483625, "lat": 41.0207735, "lon": 28.9485812, "tags": {"addr:city": "Istanbul", "addr:district": "Fatih", "addr:street": "Feraizci sokak", "amenity": "atm", "brand": "Ziraat Bankas\u0131", "brand:wikidata": "Q696003", "brand:wikipedia": "en:Ziraat Bank", "name": "Ziraat Bankas\u0131", "name:ar": "\u0628\u0646\u0643 \u0632\u0631\u0627\u0639\u062a", "operator": "Ziraat Bankas\u0131", "operator:wikidata": "Q696003", "operator:wikipedia": "en:Ziraat Bank"}}, {"type": "node", "id": 5113486733, "lat": 41.0215199, "lon": 28.9480386, "tags": {"addr:city": "Istanbul", "addr:district": "Fatih", "addr:street": "Fatih caddesi", "amenity": "atm", "brand": "Akbank", "brand:wikidata": "Q416624", "brand:wikipedia": "tr:Akbank", "name": "Akbank", "name:ar": "\u0627\u0643 \u0628\u0627\u0646\u0643", "operator": "Akbank", "operator:wikidata": "Q416624", "operator:wikipedia": "tr:Akbank"}}, {"type": "node", "id": 5113486734, "lat": 41.0215099, "lon": 28.9480453, "tags": {"addr:city": "Istanbul", "addr:district": "Fatih", "addr:street": "Fatih caddesi", "amenity": "atm", "brand": "T\u00fcrkiye \u0130\u015f Bankas\u0131", "brand:wikidata": "Q909613", "brand:wikipedia": "en:\u0130\u015fbank", "name": "T\u00fcrkiye \u0130\u015f Bankas\u0131", "name:ar": "\u0628\u0646\u0643 \u0627\u064a\u0634", "operator": "T\u00fcrkiye \u0130\u015f Bankas\u0131", "operator:wikidata": "Q909613", "operator:wikipedia": "en:\u0130\u015fbank"}}, {"type": "node", "id": 5113486735, "lat": 41.0214988, "lon": 28.9480506, "tags": {"addr:city": "Istanbul", "addr:district": "Fatih", "addr:street": "Fatih caddesi", "amenity": "atm", "brand": "Kuveyt T\u00fcrk", "brand:wikidata": "Q6036058", "brand:wikipedia": "tr:Kuveyt T\u00fcrk", "name": "Kuveyt T\u00fcrk", "name:ar": "\u0643\u0648\u064a\u062a \u062a\u0631\u0643", "operator": "Kuveyt T\u00fcrk", "operator:wikidata": "Q6036058", "operator:wikipedia": "tr:Kuveyt T\u00fcrk"}}, {"type": "node", "id": 5113486736, "lat": 41.0214872, "lon": 28.9480566, "tags": {"addr:city": "Istanbul", "addr:district": "Fatih", "addr:street": "Fatih caddesi", "amenity": "atm", "brand": "Yap\u0131 Kredi", "brand:wikidata": "Q8049138", "brand:wikipedia": "en:Yap\u0131 Kredi", "name": "Yap\u0131 Kredi", "name:ar": "\u064a\u0627\u0628\u0649 \u0643\u0631\u064a\u062f\u064a", "operator": "Yap\u0131 Kredi", "operator:wikidata": "Q8049138", "operator:wikipedia": "en:Yap\u0131 Kredi"}}, {"type": "node", "id": 5113486742, "lat": 41.0290581, "lon": 28.9366244, "tags": {"addr:city": "Istanbul", "addr:district": "Fatih", "addr:street": "Fevzi pa\u015fa caddesi", "amenity": "atm", "brand": "QNB Finansbank", "brand:wikidata": "Q1416237", "brand:wikipedia": "en:QNB Finansbank", "name": "QNB Finansbank", "operator": "QNB Finansbank", "operator:wikidata": "Q1416237", "operator:wikipedia": "en:QNB Finansbank"}}, {"type": "node", "id": 5113486743, "lat": 41.029048, "lon": 28.9366425, "tags": {"addr:city": "Istanbul", "addr:district": "Fatih", "addr:street": "Fevzi pa\u015fa caddesi", "amenity": "atm", "brand": "Yap\u0131 Kredi", "brand:wikidata": "Q8049138", "brand:wikipedia": "en:Yap\u0131 Kredi", "name": "Yap\u0131 Kredi", "name:ar": "\u064a\u0627\u0628\u0649 \u0643\u0631\u064a\u062f\u064a", "operator": "Yap\u0131 Kredi", "operator:wikidata": "Q8049138", "operator:wikipedia": "en:Yap\u0131 Kredi"}}, {"type": "node", "id": 5113486744, "lat": 41.0290389, "lon": 28.9366552, "tags": {"addr:city": "Istanbul", "addr:district": "Fatih", "addr:street": "Fevzi pa\u015fa caddesi", "amenity": "atm", "brand": "Halkbank", "brand:wikidata": "Q3593818", "brand:wikipedia": "en:Halkbank a.d.", "name": "Halkbank", "operator": "Halkbank", "operator:wikidata": "Q3593818", "operator:wikipedia": "en:Halkbank a.d."}}, {"type": "node", "id": 5113486745, "lat": 41.0290283, "lon": 28.9366706, "tags": {"addr:city": "Istanbul", "addr:district": "Fatih", "addr:street": "Fevzi pa\u015fa caddesi", "amenity": "atm", "brand": "T\u00fcrkiye \u0130\u015f Bankas\u0131", "brand:wikidata": "Q909613", "brand:wikipedia": "en:\u0130\u015fbank", "name": "T\u00fcrkiye \u0130\u015f Bankas\u0131", "operator": "T\u00fcrkiye \u0130\u015f Bankas\u0131", "operator:wikidata": "Q909613", "operator:wikipedia": "en:\u0130\u015fbank"}}, {"type": "node", "id": 5113486769, "lat": 41.0269667, "lon": 28.9387836, "tags": {"addr:city": "Istanbul", "addr:district": "Fatih", "addr:street": "Fevzi pa\u015fa caddesi", "amenity": "atm", "brand": "Denizbank", "brand:wikidata": "Q1115064", "brand:wikipedia": "en:DenizBank", "name": "Denizbank", "name:ar": "\u062f\u0646\u064a\u0632 \u0628\u0627\u0646\u0643", "operator": "Denizbank", "operator:wikidata": "Q1115064", "operator:wikipedia": "en:DenizBank"}}, {"type": "node", "id": 5113486770, "lat": 41.0269438, "lon": 28.9388152, "tags": {"addr:city": "Istanbul", "addr:district": "Fatih", "addr:street": "Fevzi pa\u015fa caddesi", "amenity": "atm", "brand": "TEB", "brand:wikidata": "Q7862447", "brand:wikipedia": "en:T\u00fcrk Ekonomi Bankas\u0131", "name": "TEB", "name:ar": "\u062a\u064a\u0628", "operator": "TEB", "operator:wikidata": "Q7862447", "operator:wikipedia": "en:T\u00fcrk Ekonomi Bankas\u0131"}}, {"type": "node", "id": 5113592180, "lat": 41.0117056, "lon": 28.9390168, "tags": {"addr:city": "Istanbul", "addr:district": "Turkey", "addr:street": "KIZILELMA CADDES\u0130", "amenity": "atm", "brand": "Akbank", "brand:wikidata": "Q416624", "brand:wikipedia": "tr:Akbank", "name": "Akbank", "name:ar": "\u0627\u0643 \u0628\u0646\u0643", "operator": "Akbank", "operator:wikidata": "Q416624", "operator:wikipedia": "tr:Akbank"}}, {"type": "node", "id": 5113609924, "lat": 41.0285938, "lon": 28.9374663, "tags": {"addr:city": "Istanbul", "addr:district": "Fatih", "addr:street": "Fevzi Pa\u015fa Caddesi", "amenity": "atm", "brand": "ING", "brand:wikidata": "Q645708", "brand:wikipedia": "en:ING Group", "currency:TRY": "yes", "name": "ING", "operator": "ING", "operator:wikidata": "Q645708", "operator:wikipedia": "en:ING Group"}}, {"type": "node", "id": 5115927783, "lat": 41.0000627, "lon": 28.9317347, "tags": {"addr:city": "Istanbul", "addr:district": "Fatih", "addr:street": "Abdurrahman Nafiz G\u00fcrman Caddesi", "amenity": "atm", "name": "\u0130\u015f Bankas\u0131 ATM", "name:ar": "\u0635\u0631\u0627\u0641 \u0622\u0644\u064a \u0625\u0634 \u0628\u0627\u0646\u0643"}}, {"type": "node", "id": 5115937186, "lat": 41.007486, "lon": 28.9313537, "tags": {"addr:city": "Istanbul", "addr:district": "Fatih", "addr:street": "Alt\u0131mermer Caddesi", "amenity": "atm", "brand": "Yap\u0131 Kredi", "brand:wikidata": "Q8049138", "name": "Yap\u0131 Kredi", "name:ar": "\u0635\u0631\u0627\u0641\u0629 \u064a\u0627\u0628\u064a \u0643\u0631\u064a\u062f\u064a", "operator": "Yap\u0131 Kredi", "operator:wikidata": "Q8049138"}}, {"type": "node", "id": 5115937187, "lat": 41.0074536, "lon": 28.9313537, "tags": {"addr:city": "Istanbul", "addr:district": "Fatih", "addr:street": "Alt\u0131mermer Caddesi", "amenity": "atm", "brand": "Garanti Bankas\u0131", "brand:wikidata": "Q322962", "name": "Garanti Bankas\u0131", "name:ar": "\u0635\u0631\u0627\u0641\u0629 \u063a\u0627\u0631\u0627\u0646\u062a\u064a", "operator": "Garanti Bankas\u0131", "operator:wikidata": "Q322962"}}, {"type": "node", "id": 5115937188, "lat": 41.0075159, "lon": 28.9313511, "tags": {"addr:city": "Istanbul", "addr:district": "Fatih", "addr:street": "Alt\u0131mermer Caddesi", "amenity": "atm", "brand": "HSBC", "brand:wikidata": "Q190464", "name": "HSBC", "name:ar": "\u0635\u0631\u0627\u0641\u0629 \u0625\u062a\u0634 \u0625\u0633 \u0628\u064a \u0633\u064a", "operator": "HSBC", "operator:wikidata": "Q190464"}}, {"type": "node", "id": 5115937847, "lat": 41.0112232, "lon": 28.9297033, "tags": {"addr:city": "Istanbul", "addr:district": "Fatih", "addr:street": "Yayla Sokak", "amenity": "atm", "brand": "Garanti Bankas\u0131", "brand:wikidata": "Q322962", "brand:wikipedia": "en:Garanti BBVA", "name": "Garanti Bankas\u0131", "name:ar": "\u0635\u0631\u0627\u0641\u0629 \u063a\u0627\u0631\u0627\u0646\u062a\u064a \u0628\u0627\u0646\u0643", "operator": "Garanti Bankas\u0131", "operator:wikidata": "Q322962", "operator:wikipedia": "en:Garanti BBVA"}}, {"type": "node", "id": 5115938006, "lat": 41.0095386, "lon": 28.9311358, "tags": {"addr:city": "Istanbul", "addr:district": "Fatih", "addr:street": "Eski Vezir Caddesi", "amenity": "atm", "branch": "Paramatik", "brand": "Garanti Bankas\u0131", "brand:wikidata": "Q322962", "name": "Garanti Bankas\u0131", "name:ar": "\u0635\u0631\u0627\u0641 \u0622\u0644\u064a \u063a\u0627\u0631\u0627\u0646\u062a\u064a", "operator": "Garanti Bankas\u0131", "operator:wikidata": "Q322962", "phone": "4440333"}}, {"type": "node", "id": 5117958947, "lat": 41.0265913, "lon": 28.8882895, "tags": {"amenity": "atm", "brand": "Ziraat Bankas\u0131", "brand:wikidata": "Q696003", "brand:wikipedia": "en:Ziraat Bank", "name": "Ziraat Bankas\u0131", "operator": "Ziraat Bankas\u0131", "operator:wikidata": "Q696003", "operator:wikipedia": "en:Ziraat Bank"}}, {"type": "node", "id": 5117958948, "lat": 41.0265716, "lon": 28.8882689, "tags": {"amenity": "atm", "brand": "T\u00fcrkiye \u0130\u015f Bankas\u0131", "brand:wikidata": "Q909613", "brand:wikipedia": "en:\u0130\u015fbank", "name": "T\u00fcrkiye \u0130\u015f Bankas\u0131", "operator": "T\u00fcrkiye \u0130\u015f Bankas\u0131", "operator:wikidata": "Q909613", "operator:wikipedia": "en:\u0130\u015fbank"}}, {"type": "node", "id": 5127927627, "lat": 41.0311181, "lon": 28.842492, "tags": {"amenity": "atm", "opening_hours": "24/7"}}, {"type": "node", "id": 5127955422, "lat": 41.0311031, "lon": 28.842467, "tags": {"amenity": "atm"}}, {"type": "node", "id": 5130434823, "lat": 41.0073496, "lon": 28.9542363, "tags": {"addr:city": "Istanbul", "addr:district": "Fatih", "addr:street": "Aksaray Caddesi", "amenity": "atm", "brand": "Akbank", "brand:wikidata": "Q416624", "brand:wikipedia": "tr:Akbank", "name": "Akbank", "name:ar": "\u0622\u0643 \u0628\u0627\u0646\u0643", "operator": "Akbank", "operator:wikidata": "Q416624", "operator:wikipedia": "tr:Akbank"}}, {"type": "node", "id": 5194478721, "lat": 41.0229749, "lon": 28.9305383, "tags": {"amenity": "atm"}}, {"type": "node", "id": 5239183521, "lat": 41.0398282, "lon": 28.8942698, "tags": {"amenity": "atm"}}, {"type": "node", "id": 5242730211, "lat": 41.0400618, "lon": 28.894733, "tags": {"amenity": "atm", "brand": "T\u00fcrkiye \u0130\u015f Bankas\u0131", "brand:wikidata": "Q909613", "brand:wikipedia": "en:\u0130\u015fbank", "name": "T\u00fcrkiye \u0130\u015f Bankas\u0131", "operator": "T\u00fcrkiye \u0130\u015f Bankas\u0131", "operator:wikidata": "Q909613", "operator:wikipedia": "en:\u0130\u015fbank"}}, {"type": "node", "id": 5242730212, "lat": 41.0400621, "lon": 28.8946998, "tags": {"amenity": "atm", "brand": "Garanti Bankas\u0131", "brand:wikidata": "Q322962", "brand:wikipedia": "en:Garanti BBVA", "name": "Garanti Bankas\u0131", "operator": "Garanti Bankas\u0131", "operator:wikidata": "Q322962", "operator:wikipedia": "en:Garanti BBVA"}}, {"type": "node", "id": 5243950179, "lat": 41.0178795, "lon": 28.9441502, "tags": {"addr:city": "Istanbul", "addr:district": "Turkey", "addr:street": "Akdeniz Caddesi", "amenity": "atm", "name": "Denizbankas\u0131", "name:ar": "\u0628\u0646\u0643 \u062f\u064a\u0646\u0632"}}, {"type": "node", "id": 5256633169, "lat": 40.9975028, "lon": 28.902903, "tags": {"amenity": "atm", "brand": "Yap\u0131 Kredi", "brand:wikidata": "Q8049138", "brand:wikipedia": "en:Yap\u0131 Kredi", "name": "Yap\u0131 Kredi", "operator": "Yap\u0131 Kredi", "operator:wikidata": "Q8049138", "operator:wikipedia": "en:Yap\u0131 Kredi"}}, {"type": "node", "id": 5256637275, "lat": 40.9958624, "lon": 28.9010723, "tags": {"amenity": "atm", "brand": "Ziraat Bankas\u0131", "brand:wikidata": "Q696003", "name": "Ziraat Bankas\u0131", "operator": "Ziraat Bankas\u0131", "operator:wikidata": "Q696003"}}, {"type": "node", "id": 5256637887, "lat": 40.9974957, "lon": 28.9028282, "tags": {"amenity": "atm", "brand": "Akbank", "brand:wikidata": "Q416624", "brand:wikipedia": "tr:Akbank", "name": "Akbank", "operator": "Akbank", "operator:wikidata": "Q416624", "operator:wikipedia": "tr:Akbank"}}, {"type": "node", "id": 5256639301, "lat": 40.9974922, "lon": 28.9029777, "tags": {"amenity": "atm", "operator": "QN F\u0130NANS BANK"}}, {"type": "node", "id": 5259333821, "lat": 40.9916437, "lon": 28.8939343, "tags": {"amenity": "atm", "brand": "Yap\u0131 Kredi", "brand:wikidata": "Q8049138", "drive_through": "yes", "operator": "Yap\u0131 Kredi", "operator:wikidata": "Q8049138"}}, {"type": "node", "id": 5259333822, "lat": 40.9913926, "lon": 28.8938377, "tags": {"amenity": "atm", "brand": "Vak\u0131fbank", "brand:wikidata": "Q1148521", "brand:wikipedia": "en:Vak\u0131fBank", "name": "Vak\u0131fbank", "operator": "Vak\u0131fbank", "operator:wikidata": "Q1148521", "operator:wikipedia": "en:Vak\u0131fBank"}}, {"type": "node", "id": 5259336761, "lat": 40.9915384, "lon": 28.8939021, "tags": {"amenity": "atm", "brand": "QNB Finansbank", "brand:wikidata": "Q1416237", "operator": "QNB Finansbank", "operator:wikidata": "Q1416237"}}, {"type": "node", "id": 5264342886, "lat": 40.9949629, "lon": 28.9000683, "tags": {"amenity": "atm", "brand": "Kuveyt T\u00fcrk", "brand:wikidata": "Q6036058", "name": "Kuveyt T\u00fcrk", "operator": "Kuveyt T\u00fcrk", "operator:wikidata": "Q6036058"}}, {"type": "node", "id": 5266688084, "lat": 40.9971157, "lon": 28.8962119, "tags": {"amenity": "atm", "brand": "Yap\u0131 Kredi", "brand:wikidata": "Q8049138", "brand:wikipedia": "en:Yap\u0131 Kredi", "name": "Yap\u0131 Kredi", "operator": "Yap\u0131 Kredi", "operator:wikidata": "Q8049138", "operator:wikipedia": "en:Yap\u0131 Kredi"}}, {"type": "node", "id": 5266690075, "lat": 40.9971402, "lon": 28.8961672, "tags": {"amenity": "atm", "brand": "Akbank", "brand:wikidata": "Q416624", "brand:wikipedia": "tr:Akbank", "name": "Akbank", "operator": "Akbank", "operator:wikidata": "Q416624", "operator:wikipedia": "tr:Akbank"}}, {"type": "node", "id": 5266691816, "lat": 40.9997119, "lon": 28.9020071, "tags": {"amenity": "atm", "brand": "Yap\u0131 Kredi", "brand:wikidata": "Q8049138", "brand:wikipedia": "en:Yap\u0131 Kredi", "name": "Yap\u0131 Kredi", "operator": "Yap\u0131 Kredi", "operator:wikidata": "Q8049138", "operator:wikipedia": "en:Yap\u0131 Kredi"}}, {"type": "node", "id": 5266691852, "lat": 40.997105, "lon": 28.8962524, "tags": {"amenity": "atm", "brand": "QNB Finansbank", "brand:wikidata": "Q1416237", "operator": "QNB Finansbank", "operator:wikidata": "Q1416237"}}, {"type": "node", "id": 5266694058, "lat": 40.9998222, "lon": 28.9018833, "tags": {"amenity": "atm", "brand": "Akbank", "brand:wikidata": "Q416624", "brand:wikipedia": "tr:Akbank", "name": "Akbank", "operator": "Akbank", "operator:wikidata": "Q416624", "operator:wikipedia": "tr:Akbank"}}, {"type": "node", "id": 5266695593, "lat": 40.9998589, "lon": 28.9019219, "tags": {"amenity": "atm", "brand": "ING", "brand:wikidata": "Q645708", "brand:wikipedia": "en:ING Group", "name": "ING", "operator": "ING", "operator:wikidata": "Q645708", "operator:wikipedia": "en:ING Group"}}, {"type": "node", "id": 5266695657, "lat": 41.0003034, "lon": 28.9016097, "tags": {"amenity": "atm", "brand": "T\u00fcrkiye \u0130\u015f Bankas\u0131", "brand:wikidata": "Q909613", "brand:wikipedia": "en:\u0130\u015fbank", "name": "T\u00fcrkiye \u0130\u015f Bankas\u0131", "operator": "T\u00fcrkiye \u0130\u015f Bankas\u0131", "operator:wikidata": "Q909613", "operator:wikipedia": "en:\u0130\u015fbank"}}, {"type": "node", "id": 5266729399, "lat": 40.9975181, "lon": 28.9039686, "tags": {"amenity": "atm", "brand": "Halkbank", "brand:wikidata": "Q3593818", "brand:wikipedia": "en:Halkbank a.d.", "name": "Halkbank", "operator": "Halkbank", "operator:wikidata": "Q3593818", "operator:wikipedia": "en:Halkbank a.d."}}, {"type": "node", "id": 5293044463, "lat": 41.0495388, "lon": 28.8951226, "tags": {"amenity": "atm", "brand": "PTT Bank", "operator": "PTT"}}, {"type": "node", "id": 5317775533, "lat": 41.0409594, "lon": 28.907372, "tags": {"amenity": "atm"}}, {"type": "node", "id": 5475495124, "lat": 40.9782396, "lon": 28.8199772, "tags": {"amenity": "atm", "opening_hours": "24/7", "operator": "T\u00fcrkiye Finans"}}, {"type": "node", "id": 5481070224, "lat": 41.0164473, "lon": 28.9303348, "tags": {"amenity": "atm", "brand": "Vak\u0131fbank", "brand:wikidata": "Q1148521", "brand:wikipedia": "en:Vak\u0131fBank", "name": "Vak\u0131fbank", "opening_hours": "24/7", "operator": "Vak\u0131fbank", "operator:wikidata": "Q1148521", "operator:wikipedia": "en:Vak\u0131fBank"}}, {"type": "node", "id": 5482975822, "lat": 41.0454925, "lon": 28.943991, "tags": {"amenity": "atm", "brand": "Vak\u0131fbank", "brand:wikidata": "Q1148521", "brand:wikipedia": "en:Vak\u0131fBank", "name": "Vak\u0131fbank", "opening_hours": "24/7", "operator": "Vak\u0131fbank", "operator:wikidata": "Q1148521", "operator:wikipedia": "en:Vak\u0131fBank"}}, {"type": "node", "id": 5667618135, "lat": 41.0170375, "lon": 28.9106296, "tags": {"addr:city": "Istanbul", "addr:district": "Zeytinburnu", "addr:street": "Cevizliba\u011f K\u00f6pr\u00fcs\u00fc", "amenity": "atm", "brand": "QNB Finansbank", "brand:wikidata": "Q1416237", "brand:wikipedia": "en:QNB Finansbank", "name": "QNB Finansbank", "name:ar": "\u0628\u0646\u0643 \u0642\u0637\u0631 \u0627\u0644\u062f\u0648\u0644\u064a", "opening_hours": "24/7", "operator": "QNB Finansbank", "operator:wikidata": "Q1416237", "operator:wikipedia": "en:QNB Finansbank"}}, {"type": "node", "id": 5667618145, "lat": 41.017061, "lon": 28.9106452, "tags": {"addr:city": "Istanbul", "addr:district": "Zeytinburnu", "addr:street": "Cevizliba\u011f K\u00f6pr\u00fcs\u00fc", "amenity": "atm", "brand": "Akbank", "brand:wikidata": "Q416624", "brand:wikipedia": "tr:Akbank", "name": "Akbank", "name:ar": "\u0628\u0646\u0643 \u0627\u0643", "opening_hours": "24/7", "operator": "Akbank", "operator:wikidata": "Q416624", "operator:wikipedia": "tr:Akbank"}}, {"type": "node", "id": 5667618153, "lat": 41.0299196, "lon": 28.912586, "tags": {"addr:city": "Istanbul", "addr:district": "Zeytinburnu", "addr:street": "G\u00fcm\u00fc\u015fsuyu Caddesi", "amenity": "atm", "brand": "Denizbank", "brand:wikidata": "Q1115064", "brand:wikipedia": "en:DenizBank", "name": "Denizbank", "name:ar": "\u0628\u0646\u0643 \u062f\u0646\u064a\u0632", "opening_hours": "24/7", "operator": "Denizbank", "operator:wikidata": "Q1115064", "operator:wikipedia": "en:DenizBank"}}, {"type": "node", "id": 5667618376, "lat": 41.0236934, "lon": 28.9189164, "tags": {"addr:city": "Istanbul", "addr:district": "Zeytinburnu", "addr:street": "Litros Yolu Soka\u011f\u0131", "amenity": "atm", "brand": "Denizbank", "brand:wikidata": "Q1115064", "brand:wikipedia": "en:DenizBank", "name": "Denizbank", "name:ar": "\u0628\u0646\u0643 \u062f\u0646\u064a\u0632", "opening_hours": "24/7", "operator": "Denizbank", "operator:wikidata": "Q1115064", "operator:wikipedia": "en:DenizBank", "phone": "2220800"}}, {"type": "node", "id": 5667618662, "lat": 41.0237507, "lon": 28.9189333, "tags": {"addr:city": "Istanbul", "addr:district": "Zeytinburnu", "addr:street": "Litros Yolu Soka\u011f\u0131", "amenity": "atm", "branch": "Bank", "brand": "Garanti Bankas\u0131", "brand:wikidata": "Q322962", "brand:wikipedia": "en:Garanti BBVA", "name": "Garanti Bankas\u0131", "name:ar": "\u0628\u0646\u0643 \u063a\u0627\u0631\u0627\u0646\u062a\u064a", "opening_hours": "24/7", "operator": "Garanti Bankas\u0131", "operator:wikidata": "Q322962", "operator:wikipedia": "en:Garanti BBVA", "phone": "4440333"}}, {"type": "node", "id": 5667618673, "lat": 41.0102017, "lon": 28.8992642, "tags": {"addr:city": "Istanbul", "addr:district": "Zeytinburnu", "addr:street": "\u00c7\u0131rp\u0131c\u0131 \u00c7\u0131kmaz\u0131", "amenity": "atm", "brand": "Denizbank", "brand:wikidata": "Q1115064", "brand:wikipedia": "en:DenizBank", "name": "Denizbank", "name:ar": "\u0628\u0646\u0643 \u062f\u0646\u064a\u0632", "opening_hours": "24/7", "operator": "Denizbank", "operator:wikidata": "Q1115064", "operator:wikipedia": "en:DenizBank", "phone": "2220800"}}, {"type": "node", "id": 5667618737, "lat": 41.0237189, "lon": 28.9189164, "tags": {"addr:city": "Istanbul", "addr:district": "Zeytinburnu", "addr:street": "Litros Yolu Sk.", "amenity": "atm", "brand": "ING", "brand:wikidata": "Q645708", "brand:wikipedia": "en:ING Group", "name": "ING", "name:ar": "\u0628\u0646\u0643 \u0627\u0644\u0645\u062c\u0645\u0648\u0639\u0629 \u0627\u0644\u0647\u0648\u0644\u0646\u062f\u064a\u0629 \u0627\u0644\u062f\u0648\u0644\u064a\u0629", "opening_hours": "24/7", "operator": "ING", "operator:wikidata": "Q645708", "operator:wikipedia": "en:ING Group", "phone": "2220600"}}, {"type": "node", "id": 5667618815, "lat": 41.017014, "lon": 28.9105985, "tags": {"addr:city": "Istanbul", "addr:district": "Zeytinburnu", "addr:street": "Cevizliba\u011f K\u00f6pr\u00fcs\u00fc", "amenity": "atm", "brand": "Garanti Bankas\u0131", "brand:wikidata": "Q322962", "brand:wikipedia": "en:Garanti BBVA", "name": "Garanti Bankas\u0131", "name:ar": "\u0628\u0646\u0643 \u063a\u0627\u0631\u0627\u0646\u062a\u064a", "opening_hours": "24/7", "operator": "Garanti Bankas\u0131", "operator:wikidata": "Q322962", "operator:wikipedia": "en:Garanti BBVA"}}, {"type": "node", "id": 5667638780, "lat": 40.9971065, "lon": 28.8962389, "tags": {"addr:city": "Istanbul", "addr:district": "Zeytinburnu", "addr:street": "Ahmet yesevi sokak", "amenity": "atm", "brand": "Akbank", "brand:wikidata": "Q416624", "brand:wikipedia": "tr:Akbank", "name": "Akbank", "name:ar": "\u0645\u062d\u0644 \u0635\u0631\u0627\u0641\u0629", "operator": "Akbank", "operator:wikidata": "Q416624", "operator:wikipedia": "tr:Akbank"}}, {"type": "node", "id": 5667640799, "lat": 40.9971172, "lon": 28.8961984, "tags": {"addr:city": "Istanbul", "addr:district": "Zeytinburnu", "addr:street": "Ahmet yesevi sokak", "amenity": "atm", "brand": "Yap\u0131 Kredi", "brand:wikidata": "Q8049138", "brand:wikipedia": "en:Yap\u0131 Kredi", "name": "Yap\u0131 Kredi", "name:ar": "\u0645\u062d\u0644 \u0635\u0631\u0627\u0641\u0629", "operator": "Yap\u0131 Kredi", "operator:wikidata": "Q8049138", "operator:wikipedia": "en:Yap\u0131 Kredi"}}, {"type": "node", "id": 5667641522, "lat": 41.0025761, "lon": 28.9157827, "tags": {"addr:city": "Istanbul", "addr:district": "Zeytinburnu", "amenity": "atm", "brand": "Ziraat Bankas\u0131", "brand:wikidata": "Q696003", "brand:wikipedia": "en:Ziraat Bank", "name": "Ziraat Bankas\u0131", "name:ar": "\u0635\u0631\u0627\u0641 \u0627\u0644\u064a \u0628\u0646\u0643 \u0632\u0631\u0627\u0639\u0627\u062a", "opening_hours": "24/7", "operator": "Ziraat Bankas\u0131", "operator:wikidata": "Q696003", "operator:wikipedia": "en:Ziraat Bank"}}, {"type": "node", "id": 5667641528, "lat": 40.9989368, "lon": 28.9109621, "tags": {"addr:city": "Istanbul", "addr:district": "Zeytinburnu", "amenity": "atm", "brand": "ING", "brand:wikidata": "Q645708", "name": "ING", "name:ar": "\u0627\u0644\u0628\u0646\u0643 \u0627\u0644\u0627\u0646\u0643\u0644\u064a\u0632\u064a \u0635\u0631\u0627\u0641 \u0627\u0644\u064a", "operator": "ING", "operator:wikidata": "Q645708"}}, {"type": "node", "id": 5667641538, "lat": 40.9993142, "lon": 28.9175398, "tags": {"addr:city": "Istanbul", "addr:district": "Zeytinburnu", "amenity": "atm", "brand": "T\u00fcrkiye \u0130\u015f Bankas\u0131", "brand:wikidata": "Q909613", "brand:wikipedia": "en:\u0130\u015fbank", "name": "T\u00fcrkiye \u0130\u015f Bankas\u0131", "name:ar": "\u0635\u0631\u0627\u0641 i\u015f bank", "opening_hours": "24/7", "operator": "T\u00fcrkiye \u0130\u015f Bankas\u0131", "operator:wikidata": "Q909613", "operator:wikipedia": "en:\u0130\u015fbank"}}, {"type": "node", "id": 5667641560, "lat": 40.9989266, "lon": 28.9109487, "tags": {"addr:city": "Istanbul", "addr:district": "Zeytinburnu", "amenity": "atm", "brand": "Halkbank", "brand:wikidata": "Q3593818", "name": "Halkbank ATM", "name:ar": "\u0628\u0646\u0643 \u0647\u0627\u0644\u0643 \u0635\u0631\u0627\u0641 \u0627\u0644\u064a", "operator": "Halkbank", "operator:wikidata": "Q3593818"}}, {"type": "node", "id": 5667641570, "lat": 41.0044612, "lon": 28.9205511, "tags": {"addr:city": "Istanbul", "addr:district": "Zeytinburnu", "amenity": "atm", "brand": "T\u00fcrkiye \u0130\u015f Bankas\u0131", "brand:wikidata": "Q909613", "brand:wikipedia": "en:\u0130\u015fbank", "name": "T\u00fcrkiye \u0130\u015f Bankas\u0131", "name:ar": "\u0635\u0631\u0627\u0641 i\u015f bank", "opening_hours": "24/7", "operator": "T\u00fcrkiye \u0130\u015f Bankas\u0131", "operator:wikidata": "Q909613", "operator:wikipedia": "en:\u0130\u015fbank"}}, {"type": "node", "id": 5667641584, "lat": 41.0003434, "lon": 28.916261, "tags": {"addr:city": "Istanbul", "addr:district": "Zeytinburnu", "amenity": "atm", "brand": "Yap\u0131 Kredi", "brand:wikidata": "Q8049138", "brand:wikipedia": "en:Yap\u0131 Kredi", "name": "Yap\u0131 Kredi", "name:ar": "\u0635\u0631\u0627\u0641 Yap\u0131kredi", "opening_hours": "24/7", "operator": "Yap\u0131 Kredi", "operator:wikidata": "Q8049138", "operator:wikipedia": "en:Yap\u0131 Kredi"}}, {"type": "node", "id": 5667641586, "lat": 40.9989368, "lon": 28.9109755, "tags": {"addr:city": "Istanbul", "addr:district": "Zeytinburnu", "amenity": "atm", "brand": "TEB", "brand:wikidata": "Q7862447", "name": "TEB BANK ATM", "name:ar": "\u0627\u064a \u0627\u064a \u0628\u064a \u0628\u0646\u0643 \u0635\u0631\u0627\u0641 \u0627\u0644\u064a", "operator": "TEB", "operator:wikidata": "Q7862447"}}, {"type": "node", "id": 5667642054, "lat": 40.9996197, "lon": 28.9134701, "tags": {"addr:city": "Istanbul", "addr:district": "Zeytinburnu", "amenity": "atm", "name:ar": "\u0635\u0631\u0627\u0641 \u0622\u0644\u064a"}}, {"type": "node", "id": 5667642943, "lat": 40.998957, "lon": 28.9110828, "tags": {"addr:city": "Istanbul", "addr:district": "Zeytinburnu", "amenity": "atm", "brand": "Akbank", "brand:wikidata": "Q416624", "currency:TRY": "yes", "name": "Akbank", "name:ar": "\u0627\u0643 \u0628\u0646\u0643 \u0635\u0631\u0627\u0641 \u0627\u0644\u064a", "operator": "Akbank", "operator:wikidata": "Q416624"}}, {"type": "node", "id": 5667655682, "lat": 40.9896562, "lon": 28.9043607, "tags": {"addr:city": "Istanbul", "addr:district": "Zeytinburnu", "addr:street": "Sht komseri Gunaydin caddesi", "amenity": "atm", "brand": "ING", "brand:wikidata": "Q645708", "name": "ING", "name:ar": "\u0627\u0646\u062c \u0628\u0627\u0646\u0643", "operator": "ING", "operator:wikidata": "Q645708"}}, {"type": "node", "id": 5667658270, "lat": 40.9945785, "lon": 28.9023829, "tags": {"addr:city": "Istanbul", "addr:district": "Zeytinburnu", "amenity": "atm", "brand": "Ziraat Bankas\u0131", "brand:wikidata": "Q696003", "name": "Ziraat Bankas\u0131", "name:ar": "\u0635\u0631\u0627\u0641 \u0628\u0646\u0643 \u0632\u0631\u0627\u0639\u062a", "opening_hours": "24/7", "operator": "Ziraat Bankas\u0131", "operator:wikidata": "Q696003"}}, {"type": "node", "id": 5667659249, "lat": 40.9946933, "lon": 28.9022443, "tags": {"addr:city": "Istanbul", "addr:district": "Zeytinburnu", "addr:street": "74. sokak", "amenity": "atm", "brand": "QNB Finansbank", "brand:wikidata": "Q1416237", "name": "QNB Finansbank", "name:ar": "\u0645\u0631\u0643\u0632 \u0635\u0631\u0627\u0641\u0629", "operator": "QNB Finansbank", "operator:wikidata": "Q1416237"}}, {"type": "node", "id": 5667659691, "lat": 40.9896853, "lon": 28.9045373, "tags": {"addr:city": "Istanbul", "addr:district": "Zeytinburnu", "addr:street": "Sht komseri Gunaydin caddesi", "amenity": "atm", "brand": "Akbank", "brand:wikidata": "Q416624", "name": "Akbank", "name:ar": "\u0627\u0643 \u0628\u0646\u0643", "operator": "Akbank", "operator:wikidata": "Q416624"}}, {"type": "node", "id": 5667660821, "lat": 40.9946864, "lon": 28.9022166, "tags": {"addr:city": "Istanbul", "addr:district": "Zeytinburnu", "addr:street": "74. sokak", "amenity": "atm", "brand": "ING", "brand:wikidata": "Q645708", "name": "ING", "name:ar": "\u0645\u0631\u0643\u0632 \u0635\u0631\u0627\u0641\u0629 \u0627\u0644\u0628\u0646\u0643 \u0627\u0644\u0627\u0646\u0643\u0644\u064a\u0632\u064a", "operator": "ING", "operator:wikidata": "Q645708"}}, {"type": "node", "id": 5667662124, "lat": 40.9944381, "lon": 28.9038727, "tags": {"addr:city": "Istanbul", "addr:district": "Zeytinburnu", "addr:street": "\u0130n\u00f6n\u00fc Bulvar\u0131", "amenity": "atm", "brand": "Garanti Bankas\u0131", "brand:wikidata": "Q322962", "brand:wikipedia": "en:Garanti BBVA", "name": "Garanti Bankas\u0131", "name:ar": "\u063a\u0631\u0627\u0646\u062a\u064a", "operator": "Garanti Bankas\u0131", "operator:wikidata": "Q322962", "operator:wikipedia": "en:Garanti BBVA"}}, {"type": "node", "id": 5667662141, "lat": 40.9945455, "lon": 28.9039866, "tags": {"addr:city": "Istanbul", "addr:district": "Zeytinburnu", "addr:street": "near Be\u015ftelsiz Mahallesi, \u0130n\u00f6n\u00fc Blv., 34020 Zeytinburnu/\u0130stanbul", "amenity": "atm", "brand": "Halkbank", "brand:wikidata": "Q3593818", "name": "Halkbank", "name:ar": "\u0647\u0627\u0644\u0643 \u0628\u0646\u0643", "operator": "Halkbank", "operator:wikidata": "Q3593818"}}, {"type": "node", "id": 5667662186, "lat": 40.993674, "lon": 28.9055103, "tags": {"addr:city": "Istanbul", "addr:district": "Zeytinburnu", "addr:street": "48. sokak", "amenity": "atm", "brand": "Yap\u0131 Kredi", "brand:wikidata": "Q8049138", "name": "Yap\u0131 Kredi", "name:ar": "\u064a\u0627\u0628\u0643\u0631\u064a\u062f\u064a", "operator": "Yap\u0131 Kredi", "operator:wikidata": "Q8049138"}}, {"type": "node", "id": 5667662661, "lat": 40.9941523, "lon": 28.9015229, "tags": {"addr:city": "Istanbul", "addr:district": "Zeytinburnu", "amenity": "atm", "brand": "T\u00fcrkiye \u0130\u015f Bankas\u0131", "brand:wikidata": "Q909613", "name": "T\u00fcrkiye \u0130\u015f Bankas\u0131", "opening_hours": "24/7", "operator": "T\u00fcrkiye \u0130\u015f Bankas\u0131", "operator:wikidata": "Q909613"}}, {"type": "node", "id": 5667662669, "lat": 40.9941107, "lon": 28.9015413, "tags": {"addr:city": "Istanbul", "addr:district": "Zeytinburnu", "amenity": "atm", "name": "T\u00fcrkiye Finans ATM", "opening_hours": "24/7"}}, {"type": "node", "id": 5667668995, "lat": 41.0476257, "lon": 28.845698, "tags": {"addr:city": "Istanbul", "addr:district": "Ba\u011fc\u0131lar", "addr:street": "Velio\u011flu caddesi", "amenity": "atm", "branch": "Bankamatik", "brand": "T\u00fcrkiye \u0130\u015f Bankas\u0131", "brand:wikidata": "Q909613", "name": "T\u00fcrkiye \u0130\u015f Bankas\u0131", "name:ar": "\u0628\u0646\u0643 \u0627\u064a\u0634", "operator": "T\u00fcrkiye \u0130\u015f Bankas\u0131", "operator:wikidata": "Q909613"}}, {"type": "node", "id": 5667670090, "lat": 41.0476381, "lon": 28.8456658, "tags": {"addr:city": "Istanbul", "addr:district": "Ba\u011fc\u0131lar", "addr:street": "Velio\u011flu caddesi", "amenity": "atm", "brand": "Akbank", "brand:wikidata": "Q416624", "name": "Akbank", "name:ar": "\u0627\u0643 \u0628\u0627\u0646\u0643", "operator": "Akbank", "operator:wikidata": "Q416624"}}, {"type": "node", "id": 5667672271, "lat": 41.0495767, "lon": 28.8459923, "tags": {"addr:city": "Istanbul", "addr:district": "Ba\u011fc\u0131lar", "amenity": "atm", "brand": "Halkbank", "brand:wikidata": "Q3593818", "name": "Halkbank", "name:ar": "\u0635\u0631\u0627\u0641 \u0628\u0646\u0643 Halk", "operator": "Halkbank", "operator:wikidata": "Q3593818"}}, {"type": "node", "id": 5667672295, "lat": 41.0513084, "lon": 28.8463104, "tags": {"addr:city": "Istanbul", "addr:district": "Ba\u011fc\u0131lar", "amenity": "atm", "brand": "Akbank", "brand:wikidata": "Q416624", "brand:wikipedia": "tr:Akbank", "name": "Akbank", "name:ar": "\u0635\u0631\u0627\u0641 \u0628\u0646\u0643 AK", "operator": "Akbank", "operator:wikidata": "Q416624", "operator:wikipedia": "tr:Akbank"}}, {"type": "node", "id": 5667672298, "lat": 41.0513188, "lon": 28.8463104, "tags": {"addr:city": "Istanbul", "addr:district": "Ba\u011fc\u0131lar", "amenity": "atm", "brand": "Denizbank", "brand:wikidata": "Q1115064", "brand:wikipedia": "en:DenizBank", "name": "Denizbank", "name:ar": "\u0635\u0631\u0627\u0641 \u0628\u0646\u0643 Deniz", "operator": "Denizbank", "operator:wikidata": "Q1115064", "operator:wikipedia": "en:DenizBank"}}, {"type": "node", "id": 5667673331, "lat": 41.0513396, "lon": 28.8463104, "tags": {"addr:city": "Istanbul", "addr:district": "Ba\u011fc\u0131lar", "amenity": "atm", "branch": "bank ATM", "brand": "Garanti Bankas\u0131", "brand:wikidata": "Q322962", "brand:wikipedia": "en:Garanti BBVA", "name": "Garanti Bankas\u0131", "name:ar": "\u0635\u0631\u0627\u0641 \u0628\u0646\u0643 Garanti", "operator": "Garanti Bankas\u0131", "operator:wikidata": "Q322962", "operator:wikipedia": "en:Garanti BBVA"}}, {"type": "node", "id": 5667673370, "lat": 41.0477241, "lon": 28.8500157, "tags": {"addr:city": "Istanbul", "addr:district": "Zeytinburnu", "amenity": "atm", "name": "ATM", "name:ar": "\u0635\u0631\u0627\u0641 \u0622\u0644\u064a"}}, {"type": "node", "id": 5667673378, "lat": 41.049485, "lon": 28.8459923, "tags": {"addr:city": "Istanbul", "addr:district": "Ba\u011fc\u0131lar", "amenity": "atm", "name": "T\u00fcrkiye finans bank ATM", "name:ar": "\u0635\u0631\u0627\u0641 \u0628\u0646\u0643 T\u00fcrkiye Finans", "opening_hours": "24/7"}}, {"type": "node", "id": 5667673467, "lat": 41.051298, "lon": 28.8463104, "tags": {"addr:city": "Istanbul", "addr:district": "Ba\u011fc\u0131lar", "amenity": "atm", "brand": "Vak\u0131fbank", "brand:wikidata": "Q1148521", "brand:wikipedia": "en:Vak\u0131fBank", "name": "Vak\u0131fbank", "name:ar": "\u0635\u0631\u0627\u0641 \u0628\u0646\u0643 Vak\u0131f", "operator": "Vak\u0131fbank", "operator:wikidata": "Q1148521", "operator:wikipedia": "en:Vak\u0131fBank"}}, {"type": "node", "id": 5667673468, "lat": 41.046631, "lon": 28.8598207, "tags": {"addr:city": "Istanbul", "addr:district": "Ba\u011fc\u0131lar", "addr:street": "Osmangazi Caddesi", "amenity": "atm", "name": "Bankamatik", "name:ar": "\u0628\u0646\u0643\u0627\u0645\u0627\u062a\u064a\u0643", "opening_hours": "24/7"}}, {"type": "node", "id": 5667673559, "lat": 41.0476845, "lon": 28.8598367, "tags": {"addr:city": "Istanbul", "addr:district": "Ba\u011fc\u0131lar", "addr:street": "Osmangazi Caddesi", "amenity": "atm", "brand": "Ziraat Bankas\u0131", "brand:wikidata": "Q696003", "name": "Ziraat Bankas\u0131", "name:ar": "\u0632\u0631\u0627\u0639\u0627\u062a \u0628\u0646\u0643", "operator": "Ziraat Bankas\u0131", "operator:wikidata": "Q696003"}}, {"type": "node", "id": 5667673956, "lat": 41.049384, "lon": 28.8555081, "tags": {"addr:city": "Istanbul", "addr:district": "Ba\u011fc\u0131lar", "addr:street": "Hac\u0131 Bekta\u015f\u0131 Veli Caddesi", "amenity": "atm", "brand": "Vak\u0131fbank", "brand:wikidata": "Q1148521", "name": "Vak\u0131fbank", "opening_hours": "24/7", "operator": "Vak\u0131fbank", "operator:wikidata": "Q1148521"}}, {"type": "node", "id": 5667674508, "lat": 41.0522055, "lon": 28.8363937, "tags": {"addr:city": "Istanbul", "addr:district": "Ba\u011fc\u0131lar", "addr:street": "2. sokak", "amenity": "atm", "brand": "Denizbank", "brand:wikidata": "Q1115064", "name": "Denizbank", "name:ar": "\u0635\u0631\u0627\u0641\u0629 \u0628\u0646\u0643 \u062f\u0646\u064a\u0632", "operator": "Denizbank", "operator:wikidata": "Q1115064"}}, {"type": "node", "id": 5667674511, "lat": 41.0476482, "lon": 28.8598367, "tags": {"addr:city": "Istanbul", "addr:district": "Ba\u011fc\u0131lar", "addr:street": "Osmangazi Caddesi", "amenity": "atm", "brand": "QNB Finansbank", "brand:wikidata": "Q1416237", "name": "QNB Finansbank", "operator": "QNB Finansbank", "operator:wikidata": "Q1416237"}}, {"type": "node", "id": 5667674934, "lat": 41.0475876, "lon": 28.8598367, "tags": {"addr:city": "Istanbul", "addr:district": "Ba\u011fc\u0131lar", "addr:street": "Osmangazi Caddesi", "amenity": "atm", "brand": "Garanti Bankas\u0131", "brand:wikidata": "Q322962", "name": "Garanti Bankas\u0131", "operator": "Garanti Bankas\u0131", "operator:wikidata": "Q322962"}}, {"type": "node", "id": 5667674957, "lat": 41.0475392, "lon": 28.8598367, "tags": {"addr:city": "Istanbul", "addr:district": "Ba\u011fc\u0131lar", "addr:street": "Osmangazi Caddesi", "amenity": "atm", "brand": "Akbank", "brand:wikidata": "Q416624", "name": "Akbank", "name:ar": "\u0623\u0643 \u0628\u0646\u0643", "operator": "Akbank", "operator:wikidata": "Q416624"}}, {"type": "node", "id": 5667684463, "lat": 41.0309486, "lon": 28.8284864, "tags": {"addr:city": "Istanbul", "addr:district": "Ba\u011fc\u0131lar", "addr:street": "Menderes Caddesi", "amenity": "atm", "brand": "Yap\u0131 Kredi", "brand:wikidata": "Q8049138", "name": "Yap\u0131 Kredi", "name:ar": "\u064a\u0627\u0628\u064a \u0643\u0631\u064a\u062f\u064a \u0628\u0627\u0646\u0643", "operator": "Yap\u0131 Kredi", "operator:wikidata": "Q8049138"}}, {"type": "node", "id": 5667684494, "lat": 41.0256981, "lon": 28.8305885, "tags": {"addr:city": "Istanbul", "addr:district": "Ba\u011fc\u0131lar", "addr:street": "Menderes Caddesi", "amenity": "atm", "brand": "Denizbank", "brand:wikidata": "Q1115064", "name": "Denizbank", "name:ar": "\u0628\u0646\u0643 \u062f\u064a\u0646\u064a\u0632", "operator": "Denizbank", "operator:wikidata": "Q1115064"}}, {"type": "node", "id": 5667684509, "lat": 41.0262023, "lon": 28.8305667, "tags": {"addr:city": "Istanbul", "addr:district": "Ba\u011fc\u0131lar", "addr:street": "Menderes Caddesi", "amenity": "atm", "brand": "TEB", "brand:wikidata": "Q7862447", "name": "TEB", "name:ar": "\u062a\u064a \u0625\u064a \u0628\u064a \u0628\u0627\u0646\u0643", "operator": "TEB", "operator:wikidata": "Q7862447"}}, {"type": "node", "id": 5667686323, "lat": 41.0262216, "lon": 28.8305667, "tags": {"addr:city": "Istanbul", "addr:district": "Ba\u011fc\u0131lar", "addr:street": "Menderes Caddesi", "amenity": "atm", "brand": "ING", "brand:wikidata": "Q645708", "name": "ING", "name:ar": "\u0625\u0646\u062c \u0628\u0627\u0646\u0643", "operator": "ING", "operator:wikidata": "Q645708"}}, {"type": "node", "id": 5667686328, "lat": 41.0264437, "lon": 28.8305924, "tags": {"addr:city": "Istanbul", "addr:district": "Ba\u011fc\u0131lar", "addr:street": "Menderes Caddesi", "amenity": "atm", "branch": "Bank", "brand": "Garanti Bankas\u0131", "brand:wikidata": "Q322962", "name": "Garanti Bankas\u0131", "name:ar": "\u062c\u0627\u0631\u0627\u0646\u062a\u064a \u0628\u0627\u0646\u0643", "operator": "Garanti Bankas\u0131", "operator:wikidata": "Q322962"}}, {"type": "node", "id": 5667686360, "lat": 41.0256267, "lon": 28.8305885, "tags": {"addr:city": "Istanbul", "addr:district": "Ba\u011fc\u0131lar", "addr:street": "Menderes Caddesi", "amenity": "atm", "brand": "T\u00fcrkiye \u0130\u015f Bankas\u0131", "brand:wikidata": "Q909613", "name": "T\u00fcrkiye \u0130\u015f Bankas\u0131", "name:ar": "\u0628\u0646\u0643 \u0625\u064a\u0634", "operator": "T\u00fcrkiye \u0130\u015f Bankas\u0131", "operator:wikidata": "Q909613"}}, {"type": "node", "id": 5667686393, "lat": 41.0264727, "lon": 28.8305924, "tags": {"addr:city": "Istanbul", "addr:district": "Ba\u011fc\u0131lar", "addr:street": "Menderes Caddesi", "amenity": "atm", "brand": "Vak\u0131fbank", "brand:wikidata": "Q1148521", "name": "Vak\u0131fbank", "name:ar": "\u0648\u0642\u0641 \u0628\u0627\u0646\u0643", "operator": "Vak\u0131fbank", "operator:wikidata": "Q1148521"}}, {"type": "node", "id": 5667686405, "lat": 41.0274828, "lon": 28.8308093, "tags": {"addr:city": "Istanbul", "addr:district": "Ba\u011fc\u0131lar", "addr:street": "Menderes Caddesi", "amenity": "atm", "brand": "QNB Finansbank", "brand:wikidata": "Q1416237", "name": "QNB Finansbank", "name:ar": "\u0643\u064a\u0648 \u0625\u0646 \u0628\u064a \u0641\u064a\u0646\u0627\u0646\u0633 \u0628\u0627\u0646\u0643", "operator": "QNB Finansbank", "operator:wikidata": "Q1416237"}}, {"type": "node", "id": 5667687555, "lat": 41.0275066, "lon": 28.8308093, "tags": {"addr:city": "Istanbul", "addr:district": "Ba\u011fc\u0131lar", "addr:street": "Menderes Caddesi", "amenity": "atm", "brand": "Halkbank", "brand:wikidata": "Q3593818", "name": "Halkbank", "name:ar": "\u0647\u0627\u0644\u0643 \u0628\u0627\u0646\u0643", "operator": "Halkbank", "operator:wikidata": "Q3593818"}}, {"type": "node", "id": 5667687605, "lat": 41.0311122, "lon": 28.8424866, "tags": {"addr:city": "Istanbul", "addr:district": "Ba\u011fc\u0131lar", "addr:street": "Hoca Ahmet Yesevi caddesi", "amenity": "atm", "name": "Albaraka T\u00fcrk", "name:ar": "\u0628\u0646\u0643 \u0627\u0644\u0628\u0631\u0643\u0629"}}, {"type": "node", "id": 5667689772, "lat": 41.0310923, "lon": 28.8424515, "tags": {"addr:city": "Istanbul", "addr:district": "Ba\u011fc\u0131lar", "addr:street": "Hoca Ahmet Yesevi caddesi", "amenity": "atm", "brand": "Denizbank", "brand:wikidata": "Q1115064", "name": "Denizbank", "name:ar": "\u0628\u0646\u0643 \u062f\u064a\u0646\u064a\u0632", "operator": "Denizbank", "operator:wikidata": "Q1115064"}}, {"type": "node", "id": 5667689818, "lat": 41.0265209, "lon": 28.8146458, "tags": {"addr:city": "Istanbul", "addr:district": "Ba\u011fc\u0131lar", "addr:street": "Mimar sinan caddesi", "amenity": "atm", "brand": "Denizbank", "brand:wikidata": "Q1115064", "name": "Denizbank", "name:ar": "\u062f\u064a\u0646\u064a\u0632\u0628\u0627\u0646\u0643", "operator": "Denizbank", "operator:wikidata": "Q1115064"}}, {"type": "node", "id": 5667691035, "lat": 41.0311056, "lon": 28.8424691, "tags": {"addr:city": "Istanbul", "addr:district": "Ba\u011fc\u0131lar", "addr:street": "Hoca Ahmet Yesevi caddesi", "amenity": "atm", "brand": "Yap\u0131 Kredi", "brand:wikidata": "Q8049138", "name": "Yap\u0131 Kredi", "name:ar": "\u064a\u0627\u0628\u064a \u0643\u0631\u064a\u062f\u064a", "operator": "Yap\u0131 Kredi", "operator:wikidata": "Q8049138"}}, {"type": "node", "id": 5667691054, "lat": 41.0264244, "lon": 28.8305795, "tags": {"addr:city": "Istanbul", "addr:district": "Ba\u011fc\u0131lar", "addr:street": "Menderes Caddesi", "amenity": "atm", "brand": "Yap\u0131 Kredi", "brand:wikidata": "Q8049138", "name": "Yap\u0131 Kredi", "name:ar": "\u064a\u0627\u0628\u064a \u0643\u0631\u064a\u062f\u064a \u0628\u0627\u0646\u0643", "operator": "Yap\u0131 Kredi", "operator:wikidata": "Q8049138"}}, {"type": "node", "id": 5667691073, "lat": 41.0256743, "lon": 28.8305885, "tags": {"addr:city": "Istanbul", "addr:district": "Ba\u011fc\u0131lar", "addr:street": "Menderes Caddesi", "amenity": "atm", "name": "T\u00fcrkiye Finansbank", "name:ar": "\u062a\u0631\u0643\u064a\u0627 \u0641\u064a\u0646\u0627\u0646\u0633 \u0628\u0627\u0646\u0643"}}, {"type": "node", "id": 5667691082, "lat": 41.0265128, "lon": 28.814603, "tags": {"addr:city": "Istanbul", "addr:district": "Ba\u011fc\u0131lar", "addr:street": "Mimar sinan caddesi", "amenity": "atm", "brand": "Akbank", "brand:wikidata": "Q416624", "name": "Akbank", "name:ar": "\u0627\u0643 \u0628\u0646\u0643", "operator": "Akbank", "operator:wikidata": "Q416624"}}, {"type": "node", "id": 5667691117, "lat": 41.0262409, "lon": 28.8305667, "tags": {"addr:city": "Istanbul", "addr:district": "Ba\u011fc\u0131lar", "addr:street": "Menderes Caddesi", "amenity": "atm", "brand": "Akbank", "brand:wikidata": "Q416624", "name": "Akbank", "name:ar": "\u0623\u0643 \u0628\u0627\u0646\u0643", "operator": "Akbank", "operator:wikidata": "Q416624"}}, {"type": "node", "id": 5667692646, "lat": 41.0309231, "lon": 28.8284864, "tags": {"addr:city": "Istanbul", "addr:district": "Ba\u011fc\u0131lar", "addr:street": "Menderes Caddesi", "amenity": "atm", "brand": "Vak\u0131fbank", "brand:wikidata": "Q1148521", "name": "Vak\u0131fbank", "name:ar": "\u0648\u0642\u0641 \u0628\u0627\u0646\u0643", "operator": "Vak\u0131fbank", "operator:wikidata": "Q1148521"}}, {"type": "node", "id": 5667692653, "lat": 41.0256505, "lon": 28.8305885, "tags": {"addr:city": "Istanbul", "addr:district": "Ba\u011fc\u0131lar", "addr:street": "Menderes Caddesi", "amenity": "atm", "name": "T.C. Ziraat Bankas\u0131", "name:ar": "\u0628\u0646\u0643 \u0632\u0631\u0627\u0639\u0627\u062a"}}, {"type": "node", "id": 5667699707, "lat": 41.0381864, "lon": 28.8445952, "tags": {"addr:city": "Istanbul", "addr:district": "Ba\u011fc\u0131lar", "addr:street": "Ahmet kabakl\u0131 caddesi", "amenity": "atm", "brand": "T\u00fcrkiye \u0130\u015f Bankas\u0131", "brand:wikidata": "Q909613", "name": "T\u00fcrkiye \u0130\u015f Bankas\u0131", "name:ar": "\u0628\u0646\u0643 \u0627\u064a\u0634", "operator": "T\u00fcrkiye \u0130\u015f Bankas\u0131", "operator:wikidata": "Q909613"}}, {"type": "node", "id": 5667701527, "lat": 41.0402331, "lon": 28.844185, "tags": {"addr:city": "Istanbul", "addr:district": "Ba\u011fc\u0131lar", "addr:street": "Ahmet kabakl\u0131 caddesi", "amenity": "atm", "brand": "Yap\u0131 Kredi", "brand:wikidata": "Q8049138", "name": "Yap\u0131 Kredi", "name:ar": "\u064a\u0627\u0628\u064a \u0643\u0631\u064a\u062f\u064a", "operator": "Yap\u0131 Kredi", "operator:wikidata": "Q8049138"}}, {"type": "node", "id": 5667701558, "lat": 41.0402196, "lon": 28.8442065, "tags": {"addr:city": "Istanbul", "addr:district": "Ba\u011fc\u0131lar", "addr:street": "Ahmet kabakl\u0131 caddesi", "amenity": "atm", "brand": "Garanti Bankas\u0131", "brand:wikidata": "Q322962", "name": "Garanti Bankas\u0131", "name:ar": "\u0628\u0646\u0643 \u063a\u0631\u0627\u0646\u062a\u064a", "operator": "Garanti Bankas\u0131", "operator:wikidata": "Q322962"}}, {"type": "node", "id": 5667701570, "lat": 41.0402235, "lon": 28.8441256, "tags": {"addr:city": "Istanbul", "addr:district": "Ba\u011fc\u0131lar", "addr:street": "ahmet kabakli", "amenity": "atm", "brand": "Garanti Bankas\u0131", "brand:wikidata": "Q322962", "name": "Garanti Bankas\u0131", "name:ar": "\u063a\u0627\u0631\u0627\u0646\u062a\u064a \u0628\u0627\u0646\u0643", "operator": "Garanti Bankas\u0131", "operator:wikidata": "Q322962"}}, {"type": "node", "id": 5667701575, "lat": 41.0384985, "lon": 28.8445075, "tags": {"addr:city": "Istanbul", "addr:district": "Ba\u011fc\u0131lar", "addr:street": "Ahmet kabakl\u0131 caddesi", "amenity": "atm", "name": "Albaraka T\u00fcrk", "name:ar": "\u0628\u0646\u0643 \u0627\u0644\u0628\u0631\u0643\u0629"}}, {"type": "node", "id": 5667701599, "lat": 41.0410927, "lon": 28.8361627, "tags": {"addr:city": "Istanbul", "addr:district": "Ba\u011fc\u0131lar", "addr:street": "Komculer caddesi", "amenity": "atm", "brand": "Yap\u0131 Kredi", "brand:wikidata": "Q8049138", "brand:wikipedia": "en:Yap\u0131 Kredi", "name": "Yap\u0131 Kredi", "name:ar": "\u064a\u0627\u0628\u064a \u0643\u0631\u064a\u062f\u064a", "opening_hours": "24/7", "operator": "Yap\u0131 Kredi", "operator:wikidata": "Q8049138", "operator:wikipedia": "en:Yap\u0131 Kredi"}}, {"type": "node", "id": 5667701603, "lat": 41.0410106, "lon": 28.8361809, "tags": {"addr:city": "Istanbul", "addr:district": "Ba\u011fc\u0131lar", "addr:street": "Komculer caddesi", "amenity": "atm", "brand": "Vak\u0131fbank", "brand:wikidata": "Q1148521", "brand:wikipedia": "en:Vak\u0131fBank", "name": "Vak\u0131fbank", "name:ar": "\u0648\u0642\u0641 \u0628\u0627\u0646\u0643", "opening_hours": "24/7", "operator": "Vak\u0131fbank", "operator:wikidata": "Q1148521", "operator:wikipedia": "en:Vak\u0131fBank"}}, {"type": "node", "id": 5667702731, "lat": 41.0403183, "lon": 28.8441413, "tags": {"addr:city": "Istanbul", "addr:district": "Ba\u011fc\u0131lar", "addr:street": "ahmet kabakli", "amenity": "atm", "brand": "Akbank", "brand:wikidata": "Q416624", "name": "Akbank", "name:ar": "\u0627\u0643\u0628\u0627\u0646\u0643", "operator": "Akbank", "operator:wikidata": "Q416624"}}, {"type": "node", "id": 5667702740, "lat": 41.038489, "lon": 28.8445075, "tags": {"addr:city": "Istanbul", "addr:district": "Ba\u011fc\u0131lar", "addr:street": "Ahmet kabakl\u0131 caddesi", "amenity": "atm", "brand": "Ziraat Bankas\u0131", "brand:wikidata": "Q696003", "name": "Ziraat Bankas\u0131", "name:ar": "\u0628\u0646\u0643 \u0632\u0631\u0627\u0639\u0629", "operator": "Ziraat Bankas\u0131", "operator:wikidata": "Q696003"}}, {"type": "node", "id": 5667702779, "lat": 41.044239, "lon": 28.8306388, "tags": {"addr:city": "Istanbul", "addr:district": "Ba\u011fc\u0131lar", "addr:street": "Mahmutbey Caddesi", "amenity": "atm", "brand": "Kuveyt T\u00fcrk", "brand:wikidata": "Q6036058", "name": "Kuveyt T\u00fcrk", "name:ar": "\u0643\u0648\u064a\u062a \u062a\u0648\u0631\u0643", "operator": "Kuveyt T\u00fcrk", "operator:wikidata": "Q6036058"}}, {"type": "node", "id": 5667702781, "lat": 41.0402669, "lon": 28.8441796, "tags": {"addr:city": "Istanbul", "addr:district": "Ba\u011fc\u0131lar", "addr:street": "Ahmet kabakl\u0131 caddesi", "amenity": "atm", "brand": "Akbank", "brand:wikidata": "Q416624", "name": "Akbank", "name:ar": "ak \u0628\u0646\u0643", "operator": "Akbank", "operator:wikidata": "Q416624"}}, {"type": "node", "id": 5667703927, "lat": 41.0376298, "lon": 28.824317, "tags": {"addr:city": "Istanbul", "addr:district": "Ba\u011fc\u0131lar", "addr:street": "Favzi\u00e7akmak Caddesi", "amenity": "atm", "brand": "Denizbank", "brand:wikidata": "Q1115064", "name": "Denizbank", "name:ar": "\u062f\u064a\u0646\u064a\u0632 \u0628\u0646\u0643", "operator": "Denizbank", "operator:wikidata": "Q1115064"}}, {"type": "node", "id": 5667703971, "lat": 41.0409832, "lon": 28.836199, "tags": {"addr:city": "Istanbul", "addr:district": "Ba\u011fc\u0131lar", "addr:street": "Komculer caddesi", "amenity": "atm", "name": "Albaraka T\u00fcrk", "name:ar": "\u0627\u0644\u0628\u0631\u0643\u0629 \u0628\u0646\u0643", "opening_hours": "24/7"}}, {"type": "node", "id": 5667703995, "lat": 41.044216, "lon": 28.8306591, "tags": {"addr:city": "Istanbul", "addr:district": "Ba\u011fc\u0131lar", "addr:street": "Mahmutbey Caddesi", "amenity": "atm", "brand": "Halkbank", "brand:wikidata": "Q3593818", "name": "Halkbank", "name:ar": "\u0647\u0627\u0644\u0643 \u0628\u0646\u0643", "operator": "Halkbank", "operator:wikidata": "Q3593818"}}, {"type": "node", "id": 5667705370, "lat": 41.0381148, "lon": 28.8445808, "tags": {"addr:city": "Istanbul", "addr:district": "Ba\u011fc\u0131lar", "addr:street": "Ahmet kabakl\u0131 caddesi", "amenity": "atm", "brand": "Halkbank", "brand:wikidata": "Q3593818", "name": "Halkbank", "name:ar": "\u0628\u0646\u0643 \u0647\u0627\u0644\u0643", "operator": "Halkbank", "operator:wikidata": "Q3593818"}}, {"type": "node", "id": 5667706133, "lat": 41.0410585, "lon": 28.8361627, "tags": {"addr:city": "Istanbul", "addr:district": "Ba\u011fc\u0131lar", "addr:street": "Komculer caddesi", "amenity": "atm", "brand": "Garanti Bankas\u0131", "brand:wikidata": "Q322962", "brand:wikipedia": "en:Garanti BBVA", "name": "Garanti Bankas\u0131", "name:ar": "\u063a\u0627\u0631\u0627\u0646\u062a\u064a \u0628\u0627\u0646\u0643", "opening_hours": "24/7", "operator": "Garanti Bankas\u0131", "operator:wikidata": "Q322962", "operator:wikipedia": "en:Garanti BBVA"}}, {"type": "node", "id": 5667706142, "lat": 41.0396806, "lon": 28.8441063, "tags": {"addr:city": "Istanbul", "addr:district": "Ba\u011fc\u0131lar", "addr:street": "Ahmet kabakl\u0131 caddesi", "amenity": "atm", "brand": "Vak\u0131fbank", "brand:wikidata": "Q1148521", "name": "Vak\u0131fbank", "name:ar": "\u0628\u0646\u0643 \u0648\u0642\u0641", "operator": "Vak\u0131fbank", "operator:wikidata": "Q1148521"}}, {"type": "node", "id": 5667706152, "lat": 41.0431822, "lon": 28.8438919, "tags": {"addr:city": "Istanbul", "addr:district": "Ba\u011fc\u0131lar", "addr:street": "Ahmet kabakli", "amenity": "atm", "brand": "Denizbank", "brand:wikidata": "Q1115064", "name": "Denizbank", "name:ar": "\u062f\u064a\u0646\u064a\u0632\u0628\u0627\u0646\u0643", "operator": "Denizbank", "operator:wikidata": "Q1115064"}}, {"type": "node", "id": 5667706176, "lat": 41.0386214, "lon": 28.8444824, "tags": {"addr:city": "Istanbul", "addr:district": "Ba\u011fc\u0131lar", "addr:street": "Ahmet kabakl\u0131 caddesi", "amenity": "atm", "brand": "QNB Finansbank", "brand:wikidata": "Q1416237", "name": "QNB Finansbank", "name:ar": "\u0628\u0646\u0643 qnb", "operator": "QNB Finansbank", "operator:wikidata": "Q1416237"}}, {"type": "node", "id": 5667706182, "lat": 41.0401879, "lon": 28.8441256, "tags": {"addr:city": "Istanbul", "addr:district": "Ba\u011fc\u0131lar", "addr:street": "ahmet kabakli", "amenity": "atm", "brand": "Yap\u0131 Kredi", "brand:wikidata": "Q8049138", "name": "Yap\u0131 Kredi", "name:ar": "\u064a\u0627\u0628\u064a \u0643\u0631\u064a\u062f\u064a", "operator": "Yap\u0131 Kredi", "operator:wikidata": "Q8049138"}}, {"type": "node", "id": 5667719074, "lat": 41.0330884, "lon": 28.8636149, "tags": {"addr:city": "Istanbul", "addr:district": "Ba\u011fc\u0131lar", "addr:street": "G\u00fcng\u00f6ren caddesi", "amenity": "atm", "brand": "QNB Finansbank", "brand:wikidata": "Q1416237", "brand:wikipedia": "en:QNB Finansbank", "name": "QNB Finansbank", "name:ar": "\u0628\u0646\u0643 qnb", "operator": "QNB Finansbank", "operator:wikidata": "Q1416237", "operator:wikipedia": "en:QNB Finansbank"}}, {"type": "node", "id": 5667719095, "lat": 41.0332179, "lon": 28.8636461, "tags": {"addr:city": "Istanbul", "addr:district": "Ba\u011fc\u0131lar", "addr:street": "G\u00fcng\u00f6ren caddesi", "amenity": "atm", "brand": "Halkbank", "brand:wikidata": "Q3593818", "brand:wikipedia": "en:Halkbank a.d.", "name": "Halkbank", "name:ar": "\u0628\u0646\u0643 \u0647\u0627\u0644\u0643", "operator": "Halkbank", "operator:wikidata": "Q3593818", "operator:wikipedia": "en:Halkbank a.d."}}, {"type": "node", "id": 5667719105, "lat": 41.0336154, "lon": 28.8590896, "tags": {"addr:city": "Istanbul", "addr:district": "Ba\u011fc\u0131lar", "addr:street": "25.sk", "amenity": "atm", "brand": "Akbank", "brand:wikidata": "Q416624", "brand:wikipedia": "tr:Akbank", "name": "Akbank", "name:ar": "ak \u0628\u0646\u0643", "operator": "Akbank", "operator:wikidata": "Q416624", "operator:wikipedia": "tr:Akbank"}}, {"type": "node", "id": 5667719107, "lat": 41.0336034, "lon": 28.8591532, "tags": {"addr:city": "Istanbul", "addr:district": "Ba\u011fc\u0131lar", "addr:street": "25.sk", "amenity": "atm", "brand": "Vak\u0131fbank", "brand:wikidata": "Q1148521", "brand:wikipedia": "en:Vak\u0131fBank", "name": "Vak\u0131fbank", "name:ar": "\u0628\u0646\u0643 \u0648\u0642\u0641", "operator": "Vak\u0131fbank", "operator:wikidata": "Q1148521", "operator:wikipedia": "en:Vak\u0131fBank"}}, {"type": "node", "id": 5667719120, "lat": 41.0331708, "lon": 28.8636461, "tags": {"addr:city": "Istanbul", "addr:district": "Ba\u011fc\u0131lar", "addr:street": "G\u00fcng\u00f6ren caddesi", "amenity": "atm", "brand": "Akbank", "brand:wikidata": "Q416624", "brand:wikipedia": "tr:Akbank", "name": "Akbank", "name:ar": "\u0627\u0643 \u0628\u0646\u0643", "operator": "Akbank", "operator:wikidata": "Q416624", "operator:wikipedia": "tr:Akbank"}}, {"type": "node", "id": 5667722024, "lat": 41.0336154, "lon": 28.8591214, "tags": {"addr:city": "Istanbul", "addr:district": "Ba\u011fc\u0131lar", "addr:street": "25.sk", "amenity": "atm", "brand": "Halkbank", "brand:wikidata": "Q3593818", "brand:wikipedia": "en:Halkbank a.d.", "name": "Halkbank", "name:ar": "\u0628\u0646\u0643 \u0647\u0627\u0644\u0643", "operator": "Halkbank", "operator:wikidata": "Q3593818", "operator:wikipedia": "en:Halkbank a.d."}}, {"type": "node", "id": 5667722042, "lat": 41.0432598, "lon": 28.8507837, "tags": {"addr:city": "Istanbul", "addr:street": "Fatih Caddesi", "amenity": "atm", "brand": "Ziraat Bankas\u0131", "brand:wikidata": "Q696003", "brand:wikipedia": "en:Ziraat Bank", "name": "Ziraat Bankas\u0131", "name:ar": "\u0628\u0646\u0643 \u0632\u0631\u0627\u0639\u0627\u062a", "operator": "Ziraat Bankas\u0131", "operator:wikidata": "Q696003", "operator:wikipedia": "en:Ziraat Bank"}}, {"type": "node", "id": 5667722057, "lat": 41.0336154, "lon": 28.8589782, "tags": {"addr:city": "Istanbul", "addr:district": "Ba\u011fc\u0131lar", "addr:street": "25.sk", "amenity": "atm", "brand": "Garanti Bankas\u0131", "brand:wikidata": "Q322962", "brand:wikipedia": "en:Garanti BBVA", "name": "Garanti Bankas\u0131", "name:ar": "\u0628\u0646\u0643 \u063a\u0631\u0627\u0646\u062a\u064a", "operator": "Garanti Bankas\u0131", "operator:wikidata": "Q322962", "operator:wikipedia": "en:Garanti BBVA"}}, {"type": "node", "id": 5667722095, "lat": 41.0332061, "lon": 28.8636461, "tags": {"addr:city": "Istanbul", "addr:district": "Ba\u011fc\u0131lar", "addr:street": "G\u00fcng\u00f6ren caddesi", "amenity": "atm", "brand": "Kuveyt T\u00fcrk", "brand:wikidata": "Q6036058", "brand:wikipedia": "tr:Kuveyt T\u00fcrk", "name": "Kuveyt T\u00fcrk", "name:ar": "\u0628\u0646\u0643 \u0643\u0648\u064a\u062a \u062a\u0631\u0643", "operator": "Kuveyt T\u00fcrk", "operator:wikidata": "Q6036058", "operator:wikipedia": "tr:Kuveyt T\u00fcrk"}}, {"type": "node", "id": 5667722103, "lat": 41.0334723, "lon": 28.8596215, "tags": {"addr:city": "Istanbul", "addr:district": "Ba\u011fc\u0131lar", "addr:street": "25.sk", "amenity": "atm", "brand": "T\u00fcrkiye \u0130\u015f Bankas\u0131", "brand:wikidata": "Q909613", "brand:wikipedia": "en:\u0130\u015fbank", "name": "T\u00fcrkiye \u0130\u015f Bankas\u0131", "name:ar": "\u0628\u0646\u0643 \u0627\u064a\u0634", "operator": "T\u00fcrkiye \u0130\u015f Bankas\u0131", "operator:wikidata": "Q909613", "operator:wikipedia": "en:\u0130\u015fbank"}}, {"type": "node", "id": 5667723827, "lat": 41.0334976, "lon": 28.8595675, "tags": {"addr:city": "Istanbul", "addr:district": "Ba\u011fc\u0131lar", "addr:street": "25.sk", "amenity": "atm", "brand": "QNB Finansbank", "brand:wikidata": "Q1416237", "brand:wikipedia": "en:QNB Finansbank", "name": "QNB Finansbank", "name:ar": "\u0628\u0646\u0643 qnb", "operator": "QNB Finansbank", "operator:wikidata": "Q1416237", "operator:wikipedia": "en:QNB Finansbank"}}, {"type": "node", "id": 5667723840, "lat": 41.0423834, "lon": 28.8532478, "tags": {"addr:city": "Istanbul", "addr:street": "Fatih Caddesi", "amenity": "atm", "brand": "Denizbank", "brand:wikidata": "Q1115064", "brand:wikipedia": "en:DenizBank", "name": "Denizbank", "name:ar": "\u062f\u064a\u0646\u064a\u0632 \u0628\u0646\u0643", "operator": "Denizbank", "operator:wikidata": "Q1115064", "operator:wikipedia": "en:DenizBank"}}, {"type": "node", "id": 5667723869, "lat": 41.039684, "lon": 28.8634051, "tags": {"addr:city": "Istanbul", "addr:district": "Ba\u011fc\u0131lar", "addr:street": "fatih Caddesi", "amenity": "atm", "brand": "Akbank", "brand:wikidata": "Q416624", "name": "Akbank", "name:ar": "\u0627\u0642 \u0628\u0627\u0646\u0643", "operator": "Akbank", "operator:wikidata": "Q416624"}}, {"type": "node", "id": 5667723908, "lat": 41.033231, "lon": 28.8636481, "tags": {"addr:city": "Istanbul", "addr:district": "Ba\u011fc\u0131lar", "addr:street": "G\u00fcng\u00f6ren caddesi", "amenity": "atm", "brand": "ING", "brand:wikidata": "Q645708", "brand:wikipedia": "en:ING Group", "name": "ING", "name:ar": "ing \u0628\u0646\u0643", "operator": "ING", "operator:wikidata": "Q645708", "operator:wikipedia": "en:ING Group"}}, {"type": "node", "id": 5667723917, "lat": 41.043276, "lon": 28.8507496, "tags": {"addr:city": "Istanbul", "addr:street": "Fatih Caddesi", "amenity": "atm", "brand": "\u015eekerbank", "brand:wikidata": "Q6088369", "brand:wikipedia": "en:\u015eekerbank", "name": "\u015eekerbank", "name:ar": "\u0634\u0627\u0643\u0627\u0631\u0628\u0646\u0643", "operator": "\u015eekerbank", "operator:wikidata": "Q6088369", "operator:wikipedia": "en:\u015eekerbank"}}, {"type": "node", "id": 5667725821, "lat": 41.0345073, "lon": 28.8669956, "tags": {"addr:city": "Istanbul", "addr:district": "Ba\u011fc\u0131lar", "addr:street": "6.sokak", "amenity": "atm", "brand": "Vak\u0131fbank", "brand:wikidata": "Q1148521", "brand:wikipedia": "en:Vak\u0131fBank", "name": "Vak\u0131fbank", "name:ar": "\u0628\u0646\u0643 \u0648\u0642\u0641", "operator": "Vak\u0131fbank", "operator:wikidata": "Q1148521", "operator:wikipedia": "en:Vak\u0131fBank"}}, {"type": "node", "id": 5667725826, "lat": 41.032542, "lon": 28.8683385, "tags": {"addr:city": "Istanbul", "addr:district": "Ba\u011fc\u0131lar", "addr:street": "6.sokak", "amenity": "atm", "brand": "Garanti Bankas\u0131", "brand:wikidata": "Q322962", "brand:wikipedia": "en:Garanti BBVA", "name": "Garanti Bankas\u0131", "name:ar": "\u0628\u0646\u0643 \u063a\u0631\u0627\u0646\u062a\u064a", "operator": "Garanti Bankas\u0131", "operator:wikidata": "Q322962", "operator:wikipedia": "en:Garanti BBVA"}}, {"type": "node", "id": 5667725844, "lat": 41.0331826, "lon": 28.8636461, "tags": {"addr:city": "Istanbul", "addr:district": "Ba\u011fc\u0131lar", "addr:street": "G\u00fcng\u00f6ren caddesi", "amenity": "atm", "brand": "\u015eekerbank", "brand:wikidata": "Q6088369", "brand:wikipedia": "en:\u015eekerbank", "name": "\u015eekerbank", "name:ar": "\u0628\u0646\u0643 \u0634\u0643\u0631", "operator": "\u015eekerbank", "operator:wikidata": "Q6088369", "operator:wikipedia": "en:\u015eekerbank"}}, {"type": "node", "id": 5667725850, "lat": 41.0345423, "lon": 28.8669706, "tags": {"addr:city": "Istanbul", "addr:district": "Ba\u011fc\u0131lar", "addr:street": "6.sokak", "amenity": "atm", "brand": "Akbank", "brand:wikidata": "Q416624", "brand:wikipedia": "tr:Akbank", "name": "Akbank", "name:ar": "\u0628\u0646\u0643 ak", "operator": "Akbank", "operator:wikidata": "Q416624", "operator:wikipedia": "tr:Akbank"}}, {"type": "node", "id": 5667725884, "lat": 41.0334906, "lon": 28.8596416, "tags": {"addr:city": "Istanbul", "addr:district": "Ba\u011fc\u0131lar", "addr:street": "25.sk", "amenity": "atm", "brand": "Yap\u0131 Kredi", "brand:wikidata": "Q8049138", "brand:wikipedia": "en:Yap\u0131 Kredi", "name": "Yap\u0131 Kredi", "name:ar": "\u064a\u0627\u0628\u064a \u0643\u0631\u064a\u062f\u064a", "operator": "Yap\u0131 Kredi", "operator:wikidata": "Q8049138", "operator:wikipedia": "en:Yap\u0131 Kredi"}}, {"type": "node", "id": 5667725889, "lat": 41.0331395, "lon": 28.8636352, "tags": {"addr:city": "Istanbul", "addr:district": "Ba\u011fc\u0131lar", "addr:street": "G\u00fcng\u00f6ren caddesi", "amenity": "atm", "brand": "Garanti Bankas\u0131", "brand:wikidata": "Q322962", "brand:wikipedia": "en:Garanti BBVA", "name": "Garanti Bankas\u0131", "name:ar": "\u0628\u0646\u0643 \u063a\u0631\u0627\u0646\u062a\u064a", "operator": "Garanti Bankas\u0131", "operator:wikidata": "Q322962", "operator:wikipedia": "en:Garanti BBVA"}}, {"type": "node", "id": 5667725904, "lat": 41.0336034, "lon": 28.8591851, "tags": {"addr:city": "Istanbul", "addr:district": "Ba\u011fc\u0131lar", "addr:street": "25.sk", "amenity": "atm", "brand": "TEB", "brand:wikidata": "Q7862447", "brand:wikipedia": "en:T\u00fcrk Ekonomi Bankas\u0131", "name": "TEB", "name:ar": "teb \u0628\u0646\u0643", "operator": "TEB", "operator:wikidata": "Q7862447", "operator:wikipedia": "en:T\u00fcrk Ekonomi Bankas\u0131"}}, {"type": "node", "id": 5667725917, "lat": 41.0336154, "lon": 28.8590259, "tags": {"addr:city": "Istanbul", "addr:district": "Ba\u011fc\u0131lar", "addr:street": "25.sk", "amenity": "atm", "brand": "Odeabank", "brand:wikidata": "Q6036742", "brand:wikipedia": "tr:Odeabank", "name": "Odeabank", "name:ar": "\u0628\u0646\u0643 \u0627\u0648\u062f\u064a\u0627", "operator": "Odeabank", "operator:wikidata": "Q6036742", "operator:wikipedia": "tr:Odeabank"}}, {"type": "node", "id": 5667727247, "lat": 41.0331621, "lon": 28.8636472, "tags": {"addr:city": "Istanbul", "addr:district": "Ba\u011fc\u0131lar", "addr:street": "G\u00fcng\u00f6ren caddesi", "amenity": "atm", "brand": "T\u00fcrkiye \u0130\u015f Bankas\u0131", "brand:wikidata": "Q909613", "brand:wikipedia": "en:\u0130\u015fbank", "name": "T\u00fcrkiye \u0130\u015f Bankas\u0131", "name:ar": "\u0628\u0646\u0643 \u0627\u064a\u0634", "operator": "T\u00fcrkiye \u0130\u015f Bankas\u0131", "operator:wikidata": "Q909613", "operator:wikipedia": "en:\u0130\u015fbank"}}, {"type": "node", "id": 5667727258, "lat": 41.033112, "lon": 28.8636149, "tags": {"addr:city": "Istanbul", "addr:district": "Ba\u011fc\u0131lar", "addr:street": "G\u00fcng\u00f6ren caddesi", "amenity": "atm", "brand": "Denizbank", "brand:wikidata": "Q1115064", "brand:wikipedia": "en:DenizBank", "name": "Denizbank", "name:ar": "\u0628\u0646\u0643 \u062f\u064a\u0646\u064a\u0632", "operator": "Denizbank", "operator:wikidata": "Q1115064", "operator:wikipedia": "en:DenizBank"}}, {"type": "node", "id": 5667728726, "lat": 41.0334906, "lon": 28.8596231, "tags": {"addr:city": "Istanbul", "addr:district": "Ba\u011fc\u0131lar", "addr:street": "25.sk", "amenity": "atm", "brand": "Akbank", "brand:wikidata": "Q416624", "brand:wikipedia": "tr:Akbank", "name": "Akbank", "name:ar": "\u0627\u0643 \u0628\u0646\u0643", "operator": "Akbank", "operator:wikidata": "Q416624", "operator:wikipedia": "tr:Akbank"}}, {"type": "node", "id": 5667728727, "lat": 41.0325008, "lon": 28.8683805, "tags": {"addr:city": "Istanbul", "addr:district": "Ba\u011fc\u0131lar", "addr:street": "6.sokak", "amenity": "atm", "brand": "Denizbank", "brand:wikidata": "Q1115064", "brand:wikipedia": "en:DenizBank", "name": "Denizbank", "name:ar": "\u0628\u0646\u0643 \u062f\u064a\u0646\u064a\u0632", "operator": "Denizbank", "operator:wikidata": "Q1115064", "operator:wikipedia": "en:DenizBank"}}, {"type": "node", "id": 5667728740, "lat": 41.0402122, "lon": 28.8610596, "tags": {"addr:city": "Istanbul", "addr:district": "Ba\u011fc\u0131lar", "addr:street": "fatih Caddesi", "amenity": "atm", "brand": "Yap\u0131 Kredi", "brand:wikidata": "Q8049138", "brand:wikipedia": "en:Yap\u0131 Kredi", "name": "Yap\u0131 Kredi", "name:ar": "\u064a\u0627\u0628\u0643\u0631\u064a\u062f\u064a", "operator": "Yap\u0131 Kredi", "operator:wikidata": "Q8049138", "operator:wikipedia": "en:Yap\u0131 Kredi"}}, {"type": "node", "id": 5667747294, "lat": 41.0323216, "lon": 28.8479004, "tags": {"addr:city": "Istanbul", "addr:district": "Ba\u011fc\u0131lar", "addr:street": "Mehmet Akif bulvar\u0131", "amenity": "atm", "brand": "T\u00fcrkiye \u0130\u015f Bankas\u0131", "brand:wikidata": "Q909613", "brand:wikipedia": "en:\u0130\u015fbank", "name": "T\u00fcrkiye \u0130\u015f Bankas\u0131", "name:ar": "\u0628\u0646\u0643 \u0627\u064a\u0634", "operator": "T\u00fcrkiye \u0130\u015f Bankas\u0131", "operator:wikidata": "Q909613", "operator:wikipedia": "en:\u0130\u015fbank"}}, {"type": "node", "id": 5667747951, "lat": 41.0321735, "lon": 28.8471851, "tags": {"addr:city": "Istanbul", "addr:district": "Ba\u011fc\u0131lar", "addr:street": "Hoca Ahmet Yesevi caddesi", "amenity": "atm", "brand": "Halkbank", "brand:wikidata": "Q3593818", "brand:wikipedia": "en:Halkbank a.d.", "name": "Halkbank", "name:ar": "\u0628\u0646\u0643 \u0647\u0627\u0644\u0643", "operator": "Halkbank", "operator:wikidata": "Q3593818", "operator:wikipedia": "en:Halkbank a.d."}}, {"type": "node", "id": 5667747954, "lat": 41.0323073, "lon": 28.8479031, "tags": {"addr:city": "Istanbul", "addr:district": "Ba\u011fc\u0131lar", "addr:street": "Mehmet Akif bulvar\u0131", "amenity": "atm", "brand": "TEB", "brand:wikidata": "Q7862447", "brand:wikipedia": "en:T\u00fcrk Ekonomi Bankas\u0131", "name": "TEB", "name:ar": "\u0628\u0646\u0643 \u0637\u064a\u0628", "operator": "TEB", "operator:wikidata": "Q7862447", "operator:wikipedia": "en:T\u00fcrk Ekonomi Bankas\u0131"}}, {"type": "node", "id": 5667747970, "lat": 41.0321736, "lon": 28.847155, "tags": {"addr:city": "Istanbul", "addr:district": "Ba\u011fc\u0131lar", "addr:street": "Hoca Ahmet Yesevi caddesi", "amenity": "atm", "brand": "Akbank", "brand:wikidata": "Q416624", "brand:wikipedia": "tr:Akbank", "name": "Akbank", "name:ar": "ak \u0628\u0646\u0643", "operator": "Akbank", "operator:wikidata": "Q416624", "operator:wikipedia": "tr:Akbank"}}, {"type": "node", "id": 5695536923, "lat": 41.0382995, "lon": 28.9010301, "tags": {"amenity": "atm", "opening_hours": "24/7"}}, {"type": "node", "id": 5748453457, "lat": 41.0466585, "lon": 28.8964587, "tags": {"amenity": "atm", "brand": "Garanti Bankas\u0131", "brand:wikidata": "Q322962", "brand:wikipedia": "en:Garanti BBVA", "name": "Garanti Bankas\u0131", "operator": "Garanti Bankas\u0131", "operator:wikidata": "Q322962", "operator:wikipedia": "en:Garanti BBVA"}}, {"type": "node", "id": 5748453458, "lat": 41.04666, "lon": 28.8965217, "tags": {"amenity": "atm", "brand": "Vak\u0131fbank", "brand:wikidata": "Q1148521", "brand:wikipedia": "en:Vak\u0131fBank", "name": "Vak\u0131fbank", "operator": "Vak\u0131fbank", "operator:wikidata": "Q1148521", "operator:wikipedia": "en:Vak\u0131fBank"}}, {"type": "node", "id": 6261499587, "lat": 41.0016579, "lon": 28.7930793, "tags": {"amenity": "atm"}}, {"type": "node", "id": 6262666185, "lat": 41.0155236, "lon": 28.9108083, "tags": {"amenity": "atm"}}, {"type": "node", "id": 6263783289, "lat": 40.9605018, "lon": 28.8084395, "tags": {"amenity": "atm"}}, {"type": "node", "id": 6284642188, "lat": 40.9922715, "lon": 28.8406147, "tags": {"amenity": "atm"}}, {"type": "node", "id": 6308058693, "lat": 41.0004726, "lon": 28.7982086, "tags": {"amenity": "atm"}}, {"type": "node", "id": 6308058695, "lat": 41.0322583, "lon": 28.9011237, "tags": {"amenity": "atm"}}, {"type": "node", "id": 6383666316, "lat": 40.9807649, "lon": 28.8735867, "tags": {"amenity": "atm", "brand": "Halkbank", "brand:wikidata": "Q3593818", "name": "Halkbank", "operator": "Halkbank", "operator:wikidata": "Q3593818"}}, {"type": "node", "id": 6383668430, "lat": 40.980765, "lon": 28.8736106, "tags": {"amenity": "atm", "brand": "Garanti Bankas\u0131", "brand:wikidata": "Q322962", "name": "Garanti Bankas\u0131", "operator": "Garanti Bankas\u0131", "operator:wikidata": "Q322962"}}, {"type": "node", "id": 6383668824, "lat": 40.980768, "lon": 28.8736735, "tags": {"amenity": "atm", "brand": "Ziraat Bankas\u0131", "brand:wikidata": "Q696003", "name": "Ziraat Bankas\u0131", "operator": "Ziraat Bankas\u0131", "operator:wikidata": "Q696003"}}, {"type": "node", "id": 6383669332, "lat": 40.9807671, "lon": 28.8736423, "tags": {"amenity": "atm", "brand": "ING", "brand:wikidata": "Q645708", "name": "ING", "operator": "ING", "operator:wikidata": "Q645708"}}, {"type": "node", "id": 6383669388, "lat": 40.9807684, "lon": 28.873701, "tags": {"amenity": "atm", "brand": "Vak\u0131fbank", "brand:wikidata": "Q1148521", "name": "Vak\u0131fbank", "operator": "Vak\u0131fbank", "operator:wikidata": "Q1148521"}}, {"type": "node", "id": 6439828285, "lat": 41.0111038, "lon": 28.6556659, "tags": {"amenity": "atm", "brand": "Akbank", "brand:wikidata": "Q416624", "brand:wikipedia": "tr:Akbank", "name": "Akbank", "operator": "Akbank", "operator:wikidata": "Q416624", "operator:wikipedia": "tr:Akbank"}}, {"type": "node", "id": 6439828385, "lat": 41.0115112, "lon": 28.6559719, "tags": {"amenity": "atm", "brand": "ING", "brand:wikidata": "Q645708", "brand:wikipedia": "en:ING Group", "name": "ING", "operator": "ING", "operator:wikidata": "Q645708", "operator:wikipedia": "en:ING Group"}}, {"type": "node", "id": 6609340686, "lat": 41.0218105, "lon": 28.9432428, "tags": {"amenity": "atm"}}, {"type": "node", "id": 6642219135, "lat": 40.9963365, "lon": 28.6253591, "tags": {"amenity": "atm", "brand": "Garanti Bankas\u0131", "brand:wikidata": "Q322962", "name": "Garanti Bankas\u0131", "operator": "Garanti Bankas\u0131", "operator:wikidata": "Q322962"}}, {"type": "node", "id": 6642219136, "lat": 40.996337, "lon": 28.625345, "tags": {"amenity": "atm", "brand": "T\u00fcrkiye \u0130\u015f Bankas\u0131", "brand:wikidata": "Q909613", "name": "T\u00fcrkiye \u0130\u015f Bankas\u0131", "operator": "T\u00fcrkiye \u0130\u015f Bankas\u0131", "operator:wikidata": "Q909613"}}, {"type": "node", "id": 6642219137, "lat": 40.9963395, "lon": 28.6253262, "tags": {"amenity": "atm", "brand": "Akbank", "brand:wikidata": "Q416624", "name": "Akbank", "operator": "Akbank", "operator:wikidata": "Q416624"}}, {"type": "node", "id": 6642219138, "lat": 40.996341, "lon": 28.6253118, "tags": {"amenity": "atm", "brand": "Yap\u0131 Kredi", "brand:wikidata": "Q8049138", "name": "Yap\u0131 Kredi", "operator": "Yap\u0131 Kredi", "operator:wikidata": "Q8049138"}}, {"type": "node", "id": 6752587258, "lat": 41.0404372, "lon": 28.8114953, "tags": {"amenity": "atm", "currency:TRY": "yes"}}, {"type": "node", "id": 6754151955, "lat": 41.0475488, "lon": 28.8114779, "tags": {"amenity": "atm", "brand": "ING", "brand:wikidata": "Q645708", "brand:wikipedia": "en:ING Group", "level": "-2", "name": "ING", "operator": "ING", "operator:wikidata": "Q645708", "operator:wikipedia": "en:ING Group"}}, {"type": "node", "id": 6758776150, "lat": 41.0450263, "lon": 28.8172567, "tags": {"amenity": "atm"}}, {"type": "node", "id": 6774521323, "lat": 41.039013, "lon": 28.8137135, "tags": {"amenity": "atm"}}, {"type": "node", "id": 6774521353, "lat": 41.0487888, "lon": 28.8076758, "tags": {"amenity": "atm"}}, {"type": "node", "id": 6961577869, "lat": 41.0179938, "lon": 28.5893788, "tags": {"amenity": "atm", "brand": "T\u00fcrkiye \u0130\u015f Bankas\u0131", "brand:wikidata": "Q909613", "name": "T\u00fcrkiye \u0130\u015f Bankas\u0131", "operator": "T\u00fcrkiye \u0130\u015f Bankas\u0131", "operator:wikidata": "Q909613"}}, {"type": "node", "id": 6961577875, "lat": 41.0179413, "lon": 28.5895011, "tags": {"amenity": "atm", "brand": "Garanti BBVA", "operator": "Garanti BBVA"}}, {"type": "node", "id": 6961593170, "lat": 41.0169889, "lon": 28.5881848, "tags": {"amenity": "atm", "brand": "Denizbank", "brand:wikidata": "Q1115064", "name": "Denizbank", "operator": "Denizbank", "operator:wikidata": "Q1115064"}}, {"type": "node", "id": 6961631295, "lat": 41.0180065, "lon": 28.5893501, "tags": {"amenity": "atm", "brand": "TEB", "brand:wikidata": "Q7862447", "name": "TEB", "operator": "TEB", "operator:wikidata": "Q7862447"}}, {"type": "node", "id": 6961657763, "lat": 41.0216302, "lon": 28.5837906, "tags": {"amenity": "atm", "brand": "Vak\u0131fbank", "brand:wikidata": "Q1148521", "name": "Vak\u0131fbank", "operator": "Vak\u0131fbank", "operator:wikidata": "Q1148521"}}, {"type": "node", "id": 6961657764, "lat": 41.0216398, "lon": 28.5838031, "tags": {"amenity": "atm", "brand": "T\u00fcrkiye \u0130\u015f Bankas\u0131", "brand:wikidata": "Q909613", "name": "T\u00fcrkiye \u0130\u015f Bankas\u0131", "operator": "T\u00fcrkiye \u0130\u015f Bankas\u0131", "operator:wikidata": "Q909613"}}, {"type": "node", "id": 6961657767, "lat": 41.02161, "lon": 28.58376, "tags": {"amenity": "atm", "brand": "Yap\u0131 Kredi", "brand:wikidata": "Q8049138", "name": "Yap\u0131 Kredi", "operator": "Yap\u0131 Kredi", "operator:wikidata": "Q8049138"}}, {"type": "node", "id": 6961657768, "lat": 41.0216199, "lon": 28.583774, "tags": {"amenity": "atm", "brand": "Garanti BBVA"}}, {"type": "node", "id": 7651602429, "lat": 41.0188217, "lon": 28.5862491, "tags": {"amenity": "atm", "brand": "Yap\u0131 Kredi", "brand:wikidata": "Q8049138", "name": "Yap\u0131 Kredi", "operator": "Yap\u0131 Kredi", "operator:wikidata": "Q8049138"}}, {"type": "node", "id": 7651656283, "lat": 41.0215344, "lon": 28.5804189, "tags": {"amenity": "atm", "brand": "QNB Finansbank", "brand:wikidata": "Q1416237", "name": "QNB Finansbank", "operator": "QNB Finansbank", "operator:wikidata": "Q1416237"}}, {"type": "node", "id": 7695484885, "lat": 41.0116521, "lon": 28.647848, "tags": {"amenity": "atm", "brand": "Garanti BBVA"}}, {"type": "node", "id": 7695484927, "lat": 41.0116964, "lon": 28.6478672, "tags": {"amenity": "atm", "brand": "ING", "brand:wikidata": "Q645708", "brand:wikipedia": "en:ING Group", "name": "ING", "operator": "ING", "operator:wikidata": "Q645708", "operator:wikipedia": "en:ING Group"}}, {"type": "node", "id": 7889133726, "lat": 41.0184884, "lon": 28.5859022, "tags": {"amenity": "atm", "brand": "QNB Finansbank", "brand:wikidata": "Q1416237", "name": "QNB Finansbank", "operator": "QNB Finansbank", "operator:wikidata": "Q1416237"}}, {"type": "node", "id": 8310458213, "lat": 40.9861082, "lon": 28.8724732, "tags": {"amenity": "atm", "brand": "Halkbank", "brand:wikidata": "Q3593818", "name": "Halkbank", "operator": "Halkbank", "operator:wikidata": "Q3593818"}}, {"type": "node", "id": 8310466945, "lat": 40.9860616, "lon": 28.8724812, "tags": {"amenity": "atm", "brand": "TEB", "brand:wikidata": "Q7862447", "name": "TEB", "operator": "TEB", "operator:wikidata": "Q7862447"}}, {"type": "node", "id": 8322016271, "lat": 41.0033589, "lon": 28.636863, "tags": {"amenity": "atm", "operator": "Garanti BBVA Atm"}}, {"type": "node", "id": 8504482196, "lat": 41.0487677, "lon": 28.876867, "tags": {"amenity": "atm", "brand": "Ziraat Bankas\u0131", "brand:wikidata": "Q696003", "brand:wikipedia": "en:Ziraat Bank", "name": "Ziraat Bankas\u0131", "operator": "Ziraat Bankas\u0131", "operator:wikidata": "Q696003", "operator:wikipedia": "en:Ziraat Bank"}}, {"type": "node", "id": 8504512508, "lat": 41.0432494, "lon": 28.880087, "tags": {"amenity": "atm", "brand": "T\u00fcrkiye \u0130\u015f Bankas\u0131", "brand:wikidata": "Q909613", "brand:wikipedia": "en:\u0130\u015fbank", "name": "T\u00fcrkiye \u0130\u015f Bankas\u0131", "operator": "T\u00fcrkiye \u0130\u015f Bankas\u0131", "operator:wikidata": "Q909613", "operator:wikipedia": "en:\u0130\u015fbank"}}, {"type": "node", "id": 8504512509, "lat": 41.0432291, "lon": 28.8800989, "tags": {"amenity": "atm", "brand": "ING", "brand:wikidata": "Q645708", "brand:wikipedia": "en:ING Group", "name": "ING", "operator": "ING", "operator:wikidata": "Q645708", "operator:wikipedia": "en:ING Group"}}, {"type": "node", "id": 8504512510, "lat": 41.0432219, "lon": 28.8801034, "tags": {"amenity": "atm", "brand": "TEB", "brand:wikidata": "Q7862447", "brand:wikipedia": "en:T\u00fcrk Ekonomi Bankas\u0131", "name": "TEB", "operator": "TEB", "operator:wikidata": "Q7862447", "operator:wikipedia": "en:T\u00fcrk Ekonomi Bankas\u0131"}}, {"type": "node", "id": 8576178525, "lat": 41.0483185, "lon": 28.9206125, "tags": {"amenity": "atm", "brand": "Yap\u0131 Kredi", "brand:wikidata": "Q8049138", "brand:wikipedia": "en:Yap\u0131 Kredi", "name": "Yap\u0131 Kredi", "operator": "Yap\u0131 Kredi", "operator:wikidata": "Q8049138", "operator:wikipedia": "en:Yap\u0131 Kredi"}}, {"type": "node", "id": 8576178526, "lat": 41.0483231, "lon": 28.9206317, "tags": {"amenity": "atm", "brand": "Vak\u0131fbank", "brand:wikidata": "Q1148521", "brand:wikipedia": "en:Vak\u0131fBank", "name": "Vak\u0131fbank", "operator": "Vak\u0131fbank", "operator:wikidata": "Q1148521", "operator:wikipedia": "en:Vak\u0131fBank"}}, {"type": "node", "id": 8576178527, "lat": 41.0483273, "lon": 28.9206503, "tags": {"amenity": "atm", "brand": "T\u00fcrkiye \u0130\u015f Bankas\u0131", "brand:wikidata": "Q909613", "brand:wikipedia": "en:\u0130\u015fbank", "name": "T\u00fcrkiye \u0130\u015f Bankas\u0131", "operator": "T\u00fcrkiye \u0130\u015f Bankas\u0131", "operator:wikidata": "Q909613", "operator:wikipedia": "en:\u0130\u015fbank"}}, {"type": "node", "id": 8576178528, "lat": 41.0483403, "lon": 28.9206689, "tags": {"amenity": "atm", "brand": "Garanti Bankas\u0131", "brand:wikidata": "Q322962", "brand:wikipedia": "en:Garanti BBVA", "name": "Garanti Bankas\u0131", "operator": "Garanti Bankas\u0131", "operator:wikidata": "Q322962", "operator:wikipedia": "en:Garanti BBVA"}}, {"type": "node", "id": 8739742070, "lat": 41.0244943, "lon": 28.623445, "tags": {"amenity": "atm", "brand": "T\u00fcrkiye \u0130\u015f Bankas\u0131", "brand:wikidata": "Q909613", "name": "T\u00fcrkiye \u0130\u015f Bankas\u0131", "operator": "T\u00fcrkiye \u0130\u015f Bankas\u0131", "operator:wikidata": "Q909613"}}, {"type": "node", "id": 8759350859, "lat": 41.0167852, "lon": 28.5939927, "tags": {"amenity": "atm", "brand": "Akbank", "brand:wikidata": "Q416624", "name": "Akbank", "operator": "Akbank", "operator:wikidata": "Q416624"}}, {"type": "node", "id": 8906836900, "lat": 40.9931247, "lon": 28.7906885, "tags": {"amenity": "atm", "brand": "Garanti Bankas\u0131", "brand:wikidata": "Q322962", "currency:TL": "yes", "name": "Garanti Bankas\u0131", "operator": "Garanti Bankas\u0131", "operator:wikidata": "Q322962"}}, {"type": "node", "id": 9312377100, "lat": 41.0454089, "lon": 28.9167071, "tags": {"amenity": "atm", "brand": "Garanti Bankas\u0131", "brand:wikidata": "Q322962", "brand:wikipedia": "en:Garanti BBVA", "name": "Garanti Bankas\u0131", "operator": "Garanti Bankas\u0131", "operator:wikidata": "Q322962", "operator:wikipedia": "en:Garanti BBVA"}}, {"type": "node", "id": 9385532753, "lat": 41.0421046, "lon": 28.9185007, "tags": {"amenity": "atm", "brand": "T\u00fcrkiye \u0130\u015f Bankas\u0131", "brand:wikidata": "Q909613", "brand:wikipedia": "en:\u0130\u015fbank", "name": "T\u00fcrkiye \u0130\u015f Bankas\u0131", "operator": "T\u00fcrkiye \u0130\u015f Bankas\u0131", "operator:wikidata": "Q909613", "operator:wikipedia": "en:\u0130\u015fbank"}}, {"type": "node", "id": 9444269437, "lat": 41.0365414, "lon": 28.8875805, "tags": {"amenity": "atm", "brand": "Vak\u0131fbank", "brand:wikidata": "Q1148521", "brand:wikipedia": "en:Vak\u0131fBank", "name": "Vak\u0131fbank", "operator": "Vak\u0131fbank", "operator:wikidata": "Q1148521", "operator:wikipedia": "en:Vak\u0131fBank"}}, {"type": "node", "id": 9444269438, "lat": 41.036535, "lon": 28.8876073, "tags": {"amenity": "atm", "brand": "Yap\u0131 Kredi", "brand:wikidata": "Q8049138", "brand:wikipedia": "en:Yap\u0131 Kredi", "name": "Yap\u0131 Kredi", "operator": "Yap\u0131 Kredi", "operator:wikidata": "Q8049138", "operator:wikipedia": "en:Yap\u0131 Kredi"}}, {"type": "node", "id": 9444269439, "lat": 41.0364992, "lon": 28.887617, "tags": {"amenity": "atm", "brand": "Ziraat Bankas\u0131", "brand:wikidata": "Q696003", "brand:wikipedia": "en:Ziraat Bank", "name": "Ziraat Bankas\u0131", "operator": "Ziraat Bankas\u0131", "operator:wikidata": "Q696003", "operator:wikipedia": "en:Ziraat Bank"}}, {"type": "node", "id": 9444269440, "lat": 41.0364927, "lon": 28.8876401, "tags": {"amenity": "atm", "brand": "Denizbank", "brand:wikidata": "Q1115064", "brand:wikipedia": "en:DenizBank", "name": "Denizbank", "operator": "Denizbank", "operator:wikidata": "Q1115064", "operator:wikipedia": "en:DenizBank"}}, {"type": "node", "id": 9455343432, "lat": 40.9797929, "lon": 28.7218889, "tags": {"amenity": "atm", "brand": "Vak\u0131fbank", "brand:wikidata": "Q1148521", "brand:wikipedia": "en:Vak\u0131fBank", "name": "Vak\u0131fbank", "operator": "Vak\u0131fbank", "operator:wikidata": "Q1148521", "operator:wikipedia": "en:Vak\u0131fBank"}}, {"type": "node", "id": 9455353526, "lat": 40.9796515, "lon": 28.7217321, "tags": {"amenity": "atm", "brand": "Halkbank", "brand:wikidata": "Q3593818", "brand:wikipedia": "en:Halkbank a.d.", "name": "Halkbank", "operator": "Halkbank", "operator:wikidata": "Q3593818", "operator:wikipedia": "en:Halkbank a.d."}}, {"type": "node", "id": 9455354929, "lat": 40.9793524, "lon": 28.7212269, "tags": {"amenity": "atm", "brand": "Garanti Bankas\u0131", "brand:wikidata": "Q322962", "name": "Garanti BBVA", "operator": "Garanti Bankas\u0131", "operator:wikidata": "Q322962"}}, {"type": "node", "id": 9455354930, "lat": 40.9797892, "lon": 28.7219349, "tags": {"amenity": "atm", "brand": "Yap\u0131 Kredi", "brand:wikidata": "Q8049138", "brand:wikipedia": "en:Yap\u0131 Kredi", "name": "Yap\u0131 Kredi", "operator": "Yap\u0131 Kredi", "operator:wikidata": "Q8049138", "operator:wikipedia": "en:Yap\u0131 Kredi"}}, {"type": "node", "id": 9455358456, "lat": 40.979771, "lon": 28.7219791, "tags": {"amenity": "atm", "brand": "Ziraat Bankas\u0131", "brand:wikidata": "Q696003", "brand:wikipedia": "en:Ziraat Bank", "name": "Ziraat Bankas\u0131", "operator": "Ziraat Bankas\u0131", "operator:wikidata": "Q696003", "operator:wikipedia": "en:Ziraat Bank"}}, {"type": "node", "id": 9455359137, "lat": 40.9794062, "lon": 28.7212919, "tags": {"amenity": "atm", "brand": "Yap\u0131 Kredi", "brand:wikidata": "Q8049138", "brand:wikipedia": "en:Yap\u0131 Kredi", "name": "Yap\u0131 Kredi", "operator": "Yap\u0131 Kredi", "operator:wikidata": "Q8049138", "operator:wikipedia": "en:Yap\u0131 Kredi"}}, {"type": "node", "id": 9455368748, "lat": 40.9797815, "lon": 28.7217714, "tags": {"amenity": "atm", "brand": "QNB Finansbank", "brand:wikidata": "Q1416237", "brand:wikipedia": "en:QNB Finansbank", "name": "QNB Finansbank", "operator": "QNB Finansbank", "operator:wikidata": "Q1416237", "operator:wikipedia": "en:QNB Finansbank"}}, {"type": "node", "id": 9455373785, "lat": 40.9797683, "lon": 28.7220206, "tags": {"amenity": "atm", "brand": "Yap\u0131 Kredi", "brand:wikidata": "Q8049138", "brand:wikipedia": "en:Yap\u0131 Kredi", "name": "Yap\u0131 Kredi", "operator": "Yap\u0131 Kredi", "operator:wikidata": "Q8049138", "operator:wikipedia": "en:Yap\u0131 Kredi"}}, {"type": "node", "id": 9455375726, "lat": 40.97942, "lon": 28.7213222, "tags": {"amenity": "atm", "brand": "TEB", "brand:wikidata": "Q7862447", "brand:wikipedia": "en:T\u00fcrk Ekonomi Bankas\u0131", "name": "TEB", "operator": "TEB", "operator:wikidata": "Q7862447", "operator:wikipedia": "en:T\u00fcrk Ekonomi Bankas\u0131"}}, {"type": "node", "id": 9455384617, "lat": 40.979801, "lon": 28.7218237, "tags": {"amenity": "atm", "brand": "Akbank", "brand:wikidata": "Q416624", "brand:wikipedia": "tr:Akbank", "name": "Akbank", "operator": "Akbank", "operator:wikidata": "Q416624", "operator:wikipedia": "tr:Akbank"}}, {"type": "node", "id": 9461713315, "lat": 41.0489213, "lon": 28.9213743, "tags": {"amenity": "atm", "brand": "Akbank", "brand:wikidata": "Q416624", "brand:wikipedia": "tr:Akbank", "name": "Akbank", "operator": "Akbank", "operator:wikidata": "Q416624", "operator:wikipedia": "tr:Akbank"}}, {"type": "node", "id": 9461713316, "lat": 41.0489298, "lon": 28.9213902, "tags": {"amenity": "atm", "brand": "TEB", "brand:wikidata": "Q7862447", "brand:wikipedia": "en:T\u00fcrk Ekonomi Bankas\u0131", "name": "TEB", "operator": "TEB", "operator:wikidata": "Q7862447", "operator:wikipedia": "en:T\u00fcrk Ekonomi Bankas\u0131"}}, {"type": "node", "id": 9461713317, "lat": 41.0487813, "lon": 28.9206177, "tags": {"amenity": "atm", "brand": "ING", "brand:wikidata": "Q645708", "brand:wikipedia": "en:ING Group", "name": "ING", "operator": "ING", "operator:wikidata": "Q645708", "operator:wikipedia": "en:ING Group"}}, {"type": "node", "id": 9461713318, "lat": 41.048776, "lon": 28.9206279, "tags": {"amenity": "atm", "brand": "Halkbank", "brand:wikidata": "Q3593818", "brand:wikipedia": "en:Halkbank a.d.", "name": "Halkbank", "operator": "Halkbank", "operator:wikidata": "Q3593818", "operator:wikipedia": "en:Halkbank a.d."}}, {"type": "node", "id": 9550928874, "lat": 40.9924667, "lon": 28.8438753, "tags": {"amenity": "atm", "brand": "Ziraat Bankas\u0131", "brand:wikidata": "Q696003", "name": "Ziraat Bankas\u0131", "operator": "Ziraat Bankas\u0131", "operator:wikidata": "Q696003", "operator:wikipedia": "en:Ziraat Bank"}}, {"type": "node", "id": 9550928884, "lat": 40.9921776, "lon": 28.8450662, "tags": {"amenity": "atm", "brand": "Halkbank", "brand:wikidata": "Q3593818", "name": "Halkbank", "operator": "Halkbank", "operator:wikidata": "Q3593818"}}, {"type": "node", "id": 9550928889, "lat": 40.9921752, "lon": 28.845079, "tags": {"amenity": "atm", "brand": "Garanti BBVA"}}, {"type": "node", "id": 9550928905, "lat": 40.9923597, "lon": 28.8436428, "tags": {"amenity": "atm", "brand": "Denizbank", "brand:wikidata": "Q1115064", "name": "Denizbank", "operator": "Denizbank", "operator:wikidata": "Q1115064", "operator:wikipedia": "en:DenizBank"}}, {"type": "node", "id": 9550933517, "lat": 40.9924681, "lon": 28.843848, "tags": {"amenity": "atm", "brand": "QNB Finansbank", "brand:wikidata": "Q1416237", "name": "QNB Finansbank", "operator": "QNB Finansbank", "operator:wikidata": "Q1416237", "operator:wikipedia": "en:QNB Finansbank"}}, {"type": "node", "id": 9550933529, "lat": 40.992464, "lon": 28.8438967, "tags": {"amenity": "atm", "brand": "T\u00fcrkiye \u0130\u015f Bankas\u0131", "brand:wikidata": "Q909613", "name": "T\u00fcrkiye \u0130\u015f Bankas\u0131", "operator": "T\u00fcrkiye \u0130\u015f Bankas\u0131", "operator:wikidata": "Q909613", "operator:wikipedia": "en:\u0130\u015fbank"}}, {"type": "node", "id": 9643667444, "lat": 41.0251144, "lon": 28.7731882, "tags": {"amenity": "atm", "brand": "Vak\u0131fbank", "brand:wikidata": "Q1148521", "name": "Vak\u0131fbank", "operator": "Vak\u0131fbank", "operator:wikidata": "Q1148521"}}, {"type": "node", "id": 9643667445, "lat": 41.025117, "lon": 28.7731909, "tags": {"amenity": "atm", "brand": "T\u00fcrkiye \u0130\u015f Bankas\u0131", "brand:wikidata": "Q909613", "name": "T\u00fcrkiye \u0130\u015f Bankas\u0131", "operator": "T\u00fcrkiye \u0130\u015f Bankas\u0131", "operator:wikidata": "Q909613"}}, {"type": "node", "id": 9752350873, "lat": 41.0200095, "lon": 28.9003727, "tags": {"amenity": "atm", "brand": "T\u00fcrkiye \u0130\u015f Bankas\u0131", "brand:wikidata": "Q909613", "name": "T\u00fcrkiye \u0130\u015f Bankas\u0131", "operator": "T\u00fcrkiye \u0130\u015f Bankas\u0131", "operator:wikidata": "Q909613"}}, {"type": "node", "id": 9752350874, "lat": 41.022973, "lon": 28.9012045, "tags": {"amenity": "atm", "brand": "T\u00fcrkiye \u0130\u015f Bankas\u0131", "brand:wikidata": "Q909613", "name": "T\u00fcrkiye \u0130\u015f Bankas\u0131", "operator": "T\u00fcrkiye \u0130\u015f Bankas\u0131", "operator:wikidata": "Q909613"}}, {"type": "node", "id": 9882886159, "lat": 41.0233157, "lon": 28.7714233, "tags": {"amenity": "atm", "brand": "Akbank", "brand:wikidata": "Q416624", "name": "Akbank", "operator": "Akbank", "operator:wikidata": "Q416624"}}, {"type": "node", "id": 10029201854, "lat": 40.9986054, "lon": 28.8577719, "tags": {"amenity": "atm", "brand": "Denizbank", "brand:wikidata": "Q1115064", "name": "Denizbank", "operator": "Denizbank", "operator:wikidata": "Q1115064"}}, {"type": "node", "id": 10029201878, "lat": 40.998628, "lon": 28.857805, "tags": {"amenity": "atm", "brand": "Vak\u0131fbank", "brand:wikidata": "Q1148521", "name": "Vak\u0131fbank", "operator": "Vak\u0131fbank", "operator:wikidata": "Q1148521"}}, {"type": "node", "id": 10029201901, "lat": 40.9985966, "lon": 28.8577556, "tags": {"amenity": "atm", "brand": "T\u00fcrkiye \u0130\u015f Bankas\u0131", "brand:wikidata": "Q909613", "name": "T\u00fcrkiye \u0130\u015f Bankas\u0131", "operator": "T\u00fcrkiye \u0130\u015f Bankas\u0131", "operator:wikidata": "Q909613"}}, {"type": "node", "id": 10029201903, "lat": 40.9986352, "lon": 28.8578211, "tags": {"amenity": "atm", "brand": "QNB Finansbank", "brand:wikidata": "Q1416237", "name": "QNB Finansbank", "operator": "QNB Finansbank", "operator:wikidata": "Q1416237"}}, {"type": "node", "id": 10029207119, "lat": 40.9986172, "lon": 28.8577891, "tags": {"amenity": "atm", "brand": "Yap\u0131 Kredi", "brand:wikidata": "Q8049138", "name": "Yap\u0131 Kredi", "operator": "Yap\u0131 Kredi", "operator:wikidata": "Q8049138"}}, {"type": "node", "id": 10029207131, "lat": 40.9986422, "lon": 28.8578374, "tags": {"amenity": "atm", "brand": "Garanti BBVA"}}, {"type": "node", "id": 10074005021, "lat": 41.0131176, "lon": 28.9556336, "tags": {"amenity": "atm", "brand": "Yap\u0131 Kredi", "brand:wikidata": "Q8049138", "name": "Yap\u0131 Kredi", "operator": "Yap\u0131 Kredi", "operator:wikidata": "Q8049138"}}, {"type": "node", "id": 10074005022, "lat": 41.0131348, "lon": 28.9556541, "tags": {"amenity": "atm", "brand": "Vak\u0131fbank", "brand:wikidata": "Q1148521", "name": "Vak\u0131fbank", "operator": "Vak\u0131fbank", "operator:wikidata": "Q1148521"}}, {"type": "node", "id": 10290264060, "lat": 41.0004125, "lon": 28.6941992, "tags": {"addr:street": "64. Sokak", "amenity": "atm", "brand": "T\u00fcrkiye \u0130\u015f Bankas\u0131", "brand:wikidata": "Q909613", "cash_in": "yes", "name": "\u0130\u015fbankas\u0131", "operator": "T\u00fcrkiye \u0130\u015f Bankas\u0131", "operator:wikidata": "Q909613"}}, {"type": "node", "id": 10290314220, "lat": 41.0004282, "lon": 28.6941981, "tags": {"addr:street": "64. Sokak", "amenity": "atm", "brand": "Akbank", "brand:wikidata": "Q416624", "cash_in": "yes", "name": "Akbank", "operator": "Akbank", "operator:wikidata": "Q416624"}}, {"type": "node", "id": 10290323763, "lat": 41.0003851, "lon": 28.6942002, "tags": {"addr:street": "64. Sokak", "amenity": "atm", "brand": "Yap\u0131 Kredi", "brand:wikidata": "Q8049138", "cash_in": "yes", "name": "Yap\u0131kredi", "operator": "Yap\u0131 Kredi", "operator:wikidata": "Q8049138"}}, {"type": "node", "id": 10297567534, "lat": 41.0003642, "lon": 28.6941962, "tags": {"addr:street": "64. Sokak", "amenity": "atm", "brand": "QNB Finansbank", "brand:wikidata": "Q1416237", "cash_in": "yes", "name": "QNB Finansbank", "operator": "QNB Finansbank", "operator:wikidata": "Q1416237"}}, {"type": "node", "id": 10541522679, "lat": 41.0009496, "lon": 28.6975487, "tags": {"amenity": "atm", "brand": "PTT", "operator": "PTT"}}, {"type": "node", "id": 10681883106, "lat": 41.0391802, "lon": 28.6679317, "tags": {"amenity": "atm"}}, {"type": "node", "id": 10695491215, "lat": 41.0216034, "lon": 28.6875888, "tags": {"amenity": "atm", "brand": "QNB Finansbank", "brand:wikidata": "Q1416237", "name": "QNB Finansbank ATM", "operator": "QNB Finansbank", "operator:wikidata": "Q1416237"}}, {"type": "node", "id": 10695491216, "lat": 41.0216221, "lon": 28.6876443, "tags": {"amenity": "atm", "brand": "Yap\u0131 Kredi", "brand:wikidata": "Q8049138", "name": "Yap\u0131 Kredi ATM", "operator": "Yap\u0131 Kredi", "operator:wikidata": "Q8049138"}}, {"type": "node", "id": 10695491217, "lat": 41.021586, "lon": 28.6875318, "tags": {"amenity": "atm", "brand": "Garanti Bankas\u0131", "brand:wikidata": "Q322962", "name": "Garanti BBVA ATM", "operator": "Garanti Bankas\u0131", "operator:wikidata": "Q322962"}}, {"type": "node", "id": 10794831461, "lat": 41.0456305, "lon": 28.9050631, "tags": {"amenity": "atm", "brand": "Akbank", "brand:wikidata": "Q416624", "operator": "Akbank", "operator:wikidata": "Q416624"}}, {"type": "node", "id": 10794831462, "lat": 41.045247, "lon": 28.9066106, "tags": {"amenity": "atm", "brand": "Garanti Bankas\u0131", "brand:wikidata": "Q322962", "operator": "Garanti Bankas\u0131", "operator:wikidata": "Q322962"}}, {"type": "node", "id": 10794831463, "lat": 41.0452452, "lon": 28.9066398, "tags": {"amenity": "atm", "brand": "Denizbank", "brand:wikidata": "Q1115064", "operator": "Denizbank", "operator:wikidata": "Q1115064"}}]}