{"version": 0.6, "generator": "Overpass API 0.7.60 f4c14d41", "osm3s": {"timestamp_osm_base": "2023-05-02T21:16:21Z", "copyright": "The data included in this document is from www.openstreetmap.org. The data is made available under ODbL."}, "elements": [{"type": "node", "id": 4845231842, "lat": 41.0095859, "lon": 29.1168886, "tags": {"amenity": "food_court", "name": "knc et"}}, {"type": "node", "id": 4924741514, "lat": 41.0293938, "lon": 28.9750005}, {"type": "node", "id": 4924741516, "lat": 41.0293464, "lon": 28.9751189}, {"type": "node", "id": 4926917201, "lat": 41.0294019, "lon": 28.9749819}, {"type": "node", "id": 4926917206, "lat": 41.0294694, "lon": 28.9750464}, {"type": "node", "id": 4926917207, "lat": 41.029425, "lon": 28.9751682}, {"type": "node", "id": 5067457508, "lat": 40.9845695, "lon": 29.0712404, "tags": {"addr:city": "\u0130stanbul", "addr:district": "kad\u0131k\u00f6y", "addr:housenumber": "30", "addr:neighbourhood": "Merdivenk\u00f6y", "addr:postcode": "34732", "addr:street": "G\u00fcnayd\u0131n Sokak", "amenity": "food_court", "name": "\u015ee F\u0131r\u0131n", "opening_hours": "Mo-Sa 07:00-19:00", "outdoor_seating": "yes", "smoking": "outside"}}, {"type": "node", "id": 5263362514, "lat": 40.9550046, "lon": 29.1714855}, {"type": "node", "id": 5263362515, "lat": 40.9549255, "lon": 29.171546}, {"type": "node", "id": 5263362516, "lat": 40.9551471, "lon": 29.1720546}, {"type": "node", "id": 5263362517, "lat": 40.9552116, "lon": 29.1719608}, {"type": "node", "id": 5288364838, "lat": 40.8969892, "lon": 29.1850528, "tags": {"amenity": "food_court"}}, {"type": "node", "id": 5292675398, "lat": 40.7829057, "lon": 29.3745827, "tags": {"amenity": "food_court", "name": "\u00d6zdiyar Kebap"}}, {"type": "node", "id": 5292675420, "lat": 40.7883378, "lon": 29.3729936, "tags": {"amenity": "food_court", "name": "G\u00f6\u00e7men B\u00f6rek\u00e7isi"}}, {"type": "node", "id": 5293882364, "lat": 40.7864251, "lon": 29.3492144, "tags": {"amenity": "food_court", "name": "Hocan\u0131n Yeri Sofra Saray\u0131"}}, {"type": "node", "id": 5293890889, "lat": 40.7963566, "lon": 29.3686158, "tags": {"amenity": "food_court", "name": "Unteks Unlu Mam\u00fclleri", "shop": "pastry"}}, {"type": "node", "id": 5293976360, "lat": 40.9072144, "lon": 29.1769489, "tags": {"amenity": "food_court", "name": "Erzurum Ca\u011f"}}, {"type": "node", "id": 5293976376, "lat": 40.9041184, "lon": 29.1726528, "tags": {"amenity": "food_court", "name": "Binalibey"}}, {"type": "node", "id": 5293976388, "lat": 40.9016682, "lon": 29.1675888, "tags": {"amenity": "food_court", "name": "Budako\u011flu B\u00f6rek"}}, {"type": "node", "id": 5294058857, "lat": 40.7820681, "lon": 29.3745535, "tags": {"amenity": "food_court", "name": "Dar\u0131ca Erzurum Ca\u011f Kebap"}}, {"type": "node", "id": 5294058868, "lat": 40.7859801, "lon": 29.3768794, "tags": {"amenity": "food_court", "name": "\u00c7i\u011fk\u00f6fteci sait"}}, {"type": "node", "id": 5294058874, "lat": 40.7887389, "lon": 29.3732377, "tags": {"amenity": "food_court", "name": "Can Can Kokore\u00e7"}}, {"type": "node", "id": 5294089117, "lat": 40.7886434, "lon": 29.3730392, "tags": {"amenity": "food_court", "name": "\u00e7i\u011fk\u00f6fteci sait"}}, {"type": "node", "id": 5294611414, "lat": 40.7815632, "lon": 29.3851037, "tags": {"amenity": "food_court", "name": "Mert D\u00f6ner"}}, {"type": "node", "id": 5294611418, "lat": 40.7820978, "lon": 29.3850701, "tags": {"amenity": "food_court", "name": "Bizim D\u00f6ner Salonu"}}, {"type": "node", "id": 5296374910, "lat": 40.9622001, "lon": 29.0912577, "tags": {"addr:city": "\u0130stanbul", "addr:district": "Kad\u0131k\u00f6y", "addr:neighbourhood": "Suadiye Mahallesi", "addr:postcode": "34740", "addr:street": "\u015eemsettin G\u00fcnaltay Caddesi", "amenity": "food_court", "name": "Pizza Bulls", "smoking": "outside"}}, {"type": "node", "id": 5296374912, "lat": 40.9622665, "lon": 29.091117, "tags": {"addr:city": "\u0130stanbul", "addr:district": "Kad\u0131k\u00f6y", "addr:neighbourhood": "Suadiye Mahallesi", "addr:postcode": "34740", "addr:street": "\u015eemsettin G\u00fcnaltay Caddesi", "amenity": "food_court", "name": "Malt\u0131z K\u00f6fte"}}, {"type": "node", "id": 5296374919, "lat": 40.9624644, "lon": 29.0907829, "tags": {"addr:city": "\u0130stanbul", "addr:district": "Kad\u0131k\u00f6y", "addr:neighbourhood": "Suadiye Mahallesi", "addr:postcode": "34740", "addr:street": "\u015eemsettin G\u00fcnaltay Caddesi", "amenity": "food_court", "name": "Domino's Pizza", "outdoor_seating": "yes", "smoking": "outside"}}, {"type": "node", "id": 5296408701, "lat": 40.9015967, "lon": 29.1731893, "tags": {"amenity": "food_court", "name": "Mangal"}}, {"type": "node", "id": 5296408706, "lat": 40.9044231, "lon": 29.171651, "tags": {"amenity": "food_court", "name": "Mavi Bal\u0131k\u00e7\u0131l\u0131k"}}, {"type": "node", "id": 5296448346, "lat": 40.7846274, "lon": 29.3785451, "tags": {"amenity": "food_court", "name": "Suriyeli yemek yeri"}}, {"type": "node", "id": 5296448354, "lat": 40.7810976, "lon": 29.3847962, "tags": {"amenity": "food_court", "name": "Osmangazi Pide ve B\u00f6rek"}}, {"type": "node", "id": 5296448358, "lat": 40.7812386, "lon": 29.385469, "tags": {"amenity": "food_court", "name": "Alt\u00fcrk \u00c7i\u011fk\u00f6fte"}}, {"type": "node", "id": 5296534758, "lat": 40.7908341, "lon": 29.373933, "tags": {"amenity": "food_court", "name": "Hazal D\u00f6ner D\u00fcr\u00fcm"}}, {"type": "node", "id": 5296534772, "lat": 40.7897469, "lon": 29.3733434, "tags": {"amenity": "food_court", "name": "Sait \u00e7i\u011fk\u00f6fte"}}, {"type": "node", "id": 5296534777, "lat": 40.7896453, "lon": 29.3733038, "tags": {"amenity": "food_court", "name": "Mert D\u00f6ner"}}, {"type": "node", "id": 5296577680, "lat": 40.7854227, "lon": 29.3732531, "tags": {"amenity": "food_court", "name": "Has B\u00f6rek ve Pide"}}, {"type": "node", "id": 5297414234, "lat": 40.9610645, "lon": 29.0840914, "tags": {"addr:city": "\u0130stanbul", "addr:district": "Kad\u0131k\u00f6y", "addr:neighbourhood": "Suadiye Mahallesi", "addr:postcode": "34740", "addr:street": "Ay\u015fe \u00c7avu\u015f Caddesi", "amenity": "food_court", "name": "S\u0131adiye Marmaris", "outdoor_seating": "yes", "smoking": "isolated"}}, {"type": "node", "id": 5297414236, "lat": 40.9610058, "lon": 29.084042, "tags": {"addr:city": "\u0130stanbul", "addr:district": "Kad\u0131k\u00f6y", "addr:neighbourhood": "Suadiye Mahallesi", "addr:postcode": "34740", "addr:street": "Ay\u015fe \u00c7avu\u015f Caddesi", "amenity": "food_court", "name": "Taner B\u00f6rek"}}, {"type": "node", "id": 5297414239, "lat": 40.9600319, "lon": 29.0834163, "tags": {"addr:city": "\u0130stanbul", "addr:district": "Kad\u0131k\u00f6y", "addr:neighbourhood": "Suadiye Mahallesi", "addr:postcode": "34740", "addr:street": "Ay\u015fe \u00c7avu\u015f Sokak", "amenity": "food_court", "name": "Bedri Usta"}}, {"type": "node", "id": 5297414298, "lat": 40.9606841, "lon": 29.0899776, "tags": {"addr:city": "\u0130stanbul", "addr:district": "Kad\u0131k\u00f6y", "addr:neighbourhood": "Suadiye Mahallesi", "addr:postcode": "34740", "addr:street": "Emin Ali Pa\u015fa Caddesi", "amenity": "food_court", "name": "Mr \u00c7i\u011fk\u00f6fte"}}, {"type": "node", "id": 5297414311, "lat": 40.9600912, "lon": 29.0912431, "tags": {"addr:city": "\u0130stanbul", "addr:district": "Kad\u0131k\u00f6y", "addr:neighbourhood": "Suadiye Mahallesi", "addr:postcode": "34740", "addr:street": "Emin Ali Pa\u015fa Caddesi", "amenity": "food_court", "name": "Mutfak Ev Yemekleri;Defne Dizayn", "shop": "houseware"}}, {"type": "node", "id": 5298419310, "lat": 40.8130977, "lon": 29.3700897}, {"type": "node", "id": 5298419311, "lat": 40.8130206, "lon": 29.3700334}, {"type": "node", "id": 5298419312, "lat": 40.8129516, "lon": 29.370189}, {"type": "node", "id": 5298419313, "lat": 40.8130348, "lon": 29.3702426}, {"type": "node", "id": 5299260695, "lat": 40.8893103, "lon": 29.1809471, "tags": {"amenity": "food_court"}}, {"type": "node", "id": 5299260696, "lat": 40.8892667, "lon": 29.1809076, "tags": {"amenity": "food_court"}}, {"type": "node", "id": 5303352238, "lat": 41.007863, "lon": 29.0975563, "tags": {"amenity": "food_court", "name": "K\u00f6pr\u00fcba\u015f\u0131 Kelle Pa\u00e7a Izgara Salonu"}}, {"type": "node", "id": 5303352244, "lat": 41.0082728, "lon": 29.0979545, "tags": {"amenity": "food_court", "name": "Ton Ton Pili\u00e7"}}, {"type": "node", "id": 5303352273, "lat": 41.0085217, "lon": 29.0979867, "tags": {"amenity": "food_court", "name": "Cancana Restaurant"}}, {"type": "node", "id": 5303378827, "lat": 41.0089189, "lon": 29.0985054, "tags": {"amenity": "food_court", "name": "HamurBey Pide Pizza"}}, {"type": "node", "id": 5307136584, "lat": 41.0115128, "lon": 29.1793078, "tags": {"amenity": "food_court", "name": "kom\u015fu f\u0131r\u0131n"}}, {"type": "node", "id": 5613570804, "lat": 41.0167357, "lon": 29.0609164}, {"type": "node", "id": 5613570805, "lat": 41.016749, "lon": 29.060627}, {"type": "node", "id": 5613570806, "lat": 41.0165263, "lon": 29.0606777}, {"type": "node", "id": 5613570807, "lat": 41.0165404, "lon": 29.0608097}, {"type": "node", "id": 5613570808, "lat": 41.0166468, "lon": 29.0607917}, {"type": "node", "id": 5613570809, "lat": 41.0166394, "lon": 29.0609314}, {"type": "node", "id": 5613570812, "lat": 41.0167584, "lon": 29.0607177}, {"type": "node", "id": 5613603434, "lat": 41.0170295, "lon": 29.0607751}, {"type": "node", "id": 5613603435, "lat": 41.0168789, "lon": 29.0606061}, {"type": "node", "id": 5613603436, "lat": 41.0168817, "lon": 29.0607793}, {"type": "node", "id": 5613603437, "lat": 41.0166651, "lon": 29.0606283, "tags": {"amenity": "food_court", "name": "Mehtap Restaurant"}}, {"type": "node", "id": 5613603438, "lat": 41.0169077, "lon": 29.0606303, "tags": {"addr:city": "\u0130stanbul", "addr:district": "\u00dcsk\u00fcdar", "addr:housenumber": "35", "addr:neighbourhood": "K\u00fc\u00e7\u00fck \u00c7aml\u0131ca", "addr:street": "\u015eehit Serhat Emre Sokak", "amenity": "food_court", "name": "Nagehan"}}, {"type": "node", "id": 5613603445, "lat": 41.0170266, "lon": 29.0606017}, {"type": "node", "id": 5613603446, "lat": 41.0170286, "lon": 29.060684}, {"type": "node", "id": 5613603447, "lat": 41.0172012, "lon": 29.0606213, "tags": {"amenity": "food_court", "name": "Dilek Restaurant"}}, {"type": "node", "id": 5613609938, "lat": 41.0174816, "lon": 29.060686, "tags": {"amenity": "food_court", "name": "Hacegan"}}, {"type": "node", "id": 5669014706, "lat": 41.0286893, "lon": 28.9737054, "tags": {"addr:city": "\u0130stanbul", "addr:district": "Beyo\u011flu", "amenity": "food_court", "name": "Antakya"}}, {"type": "node", "id": 5929859473, "lat": 40.9004951, "lon": 29.2268359, "tags": {"amenity": "food_court", "name": "Arsemes \u00c7i\u011fk\u00f6fte"}}, {"type": "node", "id": 5929874681, "lat": 40.9007475, "lon": 29.2267568, "tags": {"amenity": "food_court", "name": "Me\u015fhur Sar\u0131yer B\u00f6rek\u00e7isi", "smoking": "separated"}}, {"type": "node", "id": 5929906846, "lat": 40.9016881, "lon": 29.2267177, "tags": {"amenity": "food_court", "name": "Ece Tavuk Izgara", "phone": "02164524803"}}, {"type": "node", "id": 5938636247, "lat": 40.9874881, "lon": 29.0976766, "tags": {"amenity": "food_court", "name": "Bursa \u0130skender", "outdoor_seating": "yes", "phone": "02164705855", "smoking": "separated"}}, {"type": "node", "id": 5938636248, "lat": 40.9875974, "lon": 29.0975645, "tags": {"amenity": "food_court", "name": "Uzman B\u00f6rek Ve Pide Salonu", "phone": "02164724936", "smoking": "outside"}}, {"type": "node", "id": 5938991920, "lat": 40.8991262, "lon": 29.2259085, "tags": {"addr:city": "\u0130stanbul", "addr:district": "Kartal", "addr:neighbourhood": "Cumhuriyet Mh.", "addr:street": "Abdi \u0130pekci Caddesi", "amenity": "food_court", "name": "Da\u011f-G\u00fcl B\u00f6rek Pide Salonu", "phone": "02163771010"}}, {"type": "node", "id": 5947906958, "lat": 40.9036627, "lon": 29.2143641, "tags": {"addr:city": "\u0130stanbul", "addr:district": "Kartal", "addr:neighbourhood": "Topselvi Mh.", "addr:street": "E5 Yakac\u0131k Yanyol", "amenity": "food_court", "name": "D\u00f6nerci Halil Usta"}}, {"type": "node", "id": 6081007875, "lat": 40.918391, "lon": 29.2248257, "tags": {"addr:city": "\u0130stanbul", "addr:district": "Yakac\u0131k", "addr:neighbourhood": "\u00c7ar\u015f\u0131 Mahallesi", "addr:street": "Kartal Caddesi", "amenity": "food_court", "name": "D\u00fcgah \u0130skender"}}, {"type": "node", "id": 6089536336, "lat": 40.992571, "lon": 29.1257894, "tags": {"amenity": "food_court", "name": "Afyon Cumhuriyet Sucuklar\u0131 Kahvalt\u0131 Salonu"}}, {"type": "node", "id": 6089536343, "lat": 40.9983249, "lon": 29.0993108, "tags": {"amenity": "food_court", "level": "0", "name": "Cook Shop"}}, {"type": "node", "id": 6089536344, "lat": 40.9985193, "lon": 29.0992062, "tags": {"amenity": "food_court", "level": "1", "name": "Ka\u015f\u0131beyaz"}}, {"type": "node", "id": 6089536345, "lat": 40.9982318, "lon": 29.0994878, "tags": {"amenity": "food_court", "level": "0", "name": "Happy Moon's"}}, {"type": "node", "id": 6166300237, "lat": 40.9714447, "lon": 29.1357045, "tags": {"amenity": "food_court", "name": "F\u0131nd\u0131kl\u0131 Merkez B\u00f6rek\u00e7isi"}}, {"type": "node", "id": 6166336700, "lat": 41.0055416, "lon": 29.0868433, "tags": {"addr:city": "istanbul", "addr:district": "ata\u015fehir", "addr:street": "ba\u015fkomutan", "amenity": "food_court", "name": "b\u00f6rek salonu"}}, {"type": "node", "id": 6166937553, "lat": 41.0030808, "lon": 29.0849373, "tags": {"addr:city": "istanbul", "addr:district": "ata\u015fehir", "addr:street": "ziyapa\u015fa", "amenity": "food_court", "name": "\u00e7i\u011fk\u00f6fteci sait"}}, {"type": "node", "id": 6166937555, "lat": 41.0032816, "lon": 29.0850907, "tags": {"addr:city": "istanbul", "addr:district": "ata\u015fehir", "addr:street": "ziyapa\u015fa", "amenity": "food_court", "name": "k\u00f6\u015fem b\u00fcfe"}}, {"type": "node", "id": 6166937560, "lat": 41.0036118, "lon": 29.0852373, "tags": {"amenity": "food_court", "name": "d\u00fcdanl\u0131 bey"}}, {"type": "node", "id": 6166937562, "lat": 41.0037855, "lon": 29.0852734, "tags": {"addr:city": "istanbul", "addr:district": "ata\u015fehir", "addr:street": "ziyapa\u015fa", "amenity": "food_court", "name": "han\u0131meli b\u00f6rek"}}, {"type": "node", "id": 6172027576, "lat": 41.0038497, "lon": 29.0819563}, {"type": "node", "id": 6172027577, "lat": 41.0038255, "lon": 29.0819965}, {"type": "node", "id": 6172027578, "lat": 41.0037798, "lon": 29.0819518}, {"type": "node", "id": 6172027579, "lat": 41.0037343, "lon": 29.0820231}, {"type": "node", "id": 6172027580, "lat": 41.0036955, "lon": 29.0819821}, {"type": "node", "id": 6172027581, "lat": 41.0037456, "lon": 29.0818991}, {"type": "node", "id": 6172027582, "lat": 41.0037717, "lon": 29.0819267}, {"type": "node", "id": 6172027583, "lat": 41.0037912, "lon": 29.0818944}, {"type": "node", "id": 6172029786, "lat": 41.003748, "lon": 29.0819996}, {"type": "node", "id": 6172085145, "lat": 41.0035085, "lon": 29.0812497, "tags": {"addr:city": "\u0130stanbul", "addr:district": "ata\u015fehir", "addr:street": "adnan menderes", "amenity": "food_court", "name": "Naml\u0131 Sar\u0131yer B\u00f6rek\u00e7isi"}}, {"type": "node", "id": 6172085156, "lat": 41.0033568, "lon": 29.0810904, "tags": {"addr:city": "\u0130stanbul", "addr:district": "ata\u015fehir", "addr:street": "adnan menderes", "amenity": "food_court", "name": "\u00e7i\u011fk\u00f6fteci sait"}}, {"type": "node", "id": 6172085174, "lat": 41.0029646, "lon": 29.08084, "tags": {"addr:city": "\u0130stanbul", "addr:district": "ata\u015fehir", "addr:street": "adnan menderes", "amenity": "food_court", "name": "arsemia \u00e7i\u011fk\u00f6fteci"}}, {"type": "node", "id": 6172085194, "lat": 41.0022029, "lon": 29.0805623}, {"type": "node", "id": 6172085195, "lat": 41.0022861, "lon": 29.080611}, {"type": "node", "id": 6172085196, "lat": 41.0022571, "lon": 29.080698}, {"type": "node", "id": 6172085197, "lat": 41.0021739, "lon": 29.0806493}, {"type": "node", "id": 6172085247, "lat": 41.0012213, "lon": 29.0784389, "tags": {"amenity": "food_court", "name": "Hamurdan"}}, {"type": "node", "id": 6185772360, "lat": 41.027284, "lon": 28.9744951, "tags": {"amenity": "food_court", "internet_access:fee": "no", "level": "1", "name": "\u00e7ikolatya harikalar yaratur", "wheelchair": "no"}}, {"type": "node", "id": 6185772361, "lat": 41.0278552, "lon": 28.9742672, "tags": {"amenity": "food_court", "level": "2", "name": "vitamin shop", "wheelchair": "limited"}}, {"type": "node", "id": 6660241207, "lat": 40.981141, "lon": 29.0828671, "tags": {"addr:city": "\u0130stanbul", "addr:district": "Kad\u0131k\u00f6y", "addr:neighbourhood": "Sahray\u0131cedit Mahallesi", "addr:street": "Atat\u00fcrk Cad.", "amenity": "food_court", "name": "K\u00f6y\u00fcm Piknik"}}, {"type": "node", "id": 6723364295, "lat": 40.8101234, "lon": 29.36148}, {"type": "node", "id": 6723364296, "lat": 40.8100504, "lon": 29.3617213}, {"type": "node", "id": 6723364297, "lat": 40.8100531, "lon": 29.3617717}, {"type": "node", "id": 6723364298, "lat": 40.8100665, "lon": 29.3617912}, {"type": "node", "id": 6723364299, "lat": 40.8100893, "lon": 29.3618151}, {"type": "node", "id": 6723364300, "lat": 40.810108, "lon": 29.3618204}, {"type": "node", "id": 6723364301, "lat": 40.8101303, "lon": 29.3618193}, {"type": "node", "id": 6723364302, "lat": 40.8101529, "lon": 29.3617991}, {"type": "node", "id": 6723364303, "lat": 40.8101736, "lon": 29.3617832}, {"type": "node", "id": 6723364304, "lat": 40.810248, "lon": 29.3615549}, {"type": "node", "id": 6723364396, "lat": 40.8113877, "lon": 29.3547908}, {"type": "node", "id": 6723364397, "lat": 40.8113793, "lon": 29.3549815}, {"type": "node", "id": 6723364398, "lat": 40.8111957, "lon": 29.3549629}, {"type": "node", "id": 6723364399, "lat": 40.8111614, "lon": 29.3554325}, {"type": "node", "id": 6723364400, "lat": 40.8110302, "lon": 29.3554171}, {"type": "node", "id": 6723364401, "lat": 40.811076, "lon": 29.3547548}, {"type": "node", "id": 6828669097, "lat": 40.9203862, "lon": 29.3143929, "tags": {"amenity": "food_court", "name": "Gourmet Cafe"}}, {"type": "node", "id": 6828675488, "lat": 40.9210278, "lon": 29.313697, "tags": {"amenity": "food_court", "name": "Sodexo"}}, {"type": "node", "id": 6828675489, "lat": 40.923409, "lon": 29.3141564, "tags": {"amenity": "food_court", "name": "De\u011firmen Cafe Restoran"}}, {"type": "node", "id": 7523269326, "lat": 40.97871, "lon": 29.0919796, "tags": {"addr:city": "Kad\u0131k\u00f6y/\u0130stanbul", "addr:neighbourhood": "19 May\u0131s mahallesi", "addr:street": "\u0130n\u00f6n\u00fc Caddesi", "amenity": "food_court", "internet_access": "yes", "internet_access:fee": "no", "name": "Gourmet Garage", "opening_hours": "Mo-Su 07:00-22:00", "outdoor_seating": "yes", "phone": "0216 358 00 58", "website": "https://gourmetgarage.com.tr/"}}, {"type": "node", "id": 7544920673, "lat": 40.9638849, "lon": 29.0737508, "tags": {"addr:city": "\u0130stanbul", "addr:district": "Kad\u0131k\u00f6y", "addr:housenumber": "354", "addr:neighbourhood": "Caddebostan", "addr:postcode": "34728", "addr:street": "Ba\u011fdat Caddesi", "amenity": "food_court", "name": "Midpoint", "opening_hours": "Mo-Su 09:00-02:00"}}, {"type": "node", "id": 7590628623, "lat": 40.8927959, "lon": 29.241887, "tags": {"addr:city": "istanbul", "addr:neighbourhood": "Orta Mahalle", "amenity": "food_court", "name": "K\u00f6fteci Yusuf"}}, {"type": "node", "id": 7590628659, "lat": 40.9175668, "lon": 29.1955508, "tags": {"addr:city": "istanbul", "addr:neighbourhood": "Yeni Mahalle", "amenity": "food_court", "name": "Saray Pilavc\u0131s\u0131"}}, {"type": "node", "id": 7592252500, "lat": 40.8714971, "lon": 29.2482692}, {"type": "node", "id": 7592252501, "lat": 40.8713509, "lon": 29.2486098}, {"type": "node", "id": 7592252502, "lat": 40.8711625, "lon": 29.2485445}, {"type": "node", "id": 7592252503, "lat": 40.8713335, "lon": 29.2481463}, {"type": "node", "id": 7592252504, "lat": 40.8752426, "lon": 29.2359576}, {"type": "node", "id": 7592252505, "lat": 40.875283, "lon": 29.236193}, {"type": "node", "id": 7592252506, "lat": 40.8750668, "lon": 29.2360105}, {"type": "node", "id": 7593675949, "lat": 41.006378, "lon": 29.2156308, "tags": {"amenity": "food_court", "name": "Danlar B\u00f6rek"}}, {"type": "node", "id": 8320576838, "lat": 41.0466457, "lon": 29.023262}, {"type": "node", "id": 8320576839, "lat": 41.0467147, "lon": 29.0234524}, {"type": "node", "id": 8320576840, "lat": 41.0468928, "lon": 29.023339}, {"type": "node", "id": 8320576841, "lat": 41.0468685, "lon": 29.023272}, {"type": "node", "id": 8320576842, "lat": 41.0468167, "lon": 29.0233049}, {"type": "node", "id": 8320576843, "lat": 41.0467934, "lon": 29.0232406}, {"type": "node", "id": 8320576844, "lat": 41.0467023, "lon": 29.0232986}, {"type": "node", "id": 8320576845, "lat": 41.0466809, "lon": 29.0232396}, {"type": "node", "id": 10178088473, "lat": 40.9905485, "lon": 29.0263034, "tags": {"amenity": "food_court", "name": "Pa\u015fao\u011flu Tahin ve Helva"}}, {"type": "node", "id": 10567467436, "lat": 40.8751073, "lon": 29.2362459}, {"type": "node", "id": 10574151975, "lat": 40.9546353, "lon": 29.1325517, "tags": {"amenity": "food_court", "name": "M\u00fchendislik Fak. Yemekhane", "outdoor_seating": "no"}}, {"type": "node", "id": 10574152000, "lat": 40.9593357, "lon": 29.1358903, "tags": {"amenity": "food_court", "name": "Teknoloji Fak. Yemekhane"}}, {"type": "node", "id": 10604400731, "lat": 40.8209475, "lon": 29.4329714}, {"type": "node", "id": 10604400732, "lat": 40.8209004, "lon": 29.4329674}, {"type": "node", "id": 10604400733, "lat": 40.8209014, "lon": 29.4329475}, {"type": "node", "id": 10604400734, "lat": 40.8208565, "lon": 29.4329438}, {"type": "node", "id": 10604400735, "lat": 40.8208555, "lon": 29.4329651}, {"type": "node", "id": 10604400736, "lat": 40.8207877, "lon": 29.4329595}, {"type": "node", "id": 10604400737, "lat": 40.8207866, "lon": 29.4329846}, {"type": "node", "id": 10604400738, "lat": 40.8207457, "lon": 29.4329812}, {"type": "node", "id": 10604400739, "lat": 40.8207411, "lon": 29.433078}, {"type": "node", "id": 10604400740, "lat": 40.8207777, "lon": 29.433081}, {"type": "node", "id": 10604400741, "lat": 40.8207665, "lon": 29.4333186}, {"type": "node", "id": 10604400742, "lat": 40.8207264, "lon": 29.4333153}, {"type": "node", "id": 10604400743, "lat": 40.8207217, "lon": 29.433415}, {"type": "node", "id": 10604400744, "lat": 40.8207616, "lon": 29.4334183}, {"type": "node", "id": 10604400745, "lat": 40.8207624, "lon": 29.4334021}, {"type": "node", "id": 10604400746, "lat": 40.8208339, "lon": 29.433408}, {"type": "node", "id": 10604400747, "lat": 40.8208326, "lon": 29.4334352}, {"type": "node", "id": 10604400748, "lat": 40.8208817, "lon": 29.4334392}, {"type": "node", "id": 10604400749, "lat": 40.8208828, "lon": 29.4334157}, {"type": "node", "id": 10604400750, "lat": 40.8209261, "lon": 29.4334193}, {"type": "way", "id": 502111391, "nodes": [4926917206, 4926917207, 4924741516, 4924741514, 4926917201, 4926917206], "tags": {"addr:housenumber": "178", "addr:street": "\u0130stiklal Caddesi", "amenity": "food_court", "building": "yes", "name": "Koska"}}, {"type": "way", "id": 544489347, "nodes": [5263362514, 5263362515, 5263362516, 5263362517, 5263362514], "tags": {"amenity": "food_court", "building": "yes"}}, {"type": "way", "id": 548454553, "nodes": [5298419310, 5298419311, 5298419312, 5298419313, 5298419310], "tags": {"addr:city": "Kocaeli", "addr:district": "\u00c7ay\u0131rova", "addr:housenumber": "15", "addr:neighbourhood": "\u00c7ay\u0131rova", "addr:postcode": "41420", "addr:street": "5201. Sokak", "amenity": "food_court", "building": "yes", "name": "Salimbaba Sofras\u0131"}}, {"type": "way", "id": 587698485, "nodes": [5613570804, 5613570812, 5613570805, 5613570806, 5613570807, 5613570808, 5613570809, 5613570804], "tags": {"addr:city": "\u0130stanbul", "addr:district": "\u00dcsk\u00fcdar", "addr:housenumber": "37", "addr:neighbourhood": "K\u00fc\u00e7\u00fck \u00c7aml\u0131ca", "addr:street": "\u015eehit Serhat Emre Sokak", "amenity": "food_court", "building": "yes"}}, {"type": "way", "id": 587702416, "nodes": [5613603434, 5613603446, 5613603445, 5613603435, 5613603436, 5613603434], "tags": {"addr:city": "\u0130stanbul", "addr:district": "\u00dcsk\u00fcdar", "addr:housenumber": "35", "addr:neighbourhood": "K\u00fc\u00e7\u00fck \u00c7aml\u0131ca", "addr:street": "\u015eehit Serhat Emre Sokak", "amenity": "food_court", "building": "yes"}}, {"type": "way", "id": 659226804, "nodes": [6172027576, 6172027577, 6172027578, 6172029786, 6172027579, 6172027580, 6172027581, 6172027582, 6172027583, 6172027576], "tags": {"amenity": "food_court", "building": "yes"}}, {"type": "way", "id": 659232224, "nodes": [6172085194, 6172085195, 6172085196, 6172085197, 6172085194], "tags": {"amenity": "food_court", "building": "yes", "name": "Bal\u0131k D\u00fcnyas\u0131"}}, {"type": "way", "id": 715366607, "nodes": [6723364295, 6723364296, 6723364297, 6723364298, 6723364299, 6723364300, 6723364301, 6723364302, 6723364303, 6723364304, 6723364295], "tags": {"amenity": "food_court", "building": "yes", "building:levels": "2", "name": "\u00d6\u011frenci Yemekhanesi"}}, {"type": "way", "id": 715366620, "nodes": [6723364396, 6723364397, 6723364398, 6723364399, 6723364400, 6723364401, 6723364396], "tags": {"amenity": "food_court", "building": "yes", "name": "Personel Yemekhanesi"}}, {"type": "way", "id": 812824952, "nodes": [7592252500, 7592252501, 7592252502, 7592252503, 7592252500], "tags": {"amenity": "food_court", "building": "yes", "name": "Uzunlar D\u00fcr\u00fcm Sahil"}}, {"type": "way", "id": 812824953, "nodes": [7592252504, 7592252505, 10567467436, 7592252506, 7592252504], "tags": {"amenity": "food_court", "building": "yes", "name": "K\u00f6fteci Yusuf"}}, {"type": "way", "id": 895146147, "nodes": [8320576838, 8320576839, 8320576840, 8320576841, 8320576842, 8320576843, 8320576844, 8320576845, 8320576838], "tags": {"amenity": "food_court", "building": "yes"}}, {"type": "way", "id": 1137630333, "nodes": [10604400731, 10604400732, 10604400733, 10604400734, 10604400735, 10604400736, 10604400737, 10604400738, 10604400739, 10604400740, 10604400741, 10604400742, 10604400743, 10604400744, 10604400745, 10604400746, 10604400747, 10604400748, 10604400749, 10604400750, 10604400731], "tags": {"amenity": "food_court", "building": "yes"}}]}