{"version": 0.6, "generator": "Overpass API 0.7.60 f4c14d41", "osm3s": {"timestamp_osm_base": "2023-05-02T21:19:24Z", "copyright": "The data included in this document is from www.openstreetmap.org. The data is made available under ODbL."}, "elements": [{"type": "node", "id": 2369580378, "lat": 41.0985296, "lon": 28.9087604, "tags": {"name": "Umut G\u0131da", "shop": "convenience", "toilets:wheelchair": "no", "wheelchair": "yes"}}, {"type": "node", "id": 2585174054, "lat": 41.1557869, "lon": 28.6743975, "tags": {"name": "Mini Market", "shop": "convenience"}}, {"type": "node", "id": 2585174055, "lat": 41.1557267, "lon": 28.6747102, "tags": {"name": "Mini Market", "shop": "convenience"}}, {"type": "node", "id": 2585179090, "lat": 41.1550164, "lon": 28.674556, "tags": {"name": "Mini Market", "shop": "convenience"}}, {"type": "node", "id": 2741792023, "lat": 41.1015745, "lon": 28.8955865, "tags": {"name": "Seker Market", "shop": "convenience"}}, {"type": "node", "id": 3086441121, "lat": 41.1096934, "lon": 28.9025216}, {"type": "node", "id": 3086441122, "lat": 41.1096965, "lon": 28.9023993}, {"type": "node", "id": 3086441123, "lat": 41.1098089, "lon": 28.9025269}, {"type": "node", "id": 3086441124, "lat": 41.1098121, "lon": 28.9024046}, {"type": "node", "id": 3217281861, "lat": 41.0697433, "lon": 28.916304}, {"type": "node", "id": 3217281863, "lat": 41.0696156, "lon": 28.9161959}, {"type": "node", "id": 3256213509, "lat": 41.203714, "lon": 28.6360574, "tags": {"shop": "convenience"}}, {"type": "node", "id": 3623198154, "lat": 41.0791227, "lon": 28.6246577}, {"type": "node", "id": 3623198156, "lat": 41.0790701, "lon": 28.6248223}, {"type": "node", "id": 4265602189, "lat": 41.0967616, "lon": 28.8958394, "tags": {"name": "Polet Market", "shop": "convenience"}}, {"type": "node", "id": 4266427890, "lat": 41.0989513, "lon": 28.8932572, "tags": {"name": "\u00d6zmen Hipermarketleri", "shop": "convenience"}}, {"type": "node", "id": 4418787189, "lat": 41.1858555, "lon": 28.7586382, "tags": {"addr:postcode": "34285", "addr:street": "Atl\u0131han", "internet_access": "wlan", "opening_hours": "24/7", "phone": "5369532053", "shop": "convenience"}}, {"type": "node", "id": 4545352701, "lat": 41.0736209, "lon": 28.8877123, "tags": {"name": "Hanedaro\u011flu", "shop": "convenience"}}, {"type": "node", "id": 4570895278, "lat": 41.0713795, "lon": 28.8896271, "tags": {"name": "Burda", "shop": "convenience"}}, {"type": "node", "id": 4664387041, "lat": 41.0902979, "lon": 28.877149}, {"type": "node", "id": 4664387042, "lat": 41.0903531, "lon": 28.8771297}, {"type": "node", "id": 4664387043, "lat": 41.090422, "lon": 28.8773921}, {"type": "node", "id": 4664387044, "lat": 41.0903668, "lon": 28.8774007}, {"type": "node", "id": 4664387045, "lat": 41.0904523, "lon": 28.8774606}, {"type": "node", "id": 4664387046, "lat": 41.0904707, "lon": 28.8775337}, {"type": "node", "id": 4664387047, "lat": 41.0904257, "lon": 28.87755}, {"type": "node", "id": 4664387048, "lat": 41.0904053, "lon": 28.8774768}, {"type": "node", "id": 4664387049, "lat": 41.0903864, "lon": 28.8768462}, {"type": "node", "id": 4664387050, "lat": 41.0903377, "lon": 28.8768677}, {"type": "node", "id": 4664387051, "lat": 41.0903685, "lon": 28.8769451}, {"type": "node", "id": 4664387052, "lat": 41.0904058, "lon": 28.8769236}, {"type": "node", "id": 4813875321, "lat": 41.0749006, "lon": 28.9247124, "tags": {"name:ar": "\u0641\u064a\u0627\u0644\u0627\u0646\u062f\u0645\u0648\u0644", "shop": "convenience"}}, {"type": "node", "id": 4828918033, "lat": 41.0812916, "lon": 28.9330614, "tags": {"name": "Servet Bakkal", "name:tr": "Servet Bakkal", "shop": "convenience"}}, {"type": "node", "id": 4828934023, "lat": 41.0819061, "lon": 28.9325987, "tags": {"shop": "convenience"}}, {"type": "node", "id": 4844330992, "lat": 41.1721759, "lon": 28.5028602, "tags": {"shop": "convenience"}}, {"type": "node", "id": 4911348710, "lat": 41.0897501, "lon": 28.8828734}, {"type": "node", "id": 4911348711, "lat": 41.089799, "lon": 28.8830011}, {"type": "node", "id": 4911349087, "lat": 41.0898957, "lon": 28.8827753}, {"type": "node", "id": 4911349089, "lat": 41.0899445, "lon": 28.8829032}, {"type": "node", "id": 5043191009, "lat": 41.0611538, "lon": 28.7771561}, {"type": "node", "id": 5043191010, "lat": 41.0613555, "lon": 28.7770556}, {"type": "node", "id": 5043191011, "lat": 41.0613381, "lon": 28.7769216}, {"type": "node", "id": 5043191012, "lat": 41.0611333, "lon": 28.7769685}, {"type": "node", "id": 5285760823, "lat": 41.1078293, "lon": 28.8622021, "tags": {"name": "Onur Group", "opening_hours": "Mo-Su 09:00-22:00", "shop": "convenience"}}, {"type": "node", "id": 5285760924, "lat": 41.1080661, "lon": 28.8630387, "tags": {"name": "Makbul", "shop": "convenience"}}, {"type": "node", "id": 5289936625, "lat": 41.1096042, "lon": 28.8610287, "tags": {"name": "Emin Market", "shop": "convenience"}}, {"type": "node", "id": 5289936632, "lat": 41.1059949, "lon": 28.8627659, "tags": {"name": "Emin Market", "shop": "convenience"}}, {"type": "node", "id": 5291873165, "lat": 41.0979367, "lon": 28.8633052, "tags": {"name": "Onur Market", "shop": "convenience"}}, {"type": "node", "id": 5291873184, "lat": 41.0921469, "lon": 28.8643745, "tags": {"name": "G\u00fcney Yap\u0131 Market", "shop": "convenience"}}, {"type": "node", "id": 5294120069, "lat": 41.1351732, "lon": 28.8307564, "tags": {"name": "Emin Market", "shop": "convenience"}}, {"type": "node", "id": 5294120101, "lat": 41.1353397, "lon": 28.8293989, "tags": {"shop": "convenience"}}, {"type": "node", "id": 5295117675, "lat": 41.108078, "lon": 28.8600235, "tags": {"name": "Anadolu Shop", "shop": "convenience"}}, {"type": "node", "id": 5295118534, "lat": 41.1332753, "lon": 28.8282238, "tags": {"name": "Ayder Market", "shop": "convenience"}}, {"type": "node", "id": 5295857881, "lat": 41.1314614, "lon": 28.8315285, "tags": {"name": "\u015eehri Mini Market", "shop": "convenience"}}, {"type": "node", "id": 5295857890, "lat": 41.1327074, "lon": 28.8322448, "tags": {"name": "Y\u0131lmazlar", "shop": "convenience"}}, {"type": "node", "id": 5295857914, "lat": 41.1333828, "lon": 28.8339477, "tags": {"name": "K\u00f6y\u00fcm Market", "shop": "convenience"}}, {"type": "node", "id": 5295861943, "lat": 41.1074043, "lon": 28.860547, "tags": {"shop": "convenience"}}, {"type": "node", "id": 5297278143, "lat": 41.1051177, "lon": 28.8635113, "tags": {"shop": "convenience"}}, {"type": "node", "id": 5297777461, "lat": 41.1033671, "lon": 28.8640095, "tags": {"name": "onur market", "shop": "convenience"}}, {"type": "node", "id": 5297777484, "lat": 41.1026683, "lon": 28.8643044, "tags": {"name": "Makbul", "shop": "convenience"}}, {"type": "node", "id": 5297777509, "lat": 41.1023933, "lon": 28.8632649, "tags": {"name": "g\u00fcl market", "shop": "convenience"}}, {"type": "node", "id": 5297777820, "lat": 41.1067999, "lon": 28.8582932, "tags": {"name": "\u00d6zt\u00fcrk Market", "shop": "convenience"}}, {"type": "node", "id": 5297777822, "lat": 41.1061507, "lon": 28.8586424, "tags": {"name": "Cennet Market", "shop": "convenience"}}, {"type": "node", "id": 5329441165, "lat": 41.070962, "lon": 28.9610831, "tags": {"addr:city": "istanbul", "addr:district": "ka\u011f\u0131thane", "addr:neighbourhood": "merkez mahallesi", "addr:street": "\u00e7e\u015fme sokak", "name": "kazdal market", "shop": "convenience"}}, {"type": "node", "id": 5659589205, "lat": 41.0776045, "lon": 28.7809462}, {"type": "node", "id": 5659589206, "lat": 41.0776716, "lon": 28.7810935}, {"type": "node", "id": 5659589207, "lat": 41.0775682, "lon": 28.7811762}, {"type": "node", "id": 5659589208, "lat": 41.0775012, "lon": 28.781029}, {"type": "node", "id": 5667668965, "lat": 41.052698, "lon": 28.842453, "tags": {"addr:city": "Istanbul", "addr:district": "Ba\u011fc\u0131lar", "addr:street": "1851. Sokak", "name": "Aslan Market", "name:ar": "\u0645\u0627\u0631\u0643\u062a \u0627\u0644\u0623\u0633\u062f", "shop": "convenience"}}, {"type": "node", "id": 5667669924, "lat": 41.0545294, "lon": 28.8226518, "tags": {"addr:city": "Istanbul", "addr:district": "Ba\u011fc\u0131lar", "addr:street": "Gazi Mustafa Kemal Caddesi", "amenity": "\u064a\u0627\u063a\u0645\u0648\u0631", "name": "Ya\u011fmur Market", "shop": "convenience"}}, {"type": "node", "id": 5667669960, "lat": 41.0550637, "lon": 28.8256993, "tags": {"addr:city": "Istanbul", "addr:district": "Ba\u011fc\u0131lar", "addr:street": "So\u011fuksu Caddesi", "name": "Selam Market", "name:ar": "\u0645\u0627\u0631\u0643\u062a \u0633\u0644\u0627\u0645", "shop": "convenience"}}, {"type": "node", "id": 5667669982, "lat": 41.0551035, "lon": 28.8251726, "tags": {"addr:city": "Istanbul", "addr:district": "Ba\u011fc\u0131lar", "addr:street": "So\u011fuksu Caddesi", "name": "Acar G\u0131da", "name:ar": "\u0627\u062c\u0627\u0631 \u0628\u0642\u0627\u0644", "shop": "convenience"}}, {"type": "node", "id": 5667670046, "lat": 41.0691129, "lon": 28.8292487, "tags": {"addr:city": "Istanbul", "addr:district": "Ba\u011fc\u0131lar", "addr:street": "48.Yol sokak", "name": "TGS", "name:ar": "\u062a\u064a \u062c\u064a \u0627\u0633", "shop": "convenience"}}, {"type": "node", "id": 5667672115, "lat": 41.0677622, "lon": 28.8290573, "tags": {"addr:city": "Istanbul", "addr:district": "Ba\u011fc\u0131lar", "addr:street": "1.Yol sokak", "name": "Malatya pazar\u0131", "name:ar": "\u0645\u0644\u0627\u0637\u064a\u0627 \u0628\u0627\u0632\u0627\u0631\u064a", "shop": "convenience"}}, {"type": "node", "id": 5667672308, "lat": 41.0531865, "lon": 28.8494177, "tags": {"addr:city": "Istanbul", "addr:district": "Zeytinburnu", "name": "G\u00dcM\u00dc\u015eKALE MARKET", "shop": "convenience"}}, {"type": "node", "id": 5667672622, "lat": 41.0537886, "lon": 28.8483383, "tags": {"addr:city": "Istanbul", "addr:district": "Ba\u011fc\u0131lar", "name": "\u00c7elik gida", "name:ar": "\u0628\u0642\u0627\u0644\u0629 \u062c\u0644\u064a\u0643", "shop": "convenience"}}, {"type": "node", "id": 5667672666, "lat": 41.0585134, "lon": 28.854725, "tags": {"addr:city": "Istanbul", "addr:district": "Ba\u011fc\u0131lar", "addr:street": "13. sokak", "name": "Azim Temizlik", "name:ar": "\u0639\u0632\u0645 \u062a\u064a\u0645\u064a\u0632\u0644\u0643", "shop": "convenience"}}, {"type": "node", "id": 5667672681, "lat": 41.0650354, "lon": 28.8534058, "tags": {"addr:city": "Istanbul", "addr:district": "Ba\u011fc\u0131lar", "addr:street": "K\u0131\u015fla caddesi", "name": "Cihan", "name:ar": "\u062c\u064a\u0647\u0627\u0646", "shop": "convenience"}}, {"type": "node", "id": 5667672707, "lat": 41.0526603, "lon": 28.8440424, "tags": {"addr:city": "Istanbul", "addr:district": "Ba\u011fc\u0131lar", "addr:street": "1835. Sokak", "name": "S\u0131la Market", "name:ar": "\u0635\u0644\u0627 \u0645\u0627\u0631\u0643\u062a", "shop": "convenience"}}, {"type": "node", "id": 5667672718, "lat": 41.0526818, "lon": 28.849391, "tags": {"addr:city": "Istanbul", "addr:district": "Zeytinburnu", "name": "PRAT\u0130K \u0130\u015eLEM", "name:ar": "\u0645\u0631\u0643\u0632 \u062f\u0641\u0639", "shop": "convenience"}}, {"type": "node", "id": 5667673325, "lat": 41.0558797, "lon": 28.8545701, "tags": {"addr:city": "Istanbul", "addr:district": "Ba\u011fc\u0131lar", "addr:street": "Matbaacilar caddesi", "name": "Umut", "name:ar": "\u0627\u0648\u0645\u0648\u062a", "shop": "convenience"}}, {"type": "node", "id": 5667673328, "lat": 41.0632751, "lon": 28.8529501, "tags": {"addr:city": "Istanbul", "addr:district": "Ba\u011fc\u0131lar", "addr:street": "K\u0131\u015fla caddesi", "name": "\u0130kram", "name:ar": "\u0627\u0643\u0631\u0627\u0645", "shop": "convenience"}}, {"type": "node", "id": 5667673357, "lat": 41.0647686, "lon": 28.853143, "tags": {"addr:city": "Istanbul", "addr:district": "Ba\u011fc\u0131lar", "addr:street": "K\u0131\u015fla caddesi", "name": "S\u00fctse", "name:ar": "\u0633\u0648\u062a\u0633\u0649", "shop": "convenience"}}, {"type": "node", "id": 5667673364, "lat": 41.053208, "lon": 28.8464695, "tags": {"addr:city": "Istanbul", "addr:district": "Ba\u011fc\u0131lar", "name": "Melisa kuruyemi\u015f", "name:ar": "\u0645\u0644\u064a\u0633\u0627 \u0644\u0644\u0645\u0643\u0633\u0631\u0627\u062a \u0648\u0627\u0644\u0627\u0639\u0634\u0627\u0628", "shop": "convenience"}}, {"type": "node", "id": 5667673365, "lat": 41.0582709, "lon": 28.8522941, "tags": {"addr:city": "Istanbul", "addr:district": "Ba\u011fc\u0131lar", "addr:street": "K\u0131\u015fla caddesi", "name": "Hasano\u011flu Market", "name:ar": "\u062d\u0633\u0646 \u0627\u0648\u063a\u0644\u0648 \u0645\u0627\u0631\u0643\u062a", "shop": "convenience"}}, {"type": "node", "id": 5667673374, "lat": 41.0601896, "lon": 28.8546869, "tags": {"addr:city": "Istanbul", "addr:district": "Ba\u011fc\u0131lar", "addr:street": "Barbaros caddesi", "name": "Y\u00fczy\u0131l", "name:ar": "\u064a\u0648\u0632 \u064a\u0644", "shop": "convenience"}}, {"type": "node", "id": 5667673375, "lat": 41.0525122, "lon": 28.8478547, "tags": {"addr:city": "Istanbul", "addr:district": "Ba\u011fc\u0131lar", "name": "\u0130nal Market", "name:ar": "\u0645\u0627\u0631\u0643\u062a \u0627\u064a\u0646\u0627\u0644", "shop": "convenience"}}, {"type": "node", "id": 5667673382, "lat": 41.0605597, "lon": 28.8528343, "tags": {"addr:city": "Istanbul", "addr:district": "Ba\u011fc\u0131lar", "addr:street": "K\u0131\u015fla caddesi", "name": "Ay Mar market", "name:ar": "\u0627\u064a \u0645\u0627\u0631 \u0645\u0627\u0631\u0643\u062a", "shop": "convenience"}}, {"type": "node", "id": 5667673388, "lat": 41.0535741, "lon": 28.8472289, "tags": {"addr:city": "Istanbul", "addr:district": "Ba\u011fc\u0131lar", "name": "Dalyan mini market", "name:ar": "\u062f\u0627\u0644\u064a\u0627\u0646 \u0645\u0627\u0631\u0643\u062a", "shop": "convenience"}}, {"type": "node", "id": 5667673402, "lat": 41.0619216, "lon": 28.8527015, "tags": {"addr:city": "Istanbul", "addr:district": "Ba\u011fc\u0131lar", "addr:street": "K\u0131\u015fla caddesi", "name": "Akyol", "name:ar": "\u0627\u0643 \u064a\u0648\u0644", "shop": "convenience"}}, {"type": "node", "id": 5667673423, "lat": 41.0645261, "lon": 28.8529887, "tags": {"addr:city": "Istanbul", "addr:district": "Ba\u011fc\u0131lar", "addr:street": "K\u0131\u015fla caddesi", "name": "Erzan G\u0131da", "name:ar": "\u0623\u063a\u0630\u064a\u0629 \u0627\u0631\u0632\u0627\u0646", "shop": "convenience"}}, {"type": "node", "id": 5667673428, "lat": 41.0639785, "lon": 28.8556274, "tags": {"addr:city": "Istanbul", "addr:district": "Ba\u011fc\u0131lar", "addr:street": "Barbaros caddesi", "name": "Ahmeto\u011fullar\u0131", "name:ar": "\u0627\u062d\u0645\u062f \u0627\u0648\u063a\u0648\u0644\u0627\u0631\u0649", "shop": "convenience"}}, {"type": "node", "id": 5667673430, "lat": 41.0575047, "lon": 28.8525771, "tags": {"addr:city": "Istanbul", "addr:district": "Ba\u011fc\u0131lar", "addr:street": "9. sokak", "name": "Gaziantep Y\u00f6resel Market", "name:ar": "\u063a\u0627\u0632\u064a \u0639\u0646\u062a\u0627\u0628 \u064a\u0648\u0631\u064a\u0633\u064a\u0644 \u0645\u0627\u0631\u0643\u062a", "shop": "convenience"}}, {"type": "node", "id": 5667673433, "lat": 41.0562517, "lon": 28.851096, "tags": {"addr:city": "Istanbul", "addr:district": "Ba\u011fc\u0131lar", "addr:street": "Matbaacilar caddesi", "name": "Anatolya", "name:ar": "\u0627\u0646\u0627\u062a\u0648\u0644\u064a\u0627", "shop": "convenience"}}, {"type": "node", "id": 5667673444, "lat": 41.0582458, "lon": 28.8536719, "tags": {"addr:city": "Istanbul", "addr:district": "Ba\u011fc\u0131lar", "addr:street": "13. sokak", "name": "K\u0131l\u0131n\u00e7", "name:ar": "\u0643\u064a\u0644\u064a\u0646\u062c", "shop": "convenience"}}, {"type": "node", "id": 5667673446, "lat": 41.062509, "lon": 28.8525514, "tags": {"addr:city": "Istanbul", "addr:district": "Ba\u011fc\u0131lar", "addr:street": "K\u0131\u015fla caddesi", "name": "\u0130kbal G\u0131da", "name:ar": "\u0623\u063a\u0630\u064a\u0629 \u0627\u0642\u0628\u0627\u0644", "shop": "convenience"}}, {"type": "node", "id": 5667673465, "lat": 41.0581347, "lon": 28.8504678, "tags": {"addr:city": "Istanbul", "addr:district": "Ba\u011fc\u0131lar", "addr:street": "8. sokak", "name": "Rezan", "name:ar": "\u0631\u0632\u0627\u0646", "shop": "convenience"}}, {"type": "node", "id": 5667673472, "lat": 41.0580672, "lon": 28.852114, "tags": {"addr:city": "Istanbul", "addr:district": "Ba\u011fc\u0131lar", "addr:street": "K\u0131\u015fla caddesi", "name": "Mente\u015f Market", "name:ar": "\u0645\u064a\u0646\u0646\u064a\u0634 \u0645\u0627\u0631\u0643\u062a", "shop": "convenience"}}, {"type": "node", "id": 5667673507, "lat": 41.0586963, "lon": 28.8547968, "tags": {"addr:city": "Istanbul", "addr:district": "Ba\u011fc\u0131lar", "addr:street": "Barbaros caddesi", "name": "Ayg\u00fcl", "name:ar": "\u0627\u064a \u0643\u0648\u0644", "shop": "convenience"}}, {"type": "node", "id": 5667673512, "lat": 41.0523234, "lon": 28.8432239, "tags": {"addr:city": "Istanbul", "addr:district": "Ba\u011fc\u0131lar", "addr:street": "CAM\u0130 CADDESI", "name": "YAYLA", "name:ar": "\u064a\u0627\u064a\u0644\u0627", "shop": "convenience"}}, {"type": "node", "id": 5667673519, "lat": 41.0608022, "lon": 28.8528472, "tags": {"addr:city": "Istanbul", "addr:district": "Ba\u011fc\u0131lar", "addr:street": "K\u0131\u015fla caddesi", "name": "Alt\u0131n", "name:ar": "\u0627\u0644\u062a\u0646", "shop": "convenience"}}, {"type": "node", "id": 5667673549, "lat": 41.0541368, "lon": 28.8430361, "tags": {"addr:city": "Istanbul", "addr:district": "Ba\u011fc\u0131lar", "addr:street": "1860. Sokak", "name": "Bereket", "name:ar": "\u0645\u062e\u0632\u0646 \u0628\u0631\u0643\u0627\u062a", "shop": "convenience"}}, {"type": "node", "id": 5667673550, "lat": 41.0621599, "lon": 28.8524613, "tags": {"addr:city": "Istanbul", "addr:district": "Ba\u011fc\u0131lar", "addr:street": "K\u0131\u015fla caddesi", "name": "Hisar", "name:ar": "\u062d\u0635\u0627\u0631", "shop": "convenience"}}, {"type": "node", "id": 5667673561, "lat": 41.0624003, "lon": 28.850786, "tags": {"addr:city": "Istanbul", "addr:district": "Ba\u011fc\u0131lar", "addr:street": "Veysel karani caddesi", "name": "Gamze Market", "name:ar": "\u063a\u0645\u0632\u0647 \u0645\u0627\u0631\u0643\u062a", "shop": "convenience"}}, {"type": "node", "id": 5667673575, "lat": 41.0567967, "lon": 28.8520883, "tags": {"addr:city": "Istanbul", "addr:district": "Ba\u011fc\u0131lar", "addr:street": "K\u0131\u015fla caddesi", "name": "\u00d6zmar", "name:ar": "\u0627\u0648\u0632\u0645\u0627\u0631", "shop": "convenience"}}, {"type": "node", "id": 5667673589, "lat": 41.0634691, "lon": 28.8529629, "tags": {"addr:city": "Istanbul", "addr:district": "Ba\u011fc\u0131lar", "addr:street": "K\u0131\u015fla caddesi", "name": "Birlik Market", "name:ar": "\u0628\u064a\u0631\u0644\u064a\u0643 \u0645\u0627\u0631\u0643\u062a", "shop": "convenience"}}, {"type": "node", "id": 5667673603, "lat": 41.0673106, "lon": 28.8546563, "tags": {"addr:city": "Istanbul", "addr:district": "Ba\u011fc\u0131lar", "addr:street": "Mustafa Kemal Caddesi", "name": "Nur G\u0131da", "name:ar": "\u0646\u0648\u0631 \u063a\u0630\u0627\u0621", "shop": "convenience"}}, {"type": "node", "id": 5667673614, "lat": 41.0707521, "lon": 28.8597561, "tags": {"addr:city": "Istanbul", "addr:district": "Ba\u011fc\u0131lar", "addr:street": "Fetih Caddesi", "name": "Dedeler", "name:ar": "\u062f\u064a\u062f\u0644\u064a\u0631", "shop": "convenience"}}, {"type": "node", "id": 5667673926, "lat": 41.0700228, "lon": 28.8577714, "tags": {"addr:city": "Istanbul", "addr:district": "Ba\u011fc\u0131lar", "addr:street": "87/1. sokak", "name": "Kartop", "name:ar": "\u0643\u0627\u0631\u062a\u0648\u0628", "shop": "convenience"}}, {"type": "node", "id": 5667673929, "lat": 41.0665875, "lon": 28.8527469, "tags": {"addr:city": "Istanbul", "addr:district": "Ba\u011fc\u0131lar", "addr:street": "52. sokak", "name": "Karadeniz Kuruyemis", "name:ar": "\u0643\u0627\u0631\u0627\u062f\u064a\u0646\u064a\u0632 \u0643\u0648\u0631\u0648\u064a\u0645\u064a\u0634", "shop": "convenience"}}, {"type": "node", "id": 5667673937, "lat": 41.0587509, "lon": 28.8535943, "tags": {"addr:city": "Istanbul", "addr:district": "Ba\u011fc\u0131lar", "addr:street": "11/2. sokak", "name": "Yusuf Market", "name:ar": "\u0645\u0627\u0631\u0643\u062a \u064a\u0648\u0633\u0641", "shop": "convenience"}}, {"type": "node", "id": 5667673941, "lat": 41.0708335, "lon": 28.8556506, "tags": {"addr:city": "Istanbul", "addr:district": "Ba\u011fc\u0131lar", "addr:street": "Mustafa Kemal Caddesi", "name": "Oral G\u0131da", "name:ar": "\u0627\u0648\u0631\u0627\u0644 \u063a\u0630\u0627\u0621", "shop": "convenience"}}, {"type": "node", "id": 5667673971, "lat": 41.0562779, "lon": 28.8535629, "tags": {"addr:city": "Istanbul", "addr:district": "Ba\u011fc\u0131lar", "addr:street": "1. sokak", "name": "Mert G\u0131da", "name:ar": "\u0623\u063a\u0630\u064a\u0629 \u0645\u0631\u062a", "shop": "convenience"}}, {"type": "node", "id": 5667673972, "lat": 41.061628, "lon": 28.8537606, "tags": {"addr:city": "Istanbul", "addr:district": "Ba\u011fc\u0131lar", "addr:street": "Pazar Sokak", "name": "K\u0131yak Market", "name:ar": "\u0643\u064a\u0627\u0643 \u0645\u0627\u0631\u0643\u062a", "shop": "convenience"}}, {"type": "node", "id": 5667673973, "lat": 41.0682528, "lon": 28.8548877, "tags": {"addr:city": "Istanbul", "addr:district": "Ba\u011fc\u0131lar", "addr:street": "Mustafa Kemal Caddesi", "name": "Ucuz Sat\u0131\u015f", "name:ar": "\u0627\u0648\u062c\u0648\u0632 \u0633\u0627\u062a\u064a\u0634", "shop": "convenience"}}, {"type": "node", "id": 5667673974, "lat": 41.0666441, "lon": 28.8531859, "tags": {"addr:city": "Istanbul", "addr:district": "Ba\u011fc\u0131lar", "addr:street": "Fetih Caddesi", "name": "Se\u00e7kin Market", "name:ar": "\u0633\u064a\u062c\u0643\u064a\u0646 \u0645\u0627\u0631\u0643\u062a", "shop": "convenience"}}, {"type": "node", "id": 5667673981, "lat": 41.0712484, "lon": 28.8559127, "tags": {"addr:city": "Istanbul", "addr:district": "Ba\u011fc\u0131lar", "addr:street": "Mustafa Kemal Caddesi", "name": "Mahmoud Mini Market", "name:ar": "\u0645\u064a\u0646\u064a \u0645\u0627\u0631\u0643\u062a \u0645\u062d\u0645\u0648\u062f", "shop": "convenience"}}, {"type": "node", "id": 5667673984, "lat": 41.0668651, "lon": 28.8539731, "tags": {"addr:city": "Istanbul", "addr:district": "Ba\u011fc\u0131lar", "addr:street": "Fetih Caddesi", "name": "Karanfil Market", "name:ar": "\u0642\u0631\u0627\u0646\u0641\u064a\u0644 \u0645\u0627\u0631\u0643\u062a", "shop": "convenience"}}, {"type": "node", "id": 5667673987, "lat": 41.0618318, "lon": 28.8542805, "tags": {"addr:city": "Istanbul", "addr:district": "Ba\u011fc\u0131lar", "addr:street": "39. sokak", "name": "Elmoued", "name:ar": "\u0645\u064a\u0646\u064a \u0645\u0627\u0631\u0643\u062a \u0627\u0644\u0645\u0648\u0639\u062f", "shop": "convenience"}}, {"type": "node", "id": 5667674007, "lat": 41.053604, "lon": 28.849493, "tags": {"addr:city": "Istanbul", "addr:district": "Zeytinburnu", "name": "Son durak", "name:ar": "\u0633\u0648\u0646 \u062f\u0648\u0631\u0627\u0643", "shop": "convenience"}}, {"type": "node", "id": 5667674015, "lat": 41.0534852, "lon": 28.843233, "tags": {"addr:city": "Istanbul", "addr:district": "Ba\u011fc\u0131lar", "addr:street": "CAM\u0130 CADDESI", "name": "Erdo\u011fanlar", "name:ar": "\u0623\u0631\u062f\u063a\u0648\u0646\u0627\u062a", "shop": "convenience"}}, {"type": "node", "id": 5667674018, "lat": 41.0661944, "lon": 28.8523874, "tags": {"addr:city": "Istanbul", "addr:district": "Ba\u011fc\u0131lar", "addr:street": "Fetih Caddesi", "name": "Seda Market", "name:ar": "\u0635\u062f\u0649 \u0645\u0627\u0631\u0643\u062a", "shop": "convenience"}}, {"type": "node", "id": 5667674019, "lat": 41.0601856, "lon": 28.853719, "tags": {"addr:city": "Istanbul", "addr:district": "Ba\u011fc\u0131lar", "addr:street": "27. sokak", "name": "Burak", "name:ar": "\u0628\u0631\u0627\u0642", "shop": "convenience"}}, {"type": "node", "id": 5667674423, "lat": 41.0670674, "lon": 28.8544839, "tags": {"addr:city": "Istanbul", "addr:district": "Ba\u011fc\u0131lar", "addr:street": "Fetih Caddesi", "name": "Tuncay", "name:ar": "\u062a\u0648\u0646\u062c\u0627\u064a", "shop": "convenience"}}, {"type": "node", "id": 5667674424, "lat": 41.0532047, "lon": 28.8427079, "tags": {"addr:city": "Istanbul", "addr:district": "Ba\u011fc\u0131lar", "addr:street": "1855. Sokak", "name": "\u00dcst\u00fcnda\u011f G\u0131da", "name:ar": "\u0627\u0648\u0633\u062a\u0648\u0646\u062f\u0627\u063a \u063a\u0630\u0627\u0621", "shop": "convenience"}}, {"type": "node", "id": 5667674441, "lat": 41.0697816, "lon": 28.8566285, "tags": {"addr:city": "Istanbul", "addr:district": "Ba\u011fc\u0131lar", "addr:street": "87. sokak", "name": "Nisa Market", "name:ar": "\u0646\u064a\u0633\u0627 \u0645\u0627\u0631\u0643\u062a", "shop": "convenience"}}, {"type": "node", "id": 5667674446, "lat": 41.0697231, "lon": 28.8589319, "tags": {"addr:city": "Istanbul", "addr:district": "Ba\u011fc\u0131lar", "addr:street": "Fetih Caddesi", "name": "Din\u00e7 Market", "name:ar": "\u062f\u064a\u0646\u062c \u0645\u0627\u0631\u0643\u062a", "shop": "convenience"}}, {"type": "node", "id": 5667674459, "lat": 41.0699063, "lon": 28.8555422, "tags": {"addr:city": "Istanbul", "addr:district": "Ba\u011fc\u0131lar", "addr:street": "Mustafa Kemal Caddesi", "name": "Bizim Kuruyemi\u015f", "name:ar": "\u0628\u064a\u0632\u064a\u0645 \u0643\u0648\u0631\u0648\u064a\u0645\u064a\u0634", "shop": "convenience"}}, {"type": "node", "id": 5667674466, "lat": 41.0675169, "lon": 28.8558775, "tags": {"addr:city": "Istanbul", "addr:district": "Ba\u011fc\u0131lar", "addr:street": "Fetih Caddesi", "name": "Engin Market", "name:ar": "\u0627\u0646\u062c\u064a\u0646 \u0645\u0627\u0631\u0643\u062a", "shop": "convenience"}}, {"type": "node", "id": 5667674499, "lat": 41.0532189, "lon": 28.8317318, "tags": {"addr:city": "Istanbul", "addr:district": "Ba\u011fc\u0131lar", "addr:street": "Maslak caddesi", "name": "Ekomini", "name:ar": "\u0627\u064a\u0643\u0648\u0645\u064a\u0646\u064a", "shop": "convenience"}}, {"type": "node", "id": 5667674963, "lat": 41.0528912, "lon": 28.8434517, "tags": {"addr:city": "Istanbul", "addr:district": "Ba\u011fc\u0131lar", "addr:street": "1834. SOKAK", "name": "Yasin Market", "name:ar": "\u064a\u0627\u0633\u064a\u0646 \u0645\u0627\u0631\u0643\u062a", "shop": "convenience"}}, {"type": "node", "id": 5834063885, "lat": 41.0580943, "lon": 28.8990828, "tags": {"name": "Ar\u0131 Market", "shop": "convenience"}}, {"type": "node", "id": 5834063886, "lat": 41.057605, "lon": 28.9033551, "tags": {"name": "IKRAM KURUYEMIS - \u00f6NAY NIBAT", "shop": "convenience"}}, {"type": "node", "id": 5859299105, "lat": 41.069841, "lon": 28.8823038, "tags": {"name": "Atalay Market", "shop": "convenience"}}, {"type": "node", "id": 5971371403, "lat": 41.0559921, "lon": 28.9049418, "tags": {"name": "Mini Market", "shop": "convenience"}}, {"type": "node", "id": 6165275987, "lat": 41.0545621, "lon": 28.9045809, "tags": {"name": "Do\u011fan Tekel", "shop": "convenience"}}, {"type": "node", "id": 6165290886, "lat": 41.0525238, "lon": 28.9044089, "tags": {"name": "Emre G\u0131da", "shop": "convenience"}}, {"type": "node", "id": 6165290887, "lat": 41.0578759, "lon": 28.9031993, "tags": {"name": "Onur Market", "shop": "convenience"}}, {"type": "node", "id": 6372765842, "lat": 41.086663, "lon": 28.873056, "tags": {"name": "\u00d6zmar", "shop": "convenience"}}, {"type": "node", "id": 6374154909, "lat": 41.0853613, "lon": 28.8721371, "tags": {"shop": "convenience"}}, {"type": "node", "id": 6398311118, "lat": 41.0715223, "lon": 28.7127322, "tags": {"shop": "convenience"}}, {"type": "node", "id": 6437087318, "lat": 41.0742358, "lon": 28.6664321, "tags": {"shop": "convenience"}}, {"type": "node", "id": 6437117450, "lat": 41.0696658, "lon": 28.7110508, "tags": {"shop": "convenience", "wheelchair": "yes"}}, {"type": "node", "id": 6539536687, "lat": 41.2479243, "lon": 28.7523659}, {"type": "node", "id": 6539536688, "lat": 41.2477094, "lon": 28.752367}, {"type": "node", "id": 6539536689, "lat": 41.2477091, "lon": 28.7522731}, {"type": "node", "id": 6539536690, "lat": 41.247924, "lon": 28.7522719}, {"type": "node", "id": 6939018739, "lat": 41.107156, "lon": 28.7690541}, {"type": "node", "id": 6939018740, "lat": 41.1071522, "lon": 28.7689773}, {"type": "node", "id": 6939018741, "lat": 41.1072592, "lon": 28.7689681}, {"type": "node", "id": 6939018742, "lat": 41.1072557, "lon": 28.7688981}, {"type": "node", "id": 6939018743, "lat": 41.1073289, "lon": 28.7688917}, {"type": "node", "id": 6939018744, "lat": 41.1073361, "lon": 28.7690385}, {"type": "node", "id": 6939087190, "lat": 41.1090702, "lon": 28.7687802}, {"type": "node", "id": 6939087191, "lat": 41.1091271, "lon": 28.7687203}, {"type": "node", "id": 6939087192, "lat": 41.1091847, "lon": 28.7688169}, {"type": "node", "id": 6939087193, "lat": 41.1092223, "lon": 28.7687774}, {"type": "node", "id": 6939087194, "lat": 41.1092595, "lon": 28.7688398}, {"type": "node", "id": 6939087195, "lat": 41.109165, "lon": 28.7689391}, {"type": "node", "id": 6986330885, "lat": 41.1589282, "lon": 28.9135299, "tags": {"name": "Kemer B\u00fcfe", "shop": "convenience"}}, {"type": "node", "id": 6987283834, "lat": 41.062108, "lon": 28.678629, "tags": {"addr:city": "\u0130stanbul", "addr:district": "Esenyurt", "addr:neighbourhood": "A\u015f\u0131k Veysel Mahallesi", "addr:postcode": "34580", "addr:street": "S\u00fcleyman Demirel Caddesi", "name": "Happy Market", "shop": "convenience"}}, {"type": "node", "id": 6994253487, "lat": 41.0575255, "lon": 28.9416487, "tags": {"name": "\u015eirin B\u00fcfe", "shop": "convenience"}}, {"type": "node", "id": 7021158631, "lat": 41.0588981, "lon": 28.9149589, "tags": {"name": "Nesil B\u00fcfe", "shop": "convenience"}}, {"type": "node", "id": 7074170386, "lat": 41.1596104, "lon": 28.9131605, "tags": {"name": "Mihra\u00e7 G\u0131da & \u015eark\u00fcteri", "shop": "convenience"}}, {"type": "node", "id": 7221490572, "lat": 41.0550046, "lon": 28.8075558, "tags": {"name": "Demir G\u0131da", "shop": "convenience"}}, {"type": "node", "id": 7221496006, "lat": 41.0548013, "lon": 28.7988567, "tags": {"name": "Do\u011fan Market", "shop": "convenience"}}, {"type": "node", "id": 7580394264, "lat": 41.0633498, "lon": 28.6882687, "tags": {"name": "G\u00f6kku\u015fa\u011f\u0131 Market", "operator": "g\u00f6kku\u015fa\u011f\u0131", "shop": "convenience"}}, {"type": "node", "id": 7580394283, "lat": 41.0638062, "lon": 28.6833425, "tags": {"name": "Happy Market", "shop": "convenience"}}, {"type": "node", "id": 7580601343, "lat": 41.0678544, "lon": 28.6906173, "tags": {"name": "File Market", "operator": "File", "shop": "convenience"}}, {"type": "node", "id": 8112116246, "lat": 41.0892898, "lon": 28.9016893}, {"type": "node", "id": 8112116247, "lat": 41.0891166, "lon": 28.9016973}, {"type": "node", "id": 8112116248, "lat": 41.089116, "lon": 28.9019325}, {"type": "node", "id": 8112116249, "lat": 41.0892897, "lon": 28.9020217}, {"type": "node", "id": 8268411092, "lat": 41.0947798, "lon": 28.7713825, "tags": {"name": "File Market", "opening_hours": "Mo-Su 10:00-21:00", "opening_hours:covid19": "open", "operator": "File Marketleri", "shop": "convenience"}}, {"type": "node", "id": 8268411094, "lat": 41.0948218, "lon": 28.7712765, "tags": {"name": "Saray Gurme", "opening_hours": "Mo-Su 10:00-22:00", "opening_hours:covid19": "same", "operator": "Saray Gurme", "shop": "convenience"}}, {"type": "node", "id": 8306930595, "lat": 41.0970175, "lon": 28.8057636, "tags": {"name": "\u00dcnl\u00fc Market", "shop": "convenience"}}, {"type": "node", "id": 8316248097, "lat": 41.0940677, "lon": 28.7724456, "tags": {"name": "hayatpark market", "shop": "convenience"}}, {"type": "node", "id": 8316284017, "lat": 41.0949094, "lon": 28.7744293, "tags": {"name": "kule tekel", "shop": "convenience"}}, {"type": "node", "id": 8319639878, "lat": 41.1005074, "lon": 28.8100579, "tags": {"name": "\u00fcnl\u00fc market", "shop": "convenience"}}, {"type": "node", "id": 8374970555, "lat": 41.2451206, "lon": 28.7013801}, {"type": "node", "id": 8374970562, "lat": 41.244867, "lon": 28.7013453}, {"type": "node", "id": 8374970564, "lat": 41.2451379, "lon": 28.7011564}, {"type": "node", "id": 8374970565, "lat": 41.2448843, "lon": 28.7011216}, {"type": "node", "id": 8554084582, "lat": 41.0522107, "lon": 28.918626, "tags": {"addr:city": "\u0130stanbul", "addr:district": "Ey\u00fcpsultan", "addr:housenumber": "19/A", "addr:neighbourhood": "Rami Yenimahalle", "addr:postcode": "34055", "addr:street": "Mazharbey Caddesi", "name": "Hasan Bakkal", "shop": "convenience"}}, {"type": "node", "id": 8572204602, "lat": 41.0579144, "lon": 28.923644, "tags": {"name": "Me\u015fhur Gedelek K\u00f6y\u00fcm Tur\u015fucusu", "shop": "convenience"}}, {"type": "node", "id": 8572204603, "lat": 41.0579322, "lon": 28.9237231, "tags": {"name": "Ayd\u0131n Parke", "shop": "convenience"}}, {"type": "node", "id": 8732076156, "lat": 41.0547254, "lon": 28.9146726, "tags": {"addr:city": "\u0130stanbul", "addr:district": "Gaziosmanpa\u015fa", "addr:housenumber": "2/A", "addr:neighbourhood": "Merkez", "addr:postcode": "34245", "addr:street": "Nald\u00f6ven Soka\u011f\u0131", "name": "Ekinciler G\u0131da", "shop": "convenience"}}, {"type": "node", "id": 8776537535, "lat": 41.0812671, "lon": 28.8807049, "tags": {"name": "Bizim Market", "shop": "convenience"}}, {"type": "node", "id": 8819002144, "lat": 41.0538259, "lon": 28.8666687, "tags": {"brand": "Shell Select", "brand:wikidata": "Q110716465", "brand:wikipedia": "en:Shell plc", "name": "Shell Select", "shop": "convenience"}}, {"type": "node", "id": 8830242054, "lat": 41.0523269, "lon": 28.9201256, "tags": {"addr:city": "\u0130stanbul", "addr:district": "Ey\u00fcpsultan", "addr:housenumber": "27/A", "addr:neighbourhood": "Rami Yenimahalle", "addr:postcode": "34055", "addr:street": "Numan Efendi Soka\u011f\u0131", "name": "Mert Mini Market", "shop": "convenience"}}, {"type": "node", "id": 8901918609, "lat": 41.0522867, "lon": 28.91765, "tags": {"addr:city": "\u0130stanbul", "addr:district": "Ey\u00fcpsultan", "addr:housenumber": "39/B", "addr:neighbourhood": "Rami Yenimahalle", "addr:postcode": "34055", "addr:street": "Bo\u015fnak H\u0131d\u0131rbey Soka\u011f\u0131", "name": "Laz Bakkal", "shop": "convenience"}}, {"type": "node", "id": 8901918613, "lat": 41.0522714, "lon": 28.9187233, "tags": {"addr:city": "\u0130stanbul", "addr:district": "Ey\u00fcpsultan", "addr:housenumber": "21/B", "addr:neighbourhood": "Rami Yenimahalle", "addr:postcode": "34055", "addr:street": "Mazharbey Caddesi", "name": "Dilek G\u0131da Pazar\u0131", "shop": "convenience"}}, {"type": "node", "id": 8921999415, "lat": 41.0947244, "lon": 28.8631014}, {"type": "node", "id": 8921999416, "lat": 41.0947218, "lon": 28.8630506}, {"type": "node", "id": 8921999417, "lat": 41.0945656, "lon": 28.8630646}, {"type": "node", "id": 8921999418, "lat": 41.0945765, "lon": 28.8632793}, {"type": "node", "id": 8921999419, "lat": 41.0946342, "lon": 28.8632742}, {"type": "node", "id": 8921999420, "lat": 41.0946258, "lon": 28.8631102}, {"type": "node", "id": 8929469183, "lat": 41.0927347, "lon": 28.8638797, "tags": {"name": "U\u011fur Kuruyemi\u015f", "opening_hours": "Mo-Su 07:00-22:00+", "shop": "convenience"}}, {"type": "node", "id": 8976766932, "lat": 41.0840115, "lon": 28.8734239, "tags": {"name": "Kervan Market", "payment:cash": "yes", "payment:credit_cards": "yes", "shop": "convenience"}}, {"type": "node", "id": 8976766933, "lat": 41.0848868, "lon": 28.8731867, "tags": {"description": "added a market that sells phyllo dough", "name": "Karde\u015fler Yufkac\u0131s\u0131", "shop": "convenience"}}, {"type": "node", "id": 8988352122, "lat": 41.0700179, "lon": 28.9064264}, {"type": "node", "id": 8988352123, "lat": 41.070041, "lon": 28.9064817}, {"type": "node", "id": 8988352124, "lat": 41.0699212, "lon": 28.9065697}, {"type": "node", "id": 8988352125, "lat": 41.0698981, "lon": 28.9065144}, {"type": "node", "id": 9051730665, "lat": 41.0744368, "lon": 28.9048316}, {"type": "node", "id": 9051730666, "lat": 41.0745505, "lon": 28.904878}, {"type": "node", "id": 9051730668, "lat": 41.0745143, "lon": 28.9048387}, {"type": "node", "id": 9051730669, "lat": 41.0744688, "lon": 28.9048663}, {"type": "node", "id": 9054272116, "lat": 41.0739265, "lon": 28.9046707, "tags": {"name": "G\u00f6kku\u015fa\u011f\u0131", "shop": "convenience"}}, {"type": "node", "id": 9054299031, "lat": 41.0711459, "lon": 28.9072752, "tags": {"name": "Terzioglu Market", "shop": "convenience"}}, {"type": "node", "id": 9054452632, "lat": 41.0916612, "lon": 28.8656535, "tags": {"name": "Ak Market", "shop": "convenience"}}, {"type": "node", "id": 9054453167, "lat": 41.0923214, "lon": 28.8655836, "tags": {"name": "Murat Kuruyemi\u015f", "opening_hours": "\"Pazar ak\u015fama kadar kapal\u0131, di\u011fer g\u00fcnler sabahtan geceye kadar a\u00e7\u0131k.\"", "shop": "convenience"}}, {"type": "node", "id": 9066652226, "lat": 41.0650922, "lon": 28.9106865, "tags": {"name": "Yaman Et & Tavuk", "shop": "convenience"}}, {"type": "node", "id": 9079239872, "lat": 41.0617761, "lon": 28.9152568, "tags": {"name": "Yazmar Market", "shop": "convenience"}}, {"type": "node", "id": 9215671829, "lat": 41.0579485, "lon": 28.8995255, "tags": {"addr:city": "\u0130stanbul", "addr:district": "Bayrampa\u015fa", "addr:housenumber": "65/1", "addr:neighbourhood": "Kartaltepe", "addr:postcode": "34040", "addr:street": "\u00dcrg\u00fcpl\u00fc Caddesi", "name": "Happy Center Kartaltepe", "phone": "+90 212 417 7495", "shop": "convenience"}}, {"type": "node", "id": 9217106879, "lat": 41.2433242, "lon": 28.7043393}, {"type": "node", "id": 9217106880, "lat": 41.2435812, "lon": 28.7043633}, {"type": "node", "id": 9217106881, "lat": 41.2435697, "lon": 28.7045804}, {"type": "node", "id": 9217106882, "lat": 41.2433127, "lon": 28.7045564}, {"type": "node", "id": 9256492201, "lat": 41.1813453, "lon": 28.744214, "tags": {"name": "Do\u011fu\u015f Tekel \u015eark\u00fcteri", "shop": "convenience"}}, {"type": "node", "id": 9301408537, "lat": 41.0791313, "lon": 28.6246308}, {"type": "node", "id": 9301408538, "lat": 41.0790521, "lon": 28.6245862}, {"type": "node", "id": 9301408539, "lat": 41.0789851, "lon": 28.6247959}, {"type": "node", "id": 9301408540, "lat": 41.0790643, "lon": 28.6248404}, {"type": "node", "id": 9350719542, "lat": 41.1256438, "lon": 28.7527988, "tags": {"addr:city": "\u0130stanbul", "addr:district": "Ba\u015fak\u015fehir", "addr:neighbourhood": "\u015eamlar Mahallesi", "addr:postcode": "34494", "addr:street": "23 Nisan Caddesi", "name": "Soylu Market", "opening_hours": "Mo-Su 08:00-23:00", "operator": "Soylu Market G\u0131da", "payment:cash": "yes", "payment:credit_cards": "yes", "payment:debit_cards": "yes", "shop": "convenience"}}, {"type": "node", "id": 9395282086, "lat": 41.0520665, "lon": 28.911496, "tags": {"shop": "convenience"}}, {"type": "node", "id": 9396220484, "lat": 41.0530374, "lon": 28.9216261, "tags": {"addr:city": "\u0130stanbul", "addr:district": "Ey\u00fcpsultan", "addr:housenumber": "1-3/A", "addr:neighbourhood": "Rami Yenimahalle", "addr:postcode": "34055", "addr:street": "Z\u00fclfikar Soka\u011f\u0131", "name": "\u0130slambey Market", "shop": "convenience"}}, {"type": "node", "id": 9489193753, "lat": 41.0889572, "lon": 28.5006025, "tags": {"name": "Roman Market", "shop": "convenience"}}, {"type": "node", "id": 9500858803, "lat": 41.0769613, "lon": 28.9418074, "tags": {"name": "\u00dcnl\u00fc \u015eahinler Kuruyemi\u015f", "shop": "convenience"}}, {"type": "node", "id": 9503663922, "lat": 41.0518406, "lon": 28.913777, "tags": {"addr:city": "\u0130stanbul", "addr:district": "Ey\u00fcpsultan", "addr:housenumber": "15/A", "addr:neighbourhood": "Rami Yenimahalle", "addr:postcode": "34055", "addr:street": "Ye\u015fil Soka\u011f\u0131", "name": "Bimo Market", "shop": "convenience"}}, {"type": "node", "id": 9585845890, "lat": 41.0849612, "lon": 28.9222601, "tags": {"name": "\u0130kra g\u0131da", "shop": "convenience"}}, {"type": "node", "id": 9585845891, "lat": 41.087555, "lon": 28.9229869, "tags": {"name": "K\u0131l\u0131\u00e7lar Market", "shop": "convenience"}}, {"type": "node", "id": 9603451122, "lat": 41.0790367, "lon": 28.9223863, "tags": {"name": "Onur market", "shop": "convenience"}}, {"type": "node", "id": 9783862565, "lat": 41.0543702, "lon": 28.9043361, "tags": {"addr:city": "\u0130stanbul", "addr:district": "Bayrampa\u015fa", "addr:neighbourhood": "Kartaltepe", "addr:street": "Mustafa Kemal Atat\u00fcrk Caddesi", "name": "AYPA", "shop": "convenience"}}, {"type": "node", "id": 9813330613, "lat": 41.0700374, "lon": 28.9064844}, {"type": "node", "id": 9816846348, "lat": 41.2576346, "lon": 28.7022397}, {"type": "node", "id": 9816846349, "lat": 41.2577868, "lon": 28.7024391}, {"type": "node", "id": 9816846350, "lat": 41.2576919, "lon": 28.7025673}, {"type": "node", "id": 9816846351, "lat": 41.2575397, "lon": 28.7023679}, {"type": "node", "id": 9816846352, "lat": 41.257658, "lon": 28.7025228}, {"type": "node", "id": 9816846355, "lat": 41.2575831, "lon": 28.7024247}, {"type": "node", "id": 9825035533, "lat": 41.2516641, "lon": 28.7382204}, {"type": "node", "id": 9825035534, "lat": 41.2514915, "lon": 28.7382247}, {"type": "node", "id": 9825035535, "lat": 41.2514968, "lon": 28.7386062}, {"type": "node", "id": 9825035536, "lat": 41.2516694, "lon": 28.7386019}, {"type": "node", "id": 9825035538, "lat": 41.2516644, "lon": 28.7382406}, {"type": "node", "id": 9825035539, "lat": 41.2516692, "lon": 28.7385887}, {"type": "node", "id": 9847972688, "lat": 41.1957433, "lon": 28.8222877}, {"type": "node", "id": 9847972689, "lat": 41.195752, "lon": 28.8226169}, {"type": "node", "id": 9847972690, "lat": 41.1956082, "lon": 28.8226237}, {"type": "node", "id": 9847972691, "lat": 41.1955995, "lon": 28.8222944}, {"type": "node", "id": 9847972692, "lat": 41.1957446, "lon": 28.822338}, {"type": "node", "id": 9847972699, "lat": 41.1957503, "lon": 28.8225541}, {"type": "node", "id": 9855865942, "lat": 41.0565644, "lon": 28.9389661}, {"type": "node", "id": 9855865945, "lat": 41.0566725, "lon": 28.9389211}, {"type": "node", "id": 9855865946, "lat": 41.0566679, "lon": 28.9389022}, {"type": "node", "id": 9855865947, "lat": 41.056628, "lon": 28.9388758}, {"type": "node", "id": 9855865948, "lat": 41.0565526, "lon": 28.9389124}, {"type": "node", "id": 9859932108, "lat": 41.0661499, "lon": 28.9446319, "tags": {"brand": "Shell Select", "brand:wikidata": "Q110716465", "name": "Shell Select", "shop": "convenience"}}, {"type": "node", "id": 9867797929, "lat": 41.0697746, "lon": 28.9161755}, {"type": "node", "id": 9867797930, "lat": 41.0696676, "lon": 28.9160833}, {"type": "node", "id": 9889724607, "lat": 41.0892102, "lon": 28.9020241}, {"type": "node", "id": 9889724608, "lat": 41.0891056, "lon": 28.9018105}, {"type": "node", "id": 9889724609, "lat": 41.0890706, "lon": 28.9018848}, {"type": "node", "id": 10031594234, "lat": 41.0547847, "lon": 28.8392991, "tags": {"name": "Makbul", "shop": "convenience"}}, {"type": "node", "id": 10067696429, "lat": 41.1923764, "lon": 28.570893}, {"type": "node", "id": 10067696430, "lat": 41.1925209, "lon": 28.5709624}, {"type": "node", "id": 10067696431, "lat": 41.192425, "lon": 28.5713148}, {"type": "node", "id": 10067696432, "lat": 41.1922806, "lon": 28.5712454}, {"type": "node", "id": 10067696433, "lat": 41.192372, "lon": 28.5709092}, {"type": "node", "id": 10067696434, "lat": 41.1923173, "lon": 28.5711104}, {"type": "node", "id": 10067696454, "lat": 41.1953969, "lon": 28.5696797}, {"type": "node", "id": 10067696455, "lat": 41.1952526, "lon": 28.5696091}, {"type": "node", "id": 10067696456, "lat": 41.195162, "lon": 28.5699359}, {"type": "node", "id": 10067696457, "lat": 41.1953063, "lon": 28.5700065}, {"type": "node", "id": 10067696458, "lat": 41.1953608, "lon": 28.56981}, {"type": "node", "id": 10104661325, "lat": 41.0818135, "lon": 28.9162299, "tags": {"name": "True Love Story", "shop": "convenience"}}, {"type": "node", "id": 10104661326, "lat": 41.0818478, "lon": 28.9162393, "tags": {"name": "Umut B\u00fcfe", "shop": "convenience"}}, {"type": "node", "id": 10104661382, "lat": 41.0825082, "lon": 28.914757, "tags": {"name": "Cadde B\u00fcfe", "shop": "convenience"}}, {"type": "node", "id": 10104661407, "lat": 41.0829156, "lon": 28.9132127, "tags": {"name": "Feslihan \u015eark\u00fcteri & Tekel Bayii", "shop": "convenience"}}, {"type": "node", "id": 10104719861, "lat": 41.0769011, "lon": 28.933165, "tags": {"name": "Polat Market", "shop": "convenience"}}, {"type": "node", "id": 10110150973, "lat": 41.0673741, "lon": 28.9388895, "tags": {"name": "\u0130stanbul Halk Ekmek", "shop": "convenience"}}, {"type": "node", "id": 10110158023, "lat": 41.0702734, "lon": 28.9410393, "tags": {"name": "Namdar \u015eark\u00fcteri", "shop": "convenience"}}, {"type": "node", "id": 10110158026, "lat": 41.0705505, "lon": 28.940877, "tags": {"name": "Da\u011ftekinler G\u0131da", "shop": "convenience"}}, {"type": "node", "id": 10110158074, "lat": 41.0726595, "lon": 28.9387487, "tags": {"name": "\u0130stanbul Halk Ekmek", "shop": "convenience"}}, {"type": "node", "id": 10110158159, "lat": 41.0754812, "lon": 28.9395265, "tags": {"name": "Do\u011fal G\u0131da Ambar\u0131", "shop": "convenience"}}, {"type": "node", "id": 10110158167, "lat": 41.0763178, "lon": 28.9393213, "tags": {"name": "Alibeyk\u00f6y Ambalaj", "shop": "convenience"}}, {"type": "node", "id": 10110158198, "lat": 41.0766883, "lon": 28.9368705, "tags": {"name": "Bekdemir Market", "shop": "convenience"}}, {"type": "node", "id": 10110158230, "lat": 41.0772534, "lon": 28.9353671, "tags": {"name": "\u015eark\u00fcteri & Tekel", "shop": "convenience"}}, {"type": "node", "id": 10110158286, "lat": 41.076195, "lon": 28.9232408, "tags": {"name": "Deniz B\u00fcfe", "shop": "convenience"}}, {"type": "node", "id": 10110158380, "lat": 41.0763395, "lon": 28.9258808, "tags": {"name": "Tan\u0131r Market", "shop": "convenience"}}, {"type": "node", "id": 10110158431, "lat": 41.0760762, "lon": 28.9289754, "tags": {"name": "Ozan Baba Kuruyemi\u015f & \u015eark\u00fcteri", "shop": "convenience"}}, {"type": "node", "id": 10110158442, "lat": 41.0760984, "lon": 28.9297646, "tags": {"name": "Cans\u0131n Market & \u015eark\u00fcteri", "shop": "convenience"}}, {"type": "node", "id": 10125159260, "lat": 41.091442, "lon": 28.8844192}, {"type": "node", "id": 10125159261, "lat": 41.0913029, "lon": 28.8845314}, {"type": "node", "id": 10125159262, "lat": 41.0913423, "lon": 28.8846175}, {"type": "node", "id": 10125159263, "lat": 41.0914814, "lon": 28.8845052}, {"type": "node", "id": 10125159264, "lat": 41.0914356, "lon": 28.8844209}, {"type": "node", "id": 10125159267, "lat": 41.0913251, "lon": 28.884514}, {"type": "node", "id": 10142484167, "lat": 41.0518414, "lon": 28.9104966}, {"type": "node", "id": 10142484168, "lat": 41.0518116, "lon": 28.9103694}, {"type": "node", "id": 10142484169, "lat": 41.0516476, "lon": 28.910437}, {"type": "node", "id": 10142484170, "lat": 41.0516778, "lon": 28.9105657}, {"type": "node", "id": 10142484171, "lat": 41.0518087, "lon": 28.9105112}, {"type": "node", "id": 10159076313, "lat": 41.0812577, "lon": 28.9441466, "tags": {"shop": "convenience"}}, {"type": "node", "id": 10159083723, "lat": 41.0802681, "lon": 28.9438704, "tags": {"shop": "convenience"}}, {"type": "node", "id": 10159083726, "lat": 41.0800719, "lon": 28.9442083, "tags": {"name": "Ayy\u00fcm B\u00fcfe", "shop": "convenience"}}, {"type": "node", "id": 10159083775, "lat": 41.080035, "lon": 28.9410467, "tags": {"name": "B\u00fcntay B\u00fcfe & Tekel", "shop": "convenience"}}, {"type": "node", "id": 10170078168, "lat": 41.0833034, "lon": 28.8849585, "tags": {"addr:city": "\u0130stanbul", "addr:district": "Gaziosmanpa\u015fa", "addr:housenumber": "55/A", "addr:neighbourhood": "Karadeniz", "addr:postcode": "34250", "addr:street": "1140. Sokak", "name": "Y\u0131lmaz G\u0131da", "shop": "convenience"}}, {"type": "node", "id": 10170078302, "lat": 41.0871198, "lon": 28.8894174}, {"type": "node", "id": 10170078303, "lat": 41.0869967, "lon": 28.889521}, {"type": "node", "id": 10170078304, "lat": 41.0870461, "lon": 28.8896242}, {"type": "node", "id": 10170078305, "lat": 41.0871692, "lon": 28.8895205}, {"type": "node", "id": 10170842472, "lat": 41.0814314, "lon": 28.8961415}, {"type": "node", "id": 10170842473, "lat": 41.0815454, "lon": 28.896014}, {"type": "node", "id": 10170842474, "lat": 41.0814845, "lon": 28.895918}, {"type": "node", "id": 10170842475, "lat": 41.0813704, "lon": 28.8960456}, {"type": "node", "id": 10170842477, "lat": 41.0815392, "lon": 28.896021}, {"type": "node", "id": 10170842478, "lat": 41.0814405, "lon": 28.8961314}, {"type": "node", "id": 10172187820, "lat": 41.0782113, "lon": 28.8988408}, {"type": "node", "id": 10172187821, "lat": 41.0781496, "lon": 28.8988867}, {"type": "node", "id": 10172187822, "lat": 41.0782171, "lon": 28.8990663}, {"type": "node", "id": 10172187823, "lat": 41.0782853, "lon": 28.8990148}, {"type": "node", "id": 10173099368, "lat": 41.0808519, "lon": 28.8931483}, {"type": "node", "id": 10173099369, "lat": 41.0808954, "lon": 28.8932356}, {"type": "node", "id": 10173099370, "lat": 41.0807766, "lon": 28.8933397}, {"type": "node", "id": 10173099371, "lat": 41.0807331, "lon": 28.8932524}, {"type": "node", "id": 10173099373, "lat": 41.0808855, "lon": 28.8932444}, {"type": "node", "id": 10173099374, "lat": 41.0807955, "lon": 28.8933232}, {"type": "node", "id": 10174286717, "lat": 41.2716017, "lon": 28.4836522, "tags": {"name": "Merve G\u0131da", "shop": "convenience"}}, {"type": "node", "id": 10174286726, "lat": 41.2732122, "lon": 28.481746, "tags": {"name": "Y\u00f6resel Market", "shop": "convenience"}}, {"type": "node", "id": 10174286727, "lat": 41.2728117, "lon": 28.4820759, "tags": {"name": "Erdo\u011fmu\u015f G\u0131da", "shop": "convenience"}}, {"type": "node", "id": 10184585358, "lat": 41.058468, "lon": 28.9062751}, {"type": "node", "id": 10184585359, "lat": 41.058446, "lon": 28.9062008}, {"type": "node", "id": 10184585360, "lat": 41.0582629, "lon": 28.9061432}, {"type": "node", "id": 10184585361, "lat": 41.0582255, "lon": 28.9062004}, {"type": "node", "id": 10184585362, "lat": 41.0583918, "lon": 28.9063916}, {"type": "node", "id": 10184585364, "lat": 41.0582764, "lon": 28.906259}, {"type": "node", "id": 10188258361, "lat": 41.0744921, "lon": 28.9049711}, {"type": "node", "id": 10188258362, "lat": 41.0744076, "lon": 28.9048802}, {"type": "node", "id": 10188258363, "lat": 41.0744794, "lon": 28.9048492}, {"type": "node", "id": 10188258364, "lat": 41.0744964, "lon": 28.9048677}, {"type": "node", "id": 10195642002, "lat": 41.0620064, "lon": 28.9021871}, {"type": "node", "id": 10195642003, "lat": 41.0619637, "lon": 28.9022106}, {"type": "node", "id": 10195642004, "lat": 41.0619579, "lon": 28.9022007}, {"type": "node", "id": 10195642005, "lat": 41.0619209, "lon": 28.9022211}, {"type": "node", "id": 10195642006, "lat": 41.0619693, "lon": 28.9023791}, {"type": "node", "id": 10195642007, "lat": 41.0620137, "lon": 28.9023546}, {"type": "node", "id": 10195642008, "lat": 41.0620203, "lon": 28.9023755}, {"type": "node", "id": 10195642009, "lat": 41.0620588, "lon": 28.9023543}, {"type": "node", "id": 10200207093, "lat": 41.2451126, "lon": 28.701379}, {"type": "node", "id": 10200207100, "lat": 41.2448864, "lon": 28.7013479}, {"type": "node", "id": 10200207113, "lat": 41.2435705, "lon": 28.7043623}, {"type": "node", "id": 10200207114, "lat": 41.2433514, "lon": 28.7043418}, {"type": "node", "id": 10209372088, "lat": 41.0826987, "lon": 28.9165393}, {"type": "node", "id": 10209372097, "lat": 41.0826931, "lon": 28.9167202}, {"type": "node", "id": 10209372098, "lat": 41.0826639, "lon": 28.9167186}, {"type": "node", "id": 10209372099, "lat": 41.082665, "lon": 28.9166822}, {"type": "node", "id": 10209372100, "lat": 41.0826582, "lon": 28.9166818}, {"type": "node", "id": 10209372101, "lat": 41.0826627, "lon": 28.9165373}, {"type": "node", "id": 10213960243, "lat": 41.065706, "lon": 28.9332406}, {"type": "node", "id": 10213960244, "lat": 41.0656407, "lon": 28.9332874}, {"type": "node", "id": 10213960246, "lat": 41.0657136, "lon": 28.9332352}, {"type": "node", "id": 10213960247, "lat": 41.0656719, "lon": 28.9331329}, {"type": "node", "id": 10213960248, "lat": 41.0655933, "lon": 28.9331893}, {"type": "node", "id": 10213960249, "lat": 41.0656315, "lon": 28.9332828}, {"type": "node", "id": 10236206519, "lat": 41.0610983, "lon": 28.8919643}, {"type": "node", "id": 10236206520, "lat": 41.0610686, "lon": 28.8918902}, {"type": "node", "id": 10236206521, "lat": 41.0609087, "lon": 28.8920029}, {"type": "node", "id": 10236206522, "lat": 41.0609385, "lon": 28.892077}, {"type": "node", "id": 10236206524, "lat": 41.0610531, "lon": 28.8919962}, {"type": "node", "id": 10236206525, "lat": 41.0609434, "lon": 28.8920736}, {"type": "node", "id": 10257698543, "lat": 41.0695301, "lon": 28.9331135}, {"type": "node", "id": 10257698544, "lat": 41.0694634, "lon": 28.9330917}, {"type": "node", "id": 10257698545, "lat": 41.069428, "lon": 28.9332823}, {"type": "node", "id": 10257698546, "lat": 41.0694947, "lon": 28.9333041}, {"type": "node", "id": 10257698547, "lat": 41.0694614, "lon": 28.9331026}, {"type": "node", "id": 10257698550, "lat": 41.0694299, "lon": 28.9332717}, {"type": "node", "id": 10257698553, "lat": 41.0694995, "lon": 28.9332782}, {"type": "node", "id": 10261339024, "lat": 41.247905, "lon": 28.752272}, {"type": "node", "id": 10261339025, "lat": 41.2477909, "lon": 28.7522726}, {"type": "node", "id": 10276617165, "lat": 41.0841251, "lon": 28.9121618, "tags": {"name": "Aydo\u011fan Kuruyemi\u015f", "shop": "convenience"}}, {"type": "node", "id": 10548387666, "lat": 41.055896, "lon": 28.8970113}, {"type": "node", "id": 10548387667, "lat": 41.0559167, "lon": 28.8970252}, {"type": "node", "id": 10548387668, "lat": 41.0558561, "lon": 28.8971834}, {"type": "node", "id": 10548387675, "lat": 41.0558275, "lon": 28.8969775}, {"type": "node", "id": 10548387676, "lat": 41.0557759, "lon": 28.8970139}, {"type": "node", "id": 10548387679, "lat": 41.0558692, "lon": 28.8968933}, {"type": "node", "id": 10548387680, "lat": 41.0559257, "lon": 28.8969311}, {"type": "node", "id": 10548387681, "lat": 41.0557282, "lon": 28.8970973}, {"type": "node", "id": 10548387682, "lat": 41.0557405, "lon": 28.8970653}, {"type": "node", "id": 10548387683, "lat": 41.0557239, "lon": 28.8970535}, {"type": "node", "id": 10548387684, "lat": 41.0558398, "lon": 28.8969693}, {"type": "node", "id": 10577765784, "lat": 41.0700732, "lon": 28.8923831}, {"type": "node", "id": 10577765785, "lat": 41.0701426, "lon": 28.8924384}, {"type": "node", "id": 10577765787, "lat": 41.0701218, "lon": 28.8923065}, {"type": "node", "id": 10577765788, "lat": 41.0701897, "lon": 28.8923813}, {"type": "node", "id": 10577765789, "lat": 41.0701637, "lon": 28.8924365}, {"type": "node", "id": 10651664501, "lat": 41.0641504, "lon": 28.9145319, "tags": {"name": "Bitirim Tekel", "shop": "convenience"}}, {"type": "node", "id": 10651698768, "lat": 41.0653415, "lon": 28.9142667, "tags": {"name": "Atik Kuruyemi\u015f", "shop": "convenience"}}, {"type": "node", "id": 10710741992, "lat": 41.0803235, "lon": 28.9454351}, {"type": "node", "id": 10710741993, "lat": 41.0804281, "lon": 28.9456645}, {"type": "node", "id": 10710741994, "lat": 41.0805979, "lon": 28.9455283}, {"type": "node", "id": 10710741995, "lat": 41.0804933, "lon": 28.9452988}, {"type": "node", "id": 10732599819, "lat": 41.0769673, "lon": 28.933253}, {"type": "node", "id": 10732599820, "lat": 41.0769332, "lon": 28.9331586}, {"type": "node", "id": 10732599821, "lat": 41.0769426, "lon": 28.9332681}, {"type": "node", "id": 10732599822, "lat": 41.076892, "lon": 28.9331982}, {"type": "node", "id": 10810732371, "lat": 41.0821999, "lon": 28.8932677}, {"type": "node", "id": 10810732372, "lat": 41.0821124, "lon": 28.8933272}, {"type": "node", "id": 10810732373, "lat": 41.0821684, "lon": 28.8934724}, {"type": "node", "id": 10810732374, "lat": 41.082256, "lon": 28.8934129}, {"type": "node", "id": 10860848817, "lat": 41.2356219, "lon": 28.5976052, "tags": {"name": "\u015een Karde\u015fler Market", "shop": "convenience"}}, {"type": "way", "id": 304122731, "nodes": [3086441124, 3086441123, 3086441121, 3086441122, 3086441124], "tags": {"building": "yes", "name": "Elmas Market", "shop": "convenience"}}, {"type": "way", "id": 472226078, "nodes": [4664387041, 4664387042, 4664387043, 4664387044, 4664387041], "tags": {"building": "yes", "shop": "convenience"}}, {"type": "way", "id": 472226079, "nodes": [4664387045, 4664387046, 4664387047, 4664387048, 4664387045], "tags": {"building": "yes", "shop": "convenience"}}, {"type": "way", "id": 472226080, "nodes": [4664387049, 4664387050, 4664387051, 4664387052, 4664387049], "tags": {"building": "yes", "shop": "convenience"}}, {"type": "way", "id": 499961468, "nodes": [4911348711, 4911349089, 4911349087, 4911348710, 4911348711], "tags": {"building": "yes", "building:levels": "2", "shop": "convenience", "source": "bing"}}, {"type": "way", "id": 516644980, "nodes": [5043191012, 5043191011, 5043191010, 5043191009, 5043191012], "tags": {"brand": "Total", "brand:wikidata": "Q154037", "brand:wikipedia": "fr:TotalEnergies", "building": "yes", "name": "Total", "shop": "convenience"}}, {"type": "way", "id": 593180275, "nodes": [5659589205, 5659589206, 5659589207, 5659589208, 5659589205], "tags": {"building": "yes", "shop": "convenience"}}, {"type": "way", "id": 696379704, "nodes": [6539536690, 10261339024, 10261339025, 6539536689, 6539536688, 6539536687, 6539536690], "tags": {"building": "yes", "building:levels": "1", "shop": "convenience"}}, {"type": "way", "id": 741201935, "nodes": [6939018739, 6939018740, 6939018741, 6939018742, 6939018743, 6939018744, 6939018739], "tags": {"building": "yes", "name": "Grosa Market", "shop": "convenience"}}, {"type": "way", "id": 741211110, "nodes": [6939087190, 6939087191, 6939087192, 6939087193, 6939087194, 6939087195, 6939087190], "tags": {"building": "yes", "name": "Zirve Market", "opening_hours": "08:30-00:00", "shop": "convenience"}}, {"type": "way", "id": 870841535, "nodes": [8112116246, 8112116247, 9889724608, 9889724609, 8112116248, 9889724607, 8112116249, 8112116246], "tags": {"addr:housenumber": "34I", "building": "yes", "name": "Onur Market", "shop": "convenience"}}, {"type": "way", "id": 901558785, "nodes": [8374970562, 10200207100, 10200207093, 8374970555, 8374970564, 8374970565, 8374970562], "tags": {"building": "yes", "building:levels": "1", "shop": "convenience"}}, {"type": "way", "id": 964547289, "nodes": [8921999415, 8921999416, 8921999417, 8921999418, 8921999419, 8921999420, 8921999415], "tags": {"building": "yes", "name": "Petrol Ofisi Marketi", "shop": "convenience"}}, {"type": "way", "id": 971188171, "nodes": [8988352122, 8988352123, 9813330613, 8988352124, 8988352125, 8988352122], "tags": {"brand": "Shell Select", "brand:wikidata": "Q110716465", "brand:wikipedia": "en:Royal Dutch Shell", "building": "yes", "name": "Shell Select", "shop": "convenience"}}, {"type": "way", "id": 978231117, "nodes": [10188258362, 9051730665, 9051730669, 10188258363, 10188258364, 9051730668, 9051730666, 10188258361, 10188258362], "tags": {"addr:city": "\u0130stanbul", "addr:district": "Gaziosmanpa\u015fa", "addr:housenumber": "19/A", "addr:neighbourhood": "Yeni Mahalle", "addr:postcode": "34250", "addr:street": "Hekimsuyu Caddesi", "brand": "Shell Select", "brand:wikidata": "Q110716465", "brand:wikipedia": "en:Royal Dutch Shell", "building": "yes", "building:levels": "3", "name": "Shell Select", "shop": "convenience"}}, {"type": "way", "id": 998247740, "nodes": [9217106882, 9217106879, 10200207114, 10200207113, 9217106880, 9217106881, 9217106882], "tags": {"building": "yes", "building:levels": "1", "shop": "convenience"}}, {"type": "way", "id": 1008217254, "nodes": [9301408537, 9301408538, 9301408539, 9301408540, 3623198156, 3623198154, 9301408537], "tags": {"brand": "Shell Select", "brand:wikidata": "Q110716465", "brand:wikipedia": "en:Royal Dutch Shell", "building": "yes", "name": "Shell Select", "shop": "convenience"}}, {"type": "way", "id": 1069545451, "nodes": [9816846348, 9816846349, 9816846350, 9816846352, 9816846355, 9816846351, 9816846348], "tags": {"building": "yes", "building:levels": "2", "shop": "convenience"}}, {"type": "way", "id": 1070587468, "nodes": [9825035533, 9825035534, 9825035535, 9825035536, 9825035539, 9825035538, 9825035533], "tags": {"brand": "Total", "brand:wikidata": "Q154037", "building": "yes", "building:levels": "1", "name": "Total", "shop": "convenience"}}, {"type": "way", "id": 1073545212, "nodes": [9847972688, 9847972692, 9847972699, 9847972689, 9847972690, 9847972691, 9847972688], "tags": {"brand": "Shell Select", "brand:wikidata": "Q110716465", "building": "yes", "building:levels": "1", "name": "Shell Select", "shop": "convenience"}}, {"type": "way", "id": 1074528678, "nodes": [9855865945, 9855865946, 9855865947, 9855865948, 9855865942, 9855865945], "tags": {"building": "yes", "shop": "convenience"}}, {"type": "way", "id": 1076007363, "nodes": [3217281861, 9867797929, 9867797930, 3217281863, 3217281861], "tags": {"building": "yes", "shop": "convenience"}}, {"type": "way", "id": 1099745133, "nodes": [10067696429, 10067696430, 10067696431, 10067696432, 10067696434, 10067696433, 10067696429], "tags": {"building": "yes", "building:levels": "1", "shop": "convenience"}}, {"type": "way", "id": 1099745137, "nodes": [10067696454, 10067696455, 10067696456, 10067696457, 10067696458, 10067696454], "tags": {"building": "yes", "building:levels": "1", "shop": "convenience"}}, {"type": "way", "id": 1106471975, "nodes": [10125159260, 10125159264, 10125159267, 10125159261, 10125159262, 10125159263, 10125159260], "tags": {"brand": "Shell Select", "brand:wikidata": "Q110716465", "building": "yes", "building:levels": "2", "name": "Shell Select", "shop": "convenience"}}, {"type": "way", "id": 1108495922, "nodes": [10142484167, 10142484168, 10142484169, 10142484170, 10142484171, 10142484167], "tags": {"addr:city": "\u0130stanbul", "addr:district": "Bayrampa\u015fa", "addr:housenumber": "101/B", "addr:neighbourhood": "Muratpa\u015fa", "addr:postcode": "34040", "addr:street": "Rami K\u0131\u015fla Caddesi", "building": "yes", "building:levels": "1", "shop": "convenience"}}, {"type": "way", "id": 1111615761, "nodes": [10170078302, 10170078303, 10170078304, 10170078305, 10170078302], "tags": {"brand": "Total", "brand:wikidata": "Q154037", "building": "yes", "building:levels": "1", "name": "Total", "shop": "convenience"}}, {"type": "way", "id": 1111706970, "nodes": [10170842472, 10170842478, 10170842477, 10170842473, 10170842474, 10170842475, 10170842472], "tags": {"building": "yes", "building:levels": "2", "shop": "convenience"}}, {"type": "way", "id": 1111861348, "nodes": [10172187820, 10172187821, 10172187822, 10172187823, 10172187820], "tags": {"building": "yes", "building:levels": "2", "shop": "convenience"}}, {"type": "way", "id": 1111969362, "nodes": [10173099368, 10173099369, 10173099373, 10173099374, 10173099370, 10173099371, 10173099368], "tags": {"building": "yes", "building:levels": "2", "shop": "convenience"}}, {"type": "way", "id": 1113180940, "nodes": [10184585358, 10184585359, 10184585360, 10184585361, 10184585364, 10184585362, 10184585358], "tags": {"building": "yes", "building:levels": "3", "shop": "convenience"}}, {"type": "way", "id": 1114734283, "nodes": [10195642002, 10195642003, 10195642004, 10195642005, 10195642006, 10195642007, 10195642008, 10195642009, 10195642002], "tags": {"building": "yes", "building:levels": "3", "shop": "convenience"}}, {"type": "way", "id": 1116243259, "nodes": [10209372088, 10209372097, 10209372098, 10209372099, 10209372100, 10209372101, 10209372088], "tags": {"brand": "Shell Select", "brand:wikidata": "Q110716465", "building": "yes", "building:levels": "3", "name": "Shell Select", "shop": "convenience"}}, {"type": "way", "id": 1116781721, "nodes": [10213960246, 10213960247, 10213960248, 10213960249, 10213960244, 10213960243, 10213960246], "tags": {"building": "yes", "building:levels": "2", "shop": "convenience"}}, {"type": "way", "id": 1119239868, "nodes": [10236206519, 10236206520, 10236206521, 10236206522, 10236206525, 10236206524, 10236206519], "tags": {"brand": "Total", "brand:wikidata": "Q154037", "building": "yes", "building:levels": "2", "name": "Total", "shop": "convenience"}}, {"type": "way", "id": 1121467176, "nodes": [10257698543, 10257698544, 10257698547, 10257698550, 10257698545, 10257698546, 10257698553, 10257698543], "tags": {"brand": "Total", "brand:wikidata": "Q154037", "building": "yes", "building:levels": "1", "name": "Total", "shop": "convenience"}}, {"type": "way", "id": 1131524698, "nodes": [10548387679, 10548387680, 10548387666, 10548387667, 10548387668, 10548387681, 10548387682, 10548387683, 10548387676, 10548387675, 10548387684, 10548387679], "tags": {"building": "yes", "building:levels": "2", "shop": "convenience"}}, {"type": "way", "id": 1134656979, "nodes": [10577765787, 10577765788, 10577765789, 10577765785, 10577765784, 10577765787], "tags": {"building": "yes", "building:levels": "1", "shop": "convenience"}}, {"type": "way", "id": 1151317004, "nodes": [10710741992, 10710741993, 10710741994, 10710741995, 10710741992], "tags": {"building": "yes", "building:levels": "6", "operator": "A 101", "shop": "convenience"}}, {"type": "way", "id": 1154010790, "nodes": [10732599819, 10732599820, 10732599822, 10732599821, 10732599819], "tags": {"building": "yes", "shop": "convenience"}}, {"type": "way", "id": 1162398263, "nodes": [10810732371, 10810732372, 10810732373, 10810732374, 10810732371], "tags": {"building": "yes", "shop": "convenience"}}]}