{"version": 0.6, "generator": "Overpass API 0.7.60 f4c14d41", "osm3s": {"timestamp_osm_base": "2023-05-02T21:20:24Z", "copyright": "The data included in this document is from www.openstreetmap.org. The data is made available under ODbL."}, "elements": [{"type": "node", "id": 220318271, "lat": -33.7875297, "lon": 151.1793136}, {"type": "node", "id": 266280019, "lat": -33.8947146, "lon": 151.199446, "tags": {"name": "Redfern Fruit Market", "shop": "convenience"}}, {"type": "node", "id": 497587531, "lat": -33.83263, "lon": 151.2058569, "tags": {"name": "Harmony", "shop": "convenience", "source": "survey"}}, {"type": "node", "id": 639501861, "lat": -33.8464885, "lon": 151.1152937, "tags": {"name": "Jim's Convenience Store", "shop": "convenience"}}, {"type": "node", "id": 743327388, "lat": -33.8592662, "lon": 151.2078515, "tags": {"addr:city": "The Rocks", "addr:housenumber": "55", "addr:postcode": "2000", "addr:street": "Harrington Street", "shop": "convenience"}}, {"type": "node", "id": 762749454, "lat": -33.7763643, "lon": 151.2797557, "tags": {"shop": "convenience"}}, {"type": "node", "id": 772484534, "lat": -33.9150242, "lon": 151.2004551, "tags": {"shop": "convenience"}}, {"type": "node", "id": 772592796, "lat": -33.910613, "lon": 151.19403, "tags": {"shop": "convenience"}}, {"type": "node", "id": 836112319, "lat": -33.872928, "lon": 151.2049703, "tags": {"brand": "7-Eleven", "brand:wikidata": "Q259340", "brand:wikipedia": "en:7-Eleven", "name": "7-Eleven", "operator": "7-Eleven", "shop": "convenience", "website": "https://www.7eleven.com.au/", "wheelchair": "no"}}, {"type": "node", "id": 885685986, "lat": -33.8588089, "lon": 151.1777782, "tags": {"shop": "convenience"}}, {"type": "node", "id": 936411009, "lat": -33.8747917, "lon": 151.2181699, "tags": {"shop": "convenience"}}, {"type": "node", "id": 936411203, "lat": -33.8757467, "lon": 151.2158646, "tags": {"shop": "convenience", "wheelchair": "yes"}}, {"type": "node", "id": 984955290, "lat": -33.9533522, "lon": 150.9984677, "tags": {"name": "Lucky 8 Convenience Store", "shop": "convenience"}}, {"type": "node", "id": 984955295, "lat": -33.9532386, "lon": 150.9984482, "tags": {"name": "Panania Mini Mart", "shop": "convenience"}}, {"type": "node", "id": 1081321641, "lat": -33.9512255, "lon": 151.0821013, "tags": {"shop": "convenience"}}, {"type": "node", "id": 1092640386, "lat": -33.9494022, "lon": 151.0046786}, {"type": "node", "id": 1092640387, "lat": -33.9494129, "lon": 151.004565}, {"type": "node", "id": 1092640388, "lat": -33.9494714, "lon": 151.004573}, {"type": "node", "id": 1092640392, "lat": -33.9494705, "lon": 151.004583}, {"type": "node", "id": 1092640394, "lat": -33.9495712, "lon": 151.0045968}, {"type": "node", "id": 1092640395, "lat": -33.9495649, "lon": 151.0046635}, {"type": "node", "id": 1092640396, "lat": -33.9495316, "lon": 151.0046589}, {"type": "node", "id": 1092640399, "lat": -33.9495289, "lon": 151.0046873}, {"type": "node", "id": 1092640400, "lat": -33.9494967, "lon": 151.0046828}, {"type": "node", "id": 1092640401, "lat": -33.9494958, "lon": 151.0046914}, {"type": "node", "id": 1102893337, "lat": -33.9901647, "lon": 151.1138076}, {"type": "node", "id": 1111209022, "lat": -33.938601, "lon": 151.0177566}, {"type": "node", "id": 1111209055, "lat": -33.9387742, "lon": 151.0175942}, {"type": "node", "id": 1111209106, "lat": -33.9387915, "lon": 151.0177181}, {"type": "node", "id": 1111209159, "lat": -33.9385837, "lon": 151.0176327}, {"type": "node", "id": 1129297283, "lat": -33.961668, "lon": 151.105732, "tags": {"addr:housenumber": "64", "addr:street": "Queens Road", "shop": "convenience"}}, {"type": "node", "id": 1129299152, "lat": -33.954399, "lon": 151.106206, "tags": {"addr:housenumber": "136", "addr:street": "Croyton Road", "shop": "convenience"}}, {"type": "node", "id": 1131865056, "lat": -33.9477521, "lon": 151.0122614}, {"type": "node", "id": 1131865103, "lat": -33.9477741, "lon": 151.0121782}, {"type": "node", "id": 1131865217, "lat": -33.947705, "lon": 151.0122697}, {"type": "node", "id": 1131865428, "lat": -33.9477798, "lon": 151.0122252}, {"type": "node", "id": 1131865534, "lat": -33.9476956, "lon": 151.0121919}, {"type": "node", "id": 1136509775, "lat": -33.9557794, "lon": 151.0172242}, {"type": "node", "id": 1136509777, "lat": -33.9559599, "lon": 151.0173155}, {"type": "node", "id": 1136509787, "lat": -33.9556917, "lon": 151.0164458}, {"type": "node", "id": 1136509790, "lat": -33.9557656, "lon": 151.0173155}, {"type": "node", "id": 1136509799, "lat": -33.95594, "lon": 151.0171879}, {"type": "node", "id": 1136509800, "lat": -33.9556319, "lon": 151.0165859}, {"type": "node", "id": 1136509807, "lat": -33.9555883, "lon": 151.0164584}, {"type": "node", "id": 1136509809, "lat": -33.9555917, "lon": 151.0164994}, {"type": "node", "id": 1136509822, "lat": -33.9558005, "lon": 151.0173516}, {"type": "node", "id": 1136509832, "lat": -33.9556243, "lon": 151.0164954}, {"type": "node", "id": 1136509833, "lat": -33.955759, "lon": 151.0172729}, {"type": "node", "id": 1136509839, "lat": -33.9557027, "lon": 151.0165773}, {"type": "node", "id": 1190829778, "lat": -34.0458507, "lon": 151.1525696, "tags": {"shop": "convenience", "source": "survey", "source:location": "nearmap"}}, {"type": "node", "id": 1259065379, "lat": -33.8082845, "lon": 151.1231889, "tags": {"name": "Mixed business", "shop": "convenience"}}, {"type": "node", "id": 1259065380, "lat": -33.8082556, "lon": 151.1231272, "tags": {"addr:housename": "French Patisserie", "name": "French Patisserie", "shop": "convenience"}}, {"type": "node", "id": 1259070215, "lat": -33.8083164, "lon": 151.1232356, "tags": {"name": "Callaghan Street Cellars", "shop": "convenience"}}, {"type": "node", "id": 1266167657, "lat": -33.8730688, "lon": 151.0943895, "tags": {"brand": "7-Eleven", "brand:wikidata": "Q259340", "brand:wikipedia": "en:7-Eleven", "name": "7-Eleven", "shop": "convenience"}}, {"type": "node", "id": 1266624691, "lat": -33.8795556, "lon": 151.2055707, "tags": {"brand": "7-Eleven", "brand:wikidata": "Q259340", "brand:wikipedia": "en:7-Eleven", "name": "7-Eleven", "shop": "convenience", "website": "https://www.7eleven.com.au/"}}, {"type": "node", "id": 1280189391, "lat": -34.044508, "lon": 151.1235159, "tags": {"name": "Lucky 7", "opening_hours": "PH,Mo-Su 07:30-19:00", "shop": "convenience"}}, {"type": "node", "id": 1280916469, "lat": -33.838576, "lon": 151.208285, "tags": {"created_by": "iLOE 1.9", "name": "Mini Market", "shop": "convenience"}}, {"type": "node", "id": 1283593075, "lat": -34.046251, "lon": 151.1331115, "tags": {"shop": "convenience"}}, {"type": "node", "id": 1283594994, "lat": -34.0543905, "lon": 151.1535958, "tags": {"shop": "convenience"}}, {"type": "node", "id": 1283595179, "lat": -34.0604038, "lon": 151.1545721, "tags": {"name": "CJ'S Supa Fresh", "opening_hours": "Mo-Su 07:00-22:00", "shop": "convenience"}}, {"type": "node", "id": 1330694209, "lat": -33.9204358, "lon": 151.0390052}, {"type": "node", "id": 1330694212, "lat": -33.9212079, "lon": 151.0392449}, {"type": "node", "id": 1330694224, "lat": -33.9205073, "lon": 151.0395055}, {"type": "node", "id": 1330694225, "lat": -33.9205682, "lon": 151.0386685}, {"type": "node", "id": 1330694231, "lat": -33.9211314, "lon": 151.0387557}, {"type": "node", "id": 1330694252, "lat": -33.920626, "lon": 151.0390799}, {"type": "node", "id": 1346598582, "lat": -33.7958496, "lon": 151.2766743, "tags": {"name": "Foodworks Fairlight", "shop": "convenience"}}, {"type": "node", "id": 1415819606, "lat": -34.0322833, "lon": 151.070982, "tags": {"atm": "yes", "brand": "BP Shop", "brand:wikidata": "Q152057", "brand:wikipedia": "en:BP", "fuel:diesel": "yes", "name": "BP Shop", "shop": "convenience", "source": "knowledge"}}, {"type": "node", "id": 1477769373, "lat": -33.9557361, "lon": 151.1258576, "tags": {"addr:postcode": "2207", "name": "Bexley Convenience Store", "shop": "convenience"}}, {"type": "node", "id": 1577577804, "lat": -33.8913201, "lon": 151.1958703, "tags": {"name": "Chippendale Scoop", "shop": "convenience"}}, {"type": "node", "id": 1611285785, "lat": -33.8137108, "lon": 151.0035157, "tags": {"brand": "7-Eleven", "brand:wikidata": "Q259340", "brand:wikipedia": "en:7-Eleven", "name": "7-Eleven", "shop": "convenience", "website": "https://www.7eleven.com.au/"}}, {"type": "node", "id": 1634704253, "lat": -33.9262391, "lon": 151.1176434, "tags": {"shop": "convenience"}}, {"type": "node", "id": 1643803133, "lat": -33.8221936, "lon": 150.999663, "tags": {"shop": "convenience"}}, {"type": "node", "id": 1645055110, "lat": -33.8129886, "lon": 150.9850687, "tags": {"addr:housenumber": "74", "addr:postcode": "2145", "addr:street": "Hawkesbury Road", "addr:suburb": "Westmead", "addr:unit": "5", "name": "Desi Mart", "opening_hours": "Mo-Su 09:30-21:30", "phone": "+612 8677 0627", "shop": "convenience"}}, {"type": "node", "id": 1735908953, "lat": -33.905674, "lon": 151.191275, "tags": {"shop": "convenience", "source": "survey"}}, {"type": "node", "id": 1736956867, "lat": -33.8832744, "lon": 151.1834945, "tags": {"opening_hours": "Mo-Su 07:00-22:00", "shop": "convenience"}}, {"type": "node", "id": 1738625517, "lat": -33.9594355, "lon": 151.2316029, "tags": {"addr:housenumber": "515", "addr:street": "Bunnerong Road", "amenity": "fuel", "amenity:atm": "yes", "amenity:eftpos": "yes", "brand": "7-Eleven", "brand:wikidata": "Q259340", "name": "7-Eleven", "payment:credit_cards": "yes", "shop": "convenience"}}, {"type": "node", "id": 1745094921, "lat": -33.8369379, "lon": 151.0918215, "tags": {"shop": "convenience"}}, {"type": "node", "id": 1745116468, "lat": -33.9528281, "lon": 151.0521484, "tags": {"addr:housenumber": "188", "addr:postcode": "2210", "addr:street": "Belmore Road", "name": "Riverwood South Newsagency", "shop": "convenience"}}, {"type": "node", "id": 1758006027, "lat": -33.8417896, "lon": 151.0838839, "tags": {"name": "Easy Mart", "opening_hours": "Mo-Fr 07:30-19:00, Sa 08:00-19:00, Su 08:00-17:00", "shop": "convenience", "wheelchair": "yes"}}, {"type": "node", "id": 1772538759, "lat": -33.8501792, "lon": 151.0622828, "tags": {"name": "Trackside Convenience Store", "shop": "convenience"}}, {"type": "node", "id": 1812102108, "lat": -33.8881622, "lon": 151.1966468, "tags": {"shop": "convenience"}}, {"type": "node", "id": 1812102282, "lat": -33.8884632, "lon": 151.198721, "tags": {"shop": "convenience"}}, {"type": "node", "id": 1813415156, "lat": -33.8946913, "lon": 151.2093306, "tags": {"shop": "convenience", "toilets:wheelchair": "no", "wheelchair": "yes"}}, {"type": "node", "id": 1833317153, "lat": -33.8851169, "lon": 151.1947702, "tags": {"shop": "convenience", "source": "photo"}}, {"type": "node", "id": 1834904035, "lat": -33.8665658, "lon": 151.2051542, "tags": {"brand": "7-Eleven", "brand:wikidata": "Q259340", "name": "7-Eleven", "shop": "convenience", "website": "https://www.7eleven.com.au/", "wheelchair": "yes"}}, {"type": "node", "id": 1852677770, "lat": -33.8870293, "lon": 151.1742248, "tags": {"addr:city": "Camperdown", "addr:housenumber": "198", "addr:postcode": "2050", "addr:street": "Parramatta Road", "name": "7-Eleven", "opening_hours": "24/7", "operator": "7-Eleven", "phone": "+61 2 9519 5910", "shop": "convenience", "website": "https://www.7eleven.com.au/", "wheelchair": "limited"}}, {"type": "node", "id": 1856526058, "lat": -33.8980826, "lon": 151.2026788, "tags": {"brand": "IGA", "brand:wikidata": "Q5970945", "name": "IGA Express", "shop": "convenience"}}, {"type": "node", "id": 1859316878, "lat": -33.922867, "lon": 151.2059468}, {"type": "node", "id": 1859316879, "lat": -33.9228814, "lon": 151.20605}, {"type": "node", "id": 1859316881, "lat": -33.923027, "lon": 151.2059145}, {"type": "node", "id": 1859316882, "lat": -33.9230414, "lon": 151.2060177}, {"type": "node", "id": 1865257857, "lat": -33.8686704, "lon": 151.2039248, "tags": {"addr:housenumber": "20", "addr:street": "King Street", "atm": "yes", "atm:operator": "Bendigo Bank", "name": "Darling Convenience", "shop": "convenience"}}, {"type": "node", "id": 1939836369, "lat": -33.8701434, "lon": 151.1976819, "tags": {"name": "City Convenience Store", "shop": "convenience"}}, {"type": "node", "id": 1963294346, "lat": -33.8995521, "lon": 151.1841326, "tags": {"addr:housenumber": "110", "addr:postcode": "2043", "addr:street": "Erskineville Road", "name": "The Deli Erskineville", "shop": "convenience"}}, {"type": "node", "id": 1974543219, "lat": -33.7828512, "lon": 151.1041197, "tags": {"addr:street": "Agincourt Road", "name": "Four Square", "shop": "convenience"}}, {"type": "node", "id": 2059394256, "lat": -33.8710643, "lon": 151.2383403, "tags": {"name": "Richies Convenience Store", "shop": "convenience"}}, {"type": "node", "id": 2094249847, "lat": -33.8259078, "lon": 151.0155879, "tags": {"shop": "convenience"}}, {"type": "node", "id": 2138868226, "lat": -33.8861613, "lon": 151.1787444, "tags": {"shop": "convenience"}}, {"type": "node", "id": 2142240488, "lat": -33.8912339, "lon": 151.1759094, "tags": {"addr:city": "Camperdown", "addr:housenumber": "99", "addr:postcode": "2050", "addr:street": "Australia Street", "name": "Seven Day Food", "opening_hours": "Mo-Fr 07:00-20:30; Sa-Su 08:00-20:00", "phone": "+61 2 9517 1139", "shop": "convenience", "wheelchair": "no"}}, {"type": "node", "id": 2163387593, "lat": -33.8888182, "lon": 151.1818581, "tags": {"addr:city": "Camperdown", "addr:housenumber": "8", "addr:postcode": "2050", "addr:street": "Missenden Road", "atm": "yes", "brand": "7-Eleven", "brand:wikidata": "Q259340", "brand:wikipedia": "en:7-Eleven", "name": "7-Eleven", "opening_hours": "Mo-Su 06:00-24:00", "phone": "+61 2 9519 6912", "shop": "convenience", "website": "https://www.7eleven.com.au/", "wheelchair": "limited"}}, {"type": "node", "id": 2170084217, "lat": -33.7974454, "lon": 151.1797052, "tags": {"name": "City Convenience Store", "shop": "convenience", "wheelchair": "yes"}}, {"type": "node", "id": 2173384974, "lat": -33.7986915, "lon": 151.1792792}, {"type": "node", "id": 2173385004, "lat": -33.7969966, "lon": 151.1802599}, {"type": "node", "id": 2173385018, "lat": -33.7984814, "lon": 151.1791834}, {"type": "node", "id": 2173385029, "lat": -33.7984563, "lon": 151.1791874}, {"type": "node", "id": 2173385032, "lat": -33.7986195, "lon": 151.1794363}, {"type": "node", "id": 2173385066, "lat": -33.7984363, "lon": 151.1792102}, {"type": "node", "id": 2173385106, "lat": -33.7986663, "lon": 151.1794566}, {"type": "node", "id": 2173385116, "lat": -33.7987126, "lon": 151.1793248}, {"type": "node", "id": 2296983783, "lat": -33.8722443, "lon": 151.2251587, "tags": {"name": "Allied Mart", "shop": "convenience"}}, {"type": "node", "id": 2312210271, "lat": -33.8671738, "lon": 151.2060471, "tags": {"name": "EzyMart", "shop": "convenience", "source": "survey"}}, {"type": "node", "id": 2328788957, "lat": -33.9120263, "lon": 151.0322138, "tags": {"shop": "convenience"}}, {"type": "node", "id": 2328889331, "lat": -33.9284367, "lon": 151.0256028, "tags": {"name": "Convenient Store", "shop": "convenience"}}, {"type": "node", "id": 2340002739, "lat": -34.0780335, "lon": 151.1302883, "tags": {"shop": "convenience"}}, {"type": "node", "id": 2343303058, "lat": -33.9859175, "lon": 151.0975339, "tags": {"name": "Connells Point C-Store", "shop": "convenience"}}, {"type": "node", "id": 2365225259, "lat": -33.90187, "lon": 151.178671, "tags": {"addr:city": "Newtown", "addr:housenumber": "475", "addr:postcode": "2042", "addr:street": "King Street", "atm": "yes", "name": "Meena Convenience Store", "shop": "convenience"}}, {"type": "node", "id": 2365232604, "lat": -33.8948762, "lon": 151.1823058, "tags": {"brand": "7-Eleven", "brand:wikidata": "Q259340", "brand:wikipedia": "en:7-Eleven", "name": "7-Eleven", "shop": "convenience", "wheelchair": "no"}}, {"type": "node", "id": 2394947841, "lat": -33.905899, "lon": 151.095662, "tags": {"name": "Campsie Convenience Store", "shop": "convenience"}}, {"type": "node", "id": 2402151608, "lat": -34.0319255, "lon": 151.0577725, "tags": {"name": "The Convenient Point", "shop": "convenience", "source": "survey"}}, {"type": "node", "id": 2433097994, "lat": -33.8070797, "lon": 151.0053944, "tags": {"name": "Star Grocery", "shop": "convenience", "wheelchair": "limited"}}, {"type": "node", "id": 2446465759, "lat": -34.0534771, "lon": 151.0164829, "tags": {"shop": "convenience"}}, {"type": "node", "id": 2446465765, "lat": -34.0593325, "lon": 151.0132482, "tags": {"shop": "convenience"}}, {"type": "node", "id": 2447872385, "lat": -34.0579711, "lon": 151.027633, "tags": {"shop": "convenience"}}, {"type": "node", "id": 2503421095, "lat": -34.0462589, "lon": 151.133333}, {"type": "node", "id": 2503421101, "lat": -34.0463333, "lon": 151.1335173}, {"type": "node", "id": 2503421102, "lat": -34.0463362, "lon": 151.1332875}, {"type": "node", "id": 2503421109, "lat": -34.0464106, "lon": 151.1334718}, {"type": "node", "id": 2514755467, "lat": -33.8893825, "lon": 151.20631, "tags": {"name": "Chalmers Convenience Store", "shop": "convenience"}}, {"type": "node", "id": 2520487593, "lat": -33.809086, "lon": 151.0141443}, {"type": "node", "id": 2520487594, "lat": -33.8092639, "lon": 151.0140912}, {"type": "node", "id": 2520487596, "lat": -33.8092826, "lon": 151.0141822}, {"type": "node", "id": 2520487605, "lat": -33.8091048, "lon": 151.0142353}, {"type": "node", "id": 2521637853, "lat": -33.808629, "lon": 151.0128849}, {"type": "node", "id": 2521637856, "lat": -33.8087646, "lon": 151.0130271}, {"type": "node", "id": 2521637860, "lat": -33.8086194, "lon": 151.0130113}, {"type": "node", "id": 2521637863, "lat": -33.8087743, "lon": 151.0128986}, {"type": "node", "id": 2533093662, "lat": -33.8090933, "lon": 151.0141798}, {"type": "node", "id": 2573959531, "lat": -33.9406463, "lon": 151.2283946, "tags": {"name": "Coles Express", "shop": "convenience"}}, {"type": "node", "id": 2573960240, "lat": -33.914618, "lon": 151.2251041, "tags": {"amenity": "fuel", "brand": "Caltex", "shop": "convenience", "source": "voice"}}, {"type": "node", "id": 2594649891, "lat": -33.8808285, "lon": 151.2030419, "tags": {"brand": "7-Eleven", "brand:wikidata": "Q259340", "brand:wikipedia": "en:7-Eleven", "name": "7-Eleven", "opening_hours:signed": "no", "shop": "convenience", "website": "https://www.7eleven.com.au/"}}, {"type": "node", "id": 2611994268, "lat": -34.0067377, "lon": 151.0808665, "tags": {"shop": "convenience"}}, {"type": "node", "id": 2613244978, "lat": -34.0533995, "lon": 151.1522869, "tags": {"addr:housenumber": "53", "contact:phone": "+61 02 9544 0323", "name": "Mrs Watson's Go Vita", "organic": "yes", "shop": "convenience", "source": "survey", "source:location": "bing"}}, {"type": "node", "id": 2624097076, "lat": -33.8803168, "lon": 151.2150895}, {"type": "node", "id": 2624102234, "lat": -33.8803619, "lon": 151.2150796}, {"type": "node", "id": 2624102236, "lat": -33.8803922, "lon": 151.2152989}, {"type": "node", "id": 2682729355, "lat": -33.8172797, "lon": 151.062174, "tags": {"shop": "convenience"}}, {"type": "node", "id": 2686211019, "lat": -34.0043518, "lon": 151.0618817, "tags": {"addr:country": "AU", "addr:housenumber": "78", "addr:postcode": "2226", "addr:state": "NSW", "addr:street": "Wolger Street", "addr:suburb": "Como", "name": "Como Corner Store", "opening_hours": "Mo-Su 07:00-19:00", "shop": "convenience", "wheelchair": "limited"}}, {"type": "node", "id": 2687325197, "lat": -34.0210641, "lon": 151.0980327, "tags": {"brand": "IGA", "brand:wikidata": "Q5970945", "name": "IGA X-Press Sylvania", "shop": "convenience"}}, {"type": "node", "id": 2751782572, "lat": -33.8750285, "lon": 151.2216228, "tags": {"addr:city": "Potts Point", "addr:housenumber": "234", "addr:postcode": "2011", "addr:street": "William Street", "name": "EzyMart", "phone": "+61 2 9360 2419", "shop": "convenience", "source": "http://ezymart.businesscatalyst.com/location.html", "website": "http://ezymart.businesscatalyst.com"}}, {"type": "node", "id": 2787047326, "lat": -33.895648, "lon": 151.1757459, "tags": {"addr:city": "Newtown", "addr:housenumber": "88", "addr:postcode": "2042", "addr:street": "Chelmsford Street", "name": "4 Ways Mixed Business", "opening_hours:signed": "no", "phone": "+61 2 9557 9353", "shop": "convenience"}}, {"type": "node", "id": 2841098142, "lat": -33.9417044, "lon": 151.2389803}, {"type": "node", "id": 2841098143, "lat": -33.9417578, "lon": 151.2390393}, {"type": "node", "id": 2841098144, "lat": -33.9419855, "lon": 151.2387441}, {"type": "node", "id": 2841098145, "lat": -33.9419555, "lon": 151.238713}, {"type": "node", "id": 2841098153, "lat": -33.9419218, "lon": 151.2388255}, {"type": "node", "id": 2868017537, "lat": -33.904015, "lon": 151.1408846, "tags": {"addr:housenumber": "438", "addr:postcode": "2203", "addr:street": "New Canterbury Road", "addr:suburb": "Dulwich Hill", "shop": "convenience", "source": "survey"}}, {"type": "node", "id": 2911988522, "lat": -33.8841728, "lon": 151.1966269, "tags": {"addr:housenumber": "173-179", "addr:street": "Broadway", "name": "City Mart", "shop": "convenience"}}, {"type": "node", "id": 2917282064, "lat": -33.7914838, "lon": 151.1315944}, {"type": "node", "id": 2917282520, "lat": -33.7915595, "lon": 151.1316936}, {"type": "node", "id": 2917282523, "lat": -33.7916498, "lon": 151.1313983}, {"type": "node", "id": 2917282524, "lat": -33.7917298, "lon": 151.1315013}, {"type": "node", "id": 2938719775, "lat": -33.8914123, "lon": 151.1804739, "tags": {"addr:city": "Newtown", "addr:housenumber": "138", "addr:postcode": "2042", "addr:street": "Carillon Avenue", "shop": "convenience"}}, {"type": "node", "id": 2952224674, "lat": -33.9524256, "lon": 151.1355527, "tags": {"amenity": "fuel", "brand": "7-Eleven", "brand:wikidata": "Q259340", "name": "7-Eleven", "shop": "convenience", "source": "survey", "source:location": "extrapolation"}}, {"type": "node", "id": 2955359286, "lat": -33.8883393, "lon": 151.1976697, "tags": {"shop": "convenience"}}, {"type": "node", "id": 3104969439, "lat": -33.7977342, "lon": 151.0049718, "tags": {"addr:housenumber": "11", "addr:postcode": "2151", "addr:street": "Iron Street", "addr:suburb": "North Parramatta", "name": "North Parramatta Supermarket", "shop": "convenience"}}, {"type": "node", "id": 3157642355, "lat": -33.8322395, "lon": 151.1916243, "tags": {"shop": "convenience"}}, {"type": "node", "id": 3158864303, "lat": -33.8015348, "lon": 151.0109957, "tags": {"addr:housenumber": "40", "addr:postcode": "2151", "addr:street": "Brickfield Street", "addr:suburb": "North Parramatta", "name": "North Parramatta Convenience Store", "shop": "convenience", "source": "survey", "wheelchair": "limited"}}, {"type": "node", "id": 3273881196, "lat": -33.8869532, "lon": 151.1949044, "tags": {"shop": "convenience"}}, {"type": "node", "id": 3274290866, "lat": -33.7730569, "lon": 151.0827355, "tags": {"name": "Epping Convenience Store", "shop": "convenience", "source": "survey", "wheelchair": "no"}}, {"type": "node", "id": 3283194506, "lat": -33.8072768, "lon": 151.0909446, "tags": {"name": "Five Star Foods", "shop": "convenience", "source": "survey from train"}}, {"type": "node", "id": 3283194519, "lat": -33.8073932, "lon": 151.0908946, "tags": {"name": "Manila Mart", "shop": "convenience", "source": "survey from train"}}, {"type": "node", "id": 3387505544, "lat": -33.8087619, "lon": 151.0128965}, {"type": "node", "id": 3390271710, "lat": -33.8965876, "lon": 151.200074, "tags": {"shop": "convenience"}}, {"type": "node", "id": 3440587995, "lat": -33.9449781, "lon": 151.1849164}, {"type": "node", "id": 3440588001, "lat": -33.9449465, "lon": 151.1850496}, {"type": "node", "id": 3440588010, "lat": -33.9447458, "lon": 151.1849805}, {"type": "node", "id": 3440588028, "lat": -33.9447417, "lon": 151.1848349}, {"type": "node", "id": 3476198926, "lat": -33.8670139, "lon": 151.1945692, "tags": {"name": "EzyMart", "shop": "convenience"}}, {"type": "node", "id": 3476198927, "lat": -33.8815253, "lon": 151.2052127, "tags": {"name": "EzyMart", "shop": "convenience", "source": "extrapolation"}}, {"type": "node", "id": 3476205571, "lat": -33.870777, "lon": 151.2050119, "tags": {"name": "City Convenience Store", "opening_hours": "24/7", "shop": "convenience", "wheelchair": "no"}}, {"type": "node", "id": 3487934526, "lat": -33.9721893, "lon": 151.0949277, "tags": {"shop": "convenience"}}, {"type": "node", "id": 3494297499, "lat": -34.027866, "lon": 151.0679645, "tags": {"addr:housenumber": "70", "addr:street": "Acacia Road", "name": "One Stop Shop", "shop": "convenience"}}, {"type": "node", "id": 3494297500, "lat": -34.009339, "lon": 151.0560302, "tags": {"shop": "convenience"}}, {"type": "node", "id": 3494297516, "lat": -34.0279622, "lon": 151.0679492, "tags": {"shop": "convenience"}}, {"type": "node", "id": 3555316009, "lat": -33.8883884, "lon": 151.1640655}, {"type": "node", "id": 3555316010, "lat": -33.8885343, "lon": 151.1641829}, {"type": "node", "id": 3555316014, "lat": -33.8883782, "lon": 151.1641577}, {"type": "node", "id": 3555316016, "lat": -33.8885446, "lon": 151.1640907}, {"type": "node", "id": 3606221037, "lat": -33.9470791, "lon": 151.070383, "tags": {"name": "7-Eleven", "shop": "convenience"}}, {"type": "node", "id": 3728561647, "lat": -33.90525, "lon": 151.0418948, "tags": {"name": "7-Eleven", "shop": "convenience", "website": "https://www.7eleven.com.au/"}}, {"type": "node", "id": 3838323367, "lat": -33.8074654, "lon": 151.0849307}, {"type": "node", "id": 3838323369, "lat": -33.8073136, "lon": 151.0848342}, {"type": "node", "id": 3838323374, "lat": -33.8073182, "lon": 151.0849431}, {"type": "node", "id": 3838323383, "lat": -33.8074584, "lon": 151.0848253}, {"type": "node", "id": 3860547361, "lat": -33.8817409, "lon": 151.1402508}, {"type": "node", "id": 3860547362, "lat": -33.8815796, "lon": 151.1403304}, {"type": "node", "id": 3860547363, "lat": -33.8815196, "lon": 151.1402865}, {"type": "node", "id": 3860547364, "lat": -33.8816939, "lon": 151.1403441}, {"type": "node", "id": 3860547366, "lat": -33.8815965, "lon": 151.1401412}, {"type": "node", "id": 3860547367, "lat": -33.8816574, "lon": 151.1401934}, {"type": "node", "id": 3860547368, "lat": -33.8816053, "lon": 151.1402793}, {"type": "node", "id": 3864550561, "lat": -33.8105907, "lon": 151.177286}, {"type": "node", "id": 3864550566, "lat": -33.8107199, "lon": 151.177427}, {"type": "node", "id": 3864550569, "lat": -33.810653, "lon": 151.1774629}, {"type": "node", "id": 3864550570, "lat": -33.8106519, "lon": 151.1772527}, {"type": "node", "id": 3864554058, "lat": -33.8059967, "lon": 151.1988201}, {"type": "node", "id": 3864554059, "lat": -33.805961, "lon": 151.1987933}, {"type": "node", "id": 3864554060, "lat": -33.8060613, "lon": 151.1986297}, {"type": "node", "id": 3864554065, "lat": -33.8060836, "lon": 151.1988094}, {"type": "node", "id": 3864554066, "lat": -33.805941, "lon": 151.1986431}, {"type": "node", "id": 3879634437, "lat": -33.7909704, "lon": 150.9967478}, {"type": "node", "id": 3879634438, "lat": -33.7910275, "lon": 150.9966695}, {"type": "node", "id": 3879634439, "lat": -33.79087, "lon": 150.996645}, {"type": "node", "id": 3879634440, "lat": -33.7908993, "lon": 150.9965392}, {"type": "node", "id": 3890163874, "lat": -33.8993041, "lon": 151.169747}, {"type": "node", "id": 3890163875, "lat": -33.8993963, "lon": 151.1696955}, {"type": "node", "id": 3890163876, "lat": -33.8993593, "lon": 151.1698905}, {"type": "node", "id": 3890163877, "lat": -33.8994515, "lon": 151.169839}, {"type": "node", "id": 3910038398, "lat": -33.8650267, "lon": 151.1714131}, {"type": "node", "id": 3910038401, "lat": -33.8652555, "lon": 151.1711744}, {"type": "node", "id": 3910038407, "lat": -33.8652915, "lon": 151.1712244}, {"type": "node", "id": 3910038408, "lat": -33.8652434, "lon": 151.1712745}, {"type": "node", "id": 3910038414, "lat": -33.8651564, "lon": 151.1715035}, {"type": "node", "id": 3910038417, "lat": -33.8651195, "lon": 151.171542}, {"type": "node", "id": 3910038426, "lat": -33.8653002, "lon": 151.1713535}, {"type": "node", "id": 3910047920, "lat": -33.8624579, "lon": 151.1684533}, {"type": "node", "id": 3910047927, "lat": -33.8623911, "lon": 151.1685142}, {"type": "node", "id": 3910047928, "lat": -33.8629792, "lon": 151.1680187}, {"type": "node", "id": 3910047931, "lat": -33.8628743, "lon": 151.1681096}, {"type": "node", "id": 3910047944, "lat": -33.862831, "lon": 151.1680373}, {"type": "node", "id": 3910047947, "lat": -33.8625186, "lon": 151.1687167}, {"type": "node", "id": 3910047948, "lat": -33.8629359, "lon": 151.1679464}, {"type": "node", "id": 3910048057, "lat": -33.8625853, "lon": 151.1686557}, {"type": "node", "id": 3910340602, "lat": -33.8356379, "lon": 151.1276807}, {"type": "node", "id": 3910340628, "lat": -33.8354552, "lon": 151.1277966}, {"type": "node", "id": 3910340643, "lat": -33.835553, "lon": 151.1276146}, {"type": "node", "id": 3910340647, "lat": -33.83554, "lon": 151.1278627}, {"type": "node", "id": 3911694673, "lat": -33.8106997, "lon": 151.1773751}, {"type": "node", "id": 3911694675, "lat": -33.8106779, "lon": 151.1772356}, {"type": "node", "id": 3911694687, "lat": -33.8107152, "lon": 151.1773577}, {"type": "node", "id": 3915728058, "lat": -33.8778095, "lon": 151.1984559, "tags": {"name": "Ultimo Convenience Store", "shop": "convenience", "wheelchair": "yes"}}, {"type": "node", "id": 3915728059, "lat": -33.8790509, "lon": 151.203536, "tags": {"name": "Harbour St Convenience Store", "shop": "convenience", "wheelchair": "yes"}}, {"type": "node", "id": 3918034859, "lat": -33.8789112, "lon": 151.197108, "tags": {"name": "Wilson Convenience Store", "shop": "convenience"}}, {"type": "node", "id": 3921247969, "lat": -33.8695059, "lon": 151.2212458}, {"type": "node", "id": 3921247970, "lat": -33.8696135, "lon": 151.2212218}, {"type": "node", "id": 3921247971, "lat": -33.8694988, "lon": 151.2211925}, {"type": "node", "id": 3921247984, "lat": -33.8696069, "lon": 151.2211698}, {"type": "node", "id": 3921514875, "lat": -33.8840686, "lon": 151.2025704, "tags": {"name": "Sydney City 24Hr Convenience Store", "shop": "convenience"}}, {"type": "node", "id": 3921515057, "lat": -33.8837522, "lon": 151.2024241, "tags": {"brand": "7-Eleven", "brand:wikidata": "Q259340", "brand:wikipedia": "en:7-Eleven", "name": "7-Eleven", "shop": "convenience"}}, {"type": "node", "id": 3921515362, "lat": -33.8834807, "lon": 151.2030238, "tags": {"name": "City Convenience", "shop": "convenience"}}, {"type": "node", "id": 3922986158, "lat": -33.8762281, "lon": 151.2056562, "tags": {"addr:floor": "0", "addr:housenumber": "1/86", "addr:street": "Liverpool Street", "check_date": "2022-07-17", "level": "0", "name": "City Tobacconist", "shop": "convenience", "support": "SMS or website chat"}}, {"type": "node", "id": 3922986160, "lat": -33.8762974, "lon": 151.2047204, "tags": {"addr:housenumber": "368", "addr:street": "Sussex Street", "shop": "convenience"}}, {"type": "node", "id": 3922986557, "lat": -33.8775244, "lon": 151.2045529, "tags": {"brand": "7-Eleven", "brand:wikidata": "Q259340", "brand:wikipedia": "en:7-Eleven", "name": "7-Eleven", "shop": "convenience"}}, {"type": "node", "id": 3924598334, "lat": -33.791493, "lon": 151.1315821}, {"type": "node", "id": 3930018358, "lat": -33.8743675, "lon": 151.207891, "tags": {"brand": "7-Eleven", "brand:wikidata": "Q259340", "check_date": "2022-07-25", "level": "0", "name": "7-Eleven", "shop": "convenience", "website": "https://www.7eleven.com.au/"}}, {"type": "node", "id": 3937053954, "lat": -33.9277008, "lon": 150.9805594}, {"type": "node", "id": 3937053955, "lat": -33.9275938, "lon": 150.9804602}, {"type": "node", "id": 3937074421, "lat": -33.8290811, "lon": 151.2165651, "tags": {"shop": "convenience"}}, {"type": "node", "id": 3937105797, "lat": -33.927594, "lon": 150.9807269}, {"type": "node", "id": 3937105816, "lat": -33.927487, "lon": 150.9806277}, {"type": "node", "id": 3937105827, "lat": -33.9275573, "lon": 150.9806929}, {"type": "node", "id": 3939115349, "lat": -33.8379921, "lon": 150.9996203}, {"type": "node", "id": 3939120466, "lat": -33.8381909, "lon": 150.9996279}, {"type": "node", "id": 3939120471, "lat": -33.8381618, "lon": 150.9995394}, {"type": "node", "id": 3939120486, "lat": -33.8380212, "lon": 150.9997088}, {"type": "node", "id": 3939120490, "lat": -33.8380695, "lon": 150.9996858}, {"type": "node", "id": 3939138705, "lat": -33.7908445, "lon": 150.9966172}, {"type": "node", "id": 3939139173, "lat": -33.7963821, "lon": 150.9889348, "tags": {"name": "Coles Express", "shop": "convenience", "website": "https://www.colesexpress.com.au/"}}, {"type": "node", "id": 3941531360, "lat": -33.8749806, "lon": 151.128781}, {"type": "node", "id": 3941531362, "lat": -33.8751219, "lon": 151.1288811}, {"type": "node", "id": 3941531363, "lat": -33.8751595, "lon": 151.1288039}, {"type": "node", "id": 3941531364, "lat": -33.8750183, "lon": 151.1287039}, {"type": "node", "id": 3941531367, "lat": -33.8751068, "lon": 151.1287666}, {"type": "node", "id": 3949642057, "lat": -33.8733459, "lon": 151.2085864, "tags": {"name": "FastWay", "shop": "convenience"}}, {"type": "node", "id": 3951218958, "lat": -33.8931198, "lon": 151.1847531, "tags": {"name": "City Convenience", "shop": "convenience"}}, {"type": "node", "id": 3951218962, "lat": -33.8945874, "lon": 151.1821544, "tags": {"name": "EzyMart", "shop": "convenience"}}, {"type": "node", "id": 3951219357, "lat": -33.8932103, "lon": 151.1836348, "tags": {"name": "City Convenience", "shop": "convenience"}}, {"type": "node", "id": 3977391961, "lat": -33.8744455, "lon": 151.2051763, "tags": {"name": "City Convenience", "shop": "convenience"}}, {"type": "node", "id": 3977391967, "lat": -33.8755855, "lon": 151.2062875, "tags": {"name": "City Convenience", "shop": "convenience"}}, {"type": "node", "id": 3979136661, "lat": -33.8742094, "lon": 151.2041629, "tags": {"check_date:opening_hours": "2022-09-07", "name": "Millennium Convenience Store", "opening_hours:signed": "no", "shop": "convenience"}}, {"type": "node", "id": 3979136669, "lat": -33.8765352, "lon": 151.2077682, "tags": {"name": "City Convenience", "shop": "convenience"}}, {"type": "node", "id": 3979136670, "lat": -33.8768155, "lon": 151.2080695, "tags": {"name": "EzyMart", "shop": "convenience"}}, {"type": "node", "id": 4003723740, "lat": -33.9015133, "lon": 151.2146758}, {"type": "node", "id": 4003723744, "lat": -33.9016266, "lon": 151.2146359}, {"type": "node", "id": 4003723765, "lat": -33.9015899, "lon": 151.2144068}, {"type": "node", "id": 4003723779, "lat": -33.9016282, "lon": 151.2146492}, {"type": "node", "id": 4003723788, "lat": -33.9014746, "lon": 151.2144356}, {"type": "node", "id": 4009242105, "lat": -34.0329586, "lon": 151.0852685}, {"type": "node", "id": 4009242108, "lat": -34.0330192, "lon": 151.0849938}, {"type": "node", "id": 4009242131, "lat": -34.0330575, "lon": 151.0852468}, {"type": "node", "id": 4009242133, "lat": -34.0329203, "lon": 151.0850155}, {"type": "node", "id": 4017521495, "lat": -33.883849, "lon": 151.2084539, "tags": {"brand": "Tobacco Station", "shop": "convenience"}}, {"type": "node", "id": 4017563991, "lat": -33.8850127, "lon": 151.207348, "tags": {"name": "City Convenience Store", "shop": "convenience"}}, {"type": "node", "id": 4018644866, "lat": -33.8140662, "lon": 151.0549548}, {"type": "node", "id": 4018644868, "lat": -33.8138078, "lon": 151.0548703}, {"type": "node", "id": 4018644879, "lat": -33.8138067, "lon": 151.0548918}, {"type": "node", "id": 4018644882, "lat": -33.8138234, "lon": 151.054991}, {"type": "node", "id": 4018667592, "lat": -33.8140476, "lon": 151.0550402}, {"type": "node", "id": 4018667607, "lat": -33.8140629, "lon": 151.0549226}, {"type": "node", "id": 4019502717, "lat": -33.9434119, "lon": 151.0344905}, {"type": "node", "id": 4019502721, "lat": -33.9433799, "lon": 151.0345472}, {"type": "node", "id": 4019502726, "lat": -33.9434087, "lon": 151.0343899}, {"type": "node", "id": 4019502729, "lat": -33.9434133, "lon": 151.0344447}, {"type": "node", "id": 4019502735, "lat": -33.943362, "lon": 151.034579}, {"type": "node", "id": 4019502744, "lat": -33.9432563, "lon": 151.034422}, {"type": "node", "id": 4019502745, "lat": -33.9433364, "lon": 151.0345853}, {"type": "node", "id": 4019502746, "lat": -33.9432808, "lon": 151.0345991}, {"type": "node", "id": 4019502760, "lat": -33.9434165, "lon": 151.0344824}, {"type": "node", "id": 4023189089, "lat": -33.8711966, "lon": 151.2095933, "tags": {"name": "Pino's Cafe and Convenience", "shop": "convenience"}}, {"type": "node", "id": 4027001748, "lat": -33.88301, "lon": 151.2069407}, {"type": "node", "id": 4027001755, "lat": -33.8830439, "lon": 151.206916}, {"type": "node", "id": 4027001764, "lat": -33.8830471, "lon": 151.2070092}, {"type": "node", "id": 4027001770, "lat": -33.8831124, "lon": 151.2070423}, {"type": "node", "id": 4027062067, "lat": -33.8830595, "lon": 151.2070241}, {"type": "node", "id": 4027062068, "lat": -33.8830768, "lon": 151.2070338}, {"type": "node", "id": 4027062069, "lat": -33.8830907, "lon": 151.2070377}, {"type": "node", "id": 4027064432, "lat": -33.8834919, "lon": 151.2074862}, {"type": "node", "id": 4027064433, "lat": -33.8835222, "lon": 151.2074626}, {"type": "node", "id": 4027167691, "lat": -33.883563, "lon": 151.2076185}, {"type": "node", "id": 4027167692, "lat": -33.8835933, "lon": 151.207595}, {"type": "node", "id": 4027321792, "lat": -33.87914, "lon": 151.2064328, "tags": {"name": "City Convenience Store", "opening_hours:signed": "no", "shop": "convenience"}}, {"type": "node", "id": 4027321890, "lat": -33.8797516, "lon": 151.2068117, "tags": {"addr:housenumber": "453", "addr:street": "Pitt Street", "name": "City Convenience Store", "shop": "convenience"}}, {"type": "node", "id": 4036222091, "lat": -33.8584768, "lon": 151.2033849, "tags": {"name": "The Rocks Store", "shop": "convenience"}}, {"type": "node", "id": 4036222199, "lat": -33.8632609, "lon": 151.203843, "tags": {"name": "City Convenience Store", "shop": "convenience"}}, {"type": "node", "id": 4040979261, "lat": -33.919756, "lon": 151.0668275}, {"type": "node", "id": 4040979265, "lat": -33.9195603, "lon": 151.0670205}, {"type": "node", "id": 4040979286, "lat": -33.9196526, "lon": 151.0670762}, {"type": "node", "id": 4040979592, "lat": -33.9195824, "lon": 151.0669674}, {"type": "node", "id": 4040979604, "lat": -33.919665, "lon": 151.0667726}, {"type": "node", "id": 4040979608, "lat": -33.919652, "lon": 151.066804}, {"type": "node", "id": 4055969199, "lat": -33.8719822, "lon": 151.2229579, "tags": {"shop": "convenience"}}, {"type": "node", "id": 4055985403, "lat": -33.872271, "lon": 151.2228743, "tags": {"name": "Mini Mart", "shop": "convenience"}}, {"type": "node", "id": 4057788793, "lat": -33.8702235, "lon": 151.2039445, "tags": {"name": "7/24", "shop": "convenience", "wheelchair": "yes"}}, {"type": "node", "id": 4057788797, "lat": -33.8731667, "lon": 151.2040078, "tags": {"name": "City Mart", "shop": "convenience"}}, {"type": "node", "id": 4071269690, "lat": -33.8841683, "lon": 151.1955741, "tags": {"name": "Broadway Convenience", "shop": "convenience"}}, {"type": "node", "id": 4104779817, "lat": -33.8919045, "lon": 151.2130027}, {"type": "node", "id": 4104779825, "lat": -33.8916898, "lon": 151.2130423}, {"type": "node", "id": 4104779827, "lat": -33.8919167, "lon": 151.2130988}, {"type": "node", "id": 4104779828, "lat": -33.891702, "lon": 151.2131384}, {"type": "node", "id": 4242639779, "lat": -33.847677, "lon": 151.0729874, "tags": {"name": "EzyMart", "shop": "convenience", "wheelchair": "yes"}}, {"type": "node", "id": 4242649425, "lat": -33.8764501, "lon": 151.2094042, "tags": {"brand": "7-Eleven", "brand:wikidata": "Q259340", "brand:wikipedia": "en:7-Eleven", "name": "7-Eleven", "shop": "convenience"}}, {"type": "node", "id": 4242649427, "lat": -33.8788877, "lon": 151.20732, "tags": {"brand": "7-Eleven", "brand:wikidata": "Q259340", "name": "7-Eleven", "shop": "convenience", "website": "https://www.7eleven.com.au/"}}, {"type": "node", "id": 4242650074, "lat": -33.8862537, "lon": 151.208281, "tags": {"brand": "7-Eleven", "brand:wikidata": "Q259340", "brand:wikipedia": "en:7-Eleven", "name": "7-Eleven", "shop": "convenience"}}, {"type": "node", "id": 4308867590, "lat": -33.8635575, "lon": 151.2076466, "tags": {"addr:city": "Sydney", "addr:housenumber": "234", "addr:postcode": "2000", "addr:street": "George Street", "amenity": "atm", "currency:XBT": "yes", "name": "City Convenience Store & BitRocket Bitcoin ATM", "opening_hours": "24/7", "operator": "BitRocket", "shop": "convenience"}}, {"type": "node", "id": 4314399992, "lat": -33.8816463, "lon": 151.2088365, "tags": {"brand": "7-Eleven", "brand:wikidata": "Q259340", "brand:wikipedia": "en:7-Eleven", "name": "7-Eleven", "opening_hours": "24/7", "shop": "convenience"}}, {"type": "node", "id": 4317710021, "lat": -33.829897, "lon": 151.0763385, "tags": {"name": "EzyMart Wentworth Point", "opening_hours": "Mo-Su 07:00-24:00", "shop": "convenience"}}, {"type": "node", "id": 4353585190, "lat": -33.8389657, "lon": 151.2089005, "tags": {"brand": "7-Eleven", "brand:wikidata": "Q259340", "brand:wikipedia": "en:7-Eleven", "name": "7-Eleven", "shop": "convenience"}}, {"type": "node", "id": 4365591725, "lat": -33.8195408, "lon": 151.0209466}, {"type": "node", "id": 4365591733, "lat": -33.8196772, "lon": 151.0211444}, {"type": "node", "id": 4365591756, "lat": -33.8195886, "lon": 151.0211568}, {"type": "node", "id": 4365591779, "lat": -33.8195582, "lon": 151.0211267}, {"type": "node", "id": 4365591992, "lat": -33.8196564, "lon": 151.0209304}, {"type": "node", "id": 4383597706, "lat": -33.7851216, "lon": 151.043611}, {"type": "node", "id": 4383597708, "lat": -33.7850535, "lon": 151.0435613}, {"type": "node", "id": 4383597709, "lat": -33.785048, "lon": 151.0435922}, {"type": "node", "id": 4383597710, "lat": -33.7850655, "lon": 151.0434932}, {"type": "node", "id": 4383597711, "lat": -33.7851594, "lon": 151.0433965}, {"type": "node", "id": 4383597712, "lat": -33.7850859, "lon": 151.0433777}, {"type": "node", "id": 4385170894, "lat": -33.8867399, "lon": 151.0709794}, {"type": "node", "id": 4385170896, "lat": -33.8881004, "lon": 151.074212}, {"type": "node", "id": 4385170897, "lat": -33.8881624, "lon": 151.0743388}, {"type": "node", "id": 4385170899, "lat": -33.8868099, "lon": 151.0709647}, {"type": "node", "id": 4385170904, "lat": -33.8866789, "lon": 151.0708678}, {"type": "node", "id": 4385170909, "lat": -33.8868587, "lon": 151.0709544}, {"type": "node", "id": 4385170911, "lat": -33.8879917, "lon": 151.0744599}, {"type": "node", "id": 4385170916, "lat": -33.8868412, "lon": 151.0708336}, {"type": "node", "id": 4385170917, "lat": -33.8879297, "lon": 151.0743331}, {"type": "node", "id": 4385170918, "lat": -33.8866914, "lon": 151.0709541}, {"type": "node", "id": 4386171593, "lat": -33.9287162, "lon": 151.1872199, "tags": {"name": "Sydney Runway Convenience Store", "name:en": "Sydney Runway Convenience Store", "shop": "convenience"}}, {"type": "node", "id": 4389219224, "lat": -33.8813716, "lon": 151.1965512}, {"type": "node", "id": 4389219226, "lat": -33.8815121, "lon": 151.1966328}, {"type": "node", "id": 4389219228, "lat": -33.8814134, "lon": 151.1964406}, {"type": "node", "id": 4389219234, "lat": -33.8815545, "lon": 151.1965222}, {"type": "node", "id": 4420553822, "lat": -33.7969013, "lon": 151.1810051}, {"type": "node", "id": 4420553826, "lat": -33.7969183, "lon": 151.1809481}, {"type": "node", "id": 4420553830, "lat": -33.7969331, "lon": 151.1810058}, {"type": "node", "id": 4420553841, "lat": -33.7969998, "lon": 151.1810087}, {"type": "node", "id": 4420553866, "lat": -33.7970398, "lon": 151.1810089}, {"type": "node", "id": 4420553876, "lat": -33.7970708, "lon": 151.1810101}, {"type": "node", "id": 4420553879, "lat": -33.7970716, "lon": 151.1809498}, {"type": "node", "id": 4432280490, "lat": -33.8318448, "lon": 151.1918716}, {"type": "node", "id": 4432280491, "lat": -33.8318536, "lon": 151.1918189}, {"type": "node", "id": 4453004730, "lat": -33.7969108, "lon": 151.1809733, "tags": {"entrance": "yes", "indoor": "yes", "level": "-1"}}, {"type": "node", "id": 4460994257, "lat": -33.7984001, "lon": 151.1793368}, {"type": "node", "id": 4460994258, "lat": -33.7984138, "lon": 151.1793432}, {"type": "node", "id": 4474378301, "lat": -33.7969648, "lon": 151.1810082}, {"type": "node", "id": 4476307067, "lat": -33.7969262, "lon": 151.1802578}, {"type": "node", "id": 4476307070, "lat": -33.7969653, "lon": 151.1801307}, {"type": "node", "id": 4476307080, "lat": -33.7970346, "lon": 151.1801652}, {"type": "node", "id": 4481076289, "lat": -33.866353, "lon": 151.2098945, "tags": {"name": "City Convenience Store", "shop": "convenience"}}, {"type": "node", "id": 4542920998, "lat": -33.9366961, "lon": 151.1658501, "tags": {"name": "WHS Smith", "name:en": "WHS Smith", "shop": "convenience"}}, {"type": "node", "id": 4547807512, "lat": -33.8826681, "lon": 150.9985001, "tags": {"name": "Dalja", "name:en": "Dalja", "shop": "convenience"}}, {"type": "node", "id": 4547840896, "lat": -33.8829234, "lon": 151.0004436, "tags": {"name": "Hong Fong", "name:en": "Hong Fong", "shop": "convenience"}}, {"type": "node", "id": 4547853392, "lat": -33.882984, "lon": 151.0009125, "tags": {"name": "Newsagency", "name:en": "Newsagency", "shop": "convenience"}}, {"type": "node", "id": 4547862690, "lat": -33.883133, "lon": 151.0018821, "tags": {"name": "Tak Tobacco & Gift", "name:en": "Tak Tobacco & Gift", "shop": "convenience"}}, {"type": "node", "id": 4547863189, "lat": -33.8833013, "lon": 151.0010231, "tags": {"name": "TSG", "name:en": "TSG", "shop": "convenience"}}, {"type": "node", "id": 4548525697, "lat": -33.9362165, "lon": 151.1675644, "tags": {"name": "Whs Smith", "name:en": "Whs Smith", "shop": "convenience"}}, {"type": "node", "id": 4548861569, "lat": -33.7748419, "lon": 151.0796819}, {"type": "node", "id": 4548861570, "lat": -33.7748317, "lon": 151.0797427}, {"type": "node", "id": 4548861571, "lat": -33.7749484, "lon": 151.0797668}, {"type": "node", "id": 4548861572, "lat": -33.7749592, "lon": 151.0797163}, {"type": "node", "id": 4549455185, "lat": -33.7756653, "lon": 151.0517592}, {"type": "node", "id": 4549455187, "lat": -33.7757785, "lon": 151.0517686}, {"type": "node", "id": 4549455188, "lat": -33.7757822, "lon": 151.0517036}, {"type": "node", "id": 4549456489, "lat": -33.77567, "lon": 151.0516765}, {"type": "node", "id": 4571754876, "lat": -33.8118056, "lon": 151.0164174, "tags": {"addr:city": "Parramatta", "addr:housenumber": "1", "addr:postcode": "2150", "addr:street": "Gore Street", "name": "Day Day Market", "shop": "convenience"}}, {"type": "node", "id": 4598865260, "lat": -33.8838942, "lon": 151.1508472}, {"type": "node", "id": 4598865264, "lat": -33.8839747, "lon": 151.1508546}, {"type": "node", "id": 4598865265, "lat": -33.8839849, "lon": 151.1506943}, {"type": "node", "id": 4613484142, "lat": -33.7757033, "lon": 151.0516973}, {"type": "node", "id": 4613484143, "lat": -33.7757042, "lon": 151.0516794}, {"type": "node", "id": 4727129891, "lat": -33.9103724, "lon": 151.22278, "tags": {"brand": "7-Eleven", "brand:wikidata": "Q259340", "brand:wikipedia": "en:7-Eleven", "name": "7-Eleven", "name:en": "7-Eleven", "shop": "convenience", "website": "https://www.7eleven.com.au/"}}, {"type": "node", "id": 4737565329, "lat": -33.8662536, "lon": 151.2064524, "tags": {"brand": "7-Eleven", "brand:wikidata": "Q259340", "brand:wikipedia": "en:7-Eleven", "name": "7-Eleven", "name:en": "7-Eleven", "opening_hours": "24/7", "shop": "convenience", "website": "https://www.7eleven.com.au/"}}, {"type": "node", "id": 4739118624, "lat": -33.8615089, "lon": 151.2112831, "tags": {"level": "0", "name": "Opera Convenience Store", "opening_hours": "24/7", "shop": "convenience"}}, {"type": "node", "id": 4742507021, "lat": -33.7980409, "lon": 151.2868099, "tags": {"brand": "7-Eleven", "brand:wikidata": "Q259340", "brand:wikipedia": "en:7-Eleven", "name": "7-Eleven", "name:en": "7-Eleven", "opening_hours": "24/7", "shop": "convenience"}}, {"type": "node", "id": 4742555326, "lat": -33.7964936, "lon": 151.2876544, "tags": {"addr:housenumber": "45", "name": "Beach Mart", "name:en": "Beach Mart", "shop": "convenience"}}, {"type": "node", "id": 4755801401, "lat": -33.8317875, "lon": 151.1918576}, {"type": "node", "id": 4755801402, "lat": -33.8317949, "lon": 151.1918052}, {"type": "node", "id": 4770371292, "lat": -33.8200944, "lon": 151.2012052}, {"type": "node", "id": 4770371293, "lat": -33.8200031, "lon": 151.2012696}, {"type": "node", "id": 4770371294, "lat": -33.8200162, "lon": 151.2011744}, {"type": "node", "id": 4770371296, "lat": -33.8199941, "lon": 151.2013313}, {"type": "node", "id": 4770371297, "lat": -33.8199273, "lon": 151.2012428}, {"type": "node", "id": 4770371300, "lat": -33.820061, "lon": 151.2013447}, {"type": "node", "id": 4770371301, "lat": -33.819944, "lon": 151.2011489}, {"type": "node", "id": 4780695492, "lat": -33.880189, "lon": 151.2066519}, {"type": "node", "id": 4780695493, "lat": -33.8802051, "lon": 151.2067321}, {"type": "node", "id": 4780695494, "lat": -33.880108, "lon": 151.2067604}, {"type": "node", "id": 4780695495, "lat": -33.8800919, "lon": 151.2066802}, {"type": "node", "id": 4782224260, "lat": -33.7970163, "lon": 151.1802424}, {"type": "node", "id": 4812702421, "lat": -33.8767204, "lon": 151.2093007, "tags": {"name": "City Convenience", "name:en": "City Convenience", "shop": "convenience"}}, {"type": "node", "id": 4813090221, "lat": -33.8829706, "lon": 151.2036029, "tags": {"brand": "7-Eleven", "brand:wikidata": "Q259340", "brand:wikipedia": "en:7-Eleven", "name": "7-Eleven", "name:en": "7-Eleven", "opening_hours:signed": "no", "shop": "convenience"}}, {"type": "node", "id": 4860759287, "lat": -33.905964, "lon": 151.1809667, "tags": {"shop": "convenience"}}, {"type": "node", "id": 4860764931, "lat": -33.9056141, "lon": 151.1807614, "tags": {"addr:city": "Newtown", "addr:housenumber": "591", "addr:street": "King Street", "name": "Fiji Market", "shop": "convenience"}}, {"type": "node", "id": 4860768413, "lat": -33.9050219, "lon": 151.1804784, "tags": {"addr:city": "Newtown", "addr:housenumber": "575", "addr:street": "King Street", "name": "One Stop Fruit Shop", "shop": "convenience"}}, {"type": "node", "id": 4860777368, "lat": -33.9028336, "lon": 151.1792526, "tags": {"name": "Global Corner Convenience Store", "shop": "convenience"}}, {"type": "node", "id": 4870739797, "lat": -33.8794362, "lon": 151.2150488, "tags": {"level": "0", "name": "Ezimart", "opening_hours": "24/7", "shop": "convenience"}}, {"type": "node", "id": 4933504052, "lat": -33.8615753, "lon": 151.2070957, "tags": {"name": "Harrington Convenient Store", "shop": "convenience"}}, {"type": "node", "id": 4943300348, "lat": -33.8451928, "lon": 151.0367051, "tags": {"shop": "convenience", "source": "survey"}}, {"type": "node", "id": 4981441636, "lat": -33.8680859, "lon": 151.099696}, {"type": "node", "id": 4981441637, "lat": -33.8678477, "lon": 151.0998054}, {"type": "node", "id": 4981441640, "lat": -33.8680481, "lon": 151.0995765}, {"type": "node", "id": 4981441642, "lat": -33.8678098, "lon": 151.0996858}, {"type": "node", "id": 4983941350, "lat": -33.9081878, "lon": 151.2470064, "tags": {"brand": "Coles Express", "brand:wikidata": "Q5144653", "name": "Coles Express", "operator": "Coles Group", "operator:wikidata": "Q1339055", "shop": "convenience"}}, {"type": "node", "id": 4983992022, "lat": -33.8852114, "lon": 151.2740973, "tags": {"addr:housenumber": "85", "addr:postcode": "2026", "addr:street": "Glenayr Avenue", "check_date": "2022-07-18", "internet_access": "no", "level": "0", "name": "Lemon Tree Grocer", "opening_hours": "Mo-Fr 07:00-21:00; Sa,Su 07:00-20:00", "payment:mastercard": "yes", "payment:visa": "yes", "shop": "convenience", "wheelchair": "yes"}}, {"type": "node", "id": 4986210223, "lat": -33.8874273, "lon": 151.2717285, "tags": {"addr:housenumber": "133/137", "addr:postcode": "2026", "addr:street": "Glenayr Avenue", "name": "Glenayr Convenience Store", "opening_hours": "Mo-Su 06:30-01:30", "phone": "+61293650945", "shop": "convenience", "wheelchair": "no"}}, {"type": "node", "id": 5063108432, "lat": -33.7849762, "lon": 151.1290563}, {"type": "node", "id": 5063108433, "lat": -33.7849066, "lon": 151.1292692}, {"type": "node", "id": 5063108434, "lat": -33.7849404, "lon": 151.129096}, {"type": "node", "id": 5063108435, "lat": -33.7848504, "lon": 151.1291957}, {"type": "node", "id": 5063108438, "lat": -33.7850325, "lon": 151.1291298}, {"type": "node", "id": 5116509475, "lat": -33.8038045, "lon": 151.1788501}, {"type": "node", "id": 5116509476, "lat": -33.8038112, "lon": 151.178771}, {"type": "node", "id": 5116509477, "lat": -33.8036663, "lon": 151.1787562}, {"type": "node", "id": 5116509478, "lat": -33.8036485, "lon": 151.1789305}, {"type": "node", "id": 5116509479, "lat": -33.8037164, "lon": 151.1789386}, {"type": "node", "id": 5134254843, "lat": -33.8779912, "lon": 151.2094766, "tags": {"brand": "IGA", "brand:wikidata": "Q5970945", "name": "IGA Express", "shop": "convenience"}}, {"type": "node", "id": 5182932421, "lat": -33.8936147, "lon": 151.261018, "tags": {"addr:housenumber": "79", "addr:street": "Bondi Road", "delivery": "only", "name": "Milkrun", "shop": "convenience"}}, {"type": "node", "id": 5237774299, "lat": -33.8804006, "lon": 151.204364, "tags": {"shop": "convenience"}}, {"type": "node", "id": 5240187412, "lat": -33.880741, "lon": 151.2051164, "tags": {"name": "EzyMart", "shop": "convenience"}}, {"type": "node", "id": 5262848481, "lat": -34.0346448, "lon": 151.0711903, "tags": {"name": "Lucky 7", "shop": "convenience"}}, {"type": "node", "id": 5264061989, "lat": -34.0093784, "lon": 151.0759664, "tags": {"shop": "convenience"}}, {"type": "node", "id": 5299091750, "lat": -33.9000037, "lon": 151.1781595}, {"type": "node", "id": 5299091753, "lat": -33.8999202, "lon": 151.1781273}, {"type": "node", "id": 5299091754, "lat": -33.8998913, "lon": 151.1784345}, {"type": "node", "id": 5299091755, "lat": -33.8999737, "lon": 151.1784445}, {"type": "node", "id": 5351907089, "lat": -33.8657506, "lon": 151.208195, "tags": {"name": "City Convenience Store", "shop": "convenience"}}, {"type": "node", "id": 5355604900, "lat": -33.8423613, "lon": 151.2051808, "tags": {"shop": "convenience"}}, {"type": "node", "id": 5359695862, "lat": -33.8474266, "lon": 151.2135584, "tags": {"name": "EzyMart", "shop": "convenience"}}, {"type": "node", "id": 5362541144, "lat": -33.8434573, "lon": 151.2131183, "tags": {"name": "EzyMart", "shop": "convenience"}}, {"type": "node", "id": 5367304323, "lat": -33.8803328, "lon": 151.2151889}, {"type": "node", "id": 5367304324, "lat": -33.8803425, "lon": 151.2151862}, {"type": "node", "id": 5367304325, "lat": -33.8803618, "lon": 151.2153063}, {"type": "node", "id": 5404621059, "lat": -33.9519472, "lon": 151.1382334, "tags": {"name": "Rockdale Food Store", "shop": "convenience"}}, {"type": "node", "id": 5413554921, "lat": -33.883749, "lon": 151.2162408, "tags": {"addr:street": "Bourke Street", "delivery": "only", "name": "Milkrun", "shop": "convenience", "website": "https://www.milk.run/"}}, {"type": "node", "id": 5416125725, "lat": -33.8839044, "lon": 151.1506869}, {"type": "node", "id": 5420168512, "lat": -33.8839768, "lon": 151.1508219}, {"type": "node", "id": 5453777540, "lat": -33.8707666, "lon": 151.0923909}, {"type": "node", "id": 5453777541, "lat": -33.8707605, "lon": 151.0924502}, {"type": "node", "id": 5453777542, "lat": -33.8706682, "lon": 151.0925299}, {"type": "node", "id": 5453777543, "lat": -33.8705884, "lon": 151.0923957}, {"type": "node", "id": 5453777544, "lat": -33.8707081, "lon": 151.0922925}, {"type": "node", "id": 5479886681, "lat": -33.8881209, "lon": 151.0904493}, {"type": "node", "id": 5485919742, "lat": -33.7879854, "lon": 151.1795689}, {"type": "node", "id": 5546724682, "lat": -33.8673909, "lon": 151.1052468}, {"type": "node", "id": 5546724687, "lat": -33.8674085, "lon": 151.1053382}, {"type": "node", "id": 5546724688, "lat": -33.8675476, "lon": 151.1052033}, {"type": "node", "id": 5546724691, "lat": -33.8675651, "lon": 151.1052947}, {"type": "node", "id": 5555260512, "lat": -33.8544907, "lon": 151.1573882, "tags": {"brand": "Coles Express", "brand:wikidata": "Q5144653", "brand:wikipedia": "en:Coles Express", "name": "Coles Express", "shop": "convenience", "website": "https://www.colesexpress.com.au/"}}, {"type": "node", "id": 5555622640, "lat": -33.8776572, "lon": 151.2217063, "tags": {"name": "QE Foodstores", "shop": "convenience"}}, {"type": "node", "id": 5555622699, "lat": -33.876333, "lon": 151.2220047, "tags": {"name": "Ala Mini Mart", "shop": "convenience"}}, {"type": "node", "id": 5558419206, "lat": -33.8830998, "lon": 151.2204734}, {"type": "node", "id": 5558419207, "lat": -33.8831228, "lon": 151.2204331}, {"type": "node", "id": 5558419214, "lat": -33.883107, "lon": 151.2204794}, {"type": "node", "id": 5558419215, "lat": -33.883067, "lon": 151.2205327}, {"type": "node", "id": 5558419216, "lat": -33.8830538, "lon": 151.2205198}, {"type": "node", "id": 5558419217, "lat": -33.883055, "lon": 151.2204803}, {"type": "node", "id": 5558419218, "lat": -33.8831385, "lon": 151.2203705}, {"type": "node", "id": 5558419219, "lat": -33.8832481, "lon": 151.2203461}, {"type": "node", "id": 5558419220, "lat": -33.8832546, "lon": 151.2203985}, {"type": "node", "id": 5558420521, "lat": -33.8831504, "lon": 151.2204208}, {"type": "node", "id": 5558420522, "lat": -33.883136, "lon": 151.2204441}, {"type": "node", "id": 5583338019, "lat": -33.8079592, "lon": 151.1850086, "tags": {"cuisine": "japanese", "name": "Anegara Japanese Groceries", "shop": "convenience"}}, {"type": "node", "id": 5590249686, "lat": -33.9151187, "lon": 151.2408798}, {"type": "node", "id": 5590249687, "lat": -33.9150517, "lon": 151.2409004}, {"type": "node", "id": 5590249688, "lat": -33.9151059, "lon": 151.2408044}, {"type": "node", "id": 5590249689, "lat": -33.9150387, "lon": 151.2408183}, {"type": "node", "id": 5603655690, "lat": -33.8893476, "lon": 151.208171, "tags": {"name": "Seven Day Food", "shop": "convenience"}}, {"type": "node", "id": 5608270088, "lat": -33.888852, "lon": 151.2103214, "tags": {"shop": "convenience"}}, {"type": "node", "id": 5608349139, "lat": -33.8909216, "lon": 151.2130814, "tags": {"name": "Convenience Plus", "shop": "convenience"}}, {"type": "node", "id": 5609320622, "lat": -33.8901611, "lon": 151.2088855, "tags": {"name": "Fatima's Mini Mart", "shop": "convenience"}}, {"type": "node", "id": 5620988650, "lat": -33.9038836, "lon": 151.2431193, "tags": {"name": "Centennial MiniMart", "opening_hours:signed": "no", "shop": "convenience"}}, {"type": "node", "id": 5625769721, "lat": -34.0204057, "lon": 151.1220362}, {"type": "node", "id": 5625769722, "lat": -34.0204841, "lon": 151.1220204}, {"type": "node", "id": 5625769723, "lat": -34.0204614, "lon": 151.1218563}, {"type": "node", "id": 5625769724, "lat": -34.0203829, "lon": 151.1218721}, {"type": "node", "id": 5630122348, "lat": -33.9169534, "lon": 151.2487165}, {"type": "node", "id": 5630122349, "lat": -33.9168977, "lon": 151.2487277}, {"type": "node", "id": 5630122350, "lat": -33.9168646, "lon": 151.248488}, {"type": "node", "id": 5630122351, "lat": -33.9169203, "lon": 151.2484769}, {"type": "node", "id": 5641254142, "lat": -33.9153518, "lon": 151.2276864, "tags": {"access": "permit", "description": "Previously Coco Cubano", "name": "Arc Food Hub", "opening_hours": "Mo,We 02:00-16:00; Fr 11:00-13:00; \"By Appointment\"", "shop": "convenience", "website": "https://www.arc.unsw.edu.au/help/food-hub"}}, {"type": "node", "id": 5674498158, "lat": -33.874073, "lon": 151.2230685, "tags": {"name": "EzyMart", "shop": "convenience"}}, {"type": "node", "id": 5708242236, "lat": -33.9086235, "lon": 151.1641449, "tags": {"shop": "convenience"}}, {"type": "node", "id": 5710651328, "lat": -33.8689144, "lon": 151.1957614, "tags": {"name": "City Essentials", "shop": "convenience"}}, {"type": "node", "id": 5740591203, "lat": -33.8924116, "lon": 151.2020379, "tags": {"name": "Redfern Convenience", "shop": "convenience"}}, {"type": "node", "id": 5748633428, "lat": -33.8774171, "lon": 151.2166631, "tags": {"shop": "convenience"}}, {"type": "node", "id": 5757328497, "lat": -33.8773685, "lon": 151.2255012, "tags": {"name": "Darlo General", "shop": "convenience"}}, {"type": "node", "id": 5757884117, "lat": -33.8793924, "lon": 151.2237163, "tags": {"shop": "convenience"}}, {"type": "node", "id": 5759881022, "lat": -33.7953999, "lon": 151.1853879, "tags": {"name": "88 Convenience Store", "opening_hours:signed": "no", "shop": "convenience", "wheelchair": "yes"}}, {"type": "node", "id": 5761127565, "lat": -33.9180632, "lon": 151.0379427, "tags": {"name": "South Terrace Grocer", "shop": "convenience"}}, {"type": "node", "id": 5761195533, "lat": -33.9207626, "lon": 151.0386754}, {"type": "node", "id": 5761195534, "lat": -33.9206093, "lon": 151.0389428}, {"type": "node", "id": 5774253624, "lat": -33.8529578, "lon": 151.18152}, {"type": "node", "id": 5774253625, "lat": -33.852989, "lon": 151.1814656}, {"type": "node", "id": 5774253626, "lat": -33.853009, "lon": 151.1814616}, {"type": "node", "id": 5774253627, "lat": -33.8531829, "lon": 151.1816061}, {"type": "node", "id": 5774253628, "lat": -33.8531437, "lon": 151.1816745}, {"type": "node", "id": 5774855697, "lat": -33.9215715, "lon": 151.2266546, "tags": {"name": "Jasmine Asia Market", "shop": "convenience"}}, {"type": "node", "id": 5777928072, "lat": -33.9678664, "lon": 151.10542, "tags": {"name": "Lokmanka Supermarket", "shop": "convenience"}}, {"type": "node", "id": 5778687227, "lat": -33.9666035, "lon": 151.1025327, "tags": {"name": "Welcome Asian Supermarket", "shop": "convenience"}}, {"type": "node", "id": 5781013271, "lat": -33.9647411, "lon": 151.099125, "tags": {"brand": "Coles Express", "brand:wikidata": "Q5144653", "brand:wikipedia": "en:Coles Express", "name": "Coles Express", "operator": "Coles Group", "operator:wikidata": "Q1339055", "shop": "convenience"}}, {"type": "node", "id": 5797326956, "lat": -33.9061541, "lon": 151.2116595, "tags": {"name": "New One One Supermarket", "opening_hours": "Mo-Su 09:30-23:00", "shop": "convenience"}}, {"type": "node", "id": 5826043076, "lat": -33.9453709, "lon": 151.1399609, "tags": {"name": "Kamal's Grocery", "shop": "convenience"}}, {"type": "node", "id": 5830969486, "lat": -33.8645621, "lon": 151.1691831, "tags": {"name": "FoodWorks", "shop": "convenience"}}, {"type": "node", "id": 5836144462, "lat": -34.0505142, "lon": 151.1511228}, {"type": "node", "id": 5836144463, "lat": -34.0505575, "lon": 151.1512956}, {"type": "node", "id": 5836144464, "lat": -34.0504735, "lon": 151.1513298}, {"type": "node", "id": 5836144465, "lat": -34.0504452, "lon": 151.1512156}, {"type": "node", "id": 5836144466, "lat": -34.0503692, "lon": 151.1512274}, {"type": "node", "id": 5836144467, "lat": -34.0503577, "lon": 151.1511825}, {"type": "node", "id": 5842632915, "lat": -33.8936641, "lon": 151.164069, "tags": {"name": "Stanmore Supermarket", "shop": "convenience"}}, {"type": "node", "id": 5844879427, "lat": -33.8864678, "lon": 151.177142, "tags": {"name": "Camperdown Grocer", "shop": "convenience"}}, {"type": "node", "id": 5856432036, "lat": -33.8195933, "lon": 150.9890384}, {"type": "node", "id": 5856440743, "lat": -33.8194201, "lon": 150.9890063}, {"type": "node", "id": 5856440744, "lat": -33.8195626, "lon": 150.9892776}, {"type": "node", "id": 5856440749, "lat": -33.8195291, "lon": 150.9892213}, {"type": "node", "id": 5856440750, "lat": -33.8194932, "lon": 150.9891494}, {"type": "node", "id": 5869708298, "lat": -33.8688125, "lon": 151.2085278, "tags": {"name": "City Convenience", "shop": "convenience"}}, {"type": "node", "id": 5870368078, "lat": -33.8642676, "lon": 151.2089782, "tags": {"name": "EzyMart", "shop": "convenience"}}, {"type": "node", "id": 5872687901, "lat": -33.9131485, "lon": 151.2396769, "tags": {"name": "Ezymart", "opening_hours": "Mo-Su 06:00-2:00", "shop": "convenience"}}, {"type": "node", "id": 5872687914, "lat": -33.9132204, "lon": 151.2394652, "tags": {"name": "Ezymart", "shop": "convenience"}}, {"type": "node", "id": 5886007035, "lat": -33.8816346, "lon": 151.2188203, "tags": {"name": "All Day Convenience", "shop": "convenience"}}, {"type": "node", "id": 5886007036, "lat": -33.8804916, "lon": 151.2164181, "tags": {"name": "City Convenience", "shop": "convenience"}}, {"type": "node", "id": 5887032674, "lat": -33.8813544, "lon": 151.2172609, "tags": {"name": "EzyMart", "shop": "convenience"}}, {"type": "node", "id": 5890093314, "lat": -33.8942635, "lon": 151.2730034, "tags": {"name": "EzyMart", "shop": "convenience"}}, {"type": "node", "id": 5891838795, "lat": -33.8902342, "lon": 151.2749017, "tags": {"name": "EzyMart", "shop": "convenience"}}, {"type": "node", "id": 5892457735, "lat": -33.8907559, "lon": 151.2733889, "tags": {"name": "EzyMart", "shop": "convenience"}}, {"type": "node", "id": 5902813565, "lat": -33.886359, "lon": 151.2294745, "tags": {"addr:city": "Paddington", "addr:country": "AU", "addr:postcode": "2021", "addr:state": "NSW", "addr:street": "Oxford Street", "name": "Paddington Fresh Foods", "shop": "convenience"}}, {"type": "node", "id": 5902814200, "lat": -33.8865774, "lon": 151.2297936, "tags": {"addr:city": "Paddington", "addr:country": "AU", "addr:postcode": "2021", "addr:state": "NSW", "addr:street": "Oxford Street", "name": "IGA X-press", "shop": "convenience"}}, {"type": "node", "id": 5902885777, "lat": -33.8882574, "lon": 151.2318688, "tags": {"name": "Getz Mart", "shop": "convenience"}}, {"type": "node", "id": 5902886020, "lat": -33.8906099, "lon": 151.2437788, "tags": {"name": "Oxford Mini Mart", "shop": "convenience"}}, {"type": "node", "id": 5973408603, "lat": -33.9120428, "lon": 151.2583968, "tags": {"shop": "convenience"}}, {"type": "node", "id": 5973408607, "lat": -33.9098253, "lon": 151.2513149, "tags": {"name": "clovelly mini mart", "shop": "convenience"}}, {"type": "node", "id": 5996637983, "lat": -33.8754082, "lon": 151.209465, "tags": {"name": "Ezymart", "shop": "convenience"}}, {"type": "node", "id": 5996637984, "lat": -33.877099, "lon": 151.210763, "tags": {"name": "City Convenience Store", "shop": "convenience"}}, {"type": "node", "id": 6009432892, "lat": -33.8731027, "lon": 151.2097071, "tags": {"name": "Good 2 Go", "shop": "convenience"}}, {"type": "node", "id": 6051887995, "lat": -33.9320003, "lon": 151.1943034, "tags": {"name": "Maxim Indian Emporium", "shop": "convenience"}}, {"type": "node", "id": 6071833018, "lat": -33.9300853, "lon": 151.1407399, "tags": {"addr:housenumber": "10", "addr:postcode": "2205", "addr:state": "NSW", "addr:street": "Reede Street", "addr:suburb": "Turrella", "addr:unit": "Shop 2", "name": "BMK Mart", "opening_hours": "Mo-Su 07:00-20:00", "payment:american_express": "yes", "payment:cash": "yes", "payment:mastercard": "yes", "payment:visa": "yes", "shop": "convenience"}}, {"type": "node", "id": 6076113827, "lat": -33.9197789, "lon": 151.2427146, "tags": {"name": "EzyMart", "shop": "convenience"}}, {"type": "node", "id": 6086549905, "lat": -33.7955386, "lon": 151.2557264}, {"type": "node", "id": 6086549906, "lat": -33.7955745, "lon": 151.2559829}, {"type": "node", "id": 6086549907, "lat": -33.7956608, "lon": 151.2559654}, {"type": "node", "id": 6086549908, "lat": -33.7956249, "lon": 151.255709}, {"type": "node", "id": 6091813755, "lat": -33.8791619, "lon": 151.2148168, "tags": {"name": "247Baby", "opening_hours": "24/7", "shop": "convenience", "wheelchair": "yes"}}, {"type": "node", "id": 6115469957, "lat": -33.9164843, "lon": 151.1667235, "tags": {"name": "Corner Store", "opening_hours": "Mo-We 09:00-21:00; Th 09:00-22:00; Fr,Sa 09:00-24:00", "shop": "convenience"}}, {"type": "node", "id": 6125847379, "lat": -33.8830761, "lon": 151.2074164, "tags": {"name": "Central Bookstand", "shop": "convenience"}}, {"type": "node", "id": 6125847380, "lat": -33.8829504, "lon": 151.2070443, "tags": {"level": "1", "name": "NewsLink", "shop": "convenience"}}, {"type": "node", "id": 6261160465, "lat": -33.867058, "lon": 151.2020596, "tags": {"name": "Darling Harbour View", "shop": "convenience"}}, {"type": "node", "id": 6298270085, "lat": -33.7915979, "lon": 151.0796956, "tags": {"name": "Eastwood Health & Gift Centre", "shop": "convenience", "wheelchair": "yes"}}, {"type": "node", "id": 6314072787, "lat": -33.9065755, "lon": 151.1644483, "tags": {"addr:housenumber": "137", "addr:street": "Victoria Road", "name": "krem avah", "shop": "convenience"}}, {"type": "node", "id": 6371762745, "lat": -33.920337, "lon": 151.2567378, "tags": {"name": "Ocean View Convenience Store", "shop": "convenience"}}, {"type": "node", "id": 6371769978, "lat": -33.9188231, "lon": 151.2577973, "tags": {"name": "Coogee Express", "shop": "convenience", "wheelchair": "yes"}}, {"type": "node", "id": 6371771515, "lat": -33.9147733, "lon": 151.2494052, "tags": {"name": "Coogee Convenience", "shop": "convenience"}}, {"type": "node", "id": 6372204513, "lat": -33.9206164, "lon": 151.2560047, "tags": {"name": "City Mart", "shop": "convenience"}}, {"type": "node", "id": 6372219691, "lat": -33.9207772, "lon": 151.2555969, "tags": {"name": "EzyMart", "shop": "convenience", "wheelchair": "yes"}}, {"type": "node", "id": 6405630854, "lat": -33.8304392, "lon": 151.0109575}, {"type": "node", "id": 6405630855, "lat": -33.8302545, "lon": 151.0099753}, {"type": "node", "id": 6405630857, "lat": -33.8301279, "lon": 151.0100528}, {"type": "node", "id": 6405630858, "lat": -33.8303833, "lon": 151.0108195}, {"type": "node", "id": 6405630865, "lat": -33.830463, "lon": 151.0110163}, {"type": "node", "id": 6405630866, "lat": -33.830186, "lon": 151.0101901}, {"type": "node", "id": 6405630868, "lat": -33.8304478, "lon": 151.0107816}, {"type": "node", "id": 6405630870, "lat": -33.8305275, "lon": 151.0109784}, {"type": "node", "id": 6405630871, "lat": -33.8303125, "lon": 151.0101126}, {"type": "node", "id": 6441733972, "lat": -33.8648989, "lon": 151.1299518, "tags": {"name": "7-Eleven", "shop": "convenience", "website": "https://www.7eleven.com.au/"}}, {"type": "node", "id": 6442328023, "lat": -33.8662936, "lon": 151.2087475, "tags": {"name": "City Convenience", "shop": "convenience"}}, {"type": "node", "id": 6442329463, "lat": -33.8764661, "lon": 151.2124506, "tags": {"name": "City Convenience", "shop": "convenience"}}, {"type": "node", "id": 6461160456, "lat": -33.8672788, "lon": 151.2108274, "tags": {"name": "EzyMart", "shop": "convenience"}}, {"type": "node", "id": 6472309952, "lat": -33.980506, "lon": 151.1191}, {"type": "node", "id": 6472309953, "lat": -33.9804004, "lon": 151.119258}, {"type": "node", "id": 6472309954, "lat": -33.9803285, "lon": 151.1191882}, {"type": "node", "id": 6472309957, "lat": -33.9804194, "lon": 151.1190521}, {"type": "node", "id": 6489631752, "lat": -34.0588579, "lon": 151.0814289, "tags": {"name": "Grays Point Convenience Store", "shop": "convenience"}}, {"type": "node", "id": 6490033096, "lat": -33.9804736, "lon": 151.1190685}, {"type": "node", "id": 6490033097, "lat": -33.9804589, "lon": 151.1190905}, {"type": "node", "id": 6520448987, "lat": -33.8089134, "lon": 151.1845491, "tags": {"brand": "7-Eleven", "brand:wikidata": "Q259340", "brand:wikipedia": "en:7-Eleven", "name": "7-Eleven", "shop": "convenience"}}, {"type": "node", "id": 6571728635, "lat": -33.9156851, "lon": 151.2404688, "tags": {"name": "Lucky Irish Convenience", "shop": "convenience"}}, {"type": "node", "id": 6590135738, "lat": -33.8860776, "lon": 151.2083885, "tags": {"name": "7-Eleven", "shop": "convenience"}}, {"type": "node", "id": 6594232996, "lat": -33.9310535, "lon": 151.2057171}, {"type": "node", "id": 6594241545, "lat": -33.9310758, "lon": 151.2058693}, {"type": "node", "id": 6594241546, "lat": -33.9309094, "lon": 151.2057251}, {"type": "node", "id": 6594241547, "lat": -33.9309272, "lon": 151.2057218}, {"type": "node", "id": 6594241548, "lat": -33.9309751, "lon": 151.2057359}, {"type": "node", "id": 6594245313, "lat": -33.9309423, "lon": 151.2058963}, {"type": "node", "id": 6594245314, "lat": -33.9309255, "lon": 151.2057782}, {"type": "node", "id": 6594245317, "lat": -33.9310293, "lon": 151.2057229}, {"type": "node", "id": 6594245318, "lat": -33.9309931, "lon": 151.2057316}, {"type": "node", "id": 6594245319, "lat": -33.9309174, "lon": 151.2057799}, {"type": "node", "id": 6600061460, "lat": -33.8786374, "lon": 151.2071246, "tags": {"name": "City Convenience", "shop": "convenience"}}, {"type": "node", "id": 6702130671, "lat": -34.0156628, "lon": 151.0130008}, {"type": "node", "id": 6702130672, "lat": -34.0157665, "lon": 151.013112}, {"type": "node", "id": 6702130673, "lat": -34.0157516, "lon": 151.0131322}, {"type": "node", "id": 6702130674, "lat": -34.0157603, "lon": 151.0131415}, {"type": "node", "id": 6702130675, "lat": -34.0156828, "lon": 151.0132467}, {"type": "node", "id": 6702130676, "lat": -34.0156715, "lon": 151.0132346}, {"type": "node", "id": 6702130677, "lat": -34.015656, "lon": 151.0132556}, {"type": "node", "id": 6702130678, "lat": -34.0155549, "lon": 151.0131472}, {"type": "node", "id": 6702213510, "lat": -34.0165722, "lon": 151.0122124}, {"type": "node", "id": 6702213511, "lat": -34.0165744, "lon": 151.0123277}, {"type": "node", "id": 6702213512, "lat": -34.0165322, "lon": 151.0123813}, {"type": "node", "id": 6702213513, "lat": -34.016441, "lon": 151.012384}, {"type": "node", "id": 6702213514, "lat": -34.0164421, "lon": 151.0122445}, {"type": "node", "id": 6702213515, "lat": -34.0164699, "lon": 151.012215}, {"type": "node", "id": 6711544487, "lat": -33.8706744, "lon": 151.2687145}, {"type": "node", "id": 6711544488, "lat": -33.8706141, "lon": 151.2688149}, {"type": "node", "id": 6714894756, "lat": -33.8855567, "lon": 151.2809157, "tags": {"delivery": "only", "name": "Milkrun", "shop": "convenience", "website": "https://www.milk.run/"}}, {"type": "node", "id": 6738141285, "lat": -33.876479, "lon": 151.2074096, "tags": {"name": "Korean Grocery", "shop": "convenience"}}, {"type": "node", "id": 6810339912, "lat": -33.8691287, "lon": 151.2773331}, {"type": "node", "id": 6810339913, "lat": -33.8693407, "lon": 151.2772911}, {"type": "node", "id": 6810339914, "lat": -33.8693557, "lon": 151.277401}, {"type": "node", "id": 6810339915, "lat": -33.8691437, "lon": 151.2774429}, {"type": "node", "id": 6810457660, "lat": -34.0151581, "lon": 151.0148412}, {"type": "node", "id": 6810457667, "lat": -34.015223, "lon": 151.0148263}, {"type": "node", "id": 6813664277, "lat": -33.8169643, "lon": 151.0058033, "tags": {"name": "EzyMart", "shop": "convenience"}}, {"type": "node", "id": 6874889236, "lat": -33.9330414, "lon": 151.0395657, "tags": {"amenity": "fuel", "fuel:diesel": "yes", "fuel:e10": "yes", "fuel:octane_91": "yes", "fuel:octane_95": "yes", "fuel:octane_98": "yes", "name": "Speedway", "shop": "convenience"}}, {"type": "node", "id": 6919600547, "lat": -33.8908749, "lon": 151.2131682, "tags": {"name": "New Shalimar Movies and Spices", "shop": "convenience"}}, {"type": "node", "id": 6928623940, "lat": -33.8937591, "lon": 151.1439399, "tags": {"name": "Village Convenience", "shop": "convenience"}}, {"type": "node", "id": 6959396026, "lat": -33.7866045, "lon": 151.2010134, "tags": {"entrance": "main"}}, {"type": "node", "id": 6959396027, "lat": -33.7866368, "lon": 151.2009108}, {"type": "node", "id": 6959396028, "lat": -33.786526, "lon": 151.2010199}, {"type": "node", "id": 6959396029, "lat": -33.7865699, "lon": 151.2008803}, {"type": "node", "id": 6959396034, "lat": -33.7865928, "lon": 151.2010504}, {"type": "node", "id": 6959396035, "lat": -33.7866221, "lon": 151.2009575}, {"type": "node", "id": 6982530705, "lat": -33.8809997, "lon": 151.2089061, "tags": {"addr:housenumber": "236", "addr:street": "Elizabeth Street", "name": "Zezo", "shop": "convenience"}}, {"type": "node", "id": 7010035849, "lat": -34.0904691, "lon": 151.0040917}, {"type": "node", "id": 7010035852, "lat": -34.0904002, "lon": 151.0038248}, {"type": "node", "id": 7010035855, "lat": -34.0905415, "lon": 151.0040119}, {"type": "node", "id": 7010035857, "lat": -34.0903277, "lon": 151.0039046}, {"type": "node", "id": 7010057864, "lat": -34.0888449, "lon": 151.0069805}, {"type": "node", "id": 7010057870, "lat": -34.088692, "lon": 151.0067832}, {"type": "node", "id": 7010057871, "lat": -34.0878243, "lon": 151.0067451}, {"type": "node", "id": 7010057872, "lat": -34.0877036, "lon": 151.0068927}, {"type": "node", "id": 7010057873, "lat": -34.0877682, "lon": 151.0069809}, {"type": "node", "id": 7010057874, "lat": -34.0878342, "lon": 151.0069088}, {"type": "node", "id": 7010057882, "lat": -34.0887718, "lon": 151.006693}, {"type": "node", "id": 7010057884, "lat": -34.0889247, "lon": 151.0068902}, {"type": "node", "id": 7010085285, "lat": -34.0879026, "lon": 151.0068341}, {"type": "node", "id": 7021338711, "lat": -34.050702, "lon": 151.0837732, "tags": {"name": "How Convenient", "shop": "convenience"}}, {"type": "node", "id": 7034809985, "lat": -33.8499773, "lon": 151.032901, "tags": {"name": "Davids Asian Food", "shop": "convenience"}}, {"type": "node", "id": 7108322585, "lat": -33.9340041, "lon": 151.0391606, "tags": {"entrance": "main"}}, {"type": "node", "id": 7108322597, "lat": -33.9340399, "lon": 151.0391884}, {"type": "node", "id": 7108322604, "lat": -33.9340001, "lon": 151.0390703}, {"type": "node", "id": 7108322605, "lat": -33.9340954, "lon": 151.0391443}, {"type": "node", "id": 7108322606, "lat": -33.9340749, "lon": 151.0391827}, {"type": "node", "id": 7108322607, "lat": -33.9340669, "lon": 151.0391764}, {"type": "node", "id": 7108322608, "lat": -33.9340544, "lon": 151.0391997}, {"type": "node", "id": 7108322609, "lat": -33.9339672, "lon": 151.039132}, {"type": "node", "id": 7132371460, "lat": -33.9178786, "lon": 151.0631217}, {"type": "node", "id": 7132371461, "lat": -33.9178841, "lon": 151.0632054}, {"type": "node", "id": 7132371462, "lat": -33.9180078, "lon": 151.0631947}, {"type": "node", "id": 7132371463, "lat": -33.9180204, "lon": 151.0633707}, {"type": "node", "id": 7132371464, "lat": -33.9182275, "lon": 151.0633615}, {"type": "node", "id": 7132371465, "lat": -33.9182109, "lon": 151.0631046}, {"type": "node", "id": 7132371466, "lat": -33.9181539, "lon": 151.0631101}, {"type": "node", "id": 7132371467, "lat": -33.9181614, "lon": 151.0632209}, {"type": "node", "id": 7132371468, "lat": -33.9181192, "lon": 151.0632251}, {"type": "node", "id": 7132371469, "lat": -33.9181106, "lon": 151.0630987}, {"type": "node", "id": 7178373485, "lat": -33.8242006, "lon": 151.2415763, "tags": {"name": "EzyMart", "shop": "convenience"}}, {"type": "node", "id": 7365821047, "lat": -33.9318654, "lon": 151.0824787, "tags": {"addr:postcode": "2196", "addr:state": "NSW", "addr:suburb": "Roselands", "shop": "convenience"}}, {"type": "node", "id": 7401295908, "lat": -33.9081631, "lon": 151.2468879}, {"type": "node", "id": 7440558661, "lat": -33.9254595, "lon": 151.0744942}, {"type": "node", "id": 7440558662, "lat": -33.9253933, "lon": 151.0746553}, {"type": "node", "id": 7440558663, "lat": -33.9254655, "lon": 151.0746983}, {"type": "node", "id": 7440558664, "lat": -33.9255317, "lon": 151.0745372}, {"type": "node", "id": 7456954079, "lat": -33.8878658, "lon": 151.142871}, {"type": "node", "id": 7456954080, "lat": -33.8879396, "lon": 151.1427866}, {"type": "node", "id": 7456954081, "lat": -33.8880325, "lon": 151.1429044}, {"type": "node", "id": 7456954082, "lat": -33.8879586, "lon": 151.1429889}, {"type": "node", "id": 7555669465, "lat": -33.8118744, "lon": 151.0945246}, {"type": "node", "id": 7597339645, "lat": -33.7953583, "lon": 151.1383416, "tags": {"addr:housenumber": "1", "addr:postcode": "2113", "addr:state": "NSW", "addr:street": "Network Place", "addr:suburb": "North Ryde", "name": "Centro North Ryde", "shop": "convenience"}}, {"type": "node", "id": 7601353478, "lat": -33.8118125, "lon": 151.0945875}, {"type": "node", "id": 7601353479, "lat": -33.8119146, "lon": 151.0946606}, {"type": "node", "id": 7601353480, "lat": -33.811949, "lon": 151.0946283}, {"type": "node", "id": 7601353481, "lat": -33.811816, "lon": 151.0945901}, {"type": "node", "id": 7607931185, "lat": -33.8924173, "lon": 151.2495889, "tags": {"name": "7-Eleven", "shop": "convenience"}}, {"type": "node", "id": 7746531089, "lat": -33.8168183, "lon": 151.0926854, "tags": {"name": "Daily Life Asian Market", "shop": "convenience"}}, {"type": "node", "id": 7765350754, "lat": -33.8759373, "lon": 151.1840999, "tags": {"name": "Lucky 7 Supermarket", "shop": "convenience", "website": "https://luckyseven.com.au/"}}, {"type": "node", "id": 7768894821, "lat": -33.7725658, "lon": 151.0822141, "tags": {"brand": "EsyMart", "shop": "convenience"}}, {"type": "node", "id": 7825153521, "lat": -33.9051899, "lon": 151.1299027}, {"type": "node", "id": 7825153522, "lat": -33.9051241, "lon": 151.1299742}, {"type": "node", "id": 7825153523, "lat": -33.9051333, "lon": 151.1299864}, {"type": "node", "id": 7825153524, "lat": -33.9051242, "lon": 151.1299963}, {"type": "node", "id": 7825153525, "lat": -33.9051875, "lon": 151.1300808}, {"type": "node", "id": 7825153526, "lat": -33.9051967, "lon": 151.1300708}, {"type": "node", "id": 7825153527, "lat": -33.9052089, "lon": 151.1300871}, {"type": "node", "id": 7825153528, "lat": -33.9052745, "lon": 151.1300157}, {"type": "node", "id": 7858091287, "lat": -33.7847572, "lon": 151.2009704}, {"type": "node", "id": 7858091288, "lat": -33.7849512, "lon": 151.2010013}, {"type": "node", "id": 7858091289, "lat": -33.7849397, "lon": 151.2011057}, {"type": "node", "id": 7858091290, "lat": -33.7847458, "lon": 151.2010749}, {"type": "node", "id": 7868591341, "lat": -33.7875607, "lon": 151.1792806}, {"type": "node", "id": 7868591342, "lat": -33.7875841, "lon": 151.1792631}, {"type": "node", "id": 7868591343, "lat": -33.787622, "lon": 151.1792766}, {"type": "node", "id": 7868591344, "lat": -33.7878753, "lon": 151.1799262}, {"type": "node", "id": 7868591345, "lat": -33.7874002, "lon": 151.1797272}, {"type": "node", "id": 7924479885, "lat": -33.919166, "lon": 151.031663, "tags": {"name": "Asian supermarket", "shop": "convenience"}}, {"type": "node", "id": 7979204485, "lat": -33.8639167, "lon": 151.0437016, "tags": {"name": "Korean grocery store", "shop": "convenience"}}, {"type": "node", "id": 8001847296, "lat": -33.9900621, "lon": 151.113657}, {"type": "node", "id": 8001847297, "lat": -33.9901349, "lon": 151.1135798}, {"type": "node", "id": 8001847298, "lat": -33.9902647, "lon": 151.1137241}, {"type": "node", "id": 8001847299, "lat": -33.9902771, "lon": 151.1137584}, {"type": "node", "id": 8071437417, "lat": -33.9175592, "lon": 151.0341304, "tags": {"brand": "7-Eleven", "brand:wikidata": "Q259340", "brand:wikipedia": "en:7-Eleven", "name": "7-Eleven", "opening_hours": "24/7", "shop": "convenience"}}, {"type": "node", "id": 8111240745, "lat": -33.8149961, "lon": 151.0062589, "tags": {"name": "EzyMart", "shop": "convenience"}}, {"type": "node", "id": 8157325818, "lat": -33.8348007, "lon": 151.0109675, "tags": {"name": "Pacific Island food", "shop": "convenience"}}, {"type": "node", "id": 8314043527, "lat": -33.953416, "lon": 151.0650349, "tags": {"addr:housenumber": "52", "addr:postcode": "2210", "addr:state": "NSW", "addr:street": "Baumans Road", "addr:suburb": "Peakhurst", "shop": "convenience"}}, {"type": "node", "id": 8329445694, "lat": -33.9060402, "lon": 151.2031931, "tags": {"name": "Good2Go", "shop": "convenience"}}, {"type": "node", "id": 8334234168, "lat": -33.9039871, "lon": 151.2126741, "tags": {"addr:housenumber": "20", "addr:street": "Gadigal Avenue", "addr:unit": "33", "name": "Chery Shop", "opening_hours": "Mo-Fr 09:30-20:00; Sa,Su 10:45-20:00", "phone": "+61 2 8861 5603", "shop": "convenience"}}, {"type": "node", "id": 8334252227, "lat": -33.9031924, "lon": 151.21289, "tags": {"name": "Tokyo Super", "shop": "convenience"}}, {"type": "node", "id": 8334252230, "lat": -33.9023927, "lon": 151.2042456, "tags": {"name": "Waterloo Mart", "opening_hours": "Mo-Fr 08:45-18:00; Sa 10:00-16:00; Su 10:00-14:30", "shop": "convenience"}}, {"type": "node", "id": 8393390991, "lat": -33.8992175, "lon": 151.2124815, "tags": {"name": "Crown Square Convenience Store", "shop": "convenience"}}, {"type": "node", "id": 8456133528, "lat": -33.7991245, "lon": 151.2849021, "tags": {"name": "Tobbaco shop", "shop": "convenience"}}, {"type": "node", "id": 8456133530, "lat": -33.8867813, "lon": 151.1256917, "tags": {"name": "Indian Convenience Store", "shop": "convenience"}}, {"type": "node", "id": 8460222816, "lat": -33.8178475, "lon": 151.0175096, "tags": {"brand": "Speedway", "brand:wikidata": "Q7575683", "brand:wikipedia": "en:Speedway LLC", "name": "Speedway", "shop": "convenience"}}, {"type": "node", "id": 8460982634, "lat": -33.8154174, "lon": 151.0008598, "tags": {"name": "EzyMart", "shop": "convenience"}}, {"type": "node", "id": 8462984357, "lat": -33.8145043, "lon": 151.0095914, "tags": {"name": "River Cat Convenience Store", "shop": "convenience"}}, {"type": "node", "id": 8463032855, "lat": -33.8181503, "lon": 151.0086566, "tags": {"name": "Parramatta Convenience Delicatessen", "shop": "convenience"}}, {"type": "node", "id": 8463032880, "lat": -33.8177866, "lon": 151.0037544, "tags": {"name": "Jaffa Parramatta", "shop": "convenience"}}, {"type": "node", "id": 8463307267, "lat": -33.7984317, "lon": 151.1792262, "tags": {"entrance": "main"}}, {"type": "node", "id": 8585140010, "lat": -33.910974, "lon": 151.2060903, "tags": {"name": "Rosebery Convenience Store", "shop": "convenience"}}, {"type": "node", "id": 8591942644, "lat": -33.8540326, "lon": 151.0591346}, {"type": "node", "id": 8591942645, "lat": -33.854072, "lon": 151.0591079}, {"type": "node", "id": 8591942646, "lat": -33.8541061, "lon": 151.0591806}, {"type": "node", "id": 8591942647, "lat": -33.8541383, "lon": 151.0591587}, {"type": "node", "id": 8591942648, "lat": -33.854184, "lon": 151.0592565}, {"type": "node", "id": 8591942649, "lat": -33.8541572, "lon": 151.0592747}, {"type": "node", "id": 8591942650, "lat": -33.8541643, "lon": 151.0592898}, {"type": "node", "id": 8591942651, "lat": -33.8541195, "lon": 151.0593202}, {"type": "node", "id": 8601208604, "lat": -33.7842617, "lon": 151.1287817}, {"type": "node", "id": 8601208608, "lat": -33.7842791, "lon": 151.1286221}, {"type": "node", "id": 8601208609, "lat": -33.7841241, "lon": 151.1287841}, {"type": "node", "id": 8601208610, "lat": -33.7841821, "lon": 151.1288645}, {"type": "node", "id": 8601208611, "lat": -33.7843374, "lon": 151.1287029}, {"type": "node", "id": 8621929218, "lat": -33.9670207, "lon": 151.1035263, "tags": {"name": "Japanese Grocery", "shop": "convenience"}}, {"type": "node", "id": 8676247699, "lat": -33.8938254, "lon": 151.2622841, "tags": {"addr:housenumber": "123", "addr:postcode": "2026", "addr:state": "NSW", "addr:street": "Bondi Road", "addr:suburb": "Bondi", "name": "Food Store", "shop": "convenience"}}, {"type": "node", "id": 8699896547, "lat": -33.8124251, "lon": 151.0040886, "tags": {"name": "XPRESS Mart", "shop": "convenience"}}, {"type": "node", "id": 8726916857, "lat": -33.8133489, "lon": 150.9856286}, {"type": "node", "id": 8726916858, "lat": -33.813407, "lon": 150.9855975}, {"type": "node", "id": 8726916862, "lat": -33.8134424, "lon": 150.9856933}, {"type": "node", "id": 8748793241, "lat": -33.8937083, "lon": 151.2631689, "tags": {"addr:housenumber": "206", "addr:postcode": "2026", "addr:state": "NSW", "addr:street": "Bondi Road", "addr:suburb": "Bondi", "name": "Bondi Centre Newsagency", "opening_hours": "Mo-Th 08:00-17:00; Fr-Sa 08:00-16:00; Su 08:00-13:00; PH 08:00-13:00", "phone": "+61 2 9387 1087", "shop": "convenience", "wheelchair": "limited"}}, {"type": "node", "id": 8749154202, "lat": -33.8940918, "lon": 151.263955, "tags": {"addr:housenumber": "161", "addr:postcode": "2026", "addr:state": "NSW", "addr:street": "Bondi Road", "addr:suburb": "Bondi", "brand": "Spar", "brand:wikidata": "Q610492", "brand:wikipedia": "en:Spar (retailer)", "name": "Spar Express", "opening_hours": "Mo-Su 07:00-22:00", "phone": "+61 2 8970 6492", "shop": "convenience", "website": "https://www.spar.com.au", "wheelchair": "limited"}}, {"type": "node", "id": 8778391746, "lat": -33.7968294, "lon": 151.2519841, "tags": {"name": "Westeros Convenience", "shop": "convenience"}}, {"type": "node", "id": 8805636352, "lat": -33.8134293, "lon": 150.9857003}, {"type": "node", "id": 8805647737, "lat": -33.8133844, "lon": 150.9857244}, {"type": "node", "id": 8805647740, "lat": -33.8133558, "lon": 150.9856474}, {"type": "node", "id": 8815843506, "lat": -33.9327825, "lon": 151.146213, "tags": {"name": "Mongol Shop", "opening_hours": "Mo-Sa 06:00-20:00; Su 08:00-16:00", "shop": "convenience"}}, {"type": "node", "id": 8827005849, "lat": -33.810064, "lon": 151.032435, "tags": {"brand": "United", "brand:wikidata": "Q28224393", "brand:wikipedia": "en:United Petroleum", "name": "United", "shop": "convenience"}}, {"type": "node", "id": 8842421320, "lat": -33.8625928, "lon": 151.0624468, "tags": {"addr:housenumber": "81-86", "addr:postcode": "2140", "addr:state": "NSW", "addr:street": "Courallie Avenue", "addr:suburb": "Homebush West", "addr:unit": "K", "name": "ONE STOP SHOP", "opening_hours": "Mo-Su 09:30-21:30", "phone": "+61 403 402 543", "shop": "convenience", "source": "https://one-stop-shop-81-courallie-avenue-homebush.business.site/?utm_source=gmb&utm_medium=referral", "website": "https://one-stop-shop-81-courallie-avenue-homebush.business.site/"}}, {"type": "node", "id": 8862181531, "lat": -33.7749161, "lon": 151.0797574}, {"type": "node", "id": 8862181532, "lat": -33.7749143, "lon": 151.0797695}, {"type": "node", "id": 8886320365, "lat": -33.8092159, "lon": 151.1850454, "tags": {"name": "Seven Day Food", "opening_hours:signed": "no", "shop": "convenience"}}, {"type": "node", "id": 8915547672, "lat": -33.870681, "lon": 151.2687035}, {"type": "node", "id": 8915547673, "lat": -33.8707735, "lon": 151.2687841}, {"type": "node", "id": 8915547674, "lat": -33.8707066, "lon": 151.2688955}, {"type": "node", "id": 8936173264, "lat": -33.8541775, "lon": 150.9887584}, {"type": "node", "id": 8936173265, "lat": -33.8542719, "lon": 150.9887307}, {"type": "node", "id": 8936173266, "lat": -33.8543125, "lon": 150.9889323}, {"type": "node", "id": 8936173267, "lat": -33.8542182, "lon": 150.9889599}, {"type": "node", "id": 8936173271, "lat": -33.8542967, "lon": 150.9888538}, {"type": "node", "id": 8946410081, "lat": -33.9376345, "lon": 151.13967, "tags": {"name": "Seven Day Food", "shop": "convenience"}}, {"type": "node", "id": 8946411315, "lat": -33.9367317, "lon": 151.1420363, "tags": {"name": "Fardous Mixed Business", "shop": "convenience"}}, {"type": "node", "id": 8946442580, "lat": -33.9369096, "lon": 151.1410824, "tags": {"name": "Elzein Supermarket", "shop": "convenience"}}, {"type": "node", "id": 8946449081, "lat": -33.9389933, "lon": 151.1456328, "tags": {"name": "Nagas Mixed blBusiness", "shop": "convenience"}}, {"type": "node", "id": 8946449082, "lat": -33.9362244, "lon": 151.1465855, "tags": {"name": "J&B Warehouse", "shop": "convenience"}}, {"type": "node", "id": 8946491907, "lat": -33.9361959, "lon": 151.1465421, "tags": {"name": "Al Zahara Mixed Business", "shop": "convenience"}}, {"type": "node", "id": 8957543607, "lat": -33.7827612, "lon": 151.0456353}, {"type": "node", "id": 8957543608, "lat": -33.7828376, "lon": 151.0456415}, {"type": "node", "id": 8957543609, "lat": -33.7828264, "lon": 151.0458431}, {"type": "node", "id": 8957543610, "lat": -33.7827499, "lon": 151.0458369}, {"type": "node", "id": 9024771654, "lat": -33.8992844, "lon": 151.0367487, "tags": {"brand": "United", "brand:wikidata": "Q28224393", "brand:wikipedia": "en:United Petroleum", "name": "United", "shop": "convenience"}}, {"type": "node", "id": 9069519567, "lat": -34.0323874, "lon": 151.0755924}, {"type": "node", "id": 9069519568, "lat": -34.0323652, "lon": 151.0756715}, {"type": "node", "id": 9069519569, "lat": -34.0325019, "lon": 151.0757238}, {"type": "node", "id": 9069519570, "lat": -34.0325386, "lon": 151.0755991}, {"type": "node", "id": 9069519571, "lat": -34.032483, "lon": 151.075579}, {"type": "node", "id": 9069519572, "lat": -34.0324708, "lon": 151.0756259}, {"type": "node", "id": 9072708560, "lat": -33.8238868, "lon": 151.1933634, "tags": {"name": "EzyMart", "shop": "convenience"}}, {"type": "node", "id": 9099315853, "lat": -33.8899949, "lon": 151.2474543}, {"type": "node", "id": 9099315854, "lat": -33.8900088, "lon": 151.2474526}, {"type": "node", "id": 9099315855, "lat": -33.8900165, "lon": 151.2475409}, {"type": "node", "id": 9099315856, "lat": -33.8900963, "lon": 151.2475308}, {"type": "node", "id": 9099315857, "lat": -33.8900879, "lon": 151.247435}, {"type": "node", "id": 9099315858, "lat": -33.8900971, "lon": 151.2474338}, {"type": "node", "id": 9099315859, "lat": -33.8900926, "lon": 151.2473819}, {"type": "node", "id": 9099315860, "lat": -33.8900849, "lon": 151.2473829}, {"type": "node", "id": 9099315861, "lat": -33.8900748, "lon": 151.2472676}, {"type": "node", "id": 9099315862, "lat": -33.8899796, "lon": 151.2472797}, {"type": "node", "id": 9129528176, "lat": -33.9151353, "lon": 151.2089974, "tags": {"addr:housenumber": "83-93", "addr:postcode": "2018", "addr:state": "NSW", "addr:street": "Dalmeny Avenue", "addr:suburb": "Rosebery", "addr:unit": "796", "entrance": "shop", "name": "Alex's Mini Mart", "payment:cash": "yes", "payment:contactless": "yes", "payment:credit_cards": "yes", "phone": "+61 459 486 376", "shop": "convenience", "source": "survey"}}, {"type": "node", "id": 9188579643, "lat": -34.0312724, "lon": 151.0768609}, {"type": "node", "id": 9188579644, "lat": -34.0313402, "lon": 151.0768441}, {"type": "node", "id": 9188579645, "lat": -34.0313691, "lon": 151.0767811}, {"type": "node", "id": 9188579646, "lat": -34.0315136, "lon": 151.0768843}, {"type": "node", "id": 9188579647, "lat": -34.0314953, "lon": 151.0769266}, {"type": "node", "id": 9188579648, "lat": -34.0312852, "lon": 151.0769668}, {"type": "node", "id": 9196914597, "lat": -33.9213148, "lon": 151.0258644, "tags": {"name": "KLC Tobacconist and Convience Store", "opening_hours": "Mo-Su 08:00-18:00", "shop": "convenience"}}, {"type": "node", "id": 9204279013, "lat": -33.9322143, "lon": 151.2574215}, {"type": "node", "id": 9204279014, "lat": -33.9322678, "lon": 151.257334}, {"type": "node", "id": 9204279015, "lat": -33.9323899, "lon": 151.2574425}, {"type": "node", "id": 9204279016, "lat": -33.9323364, "lon": 151.25753}, {"type": "node", "id": 9204286519, "lat": -33.9323367, "lon": 151.2573953}, {"type": "node", "id": 9204286520, "lat": -33.9322823, "lon": 151.2573472}, {"type": "node", "id": 9225638750, "lat": -33.9051732, "lon": 151.1032479, "tags": {"shop": "convenience"}}, {"type": "node", "id": 9245356795, "lat": -33.9199419, "lon": 151.0313779, "tags": {"addr:housenumber": "1/282", "addr:street": "Chapel Rd South Bankstown", "name": "Mixed Business", "phone": "+61 2 9790 2089", "shop": "convenience"}}, {"type": "node", "id": 9263230604, "lat": -33.827538, "lon": 151.2251505, "tags": {"direction": "forward", "highway": "stop", "shop": "convenience"}}, {"type": "node", "id": 9404729582, "lat": -33.8852757, "lon": 151.0937787}, {"type": "node", "id": 9404729583, "lat": -33.8854683, "lon": 151.0938791}, {"type": "node", "id": 9404729584, "lat": -33.885439, "lon": 151.0939455}, {"type": "node", "id": 9404729585, "lat": -33.8854122, "lon": 151.0939743}, {"type": "node", "id": 9404729586, "lat": -33.8853293, "lon": 151.0939904}, {"type": "node", "id": 9404729587, "lat": -33.8853228, "lon": 151.0939593}, {"type": "node", "id": 9404729588, "lat": -33.8852925, "lon": 151.0939354}, {"type": "node", "id": 9404729599, "lat": -33.88546, "lon": 151.0938748}, {"type": "node", "id": 9404729612, "lat": -33.8883306, "lon": 151.0904675}, {"type": "node", "id": 9404729613, "lat": -33.8883229, "lon": 151.09041}, {"type": "node", "id": 9404729614, "lat": -33.8881347, "lon": 151.0905517}, {"type": "node", "id": 9404729615, "lat": -33.8882119, "lon": 151.0905367}, {"type": "node", "id": 9404729616, "lat": -33.8882059, "lon": 151.0904918}, {"type": "node", "id": 9404751717, "lat": -33.8882271, "lon": 151.0904876}, {"type": "node", "id": 9413297650, "lat": -33.8942748, "lon": 151.1114395, "tags": {"brand": "7-Eleven", "brand:wikidata": "Q259340", "brand:wikipedia": "en:7-Eleven", "name": "7-Eleven", "shop": "convenience"}}, {"type": "node", "id": 9413297659, "lat": -33.8964732, "lon": 151.1051914}, {"type": "node", "id": 9413297660, "lat": -33.8964231, "lon": 151.1054481}, {"type": "node", "id": 9413297661, "lat": -33.8965171, "lon": 151.1054747}, {"type": "node", "id": 9413297662, "lat": -33.8965673, "lon": 151.1052181}, {"type": "node", "id": 9427960257, "lat": -33.9499409, "lon": 151.0303115, "tags": {"addr:housenumber": "100", "addr:postcode": "2211", "addr:state": "NSW", "addr:street": "Cahors Road", "addr:suburb": "Padstow", "name": "Padstow Mixed Business", "shop": "convenience"}}, {"type": "node", "id": 9447554388, "lat": -33.8701236, "lon": 151.114986}, {"type": "node", "id": 9447554389, "lat": -33.8700957, "lon": 151.1148701}, {"type": "node", "id": 9447554390, "lat": -33.8699878, "lon": 151.1150334}, {"type": "node", "id": 9447554391, "lat": -33.8699599, "lon": 151.1149177}, {"type": "node", "id": 9499744195, "lat": -33.9127688, "lon": 151.1383935}, {"type": "node", "id": 9499744198, "lat": -33.9127127, "lon": 151.1384638}, {"type": "node", "id": 9499744199, "lat": -33.9127809, "lon": 151.1385374}, {"type": "node", "id": 9499744200, "lat": -33.9128188, "lon": 151.1384917}, {"type": "node", "id": 9499744201, "lat": -33.912808, "lon": 151.1384259}, {"type": "node", "id": 9515230717, "lat": -33.8756737, "lon": 151.206905, "tags": {"name": "G3 Mart Korean", "shop": "convenience"}}, {"type": "node", "id": 9548479817, "lat": -33.865548, "lon": 151.0712973, "tags": {"name": "Di Yuan Asian Grocery", "shop": "convenience"}}, {"type": "node", "id": 9548479917, "lat": -33.8656129, "lon": 151.0707441, "tags": {"name": "Tan Hung Long Supermarket", "shop": "convenience"}}, {"type": "node", "id": 9567358907, "lat": -33.9404872, "lon": 151.1008773, "tags": {"level": "0", "shop": "convenience"}}, {"type": "node", "id": 9660380317, "lat": -33.8830557, "lon": 151.1911123, "tags": {"brand": "7-Eleven", "brand:wikidata": "Q259340", "name": "7-Eleven", "shop": "convenience"}}, {"type": "node", "id": 9703573375, "lat": -33.787743, "lon": 150.9945455}, {"type": "node", "id": 9703573378, "lat": -33.7877402, "lon": 150.9948442}, {"type": "node", "id": 9703573379, "lat": -33.7876581, "lon": 150.9945443}, {"type": "node", "id": 9703573380, "lat": -33.78774, "lon": 150.9948636}, {"type": "node", "id": 9703573381, "lat": -33.7877258, "lon": 150.9948634}, {"type": "node", "id": 9703573382, "lat": -33.7877255, "lon": 150.9948939}, {"type": "node", "id": 9703573383, "lat": -33.7876549, "lon": 150.9948929}, {"type": "node", "id": 9755802561, "lat": -33.9342962, "lon": 151.2369439}, {"type": "node", "id": 9755802562, "lat": -33.9342042, "lon": 151.2369253}, {"type": "node", "id": 9755802563, "lat": -33.9341632, "lon": 151.2372198}, {"type": "node", "id": 9755802564, "lat": -33.9342551, "lon": 151.2372384}, {"type": "node", "id": 9755802569, "lat": -33.9342916, "lon": 151.2369767}, {"type": "node", "id": 9755802572, "lat": -33.9342567, "lon": 151.2372271}, {"type": "node", "id": 9755802575, "lat": -33.934243, "lon": 151.2372359}, {"type": "node", "id": 9764143907, "lat": -33.9011155, "lon": 150.9992933}, {"type": "node", "id": 9764143908, "lat": -33.9009541, "lon": 150.9993257}, {"type": "node", "id": 9764143909, "lat": -33.9009649, "lon": 150.9994037}, {"type": "node", "id": 9764143910, "lat": -33.9009526, "lon": 150.9994062}, {"type": "node", "id": 9764143911, "lat": -33.900958, "lon": 150.999446}, {"type": "node", "id": 9764143912, "lat": -33.9011317, "lon": 150.9994112}, {"type": "node", "id": 9764143996, "lat": -33.8994632, "lon": 150.9974963}, {"type": "node", "id": 9764143997, "lat": -33.8996282, "lon": 150.9976747}, {"type": "node", "id": 9764143998, "lat": -33.899573, "lon": 150.9977487}, {"type": "node", "id": 9764143999, "lat": -33.899408, "lon": 150.9975704}, {"type": "node", "id": 9776222155, "lat": -33.8918849, "lon": 151.2131047}, {"type": "node", "id": 9776428733, "lat": -33.9080256, "lon": 151.1716225, "tags": {"name": "GVS Grocer", "shop": "convenience"}}, {"type": "node", "id": 9780307895, "lat": -33.8921357, "lon": 151.2159334}, {"type": "node", "id": 9780307896, "lat": -33.892155, "lon": 151.2160652}, {"type": "node", "id": 9780307897, "lat": -33.8923288, "lon": 151.2160282}, {"type": "node", "id": 9780307898, "lat": -33.8923094, "lon": 151.2158963}, {"type": "node", "id": 9780863934, "lat": -33.870774, "lon": 151.2118459, "tags": {"layer": "-1", "level": "-1", "shop": "convenience"}}, {"type": "node", "id": 9784433625, "lat": -33.9231396, "lon": 151.2057231}, {"type": "node", "id": 9784433626, "lat": -33.9231668, "lon": 151.2058904}, {"type": "node", "id": 9784433627, "lat": -33.9231013, "lon": 151.2059}, {"type": "node", "id": 9784433628, "lat": -33.9230061, "lon": 151.2058203}, {"type": "node", "id": 9784433629, "lat": -33.9229957, "lon": 151.2057544}, {"type": "node", "id": 9784433634, "lat": -33.9231451, "lon": 151.2058936}, {"type": "node", "id": 9784704103, "lat": -33.8678599, "lon": 151.2111093, "tags": {"layer": "-2", "level": "-2", "shop": "convenience"}}, {"type": "node", "id": 9812476990, "lat": -34.0282742, "lon": 151.1063876}, {"type": "node", "id": 9812476991, "lat": -34.0283388, "lon": 151.1063709}, {"type": "node", "id": 9812476992, "lat": -34.028353, "lon": 151.1062375}, {"type": "node", "id": 9812476993, "lat": -34.0282917, "lon": 151.1062287}, {"type": "node", "id": 9819324660, "lat": -33.8810692, "lon": 151.1983504, "tags": {"check_date:opening_hours": "2022-07-22", "name": "Coral Peak Convenience Store", "opening_hours:signed": "no", "shop": "convenience"}}, {"type": "node", "id": 9867191055, "lat": -33.817253, "lon": 151.1518353, "tags": {"shop": "convenience"}}, {"type": "node", "id": 9867350886, "lat": -33.8145288, "lon": 151.154486, "tags": {"facebook": "https://www.facebook.com/jackandcofood/", "name": "Jack and Co Local Store", "opening_hours": "Mo-Su 05:30-22:00", "phone": "+61 2 7251 9250", "shop": "convenience", "website": "https://jackandco.com.au/"}}, {"type": "node", "id": 9878470002, "lat": -34.0441841, "lon": 151.1008236}, {"type": "node", "id": 9878470003, "lat": -34.0442085, "lon": 151.1008189}, {"type": "node", "id": 9878470004, "lat": -34.0443344, "lon": 151.1010233}, {"type": "node", "id": 9878470005, "lat": -34.044327, "lon": 151.1010283}, {"type": "node", "id": 9878470006, "lat": -34.0442146, "lon": 151.1010517}, {"type": "node", "id": 9884038806, "lat": -33.8314066, "lon": 151.2230708, "tags": {"name": "Ngan Kee", "shop": "convenience"}}, {"type": "node", "id": 9886729728, "lat": -33.8787082, "lon": 151.2102418, "tags": {"name": "City Convenience", "shop": "convenience"}}, {"type": "node", "id": 9886729731, "lat": -33.8710622, "lon": 151.2053283, "tags": {"name": "City", "shop": "convenience"}}, {"type": "node", "id": 9892720601, "lat": -33.8711593, "lon": 151.2071285, "tags": {"check_date": "2022-07-17", "check_date:opening_hours": "2022-11-21", "level": "0", "name": "EzyMarkt", "opening_hours:signed": "no", "shop": "convenience", "wheelchair": "yes"}}, {"type": "node", "id": 9894040165, "lat": -33.8459472, "lon": 151.2124515, "tags": {"check_date": "2022-07-18", "shop": "convenience"}}, {"type": "node", "id": 9894830474, "lat": -33.8231985, "lon": 151.1945942, "tags": {"check_date": "2022-07-18", "level": "0", "name": "tsg tabacco station", "shop": "convenience", "wheelchair": "yes"}}, {"type": "node", "id": 9899772031, "lat": -33.9694601, "lon": 151.0793954, "tags": {"cuisine": "asian", "name": "Sagun Grocery Stores", "shop": "convenience"}}, {"type": "node", "id": 9900749678, "lat": -33.8306919, "lon": 151.2261928, "tags": {"brand": "Coles Express", "brand:wikidata": "Q5144653", "check_date": "2022-07-21", "level": "0", "name": "Coles Express", "shop": "convenience"}}, {"type": "node", "id": 9900767215, "lat": -33.8225373, "lon": 151.1941028, "tags": {"check_date": "2022-07-21", "level": "0", "name": "EzyMart", "shop": "convenience"}}, {"type": "node", "id": 9908548032, "lat": -33.8660626, "lon": 151.2055722, "tags": {"check_date": "2022-07-25", "level": "0", "name": "xpress", "shop": "convenience", "wheelchair": "yes"}}, {"type": "node", "id": 9920945118, "lat": -33.9632797, "lon": 151.0901481, "tags": {"brand": "BP Shop", "brand:wikidata": "Q152057", "name": "BP Shop", "shop": "convenience"}}, {"type": "node", "id": 9926974531, "lat": -33.9081955, "lon": 151.2471161}, {"type": "node", "id": 9926974532, "lat": -33.9082415, "lon": 151.247082}, {"type": "node", "id": 9926974533, "lat": -33.9082691, "lon": 151.2469118}, {"type": "node", "id": 9926974534, "lat": -33.9081279, "lon": 151.2470993}, {"type": "node", "id": 9956910021, "lat": -33.9195732, "lon": 151.0669619}, {"type": "node", "id": 9956910022, "lat": -33.9196414, "lon": 151.0667976}, {"type": "node", "id": 9958178202, "lat": -33.9231282, "lon": 151.0586586}, {"type": "node", "id": 9958178203, "lat": -33.9230539, "lon": 151.058764}, {"type": "node", "id": 9958178207, "lat": -33.9230048, "lon": 151.0587153}, {"type": "node", "id": 9958178208, "lat": -33.923194, "lon": 151.058903}, {"type": "node", "id": 9958178209, "lat": -33.9231995, "lon": 151.0588883}, {"type": "node", "id": 9958178210, "lat": -33.9232106, "lon": 151.058897}, {"type": "node", "id": 9958178211, "lat": -33.923278, "lon": 151.0587414}, {"type": "node", "id": 9958178212, "lat": -33.9232674, "lon": 151.05873}, {"type": "node", "id": 9958178213, "lat": -33.9232908, "lon": 151.0586945}, {"type": "node", "id": 9958178214, "lat": -33.9232813, "lon": 151.0586885}, {"type": "node", "id": 9958178215, "lat": -33.9233002, "lon": 151.0586623}, {"type": "node", "id": 9958178216, "lat": -33.9232418, "lon": 151.0585939}, {"type": "node", "id": 9958178217, "lat": -33.9231717, "lon": 151.0587005}, {"type": "node", "id": 9958178218, "lat": -33.9230771, "lon": 151.0586093}, {"type": "node", "id": 9958178237, "lat": -33.9180145, "lon": 151.0632877, "tags": {"service": "repair", "shop": "car_repair"}}, {"type": "node", "id": 9958178238, "lat": -33.917949, "lon": 151.0631998}, {"type": "node", "id": 9958178239, "lat": -33.9179432, "lon": 151.0631153}, {"type": "node", "id": 9958303251, "lat": -33.9200307, "lon": 151.0621773}, {"type": "node", "id": 9958303252, "lat": -33.9210591, "lon": 151.0608649}, {"type": "node", "id": 9958303256, "lat": -33.9210866, "lon": 151.0608494}, {"type": "node", "id": 9958303257, "lat": -33.9210773, "lon": 151.0609073}, {"type": "node", "id": 9958303258, "lat": -33.9210946, "lon": 151.060906}, {"type": "node", "id": 9958303259, "lat": -33.9211154, "lon": 151.0608818}, {"type": "node", "id": 9958303260, "lat": -33.921079, "lon": 151.0608404}, {"type": "node", "id": 9958303261, "lat": -33.9210512, "lon": 151.0608745}, {"type": "node", "id": 9958303262, "lat": -33.9199675, "lon": 151.0621703}, {"type": "node", "id": 9958303263, "lat": -33.9200271, "lon": 151.0621381}, {"type": "node", "id": 9958303264, "lat": -33.9200696, "lon": 151.0621344}, {"type": "node", "id": 9958303265, "lat": -33.9200535, "lon": 151.0619893}, {"type": "node", "id": 9958303266, "lat": -33.9200421, "lon": 151.0619789}, {"type": "node", "id": 9958303267, "lat": -33.920014, "lon": 151.0619825}, {"type": "node", "id": 9958303268, "lat": -33.920009, "lon": 151.0619487}, {"type": "node", "id": 9958303269, "lat": -33.9200157, "lon": 151.0619453}, {"type": "node", "id": 9958303270, "lat": -33.9200143, "lon": 151.0619282}, {"type": "node", "id": 9958303271, "lat": -33.9199461, "lon": 151.0619366}, {"type": "node", "id": 10012829234, "lat": -33.9447199, "lon": 151.184927}, {"type": "node", "id": 10012829235, "lat": -33.9447556, "lon": 151.1849393}, {"type": "node", "id": 10096957950, "lat": -33.9705218, "lon": 151.0733869}, {"type": "node", "id": 10096957951, "lat": -33.9707201, "lon": 151.0733506}, {"type": "node", "id": 10096957952, "lat": -33.9707391, "lon": 151.0734898}, {"type": "node", "id": 10096957953, "lat": -33.9705564, "lon": 151.0735294}, {"type": "node", "id": 10096957954, "lat": -33.970555, "lon": 151.0735227}, {"type": "node", "id": 10096957955, "lat": -33.9705391, "lon": 151.0735248}, {"type": "node", "id": 10096957956, "lat": -33.9706431, "lon": 151.0735194}, {"type": "node", "id": 10096957957, "lat": -33.9706984, "lon": 151.0735048}, {"type": "node", "id": 10096957958, "lat": -33.9705982, "lon": 151.0735256}, {"type": "node", "id": 10096957959, "lat": -33.9706706, "lon": 151.0735137}, {"type": "node", "id": 10096957985, "lat": -33.9713394, "lon": 151.0801661, "tags": {"name": "Mandala Groceries", "name:hi": "\u092e\u0902\u0923\u094d\u0921\u0932\u093e \u0915\u093f\u0930\u093e\u0928\u093e \u092a\u0938\u0932", "shop": "convenience"}}, {"type": "node", "id": 10096958001, "lat": -33.9583227, "lon": 151.0685946, "tags": {"shop": "convenience"}}, {"type": "node", "id": 10096981756, "lat": -33.8632441, "lon": 151.208835, "tags": {"name": "Ezymart", "shop": "convenience"}}, {"type": "node", "id": 10099404044, "lat": -33.9096698, "lon": 151.155409}, {"type": "node", "id": 10099404045, "lat": -33.9096941, "lon": 151.1554468}, {"type": "node", "id": 10099404046, "lat": -33.9099013, "lon": 151.1552596}, {"type": "node", "id": 10099404047, "lat": -33.909831, "lon": 151.1553231}, {"type": "node", "id": 10099495412, "lat": -33.9107125, "lon": 151.1569976}, {"type": "node", "id": 10099495413, "lat": -33.9106151, "lon": 151.1570815}, {"type": "node", "id": 10099495414, "lat": -33.9105827, "lon": 151.1570277}, {"type": "node", "id": 10099495415, "lat": -33.9106818, "lon": 151.1569283}, {"type": "node", "id": 10099500730, "lat": -33.9096973, "lon": 151.1553813}, {"type": "node", "id": 10099500731, "lat": -33.9098808, "lon": 151.1552149}, {"type": "node", "id": 10161380728, "lat": -33.9654513, "lon": 151.0884521, "tags": {"name": "St. George Groceries", "shop": "convenience"}}, {"type": "node", "id": 10208698046, "lat": -33.8740283, "lon": 151.1266474, "tags": {"brand": "BP Shop", "brand:wikidata": "Q152057", "name": "BP Shop", "shop": "convenience"}}, {"type": "node", "id": 10224732871, "lat": -34.0152168, "lon": 151.014787}, {"type": "node", "id": 10224732872, "lat": -34.0151452, "lon": 151.0148035}, {"type": "node", "id": 10224732873, "lat": -34.0151517, "lon": 151.0148447}, {"type": "node", "id": 10230610673, "lat": -33.7907427, "lon": 151.2850353, "tags": {"name": "Stillitano's Corner", "phone": "+61 2 8065 0220", "shop": "convenience"}}, {"type": "node", "id": 10234916375, "lat": -33.8202828, "lon": 151.1902963, "tags": {"name": "Ezymart", "shop": "convenience"}}, {"type": "node", "id": 10241244385, "lat": -33.8830234, "lon": 151.2069302}, {"type": "node", "id": 10308096774, "lat": -33.8695916, "lon": 151.1078187}, {"type": "node", "id": 10308096775, "lat": -33.8696139, "lon": 151.1079495}, {"type": "node", "id": 10308096776, "lat": -33.8695882, "lon": 151.1079559}, {"type": "node", "id": 10308096777, "lat": -33.8695907, "lon": 151.1079705}, {"type": "node", "id": 10308096778, "lat": -33.8694574, "lon": 151.1080034}, {"type": "node", "id": 10308096779, "lat": -33.869456, "lon": 151.1079949}, {"type": "node", "id": 10308096780, "lat": -33.8694269, "lon": 151.1080021}, {"type": "node", "id": 10308096781, "lat": -33.8694035, "lon": 151.1078652}, {"type": "node", "id": 10555512060, "lat": -33.8611879, "lon": 151.2119472, "tags": {"name": "EzyMart", "shop": "convenience"}}, {"type": "node", "id": 10571690755, "lat": -33.8793635, "lon": 151.2275586, "tags": {"name": "Chris\u2019s Corner Shop", "shop": "convenience"}}, {"type": "node", "id": 10614657780, "lat": -33.9652691, "lon": 151.0876256, "tags": {"name": "Thamel Groceries", "shop": "convenience"}}, {"type": "node", "id": 10624370760, "lat": -33.8128943, "lon": 151.0037852, "tags": {"name": "Thalib Mart Asian Grocery", "shop": "convenience"}}, {"type": "node", "id": 10635229859, "lat": -33.7773605, "lon": 151.1182711, "tags": {"layer": "-2", "level": "-2", "shop": "convenience"}}, {"type": "node", "id": 10675929870, "lat": -33.9157307, "lon": 151.0812298}, {"type": "node", "id": 10675929871, "lat": -33.9156839, "lon": 151.0813472}, {"type": "node", "id": 10675929872, "lat": -33.9156936, "lon": 151.0813528}, {"type": "node", "id": 10675929873, "lat": -33.9156377, "lon": 151.0814931}, {"type": "node", "id": 10675929874, "lat": -33.9157185, "lon": 151.0815399}, {"type": "node", "id": 10675929875, "lat": -33.9157647, "lon": 151.081424}, {"type": "node", "id": 10675929876, "lat": -33.9157722, "lon": 151.0814284}, {"type": "node", "id": 10675929877, "lat": -33.9158287, "lon": 151.0812865}, {"type": "node", "id": 10738383722, "lat": -33.9148818, "lon": 151.1660395, "tags": {"level": "1", "shop": "convenience"}}, {"type": "node", "id": 10796570097, "lat": -33.8537546, "lon": 151.0786192, "tags": {"shop": "convenience"}}, {"type": "node", "id": 10814493903, "lat": -33.9784934, "lon": 151.1053598, "tags": {"brand": "Coles Express", "brand:wikidata": "Q5144653", "name": "Coles Express", "operator": "Coles Group", "operator:wikidata": "Q1339055", "shop": "convenience"}}, {"type": "node", "id": 10814493917, "lat": -33.9780195, "lon": 151.1041552, "tags": {"branch": "South Hurstville", "brand": "BP Shop", "brand:wikidata": "Q152057", "name": "BP Shop", "shop": "convenience"}}, {"type": "node", "id": 10816047100, "lat": -33.9785053, "lon": 151.1115683, "tags": {"name": "Miski Convenience Store", "shop": "convenience"}}, {"type": "node", "id": 10817188233, "lat": -33.7876563, "lon": 150.9947376}, {"type": "node", "id": 10817716705, "lat": -33.7773717, "lon": 151.2873207, "tags": {"addr:housenumber": "55", "addr:street": "Albert Street", "name": "Captains (florist/ convenience)", "shop": "convenience", "website": "https://www.captainshop.com.au/"}}, {"type": "node", "id": 10823555896, "lat": -33.8559344, "lon": 151.1594982, "tags": {"brand": "Coles Express", "brand:wikidata": "Q5144653", "name": "Coles Express", "operator": "Coles Group", "operator:wikidata": "Q1339055", "shop": "convenience"}}, {"type": "node", "id": 10823555897, "lat": -33.8558686, "lon": 151.158727, "tags": {"brand": "Coles Express", "brand:wikidata": "Q5144653", "name": "Coles Express", "operator": "Coles Group", "operator:wikidata": "Q1339055", "shop": "convenience"}}, {"type": "node", "id": 10830965871, "lat": -33.8152844, "lon": 151.0034322, "tags": {"name": "Ezy Mart", "shop": "convenience"}}, {"type": "node", "id": 10857828888, "lat": -33.8927138, "lon": 151.0664519}, {"type": "node", "id": 10857828889, "lat": -33.8926457, "lon": 151.0659957}, {"type": "node", "id": 10857828902, "lat": -33.8926012, "lon": 151.0664709}, {"type": "node", "id": 10857828903, "lat": -33.8925372, "lon": 151.0665299}, {"type": "node", "id": 10857828904, "lat": -33.8924621, "lon": 151.0665353}, {"type": "node", "id": 10857845905, "lat": -33.8919962, "lon": 151.0666291}, {"type": "node", "id": 10857846148, "lat": -33.8921945, "lon": 151.0660877}, {"type": "node", "id": 10857846214, "lat": -33.8919344, "lon": 151.0662027}, {"type": "node", "id": 10857846215, "lat": -33.8919283, "lon": 151.0661463}, {"type": "way", "id": 93991426, "nodes": [1092640386, 1092640387, 1092640388, 1092640392, 1092640394, 1092640395, 1092640396, 1092640399, 1092640400, 1092640401, 1092640386], "tags": {"addr:street": "Carson Street", "building": "yes", "shop": "convenience", "source": "Bing"}}, {"type": "way", "id": 95899614, "nodes": [1111209106, 1111209022, 1111209159, 1111209055, 1111209106], "tags": {"brand": "BP Shop", "brand:wikidata": "Q152057", "building": "yes", "name": "BP Shop", "shop": "convenience"}}, {"type": "way", "id": 97786634, "nodes": [1131865056, 1131865217, 1131865534, 1131865103, 1131865428, 1131865056], "tags": {"building": "yes", "shop": "convenience"}}, {"type": "way", "id": 98240570, "nodes": [1136509807, 1136509787, 1136509839, 1136509800, 1136509832, 1136509809, 1136509807], "tags": {"building": "yes", "shop": "convenience"}}, {"type": "way", "id": 98240581, "nodes": [1136509799, 1136509777, 1136509822, 1136509790, 1136509833, 1136509775, 1136509799], "tags": {"building": "yes", "shop": "convenience"}}, {"type": "way", "id": 118301368, "nodes": [1330694212, 1330694224, 1330694209, 1330694252, 5761195534, 1330694225, 5761195533, 1330694231, 1330694212], "tags": {"amenity": "fuel", "atm": "yes", "brand": "7-Eleven", "shop": "convenience", "source": "survey"}}, {"type": "way", "id": 175324718, "nodes": [1859316878, 1859316879, 1859316882, 1859316881, 1859316878], "tags": {"amenity": "fuel", "brand": "Ampol", "brand:wikidata": "Q4748528", "building": "yes", "fuel:discount": "Woolworths", "name": "Woolworths Petrol", "operator": "EG Australia", "operator:wikidata": "Q5023980", "shop": "convenience", "source": "Bing"}}, {"type": "way", "id": 207181775, "nodes": [4460994257, 8463307267, 2173385066, 2173385029, 2173385018, 2173384974, 2173385116, 2173385106, 2173385032, 4460994258, 4460994257], "tags": {"addr:housenumber": "24", "addr:street": "Thomas Street", "building": "retail", "building:levels": "3", "cuisine": "indian", "name": "Spices of India", "opening_hours:signed": "no", "roof:shape": "flat", "shop": "convenience", "source": "survey", "source:geometry": "NSW LPI Imagery", "wheelchair": "yes"}}, {"type": "way", "id": 242897078, "nodes": [2503421102, 2503421109, 2503421101, 2503421095, 2503421102], "tags": {"building": "retail", "name": "7-Eleven", "shop": "convenience", "website": "https://www.7eleven.com.au/"}}, {"type": "way", "id": 244776239, "nodes": [2520487593, 2533093662, 2520487605, 2520487596, 2520487594, 2520487593], "tags": {"brand": "7-Eleven", "brand:wikidata": "Q259340", "brand:wikipedia": "en:7-Eleven", "building": "retail", "name": "7-Eleven", "shop": "convenience", "website": "https://www.7eleven.com.au/"}}, {"type": "way", "id": 244894099, "nodes": [2521637853, 2521637860, 2521637856, 2521637863, 3387505544, 2521637853], "tags": {"branch": "Victoria Rd", "brand": "Coles Express", "brand:wikidata": "Q5144653", "brand:wikipedia": "en:Coles Express", "building": "retail", "name": "Coles Express", "shop": "convenience", "website": "https://www.colesexpress.com.au/"}}, {"type": "way", "id": 256778515, "nodes": [2624097076, 2624102234, 2624102236, 5367304325, 5367304324, 5367304323, 2624097076], "tags": {"addr:city": "Surry Hills", "addr:housenumber": "300", "addr:postcode": "2010", "addr:state": "NSW", "addr:street": "Crown Street", "building": "yes", "building:levels": "2", "name": "Buddy's Convenience store", "shop": "convenience"}}, {"type": "way", "id": 279932701, "nodes": [2841098142, 2841098143, 2841098153, 2841098144, 2841098145, 2841098142], "tags": {"brand": "7-Eleven", "brand:wikidata": "Q259340", "brand:wikipedia": "en:7-Eleven", "building": "yes", "building:levels": "2", "cuisine": "burger", "name": "7-Eleven", "shop": "convenience"}}, {"type": "way", "id": 288180429, "nodes": [2917282524, 2917282523, 3924598334, 2917282064, 2917282520, 2917282524], "tags": {"building": "retail", "name": "Woolworths Metro", "shop": "convenience"}}, {"type": "way", "id": 336965189, "nodes": [3440587995, 3440588001, 3440588010, 10012829235, 10012829234, 3440588028, 3440587995], "tags": {"brand": "BP Shop", "brand:wikidata": "Q152057", "brand:wikipedia": "en:BP", "building": "yes", "name": "BP Shop", "shop": "convenience", "website": "www.bp.com.au"}}, {"type": "way", "id": 349687150, "nodes": [3555316009, 3555316014, 3555316010, 3555316016, 3555316009], "tags": {"brand": "Coles Express", "brand:wikidata": "Q5144653", "building": "retail", "building:levels": "1", "name": "Coles Express", "opening_hours": "24/7", "shop": "convenience", "website": "https://www.colesexpress.com.au/"}}, {"type": "way", "id": 380508754, "nodes": [3838323369, 3838323374, 3838323367, 3838323383, 3838323369], "tags": {"addr:country": "AU", "addr:housenumber": "1032-1036", "addr:postcode": "2114", "addr:state": "NSW", "addr:street": "Victoria Road", "addr:suburb": "West Ryde", "brand": "Shell", "brand:wikidata": "Q110716465", "building": "retail", "contact:phone": "+61 2 9883 0492", "name": "Shell Coles Express West Ryde", "opening_hours": "Mo-Su 06:00-24:00", "shop": "convenience", "toilets": "yes", "toilets:access": "yes", "website": "https://www.colesexpress.com.au/", "wheelchair": "yes"}}, {"type": "way", "id": 382842799, "nodes": [3860547366, 3860547367, 3860547361, 3860547364, 3860547368, 3860547362, 3860547363, 3860547366], "tags": {"building": "retail", "name": "BP", "shop": "convenience"}}, {"type": "way", "id": 383235447, "nodes": [3864550561, 3864550569, 3864550566, 3911694673, 3911694687, 3911694675, 3864550570, 3864550561], "tags": {"brand": "7-Eleven", "brand:wikidata": "Q259340", "brand:wikipedia": "en:7-Eleven", "building": "retail", "building:levels": "1", "name": "7-Eleven", "shop": "convenience", "website": "https://www.7eleven.com.au/"}}, {"type": "way", "id": 383235788, "nodes": [3864554066, 3864554059, 3864554058, 3864554065, 3864554060, 3864554066], "tags": {"brand": "Coles Express", "brand:wikidata": "Q5144653", "brand:wikipedia": "en:Coles Express", "building": "retail", "name": "Coles Express", "shop": "convenience", "website": "https://www.colesexpress.com.au/"}}, {"type": "way", "id": 384636268, "nodes": [3879634439, 3879634437, 3879634438, 3879634440, 3939138705, 3879634439], "tags": {"brand": "7-Eleven", "brand:wikidata": "Q259340", "building": "retail", "name": "7-Eleven", "shop": "convenience", "website": "https://www.7eleven.com.au/"}}, {"type": "way", "id": 385679560, "nodes": [3890163874, 3890163876, 3890163877, 3890163875, 3890163874], "tags": {"brand": "7-Eleven", "brand:wikidata": "Q259340", "brand:wikipedia": "en:7-Eleven", "building": "retail", "name": "7-Eleven", "shop": "convenience", "website": "https://www.7eleven.com.au/"}}, {"type": "way", "id": 387755580, "nodes": [3910038426, 3910038414, 3910038417, 3910038398, 3910038401, 3910038407, 3910038408, 3910038426], "tags": {"building": "retail", "name": "BP", "shop": "convenience", "website": "www.bp.com.au"}}, {"type": "way", "id": 387755829, "nodes": [3910047920, 3910048057, 3910047947, 3910047927, 3910047920], "tags": {"building": "retail", "shop": "convenience"}}, {"type": "way", "id": 387755833, "nodes": [3910047944, 3910047948, 3910047928, 3910047931, 3910047944], "tags": {"brand": "7-Eleven", "building": "retail", "name": "7-Eleven", "shop": "convenience", "website": "https://www.7eleven.com.au/"}}, {"type": "way", "id": 387801737, "nodes": [3910340643, 3910340628, 3910340647, 3910340602, 3910340643], "tags": {"building": "retail", "name": "Woolworths Petrol", "shop": "convenience", "website": "https://www.woolworthspetrol.com.au/"}}, {"type": "way", "id": 388950297, "nodes": [3921247971, 3921247969, 3921247970, 3921247984, 3921247971], "tags": {"building": "yes", "name": "Coles Express", "shop": "convenience", "website": "https://www.colesexpress.com.au/"}}, {"type": "way", "id": 390553537, "nodes": [3937053955, 3937105816, 3937105827, 3937105797, 3937053954, 3937053955], "tags": {"building": "retail", "shop": "convenience"}}, {"type": "way", "id": 390777354, "nodes": [3939120471, 3939120466, 3939120490, 3939120486, 3939115349, 3939120471], "tags": {"brand": "EG Australia", "brand:wikidata": "Q5023980", "building": "retail", "name": "EG Australia", "shop": "convenience", "website": "https://www.woolworthspetrol.com.au/"}}, {"type": "way", "id": 390999198, "nodes": [3941531363, 3941531367, 3941531364, 3941531360, 3941531362, 3941531363], "tags": {"brand": "Speedway", "brand:wikidata": "Q7575683", "building": "yes", "name": "Speedway", "shop": "convenience"}}, {"type": "way", "id": 397584877, "nodes": [4003723788, 4003723740, 4003723779, 4003723744, 4003723765, 4003723788], "tags": {"brand": "Coles Express", "brand:wikidata": "Q5144653", "brand:wikipedia": "en:Coles Express", "building": "retail", "building:levels": "1", "name": "Coles Express", "operator": "Coles Group", "operator:wikidata": "Q1339055", "shop": "convenience", "website": "https://www.colesexpress.com.au/"}}, {"type": "way", "id": 398153536, "nodes": [4009242133, 4009242105, 4009242131, 4009242108, 4009242133], "tags": {"brand": "BP Shop", "brand:wikidata": "Q152057", "building": "retail", "building:levels": "1", "name": "BP Shop", "shop": "convenience"}}, {"type": "way", "id": 399122406, "nodes": [4018667607, 4018644866, 4018667592, 4018644882, 4018644879, 4018644868, 4018667607], "tags": {"building": "retail", "levels": "1", "name": "Star Mart", "shop": "convenience"}}, {"type": "way", "id": 399205698, "nodes": [4019502726, 4019502729, 4019502760, 4019502717, 4019502721, 4019502735, 4019502745, 4019502746, 4019502744, 4019502726], "tags": {"building": "retail", "shop": "convenience", "source": "NSW LPI Imagery"}}, {"type": "way", "id": 400076277, "nodes": [4027001755, 10241244385, 4027001748, 4027001764, 4027062067, 4027062068, 4027062069, 4027001770, 4027001755], "tags": {"access": "customers", "indoor": "room", "level": "0", "name": "Mini Market", "room": "shop", "shop": "convenience"}}, {"type": "way", "id": 400089550, "nodes": [4027064432, 4027167691, 4027167692, 4027064433, 4027064432], "tags": {"access": "private", "building:part": "yes", "level": "0", "room": "yes", "shop": "convenience"}}, {"type": "way", "id": 401686298, "nodes": [4040979604, 4040979608, 9956910022, 9956910021, 4040979592, 4040979265, 4040979286, 4040979261, 4040979604], "tags": {"addr:housenumber": "34-42", "addr:postcode": "2195", "addr:state": "NSW", "addr:street": "King Georges Road", "addr:suburb": "Wiley Park", "brand": "BP Shop", "brand:wikidata": "Q152057", "building": "retail", "building:levels": "1", "name": "BP Shop", "shop": "convenience"}}, {"type": "way", "id": 408588291, "nodes": [4104779825, 4104779828, 9776222155, 4104779827, 4104779817, 4104779825], "tags": {"brand": "BP Shop", "brand:wikidata": "Q152057", "building": "retail", "name": "BP Shop", "shop": "convenience"}}, {"type": "way", "id": 438911143, "nodes": [4365591779, 4365591756, 4365591733, 4365591992, 4365591725, 4365591779], "tags": {"brand": "BP Shop", "brand:wikidata": "Q152057", "brand:wikipedia": "en:BP", "building": "yes", "name": "BP Shop", "shop": "convenience"}}, {"type": "way", "id": 440590041, "nodes": [4383597712, 4383597710, 4383597708, 4383597709, 4383597706, 4383597711, 4383597712], "tags": {"brand": "Coles Express", "brand:wikidata": "Q5144653", "brand:wikipedia": "en:Coles Express", "building": "yes", "name": "Coles Express", "shop": "convenience", "website": "https://www.colesexpress.com.au/"}}, {"type": "way", "id": 440742309, "nodes": [4385170904, 4385170916, 4385170909, 4385170899, 4385170894, 4385170918, 4385170904], "tags": {"brand": "Coles Express", "brand:wikidata": "Q5144653", "brand:wikipedia": "en:Coles Express", "building": "yes", "name": "Coles Express", "operator": "Coles Group", "operator:wikidata": "Q1339055", "shop": "convenience"}}, {"type": "way", "id": 440742313, "nodes": [4385170896, 4385170897, 4385170911, 4385170917, 4385170896], "tags": {"brand": "Star Mart", "brand:wikidata": "Q61994857", "building": "yes", "name": "Star Mart", "shop": "convenience"}}, {"type": "way", "id": 441148034, "nodes": [4389219228, 4389219224, 4389219226, 4389219234, 4389219228], "tags": {"brand": "Coles Express", "brand:wikidata": "Q5144653", "building": "yes", "name": "Coles Express", "operator": "Coles Group", "operator:wikidata": "Q1339055", "shop": "convenience", "website": "https://www.colesexpress.com.au/"}}, {"type": "way", "id": 444590139, "nodes": [4420553822, 4420553830, 4474378301, 4420553841, 4420553866, 4420553876, 4420553879, 4420553826, 4453004730, 4420553822], "tags": {"check_date:opening_hours": "2022-09-01", "indoor": "room", "level": "-1", "name": "Joymart", "opening_hours": "Mo-We 08:00-21:00; Th-Sa 08:00-21:30; Su 09:00-21:00", "room": "shop", "shop": "convenience", "wheelchair": "yes"}}, {"type": "way", "id": 450716619, "nodes": [4476307067, 2173385004, 4782224260, 4476307080, 4476307070, 4476307067], "tags": {"brand": "7-Eleven", "brand:wikidata": "Q259340", "brand:wikipedia": "en:7-Eleven", "check_date:opening_hours": "2022-10-17", "name": "7-Eleven", "opening_hours:signed": "no", "shop": "convenience", "wheelchair": "yes"}}, {"type": "way", "id": 458964188, "nodes": [4548861569, 4548861570, 8862181532, 8862181531, 4548861571, 4548861572, 4548861569], "tags": {"building": "yes", "name": "BP Go-Mart", "operator": "BP", "shop": "convenience"}}, {"type": "way", "id": 459023437, "nodes": [4549455185, 4549455187, 4549455188, 4613484142, 4613484143, 4549456489, 4549455185], "tags": {"building": "yes", "name": "Caltex Star Mart", "shop": "convenience"}}, {"type": "way", "id": 464814859, "nodes": [5416125725, 4598865260, 4598865264, 5420168512, 4598865265, 5416125725], "tags": {"building": "retail", "shop": "convenience"}}, {"type": "way", "id": 482786056, "nodes": [4755801401, 4432280490, 4432280491, 4755801402, 4755801401], "tags": {"building": "yes", "name": "Wollstonecraft store", "shop": "convenience"}}, {"type": "way", "id": 484293010, "nodes": [4770371294, 4770371292, 4770371300, 4770371296, 4770371293, 4770371297, 4770371301, 4770371294], "tags": {"building": "retail", "name": "BP", "shop": "convenience"}}, {"type": "way", "id": 485291597, "nodes": [4780695495, 4780695494, 4780695493, 4780695492, 4780695495], "tags": {"building": "retail", "building:levels": "2", "cuisine": "asian", "roof:levels": "0", "shop": "convenience", "source": "survey", "source:geometry": "LPI Imagery"}}, {"type": "way", "id": 508846000, "nodes": [4981441640, 4981441642, 4981441637, 4981441636, 4981441640], "tags": {"building": "retail", "building:levels": "1", "name": "Ampol", "shop": "convenience", "website": "https://www.woolworthspetrol.com.au/"}}, {"type": "way", "id": 519182008, "nodes": [5063108434, 5063108435, 5063108433, 5063108438, 5063108432, 5063108434], "tags": {"brand": "Coles Express", "brand:wikidata": "Q5144653", "brand:wikipedia": "en:Coles Express", "building": "retail", "building:levels": "1", "name": "Coles Express", "shop": "convenience", "website": "https://www.colesexpress.com.au/"}}, {"type": "way", "id": 526058643, "nodes": [5116509479, 5116509478, 5116509477, 5116509476, 5116509475, 5116509479], "tags": {"brand": "Woolworths Metro", "building": "retail", "building:levels": "1", "roof:shape": "flat", "shop": "convenience"}}, {"type": "way", "id": 548521949, "nodes": [5299091750, 5299091753, 5299091754, 5299091755, 5299091750], "tags": {"building": "yes", "building:levels": "2", "shop": "convenience"}}, {"type": "way", "id": 566308197, "nodes": [5453777540, 5453777541, 5453777542, 5453777543, 5453777544, 5453777540], "tags": {"brand": "Coles Express", "brand:wikidata": "Q5144653", "brand:wikipedia": "en:Coles Express", "building": "retail", "building:levels": "1", "name": "Coles Express", "shop": "convenience", "website": "https://www.colesexpress.com.au/", "wheelchair": "yes"}}, {"type": "way", "id": 579069648, "nodes": [5546724682, 5546724687, 5546724691, 5546724688, 5546724682], "tags": {"building": "yes", "shop": "convenience"}}, {"type": "way", "id": 580728006, "nodes": [5558419214, 5558419215, 5558419216, 5558419217, 5558419218, 5558419219, 5558419220, 5558420521, 5558420522, 5558419207, 5558419206, 5558419214], "tags": {"brand": "7-Eleven", "brand:wikidata": "Q259340", "building": "retail", "building:levels": "1", "name": "7-Eleven", "shop": "convenience", "website": "https://www.7eleven.com.au/"}}, {"type": "way", "id": 584896805, "nodes": [5590249686, 5590249688, 5590249689, 5590249687, 5590249686], "tags": {"indoor": "area", "name": "King of the Pack", "shop": "convenience"}}, {"type": "way", "id": 589596579, "nodes": [5630122348, 5630122349, 5630122350, 5630122351, 5630122348], "tags": {"building": "yes", "name": "Seven Day Food", "shop": "convenience"}}, {"type": "way", "id": 609633470, "nodes": [5774253624, 5774253625, 5774253626, 5774253627, 5774253628, 5774253624], "tags": {"addr:housenumber": "137", "addr:postcode": "2041", "addr:state": "NSW", "addr:street": "Rowntree Street", "addr:suburb": "Birchgrove", "building": "yes", "name": "Birchgrove Corner Store", "opening_hours": "Mo-Su 06:00-21:00", "phone": "+6198183992", "shop": "convenience"}}, {"type": "way", "id": 617383084, "nodes": [5836144462, 5836144463, 5836144464, 5836144465, 5836144466, 5836144467, 5836144462], "tags": {"building": "yes", "building:levels": "1", "name": "7-Eleven", "shop": "convenience"}}, {"type": "way", "id": 619761902, "nodes": [5856440743, 5856432036, 5856440744, 5856440749, 5856440750, 5856440743], "tags": {"building": "yes", "shop": "convenience"}}, {"type": "way", "id": 648276463, "nodes": [6086549905, 6086549906, 6086549907, 6086549908, 6086549905], "tags": {"brand": "BP Shop", "brand:wikidata": "Q152057", "building": "yes", "name": "BP Shop", "shop": "convenience"}}, {"type": "way", "id": 683838190, "nodes": [6405630858, 6405630854, 6405630865, 6405630870, 6405630868, 6405630858], "tags": {"building": "yes", "shop": "convenience"}}, {"type": "way", "id": 683838192, "nodes": [6405630866, 6405630857, 6405630855, 6405630871, 6405630866], "tags": {"brand": "7-Eleven", "brand:wikidata": "Q259340", "brand:wikipedia": "en:7-Eleven", "building": "retail", "name": "7-Eleven", "shop": "convenience", "website": "https://www.7eleven.com.au/"}}, {"type": "way", "id": 689898507, "nodes": [6472309957, 6472309954, 6472309953, 6472309952, 6490033096, 6490033097, 6472309957], "tags": {"brand": "7-Eleven", "brand:wikidata": "Q259340", "brand:wikipedia": "en:7-Eleven", "building": "retail", "name": "7-Eleven", "operator": "7-Eleven", "shop": "convenience", "website": "https://www.7eleven.com.au/"}}, {"type": "way", "id": 690078227, "nodes": [5625769721, 5625769722, 5625769723, 5625769724, 5625769721], "tags": {"brand": "Coles Express", "brand:wikidata": "Q5144653", "building": "yes", "name": "Coles Express", "operator": "Coles Group", "operator:wikidata": "Q1339055", "shop": "convenience", "website": "https://www.colesexpress.com.au/"}}, {"type": "way", "id": 702196068, "nodes": [6594245313, 6594241545, 6594232996, 6594245317, 6594245318, 6594241548, 6594241547, 6594241546, 6594245319, 6594245314, 6594245313], "tags": {"building": "yes", "opening_hours": "Mo-Su 05:30-23:00", "shop": "convenience"}}, {"type": "way", "id": 712927336, "nodes": [6702130671, 6702130672, 6702130673, 6702130674, 6702130675, 6702130676, 6702130677, 6702130678, 6702130671], "tags": {"brand": "7-Eleven", "brand:wikidata": "Q259340", "building": "retail", "name": "7-Eleven", "shop": "convenience"}}, {"type": "way", "id": 712927341, "nodes": [6702213510, 6702213511, 6702213512, 6702213513, 6702213514, 6702213515, 6702213510], "tags": {"building": "yes", "name": "Ampol Foodary", "shop": "convenience"}}, {"type": "way", "id": 726579086, "nodes": [6810339912, 6810339913, 6810339914, 6810339915, 6810339912], "tags": {"addr:housenumber": "599", "addr:postcode": "2029", "addr:state": "NSW", "addr:street": "Old South Head Road", "addr:suburb": "Rose Bay", "brand": "BP Shop", "brand:wikidata": "Q152057", "brand:wikipedia": "en:BP", "building": "yes", "name": "BP Shop", "shop": "convenience"}}, {"type": "way", "id": 743549256, "nodes": [6959396029, 6959396028, 6959396034, 6959396026, 6959396035, 6959396027, 6959396029], "tags": {"building": "retail", "shop": "convenience"}}, {"type": "way", "id": 749639973, "nodes": [7010057882, 7010057870, 7010057864, 7010057884, 7010057882], "tags": {"building": "yes", "name": "Woolworths Petrol", "shop": "convenience"}}, {"type": "way", "id": 749639978, "nodes": [7010057871, 7010057872, 7010057873, 7010057874, 7010085285, 7010057871], "tags": {"brand": "Coles Express", "brand:wikidata": "Q5144653", "brand:wikipedia": "en:Coles Express", "building": "yes", "name": "Coles Express", "shop": "convenience", "website": "https://www.colesexpress.com.au/"}}, {"type": "way", "id": 749640076, "nodes": [7010035852, 7010035857, 7010035849, 7010035855, 7010035852], "tags": {"building": "yes", "shop": "convenience"}}, {"type": "way", "id": 760867461, "nodes": [7108322609, 7108322585, 7108322597, 7108322608, 7108322607, 7108322606, 7108322605, 7108322604, 7108322609], "tags": {"addr:housenumber": "1618", "addr:postcode": "2196", "addr:state": "NSW", "addr:street": "Canterbury Road", "addr:suburb": "Punchbowl", "brand": "Caltex", "brand:wikidata": "Q5023980", "brand:wikipedia": "en:Caltex Woolworths", "building": "yes", "name": "Woolworths Petrol", "shop": "convenience"}}, {"type": "way", "id": 763278783, "nodes": [7132371460, 7132371461, 9958178238, 7132371462, 9958178237, 7132371463, 7132371464, 7132371465, 7132371466, 7132371467, 7132371468, 7132371469, 9958178239, 7132371460], "tags": {"addr:housenumber": "10-12", "addr:postcode": "2196", "addr:state": "NSW", "addr:street": "Park Avenue", "addr:suburb": "Punchbowl", "amenity": "fuel", "brand": "Metro Petroleum", "building": "yes", "fuel:diesel": "yes", "fuel:e10": "yes", "fuel:lpg": "yes", "fuel:octane_91": "yes", "shop": "convenience"}}, {"type": "way", "id": 795518495, "nodes": [7440558661, 7440558662, 7440558663, 7440558664, 7440558661], "tags": {"addr:housenumber": "77", "addr:postcode": "2195", "addr:state": "NSW", "addr:street": "Ernest Street", "addr:suburb": "Lakemba", "building": "yes", "name": "Tres Bien", "opening_hours": "09:30-17:30", "shop": "convenience"}}, {"type": "way", "id": 797325955, "nodes": [7456954079, 7456954080, 7456954081, 7456954082, 7456954079], "tags": {"brand": "7-Eleven", "brand:wikidata": "Q259340", "brand:wikipedia": "en:7-Eleven", "building": "yes", "name": "7-Eleven", "shop": "convenience"}}, {"type": "way", "id": 813762010, "nodes": [7555669465, 7601353478, 7601353481, 7601353479, 7601353480, 7555669465], "tags": {"addr:housenumber": "898-902", "addr:postcode": "2114", "addr:state": "NSW", "addr:street": "Victoria Road", "addr:suburb": "West Ryde", "amenity": "fuel", "brand": "Apex Petroleum", "name": "Apex Petroleum", "self_service": "yes", "shop": "convenience"}}, {"type": "way", "id": 838449992, "nodes": [7825153521, 7825153522, 7825153523, 7825153524, 7825153525, 7825153526, 7825153527, 7825153528, 7825153521], "tags": {"brand": "7-Eleven", "brand:wikidata": "Q259340", "brand:wikipedia": "en:7-Eleven", "building": "yes", "name": "7-Eleven", "shop": "convenience"}}, {"type": "way", "id": 842308284, "nodes": [7858091290, 7858091289, 7858091288, 7858091287, 7858091290], "tags": {"building": "retail", "shop": "convenience"}}, {"type": "way", "id": 843540820, "nodes": [220318271, 7868591345, 7868591344, 5485919742, 7868591343, 7868591342, 7868591341, 220318271], "tags": {"amenity": "fuel", "brand": "7-Eleven", "brand:wikidata": "Q259340", "brand:wikipedia": "en:7-Eleven", "compressed_air": "yes", "landuse": "retail", "name": "7-Eleven Roseville", "opening_hours": "24/7", "operator": "7-Eleven", "shop": "convenience"}}, {"type": "way", "id": 858359564, "nodes": [8001847296, 8001847297, 8001847298, 8001847299, 1102893337, 8001847296], "tags": {"building": "retail", "shop": "convenience"}}, {"type": "way", "id": 925813104, "nodes": [8591942644, 8591942645, 8591942646, 8591942647, 8591942648, 8591942649, 8591942650, 8591942651, 8591942644], "tags": {"brand": "Coles Express", "brand:wikidata": "Q5144653", "brand:wikipedia": "en:Coles Express", "building": "yes", "name": "Coles Express", "shop": "convenience"}}, {"type": "way", "id": 926989919, "nodes": [8601208608, 8601208609, 8601208610, 8601208604, 8601208611, 8601208608], "tags": {"brand": "7-Eleven", "brand:wikidata": "Q259340", "brand:wikipedia": "en:7-Eleven", "building": "yes", "name": "7-Eleven", "shop": "convenience"}}, {"type": "way", "id": 942429438, "nodes": [8805647737, 8805636352, 8726916862, 8726916858, 8726916857, 8805647740, 8805647737], "tags": {"building": "yes", "name": "Quickstop", "shop": "convenience"}}, {"type": "way", "id": 963854056, "nodes": [6711544488, 6711544487, 8915547672, 8915547673, 8915547674, 6711544488], "tags": {"brand": "BP Shop", "brand:wikidata": "Q152057", "brand:wikipedia": "en:BP", "building": "yes", "building:levels": "1", "name": "BP Shop", "shop": "convenience"}}, {"type": "way", "id": 965960411, "nodes": [8936173264, 8936173265, 8936173271, 8936173266, 8936173267, 8936173264], "tags": {"brand": "BP Shop", "brand:wikidata": "Q152057", "brand:wikipedia": "en:BP", "building": "yes", "name": "BP Shop", "shop": "convenience"}}, {"type": "way", "id": 968208720, "nodes": [8957543607, 8957543608, 8957543609, 8957543610, 8957543607], "tags": {"brand": "7-Eleven", "brand:wikidata": "Q259340", "brand:wikipedia": "en:7-Eleven", "building": "yes", "name": "7-Eleven", "shop": "convenience"}}, {"type": "way", "id": 980459515, "nodes": [9069519567, 9069519568, 9069519569, 9069519570, 9069519571, 9069519572, 9069519567], "tags": {"brand": "7-Eleven", "brand:wikidata": "Q259340", "building": "yes", "name": "7-Eleven", "shop": "convenience"}}, {"type": "way", "id": 984108056, "nodes": [9099315853, 9099315854, 9099315855, 9099315856, 9099315857, 9099315858, 9099315859, 9099315860, 9099315861, 9099315862, 9099315853], "tags": {"building": "retail", "name": "Wild Bean Cafe", "shop": "convenience"}}, {"type": "way", "id": 995052027, "nodes": [9188579643, 9188579644, 9188579645, 9188579646, 9188579647, 9188579648, 9188579643], "tags": {"brand": "7-Eleven", "brand:wikidata": "Q259340", "building": "yes", "name": "7-Eleven", "shop": "convenience"}}, {"type": "way", "id": 996821057, "nodes": [9204279013, 9204279014, 9204286520, 9204286519, 9204279015, 9204279016, 9204279013], "tags": {"building": "yes", "name": "Foodary", "shop": "convenience"}}, {"type": "way", "id": 1019698165, "nodes": [9404729582, 9404729599, 9404729583, 9404729584, 9404729585, 9404729586, 9404729587, 9404729588, 9404729582], "tags": {"brand": "Caltex", "brand:wikidata": "Q5023980", "brand:wikipedia": "en:EG Australia", "building": "yes", "name": "Woolworths Petrol", "shop": "convenience"}}, {"type": "way", "id": 1019698171, "nodes": [9404729612, 9404729613, 5479886681, 9404729614, 9404729615, 9404729616, 9404751717, 9404729612], "tags": {"building": "yes", "shop": "convenience"}}, {"type": "way", "id": 1020610957, "nodes": [9413297659, 9413297660, 9413297661, 9413297662, 9413297659], "tags": {"brand": "BP Shop", "brand:wikidata": "Q152057", "brand:wikipedia": "en:BP", "building": "yes", "name": "BP Shop", "shop": "convenience"}}, {"type": "way", "id": 1024562625, "nodes": [9447554389, 9447554391, 9447554390, 9447554388, 9447554389], "tags": {"brand": "Coles Express", "brand:wikidata": "Q5144653", "brand:wikipedia": "en:Coles Express", "building": "yes", "name": "Coles Express", "operator": "Coles Group", "operator:wikidata": "Q1339055", "shop": "convenience"}}, {"type": "way", "id": 1030570959, "nodes": [9499744195, 9499744198, 9499744199, 9499744200, 9499744201, 9499744195], "tags": {"building": "yes", "shop": "convenience"}}, {"type": "way", "id": 1056047881, "nodes": [9703573379, 9703573375, 9703573378, 9703573380, 9703573381, 9703573382, 9703573383, 10817188233, 9703573379], "tags": {"building": "yes", "name": "Ampol Foodary", "shop": "convenience"}}, {"type": "way", "id": 1061896261, "nodes": [9755802561, 9755802562, 9755802563, 9755802575, 9755802564, 9755802572, 9755802569, 9755802561], "tags": {"building": "yes", "shop": "convenience"}}, {"type": "way", "id": 1062894320, "nodes": [9764143907, 9764143908, 9764143909, 9764143910, 9764143911, 9764143912, 9764143907], "tags": {"brand": "Caltex", "brand:wikidata": "Q5023980", "building": "yes", "name": "Woolworths Petrol", "shop": "convenience"}}, {"type": "way", "id": 1062894328, "nodes": [9764143996, 9764143997, 9764143998, 9764143999, 9764143996], "tags": {"brand": "Coles Express", "brand:wikidata": "Q5144653", "building": "yes", "name": "Coles Express", "shop": "convenience"}}, {"type": "way", "id": 1064973092, "nodes": [9780307895, 9780307896, 9780307897, 9780307898, 9780307895], "tags": {"building": "yes", "shop": "convenience"}}, {"type": "way", "id": 1065400815, "nodes": [9784433625, 9784433626, 9784433634, 9784433627, 9784433628, 9784433629, 9784433625], "tags": {"brand": "EG Australia", "brand:wikidata": "Q5023980", "building": "yes", "name": "EG Australia", "shop": "convenience"}}, {"type": "way", "id": 1068989795, "nodes": [9812476990, 9812476991, 9812476992, 9812476993, 9812476990], "tags": {"building": "yes", "shop": "convenience"}}, {"type": "way", "id": 1077378817, "nodes": [9878470002, 9878470003, 9878470004, 9878470005, 9878470006, 9878470002], "tags": {"addr:housenumber": "52", "addr:street": "Forest Road", "brand": "Friendly Grocer", "brand:wikidata": "Q24190419", "building": "yes", "name": "Friendly Grocer", "shop": "convenience"}}, {"type": "way", "id": 1083202755, "nodes": [9926974531, 9926974532, 9926974533, 7401295908, 9926974534, 9926974531], "tags": {"building": "yes", "shop": "convenience"}}, {"type": "way", "id": 1086826858, "nodes": [9958178218, 9958178202, 9958178217, 9958178216, 9958178215, 9958178214, 9958178213, 9958178212, 9958178211, 9958178210, 9958178209, 9958178208, 9958178203, 9958178207, 9958178218], "tags": {"addr:city": "Punchbowl", "addr:housenumber": "2", "addr:postcode": "2196", "addr:state": "NSW", "addr:street": "Dudley Street", "addr:suburb": "Punchbowl", "amenity": "fuel", "brand": "AP", "building": "roof", "building:levels": "1", "fuel:diesel": "yes", "fuel:e10": "yes", "fuel:octane_91": "yes", "fuel:octane_98": "yes", "name": "AP Punchbowl", "opening_hours": "24/7", "shop": "convenience"}}, {"type": "way", "id": 1086841512, "nodes": [9958303261, 9958303252, 9958303260, 9958303256, 9958303259, 9958303258, 9958303257, 9958303261], "tags": {"addr:housenumber": "621", "addr:postcode": "2196", "addr:state": "NSW", "addr:street": "Punchbowl Road", "addr:suburb": "Punchbowl", "building": "commercial", "building:levels": "1", "name": "Indonesian Podomoro Grocery", "shop": "convenience"}}, {"type": "way", "id": 1086841513, "nodes": [9958303271, 9958303270, 9958303269, 9958303268, 9958303267, 9958303266, 9958303265, 9958303264, 9958303263, 9958303251, 9958303262, 9958303271], "tags": {"addr:housenumber": "601", "addr:postcode": "2196", "addr:state": "NSW", "addr:street": "Punchbowl Road", "addr:suburb": "Punchbowl", "building": "commercial", "building:levels": "2", "name": "Baroo's Business", "shop": "convenience"}}, {"type": "way", "id": 1103373383, "nodes": [10096957950, 10096957951, 10096957952, 10096957957, 10096957959, 10096957956, 10096957958, 10096957953, 10096957954, 10096957955, 10096957950], "tags": {"brand": "BP Shop", "brand:wikidata": "Q152057", "building": "yes", "name": "BP Shop", "shop": "convenience"}}, {"type": "way", "id": 1103684224, "nodes": [10099500731, 10099500730, 10099404044, 10099404045, 10099404047, 10099404046, 10099500731], "tags": {"building": "yes", "name": "Van Long Supermarket", "shop": "convenience"}}, {"type": "way", "id": 1103685317, "nodes": [10099495412, 10099495413, 10099495414, 10099495415, 10099495412], "tags": {"brand": "7-Eleven", "brand:wikidata": "Q259340", "building": "yes", "name": "7-Eleven", "shop": "convenience"}}, {"type": "way", "id": 1117948654, "nodes": [6810457667, 10224732871, 10224732872, 10224732873, 6810457660, 6810457667], "tags": {"brand": "EG Australia", "brand:wikidata": "Q5023980", "building": "yes", "name": "EG Australia", "shop": "convenience"}}, {"type": "way", "id": 1127426333, "nodes": [10308096774, 10308096775, 10308096776, 10308096777, 10308096778, 10308096779, 10308096780, 10308096781, 10308096774], "tags": {"brand": "7-Eleven", "brand:wikidata": "Q259340", "building": "yes", "name": "7-Eleven", "shop": "convenience"}}, {"type": "way", "id": 1147315717, "nodes": [10675929870, 10675929871, 10675929872, 10675929873, 10675929874, 10675929875, 10675929876, 10675929877, 10675929870], "tags": {"building": "yes", "shop": "convenience"}}, {"type": "way", "id": 1167523782, "nodes": [10857828889, 10857846148, 10857846215, 10857846214, 10857845905, 10857828904, 10857828903, 10857828902, 10857828888, 10857828889], "tags": {"amenity": "fuel", "brand": "Coles Express", "brand:wikidata": "Q5144653", "landuse": "retail", "name": "Coles Express Roberts Road Northbound", "opening_hours": "24/7", "operator": "Coles Express", "shop": "convenience", "source:location": "bing", "source:operator": "knowledge"}}]}