{"version": 0.6, "generator": "Overpass API 0.7.60 f4c14d41", "osm3s": {"timestamp_osm_base": "2023-05-02T21:19:24Z", "copyright": "The data included in this document is from www.openstreetmap.org. The data is made available under ODbL."}, "elements": [{"type": "node", "id": 2528420277, "lat": 41.0305366, "lon": 28.9861417, "tags": {"shop": "greengrocer"}}, {"type": "node", "id": 2990375621, "lat": 40.9867846, "lon": 29.0310821, "tags": {"shop": "greengrocer"}}, {"type": "node", "id": 3456816267, "lat": 41.0351647, "lon": 28.9771331, "tags": {"shop": "greengrocer"}}, {"type": "node", "id": 3817961648, "lat": 41.0267502, "lon": 28.9783352, "tags": {"name": "\u00c7i\u011fk\u00f6fte", "opening_hours:signed": "no", "shop": "greengrocer", "wheelchair": "no"}}, {"type": "node", "id": 3817961656, "lat": 41.0269683, "lon": 28.9788458, "tags": {"shop": "greengrocer"}}, {"type": "node", "id": 4395618791, "lat": 40.9730853, "lon": 29.0408695, "tags": {"name": "Karadeniz Market", "name:tr": "Karadeniz Market", "shop": "greengrocer"}}, {"type": "node", "id": 4544874342, "lat": 41.0140263, "lon": 29.1321586, "tags": {"name": "Sencer Manav", "shop": "greengrocer"}}, {"type": "node", "id": 4576944282, "lat": 41.0111663, "lon": 29.0384488, "tags": {"addr:city": "\u00dcsk\u00fcdar/\u0130stanbul", "addr:street": "Ko\u015fuyolu Caddesi", "name": "\u00c7AMLIBEL MANAV \u015eARK\u00dcTER\u0130", "shop": "greengrocer"}}, {"type": "node", "id": 4580351444, "lat": 40.9223873, "lon": 29.141465, "tags": {"name": "T\u00fcz\u00fcn Manav", "shop": "greengrocer"}}, {"type": "node", "id": 4580351463, "lat": 40.9219499, "lon": 29.1396779, "tags": {"name": "Y\u00fcksel", "shop": "greengrocer"}}, {"type": "node", "id": 4858342838, "lat": 40.9192226, "lon": 29.1320716, "tags": {"shop": "greengrocer"}}, {"type": "node", "id": 4858343231, "lat": 40.91836, "lon": 29.1338423, "tags": {"shop": "greengrocer"}}, {"type": "node", "id": 5067457509, "lat": 40.9834971, "lon": 29.0707856, "tags": {"addr:city": "\u0130stanbul", "addr:district": "kad\u0131k\u00f6y", "addr:housenumber": "20", "addr:postcode": "34732", "addr:street": "G\u00fcnayd\u0131n Sokak", "name": "Nam\u0131k Manav", "opening_hours": "Mo-Su 07:30-20:30", "shop": "greengrocer"}}, {"type": "node", "id": 5108828020, "lat": 41.0139463, "lon": 28.9772379, "tags": {"addr:city": "Istanbul", "addr:district": "Fatih", "addr:street": "Serdar Sokak", "name": "S\u0130RKEC\u0130 M\u0130N\u0130 HAL", "phone": "+90 212 512 26 83", "shop": "greengrocer"}}, {"type": "node", "id": 5244795879, "lat": 41.0161913, "lon": 28.9689883, "tags": {"addr:city": "Istanbul", "addr:district": "Fatih", "addr:street": "Tahtakale Caddesi", "name": "Y\u0131lmazlar G\u0131da", "name:ar": "\u064a\u0644\u0645\u0627\u0632\u0644\u0627\u0631 \u063a\u064a\u062f\u0627", "shop": "greengrocer"}}, {"type": "node", "id": 5244796170, "lat": 41.0169513, "lon": 28.9694738, "tags": {"addr:city": "Istanbul", "addr:district": "Fatih", "addr:street": "Has\u0131rc\u0131lar Caddesi", "name": "Seref Gida", "name:ar": "\u0633\u064a\u0631\u064a\u0641 \u063a\u064a\u062f\u0627", "shop": "greengrocer"}}, {"type": "node", "id": 5244810314, "lat": 41.0060601, "lon": 28.9658293, "tags": {"addr:city": "Istanbul", "addr:district": "Fatih", "addr:street": "Sandalc\u0131 \u0130hsan Sokak", "name": "Ula\u015f B\u00fcfe", "name:ar": "\u0627\u0648\u0644\u0627\u0634 \u0628\u0648\u0641\u064a", "shop": "greengrocer"}}, {"type": "node", "id": 5329298823, "lat": 40.9760015, "lon": 29.2710216, "tags": {"addr:city": "Istanbul", "addr:district": "Sultanbeyli", "addr:street": "Y\u0131ld\u0131r\u0131m Caddesi", "name": "Kasap & \u015eark\u00fcteri", "name:ar": "\u0627\u0644\u0644\u062d\u0627\u0645", "opening_hours": "24/7", "shop": "greengrocer"}}, {"type": "node", "id": 5329311702, "lat": 40.9747705, "lon": 29.2723488, "tags": {"addr:city": "Istanbul", "addr:district": "Sultanbeyli", "addr:street": "Kaptani Derya Caddesi", "name": "Vitamin Manav", "name:ar": "\u0628\u0627\u0626\u0639 \u0627\u0644\u062e\u0636\u0627\u0631 \u0641\u064a\u062a\u0627\u0645\u064a\u0646", "opening_hours": "24/7", "shop": "greengrocer"}}, {"type": "node", "id": 5329312235, "lat": 40.9693811, "lon": 29.2726403, "tags": {"addr:city": "Istanbul", "addr:district": "Sultanbeyli", "addr:street": "Kaptani Derya Caddesi", "furniture": "used", "name": "K\u00f6y Manav\u0131", "name:ar": "\u0643\u0648\u064a \u0645\u0646\u0627\u0641\u064a", "opening_hours": "24/7", "phone": "05393019756", "shop": "greengrocer"}}, {"type": "node", "id": 5329319545, "lat": 40.9812933, "lon": 29.2616913, "tags": {"addr:city": "Istanbul", "addr:district": "Sultanbeyli", "addr:street": "Pelit SOKA\u011eI", "name": "Mert mini market", "name:ar": "\u0633\u0648\u0628\u0631 \u0645\u0627\u0631\u0643\u062a \u0645\u0627\u0631\u062a \u0645\u064a\u0646\u064a", "shop": "greengrocer"}}, {"type": "node", "id": 5542883156, "lat": 40.9683186, "lon": 29.2494568, "tags": {"addr:city": "Istanbul", "addr:district": "Sultanbeyli", "addr:street": "Petrol yolu cadeci \u062c\u0627\u062f\u0629 \u0634\u0627\u0631\u0639 \u0627\u0644\u0628\u062a\u0631\u0648\u0644", "name": "Aky\u00fcz market", "name:ar": "\u0627\u0643\u064a\u0648\u0632 \u0645\u0627\u0631\u0643\u062a", "opening_hours": "Mo-Fr 07:00-13:30; Mo-Fr 17:00-20:00", "phone": "3983763", "shop": "greengrocer"}}, {"type": "node", "id": 5542883412, "lat": 40.9468433, "lon": 29.2993355, "tags": {"addr:city": "Istanbul", "addr:district": "Sultanbeyli", "addr:street": "Fatih bulvar\u0131", "name": "Bizas", "name:ar": "\u0628\u064a\u0632\u0627\u0633", "shop": "greengrocer"}}, {"type": "node", "id": 5542883662, "lat": 40.9760263, "lon": 29.2709684, "tags": {"addr:city": "Istanbul", "addr:district": "Sultanbeyli", "addr:street": "yildirim Caddesi", "name": "Kassap", "name:ar": "\u062e\u0636\u0631\u062c\u064a \u0643\u0627\u0633\u0627\u0628", "opening_hours": "Mo-Fr 07:00-13:30; Mo-Fr 17:00-20:00", "shop": "greengrocer"}}, {"type": "node", "id": 5542886328, "lat": 40.9677151, "lon": 29.2752814, "tags": {"addr:city": "Istanbul", "addr:district": "Sultanbeyli", "addr:street": "\u00e7amlik Caddesi", "name": "Vitamin meyve", "name:ar": "\u062e\u0636\u0631\u062c\u064a \u0641\u064a\u062a\u0627\u0645\u064a\u0646", "opening_hours": "Mo-Fr 07:00-13:30; Mo-Fr 17:00-20:00", "shop": "greengrocer"}}, {"type": "node", "id": 5542887654, "lat": 40.9687593, "lon": 29.2472759, "tags": {"addr:city": "Istanbul", "addr:district": "Sultanbeyli", "addr:street": "necib fadil csddesi \u062c\u0627\u062f\u0629 \u0646\u062c\u064a\u0628 \u0641\u0627\u0636\u0644", "name": "Manav", "name:ar": "\u0645\u0627\u0646\u0627\u0641 \u0644\u0644\u062e\u0636\u0627\u0631", "opening_hours": "Mo-Su 07:00-20:00", "shop": "greengrocer"}}, {"type": "node", "id": 5542890250, "lat": 40.9457412, "lon": 29.2843151, "tags": {"addr:city": "Istanbul", "addr:district": "Sultanbeyli", "addr:street": "Antalya Caddesi", "name": "Kaya market", "name:ar": "\u062e\u0636\u0631\u0648\u0627\u062a \u0643\u0627\u064a\u0627", "opening_hours": "Mo-Fr 07:00-13:30; Mo-Fr 17:00-20:00", "phone": "02164873322", "shop": "greengrocer"}}, {"type": "node", "id": 5542891479, "lat": 40.9696899, "lon": 29.2477438, "tags": {"addr:city": "Istanbul", "addr:district": "Sultanbeyli", "addr:street": "necip fadil caddesi \u062c\u0627\u062f\u0629 \u0646\u062c\u064a\u0628 \u0641\u0627\u0636\u0644", "name": "\u00c7ak\u0131rlar (peynircilik& kahvalt\u0131saray\u0131)", "name:ar": "\u0634\u0627\u0643\u0631\u0644\u0627\u0631(\u0644\u0648\u0627\u0632\u0645 \u0641\u0637\u0648\u0631 \u0648 \u062e\u0636\u0631\u0627\u0648\u0627\u062a)", "opening_hours": "Mo-Fr 07:00-13:30; Mo-Fr 17:00-20:00", "shop": "greengrocer"}}, {"type": "node", "id": 5543264522, "lat": 40.9902373, "lon": 29.0251133, "tags": {"addr:housenumber": "9", "addr:street": "G\u00fcne\u015fli Bah\u00e7e Sokak", "name:en": "nuts store", "shop": "greengrocer"}}, {"type": "node", "id": 5592628625, "lat": 40.9140413, "lon": 29.1404944, "tags": {"shop": "greengrocer"}}, {"type": "node", "id": 5718234323, "lat": 41.0261029, "lon": 28.973878, "tags": {"name:en": "Sezginler Tarim Urunleri", "phone": "+90 212 292 0768", "shop": "greengrocer"}}, {"type": "node", "id": 5777772966, "lat": 40.9757543, "lon": 29.264667, "tags": {"name": "Vitamin MEyve Sebze D\u00fcnyas\u0131", "shop": "greengrocer"}}, {"type": "node", "id": 5777772974, "lat": 40.9765382, "lon": 29.2651657, "tags": {"name": "Manav", "shop": "greengrocer"}}, {"type": "node", "id": 5893588787, "lat": 40.9855066, "lon": 29.0241459, "tags": {"addr:housenumber": "6a", "addr:postcode": "34710", "addr:street": "F\u0131r\u0131ldak Soka\u011f\u0131", "shop": "greengrocer"}}, {"type": "node", "id": 5895957485, "lat": 40.9909877, "lon": 29.0237575, "tags": {"name:de": "Basar von Kadik\u00f6y", "shop": "greengrocer"}}, {"type": "node", "id": 5903191036, "lat": 40.8672729, "lon": 29.3282642, "tags": {"shop": "greengrocer"}}, {"type": "node", "id": 6080348363, "lat": 40.9193522, "lon": 29.2247158}, {"type": "node", "id": 6080348364, "lat": 40.9193228, "lon": 29.2247105}, {"type": "node", "id": 6080348365, "lat": 40.9193265, "lon": 29.2246744}, {"type": "node", "id": 6080348366, "lat": 40.9193575, "lon": 29.2246641}, {"type": "node", "id": 6166298558, "lat": 41.0070954, "lon": 29.0846812, "tags": {"shop": "greengrocer"}}, {"type": "node", "id": 6166953285, "lat": 41.0053565, "lon": 29.0865094, "tags": {"addr:city": "istanbul", "addr:district": "ata\u015fehir", "addr:street": "atat\u00fcrk", "shop": "greengrocer"}}, {"type": "node", "id": 6285648072, "lat": 40.9672823, "lon": 29.0631452, "tags": {"addr:city": "\u0130stanbul", "addr:district": "Kad\u0131k\u00f6y", "addr:neighbourhood": "Caddebostan Mahallesi", "addr:street": "Ressam Vecihi Bereketo\u011flu Sokak", "name": "Caddebostan Manav\u0131", "opening_hours": "Mo-Sa 09:00-20:00", "payment:cash": "yes", "payment:credit_cards": "yes", "payment:debit_cards": "yes", "payment:maestro": "yes", "payment:mastercard": "yes", "payment:visa": "yes", "shop": "greengrocer"}}, {"type": "node", "id": 6325088852, "lat": 40.9175153, "lon": 29.2800852, "tags": {"addr:city": "\u0130stanbul", "addr:district": "Pendik", "addr:housenumber": "5D", "addr:neighbourhood": "S\u00fcl\u00fcntepe Mahallesi", "addr:street": "Semerkant Bulvar\u0131", "name": "Taze Kap\u0131da", "shop": "greengrocer"}}, {"type": "node", "id": 6330588357, "lat": 41.0030465, "lon": 29.0749332, "tags": {"name": "Taze Pazar", "shop": "greengrocer"}}, {"type": "node", "id": 6354200198, "lat": 40.9090971, "lon": 29.2218151, "tags": {"shop": "greengrocer"}}, {"type": "node", "id": 6403902786, "lat": 41.0131623, "lon": 29.021372, "tags": {"name": "Kastamonu Yerel \u00dcr\u00fcnler Pazar\u2019\u0131", "name:en": "Kastamonu Natural Bazaar", "name:tr": "Kastamonu Do\u011fal \u00dcr\u00fcnler Pazar\u0131", "shop": "greengrocer"}}, {"type": "node", "id": 6494968814, "lat": 40.8693005, "lon": 29.3043085, "tags": {"shop": "greengrocer"}}, {"type": "node", "id": 6510640097, "lat": 40.8790185, "lon": 29.2346527, "tags": {"addr:city": "\u0130stanbul", "addr:district": "Pendik", "addr:housenumber": "75D", "addr:neighbourhood": "Do\u011fu Mahallesi", "addr:street": "Dr.Orhan Maltepe Caddesi", "name": "Adanal\u0131 Manav", "shop": "greengrocer"}}, {"type": "node", "id": 6513013690, "lat": 40.8677231, "lon": 29.3033718, "tags": {"shop": "greengrocer"}}, {"type": "node", "id": 6525503135, "lat": 40.9860981, "lon": 29.0255942, "tags": {"name": "Kad\u0131k\u00f6yl\u00fc", "shop": "greengrocer"}}, {"type": "node", "id": 6785139400, "lat": 40.9839933, "lon": 29.0276552, "tags": {"name": "Food Project", "opening_hours": "09:00 - 22:00", "organic": "yes", "shop": "greengrocer", "website": "https://mgtr.com.tr/", "wheelchair": "no"}}, {"type": "node", "id": 6790940086, "lat": 40.9839167, "lon": 29.0274251, "tags": {"name": "Mopa\u015f", "shop": "greengrocer"}}, {"type": "node", "id": 7791468457, "lat": 40.9831005, "lon": 29.1179382, "tags": {"name": "Bah\u00e7evan Manav", "shop": "greengrocer"}}, {"type": "node", "id": 8018184787, "lat": 41.037456, "lon": 28.976254, "tags": {"name:en": "Sunday market", "name:ru": "\u0412\u043e\u0441\u043a\u0440\u0435\u0441\u043d\u044b\u0439 \u0440\u044b\u043d\u043e\u043a", "name:tr": "Sunday market", "opening_hours": "Su 09:00-18:00", "shop": "greengrocer"}}, {"type": "node", "id": 8146854690, "lat": 41.0001596, "lon": 29.0399336, "tags": {"name": "Bizim Manav", "shop": "greengrocer"}}, {"type": "node", "id": 8806078061, "lat": 40.9679612, "lon": 29.0658362, "tags": {"addr:neighbourhood": "Caddebostan", "addr:street": "Ba\u011fdat Caddesi", "name": "Asya Pazar\u0131", "opening_hours": "Mo-Sa 08:00-21:00", "shop": "greengrocer"}}, {"type": "node", "id": 8998667238, "lat": 40.9029322, "lon": 29.2323828, "tags": {"name": "Vitamin Manav", "shop": "greengrocer"}}, {"type": "node", "id": 9070238517, "lat": 40.9816534, "lon": 29.0262703, "tags": {"shop": "greengrocer"}}, {"type": "node", "id": 9070324017, "lat": 40.981913, "lon": 29.0239354, "tags": {"name": "Moda Manav\u0131", "shop": "greengrocer"}}, {"type": "node", "id": 9139890340, "lat": 40.9795928, "lon": 29.1177156, "tags": {"name": "Pusula Manav\u0131", "shop": "greengrocer"}}, {"type": "node", "id": 9139890383, "lat": 40.9804465, "lon": 29.1187916, "tags": {"name": "Mini Hal", "shop": "greengrocer"}}, {"type": "node", "id": 9139890384, "lat": 40.9788872, "lon": 29.1200359, "tags": {"name": "Manav", "shop": "greengrocer"}}, {"type": "node", "id": 9190535794, "lat": 40.950854, "lon": 29.1165336, "tags": {"name": "Mestay Manav\u0131", "shop": "greengrocer"}}, {"type": "node", "id": 9286064717, "lat": 40.9940753, "lon": 29.0269536, "tags": {"name": "Depo S\u00fcper Market", "shop": "greengrocer"}}, {"type": "node", "id": 9391995591, "lat": 40.9797143, "lon": 29.1052547, "tags": {"name": "\u0130nn Tar\u0131m \u00dcr\u00fcnleri", "shop": "greengrocer"}}, {"type": "node", "id": 9481262286, "lat": 40.9815565, "lon": 29.0702159, "tags": {"name": "Selen Mini Hal", "shop": "greengrocer"}}, {"type": "node", "id": 9507392251, "lat": 41.0280806, "lon": 28.9772928, "tags": {"name": "Yalova Market", "opening_hours:signed": "no", "shop": "greengrocer"}}, {"type": "node", "id": 9907721224, "lat": 41.0360637, "lon": 28.9919021, "tags": {"name": "Ula\u015f G\u0131da", "shop": "greengrocer"}}, {"type": "node", "id": 9990534064, "lat": 40.8776736, "lon": 29.0997591, "tags": {"shop": "greengrocer"}}, {"type": "node", "id": 9990534069, "lat": 40.8775107, "lon": 29.1002368, "tags": {"name": "Namli", "shop": "greengrocer"}}, {"type": "node", "id": 10017854823, "lat": 40.9754473, "lon": 29.0960134, "tags": {"name": "Karde\u015fler Manav", "shop": "greengrocer"}}, {"type": "node", "id": 10113782317, "lat": 40.9718791, "lon": 29.0514709, "tags": {"addr:city": "\u0130stanbul", "addr:district": "Kad\u0131k\u00f6y", "addr:neighbourhood": "Fenerbah\u00e7e Mahallesi", "addr:postcode": "34726", "addr:street": "Operat\u00f6r Cemil Topuzlu Caddesi", "name": "Vitamix", "shop": "greengrocer"}}, {"type": "node", "id": 10303229514, "lat": 40.9742579, "lon": 29.0466079, "tags": {"name": "Kalam\u0131\u015f Manav", "shop": "greengrocer"}}, {"type": "way", "id": 647453963, "nodes": [6080348363, 6080348364, 6080348365, 6080348366, 6080348363], "tags": {"building": "yes", "shop": "greengrocer"}}]}