{"version": 0.6, "generator": "Overpass API 0.7.60.2 e4cf9f7a", "osm3s": {"timestamp_osm_base": "2023-05-02T19:59:26Z", "copyright": "The data included in this document is from www.openstreetmap.org. The data is made available under ODbL."}, "elements": [{"type": "node", "id": 348995084, "lat": -33.8728452, "lon": 151.2019743, "tags": {"amenity": "nightclub", "name": "HOME", "wheelchair": "yes"}}, {"type": "node", "id": 836112318, "lat": -33.8730156, "lon": 151.2049854, "tags": {"addr:city": "Sydney", "addr:country": "AU", "addr:housenumber": "469", "addr:postcode": "2000", "addr:state": "NSW", "addr:street": "Kent Street", "amenity": "nightclub", "name": "The Scary Canary", "phone": "+61292677087", "website": "http://www.scarycanary.com", "wheelchair": "limited"}}, {"type": "node", "id": 1674520334, "lat": -34.0638848, "lon": 151.0142051}, {"type": "node", "id": 1674520337, "lat": -34.0642816, "lon": 151.0140652}, {"type": "node", "id": 2262396220, "lat": -33.8589412, "lon": 151.2078026, "tags": {"addr:housenumber": "18", "addr:street": "Argyle Street", "amenity": "nightclub", "name": "The Argyle", "source": "(02) 9247 5500", "website": "http://www.theargylerocks.com/"}}, {"type": "node", "id": 2284307682, "lat": -33.8142847, "lon": 151.0054466, "tags": {"amenity": "nightclub"}}, {"type": "node", "id": 2613244936, "lat": -34.0549838, "lon": 151.1516979, "tags": {"amenity": "nightclub", "contact:phone": "+61 02 9544 3844", "name": "Brass Monkey", "source": "survey", "source:location": "bing"}}, {"type": "node", "id": 2613255786, "lat": -34.0540185, "lon": 151.1523547, "tags": {"amenity": "nightclub", "name": "Fusion", "source": "survey", "source:location": "bing"}}, {"type": "node", "id": 2751687127, "lat": -33.8738808, "lon": 151.2227035, "tags": {"addr:city": "Potts Point", "addr:housenumber": "1", "addr:postcode": "2011", "addr:street": "Earl Place", "amenity": "nightclub", "name": "Starfuckers", "website": "http://www.starfuckers.com.au"}}, {"type": "node", "id": 3587031601, "lat": -34.063851, "lon": 151.0141971}, {"type": "node", "id": 3587031602, "lat": -34.0637843, "lon": 151.0143452}, {"type": "node", "id": 3587031603, "lat": -34.0636649, "lon": 151.0143794}, {"type": "node", "id": 3587031604, "lat": -34.0636901, "lon": 151.0144838}, {"type": "node", "id": 3587031605, "lat": -34.0642819, "lon": 151.0142757}, {"type": "node", "id": 3613978324, "lat": -34.0640225, "lon": 151.014367}, {"type": "node", "id": 4772770121, "lat": -33.8917706, "lon": 151.2509202, "tags": {"addr:housenumber": "500", "addr:postcode": "2022", "addr:street": "Oxford Street", "amenity": "nightclub", "name": "El Topo Basement", "opening_hours": "Mo-Su 21:00-04:00"}}, {"type": "node", "id": 4772795722, "lat": -33.867315, "lon": 151.1953792, "tags": {"addr:street": "Pirrama Road", "amenity": "nightclub", "name": "The Marquee"}}, {"type": "node", "id": 4813284527, "lat": -33.8779851, "lon": 151.2137927, "tags": {"amenity": "nightclub", "name": "Oxford Art Factory"}}, {"type": "node", "id": 5453206521, "lat": -33.8751859, "lon": 151.2238547, "tags": {"addr:housenumber": "33", "addr:postcode": "2011", "addr:street": "Bayswater Road", "amenity": "nightclub", "name": "The Club"}}, {"type": "node", "id": 5744800021, "lat": -33.8815454, "lon": 151.2052974, "tags": {"amenity": "nightclub", "name": "The Jungle"}}, {"type": "node", "id": 6009432898, "lat": -33.8781282, "lon": 151.2142334, "tags": {"amenity": "nightclub", "name": "The Cliff Dive"}}, {"type": "node", "id": 8287978317, "lat": -34.0641302, "lon": 151.0143291}, {"type": "node", "id": 9908622858, "lat": -33.8803239, "lon": 151.2162098, "tags": {"amenity": "nightclub", "level": "2", "lgbtq": "primary", "name": "Heaven"}}, {"type": "node", "id": 10314058775, "lat": -34.0357343, "lon": 151.0853146, "tags": {"amenity": "nightclub", "name": "The Vinyl Room"}}, {"type": "way", "id": 352914108, "nodes": [1674520334, 3587031601, 3587031602, 3587031603, 3587031604, 3613978324, 8287978317, 3587031605, 1674520337, 1674520334], "tags": {"amenity": "nightclub", "building": "yes", "name": "Club Engadine"}}]}