{"version": 0.6, "generator": "Overpass API 0.7.60 f4c14d41", "osm3s": {"timestamp_osm_base": "2023-05-02T21:19:24Z", "copyright": "The data included in this document is from www.openstreetmap.org. The data is made available under ODbL."}, "elements": [{"type": "node", "id": 912236692, "lat": 41.0149217, "lon": 28.9282069, "tags": {"name": "Manav", "name:ar": "\u0645\u0627\u0646\u0627\u0641 \u0641\u0648\u0627\u0643\u0647\u062c\u064a", "shop": "greengrocer"}}, {"type": "node", "id": 4303106607, "lat": 41.0339666, "lon": 28.891093, "tags": {"name": "Semt Manav\u0131", "opening_hours": "Mo-Su 10:00-22:00", "shop": "greengrocer"}}, {"type": "node", "id": 4305464889, "lat": 41.0048683, "lon": 28.9584951, "tags": {"name": "Akel market", "shop": "greengrocer"}}, {"type": "node", "id": 4828424025, "lat": 41.0431779, "lon": 28.6472062, "tags": {"name": "\u00c7atalcal\u0131 manav", "name:tr": "\u00c7atalcal\u0131 manav", "opening_hours": "Mo-Su 09:00-21:00", "shop": "greengrocer"}}, {"type": "node", "id": 5036070540, "lat": 41.039057, "lon": 28.8987864, "tags": {"shop": "greengrocer"}}, {"type": "node", "id": 5036070542, "lat": 41.0389663, "lon": 28.8989428, "tags": {"shop": "greengrocer"}}, {"type": "node", "id": 5075960989, "lat": 41.0151694, "lon": 28.9482332, "tags": {"addr:city": "Istanbul", "addr:district": "Fatih", "addr:street": "De\u011fnek\u00e7i sokak", "name": "Natural urunler gida merkezi", "name:ar": "\u0645\u0631\u0643\u0632 \u063a\u0630\u0627\u0626\u064a\u0627\u062a \u0627\u0644\u0645\u0646\u062a\u062c\u0627\u062a \u0627\u0644\u0637\u0628\u064a\u0639\u064a\u0629", "shop": "greengrocer"}}, {"type": "node", "id": 5075960993, "lat": 41.0159578, "lon": 28.9467993, "tags": {"addr:city": "Istanbul", "addr:district": "Fatih", "addr:street": "Balipa\u015fa caddesi", "name": "Merkez yufka", "name:ar": "\u0645\u0631\u0643\u0632 \u063a\u0630\u0627\u0626\u064a\u0627\u062a", "opening_hours": "mo-sa 09:00-18:00", "phone": "02125218925", "shop": "greengrocer"}}, {"type": "node", "id": 5075960995, "lat": 41.0154233, "lon": 28.946435, "tags": {"addr:city": "Istanbul", "addr:district": "Fatih", "addr:street": "Oks\u00fczler sokak", "name": "Halk pazar\u0131", "name:ar": "\u0633\u0648\u0642 \u0627\u0644\u0634\u0639\u0628 \u0644\u0644\u062e\u0636\u0627\u0631", "opening_hours": "mo-su 08:00-23:00", "shop": "greengrocer"}}, {"type": "node", "id": 5075961014, "lat": 41.0144843, "lon": 28.9480939, "tags": {"addr:city": "Istanbul", "addr:district": "Fatih", "addr:street": "Karakad\u0131 sokak", "name": "Bilal halk pazar\u0131", "name:ar": "\u0633\u0648\u0642 \u0628\u0644\u0627\u0644 \u0644\u0644\u062e\u0636\u0627\u0631", "opening_hours": "mo-su 08:00-23:00", "phone": "02125341292", "shop": "greengrocer"}}, {"type": "node", "id": 5081264673, "lat": 41.0148873, "lon": 28.9378005, "tags": {"addr:city": "Istanbul", "addr:district": "Fatih", "addr:street": "Selim Sabit Sokak", "name": "Elif Gida", "name:ar": "\u063a\u0630\u0627\u0626\u064a\u0627\u062a \u0627\u064a\u0644\u0627\u0641", "phone": "02125328801", "shop": "greengrocer"}}, {"type": "node", "id": 5081264676, "lat": 41.0143934, "lon": 28.9391041, "tags": {"addr:city": "Istanbul", "addr:district": "Fatih", "addr:street": "Lutfipa\u015fa Sokak", "name": "Halk Manav\u0131", "name:ar": "\u0633\u0648\u0642 \u0627\u0644\u062e\u0636\u0627\u0631", "shop": "greengrocer"}}, {"type": "node", "id": 5081264686, "lat": 41.0111512, "lon": 28.9454609, "tags": {"addr:city": "Istanbul", "addr:district": "Fatih", "addr:street": "Sefai Efendi Sokak", "name": "G\u00f6khan Market", "name:ar": "\u0633\u0648\u0642 \u063a\u0648\u0643\u0647\u0627\u0646", "shop": "greengrocer"}}, {"type": "node", "id": 5081264689, "lat": 41.0116167, "lon": 28.9437389, "tags": {"addr:city": "Istanbul", "addr:district": "Fatih", "addr:street": "Mir-i Alem Sokak", "name": "Hay Alarab", "name:ar": "\u0633\u0648\u0628\u0631\u0645\u0627\u0631\u0643\u062a \u062d\u064a \u0627\u0644\u0639\u0631\u0628", "shop": "greengrocer"}}, {"type": "node", "id": 5081264706, "lat": 41.0129767, "lon": 28.9442968, "tags": {"addr:city": "Istanbul", "addr:district": "Fatih", "addr:street": "Tomruk\u00e7u Sokak", "name": "Yayla Gida Yufka", "name:ar": "\u063a\u0630\u0627\u0626\u064a\u0627\u062a \u064a\u0627\u064a\u0644\u0627", "phone": "02125231342", "shop": "greengrocer"}}, {"type": "node", "id": 5081265940, "lat": 41.0114373, "lon": 28.9431514, "tags": {"addr:city": "Istanbul", "addr:district": "Fatih", "addr:street": "Softa Sinan Sokak", "name": "Vatan Gida", "name:ar": "\u063a\u0630\u0627\u0626\u064a\u0627\u062a \u0648\u0637\u0646", "shop": "greengrocer"}}, {"type": "node", "id": 5081265943, "lat": 41.0120131, "lon": 28.9437771, "tags": {"addr:city": "Istanbul", "addr:district": "Fatih", "addr:street": "Softa Sinan Sokak", "name": "Vizyon Yufka", "name:ar": "\u0628\u0642\u0627\u0644\u0629 \u0641\u064a\u0632\u064a\u0648\u0646", "phone": "02125342594", "shop": "greengrocer"}}, {"type": "node", "id": 5081274085, "lat": 41.0145473, "lon": 28.9499617, "tags": {"addr:city": "Istanbul", "addr:district": "Fatih", "addr:street": "Ye\u015fil Tekke Sokak", "name": "Murat Gida", "name:ar": "\u063a\u0630\u0627\u0626\u064a\u0627\u062a \u0645\u0631\u0627\u062f", "shop": "greengrocer"}}, {"type": "node", "id": 5081274114, "lat": 41.0109892, "lon": 28.9518692, "tags": {"addr:city": "Istanbul", "addr:district": "Fatih", "addr:street": "Imam Murat Sokak", "name": "Nergiz \u015eark\u00fcteri Tekel Bayii", "name:ar": "\u0646\u064a\u0631\u062c\u064a\u0634 \u0634\u0627\u0631\u0643\u0648\u062a\u0631\u064a \u0644\u0644\u063a\u0630\u0627\u0626\u064a\u0627\u062a", "phone": "02126357125", "shop": "greengrocer"}}, {"type": "node", "id": 5081274322, "lat": 41.0105607, "lon": 28.9514418, "tags": {"addr:city": "Istanbul", "addr:district": "Fatih", "addr:street": "\u015eekerci Sokak", "name": "Merkez Gaziantep Gida Pazar\u0131", "name:ar": "\u0645\u0631\u0643\u0632 \u063a\u0627\u0632\u064a \u0639\u0646\u062a\u0627\u0628 \u0644\u0644\u063a\u0630\u0627\u0626\u064a\u0627\u062a", "shop": "greengrocer"}}, {"type": "node", "id": 5081442444, "lat": 41.02289, "lon": 28.95842, "tags": {"addr:city": "Istanbul", "addr:district": "Fatih", "addr:street": "Salih Pa\u015fa Caddesi", "name": "Ekmen Karde\u015fler Market", "name:ar": "\u0628\u0642\u0627\u0644\u0629 \u0627\u0643\u0645\u0627\u0646 \u0643\u0627\u0631\u062f\u064a\u0634\u0644\u0627\u0631", "shop": "greengrocer"}}, {"type": "node", "id": 5081445101, "lat": 41.0233134, "lon": 28.9514125, "tags": {"addr:city": "Istanbul", "addr:district": "Fatih", "addr:street": "Hali\u00e7 Caddesi", "name": "Alt\u0131n S\u00fcpermarket", "name:ar": "\u0627\u0644\u062a\u0646 \u0633\u0648\u0628\u0631\u0645\u0627\u0631\u0643\u062a", "shop": "greengrocer"}}, {"type": "node", "id": 5081616968, "lat": 40.9982099, "lon": 28.9296011, "tags": {"addr:city": "Istanbul", "addr:district": "Fatih", "addr:street": "Merhaba caddesi", "name": "Co\u015fkun Manav", "name:ar": "\u0645\u0627\u0631\u0643\u062a \u0648 \u062e\u0636\u0631\u0648\u0627\u062a \u062c\u0648\u0634\u0643\u0646", "phone": "0551 553 07 77", "shop": "greengrocer"}}, {"type": "node", "id": 5086061090, "lat": 41.0254261, "lon": 28.9553938, "tags": {"addr:city": "Istanbul", "addr:district": "Fatih", "addr:street": "Karadeniz Caddesi", "name": "Da\u011fdelen Market", "name:ar": "\u062f\u0627\u063a\u062f\u064a\u0644\u064a\u0646 \u0645\u0627\u0631\u0643\u062a", "shop": "greengrocer"}}, {"type": "node", "id": 5086061106, "lat": 41.0239959, "lon": 28.953117, "tags": {"addr:city": "Istanbul", "addr:district": "Fatih", "addr:street": "Kad\u0131 \u00c7e\u015fmesi Sokak", "name": "\u00d6z Aras Market", "name:ar": "\u0627\u0648\u0632 \u0627\u0631\u0627\u0633 \u0645\u0627\u0631\u0643\u062a", "shop": "greengrocer"}}, {"type": "node", "id": 5086061108, "lat": 41.0229562, "lon": 28.9524587, "tags": {"addr:city": "Istanbul", "addr:district": "Fatih", "addr:street": "Kad\u0131 \u00c7e\u015fmesi Sokak", "name": "Y\u0131ld\u0131r\u0131m Market", "name:ar": "\u064a\u0644\u062f\u0631\u064a\u0645 \u0645\u0627\u0631\u0643\u062a", "shop": "greengrocer"}}, {"type": "node", "id": 5087168308, "lat": 40.994702, "lon": 28.925172, "tags": {"addr:city": "Istanbul", "addr:district": "Fatih", "addr:street": "Yedikule caddesi", "name": "Yedikule halk pazar\u0131", "name:ar": "\u064a\u062f\u064a \u0643\u0648\u0644\u064a \u0647\u0627\u0644\u0643 \u0628\u0627\u0632\u0627\u0631\u064a \u0644\u0644\u062e\u0636\u0631\u0648\u0627\u062a", "shop": "greengrocer"}}, {"type": "node", "id": 5087172335, "lat": 40.9968313, "lon": 28.9278482, "tags": {"addr:city": "Istanbul", "addr:district": "Fatih", "addr:street": "\u0130mrahor ilyasbey caddesi", "name": "Atmaca ekonomik halk pazar\u0131", "name:ar": "\u0623\u062a\u0645\u0627\u062c\u0627 \u0644\u0644\u062e\u0636\u0627\u0631 \u0648 \u0627\u0644\u0645\u0624\u0648\u0646\u0629", "shop": "greengrocer"}}, {"type": "node", "id": 5087179452, "lat": 40.9956732, "lon": 28.9267556, "tags": {"addr:city": "Istanbul", "addr:district": "Fatih", "addr:street": "\u0130mrahor ilyasbey caddesi", "name": "Malatya ekonomik pazar\u0131", "name:ar": "\u0628\u0627\u0632\u0627\u0631 \u0645\u0627\u0644\u0627\u0637\u064a\u0627 \u0627\u0644\u0634\u0639\u0628\u064a", "shop": "greengrocer"}}, {"type": "node", "id": 5087179453, "lat": 40.9957127, "lon": 28.9268062, "tags": {"addr:city": "Istanbul", "addr:district": "Fatih", "addr:street": "\u0130mrahor ilyasbey caddesi", "name": "Beyda\u011f\u0131 halk pazar\u0131", "name:ar": "\u0628\u064a\u062f\u0627\u063a\u064a \u0644\u0644\u062e\u0636\u0631\u0648\u0627\u062a", "phone": "02125306477", "shop": "greengrocer"}}, {"type": "node", "id": 5088190896, "lat": 40.9973781, "lon": 28.9297959, "tags": {"addr:city": "Istanbul", "addr:district": "Fatih", "addr:street": "Arap Kuyusu Sokak", "name": "Best Market", "name:ar": "\u0628\u0642\u0627\u0644\u064a\u0629 \u0628\u064a\u0633\u062a", "phone": "02125862748", "shop": "greengrocer"}}, {"type": "node", "id": 5088194882, "lat": 41.0036306, "lon": 28.9317888, "tags": {"addr:city": "Istanbul", "addr:district": "Fatih", "addr:street": "Cambaziye Mektebi Sokak", "name": "Pa\u015fam Meyve Sebze Pazar\u0131", "name:ar": "\u0628\u0627\u0634\u0627\u0645 \u0644\u0644\u062e\u0636\u0627\u0631 \u0648\u0627\u0644\u0641\u0648\u0627\u0643\u0647", "phone": "02125895138", "shop": "greengrocer"}}, {"type": "node", "id": 5088197338, "lat": 40.9993653, "lon": 28.927303, "tags": {"addr:city": "Istanbul", "addr:district": "Fatih", "addr:street": "Yeni Kemanc\u0131 Siteleri Sokak", "name": "Mesut Gida", "name:ar": "\u0645\u0633\u0639\u0648\u062f \u0644\u0644\u0623\u063a\u0630\u064a\u0629", "shop": "greengrocer"}}, {"type": "node", "id": 5099056172, "lat": 41.0045935, "lon": 28.9448886, "tags": {"addr:city": "Istanbul", "addr:district": "Fatih", "addr:street": "K\u00fc\u00e7\u00fck Langa Caddesi", "name": "F\u0131rat mini hal", "name:ar": "\u0627\u0644\u062e\u0636\u0631\u064a \u0641\u0631\u0627\u062a", "phone": "02125884979", "shop": "greengrocer"}}, {"type": "node", "id": 5099062139, "lat": 41.0075266, "lon": 28.9498771, "tags": {"addr:city": "Istanbul", "addr:district": "Fatih", "addr:street": "Manast\u0131rl\u0131 r\u0131fat soka\u011f\u0131", "name": "S\u00fcrg\u00fcc\u00fc market", "name:ar": "\u0645\u0627\u0631\u0643\u062a \u0648 \u062e\u0636\u0631\u064a \u0633\u0648\u0631\u063a\u0648\u062c\u0648", "phone": "05382235948", "shop": "greengrocer"}}, {"type": "node", "id": 5100823706, "lat": 41.0174888, "lon": 28.9318325, "tags": {"addr:city": "Istanbul", "addr:district": "Fatih", "addr:street": "Tatl\u0131p\u0131nar Caddesi", "name": "Efsane manav", "name:ar": "\u062e\u0636\u0631\u064a \u0623\u064a\u0641\u0633\u0627\u0646\u064a", "phone": "02125231019", "shop": "greengrocer"}}, {"type": "node", "id": 5100823712, "lat": 41.0170218, "lon": 28.9313287, "tags": {"addr:city": "Istanbul", "addr:district": "Fatih", "addr:street": "Tatl\u0131p\u0131nar Caddesi", "name": "Manav", "name:ar": "\u062e\u0636\u0631\u064a", "shop": "greengrocer"}}, {"type": "node", "id": 5106121853, "lat": 41.0175457, "lon": 28.9535837, "tags": {"addr:city": "Istanbul", "addr:district": "Fatih", "addr:street": "\u00d6mer Efendi Sokak", "name": "Akman Gida", "name:ar": "\u063a\u0630\u0627\u0626\u064a\u0627\u062a \u0627\u0643\u0645\u0627\u0646", "phone": "02125333177", "shop": "greengrocer"}}, {"type": "node", "id": 5106121863, "lat": 41.0177431, "lon": 28.9525486, "tags": {"addr:city": "Istanbul", "addr:district": "Fatih", "addr:street": "Eski Mutaflar Caddesi", "name": "Ayd\u0131n Supermarket", "name:ar": "\u0633\u0648\u0628\u0631\u0645\u0627\u0631\u0643\u062a \u0627\u064a\u062f\u0646", "phone": "02125340102", "shop": "greengrocer"}}, {"type": "node", "id": 5106122951, "lat": 41.0194242, "lon": 28.9526407, "tags": {"addr:city": "Istanbul", "addr:district": "Fatih", "addr:street": "Ders Vekili Sokak", "name": "Ali Bakkal", "name:ar": "\u0628\u0642\u0627\u0644\u0629 \u0639\u0644\u064a", "shop": "greengrocer"}}, {"type": "node", "id": 5106122953, "lat": 41.0189643, "lon": 28.9529865, "tags": {"addr:city": "Istanbul", "addr:district": "Fatih", "addr:street": "M\u0131h\u00e7\u0131lar Caddesi", "name": "Karde\u015fler Gida", "name:ar": "\u0643\u0627\u0631\u062f\u064a\u0634\u0644\u0631 \u0644\u0644\u063a\u0630\u0627\u0626\u064a\u0627\u062a", "phone": "05394526023", "shop": "greengrocer"}}, {"type": "node", "id": 5106122960, "lat": 41.0181988, "lon": 28.9562433, "tags": {"addr:city": "Istanbul", "addr:district": "Fatih", "addr:street": "Itfaiye Caddesi", "name": "Keskin Gida", "name:ar": "\u0645\u062d\u0644 \u0643\u064a\u0633\u0643\u064a\u0646 \u0644\u0644\u063a\u0630\u0627\u0626\u064a\u0627\u062a", "phone": "02125324876", "shop": "greengrocer"}}, {"type": "node", "id": 5106122961, "lat": 41.0182649, "lon": 28.9563163, "tags": {"addr:city": "Istanbul", "addr:district": "Fatih", "addr:street": "Itfaiye Caddesi", "name": "Hac\u0131 \u015eefiko\u011flular\u0131 Gida", "name:ar": "\u063a\u0630\u0627\u0626\u064a\u0627\u062a \u0634\u0641\u064a\u0642 \u0627\u0648\u063a\u0644\u0648", "phone": "02125333714", "shop": "greengrocer"}}, {"type": "node", "id": 5106122971, "lat": 41.017313, "lon": 28.9555255, "tags": {"addr:city": "Istanbul", "addr:district": "Fatih", "addr:street": "Piri Sokak", "name": "Siirt Fatih Gida", "name:ar": "\u063a\u0630\u0627\u0626\u064a\u0627\u062a \u0633\u064a\u0631\u062a \u0627\u0644\u0641\u0627\u062a\u062d", "phone": "02125334827", "shop": "greengrocer"}}, {"type": "node", "id": 5106122973, "lat": 41.017836, "lon": 28.954942, "tags": {"addr:city": "Istanbul", "addr:district": "Fatih", "addr:street": "K\u0131rbac\u0131 Sokak", "name": "Divan G\u0131da", "name:ar": "\u063a\u0630\u0627\u0626\u064a\u0627\u062a \u062f\u064a\u0648\u0627\u0646", "phone": "05333179074", "shop": "greengrocer"}}, {"type": "node", "id": 5106122979, "lat": 41.0170574, "lon": 28.9554774, "tags": {"addr:city": "Istanbul", "addr:district": "Fatih", "addr:street": "H\u00fcsambey Sokak", "name": "Mini Halk Pazar\u0131", "name:ar": "\u0633\u0648\u0642 \u0645\u064a\u0646\u064a \u0627\u0644\u0634\u0639\u0628\u064a", "phone": "05356003081", "shop": "greengrocer"}}, {"type": "node", "id": 5106122980, "lat": 41.0170394, "lon": 28.9552865, "tags": {"addr:city": "Istanbul", "addr:district": "Fatih", "addr:street": "H\u00fcsambey Sokak", "name": "Bizim Bakal", "name:ar": "\u0628\u0642\u0627\u0644 \u064a\u064a\u0632\u064a\u0645", "phone": "02125330209", "shop": "greengrocer"}}, {"type": "node", "id": 5106123760, "lat": 41.0255662, "lon": 28.9390638, "tags": {"addr:city": "Istanbul", "addr:district": "Turkey", "addr:street": "Prof. Naci \u015eensoy Caddesi", "name": "Malatya Halk pazar\u0131", "name:ar": "\u062e\u0636\u0631\u0648\u0627\u062a \u0645\u0644\u0627\u0637\u064a\u0627", "opening_hours": "mo-su 09:00-21:00", "shop": "greengrocer"}}, {"type": "node", "id": 5106124124, "lat": 41.0203757, "lon": 28.9415181, "tags": {"addr:city": "Istanbul", "addr:district": "Turkey", "addr:street": "Ak\u015femsettin Caddesi", "name": "Manav \u0130stanbul", "name:ar": "\u0627\u0633\u0637\u0646\u0628\u0648\u0644 \u0644\u0644\u062e\u0638\u0631\u0648\u0627\u062a", "opening_hours": "mo-sa 08:00-23:00", "shop": "greengrocer"}}, {"type": "node", "id": 5106131085, "lat": 41.0241841, "lon": 28.9461181, "tags": {"addr:city": "Istanbul", "addr:district": "Turkey", "addr:street": "Ni\u015fanc\u0131 Caddesi", "name": "Burpa Manav", "name:ar": "\u0628\u0648\u0631\u0628\u0627 \u0644\u0644\u062e\u0636\u0631\u0648\u0627\u062a", "opening_hours": "mo-su 08:00-21:00", "shop": "greengrocer"}}, {"type": "node", "id": 5106134537, "lat": 41.0139563, "lon": 28.9272165, "tags": {"addr:city": "Istanbul", "addr:district": "Turkey", "addr:street": "K\u00fc\u00e7\u00fck Saray Meydan\u0131 Caddesi", "name": "\u015eehremini Manav\u0131", "name:ar": "\u0634\u0647\u0631\u064a \u0645\u064a\u0646\u064a \u0644\u0644\u062e\u0636\u0631\u0648\u0627\u062a", "opening_hours": "mo-sa 08:00-22:00", "shop": "greengrocer"}}, {"type": "node", "id": 5106135529, "lat": 41.0155268, "lon": 28.9310494, "tags": {"addr:city": "Istanbul", "addr:district": "Turkey", "addr:street": "Kerpi\u00e7hane Soka\u011f\u0131", "name": "\u00c7\u0131nar Manav", "name:ar": "\u062c\u064a\u0646\u0627\u0631 \u0644\u0644\u062e\u0635\u0631\u0648\u0627\u062a", "opening_hours": "mo-su 08:00-22:00", "shop": "greengrocer"}}, {"type": "node", "id": 5106135550, "lat": 41.0148852, "lon": 28.9284074, "tags": {"addr:city": "Istanbul", "addr:district": "Turkey", "addr:street": "B\u00fcy\u00fck Saray Meydan\u0131 Caddesi", "name": "Mini Hal Manav", "name:ar": "\u0645\u064a\u0646\u064a \u0647\u0627\u0644 \u0644\u0644\u062e\u0636\u0631\u0648\u0627\u062a", "opening_hours": "Mo-su 08:00-21:00", "shop": "greengrocer"}}, {"type": "node", "id": 5107245360, "lat": 41.0037285, "lon": 28.9248543, "tags": {"addr:city": "Istanbul", "addr:district": "Fatih", "addr:street": "Alay \u0130mam\u0131 Sokak", "name": "\u0130brahim Bakkal", "name:ar": "\u0627\u0628\u0631\u0627\u0647\u064a\u0645 \u0628\u0643\u0627\u0644", "shop": "greengrocer"}}, {"type": "node", "id": 5107245373, "lat": 41.0057051, "lon": 28.9243488, "tags": {"addr:city": "Istanbul", "addr:district": "Fatih", "addr:street": "Hanc\u0131 Karag\u00f6z Sokak", "name": "Do\u011fan Market", "name:ar": "\u062f\u0648\u063a\u0627\u0646 \u0645\u0627\u0631\u0643\u062a", "shop": "greengrocer"}}, {"type": "node", "id": 5108308867, "lat": 41.0200284, "lon": 28.9537224, "tags": {"addr:city": "Istanbul", "addr:district": "Fatih", "addr:street": "Nev\u015fehirli Ibrahim Pa\u015fa Caddesi", "name": "Ipek Gida", "name:ar": "\u063a\u0630\u0627\u0626\u064a\u062a\u062a \u0627\u064a\u0628\u064a\u0643", "phone": "02125339405", "shop": "greengrocer"}}, {"type": "node", "id": 5108308876, "lat": 41.0194651, "lon": 28.9550959, "tags": {"addr:city": "Istanbul", "addr:district": "Fatih", "addr:street": "At Pazar\u0131 Sokak", "name": "Bayrak\u00e7i Gida", "name:ar": "\u063a\u0630\u0627\u0626\u064a\u0627\u062a \u0627\u0644\u0628\u064a\u0631\u0642\u062c\u064a", "phone": "02126218752", "shop": "greengrocer"}}, {"type": "node", "id": 5108308878, "lat": 41.0205273, "lon": 28.9527164, "tags": {"addr:city": "Istanbul", "addr:district": "Fatih", "addr:street": "Hattat Fehmi Sokak", "name": "\u015eark\u00fcteri Gida", "name:ar": "\u063a\u0630\u0627\u0626\u064a\u0627\u062a \u0634\u0627\u0631\u0643\u0648\u062a\u062a\u064a\u0631\u064a", "shop": "greengrocer"}}, {"type": "node", "id": 5110347207, "lat": 41.0194082, "lon": 28.961039, "tags": {"addr:city": "Istanbul", "addr:district": "Fatih", "addr:street": "Hac\u0131 Kad\u0131n Caddesi", "name": "Altay market", "name:ar": "\u0627\u0644\u062a\u0627\u064a \u0645\u0627\u0631\u0643\u062a", "shop": "greengrocer"}}, {"type": "node", "id": 5111215166, "lat": 41.0067064, "lon": 28.9408958, "tags": {"addr:city": "Istanbul", "addr:district": "Fatih", "addr:street": "Guzel sebzeci sokak", "name": "Algida", "name:ar": "\u0627\u0644\u062c\u064a\u062f\u0627", "shop": "greengrocer"}}, {"type": "node", "id": 5112749097, "lat": 41.0330947, "lon": 28.9461397, "tags": {"addr:city": "Istanbul", "addr:district": "Fatih", "addr:street": "Ayan Caddesi", "name": "Manav", "name:ar": "\u0645\u062d\u0644 \u062e\u0636\u0631\u0627\u0648\u0627\u062a \u0648\u0641\u0648\u0627\u0643\u0629", "shop": "greengrocer"}}, {"type": "node", "id": 5112749102, "lat": 41.033434, "lon": 28.9445549, "tags": {"addr:city": "Istanbul", "addr:district": "Fatih", "addr:street": "Sultan \u00c7e\u015fmesi Caddesi", "name": "Ayd\u0131nlar Mini Hal", "name:ar": "\u0622\u064a\u062f\u0646\u0644\u0627\u0631 \u0645\u064a\u0646\u064a \u0647\u0627\u0644 \u0644\u0644\u062e\u0636\u0627\u0631 \u0648\u0627\u0644\u0641\u0648\u0627\u0643\u0629", "shop": "greengrocer"}}, {"type": "node", "id": 5113125952, "lat": 41.0036419, "lon": 28.9273989, "tags": {"addr:city": "Istanbul", "addr:district": "Fatih", "addr:street": "A\u011fa \u00c7ay\u0131r\u0131 Caddesi", "name": "P\u0131narlar Halk Pazar\u0131", "name:ar": "\u0628\u064a\u0646\u0627\u0631\u0644\u0627\u0631 \u0647\u0627\u0644\u0643 \u0628\u0627\u0632\u0627\u0631", "shop": "greengrocer"}}, {"type": "node", "id": 5113126653, "lat": 41.0045221, "lon": 28.9316241, "tags": {"addr:city": "Istanbul", "addr:district": "Fatih", "addr:street": "Kuvayi Milliye Caddesi", "name": "Ba\u011flar G\u0131da", "name:ar": "\u0628\u0627\u063a\u0644\u0627\u0631 \u063a\u064a\u062f\u0627", "shop": "greengrocer"}}, {"type": "node", "id": 5113470993, "lat": 41.0151574, "lon": 28.9268887, "tags": {"addr:city": "Istanbul", "addr:district": "Fatih", "addr:street": "Onba\u015f\u0131 Sokak", "name": "AKBURAK GIDA", "name:ar": "\u0628\u0642\u0627\u0644\u0629 \u0623\u0643\u0628\u0648\u0631\u0627\u0643 \u063a\u064a\u062f\u0627", "shop": "greengrocer"}}, {"type": "node", "id": 5113471002, "lat": 41.0168163, "lon": 28.9259337, "tags": {"addr:city": "Istanbul", "addr:district": "Fatih", "addr:street": "Kalburcu Mehmet Cami Sokak", "name": "p\u0131nar market mahsum da\u011f", "name:ar": "\u0628\u0642\u0627\u0644\u0629 \u0628\u0646\u0627\u0631 \u0645\u0627\u0631\u0643\u062a \u0645\u0647\u0633\u0648\u0645 \u062f\u0627\u063a", "shop": "greengrocer"}}, {"type": "node", "id": 5113473740, "lat": 41.0116956, "lon": 28.9234688, "tags": {"addr:city": "Istanbul", "addr:district": "Fatih", "addr:street": "G\u00fcherciler Sokak", "name": "Ramazan Bakkal", "name:ar": "\u0628\u0642\u0627\u0644\u0629 \u0631\u0627\u0645\u0627\u0638\u0627\u0646", "shop": "greengrocer"}}, {"type": "node", "id": 5113473752, "lat": 41.0130499, "lon": 28.9259247, "tags": {"addr:city": "Istanbul", "addr:district": "Fatih", "addr:street": "Elif Lamet Sokak", "name": "Merkez G\u0131da Pazar\u0131", "name:ar": "\u0628\u0642\u0627\u0644\u0629 \u0645\u0631\u0643\u0632 \u063a\u064a\u062f\u0627 \u0628\u0627\u0632\u0627\u0631", "shop": "greengrocer"}}, {"type": "node", "id": 5113495710, "lat": 41.0264342, "lon": 28.9380371, "tags": {"addr:city": "Istanbul", "addr:district": "Fatih", "addr:street": "Prof. naci \u015fensoy caddesi", "name": "Varol mini hal", "name:ar": "\u0641\u0627\u0631 \u0627\u0648\u0644 \u0645\u064a\u0646\u064a \u0647\u0627\u0644", "shop": "greengrocer"}}, {"type": "node", "id": 5113590295, "lat": 41.0077983, "lon": 28.9441132, "tags": {"addr:city": "Istanbul", "addr:district": "Fatih", "addr:street": "Cerrah Pa\u015fa Caddesi", "name": "Manav", "name:ar": "\u0645\u0646\u0627\u0641", "shop": "greengrocer"}}, {"type": "node", "id": 5113599474, "lat": 41.0081475, "lon": 28.9401816, "tags": {"addr:city": "Istanbul", "addr:district": "Fatih", "addr:street": "Hekimo\u011flu ali pa\u015fa Caddesi", "name": "D\u00f6rt mevsim", "name:ar": "\u062f\u0648\u0631\u062a \u0645\u0648\u0633\u0645", "shop": "greengrocer"}}, {"type": "node", "id": 5113609490, "lat": 41.0283348, "lon": 28.9381062, "tags": {"addr:city": "Istanbul", "addr:district": "Fatih", "addr:street": "Salma tomruk caddesi", "name": "Menav", "name:ar": "\u0645\u0646\u0627\u0641", "shop": "greengrocer"}}, {"type": "node", "id": 5113611470, "lat": 41.0295428, "lon": 28.9391509, "tags": {"addr:city": "Istanbul", "addr:district": "Fatih", "addr:street": "Slama tomruk Caddesi", "name": "Manav", "name:ar": "\u0645\u062d\u0644 \u062e\u0636\u0631\u0629", "shop": "greengrocer"}}, {"type": "node", "id": 5115505470, "lat": 41.0083125, "lon": 28.9538619, "tags": {"addr:city": "Istanbul", "addr:district": "Fatih", "addr:street": "Mesihpa\u015fa Caddesi", "name": "My Gross", "name:ar": "\u0645\u0627\u064a \u063a\u0631\u0648\u0633", "shop": "greengrocer"}}, {"type": "node", "id": 5115933173, "lat": 41.000291, "lon": 28.9285968, "tags": {"addr:city": "Istanbul", "addr:district": "Fatih", "addr:street": "Hac\u0131 Kad\u0131n Caddesi", "name": "Sebze ve meyve", "name:ar": "\u062e\u0636\u0627\u0631 \u0648\u0641\u0648\u0627\u0643\u0647", "shop": "greengrocer"}}, {"type": "node", "id": 5115937355, "lat": 41.0069027, "lon": 28.9337448, "tags": {"addr:city": "Istanbul", "addr:district": "Fatih", "addr:street": "Hekimo\u011flu Alipa\u015fa Caddesi", "name": "Pa\u015fam Meyve", "name:ar": "\u0628\u0627\u0634\u0627\u0645 \u0644\u0644\u0641\u0648\u0627\u0643\u0647", "shop": "greengrocer"}}, {"type": "node", "id": 5115937965, "lat": 41.0083674, "lon": 28.9279946, "tags": {"addr:city": "Istanbul", "addr:district": "Fatih", "addr:street": "Seyfullah Efendi Sokak", "name": "Fak\u0131oo\u011flu", "name:ar": "\u0641\u0627\u0643\u064a\u0623\u0648\u063a\u0644\u0648 \u0644\u0644\u062e\u0636\u0627\u0631", "shop": "greengrocer"}}, {"type": "node", "id": 5666801861, "lat": 41.0101246, "lon": 28.9119513, "tags": {"addr:city": "Istanbul", "addr:district": "Zeytinburnu", "addr:street": "G-61. Sokak", "name": "bakkal", "name:ar": "\u0628\u0642\u0627\u0644\u0629", "shop": "greengrocer"}}, {"type": "node", "id": 5667637520, "lat": 41.0031267, "lon": 28.9026832, "tags": {"addr:city": "Istanbul", "addr:district": "Zeytinburnu", "name": "\u015eahin Organik", "name:ar": "\u0628\u0642\u0627\u0644\u0629 \u0634\u0627\u0647\u064a\u0646 \u0644\u0628\u064a\u0639 \u0627\u0644\u062e\u0636\u0627\u0631", "opening_hours": "Mo-Sa 08:00-20:00", "shop": "greengrocer"}}, {"type": "node", "id": 5667640809, "lat": 40.9969772, "lon": 28.9118844, "tags": {"addr:city": "Istanbul", "addr:district": "Zeytinburnu", "name": "D\u00dcKKAN", "name:ar": "\u062e\u0636\u0631\u062c\u064a", "shop": "greengrocer"}}, {"type": "node", "id": 5667642065, "lat": 40.9974794, "lon": 28.9116326, "tags": {"addr:city": "Istanbul", "addr:district": "Zeytinburnu", "name": "Gaziantep g\u0131da", "name:ar": "\u063a\u0630\u0627\u0626\u064a\u0627\u062a \u063a\u0627\u0632\u064a \u0639\u0646\u062a\u0627\u0628", "shop": "greengrocer"}}, {"type": "node", "id": 5667642082, "lat": 40.9997663, "lon": 28.914123, "tags": {"addr:city": "Istanbul", "addr:district": "Zeytinburnu", "name": "D\u00dcKKAN", "name:ar": "\u062e\u0636\u0631\u062c\u064a", "shop": "greengrocer"}}, {"type": "node", "id": 5667642922, "lat": 41.0026592, "lon": 28.9125293, "tags": {"addr:city": "Istanbul", "addr:district": "Zeytinburnu", "name": "Manav", "name:ar": "\u0628\u0627\u0626\u0639 \u062e\u0636\u0627\u0631", "shop": "greengrocer"}}, {"type": "node", "id": 5667642932, "lat": 40.9968519, "lon": 28.9118874, "tags": {"addr:city": "Istanbul", "addr:district": "Zeytinburnu", "name": "Manav", "shop": "greengrocer"}}, {"type": "node", "id": 5667657105, "lat": 40.9878996, "lon": 28.8955319, "tags": {"addr:city": "Istanbul", "addr:district": "Zeytinburnu", "addr:street": "\u015eht. Er Yavuz Bahar Sokak", "name": "Sebze Meyve Pazar\u0131", "name:ar": "\u0628\u0627\u0632\u0627\u0631 \u0627\u0644\u062e\u0636\u0631\u0648\u0627\u062a \u0648\u0627\u0644\u0641\u0627\u0643\u0647\u0629", "shop": "greengrocer"}}, {"type": "node", "id": 5667657115, "lat": 40.9886448, "lon": 28.8944626, "tags": {"addr:city": "Istanbul", "addr:district": "Zeytinburnu", "addr:street": "28/2 sokak", "name": "G\u00fclbahar Market", "name:ar": "\u063a\u0648\u0644\u0628\u0627\u0647\u0627\u0631 \u0645\u0627\u0631\u0643\u062a", "shop": "greengrocer"}}, {"type": "node", "id": 5667658279, "lat": 40.9884793, "lon": 28.896648, "tags": {"addr:city": "Istanbul", "addr:district": "Zeytinburnu", "addr:street": "27/1. sokak", "name": "g\u00fclmar", "name:ar": "\u063a\u0648\u0644\u0645\u0627\u0631", "shop": "greengrocer"}}, {"type": "node", "id": 5667658284, "lat": 40.9909512, "lon": 28.8998178, "tags": {"addr:city": "Istanbul", "addr:district": "Zeytinburnu", "amenity": "marketplace", "name": "Ye\u015filtepe Karde\u015fler Daimi Ekonomik Halk Pazar\u0131", "name:ar": "\u064a\u0634\u064a\u0644 \u062a\u0628\u0629 \u0643\u0627\u0631\u062f\u064a\u0634\u0644\u0627\u0631 \u0644\u0628\u064a\u0639 \u0627\u0644\u062e\u0636\u0631\u0648\u0627\u062a \u0628\u0633\u0639\u0631 \u0627\u0642\u062a\u0635\u0627\u062f\u064a", "opening_hours": "Mo-Su 09:00-20:00", "shop": "greengrocer"}}, {"type": "node", "id": 5667658434, "lat": 40.9934793, "lon": 28.8964072, "tags": {"addr:city": "Istanbul", "addr:district": "Zeytinburnu", "addr:street": "74. Sokak", "name": "\u015eenlik Market", "name:ar": "\u0634\u064a\u0646\u0644\u064a\u0643 \u0645\u0627\u0631\u0643\u064a\u062a", "shop": "greengrocer"}}, {"type": "node", "id": 5667658514, "lat": 40.9862302, "lon": 28.8960213, "tags": {"addr:city": "Istanbul", "addr:district": "Zeytinburnu", "addr:street": "29/7. sokak", "name": "cennet market", "name:ar": "\u062c\u0646\u0629 \u0645\u0627\u0631\u0643\u062a", "shop": "greengrocer"}}, {"type": "node", "id": 5667659235, "lat": 40.9865644, "lon": 28.8948433, "tags": {"addr:city": "Istanbul", "addr:district": "Zeytinburnu", "addr:street": "30. sokak", "name": "\u00e7imen gida", "name:ar": "\u062a\u0634\u064a\u0645\u0627\u0646 \u063a\u0630\u0627\u0621", "shop": "greengrocer"}}, {"type": "node", "id": 5667659256, "lat": 40.9857039, "lon": 28.8971305, "tags": {"addr:city": "Istanbul", "addr:district": "Zeytinburnu", "addr:street": "\u015eht. Piyade Er Ya\u015far Ye\u015filk\u0131r sokak", "name": "Manav", "shop": "greengrocer"}}, {"type": "node", "id": 5667659300, "lat": 40.9873904, "lon": 28.8969404, "tags": {"addr:city": "Istanbul", "addr:district": "Zeytinburnu", "addr:street": "Merv Caddesi", "name": "seyyit karde\u015fler", "name:ar": "\u0633\u064a\u062f \u0643\u0627\u0631\u062f\u064a\u0634\u0644\u0631", "shop": "greengrocer"}}, {"type": "node", "id": 5667660870, "lat": 40.9845625, "lon": 28.8950077, "tags": {"addr:city": "Istanbul", "addr:district": "Zeytinburnu", "addr:street": "18. sokak", "name": "Karaku\u015f Aile Manav\u0131", "name:ar": "\u0643\u0627\u0631\u0627\u0643\u0648\u0634", "shop": "greengrocer"}}, {"type": "node", "id": 5667661727, "lat": 40.9919062, "lon": 28.9062131, "tags": {"addr:city": "Istanbul", "addr:district": "Zeytinburnu", "addr:street": "44/2. sokak", "name": "Mevlana", "name:ar": "\u0645\u0648\u0644\u0627\u0646\u0627", "shop": "greengrocer"}}, {"type": "node", "id": 5667662126, "lat": 40.9904438, "lon": 28.9056019, "tags": {"addr:city": "Istanbul", "addr:district": "Zeytinburnu", "addr:street": "49.sokak.", "name": "OKUYUCU HALK", "name:ar": "\u0627\u0644\u0634\u0639\u0628 \u0627\u0644\u062f\u0627\u0631\u0633", "shop": "greengrocer"}}, {"type": "node", "id": 5667662667, "lat": 40.9934022, "lon": 28.9002474, "tags": {"addr:city": "Istanbul", "addr:district": "Zeytinburnu", "amenity": "marketplace", "name": "Ye\u015filtepe Ekonomik Halk Pazar\u0131", "name:ar": "\u0633\u0648\u0642 \u064a\u0634\u064a\u0644 \u062a\u064a\u0629 \u0627\u0644\u0634\u0639\u0628\u064a \u0644\u0628\u064a\u0639 \u0627\u0644\u062e\u0636\u0627\u0631", "opening_hours": "Mo-Su 09:00-20:00", "shop": "greengrocer"}}, {"type": "node", "id": 5667669950, "lat": 41.0475497, "lon": 28.8211997, "tags": {"addr:city": "Istanbul", "addr:district": "Ba\u011fc\u0131lar", "addr:street": "Karao\u011flano\u011flu caddesi", "name": "Yonca manav\u0131", "name:ar": "\u064a\u0648\u0646\u062c\u0627 \u0628\u064a\u0627\u0639 \u062e\u0636\u0631\u0629", "shop": "greengrocer"}}, {"type": "node", "id": 5667673323, "lat": 41.0473208, "lon": 28.846148, "tags": {"addr:city": "Istanbul", "addr:district": "Ba\u011fc\u0131lar", "name:ar": "\u062e\u0636\u0631\u062c\u064a", "shop": "greengrocer"}}, {"type": "node", "id": 5667673345, "lat": 41.0483505, "lon": 28.8485801, "tags": {"addr:city": "Istanbul", "addr:district": "Ba\u011fc\u0131lar", "name": "\u00d6z nurs", "name:ar": "\u0627\u0648\u0632 \u0646\u0648\u0631\u0633 \u0644\u0644\u062e\u0636\u0627\u0631", "shop": "greengrocer"}}, {"type": "node", "id": 5667673599, "lat": 41.0503503, "lon": 28.8493508, "tags": {"addr:city": "Istanbul", "addr:district": "Zeytinburnu", "name": "NADAS GIDA", "name:ar": "\u062e\u0636\u0631\u0648\u0627\u062a", "shop": "greengrocer"}}, {"type": "node", "id": 5667688626, "lat": 41.0317524, "lon": 28.8376354, "tags": {"addr:city": "Istanbul", "addr:district": "Ba\u011fc\u0131lar", "addr:street": "Kirazli merkez caddesi", "name": "Sebzeci", "name:ar": "\u062e\u0636\u0631\u062c\u064a", "shop": "greengrocer"}}, {"type": "node", "id": 5667691025, "lat": 41.0238032, "lon": 28.8461031, "tags": {"addr:city": "Istanbul", "addr:district": "Ba\u011fc\u0131lar", "addr:street": "2. sokak", "name": "Ekonomik halk pazar\u0131", "name:ar": "\u0628\u0627\u0626\u0639 \u062e\u0636\u0631\u0648\u0627\u062a \u0648\u0641\u0648\u0627\u0643\u0647", "shop": "greengrocer"}}, {"type": "node", "id": 5667691028, "lat": 41.0342152, "lon": 28.8231195, "tags": {"addr:city": "Istanbul", "addr:district": "Ba\u011fc\u0131lar", "addr:street": "Favzi\u00e7akmak Caddesi", "name": "\u0130nebolu", "name:ar": "\u0627\u0646\u0628 \u0627\u0648\u0644\u0648", "phone": "05367401051", "shop": "greengrocer"}}, {"type": "node", "id": 5667691032, "lat": 41.0246006, "lon": 28.8458789, "tags": {"addr:city": "Istanbul", "addr:district": "Ba\u011fc\u0131lar", "addr:street": "2. sokak", "name": "U\u011fur sebze ve meyve pazar\u0131", "name:ar": "\u0627\u0648\u063a\u0648\u0631 \u0644\u0644\u062e\u0636\u0631\u0648\u0627\u062a \u0648\u0627\u0644\u0641\u0648\u0627\u0643\u0647", "shop": "greengrocer"}}, {"type": "node", "id": 5667692656, "lat": 41.0322626, "lon": 28.839206, "tags": {"addr:city": "Istanbul", "addr:district": "Ba\u011fc\u0131lar", "addr:street": "Namal sokak", "name": "Sebzeci", "name:ar": "\u062e\u0636\u0631\u062c\u064a", "shop": "greengrocer"}}, {"type": "node", "id": 5667701546, "lat": 41.0455903, "lon": 28.832224, "tags": {"addr:city": "Istanbul", "addr:district": "Ba\u011fc\u0131lar", "addr:street": "Ba\u011fc\u0131lar Asf. Caddesi", "name": "Ate\u015ftu\u011fla Manav", "name:ar": "\u0627\u062a\u064a\u0634 \u062a\u0648\u063a\u0644\u0627", "shop": "greengrocer"}}, {"type": "node", "id": 5667702783, "lat": 41.0446397, "lon": 28.8400873, "tags": {"addr:city": "Istanbul", "addr:district": "Ba\u011fc\u0131lar", "addr:street": "Ba\u011fc\u0131lar Asf. Caddesi", "name": "Bereket Manav", "name:ar": "\u0628\u0631\u0643\u062a", "shop": "greengrocer"}}, {"type": "node", "id": 5667703953, "lat": 41.0406147, "lon": 28.844047, "tags": {"addr:city": "Istanbul", "addr:district": "Ba\u011fc\u0131lar", "addr:street": "ahmet kabakli", "name": "Emin", "name:ar": "\u0627\u0645\u064a\u0646", "shop": "greengrocer"}}, {"type": "node", "id": 5667703985, "lat": 41.0393168, "lon": 28.8413845, "tags": {"addr:city": "Istanbul", "addr:district": "Ba\u011fc\u0131lar", "addr:street": "Tavukcu kopru caddesi", "name": "Elif gida", "name:ar": "\u0627\u0644\u064a\u0641 \u063a\u062f\u0627", "shop": "greengrocer"}}, {"type": "node", "id": 5667719100, "lat": 41.032655, "lon": 28.8494721, "tags": {"addr:city": "Istanbul", "addr:district": "Ba\u011fc\u0131lar", "addr:street": "Hoca Ahmet Yesevi Caddesi", "name": "Artan manav", "name:ar": "\u0627\u0631\u062a\u0627\u0646 \u0644\u0644\u062e\u0636\u0631\u0627\u0648\u0627\u062a \u0648\u0627\u0644\u0641\u0648\u0627\u0643\u0647", "shop": "greengrocer"}}, {"type": "node", "id": 5667722025, "lat": 41.0334677, "lon": 28.8598686, "tags": {"addr:city": "Istanbul", "addr:district": "Ba\u011fc\u0131lar", "addr:street": "25.sk", "name": "Pamuk G\u0131da", "name:ar": "\u0627\u063a\u0630\u064a\u0629 \u0628\u0627\u0645\u0648\u0643", "shop": "greengrocer"}}, {"type": "node", "id": 5667722026, "lat": 41.0396102, "lon": 28.8638938, "tags": {"addr:city": "Istanbul", "addr:district": "Ba\u011fc\u0131lar", "addr:street": "fatih Caddesi", "name": "Sebze ve Meyve", "name:ar": "\u062e\u0636\u0631\u0648\u0627\u062a \u0648\u0641\u0648\u0627\u0643\u0647", "shop": "greengrocer"}}, {"type": "node", "id": 5667722028, "lat": 41.0372426, "lon": 28.8586576, "tags": {"addr:city": "Istanbul", "addr:district": "Ba\u011fc\u0131lar", "addr:street": "Osmangazi Caddesi", "name": "Cumao\u011flu", "name:ar": "\u062c\u0645\u0639\u0629 \u0627\u0648\u063a\u0644\u0648", "shop": "greengrocer"}}, {"type": "node", "id": 5667722079, "lat": 41.0370825, "lon": 28.8615915, "tags": {"addr:city": "Istanbul", "addr:district": "Ba\u011fc\u0131lar", "addr:street": "846 sokak", "name": "MERCANLAR MARKET", "name:ar": "\u0645\u0631\u062c\u0627\u0646 \u0644\u0627\u0631 \u0645\u0627\u0631\u0643\u062a", "shop": "greengrocer"}}, {"type": "node", "id": 5667747234, "lat": 41.0294518, "lon": 28.8588031, "tags": {"addr:city": "Istanbul", "addr:district": "Ba\u011fc\u0131lar", "addr:street": "1.sk", "name": "market", "name:ar": "\u062e\u0636\u0631\u062c\u064a", "shop": "greengrocer"}}, {"type": "node", "id": 5667747270, "lat": 41.0305531, "lon": 28.8496414, "tags": {"addr:city": "Istanbul", "addr:district": "Ba\u011fc\u0131lar", "addr:street": "30/11. sokak", "name": "Sayg\u0131n manav", "name:ar": "\u0645\u062d\u0644 \u0633\u0627\u064a\u0643\u0646 \u0644\u0644\u062e\u0636\u0631\u0627\u0648\u0627\u062a", "shop": "greengrocer"}}, {"type": "node", "id": 5667747309, "lat": 41.030324, "lon": 28.8498347, "tags": {"addr:city": "Istanbul", "addr:district": "Ba\u011fc\u0131lar", "addr:street": "30/11. sokak", "name": "\u00d6ndero\u011flu halk pazar\u0131", "name:ar": "\u0645\u062d\u0644 \u0627\u0648\u0646\u062f\u0631\u0627\u0648\u063a\u0644\u0648 \u0644\u0644\u062e\u0636\u0627\u0631", "shop": "greengrocer"}}, {"type": "node", "id": 5667747953, "lat": 41.0285655, "lon": 28.8535762, "tags": {"addr:city": "Istanbul", "addr:district": "Ba\u011fc\u0131lar", "addr:street": "\u015eehit Y\u0131lmaz Kaan Caddesi", "name": "Beyda\u011f\u0131 manav", "name:ar": "\u0628\u064a\u062f\u0627\u063a \u0644\u0644\u062e\u0636\u0631\u0627\u0648\u0627\u062a \u0648\u0627\u0644\u0641\u0648\u0627\u0643\u0647", "shop": "greengrocer"}}, {"type": "node", "id": 5667747992, "lat": 41.0223868, "lon": 28.8580263, "tags": {"addr:city": "Istanbul", "addr:district": "Zeytinburnu", "name": "Y\u00f6resel", "name:ar": "\u062e\u0636\u0631\u0648\u0627\u062a \u064a\u0648\u0631\u0633\u0627\u0644", "shop": "greengrocer"}}, {"type": "node", "id": 5667748015, "lat": 41.0316244, "lon": 28.8629663, "tags": {"addr:city": "Istanbul", "addr:district": "Ba\u011fc\u0131lar", "addr:street": "G\u00fcng\u00f6ren caddesi", "name": "Halcim", "name:ar": "\u0647\u0627\u0644\u062c\u064a\u0645", "shop": "greengrocer"}}, {"type": "node", "id": 5667748652, "lat": 41.0192371, "lon": 28.8584346, "tags": {"addr:city": "Istanbul", "addr:district": "Ba\u011fc\u0131lar", "addr:street": "K\u0131br\u0131s Caddesi", "name": "Sarcan Ekonomik Mini Hal", "name:ar": "\u062e\u0636\u0631\u0648\u0627\u062a \u0633\u0627\u0631\u062c\u0627\u0646", "shop": "greengrocer"}}, {"type": "node", "id": 6261922485, "lat": 41.0030875, "lon": 28.7929107, "tags": {"name": "G\u00fcne\u015f Tar\u0131m", "shop": "greengrocer"}}, {"type": "node", "id": 6772678734, "lat": 41.0513426, "lon": 28.8041246, "tags": {"shop": "greengrocer"}}, {"type": "node", "id": 6783792626, "lat": 41.0461513, "lon": 28.890547, "tags": {"addr:city": "\u0130stanbul", "addr:district": "Bayrampa\u015fa", "addr:housenumber": "338/1", "addr:neighbourhood": "Kocatepe Mahallesi", "addr:postcode": "34045", "addr:street": "Hal Yolu Sokak", "name": "338/1", "shop": "greengrocer"}}, {"type": "node", "id": 6784794374, "lat": 41.0459942, "lon": 28.8900358, "tags": {"addr:city": "\u0130stanbul", "addr:district": "Bayrampa\u015fa", "addr:housenumber": "322", "addr:neighbourhood": "Kocatepe Mahallesi", "addr:postcode": "34045", "addr:street": "Hal Yolu Sokak", "name": "322-AbubekirG\u00fclery\u00fcz", "shop": "greengrocer"}}, {"type": "node", "id": 6784794376, "lat": 41.0462994, "lon": 28.8900486, "tags": {"addr:city": "\u0130stanbul", "addr:district": "Bayrampa\u015fa", "addr:housenumber": "325", "addr:neighbourhood": "Kocatepe Mahallesi", "addr:postcode": "34045", "addr:street": "Hal Yolu Sokak", "name": "325-\u00d6zbek G\u0131da", "shop": "greengrocer"}}, {"type": "node", "id": 6784794379, "lat": 41.0460863, "lon": 28.8900397, "tags": {"addr:city": "\u0130stanbul", "addr:district": "Bayrampa\u015fa", "addr:housenumber": "323", "addr:neighbourhood": "Kocatepe Mahallesi", "addr:postcode": "34045", "addr:street": "Hal Yolu Sokak", "name": "323-Efe Tar\u0131m", "shop": "greengrocer"}}, {"type": "node", "id": 6784794380, "lat": 41.0461959, "lon": 28.8900443, "tags": {"addr:city": "\u0130stanbul", "addr:district": "Bayrampa\u015fa", "addr:housenumber": "324", "addr:neighbourhood": "Kocatepe Mahallesi", "addr:postcode": "34045", "addr:street": "Hal Yolu Sokak", "name": "324-Engin \u015eahin", "shop": "greengrocer"}}, {"type": "node", "id": 6784810606, "lat": 41.0459396, "lon": 28.8902176, "tags": {"addr:city": "\u0130stanbul", "addr:district": "Bayrampa\u015fa", "addr:housenumber": "338", "addr:neighbourhood": "Kocatepe Mahallesi", "addr:postcode": "34045", "addr:street": "Hal Yolu Sokak", "name": "338-Karakulak", "shop": "greengrocer"}}, {"type": "node", "id": 9553500458, "lat": 40.9826556, "lon": 28.8691903, "tags": {"name": "Manav'\u0131m", "shop": "greengrocer"}}, {"type": "node", "id": 9554917279, "lat": 41.0031486, "lon": 28.7913129}, {"type": "node", "id": 9554917280, "lat": 41.0030417, "lon": 28.7913514}, {"type": "node", "id": 9554917281, "lat": 41.0030882, "lon": 28.7915763}, {"type": "node", "id": 9554917282, "lat": 41.0031963, "lon": 28.7915378}, {"type": "node", "id": 9935345403, "lat": 41.0202656, "lon": 28.5794808, "tags": {"name": "Manav \u015eark\u00fcteri", "shop": "greengrocer"}}, {"type": "node", "id": 10029201860, "lat": 41.0009931, "lon": 28.8571015, "tags": {"name": "Meyve Sebze D\u00fcnyas\u0131", "shop": "greengrocer"}}, {"type": "node", "id": 10031725818, "lat": 41.0327449, "lon": 28.8300051, "tags": {"name": "G\u00fcne\u015fli Sebze Meyve Pazar\u0131 4", "shop": "greengrocer"}}, {"type": "node", "id": 10570464625, "lat": 41.0010847, "lon": 28.6942696, "tags": {"name": "Denizli G\u00fcney G\u0131da Pazar\u0131", "shop": "greengrocer"}}, {"type": "way", "id": 1037218350, "nodes": [9554917279, 9554917280, 9554917281, 9554917282, 9554917279], "tags": {"building": "yes", "shop": "greengrocer"}}]}