{"version": 0.6, "generator": "Overpass API 0.7.60 f4c14d41", "osm3s": {"timestamp_osm_base": "2023-05-02T21:18:20Z", "copyright": "The data included in this document is from www.openstreetmap.org. The data is made available under ODbL."}, "elements": [{"type": "node", "id": 2665894758, "lat": 19.339294, "lon": -99.232284}, {"type": "node", "id": 2665894760, "lat": 19.3391995, "lon": -99.2322624}, {"type": "node", "id": 2973867331, "lat": 19.3787094, "lon": -99.1702968, "tags": {"amenity": "ice_cream", "name": "Helados QBE"}}, {"type": "node", "id": 3182002313, "lat": 19.3349783, "lon": -99.1793934, "tags": {"addr:street": "Calle Medicina", "amenity": "ice_cream", "name": "Helados La Michoacana"}}, {"type": "node", "id": 3444187996, "lat": 19.3753541, "lon": -99.1774721, "tags": {"amenity": "ice_cream", "name": "Santa Clara", "phone": "01 800 101 0800", "website": "http://www.santaclara.com.mx/es/home/"}}, {"type": "node", "id": 3481023282, "lat": 19.3346475, "lon": -99.1780349, "tags": {"amenity": "ice_cream", "name": "Helados La Michoacana"}}, {"type": "node", "id": 3494211185, "lat": 19.2846071, "lon": -99.1759497, "tags": {"amenity": "ice_cream", "name": "Chiandoni Insurgentes"}}, {"type": "node", "id": 3626236780, "lat": 19.3784238, "lon": -99.1706586, "tags": {"amenity": "ice_cream", "name": "Helados QBE"}}, {"type": "node", "id": 3681551991, "lat": 19.3925514, "lon": -99.1838996, "tags": {"amenity": "ice_cream", "name": "Helader\u00eda"}}, {"type": "node", "id": 3779388861, "lat": 19.3996497, "lon": -99.1485161, "tags": {"amenity": "ice_cream", "name": "Bajo Cero"}}, {"type": "node", "id": 3858182872, "lat": 19.286759, "lon": -99.163281, "tags": {"addr:housenumber": "4650", "addr:street": "Calzada de Tlalpan", "amenity": "ice_cream", "name": "Santa Clara"}}, {"type": "node", "id": 4162393495, "lat": 19.349851, "lon": -99.1630299, "tags": {"amenity": "ice_cream", "cuisine": "coffee_shop;ice_cream", "name": "Siberia Helados"}}, {"type": "node", "id": 4170735890, "lat": 19.4284533, "lon": -99.1630694, "tags": {"amenity": "ice_cream", "brand": "H\u00e4agen-Dazs", "brand:wikidata": "Q1143333", "brand:wikipedia": "en:H\u00e4agen-Dazs", "cuisine": "ice_cream", "name": "H\u00e4agen-Dazs"}}, {"type": "node", "id": 4274303023, "lat": 19.4370353, "lon": -99.1761876, "tags": {"amenity": "ice_cream", "cuisine": "ice_cream", "internet_access": "no", "name": "Helader\u00eda y never\u00eda La Bah\u00eda Michoacana"}}, {"type": "node", "id": 4281023537, "lat": 19.3757166, "lon": -99.196993, "tags": {"amenity": "ice_cream"}}, {"type": "node", "id": 4478000482, "lat": 19.4805794, "lon": -99.1874682, "tags": {"addr:street": "Reforma", "amenity": "ice_cream", "brand": "La Michoacana", "brand:wikidata": "Q17118857", "brand:wikipedia": "en:Paleter\u00eda La Michoacana", "cuisine": "ice_cream", "name": "La Michoacana", "source": "Survey", "takeaway": "yes"}}, {"type": "node", "id": 4533219057, "lat": 19.4939426, "lon": -99.1272347, "tags": {"addr:housenumber": "251", "addr:street": "Avenida Lindavista", "amenity": "ice_cream", "name": "Santa Clara"}}, {"type": "node", "id": 4635169560, "lat": 19.3022761, "lon": -99.1317894, "tags": {"amenity": "ice_cream", "name": "Santa Clara"}}, {"type": "node", "id": 4640535031, "lat": 19.4299481, "lon": -99.1964528, "tags": {"amenity": "ice_cream", "name": "Roxi"}}, {"type": "node", "id": 4640535040, "lat": 19.4305583, "lon": -99.1967849, "tags": {"addr:housenumber": "90 G", "addr:street": "Calle Virgilio", "amenity": "ice_cream", "brand": "La Michoacana", "brand:wikidata": "Q17118857", "brand:wikipedia": "en:Paleter\u00eda La Michoacana", "name": "La Michoacana"}}, {"type": "node", "id": 4650533083, "lat": 19.2953019, "lon": -99.1549318, "tags": {"amenity": "ice_cream", "name": "Enyog"}}, {"type": "node", "id": 4650554094, "lat": 19.2950943, "lon": -99.1549627, "tags": {"amenity": "ice_cream", "brand": "La Michoacana", "brand:wikidata": "Q17118857", "brand:wikipedia": "en:Paleter\u00eda La Michoacana", "name": "La Michoacana"}}, {"type": "node", "id": 4661368814, "lat": 19.2990965, "lon": -99.1369643, "tags": {"amenity": "ice_cream", "name": "Nutrisa"}}, {"type": "node", "id": 4723470079, "lat": 19.3352934, "lon": -99.1469303, "tags": {"amenity": "ice_cream", "name": "Santa Clara"}}, {"type": "node", "id": 4750115050, "lat": 19.340859, "lon": -99.1422444, "tags": {"amenity": "ice_cream", "brand": "La Michoacana", "brand:wikidata": "Q17118857", "name": "La Michoacana"}}, {"type": "node", "id": 4886643425, "lat": 19.3957965, "lon": -99.0627569, "tags": {"amenity": "ice_cream", "brand": "La Michoacana", "brand:wikidata": "Q17118857", "name": "La Michoacana"}}, {"type": "node", "id": 4913623719, "lat": 19.3215112, "lon": -99.1755014, "tags": {"amenity": "ice_cream", "name": "Helados Holanda", "opening_hours": "Mo-Su 12:00-19:00"}}, {"type": "node", "id": 5015283182, "lat": 19.3440564, "lon": -99.1922252, "tags": {"amenity": "ice_cream", "delivery": "no", "name": "Casa Visconti", "opening_hours": "10:00-20:00", "outdoor_seating": "yes", "smoking": "no", "takeaway": "yes", "wheelchair": "limited"}}, {"type": "node", "id": 5031108121, "lat": 19.3482774, "lon": -99.1607379, "tags": {"amenity": "ice_cream", "name": "Helados Coyoac\u00e1n 1900", "name:es": "Helados Coyoac\u00e1n 1900"}}, {"type": "node", "id": 5059370524, "lat": 19.3924395, "lon": -99.1002708, "tags": {"amenity": "ice_cream", "name": "helados"}}, {"type": "node", "id": 5087556626, "lat": 19.417035, "lon": -99.1622723, "tags": {"amenity": "ice_cream", "name": "Cornelia", "name:es": "Cornelia"}}, {"type": "node", "id": 5157300622, "lat": 19.5052292, "lon": -99.1247908, "tags": {"addr:street": "Manizales", "amenity": "ice_cream", "brand": "La Michoacana", "brand:wikidata": "Q17118857", "name": "La Michoacana"}}, {"type": "node", "id": 5197360589, "lat": 19.325093, "lon": -99.2240426, "tags": {"amenity": "ice_cream", "description": "Helado Gourmet y Cafeter\u00eda", "name": "Smyrna"}}, {"type": "node", "id": 5260437322, "lat": 19.3457918, "lon": -99.170396, "tags": {"addr:housenumber": "486", "addr:street": "Avenida Miguel \u00c1ngel de Quevedo", "amenity": "ice_cream", "name": "Santa Clara"}}, {"type": "node", "id": 5260678021, "lat": 19.3496595, "lon": -99.1630639, "tags": {"amenity": "ice_cream", "name": "Las Nieves de Coyoac\u00e1n"}}, {"type": "node", "id": 5319323413, "lat": 19.2859796, "lon": -99.1377986, "tags": {"amenity": "ice_cream", "brand": "La Michoacana", "brand:wikidata": "Q17118857", "brand:wikipedia": "en:Paleter\u00eda La Michoacana", "name": "La Michoacana"}}, {"type": "node", "id": 5321636646, "lat": 19.4203663, "lon": -99.0885538, "tags": {"addr:city": "Ciudad de M\u00e9xico", "addr:unit": "Colonia federal", "amenity": "ice_cream", "delivery": "yes", "name": "Michoacana", "takeaway": "only"}}, {"type": "node", "id": 5321636647, "lat": 19.4196374, "lon": -99.0873879, "tags": {"addr:city": "Ciudad de M\u00e9xico", "addr:street": "Guerra y Marina", "amenity": "ice_cream", "delivery": "yes", "description": "Heladeria, Tortas, Aguas de sabor", "name": "Michoacana", "outdoor_seating": "yes", "takeaway": "yes"}}, {"type": "node", "id": 5329509222, "lat": 19.4309185, "lon": -99.1974816, "tags": {"addr:housenumber": "20", "addr:postcode": "11550", "addr:street": "Calle Oscar Wilde", "amenity": "ice_cream", "name": "Gelatoscopio", "phone": "5550866959"}}, {"type": "node", "id": 5344230054, "lat": 19.359629, "lon": -99.0916058}, {"type": "node", "id": 5350139356, "lat": 19.334761, "lon": -99.0804843}, {"type": "node", "id": 5350139357, "lat": 19.3347269, "lon": -99.0804905}, {"type": "node", "id": 5350139358, "lat": 19.3347172, "lon": -99.0804095}, {"type": "node", "id": 5350139359, "lat": 19.3347499, "lon": -99.0804064}, {"type": "node", "id": 5350151875, "lat": 19.3583706, "lon": -99.0919644}, {"type": "node", "id": 5350151876, "lat": 19.3583241, "lon": -99.0919763}, {"type": "node", "id": 5350151877, "lat": 19.3583129, "lon": -99.0919445}, {"type": "node", "id": 5350151878, "lat": 19.3583302, "lon": -99.0918769}, {"type": "node", "id": 5350151989, "lat": 19.3594065, "lon": -99.0916774}, {"type": "node", "id": 5350151990, "lat": 19.3593836, "lon": -99.091601}, {"type": "node", "id": 5350151991, "lat": 19.3593065, "lon": -99.091623}, {"type": "node", "id": 5350151992, "lat": 19.3593294, "lon": -99.0917002}, {"type": "node", "id": 5350154559, "lat": 19.3561695, "lon": -99.0868618}, {"type": "node", "id": 5350154560, "lat": 19.3562377, "lon": -99.0868292}, {"type": "node", "id": 5350154561, "lat": 19.3562707, "lon": -99.0869055}, {"type": "node", "id": 5350154562, "lat": 19.356207, "lon": -99.0869397}, {"type": "node", "id": 5351953194, "lat": 19.3575171, "lon": -99.1220594}, {"type": "node", "id": 5351953195, "lat": 19.3575147, "lon": -99.1220267}, {"type": "node", "id": 5351953196, "lat": 19.3574782, "lon": -99.1220094}, {"type": "node", "id": 5351953197, "lat": 19.3574667, "lon": -99.1220094}, {"type": "node", "id": 5351953198, "lat": 19.3574695, "lon": -99.1220567}, {"type": "node", "id": 5351953557, "lat": 19.3575041, "lon": -99.122015}, {"type": "node", "id": 5353837294, "lat": 19.3345608, "lon": -99.0794604, "tags": {"amenity": "ice_cream", "brand": "La Michoacana", "brand:wikidata": "Q17118857", "brand:wikipedia": "en:Paleter\u00eda La Michoacana", "name": "La Michoacana"}}, {"type": "node", "id": 5353846661, "lat": 19.3346784, "lon": -99.0809742, "tags": {"amenity": "ice_cream", "brand": "La Michoacana", "brand:wikidata": "Q17118857", "brand:wikipedia": "en:Paleter\u00eda La Michoacana", "name": "La Michoacana"}}, {"type": "node", "id": 5359667248, "lat": 19.3585997, "lon": -99.0911579, "tags": {"amenity": "ice_cream", "brand": "La Michoacana", "brand:wikidata": "Q17118857", "brand:wikipedia": "en:Paleter\u00eda La Michoacana", "name": "La Michoacana"}}, {"type": "node", "id": 5370816663, "lat": 19.3366297, "lon": -99.0808466, "tags": {"amenity": "ice_cream", "brand": "La Michoacana", "brand:wikidata": "Q17118857", "brand:wikipedia": "en:Paleter\u00eda La Michoacana", "name": "La Michoacana"}}, {"type": "node", "id": 5384994959, "lat": 19.4173647, "lon": -99.1603961, "tags": {"addr:housenumber": "131-1", "addr:postcode": "06700", "addr:street": "Chihuahua", "amenity": "ice_cream", "name": "Garros Delicatessen", "opening_hours": "Mo-Su 09:00-18:00", "phone": "55841918"}}, {"type": "node", "id": 5410570625, "lat": 19.3595577, "lon": -99.0916282}, {"type": "node", "id": 5410570626, "lat": 19.3595419, "lon": -99.0915715}, {"type": "node", "id": 5410570627, "lat": 19.3596131, "lon": -99.0915491}, {"type": "node", "id": 5438200357, "lat": 19.3395626, "lon": -99.1087015, "tags": {"amenity": "ice_cream", "brand": "La Michoacana", "brand:wikidata": "Q17118857", "brand:wikipedia": "en:Paleter\u00eda La Michoacana", "name": "La Michoacana"}}, {"type": "node", "id": 5495024221, "lat": 19.4467077, "lon": -99.1913514, "tags": {"amenity": "ice_cream", "brand": "La Michoacana", "brand:wikidata": "Q17118857", "brand:wikipedia": "en:Paleter\u00eda La Michoacana", "name": "La Michoacana"}}, {"type": "node", "id": 5509017065, "lat": 19.4274104, "lon": -99.1339193, "tags": {"amenity": "ice_cream", "name": "Nutrisa"}}, {"type": "node", "id": 5509017265, "lat": 19.4277453, "lon": -99.1367212, "tags": {"amenity": "ice_cream", "name": "Helados Santa Clara"}}, {"type": "node", "id": 5521302122, "lat": 19.374022, "lon": -99.1630458, "tags": {"amenity": "ice_cream", "name": "Moyo"}}, {"type": "node", "id": 5585270824, "lat": 19.4357649, "lon": -99.2016218, "tags": {"amenity": "ice_cream", "name": "Roxy"}}, {"type": "node", "id": 5650005678, "lat": 19.3548324, "lon": -99.0907617}, {"type": "node", "id": 5650005679, "lat": 19.3548884, "lon": -99.0907432}, {"type": "node", "id": 5650005680, "lat": 19.3548824, "lon": -99.0907228}, {"type": "node", "id": 5650005681, "lat": 19.354927, "lon": -99.0907074}, {"type": "node", "id": 5650005682, "lat": 19.3549324, "lon": -99.0907272}, {"type": "node", "id": 5650005683, "lat": 19.3549614, "lon": -99.0907176}, {"type": "node", "id": 5650005684, "lat": 19.3549367, "lon": -99.0906335}, {"type": "node", "id": 5650005685, "lat": 19.3548073, "lon": -99.0906762}, {"type": "node", "id": 5686316921, "lat": 19.387289, "lon": -99.1357215, "tags": {"amenity": "ice_cream", "name": "Helados & Nieves"}}, {"type": "node", "id": 5718505775, "lat": 19.4408216, "lon": -99.2067602}, {"type": "node", "id": 5718505776, "lat": 19.440852, "lon": -99.2066717}, {"type": "node", "id": 5718505777, "lat": 19.4409114, "lon": -99.206716}, {"type": "node", "id": 5718505778, "lat": 19.4409329, "lon": -99.206779}, {"type": "node", "id": 5718505779, "lat": 19.4409051, "lon": -99.2068286}, {"type": "node", "id": 5792873310, "lat": 19.4195656, "lon": -99.0886609, "tags": {"addr:city": "Ciudad de M\u00e9xico", "addr:postcode": "15730", "addr:street": "Gobierno del Distrito", "amenity": "ice_cream", "brand": "La Michoacana", "brand:wikidata": "Q17118857", "brand:wikipedia": "en:Paleter\u00eda La Michoacana", "delivery": "yes", "name": "La Michoacana", "outdoor_seating": "yes", "takeaway": "yes"}}, {"type": "node", "id": 5845018637, "lat": 19.3391953, "lon": -99.2323486}, {"type": "node", "id": 5845018638, "lat": 19.3392722, "lon": -99.2323658}, {"type": "node", "id": 5845018639, "lat": 19.3392842, "lon": -99.232355}, {"type": "node", "id": 5845018640, "lat": 19.3392922, "lon": -99.2323449}, {"type": "node", "id": 5845018641, "lat": 19.3393014, "lon": -99.2323204}, {"type": "node", "id": 5845018642, "lat": 19.3393016, "lon": -99.2323072}, {"type": "node", "id": 5845018643, "lat": 19.3392989, "lon": -99.2322964}, {"type": "node", "id": 5845018644, "lat": 19.3392977, "lon": -99.2323351}, {"type": "node", "id": 5850055599, "lat": 19.339208, "lon": -99.2323514}, {"type": "node", "id": 5850055604, "lat": 19.3392118, "lon": -99.2322652}, {"type": "node", "id": 5872963158, "lat": 19.4170643, "lon": -99.0897277, "tags": {"addr:city": "Ciudad de M\u00e9xico", "addr:postcode": "15730", "addr:street": "Trabajo y Previsi\u00f3n Social", "amenity": "ice_cream", "delivery": "yes", "description": "Aguas y helados La Michoacana", "name": "Michoacana", "outdoor_seating": "yes", "takeaway": "yes"}}, {"type": "node", "id": 5902436936, "lat": 19.358361, "lon": -99.0919129}, {"type": "node", "id": 5902436937, "lat": 19.3583634, "lon": -99.0918699}, {"type": "node", "id": 5963114894, "lat": 19.4178972, "lon": -99.1024816}, {"type": "node", "id": 5963114895, "lat": 19.4177633, "lon": -99.1025209}, {"type": "node", "id": 5963114896, "lat": 19.4177214, "lon": -99.1023447}, {"type": "node", "id": 5963114897, "lat": 19.417873, "lon": -99.1023738}, {"type": "node", "id": 6135402260, "lat": 19.3080633, "lon": -99.0445003}, {"type": "node", "id": 6135402264, "lat": 19.3081251, "lon": -99.0444923}, {"type": "node", "id": 6135402265, "lat": 19.3081009, "lon": -99.0444622}, {"type": "node", "id": 6135402266, "lat": 19.3080992, "lon": -99.0445189}, {"type": "node", "id": 6197339176, "lat": 19.3943433, "lon": -99.1383766}, {"type": "node", "id": 6197339177, "lat": 19.3941694, "lon": -99.1382251}, {"type": "node", "id": 6197339178, "lat": 19.3943161, "lon": -99.1382016}, {"type": "node", "id": 6319954453, "lat": 19.3148741, "lon": -99.1614687, "tags": {"amenity": "ice_cream"}}, {"type": "node", "id": 6357512626, "lat": 19.3888206, "lon": -99.1357643, "tags": {"amenity": "ice_cream", "name": "Helados Santa Clara"}}, {"type": "node", "id": 6624806610, "lat": 19.3594237, "lon": -99.0897463}, {"type": "node", "id": 6624806611, "lat": 19.3594669, "lon": -99.0897323}, {"type": "node", "id": 6624806612, "lat": 19.3594861, "lon": -99.089801}, {"type": "node", "id": 6624806613, "lat": 19.3594705, "lon": -99.0898022}, {"type": "node", "id": 6624806614, "lat": 19.3594585, "lon": -99.0897717}, {"type": "node", "id": 6624806615, "lat": 19.3594369, "lon": -99.0897742}, {"type": "node", "id": 6668788772, "lat": 19.478279, "lon": -99.1883691, "tags": {"amenity": "ice_cream", "cuisine": "ice_cream", "name": "La Maryca", "opening_hours": "Mo-Su 11:00-22:00"}}, {"type": "node", "id": 6688846272, "lat": 19.3475956, "lon": -99.0767985}, {"type": "node", "id": 6688846273, "lat": 19.3475822, "lon": -99.0767605}, {"type": "node", "id": 6688846274, "lat": 19.3476537, "lon": -99.0767255}, {"type": "node", "id": 6688846275, "lat": 19.3476115, "lon": -99.0766402}, {"type": "node", "id": 6688846276, "lat": 19.347644, "lon": -99.0766243}, {"type": "node", "id": 6688846277, "lat": 19.3476995, "lon": -99.0767401}, {"type": "node", "id": 6712542914, "lat": 19.3498292, "lon": -99.0743315, "tags": {"amenity": "ice_cream", "brand": "La Michoacana", "brand:wikidata": "Q17118857", "brand:wikipedia": "en:Paleter\u00eda La Michoacana", "name": "La Michoacana"}}, {"type": "node", "id": 6896907785, "lat": 19.4249553, "lon": -99.1337517, "tags": {"amenity": "ice_cream", "brand": "La Michoacana", "brand:wikidata": "Q17118857", "name": "La Michoacana", "shop": "confectionery"}}, {"type": "node", "id": 6992995692, "lat": 19.4404323, "lon": -99.1842696, "tags": {"amenity": "ice_cream", "name": "Nutrisa Parques Polanco"}}, {"type": "node", "id": 7017515402, "lat": 19.370203, "lon": -99.1548704, "tags": {"amenity": "ice_cream", "brand": "La Michoacana", "brand:wikidata": "Q17118857", "name": "La Michoacana"}}, {"type": "node", "id": 7137820619, "lat": 19.4393727, "lon": -99.1780515, "tags": {"amenity": "ice_cream", "brand": "La Michoacana", "brand:wikidata": "Q17118857", "brand:wikipedia": "en:Paleter\u00eda La Michoacana", "name": "La Michoacana"}}, {"type": "node", "id": 7147638829, "lat": 19.4390532, "lon": -99.1490283, "tags": {"amenity": "ice_cream", "name": "La Gran Michoacana", "shop": "ice_cream"}}, {"type": "node", "id": 7151470873, "lat": 19.3652212, "lon": -99.115215, "tags": {"amenity": "ice_cream", "name": "Frody"}}, {"type": "node", "id": 7323897912, "lat": 19.2881955, "lon": -99.2182401, "tags": {"amenity": "ice_cream", "name": "La Michoacana"}}, {"type": "node", "id": 7364505791, "lat": 19.2746486, "lon": -99.1435367, "tags": {"amenity": "ice_cream", "brand": "La Michoacana", "brand:wikidata": "Q17118857", "brand:wikipedia": "en:Paleter\u00eda La Michoacana", "name": "La Michoacana"}}, {"type": "node", "id": 7393261667, "lat": 19.4332353, "lon": -99.1677463}, {"type": "node", "id": 7393261668, "lat": 19.4331709, "lon": -99.1677107}, {"type": "node", "id": 7393261669, "lat": 19.4331443, "lon": -99.1677745}, {"type": "node", "id": 7393261670, "lat": 19.4332073, "lon": -99.1678116}, {"type": "node", "id": 7692396502, "lat": 19.4448847, "lon": -99.1088387}, {"type": "node", "id": 7692396503, "lat": 19.4448131, "lon": -99.1088656}, {"type": "node", "id": 7692396504, "lat": 19.4447668, "lon": -99.1087275}, {"type": "node", "id": 7692396505, "lat": 19.4448384, "lon": -99.1087005}, {"type": "node", "id": 7692396506, "lat": 19.44531, "lon": -99.1093017}, {"type": "node", "id": 7692396507, "lat": 19.4454162, "lon": -99.1092665}, {"type": "node", "id": 7692396508, "lat": 19.445376, "lon": -99.1091298}, {"type": "node", "id": 7692396509, "lat": 19.4452698, "lon": -99.1091649}, {"type": "node", "id": 7692396544, "lat": 19.4459726, "lon": -99.1071243}, {"type": "node", "id": 7692396545, "lat": 19.4459154, "lon": -99.1071431}, {"type": "node", "id": 7692396546, "lat": 19.4458804, "lon": -99.1070229}, {"type": "node", "id": 7692396547, "lat": 19.4459376, "lon": -99.1070042}, {"type": "node", "id": 7984727743, "lat": 19.4237573, "lon": -99.1649807, "tags": {"addr:city": "Ciudad de M\u00e9xico", "addr:housenumber": "158", "addr:postcode": "06600", "addr:street": "Calle Liverpool", "amenity": "ice_cream", "name": "Helado Obscuro", "opening_hours": "Mo-Su 12:00-20:00", "phone": "+52 55 520 84525", "website": "http://www.heladoobscuro.com"}}, {"type": "node", "id": 8001115677, "lat": 19.4184358, "lon": -99.1724763, "tags": {"amenity": "ice_cream", "name": "Nutrisa", "outdoor_seating": "no"}}, {"type": "node", "id": 8004853807, "lat": 19.4110483, "lon": -99.1769598, "tags": {"amenity": "ice_cream", "diet:vegan": "yes", "name": "Casa Michoac\u00e1n", "opening_hours": "PH,Mo-Su 10:00-21:00", "wheelchair": "limited"}}, {"type": "node", "id": 8236181317, "lat": 19.4333734, "lon": -99.1455988, "tags": {"amenity": "ice_cream", "name": "Nieves 100% Artesanales"}}, {"type": "node", "id": 8236184217, "lat": 19.4362894, "lon": -99.1463071, "tags": {"amenity": "ice_cream", "name": "Glac\u00e9 Ice Cream"}}, {"type": "node", "id": 8236190917, "lat": 19.434101, "lon": -99.136573, "tags": {"amenity": "ice_cream", "name": "Nieves 100% artesanales"}}, {"type": "node", "id": 8237657717, "lat": 19.4297063, "lon": -99.1568732, "tags": {"amenity": "ice_cream", "name": "Helader\u00eda Casa Morgana"}}, {"type": "node", "id": 8237661517, "lat": 19.4282575, "lon": -99.1553557, "tags": {"amenity": "ice_cream", "name": "Joe Gelato"}}, {"type": "node", "id": 8237668518, "lat": 19.425798, "lon": -99.1690268, "tags": {"amenity": "ice_cream", "name": "Amilado Helados"}}, {"type": "node", "id": 8237694418, "lat": 19.4090503, "lon": -99.1770399, "tags": {"amenity": "ice_cream", "name": "Nieve de Olla"}}, {"type": "node", "id": 8237718718, "lat": 19.4198267, "lon": -99.159617, "tags": {"amenity": "ice_cream", "name": "Helados Cometa"}}, {"type": "node", "id": 8237725218, "lat": 19.4168226, "lon": -99.1609464, "tags": {"amenity": "ice_cream", "name": "Helados Hope"}}, {"type": "node", "id": 8481446338, "lat": 19.4446723, "lon": -99.1071517, "tags": {"amenity": "ice_cream"}}, {"type": "node", "id": 8558352617, "lat": 19.4138439, "lon": -99.1697228, "tags": {"amenity": "ice_cream", "name": "La Pantera Fresca"}}, {"type": "node", "id": 8562321117, "lat": 19.48139, "lon": -99.1174874, "tags": {"amenity": "ice_cream", "name": "La Michocana es... Natural - Helado y Paleta"}}, {"type": "node", "id": 8573056904, "lat": 19.3162046, "lon": -99.1666108, "tags": {"addr:street": "Avenida Aztecas", "amenity": "ice_cream", "brand": "La Michoacana", "brand:wikidata": "Q17118857", "brand:wikipedia": "en:Paleter\u00eda La Michoacana", "name": "La Michoacana"}}, {"type": "node", "id": 8584535117, "lat": 19.3213253, "lon": -99.1298513, "tags": {"amenity": "ice_cream", "name": "Helado y Paletas"}}, {"type": "node", "id": 8715454217, "lat": 19.4302545, "lon": -99.1968362, "tags": {"amenity": "ice_cream", "name": "Neveria Roxy"}}, {"type": "node", "id": 8843433716, "lat": 19.3823503, "lon": -99.11872, "tags": {"amenity": "ice_cream", "brand": "La Michoacana", "brand:wikidata": "Q17118857", "brand:wikipedia": "en:Paleter\u00eda La Michoacana", "name": "La Michoacana"}}, {"type": "node", "id": 8843537526, "lat": 19.353973, "lon": -99.3065503, "tags": {"amenity": "ice_cream"}}, {"type": "node", "id": 9010536419, "lat": 19.3813582, "lon": -99.1902085, "tags": {"amenity": "ice_cream", "brand": "La Michoacana", "brand:wikidata": "Q17118857", "brand:wikipedia": "en:Paleter\u00eda La Michoacana", "name": "La Michoacana", "opening_hours:covid19": "same", "outdoor_seating": "yes", "wheelchair": "no"}}, {"type": "node", "id": 9156706916, "lat": 19.4686097, "lon": -99.1788697}, {"type": "node", "id": 9156721117, "lat": 19.4686015, "lon": -99.1787774}, {"type": "node", "id": 9156721118, "lat": 19.4686928, "lon": -99.1787682}, {"type": "node", "id": 9156721119, "lat": 19.468701, "lon": -99.1788606}, {"type": "node", "id": 9712973612, "lat": 19.2949346, "lon": -99.1763448, "tags": {"amenity": "ice_cream", "brand": "La Michoacana", "brand:wikidata": "Q17118857", "name": "La Michoacana"}}, {"type": "node", "id": 9847149918, "lat": 19.4794292, "lon": -99.0981214, "tags": {"amenity": "ice_cream", "name": "Ojo de agua"}}, {"type": "node", "id": 9848472422, "lat": 19.4817603, "lon": -99.1197644, "tags": {"amenity": "ice_cream", "brand": "La Michoacana", "brand:wikidata": "Q17118857", "name": "La Michoacana"}}, {"type": "node", "id": 9859298391, "lat": 19.305229, "lon": -99.0796189, "tags": {"amenity": "ice_cream", "name": "Paleter\u00eda \"El Gran Sabor\""}}, {"type": "node", "id": 9860730040, "lat": 19.3399863, "lon": -99.1998332, "tags": {"amenity": "ice_cream", "name": "Helader\u00eda Regios"}}, {"type": "node", "id": 9870840992, "lat": 19.3488871, "lon": -99.150874, "tags": {"amenity": "ice_cream", "description": "Helader\u00eda con receta italiana", "name": "Carretino"}}, {"type": "node", "id": 9871355052, "lat": 19.3000159, "lon": -99.1041016, "tags": {"amenity": "ice_cream", "name": "Never\u00eda \"Frody\""}}, {"type": "node", "id": 9898536662, "lat": 19.2988153, "lon": -99.0762473, "tags": {"amenity": "ice_cream", "name": "Paleter\u00eda \"La Mexicana\""}}, {"type": "node", "id": 9905267044, "lat": 19.3153806, "lon": -99.0728274, "tags": {"amenity": "ice_cream", "brand": "La Michoacana", "brand:wikidata": "Q17118857", "name": "La Michoacana"}}, {"type": "node", "id": 9955883445, "lat": 19.3565837, "lon": -99.0720438, "tags": {"amenity": "ice_cream", "name": "La Universal"}}, {"type": "node", "id": 9955890412, "lat": 19.3510665, "lon": -99.0736345, "tags": {"amenity": "ice_cream", "name": "La Michoacana"}}, {"type": "node", "id": 9962868838, "lat": 19.3533732, "lon": -99.125981, "tags": {"amenity": "ice_cream", "name": "Nieves de Coyoac\u00e1n"}}, {"type": "node", "id": 9968998519, "lat": 19.3534406, "lon": -99.1608788, "tags": {"amenity": "ice_cream", "name": "El Portal del Sabor"}}, {"type": "node", "id": 9971212117, "lat": 19.3495917, "lon": -99.1632204, "tags": {"amenity": "ice_cream", "name": "Siberia"}}, {"type": "node", "id": 9978882166, "lat": 19.3349615, "lon": -99.1587146, "tags": {"amenity": "ice_cream", "name": "Frody"}}, {"type": "node", "id": 9989259779, "lat": 19.3400825, "lon": -99.1482964, "tags": {"amenity": "ice_cream", "name": "Gelatos Piccolina"}}, {"type": "node", "id": 9991795917, "lat": 19.4195178, "lon": -99.1601881, "tags": {"amenity": "ice_cream", "name": "Gelatoscopio"}}, {"type": "node", "id": 10069621230, "lat": 19.3606605, "lon": -99.1105736, "tags": {"amenity": "ice_cream", "name": "Never\u00eda Paleter\u00eda"}}, {"type": "node", "id": 10181985915, "lat": 19.3096984, "lon": -99.0781053, "tags": {"amenity": "ice_cream", "name": "Helados Artesanales"}}, {"type": "node", "id": 10208409517, "lat": 19.4326913, "lon": -99.162864, "tags": {"amenity": "ice_cream", "name": "Frody"}}, {"type": "node", "id": 10226015822, "lat": 19.5268037, "lon": -99.1421318, "tags": {"amenity": "ice_cream", "brand": "La Michoacana", "brand:wikidata": "Q17118857", "brand:wikipedia": "en:Paleter\u00eda La Michoacana", "name": "La Michoacana", "survey:date": "2022-12-22"}}, {"type": "node", "id": 10257972509, "lat": 19.5296582, "lon": -99.1446077, "tags": {"amenity": "ice_cream", "survey:date": "2022-12-11"}}, {"type": "node", "id": 10257973112, "lat": 19.5290458, "lon": -99.142246, "tags": {"amenity": "ice_cream", "survey:date": "2022-12-12"}}, {"type": "node", "id": 10270143412, "lat": 19.52735, "lon": -99.1390186, "tags": {"amenity": "ice_cream", "survey:date": "2022-12-17"}}, {"type": "node", "id": 10277130026, "lat": 19.5217005, "lon": -99.1579791, "tags": {"amenity": "ice_cream", "brand": "La Michoacana", "brand:wikidata": "Q17118857", "brand:wikipedia": "en:Paleter\u00eda La Michoacana", "name": "La Michoacana", "survey:date": "2022-12-20"}}, {"type": "node", "id": 10281215610, "lat": 19.5257914, "lon": -99.1432151, "tags": {"amenity": "ice_cream", "survey:date": "2022-12-22"}}, {"type": "node", "id": 10281247509, "lat": 19.5277056, "lon": -99.1444178, "tags": {"amenity": "ice_cream", "survey:date": "2022-12-22"}}, {"type": "node", "id": 10290363158, "lat": 19.5147798, "lon": -99.1354995, "tags": {"amenity": "ice_cream", "survey:date": "2022-12-27"}}, {"type": "node", "id": 10290368075, "lat": 19.5158632, "lon": -99.135072, "tags": {"amenity": "ice_cream", "brand": "La Michoacana", "brand:wikidata": "Q17118857", "brand:wikipedia": "en:Paleter\u00eda La Michoacana", "name": "La Michoacana", "survey:date": "2022-12-27"}}, {"type": "node", "id": 10292556816, "lat": 19.4947361, "lon": -99.12223, "tags": {"amenity": "ice_cream", "survey:date": "2022-12-28"}}, {"type": "node", "id": 10292573312, "lat": 19.4831188, "lon": -99.1192287, "tags": {"amenity": "ice_cream", "survey:date": "2022-12-28"}}, {"type": "node", "id": 10292573710, "lat": 19.4573233, "lon": -99.1293344, "tags": {"amenity": "ice_cream", "brand": "La Michoacana", "brand:wikidata": "Q17118857", "brand:wikipedia": "en:Paleter\u00eda La Michoacana", "name": "La Michoacana Natural", "survey:date": "2023-04-29"}}, {"type": "node", "id": 10292574416, "lat": 19.5033801, "lon": -99.1327387, "tags": {"amenity": "ice_cream", "brand": "La Michoacana", "brand:wikidata": "Q17118857", "brand:wikipedia": "en:Paleter\u00eda La Michoacana", "name": "La Michoacana", "survey:date": "2022-12-28"}}, {"type": "node", "id": 10309349215, "lat": 19.5429281, "lon": -99.1481006, "tags": {"amenity": "ice_cream", "name": "Monarca Super Helados", "survey:date": "2023-01-05"}}, {"type": "node", "id": 10309372413, "lat": 19.5450327, "lon": -99.1417343, "tags": {"amenity": "ice_cream", "survey:date": "2023-01-05"}}, {"type": "node", "id": 10542337223, "lat": 19.5089762, "lon": -99.1417627, "tags": {"amenity": "ice_cream", "name": "Santa Clara", "survey:date": "2023-01-11"}}, {"type": "node", "id": 10544235122, "lat": 19.4613661, "lon": -99.1388366, "tags": {"amenity": "ice_cream", "survey:date": "2023-01-12"}}, {"type": "node", "id": 10544235416, "lat": 19.4605184, "lon": -99.1399468, "tags": {"amenity": "ice_cream", "brand": "La Michoacana", "brand:wikidata": "Q17118857", "name": "La Michoacana", "survey:date": "2023-01-12"}}, {"type": "node", "id": 10557741420, "lat": 19.5385408, "lon": -99.1405307, "tags": {"amenity": "ice_cream", "survey:date": "2023-01-15"}}, {"type": "node", "id": 10557744624, "lat": 19.5437947, "lon": -99.138128, "tags": {"amenity": "ice_cream", "name": "La Michoacana", "survey:date": "2023-01-15"}}, {"type": "node", "id": 10557744631, "lat": 19.540209, "lon": -99.1404007, "tags": {"amenity": "ice_cream", "survey:date": "2023-01-15"}}, {"type": "node", "id": 10557744744, "lat": 19.5445371, "lon": -99.1386084, "tags": {"amenity": "ice_cream", "survey:date": "2023-01-15"}}, {"type": "node", "id": 10560289345, "lat": 19.4136348, "lon": -99.1613895, "tags": {"amenity": "ice_cream", "brand": "La Michoacana", "brand:wikidata": "Q17118857", "name": "La Michoacana"}}, {"type": "node", "id": 10576993745, "lat": 19.4555914, "lon": -99.1039619, "tags": {"amenity": "ice_cream", "survey:date": "2023-01-22"}}, {"type": "node", "id": 10600099106, "lat": 19.5316302, "lon": -99.1424223, "tags": {"amenity": "ice_cream", "survey:date": "2023-02-01"}}, {"type": "node", "id": 10600119723, "lat": 19.5240655, "lon": -99.1482577, "tags": {"amenity": "ice_cream", "survey:date": "2023-02-01"}}, {"type": "node", "id": 10605550710, "lat": 19.4333015, "lon": -99.1851056, "tags": {"amenity": "ice_cream", "name": "La Vaca de Oro", "survey:date": "2023-02-03"}}, {"type": "node", "id": 10605552008, "lat": 19.4334785, "lon": -99.1870144, "tags": {"amenity": "ice_cream", "name": "Carmela", "survey:date": "2023-02-03"}}, {"type": "node", "id": 10617317809, "lat": 19.3066158, "lon": -99.0792789, "tags": {"amenity": "ice_cream", "brand": "La Michoacana", "brand:wikidata": "Q17118857", "name": "La Michoacana"}}, {"type": "node", "id": 10675091729, "lat": 19.3604657, "lon": -99.1224294, "tags": {"amenity": "ice_cream", "name": "Frody"}}, {"type": "node", "id": 10697620695, "lat": 19.3416073, "lon": -99.1990495, "tags": {"amenity": "ice_cream"}}, {"type": "node", "id": 10728556510, "lat": 19.3545699, "lon": -99.0754527, "tags": {"amenity": "ice_cream", "name": "La Michoacana"}}, {"type": "node", "id": 10797421308, "lat": 19.5567936, "lon": -99.133235, "tags": {"amenity": "ice_cream", "survey:date": "2023-04-09"}}, {"type": "node", "id": 10800126467, "lat": 19.414635, "lon": -99.1618845, "tags": {"amenity": "ice_cream", "name": "Helado Bonito"}}, {"type": "node", "id": 10855539317, "lat": 19.470508, "lon": -99.1247446, "tags": {"amenity": "ice_cream", "survey:date": "2023-04-28"}}, {"type": "way", "id": 260989642, "nodes": [5845018638, 5845018639, 5845018640, 5845018644, 5845018641, 5845018642, 5845018643, 2665894758, 5850055604, 2665894760, 5845018637, 5850055599, 5845018638], "tags": {"addr:housenumber": "5260-5", "addr:postcode": "01700", "addr:street": "Calzada Desierto de los Leones", "amenity": "ice_cream", "building": "yes", "cuisine": "Helados__y Lacteos", "internet_access": "no", "name": "Santa Clara", "opening_hours": "Mo-Sa 09:00-20:30, Su 10:00-20:30", "outdoor_seating": "yes", "takeaway": "yes"}}, {"type": "way", "id": 554365150, "nodes": [5350139356, 5350139357, 5350139358, 5350139359, 5350139356], "tags": {"amenity": "ice_cream", "brand": "La Michoacana", "brand:wikidata": "Q17118857", "brand:wikipedia": "en:Paleter\u00eda La Michoacana", "building": "yes", "name": "La Michoacana"}}, {"type": "way", "id": 554365520, "nodes": [5350151875, 5350151876, 5350151877, 5350151878, 5902436937, 5902436936, 5350151875], "tags": {"amenity": "ice_cream", "brand": "La Michoacana", "brand:wikidata": "Q17118857", "brand:wikipedia": "en:Paleter\u00eda La Michoacana", "building": "yes", "name": "La Michoacana"}}, {"type": "way", "id": 554365578, "nodes": [5350151989, 5350151990, 5350151991, 5350151992, 5350151989], "tags": {"amenity": "ice_cream", "brand": "La Michoacana", "brand:wikidata": "Q17118857", "brand:wikipedia": "en:Paleter\u00eda La Michoacana", "building": "yes", "name": "La Michoacana"}}, {"type": "way", "id": 554365816, "nodes": [5350154559, 5350154560, 5350154561, 5350154562, 5350154559], "tags": {"amenity": "ice_cream", "brand": "La Michoacana", "brand:wikidata": "Q17118857", "brand:wikipedia": "en:Paleter\u00eda La Michoacana", "building": "yes", "name": "La Michoacana"}}, {"type": "way", "id": 554584238, "nodes": [5351953194, 5351953195, 5351953557, 5351953196, 5351953197, 5351953198, 5351953194], "tags": {"amenity": "ice_cream", "brand": "La Michoacana", "brand:wikidata": "Q17118857", "brand:wikipedia": "en:Paleter\u00eda La Michoacana", "building": "yes", "name": "La Michoacana"}}, {"type": "way", "id": 561075201, "nodes": [5344230054, 5410570625, 5410570626, 5410570627, 5344230054], "tags": {"amenity": "ice_cream", "brand": "La Michoacana", "brand:wikidata": "Q17118857", "brand:wikipedia": "en:Paleter\u00eda La Michoacana", "building": "yes", "name": "La Michoacana"}}, {"type": "way", "id": 591870165, "nodes": [5650005678, 5650005679, 5650005680, 5650005681, 5650005682, 5650005683, 5650005684, 5650005685, 5650005678], "tags": {"amenity": "ice_cream", "brand": "La Michoacana", "brand:wikidata": "Q17118857", "brand:wikipedia": "en:Paleter\u00eda La Michoacana", "building": "yes", "name": "La Michoacana"}}, {"type": "way", "id": 601806860, "nodes": [5718505775, 5718505776, 5718505777, 5718505778, 5718505779, 5718505775], "tags": {"amenity": "ice_cream", "brand": "Baskin-Robbins", "brand:wikidata": "Q584601", "brand:wikipedia": "en:Baskin-Robbins", "building": "yes", "cuisine": "ice_cream", "name": "Baskin-Robbins"}}, {"type": "way", "id": 631422297, "nodes": [5963114894, 5963114895, 5963114896, 5963114897, 5963114894], "tags": {"addr:city": "Ciudad de M\u00e9xico", "addr:postcode": "15900", "addr:street": "Fray Servando Teresa de Mier", "amenity": "ice_cream", "building": "yes", "name": "Michoacana", "takeaway": "yes"}}, {"type": "way", "id": 654755988, "nodes": [6135402264, 6135402265, 6135402260, 6135402266, 6135402264], "tags": {"amenity": "ice_cream", "brand": "La Michoacana", "brand:wikidata": "Q17118857", "brand:wikipedia": "en:Paleter\u00eda La Michoacana", "building": "yes", "name": "La Michoacana"}}, {"type": "way", "id": 661956159, "nodes": [6197339176, 6197339177, 6197339178, 6197339176], "tags": {"amenity": "ice_cream", "building": "yes"}}, {"type": "way", "id": 705254954, "nodes": [6624806610, 6624806611, 6624806612, 6624806613, 6624806614, 6624806615, 6624806610], "tags": {"amenity": "ice_cream", "brand": "La Michoacana", "brand:wikidata": "Q17118857", "brand:wikipedia": "en:Paleter\u00eda La Michoacana", "building": "yes", "name": "La Michoacana"}}, {"type": "way", "id": 711415209, "nodes": [6688846272, 6688846273, 6688846274, 6688846275, 6688846276, 6688846277, 6688846272], "tags": {"amenity": "ice_cream", "brand": "La Michoacana", "brand:wikidata": "Q17118857", "brand:wikipedia": "en:Paleter\u00eda La Michoacana", "building": "yes", "name": "La Michoacana"}}, {"type": "way", "id": 790847118, "nodes": [7393261667, 7393261668, 7393261669, 7393261670, 7393261667], "tags": {"amenity": "ice_cream", "brand": "La Michoacana", "brand:wikidata": "Q17118857", "brand:wikipedia": "en:Paleter\u00eda La Michoacana", "building": "yes", "name": "La Michoacana"}}, {"type": "way", "id": 823904415, "nodes": [7692396502, 7692396503, 7692396504, 7692396505, 7692396502], "tags": {"amenity": "ice_cream", "building": "yes"}}, {"type": "way", "id": 823904416, "nodes": [7692396506, 7692396507, 7692396508, 7692396509, 7692396506], "tags": {"amenity": "ice_cream", "building": "yes"}}, {"type": "way", "id": 823904425, "nodes": [7692396544, 7692396545, 7692396546, 7692396547, 7692396544], "tags": {"amenity": "ice_cream", "building": "yes"}}, {"type": "way", "id": 991023757, "nodes": [9156706916, 9156721117, 9156721118, 9156721119, 9156706916], "tags": {"addr:city": "Ciudad de M\u00e9xico", "addr:housenumber": "267", "addr:street": "Calle Ignacio Allende", "amenity": "ice_cream", "branch": "claver\u00eda", "building": "yes", "name": "Frody", "website": "https://www.frody.com.mx/"}}]}