{"version": 0.6, "generator": "Overpass API 0.7.60 f4c14d41", "osm3s": {"timestamp_osm_base": "2023-05-02T21:19:24Z", "copyright": "The data included in this document is from www.openstreetmap.org. The data is made available under ODbL."}, "elements": [{"type": "node", "id": 1304841539, "lat": -33.7844596, "lon": 150.8997473, "tags": {"name": "Harry's Liquor Blacktown", "shop": "alcohol"}}, {"type": "node", "id": 1314982823, "lat": -33.773557, "lon": 150.9718263, "tags": {"shop": "alcohol"}}, {"type": "node", "id": 1500998496, "lat": -33.9485106, "lon": 150.9548751, "tags": {"name": "Hammondville Cellars", "shop": "alcohol"}}, {"type": "node", "id": 1608400449, "lat": -33.8151782, "lon": 150.9715313, "tags": {"brand": "BWS", "brand:wikidata": "Q4836848", "brand:wikipedia": "en:BWS (liquor retailer)", "name": "BWS", "shop": "alcohol", "website": "https://bws.com.au/"}}, {"type": "node", "id": 1613719929, "lat": -33.8341086, "lon": 150.9683953, "tags": {"name": "Coolibah Hotel Bottle shop and Video Rental", "shop": "alcohol"}}, {"type": "node", "id": 1617375665, "lat": -34.0656162, "lon": 150.8255661, "tags": {"name": "BWS", "shop": "alcohol"}}, {"type": "node", "id": 1639772738, "lat": -33.8158563, "lon": 150.9683342}, {"type": "node", "id": 1639772740, "lat": -33.8159438, "lon": 150.9677743}, {"type": "node", "id": 1639772741, "lat": -33.8160401, "lon": 150.9682082}, {"type": "node", "id": 1639772742, "lat": -33.8157426, "lon": 150.9678373}, {"type": "node", "id": 1841117451, "lat": -33.9716651, "lon": 150.8943715, "tags": {"name": "Glenfield Cellars", "shop": "alcohol"}}, {"type": "node", "id": 2138692504, "lat": -33.7694057, "lon": 150.8977804, "tags": {"shop": "alcohol"}}, {"type": "node", "id": 2201108562, "lat": -33.7927941, "lon": 150.780429, "tags": {"brand": "BWS", "brand:wikidata": "Q4836848", "brand:wikipedia": "en:BWS (liquor retailer)", "name": "BWS", "shop": "alcohol"}}, {"type": "node", "id": 2377803873, "lat": -33.9196957, "lon": 150.9537876, "tags": {"shop": "alcohol"}}, {"type": "node", "id": 3240668444, "lat": -33.8575705, "lon": 150.8911323}, {"type": "node", "id": 3240668447, "lat": -33.8576854, "lon": 150.8911122}, {"type": "node", "id": 3240668450, "lat": -33.8577092, "lon": 150.8913099}, {"type": "node", "id": 3240668454, "lat": -33.8575943, "lon": 150.89133}, {"type": "node", "id": 3722594644, "lat": -33.7776035, "lon": 150.9196952, "tags": {"air_conditioning": "yes", "building:levels": "1", "drive_through": "no", "min_age": "18", "name": "Dan Murphys", "opening_hours": "Mo-Sa 09:00-21:00; Su 10:00-19:00", "payment:american_express": "yes", "payment:cash": "yes", "payment:coins": "yes", "payment:credit_cards": "yes", "payment:debit_cards": "yes", "payment:mastercard": "yes", "payment:notes": "yes", "payment:visa": "yes", "shop": "alcohol", "stroller": "yes", "website": "https://www.danmurphys.com.au/Stores/NSW-Blacktown-1900", "wheelchair": "yes"}}, {"type": "node", "id": 3937116742, "lat": -33.9079495, "lon": 150.9196149}, {"type": "node", "id": 3937116743, "lat": -33.9083158, "lon": 150.9194317}, {"type": "node", "id": 3937116744, "lat": -33.9079322, "lon": 150.9192303}, {"type": "node", "id": 3937116745, "lat": -33.9079634, "lon": 150.9194423}, {"type": "node", "id": 3937116746, "lat": -33.9082406, "lon": 150.919649}, {"type": "node", "id": 3937116747, "lat": -33.9082587, "lon": 150.919425}, {"type": "node", "id": 3937116748, "lat": -33.9083283, "lon": 150.9192768}, {"type": "node", "id": 3937116749, "lat": -33.9079156, "lon": 150.9194367}, {"type": "node", "id": 4542970499, "lat": -33.9034156, "lon": 150.9428416, "tags": {"brand": "Bottlemart", "brand:wikidata": "Q102863175", "name": "Bottlemart", "name:en": "Bottlemart", "shop": "alcohol"}}, {"type": "node", "id": 4547810591, "lat": -33.9181791, "lon": 150.9237074, "tags": {"brand": "BWS", "brand:wikidata": "Q4836848", "brand:wikipedia": "en:BWS (liquor retailer)", "name": "BWS", "name:en": "BWS", "shop": "alcohol"}}, {"type": "node", "id": 4630770856, "lat": -33.8649941, "lon": 150.6409464, "tags": {"alt_name": "Wallacia Bottle-O", "name": "Bottlemart Express", "shop": "alcohol"}}, {"type": "node", "id": 4630770861, "lat": -33.8395835, "lon": 150.6494254, "tags": {"name": "Mulgoa Bottle-O", "shop": "alcohol"}}, {"type": "node", "id": 4777959321, "lat": -33.9993413, "lon": 150.863942, "tags": {"brand": "BWS", "brand:wikidata": "Q4836848", "brand:wikipedia": "en:BWS (liquor retailer)", "name": "BWS", "shop": "alcohol"}}, {"type": "node", "id": 5154162510, "lat": -33.7669021, "lon": 150.622733, "tags": {"addr:city": "Glenbrook", "addr:housenumber": "39B", "addr:postcode": "2773", "addr:street": "Park Street", "name": "Murray's Porters Liquor Glenbrook", "shop": "alcohol"}}, {"type": "node", "id": 5177813835, "lat": -33.8157894, "lon": 150.9681753}, {"type": "node", "id": 5177813836, "lat": -33.8158034, "lon": 150.9681062}, {"type": "node", "id": 5177813837, "lat": -33.8157755, "lon": 150.968117}, {"type": "node", "id": 5177813838, "lat": -33.8158178, "lon": 150.9681679}, {"type": "node", "id": 5177813839, "lat": -33.8159549, "lon": 150.9678213}, {"type": "node", "id": 5177813840, "lat": -33.8159699, "lon": 150.9678903}, {"type": "node", "id": 5177813841, "lat": -33.8159922, "lon": 150.9678823}, {"type": "node", "id": 5177813842, "lat": -33.8159777, "lon": 150.9678159}, {"type": "node", "id": 5416281058, "lat": -33.7946753, "lon": 150.9340923, "tags": {"name": "Toongabbie Bottlemart", "shop": "alcohol"}}, {"type": "node", "id": 5930385310, "lat": -33.9543898, "lon": 150.857492}, {"type": "node", "id": 5930385311, "lat": -33.9540883, "lon": 150.8571732}, {"type": "node", "id": 5930385344, "lat": -33.9543457, "lon": 150.8575056}, {"type": "node", "id": 5930385352, "lat": -33.954085, "lon": 150.8577712}, {"type": "node", "id": 5930385358, "lat": -33.9543827, "lon": 150.8576788}, {"type": "node", "id": 5930385360, "lat": -33.9543071, "lon": 150.8571053}, {"type": "node", "id": 5930385369, "lat": -33.9541324, "lon": 150.8573795}, {"type": "node", "id": 5930385376, "lat": -33.9540056, "lon": 150.8574189}, {"type": "node", "id": 6418698089, "lat": -34.0375273, "lon": 150.7342259, "tags": {"addr:housenumber": "321-339", "addr:postcode": "2567", "addr:state": "NSW", "addr:street": "Camden Valley Way", "addr:suburb": "Narellan", "brand": "Dan Murphy's", "brand:wikidata": "Q5214075", "brand:wikipedia": "en:Dan Murphy's", "drive_through": "no", "name": "Dan Murphy's", "opening_hours": "Mo-We 09:00-20:00, Th-Sa 09:00-20:30, Su 10:00-19:00", "shop": "alcohol", "website": "https://store.danmurphys.com.au/storelocator/NSW-Narellan-1390"}}, {"type": "node", "id": 6695041814, "lat": -33.8974401, "lon": 150.9539096, "tags": {"shop": "alcohol"}}, {"type": "node", "id": 6768336944, "lat": -34.0736621, "lon": 150.7980549, "tags": {"branch": "Campbelltown", "brand": "Dan Murphy's", "brand:wikidata": "Q5214075", "brand:wikipedia": "en:Dan Murphy's", "name": "Dan Murphy's", "opening_hours": "Mo-We 09:00-20:00; Th-Sa 09:00-21:00; Su 10:00-19:00", "shop": "alcohol"}}, {"type": "node", "id": 7051233703, "lat": -33.801218, "lon": 150.9570896, "tags": {"addr:housenumber": "223", "addr:postcode": "2145", "addr:state": "NSW", "addr:street": "Wentworth Avenue", "addr:suburb": "Pendle Hill", "drive_through": "yes", "name": "Pendle Inn Liquor", "operator": "Liquor Stax", "shop": "alcohol"}}, {"type": "node", "id": 7639767185, "lat": -33.8944253, "lon": 150.9344143, "tags": {"name": "Bottle shop", "shop": "alcohol"}}, {"type": "node", "id": 7704878760, "lat": -33.7768051, "lon": 150.7107828, "tags": {"brand": "Dan Murphy's", "brand:wikidata": "Q5214075", "brand:wikipedia": "en:Dan Murphy's", "name": "Dan Murphy's", "shop": "alcohol"}}, {"type": "node", "id": 8093012299, "lat": -33.7694686, "lon": 150.7346587, "tags": {"brand": "BWS", "brand:wikidata": "Q4836848", "brand:wikipedia": "en:BWS (liquor retailer)", "name": "BWS", "shop": "alcohol"}}, {"type": "node", "id": 8849453403, "lat": -33.9363615, "lon": 150.8455564, "tags": {"addr:housenumber": "245", "addr:postcode": "2171", "addr:state": "NSW", "addr:street": "Cowpasture Road", "addr:suburb": "Hoxton Park", "brand": "Dan Murphy's", "brand:wikidata": "Q5214075", "brand:wikipedia": "en:Dan Murphy's", "drive_through": "no", "name": "Dan Murphy's", "opening_hours": "Mo-Th 09:00-20:00, Fr-Sa 09:00-21:00, Su 10:00-19:00", "shop": "alcohol", "website": "https://store.danmurphys.com.au/storelocator/NSW-Hoxton-Park-1255"}}, {"type": "node", "id": 8961953186, "lat": -33.8614201, "lon": 150.936429}, {"type": "node", "id": 8961953187, "lat": -33.8615413, "lon": 150.936404}, {"type": "node", "id": 8961953188, "lat": -33.8615473, "lon": 150.936446}, {"type": "node", "id": 8961953189, "lat": -33.8615624, "lon": 150.9364429}, {"type": "node", "id": 8961953190, "lat": -33.8615829, "lon": 150.9365871}, {"type": "node", "id": 8961953191, "lat": -33.8615747, "lon": 150.9365888}, {"type": "node", "id": 8961953192, "lat": -33.8615937, "lon": 150.9367228}, {"type": "node", "id": 8961953193, "lat": -33.8614412, "lon": 150.9367541}, {"type": "node", "id": 8961953194, "lat": -33.8614141, "lon": 150.9365634}, {"type": "node", "id": 8961953195, "lat": -33.8614385, "lon": 150.9365584}, {"type": "node", "id": 9170548971, "lat": -33.8834911, "lon": 150.9241372, "tags": {"name": "Valore Cellars", "shop": "alcohol"}}, {"type": "node", "id": 9220088611, "lat": -33.9539921, "lon": 150.8575744}, {"type": "node", "id": 9220088612, "lat": -33.9540177, "lon": 150.8576943}, {"type": "node", "id": 9220088613, "lat": -33.9540655, "lon": 150.8576795}, {"type": "node", "id": 9220088614, "lat": -33.9540359, "lon": 150.8575608}, {"type": "node", "id": 9226989617, "lat": -33.9501171, "lon": 150.8642454, "tags": {"name": "SUPERCELLARS", "shop": "alcohol"}}, {"type": "node", "id": 9336459360, "lat": -33.8965909, "lon": 150.9380292}, {"type": "node", "id": 9336459361, "lat": -33.8967733, "lon": 150.9379894}, {"type": "node", "id": 9336459362, "lat": -33.8967412, "lon": 150.9377765}, {"type": "node", "id": 9336459363, "lat": -33.8965589, "lon": 150.9378164}, {"type": "node", "id": 9380748689, "lat": -33.7950792, "lon": 150.7885516}, {"type": "node", "id": 9462727926, "lat": -33.7950514, "lon": 150.7883467}, {"type": "node", "id": 9462727927, "lat": -33.7952684, "lon": 150.788515}, {"type": "node", "id": 9462727928, "lat": -33.795256, "lon": 150.7884179}, {"type": "node", "id": 9482650766, "lat": -33.7755866, "lon": 150.9770041}, {"type": "node", "id": 9482650767, "lat": -33.7756072, "lon": 150.9771517}, {"type": "node", "id": 9482650768, "lat": -33.7759613, "lon": 150.9770802}, {"type": "node", "id": 9482650769, "lat": -33.7759529, "lon": 150.9770201}, {"type": "node", "id": 9482650770, "lat": -33.776002, "lon": 150.9770102}, {"type": "node", "id": 9482650771, "lat": -33.7759909, "lon": 150.9769317}, {"type": "node", "id": 9482650772, "lat": -33.775943, "lon": 150.9769414}, {"type": "node", "id": 9482650773, "lat": -33.7759417, "lon": 150.9769324}, {"type": "node", "id": 9482650783, "lat": -33.7759918, "lon": 150.9769381}, {"type": "node", "id": 9482650784, "lat": -33.7759984, "lon": 150.9769843}, {"type": "node", "id": 9482650785, "lat": -33.7760029, "lon": 150.9769462}, {"type": "node", "id": 9482650786, "lat": -33.776007, "lon": 150.9769715}, {"type": "node", "id": 9482650787, "lat": -33.7756562, "lon": 150.9769901}, {"type": "node", "id": 9482650790, "lat": -33.7759391, "lon": 150.9769329}, {"type": "node", "id": 9676422221, "lat": -33.9210592, "lon": 150.9225807, "tags": {"name": "Chambers Cellars", "shop": "alcohol"}}, {"type": "node", "id": 10727088788, "lat": -33.7706603, "lon": 150.843538, "tags": {"name": "Harry's Liquor", "shop": "alcohol"}}, {"type": "node", "id": 10802157058, "lat": -33.7665518, "lon": 150.7698839, "tags": {"brand": "BWS", "brand:wikidata": "Q4836848", "name": "BWS", "shop": "alcohol"}}, {"type": "way", "id": 151153448, "nodes": [1639772742, 1639772740, 5177813839, 5177813842, 5177813841, 5177813840, 1639772741, 1639772738, 5177813838, 5177813835, 5177813837, 5177813836, 1639772742], "tags": {"addr:postcode": "2145", "addr:state": "NSW", "addr:street": "Cnr Great Western Highway and Florence Street", "addr:suburb": "Wentworthville", "brand": "Dan Murphy's", "brand:wikidata": "Q5214075", "brand:wikipedia": "en:Dan Murphy's", "building": "yes", "name": "Dan Murphy's", "opening_hours": "Mo 09:00-20:00; Tu 13:15-19:00; We 09:00-20:00; Th-Sa 09:00-21:00; Su 10:00-19:00", "shop": "alcohol", "website": "https://www.danmurphys.com.au/"}}, {"type": "way", "id": 317762519, "nodes": [3240668444, 3240668454, 3240668450, 3240668447, 3240668444], "tags": {"addr:suburb": "Bossley Park", "name": "BWS", "shop": "alcohol"}}, {"type": "way", "id": 390554604, "nodes": [3937116744, 3937116748, 3937116743, 3937116747, 3937116746, 3937116742, 3937116745, 3937116749, 3937116744], "tags": {"addr:housenumber": "18", "addr:street": "Orange Grove Road", "addr:suburb": "Liverpool", "brand": "Dan Murphy's", "brand:wikidata": "Q5214075", "brand:wikipedia": "en:Dan Murphy's", "building": "yes", "name": "Dan Murphy's", "shop": "alcohol"}}, {"type": "way", "id": 628169535, "nodes": [5930385376, 9220088614, 9220088611, 9220088612, 9220088613, 5930385352, 5930385358, 5930385344, 5930385310, 5930385360, 5930385311, 5930385369, 5930385376], "tags": {"brand": "First Choice Liquor", "brand:wikidata": "Q4596269", "brand:wikipedia": "en:First Choice Liquor", "building": "yes", "name": "First Choice Liquor", "shop": "alcohol"}}, {"type": "way", "id": 968667248, "nodes": [8961953186, 8961953187, 8961953188, 8961953189, 8961953190, 8961953191, 8961953192, 8961953193, 8961953194, 8961953195, 8961953186], "tags": {"addr:housenumber": "170", "addr:street": "Polding Street", "building": "yes", "name": "Cellarbrations Smithfield", "shop": "alcohol"}}, {"type": "way", "id": 1011978702, "nodes": [9336459363, 9336459362, 9336459361, 9336459360, 9336459363], "tags": {"shop": "alcohol", "wheelchair": "yes"}}, {"type": "way", "id": 1026348524, "nodes": [9462727926, 9462727928, 9462727927, 9380748689, 9462727926], "tags": {"brand": "BWS", "brand:wikidata": "Q4836848", "brand:wikipedia": "en:BWS (liquor retailer)", "building": "yes", "name": "BWS", "shop": "alcohol"}}, {"type": "way", "id": 1028562067, "nodes": [9482650766, 9482650767, 9482650768, 9482650769, 9482650770, 9482650784, 9482650786, 9482650785, 9482650783, 9482650771, 9482650772, 9482650773, 9482650790, 9482650787, 9482650766], "tags": {"branch": "Winston Hills", "building": "yes", "name": "Chambers Cellars", "shop": "alcohol", "website": "https://chamberscellars.com.au/stores/winston-hills/"}}]}