{"version": 0.6, "generator": "Overpass API 0.7.60 f4c14d41", "osm3s": {"timestamp_osm_base": "2023-05-02T21:17:24Z", "copyright": "The data included in this document is from www.openstreetmap.org. The data is made available under ODbL."}, "elements": [{"type": "node", "id": 1863970104, "lat": 41.0128224, "lon": 28.6440489, "tags": {"amenity": "pub", "name": "KORNER BEER HOUSE"}}, {"type": "node", "id": 2278292618, "lat": 41.012196, "lon": 28.6205233, "tags": {"amenity": "pub", "name": "The North Shield"}}, {"type": "node", "id": 4374630502, "lat": 40.9783476, "lon": 28.720249, "tags": {"amenity": "pub", "internet_access": "wlan", "name": "Fabbrica", "name:en": "Fabbrica", "name:tr": "Fabbrica", "website": "https://guley.co/"}}, {"type": "node", "id": 4528008759, "lat": 41.0068602, "lon": 28.5400629, "tags": {"amenity": "pub", "cuisine": "regional", "name": "Maschera Beer Cafe"}}, {"type": "node", "id": 4558663633, "lat": 41.0067443, "lon": 28.5374811, "tags": {"amenity": "pub", "name": "Alem Bar"}}, {"type": "node", "id": 4558663634, "lat": 41.0068827, "lon": 28.5377282, "tags": {"amenity": "pub", "name": "Saki Restorant"}}, {"type": "node", "id": 5081442458, "lat": 41.0221335, "lon": 28.9598822, "tags": {"addr:city": "Istanbul", "addr:district": "Fatih", "addr:street": "Elvanzade Cami sokak", "amenity": "pub", "name": "Benli O\u011flu Tekel", "name:ar": "\u0628\u064a\u0646\u0644\u064a \u0627\u0648\u063a\u0644\u0648 \u062a\u064a\u0643\u064a\u0644", "operator": "private"}}, {"type": "node", "id": 5081442487, "lat": 41.0228749, "lon": 28.9607342, "tags": {"addr:city": "Istanbul", "addr:district": "Fatih", "addr:street": "Abd\u00fclezelpa\u015fa Caddesi", "amenity": "pub", "name": "Kat\u0130na B\u00fcfe ve Tekel Bayii", "name:ar": "\u0645\u0631\u0643\u0632 \u0643\u0627\u062a\u064a\u0646\u0627 \u0644\u0628\u064a\u0639 \u0627\u0644\u0645\u0634\u0631\u0648\u0628\u0627\u062a", "operator": "private"}}, {"type": "node", "id": 5081442492, "lat": 41.0231822, "lon": 28.9608019, "tags": {"addr:city": "Istanbul", "addr:district": "Fatih", "addr:street": "Abd\u00fclezelpa\u015fa Caddesi", "amenity": "pub", "name": "\u00c7ar\u015f\u0131 Tekel", "name:ar": "\u0633\u0648\u0642 \u0627\u0644\u0645\u0634\u0631\u0648\u0628\u0627\u062a", "operator": "private"}}, {"type": "node", "id": 5081445082, "lat": 41.0287063, "lon": 28.952962, "tags": {"addr:city": "Istanbul", "addr:district": "Fatih", "addr:street": "Abd\u00fclezelpa\u015fa Caddesi", "amenity": "pub", "name": "Barba Vasilis Rum Meyhanesi", "name:ar": "\u062d\u0627\u0646\u0629 \u0628\u0627\u0631\u0628\u0627 \u0641\u0627\u0633\u064a\u0644\u064a\u0627\u0633 \u0627\u0644\u0631\u0648\u0645\u064a", "operator": "private"}}, {"type": "node", "id": 5086061046, "lat": 41.0269459, "lon": 28.9550486, "tags": {"addr:city": "Istanbul", "addr:district": "Fatih", "addr:street": "K\u00fc\u00e7\u00fck Mustafa Pa\u015fa Caddesi", "amenity": "pub", "name": "Alt\u0131nay Tekel Bayii", "name:ar": "\u0628\u0627\u0626\u0639 \u0645\u0634\u0631\u0648\u0628\u0627\u062a \u0631\u0648\u062d\u064a\u0629 \u0627\u0644\u062a\u0646\u0627\u064a", "operator": "private"}}, {"type": "node", "id": 5086061048, "lat": 41.026862, "lon": 28.9551537, "tags": {"addr:city": "Istanbul", "addr:district": "Fatih", "addr:street": "K\u00fc\u00e7\u00fck Mustafa Pa\u015fa Caddesi", "amenity": "pub", "name": "Y\u0131ld\u0131z Tekel Bayii", "name:ar": "\u0628\u0627\u0626\u0639 \u0645\u0634\u0631\u0648\u0628\u0627\u062a \u0631\u0648\u062d\u064a\u0629 \u064a\u0644\u062f\u064a\u0632", "operator": "private"}}, {"type": "node", "id": 5087168315, "lat": 40.9952954, "lon": 28.925813, "tags": {"addr:city": "Istanbul", "addr:district": "Fatih", "addr:street": "\u0130mrahor ilyasbey caddesi", "amenity": "pub", "name": "Kule pub", "name:ar": "\u0643\u0648\u0644\u064a \u0644\u0644\u0645\u0634\u0627\u0631\u064a\u0628"}}, {"type": "node", "id": 5099060709, "lat": 41.0078855, "lon": 28.9515259, "tags": {"addr:city": "Istanbul", "addr:district": "Fatih", "addr:street": "Valide cami soka\u011f\u0131", "amenity": "pub", "name": "Baran ocakba\u015f\u0131 pub", "name:ar": "\u062d\u0627\u0646\u0629 \u0628\u0627\u0631\u0627\u0646"}}, {"type": "node", "id": 5100825076, "lat": 41.0213261, "lon": 28.9273821, "tags": {"addr:city": "Istanbul", "addr:district": "Fatih", "addr:street": "Topkap\u0131 caddesi", "amenity": "pub", "name": "Topkap\u0131 pub", "name:ar": "\u062a\u0648\u0628\u0643\u0627\u0628\u064a \u0644\u0644\u0645\u0634\u0627\u0631\u064a\u0628"}}, {"type": "node", "id": 5106132742, "lat": 41.0128594, "lon": 28.9376919, "tags": {"addr:city": "Istanbul", "addr:district": "Turkey", "addr:street": "Turgut \u00d6zal Millet Caddesi", "amenity": "pub", "name": "Baran Ocakba\u015f\u0131 & Pub", "name:ar": "\u0645\u0642\u0647\u0649 \u0648\u0628\u0627\u0631 \u0628\u0627\u0631\u0627\u0646 \u0627\u0648\u062c\u0627\u0642 \u0628\u0627\u0634\u064a"}}, {"type": "node", "id": 5107243162, "lat": 41.004221, "lon": 28.9278787, "tags": {"addr:city": "Istanbul", "addr:district": "Fatih", "addr:street": "Me\u015feli Mescit Sokak", "amenity": "pub", "name": "G\u00fclery\u00fcz Tekel", "name:ar": "\u063a\u0648\u0644\u064a\u0631\u0648\u0632 \u062a\u064a\u0643\u0627\u0644", "operator": "private"}}, {"type": "node", "id": 5107305888, "lat": 41.0083367, "lon": 28.9497119, "tags": {"addr:city": "Istanbul", "addr:district": "Fatih", "addr:street": "Abd\u00fcllatif Pa\u015fa Soka\u011f\u0131", "amenity": "pub", "name": "AR\u0130ZONA PUB", "name:ar": "\u062d\u0627\u0646\u0629 \u0623\u0631\u064a\u0632\u0648\u0646\u0627"}}, {"type": "node", "id": 5107305891, "lat": 41.0082067, "lon": 28.9493999, "tags": {"addr:city": "Istanbul", "addr:district": "Fatih", "addr:street": "Abd\u00fcllatif Pa\u015fa Soka\u011f\u0131", "amenity": "pub", "name": "Umut Pub", "name:ar": "\u062d\u0627\u0646\u0629 \u0623\u0648\u0645\u0648\u062a"}}, {"type": "node", "id": 5112750910, "lat": 41.0333487, "lon": 28.9465045, "tags": {"addr:city": "Istanbul", "addr:district": "Fatih", "addr:street": "Leblebiciler Soka\u011f\u0131", "amenity": "pub", "name": "Agora Meyhanesi", "name:ar": "\u062d\u0627\u0646\u0629 \u0623\u063a\u0648\u0631\u0627"}}, {"type": "node", "id": 5112751028, "lat": 41.033499, "lon": 28.9468668, "tags": {"addr:city": "Istanbul", "addr:district": "Fatih", "addr:street": "M\u00fcrselpa\u015fa Caddesi", "amenity": "pub", "name": "Agora Meyhanesi", "name:ar": "\u062d\u0627\u0646\u0629 \u0623\u063a\u0648\u0631\u0627"}}, {"type": "node", "id": 5113126671, "lat": 41.0062537, "lon": 28.9313665, "tags": {"addr:city": "Istanbul", "addr:district": "Fatih", "addr:street": "Kuvayi Milliye Caddesi", "amenity": "pub", "name": "Pi\u015fkin Tekel", "name:ar": "\u0628\u064a\u0634\u0643\u064a\u0646 \u062a\u064a\u0643\u0627\u0644", "operator": "private"}}, {"type": "node", "id": 5113126692, "lat": 41.0058179, "lon": 28.931107, "tags": {"addr:city": "Istanbul", "addr:district": "Fatih", "addr:street": "Kuvayi Milliye Caddesi", "amenity": "pub", "name": "Ko\u00e7yi\u011fit Tekel", "name:ar": "\u0643\u0648\u062a\u0634\u064a\u064a\u062a \u062a\u064a\u0643\u064a\u0644", "operator": "private"}}, {"type": "node", "id": 5147372021, "lat": 41.0098158, "lon": 28.6579038, "tags": {"amenity": "pub", "drink": "yes", "name": "Lunchbox", "smoking": "outside"}}, {"type": "node", "id": 5243950216, "lat": 41.0176556, "lon": 28.9441995, "tags": {"addr:city": "Istanbul", "addr:district": "Turkey", "addr:street": "Akdeniz Caddesi", "amenity": "pub", "name": "Akdeniz pub", "name:ar": "\u0627\u0643\u062f\u064a\u0646\u064a\u0632 \u0628\u0648\u0628"}}, {"type": "node", "id": 6262659590, "lat": 41.0005812, "lon": 28.7930397, "tags": {"amenity": "pub", "name": "Canbaba Restaurant"}}, {"type": "node", "id": 6264607891, "lat": 41.0008357, "lon": 28.7967073, "tags": {"amenity": "pub"}}, {"type": "node", "id": 6264624087, "lat": 41.0012926, "lon": 28.7932865, "tags": {"amenity": "pub", "name": "\u00d6zen Birahanesi"}}, {"type": "node", "id": 6624378685, "lat": 41.0110602, "lon": 28.9572247, "tags": {"amenity": "pub"}}, {"type": "node", "id": 8310467737, "lat": 40.9853266, "lon": 28.8726187, "tags": {"amenity": "pub", "name": "Bak\u0131rk\u00f6y Meyhanesi"}}]}