{"version": 0.6, "generator": "Overpass API 0.7.60 f4c14d41", "osm3s": {"timestamp_osm_base": "2023-05-02T21:22:25Z", "copyright": "The data included in this document is from www.openstreetmap.org. The data is made available under ODbL."}, "elements": [{"type": "node", "id": 248252299, "lat": -33.7540718, "lon": 151.1524584, "tags": {"addr:housenumber": "2", "addr:street": "Park Avenue", "amenity": "police", "fax": "02 9418 5357", "name": "Gordon Police Station", "operator": "New South Wales Police Force", "operator:wikidata": "Q7011763", "operator:wikipedia": "en:New South Wales Police Force", "phone": "+61-2-9418-5399", "source": "police.nsw.gov.au", "website": "https://www.police.nsw.gov.au/about_us/regions_commands_districts/north_west_metro_region/ku-ring-gai/gordon_police_station"}}, {"type": "node", "id": 778032800, "lat": -33.7309573, "lon": 151.0041555}, {"type": "node", "id": 778032801, "lat": -33.7306725, "lon": 151.0043858}, {"type": "node", "id": 778032802, "lat": -33.73047, "lon": 151.0039609}, {"type": "node", "id": 778032803, "lat": -33.7307006, "lon": 151.0037691}, {"type": "node", "id": 780598919, "lat": -33.7011605, "lon": 151.097186}, {"type": "node", "id": 780598925, "lat": -33.7013139, "lon": 151.0971659}, {"type": "node", "id": 780598929, "lat": -33.7013111, "lon": 151.0971357}, {"type": "node", "id": 780598933, "lat": -33.7014255, "lon": 151.0971102}, {"type": "node", "id": 780598934, "lat": -33.7014757, "lon": 151.0975226}, {"type": "node", "id": 780598940, "lat": -33.701223, "lon": 151.0976018}, {"type": "node", "id": 807523217, "lat": -33.7011527, "lon": 151.0974703}, {"type": "node", "id": 807523224, "lat": -33.7012018, "lon": 151.0974609}, {"type": "node", "id": 807523225, "lat": -33.701175, "lon": 151.0972899}, {"type": "node", "id": 807523230, "lat": -33.7011265, "lon": 151.0973013}, {"type": "node", "id": 807725061, "lat": -33.701498, "lon": 151.0973503}, {"type": "node", "id": 807725071, "lat": -33.7012668, "lon": 151.0971475}, {"type": "node", "id": 807725074, "lat": -33.7014857, "lon": 151.0972718}, {"type": "node", "id": 807725087, "lat": -33.7012888, "lon": 151.0971485}, {"type": "node", "id": 807725095, "lat": -33.7013859, "lon": 151.0975401}, {"type": "node", "id": 807725100, "lat": -33.7012584, "lon": 151.0971494}, {"type": "node", "id": 807725103, "lat": -33.7013619, "lon": 151.0975883}, {"type": "node", "id": 807725110, "lat": -33.7012693, "lon": 151.0971632}, {"type": "node", "id": 807725113, "lat": -33.7014539, "lon": 151.0973604}, {"type": "node", "id": 807725124, "lat": -33.7014512, "lon": 151.0972785}, {"type": "node", "id": 807725127, "lat": -33.7011448, "lon": 151.0974347}, {"type": "node", "id": 807725129, "lat": -33.7012828, "lon": 151.0971007}, {"type": "node", "id": 807725139, "lat": -33.7013948, "lon": 151.0975736}, {"type": "node", "id": 807725148, "lat": -33.7013563, "lon": 151.0975743}, {"type": "node", "id": 807725151, "lat": -33.7011491, "lon": 151.0974615}, {"type": "node", "id": 807725154, "lat": -33.7012482, "lon": 151.0971113}, {"type": "node", "id": 836917131, "lat": -33.6458686, "lon": 151.280487, "tags": {"amenity": "police", "name": "Broken Bay Water Police", "operator": "New South Wales Police Force", "operator:wikidata": "Q7011763", "operator:wikipedia": "en:New South Wales Police Force", "phone": "+61-2-9910-7899", "source": "police.nsw.gov.au"}}, {"type": "node", "id": 6223971327, "lat": -33.7308467, "lon": 151.0039516}, {"type": "node", "id": 6223971328, "lat": -33.7307977, "lon": 151.0039408}, {"type": "node", "id": 6223971329, "lat": -33.7308166, "lon": 151.0039744}, {"type": "node", "id": 6223971330, "lat": -33.7305649, "lon": 151.0041282}, {"type": "node", "id": 6223971331, "lat": -33.7305852, "lon": 151.0041647}, {"type": "node", "id": 6223971332, "lat": -33.730561, "lon": 151.004182}, {"type": "node", "id": 7856508707, "lat": -33.6813855, "lon": 151.3025323}, {"type": "node", "id": 7856508708, "lat": -33.6814908, "lon": 151.3025141}, {"type": "node", "id": 7856508709, "lat": -33.6814871, "lon": 151.3024838}, {"type": "node", "id": 7856508710, "lat": -33.6813819, "lon": 151.3025019}, {"type": "node", "id": 7856508711, "lat": -33.6813322, "lon": 151.3025415}, {"type": "node", "id": 7856508712, "lat": -33.6815498, "lon": 151.3025039}, {"type": "node", "id": 7856508713, "lat": -33.6815732, "lon": 151.3026997}, {"type": "node", "id": 7856508714, "lat": -33.6813556, "lon": 151.3027373}, {"type": "node", "id": 8528397422, "lat": -33.752343, "lon": 151.2851912}, {"type": "node", "id": 8528397423, "lat": -33.7524146, "lon": 151.2851698}, {"type": "node", "id": 8528397424, "lat": -33.7524299, "lon": 151.2852443}, {"type": "node", "id": 8528397425, "lat": -33.7525935, "lon": 151.2851955}, {"type": "node", "id": 8528397426, "lat": -33.752632, "lon": 151.2855192}, {"type": "node", "id": 8528397427, "lat": -33.7523633, "lon": 151.2856186}, {"type": "node", "id": 8528397428, "lat": -33.7523234, "lon": 151.2854251}, {"type": "node", "id": 8528397429, "lat": -33.7523404, "lon": 151.2854201}, {"type": "node", "id": 8528397430, "lat": -33.7523146, "lon": 151.2852955}, {"type": "node", "id": 8528397431, "lat": -33.7523336, "lon": 151.2852742}, {"type": "node", "id": 8528397432, "lat": -33.7523252, "lon": 151.2852339}, {"type": "node", "id": 8528397433, "lat": -33.7523502, "lon": 151.2852264}, {"type": "node", "id": 8700192641, "lat": -33.7492106, "lon": 151.2286297}, {"type": "node", "id": 8700192642, "lat": -33.749298, "lon": 151.2286134}, {"type": "node", "id": 8700192643, "lat": -33.7492884, "lon": 151.2285391}, {"type": "node", "id": 8700192644, "lat": -33.7493228, "lon": 151.2285333}, {"type": "node", "id": 8700192645, "lat": -33.7493138, "lon": 151.2284499}, {"type": "node", "id": 8700192646, "lat": -33.7493952, "lon": 151.2284312}, {"type": "node", "id": 8700192647, "lat": -33.7493931, "lon": 151.2284125}, {"type": "node", "id": 8700192648, "lat": -33.7494499, "lon": 151.2284012}, {"type": "node", "id": 8700192649, "lat": -33.7494363, "lon": 151.2283203}, {"type": "node", "id": 8700192650, "lat": -33.7492763, "lon": 151.2283548}, {"type": "node", "id": 8700192651, "lat": -33.7492727, "lon": 151.2283315}, {"type": "node", "id": 8700192652, "lat": -33.7491458, "lon": 151.228361}, {"type": "node", "id": 8700192653, "lat": -33.7491623, "lon": 151.2284849}, {"type": "node", "id": 8700192654, "lat": -33.749191, "lon": 151.2284797}, {"type": "way", "id": 62265973, "nodes": [778032800, 778032801, 6223971332, 6223971331, 6223971330, 778032802, 778032803, 6223971328, 6223971329, 6223971327, 778032800], "tags": {"addr:housenumber": "16-18", "addr:street": "Pennant Street", "amenity": "police", "building": "yes", "fax": "02 9680 5303", "name": "Castle Hill Police Station", "operator": "New South Wales Police Force", "operator:wikidata": "Q7011763", "operator:wikipedia": "en:New South Wales Police Force", "phone": "+61-2-9680-5399", "source": "police.nsw.gov.au", "website": "https://www.police.nsw.gov.au/about_us/regions_commands_districts/north_west_metro_region/the_hills/castle_hill_police_station"}}, {"type": "way", "id": 62570035, "nodes": [780598919, 807725110, 807725071, 807725100, 807725154, 807725129, 807725087, 780598925, 780598929, 780598933, 807725124, 807725074, 807725061, 807725113, 780598934, 807725095, 807725139, 807725103, 807725148, 780598940, 807523224, 807523217, 807725151, 807725127, 807523230, 807523225, 780598919], "tags": {"addr:city": "Hornsby", "addr:housenumber": "292", "addr:postcode": "2077", "addr:state": "NSW", "addr:street": "Peats Ferry Road", "amenity": "police", "building": "yes", "building:levels": "3", "fax": "02 9476 9731", "name": "Hornsby Police Station", "name:fa": "\u067e\u0644\u06cc\u0633 \u0647\u0648\u0631\u0646\u0632\u0628\u06cc", "opening_hours": "24/7", "operator": "New South Wales Police Force", "operator:wikidata": "Q7011763", "operator:wikipedia": "en:New South Wales Police Force", "phone": "+61-2-9476-9799", "source": "police.nsw.gov.au", "website": "https://www.police.nsw.gov.au/about_us/regions_commands_districts/north_west_metro_region/ku-ring-gai/hornsby_police_station", "wheelchair": "yes"}}, {"type": "way", "id": 842134515, "nodes": [7856508707, 7856508711, 7856508714, 7856508713, 7856508712, 7856508708, 7856508709, 7856508710, 7856508707], "tags": {"addr:city": "Mona Vale", "addr:housenumber": "1705-1707", "addr:street": "Pittwater Road", "amenity": "police", "building": "yes", "fax": "02 9998 0616", "name": "Mona Vale Police Station", "operator": "New South Wales Police Force", "operator:wikidata": "Q7011763", "operator:wikipedia": "en:New South Wales Police Force", "phone": "02 9998 0699", "website": "https://www.police.nsw.gov.au/about_us/regions_commands_districts/north_west_metro_region/northern_beaches/mona_vale_police_station"}}, {"type": "way", "id": 918269757, "nodes": [8528397422, 8528397423, 8528397424, 8528397425, 8528397426, 8528397427, 8528397428, 8528397429, 8528397430, 8528397431, 8528397432, 8528397433, 8528397422], "tags": {"addr:housenumber": "1", "addr:postcode": "2099", "addr:state": "NSW", "addr:street": "Saint David Avenue", "addr:suburb": "Dee Why", "amenity": "police", "building": "yes", "fax": "02 9971 3366", "name": "Dee Why Police Station", "operator": "New South Wales Police Force", "operator:wikidata": "Q7011763", "operator:wikipedia": "en:New South Wales Police Force", "phone": "02 9971 3399", "website": "https://www.police.nsw.gov.au/about_us/regions_commands_districts/north_west_metro_region/northern_beaches/dee_why_police_station"}}, {"type": "way", "id": 939182550, "nodes": [8700192641, 8700192642, 8700192643, 8700192644, 8700192645, 8700192646, 8700192647, 8700192648, 8700192649, 8700192650, 8700192651, 8700192652, 8700192653, 8700192654, 8700192641], "tags": {"addr:housenumber": "137-139", "addr:postcode": "2086", "addr:state": "NSW", "addr:street": "Frenchs Forest Road West", "addr:suburb": "Frenchs Forest", "amenity": "police", "building": "yes", "fax": "02 94529511", "name": "Frenchs Forest Police Station", "operator": "New South Wales Police Force", "operator:wikidata": "Q7011763", "operator:wikipedia": "en:New South Wales Police Force", "phone": "02 94529599", "website": "https://www.police.nsw.gov.au/about_us/regions_commands_districts/north_west_metro_region/northern_beaches/frenchs_forest_police_station"}}]}