{"version": 0.6, "generator": "Overpass API 0.7.60 f4c14d41", "osm3s": {"timestamp_osm_base": "2023-05-02T21:18:20Z", "copyright": "The data included in this document is from www.openstreetmap.org. The data is made available under ODbL."}, "elements": [{"type": "node", "id": 373068398, "lat": 40.7165068, "lon": -73.9998287, "tags": {"addr:city": "New York", "addr:housenumber": "79", "addr:postcode": "10013", "addr:state": "NY", "addr:street": "Baxter Street", "amenity": "pub", "atm": "yes", "cocktails": "yes", "cuisine": "american;pub", "drink:beer": "draught", "drink:liquor": "yes", "drink:wine": "yes", "name": "Whiskey Tavern", "opening_hours": "Mo-Su 11:00-04:00", "opening_hours:kitchen": "Mo-Su 11:00-03:00", "outdoor_seating": "yes", "phone": "+1 212 374 9119"}}, {"type": "node", "id": 466819405, "lat": 40.5781161, "lon": -73.8358906, "tags": {"amenity": "pub"}}, {"type": "node", "id": 484065219, "lat": 40.66019, "lon": -73.9912599, "tags": {"amenity": "pub", "cocktails": "yes", "cuisine": "pub;american", "delivery": "yes", "name": "Battle Hill Tavern", "opening_hours": "We-Fr 17:00-24:00; Sa-Su 16:00-24:00", "outdoor_seating": "yes", "phone": "+1-347-987-3055", "smoking": "outside", "toilets": "yes", "wheelchair": "no"}}, {"type": "node", "id": 484072995, "lat": 40.6723895, "lon": -73.9578497}, {"type": "node", "id": 582292401, "lat": 40.7273093, "lon": -73.9922879, "tags": {"addr:city": "New York", "addr:housenumber": "34", "addr:postcode": "10003", "addr:street": "East 4th Street", "amenity": "pub", "cocktails": "yes", "contact:facebook": "https://www.facebook.com/SwiftHibernianLounge", "contact:instagram": "https://www.instagram.com/swifthibernianlounge/", "cuisine": "pub", "drink:beer": "draught", "drink:liquor": "yes", "drink:wine": "yes", "email": "info@swiftnycbar.com", "name": "Swift Hibernian Lounge", "opening_hours": "Tu-Fr 16:00-23:00; Sa,Su 14:00-23:00", "phone": "+1 212-260-3600", "start_date": "1995", "website": "https://www.swiftnycbar.com/"}}, {"type": "node", "id": 617378682, "lat": 40.7148871, "lon": -73.9446178, "tags": {"addr:housenumber": "347", "addr:postcode": "11211", "addr:street": "Graham Avenue", "amenity": "pub", "contact:instagram": "mothersburgers", "cuisine": "burger", "email": "mothersburgers@gmail.com", "level": "0", "name": "Mother's", "opening_hours": "Su-Th 12:00-23:00; Fr, Sa 12:00-24:00", "opening_hours:kitchen": "Su-Th 12:00-22:00; Fr, Sa 12:00-23:00", "phone": "+1 718-384-7778", "website": "https://mothersbrooklyn.com"}}, {"type": "node", "id": 617378698, "lat": 40.7147528, "lon": -73.9434202, "tags": {"addr:housenumber": "769", "addr:postcode": "11203", "addr:street": "Metropolitan Avenue", "amenity": "pub", "contact:facebook": "harefieldroad", "contact:instagram": "harefieldroad", "cuisine": "irish", "email": "harefieldbrooklyn@me.com", "name": "Harefield Road", "opening_hours": "Mo-Th 16:00-24:00; Fr 12:00-02:00; Sa, Su 11:00-24:00", "outdoor_seating": "yes", "phone": "+1 718-388-6870", "website": "https.//harefieldroad.com"}}, {"type": "node", "id": 663102624, "lat": 40.7499443, "lon": -73.9943348, "tags": {"addr:housenumber": "254", "addr:postcode": "10001", "addr:street": "West 31st Street", "amenity": "pub", "branch": "Penn Station", "cuisine": "irish;gastropub", "kitchen_hours": "Mo 11:30-23:00; Tu-Fr 11:30-24:00; Sa 16:00-24:00; Su 16:00-21:00", "name": "T\u00edr na n\u00d3g", "opening_hours": "Mo-Sa 11:00-02:00; Su 12:00-01:00", "phone": "+1 212-630-0249", "theme": "irish", "website": "http://tirnanognyc.com/penn_station/home"}}, {"type": "node", "id": 663116698, "lat": 40.7528389, "lon": -73.993253, "tags": {"amenity": "pub", "name": "Cooper's Tavern"}}, {"type": "node", "id": 671070787, "lat": 40.6676928, "lon": -73.9873337, "tags": {"addr:housenumber": "481", "addr:postcode": "11215", "addr:street": "5th Avenue", "amenity": "pub", "cocktails": "yes", "cuisine": "snack", "drink:beer": "draught", "drink:liquor": "no", "drink:sangria": "yes", "drink:wine": "yes", "name": "The Monro", "opening_hours": "Mo-Fr 14:00-04:00; Sa-Su 12:00-04:00", "outdoor_seating": "garden", "phone": "+1-718-499-2005", "website": "https://www.monropub.com"}}, {"type": "node", "id": 720075075, "lat": 40.6722068, "lon": -73.9575439, "tags": {"addr:housenumber": "766", "addr:postcode": "11238", "addr:street": "Franklin Avenue", "entrance": "yes"}}, {"type": "node", "id": 879705916, "lat": 40.7283251, "lon": -73.9886573, "tags": {"addr:city": "New York", "addr:housenumber": "41", "addr:postcode": "10003", "addr:state": "NY", "addr:street": "East 7th Street", "amenity": "pub", "name": "Burp Castle", "opening_hours": "Mo-Fr 17:00-23:00+; Sa,Su 16:00-23:00+"}}, {"type": "node", "id": 888527171, "lat": 40.709558, "lon": -74.012778, "tags": {"amenity": "pub", "name": "O'Hara's Pub"}}, {"type": "node", "id": 889435992, "lat": 40.7143268, "lon": -74.0097038, "tags": {"addr:housenumber": "57", "addr:postcode": "10007", "addr:street": "Murray Street", "amenity": "pub", "name": "Monk McGinns", "phone": "+1 212 791-9676"}}, {"type": "node", "id": 1039613744, "lat": 40.6605732, "lon": -73.9804283, "tags": {"amenity": "pub", "atm": "yes", "cocktails": "yes", "cuisine": "american;pub", "drink:beer": "draught", "drink:liquor": "yes", "drink:wine": "yes", "happy_hours": "Mo-Fr 15:00-19:00; Sa-Su 12:00-15:00", "name": "Double Windsor", "opening_hours": "Mo-Su 12:00-02:00", "opening_hours:kitchen": "Mo-Th 12:00-22:00; Fr-Sa 22:00-23:00; Su 12:00-22:00", "outdoor_seating": "sidewalk", "toilets": "yes", "toilets:unisex": "yes", "website": "https://www.doublewindsorbklyn.com", "wheelchair": "no"}}, {"type": "node", "id": 1049875301, "lat": 40.710097, "lon": -73.8646568, "tags": {"amenity": "pub", "name": "Cooper's"}}, {"type": "node", "id": 1108561376, "lat": 40.7268762, "lon": -73.9913525, "tags": {"addr:city": "New York", "addr:housenumber": "359", "addr:postcode": "10003", "addr:street": "Bowery", "amenity": "pub", "description": "Good pub food, amazing happy hour", "name": "Phebes", "official_name": "Phebes Tavern & Grill", "opening_hours": "Mo-Fr 12:00-23:00; Sa,Su 11:00-23:00", "website": "https://www.phebesnyc.com/"}}, {"type": "node", "id": 1116977313, "lat": 40.6857561, "lon": -73.9735045, "tags": {"addr:housenumber": "710", "addr:street": "Fulton Street", "alt_name": "Die Stammkneipe", "amenity": "pub", "cuisine": "german", "diet:vegan": "yes", "drink:beer": "draught", "drink:liquor": "no", "drink:wine": "yes", "name": "DSK Brooklyn", "old_name": "Der Schwarze K\u00f6lner", "opening_hours": "Mo-Th 15:00-22:00; Fr-Su 12:00-22:00", "outdoor_seating": "sidewalk;garden", "phone": "+1-347-841-4495", "sport": "kicker", "toilets": "yes", "toilets:access": "customers", "website": "https://dsk-brooklyn.com"}}, {"type": "node", "id": 1123395197, "lat": 40.749464, "lon": -73.982825, "tags": {"addr:city": "New York", "addr:country": "US", "addr:housenumber": "11", "addr:state": "NY", "addr:street": "East 36th Street", "amenity": "pub", "internet_access": "no", "name": "The Ginger Man", "opening_hours": "Mo-Th 11:30-02:00; Fr 11:30-04:00; Sa 12:30-04:00; Su 12:30-02:00", "phone": "+1-212-532-3740", "toilets": "yes", "toilets:access": "permissive", "toilets:position": "seated;urinal;", "toilets:unisex": "no", "toilets:wheelchair": "yes", "website": "http://www.gingerman-ny.com/"}}, {"type": "node", "id": 1123398026, "lat": 40.7257064, "lon": -73.9774603, "tags": {"addr:city": "New York", "addr:country": "US", "addr:housenumber": "158", "addr:state": "NY", "addr:street": "Avenue C", "amenity": "pub", "name": "Daytripper NYC", "opening_hours": "\"Temporarily closed\"", "smoking": "outside"}}, {"type": "node", "id": 1147520797, "lat": 40.7649158, "lon": -73.9829157, "tags": {"addr:city": "New York", "addr:country": "US", "addr:housenumber": "240", "addr:postcode": "10019", "addr:state": "NY", "addr:street": "West 55th Street", "amenity": "pub", "name": "McGee's Pub & Restaurant", "phone": "+12129573536", "website": "http://mcgeespub.com/", "wheelchair": "limited"}}, {"type": "node", "id": 1178020391, "lat": 40.6892668, "lon": -73.9916318, "tags": {"amenity": "pub", "cocktails": "yes", "cuisine": "snack", "drink:beer": "draught", "drink:liquor": "yes", "drink:wine": "yes", "fax": "+1-718-855-5497", "happy_hours": "Mo-Fr 16:00-19:00", "name": "The Brazen Head", "outdoor_seating": "garden", "phone": "+1-718-488-0430", "sport": "darts", "toilets": "yes", "toilets:unisex": "no", "website": "http://brazenheadbrooklyn.com"}}, {"type": "node", "id": 1292782896, "lat": 40.7498004, "lon": -73.9796606, "tags": {"addr:housenumber": "70", "addr:street": "Park Avenue", "amenity": "pub", "name": "Silverleaf Tavern", "postal_code": "10016"}}, {"type": "node", "id": 1292794350, "lat": 40.7502231, "lon": -73.9786924, "tags": {"amenity": "pub", "name": "Park Avenue Tavern"}}, {"type": "node", "id": 1482256504, "lat": 40.8846724, "lon": -73.8997046, "tags": {"addr:housenumber": "216", "addr:postcode": "10463", "addr:street": "West 238th Street", "amenity": "pub", "cocktails": "yes", "cuisine": "pub;brunch", "delivery": "yes", "drink:beer": "draught", "drink:liquor": "yes", "drink:wine": "yes", "name": "Bronx Alehouse", "opening_hours": "Mo-Su 11:00-24:00", "outdoor_seating": "sidewalk;street", "phone": "+1-718-601-0204", "takeaway": "yes", "toilets": "yes", "toilets:unisex": "no", "website": "https://www.bronxalehouse.com"}}, {"type": "node", "id": 1585033979, "lat": 40.7051781, "lon": -74.0087332, "tags": {"amenity": "pub", "name": "Killarney Rose"}}, {"type": "node", "id": 1667405946, "lat": 40.8047722, "lon": -73.9553775}, {"type": "node", "id": 1667413581, "lat": 40.8028502, "lon": -73.9567878, "tags": {"amenity": "pub", "name": "Bier International"}}, {"type": "node", "id": 1683399834, "lat": 40.7225085, "lon": -73.9863406, "tags": {"addr:housenumber": "5", "addr:street": "Avenue A", "amenity": "pub", "cocktails": "yes", "cuisine": "american", "drink:beer": "yes", "drink:coffee": "yes", "drink:wine": "yes", "email": "info@boultonandwattnyc.com", "happy_hours": "Mo-Fr 12:00-19:00", "name": "Boulton & Watt", "opening_hours": "Sa, Su 10:00-04:00; Mo-Th 12:00-02:00; Fr 12:00-04:00", "opening_hours:kitchen": "Mo-Th 12:00-23:50; Fr 12:00-24:50; Sa 10:00-24:50; Su 12:00-23:50", "phone": "+1-646-490-6004", "reservation": "recommended", "takeaway": "yes", "website": "http://boultonandwattnyc.com/", "wheelchair": "yes"}}, {"type": "node", "id": 1753098052, "lat": 40.7572678, "lon": -73.9836738, "tags": {"entrance": "main"}}, {"type": "node", "id": 1753098061, "lat": 40.7573011, "lon": -73.9837558, "tags": {"entrance": "main"}}, {"type": "node", "id": 1753134755, "lat": 40.7579634, "lon": -73.9838394, "tags": {"entrance": "main"}}, {"type": "node", "id": 1873813892, "lat": 40.7631922, "lon": -73.9963261, "tags": {"addr:city": "New York", "addr:country": "US", "addr:housenumber": "626", "addr:postcode": "10036", "addr:state": "NY", "addr:street": "11th Avenue", "amenity": "pub", "cocktails": "yes", "cuisine": "pub;irish;american", "drink:beer": "draught", "drink:liquor": "yes", "drink:wine": "yes", "name": "Landmark Tavern", "opening_hours": "Mo-Su 11:30-04:00", "opening_hours:kitchen": "Mo-Su 11:30-23:00", "phone": "+1 212 247 2562", "website": "http://www.thelandmarktavern.org/", "wheelchair": "limited"}}, {"type": "node", "id": 1891894307, "lat": 40.7053555, "lon": -73.9325735, "tags": {"addr:housenumber": "12", "addr:street": "Gratta", "amenity": "pub", "name": "Pine Box Rock Sbop"}}, {"type": "node", "id": 1899033650, "lat": 40.7616486, "lon": -73.9868145, "tags": {"amenity": "pub", "name": "West End Bar & Grill"}}, {"type": "node", "id": 1942321062, "lat": 40.5613602, "lon": -73.9120631, "tags": {"amenity": "pub", "name": "The Blarney Stone"}}, {"type": "node", "id": 2047267694, "lat": 40.7813756, "lon": -73.9798992, "tags": {"amenity": "pub", "name": "Amsterdam Ale House", "toilets:wheelchair": "yes", "website": "http://www.amsterdamalehouse.com/", "wheelchair": "yes"}}, {"type": "node", "id": 2064133525, "lat": 40.742658, "lon": -73.954324, "tags": {"addr:city": "Long Island City", "addr:housenumber": "5007", "addr:postcode": "11101", "addr:street": "Vernon Boulevard", "amenity": "pub", "food": "yes", "name": "P.J. Leahy's", "outdoor_seating": "no", "smoking": "no"}}, {"type": "node", "id": 2113159211, "lat": 40.7845071, "lon": -73.9770919, "tags": {"addr:city": "New York", "addr:country": "US", "addr:housenumber": "441", "addr:postcode": "10024", "addr:state": "NY", "addr:street": "Amsterdam Avenue", "amenity": "pub", "name": "St. James Gate", "website": "http://stjamesgatenyc.com/"}}, {"type": "node", "id": 2129755928, "lat": 40.7435315, "lon": -73.9842167, "tags": {"amenity": "pub", "internet_access": "wlan", "internet_access:fee": "no", "name": "Churchill's Pub", "toilets:wheelchair": "yes", "wheelchair": "yes"}}, {"type": "node", "id": 2159537774, "lat": 40.8440804, "lon": -73.9674452, "tags": {"addr:housename": "Rusty Kale's Pub", "addr:housenumber": "1466", "addr:postcode": "07020", "addr:street": "River Road", "amenity": "pub", "name": "Rusty Kale's Pub", "source": "local_knowledge"}}, {"type": "node", "id": 2183010447, "lat": 40.7067993, "lon": -74.0089458, "tags": {"amenity": "pub", "name": "Bailey Pub & Brasserie", "wheelchair": "no"}}, {"type": "node", "id": 2274102382, "lat": 40.7054987, "lon": -73.9338352, "tags": {"addr:city": "Brooklyn", "addr:country": "US", "addr:postcode": "11206", "addr:state": "NY", "addr:street": "Seigel Street", "amenity": "pub", "name": "Kings County"}}, {"type": "node", "id": 2348610318, "lat": 40.864409, "lon": -73.9288983, "tags": {"addr:city": "New York", "addr:country": "US", "addr:housenumber": "4716", "addr:state": "NY", "addr:street": "Broadway", "amenity": "pub", "name": "The Irish Brigade Pub"}}, {"type": "node", "id": 2377128194, "lat": 40.74969, "lon": -73.99502, "tags": {"addr:city": "New York", "addr:country": "US", "addr:housenumber": "402", "addr:postcode": "10001", "addr:state": "NY", "addr:street": "8th Avenue", "amenity": "pub", "microbrewery": "no", "name": "The Molly Wee Pub", "takeaway": "yes", "website": "http://themollywee.com/", "wheelchair": "yes"}}, {"type": "node", "id": 2402042259, "lat": 40.7214424, "lon": -73.9573563, "tags": {"addr:city": "Brooklyn", "addr:housenumber": "79", "addr:postcode": "11249", "addr:street": "North 11th Street", "amenity": "pub", "name": "Brooklyn Brewery", "opening_hours": "Fr 18:00-23:00; Sa 12:00-20:00; Su 12:00-18:00", "phone": "+1 718 486 74 22", "website": "http://brooklynbrewery.com/", "wikidata": "Q1764694"}}, {"type": "node", "id": 2409946228, "lat": 40.7459665, "lon": -74.0014362, "tags": {"addr:city": "New York", "addr:country": "US", "addr:housenumber": "203", "addr:state": "NY", "addr:street": "West 23rd Street", "amenity": "pub", "name": "Jake's Saloon", "website": "www.jakessaloonnyc.com"}}, {"type": "node", "id": 2491417520, "lat": 40.6822839, "lon": -73.980015, "tags": {"amenity": "pub", "cuisine": "popcorn", "drink:beer": "draught", "drink:liquor": "yes", "drink:wine": "yes", "name": "4th Ave Pub", "outdoor_seating": "garden", "phone": "+1 718 643 2273"}}, {"type": "node", "id": 2494104096, "lat": 40.6476061, "lon": -73.9727328, "tags": {"alt_name": "Shenanigans Pub", "amenity": "pub", "name": "Shenanigans", "outdoor_seating": "garden", "phone": "+1-718-633-3689"}}, {"type": "node", "id": 2494148902, "lat": 40.6789374, "lon": -73.9977207, "tags": {"addr:housenumber": "442", "addr:postcode": "11231", "addr:street": "Court Street", "amenity": "pub", "atm": "yes", "cocktails": "yes", "cuisine": "american;mexican;brunch", "drink:beer": "draught", "drink:liquor": "yes", "drink:wine": "yes", "happy_hours": "Mo-Su 16:00-19:00", "name": "Abilene", "opening_hours": "Mo-Th 11:00-24:00; Fr-Sa 11:00-02:00; Su 11:00-24:00", "opening_hours:kitchen": "Mo-Th 11:00-21:30+; Fr-Sa 11:00-23:30+; Su 11:00-21:30+", "outdoor_seating": "sidewalk;street", "phone": "+1-718-522-6900", "website": "https://www.abilenebarbrooklyn.com"}}, {"type": "node", "id": 2494194580, "lat": 40.7134934, "lon": -73.9616196}, {"type": "node", "id": 2494194885, "lat": 40.7134449, "lon": -73.9616503}, {"type": "node", "id": 2494194915, "lat": 40.7135043, "lon": -73.9618122}, {"type": "node", "id": 2494194917, "lat": 40.7135049, "lon": -73.961651}, {"type": "node", "id": 2494194936, "lat": 40.7135527, "lon": -73.9617815}, {"type": "node", "id": 2494203007, "lat": 40.6920277, "lon": -73.9914226, "tags": {"addr:housenumber": "62", "addr:postcode": "11201", "addr:street": "Court Street", "amenity": "pub", "atm": "yes", "cocktails": "yes", "cuisine": "american;pub", "drink:beer": "draught", "drink:liquor": "yes", "drink:wine": "yes", "happy_hours": "Mo-Fr 16:00-19:00", "name": "O'Keefes Bar & Grill", "phone": "+1-718-855-8751", "toilets": "yes", "toilets:access": "customers", "toilets:unisex": "no"}}, {"type": "node", "id": 2494208515, "lat": 40.6706029, "lon": -73.9819872, "tags": {"addr:housenumber": "356", "addr:postcode": "11215", "addr:street": "6th Avenue", "amenity": "pub", "cocktails": "yes", "cuisine": "american;pub", "drink:beer": "draught", "drink:liquor": "yes", "drink:wine": "yes", "name": "Park Slope Ale House", "opening_hours": "Tu-We 16:00-22:00; Th 16:00-23:00; Fr-Sa 16:00-24:00; Su 16:00-22:00", "outdoor_seating": "yes", "phone": "+1-718-788-1756", "website": "https://www.parkslopealehouse.com"}}, {"type": "node", "id": 2494346798, "lat": 40.7781562, "lon": -73.9016011}, {"type": "node", "id": 2494346999, "lat": 40.7782527, "lon": -73.9014834}, {"type": "node", "id": 2494347426, "lat": 40.7784349, "lon": -73.9017421}, {"type": "node", "id": 2511066682, "lat": 40.7783384, "lon": -73.9018597}, {"type": "node", "id": 2527472299, "lat": 40.6288499, "lon": -74.1189678, "tags": {"addr:city": "Staten Island", "addr:housenumber": "879", "addr:postcode": "10310", "addr:state": "NY", "addr:street": "Forest Avenue", "amenity": "pub", "name": "The Point Tavern", "opening_hours": "Mo-Th 10:00-24:00 Fr-Su 10:00-02:00", "phone": "+1-718-524-7388", "website": "http://www.thepointsiny.com"}}, {"type": "node", "id": 2545194247, "lat": 40.6796353, "lon": -73.8499732}, {"type": "node", "id": 2545194347, "lat": 40.679654, "lon": -73.849909}, {"type": "node", "id": 2545194758, "lat": 40.6798156, "lon": -73.8500638}, {"type": "node", "id": 2545194763, "lat": 40.67982, "lon": -73.8499924}, {"type": "node", "id": 2547114757, "lat": 40.7324161, "lon": -73.9875816, "tags": {"addr:housenumber": "103", "addr:postcode": "10003", "addr:street": "3rd Avenue", "amenity": "pub", "cocktails": "yes", "cuisine": "american;pub;brunch", "drink:beer": "draught", "drink:liquor": "yes", "drink:wine": "yes", "name": "The Penny Farthing", "opening_hours": "Mo-Th 11:00-24:00; Fr-Sa 11:00-02:00", "opening_hours:kitchen": "Mo-Sa 11:00-21:00", "outdoor_seating": "sidewalk", "phone": "+1-212-387-7300", "toilets": "yes", "toilets:unisex": "yes", "toilets:wheelchair": "yes", "website": "https://thepennyfarthingnyc.com", "wheelchair": "yes"}}, {"type": "node", "id": 2547114825, "lat": 40.7318319, "lon": -73.9855738, "tags": {"addr:city": "New York", "addr:housenumber": "213", "addr:postcode": "10003", "addr:state": "NY", "addr:street": "2nd Avenue", "amenity": "pub", "name": "Jackdaw", "opening_hours": "Mo-Fr 11:00-23:00; Sa,Su 10:00-23:00", "outdoor_seating": "sidewalk;street"}}, {"type": "node", "id": 2547241543, "lat": 40.721001, "lon": -73.9977059, "tags": {"amenity": "pub", "contact:phone": "+1 212 6805600", "name": "Brinkley's", "opening_hours": "Mo-Fr 11:00-02:00, Sa-Su 10:00-02:00"}}, {"type": "node", "id": 2549972137, "lat": 40.6853209, "lon": -74.0004883, "tags": {"addr:housenumber": "521", "addr:postcode": "11231", "addr:street": "Hicks Street", "amenity": "pub", "cocktails": "yes", "cuisine": "asian;american", "drink:beer": "draught", "drink:coffee": "yes", "drink:liquor": "yes", "drink:tea": "yes", "drink:wine": "yes", "name": "Veksler's", "opening_hours": "Mo-Th 17:00-23:00; Fr 17:00-24:00; Sa 11:00-24:00; Su 11:00-24:00", "phone": "+1-718-534-5498", "website": "http://vekslers.com", "wheelchair": "yes"}}, {"type": "node", "id": 2550054030, "lat": 40.6813334, "lon": -73.9769684, "tags": {"addr:housenumber": "47", "addr:postcode": "11217", "addr:street": "5th Avenue", "amenity": "pub", "cocktails": "yes", "cuisine": "sandwich;snack", "drink:beer": "draught", "drink:liquor": "yes", "drink:wine": "yes", "name": "That Bar", "note": "this pub uses an OSM map, uncredited, on its website", "opening_hours": "Tu-Fr 12:00-23:45; Sa 13:00-23:45; Su 13:00-21:00", "opening_hours:kitchen": "Tu,We 14:30-22:00; Th,Fr 14:30-23:00; Sa,Su 11:30-23:00", "outdoor_seating": "sidewalk;street", "phone": "+1-347-599-2220", "website": "https://thatbarparkslope.com"}}, {"type": "node", "id": 2550054892, "lat": 40.6815696, "lon": -73.9764333}, {"type": "node", "id": 2550054901, "lat": 40.6816219, "lon": -73.9765681}, {"type": "node", "id": 2550054902, "lat": 40.6816229, "lon": -73.9765674}, {"type": "node", "id": 2550054906, "lat": 40.6816407, "lon": -73.9763853}, {"type": "node", "id": 2550054910, "lat": 40.6816866, "lon": -73.9765036}, {"type": "node", "id": 2550054911, "lat": 40.6816938, "lon": -73.97675}, {"type": "node", "id": 2550054921, "lat": 40.6817639, "lon": -73.9767027}, {"type": "node", "id": 2550057157, "lat": 40.676696, "lon": -73.9804045}, {"type": "node", "id": 2550057165, "lat": 40.6767697, "lon": -73.9803549}, {"type": "node", "id": 2550057167, "lat": 40.6767842, "lon": -73.9806325}, {"type": "node", "id": 2550057174, "lat": 40.6768444, "lon": -73.9805919}, {"type": "node", "id": 2550057176, "lat": 40.6768579, "lon": -73.9805829}, {"type": "node", "id": 2550074087, "lat": 40.673729, "lon": -73.9990558}, {"type": "node", "id": 2550074094, "lat": 40.6737773, "lon": -73.9992242}, {"type": "node", "id": 2550074102, "lat": 40.6738239, "lon": -73.9993867}, {"type": "node", "id": 2550074111, "lat": 40.6739797, "lon": -73.9989318}, {"type": "node", "id": 2550074121, "lat": 40.6740746, "lon": -73.9992627}, {"type": "node", "id": 2550079194, "lat": 40.6756001, "lon": -74.0158448}, {"type": "node", "id": 2550079207, "lat": 40.675675, "lon": -74.0159564}, {"type": "node", "id": 2550079208, "lat": 40.6756744, "lon": -74.0157581}, {"type": "node", "id": 2550079236, "lat": 40.6757994, "lon": -74.0156122}, {"type": "node", "id": 2550079238, "lat": 40.6758075, "lon": -74.0158017}, {"type": "node", "id": 2550079260, "lat": 40.6758743, "lon": -74.0157237}, {"type": "node", "id": 2550140503, "lat": 40.6815162, "lon": -73.953374, "tags": {"addr:housenumber": "1223", "addr:postcode": "11216", "addr:street": "Bedford Avenue", "amenity": "pub", "cuisine": "american;caribbean", "drink:beer": "yes", "drink:wine": "yes", "name": "Tilly's", "outdoor_seating": "street", "website": "https://tillysbklyn.com"}}, {"type": "node", "id": 2550150587, "lat": 40.6811362, "lon": -73.956394, "tags": {"amenity": "pub", "cuisine": "chicken;burger", "diet:vegetarian": "yes", "name": "Wing Masters", "opening_hours": "Tu-Sa 11:30-23:00; Su 13:00-22:00", "phone": "+1-347-350-9489", "website": "https://wingmastersnyc.com"}}, {"type": "node", "id": 2550592859, "lat": 40.6666391, "lon": -73.9878306}, {"type": "node", "id": 2550592894, "lat": 40.6666498, "lon": -73.9878216}, {"type": "node", "id": 2550592953, "lat": 40.6666723, "lon": -73.9878996}, {"type": "node", "id": 2550593015, "lat": 40.666708, "lon": -73.987773}, {"type": "node", "id": 2550593136, "lat": 40.6667411, "lon": -73.987842}, {"type": "node", "id": 2550604114, "lat": 40.6644271, "lon": -73.9942054, "tags": {"addr:housenumber": "634", "addr:postcode": "11215", "addr:street": "4th Avenue", "amenity": "pub", "cocktails": "yes", "cuisine": "mexican", "drink:beer": "draught", "drink:liquor": "yes", "drink:wine": "yes", "name": "Mezquila"}}, {"type": "node", "id": 2552502317, "lat": 40.6170981, "lon": -74.0338612, "tags": {"addr:housenumber": "9510", "addr:postcode": "11209", "addr:street": "3rd Avenue", "amenity": "pub", "name": "The Wicked Monk", "phone": "+1-347-497-5152", "theme": "irish", "website": "https://www.wickedmonk.com"}}, {"type": "node", "id": 2552542745, "lat": 40.6152954, "lon": -74.0342126, "tags": {"amenity": "pub", "cocktails": "yes", "drink:beer": "draught", "drink:liquor": "yes", "name": "Kitty Kiernan's", "payment:cash": "only", "theme": "irish"}}, {"type": "node", "id": 2552563959, "lat": 40.6187954, "lon": -74.0331687, "tags": {"addr:housenumber": "9224", "addr:postcode": "11209", "addr:street": "3rd Avenue", "amenity": "pub", "cocktails": "yes", "cuisine": "pub", "drink:beer": "yes", "drink:liquor": "yes", "drink:wine": "yes", "live_music": "yes", "name": "Delia's Lounge", "opening_hours": "Mo-Su 14:00-01:00", "outdoor_seating": "sidewalk;street", "phone": "+1-718-491-8700", "website": "https://www.deliaslounge.com"}}, {"type": "node", "id": 2552658193, "lat": 40.6264899, "lon": -74.024047, "tags": {"addr:housenumber": "7902", "addr:postcode": "11209", "addr:street": "5th Avenue", "amenity": "pub", "cocktails": "yes", "contact:facebook": "https://www.facebook.com/Skinflints-214860158647302/", "cuisine": "pub;burger", "drink:beer": "draught", "drink:liquor": "yes", "drink:wine": "yes", "name": "Skinflints", "outdoor_seating": "sidewalk;street", "phone": "+1-718-745-1116"}}, {"type": "node", "id": 2555577469, "lat": 40.7416176, "lon": -73.9784219, "tags": {"addr:city": "New York", "addr:housenumber": "519", "addr:postcode": "10016", "addr:state": "NY", "addr:street": "2nd Avenue", "alt_name": "Paddy Reilly's Music Bar", "amenity": "pub", "atm": "yes", "drink:beer": "draught", "drink:liquor": "yes", "live_music": "yes", "name": "Paddy Reilly's", "phone": "+1-212-686-1210", "sport": "darts", "website": "https://paddyreillysmusicbar.us"}}, {"type": "node", "id": 2555577706, "lat": 40.7419985, "lon": -73.9781117}, {"type": "node", "id": 2555577725, "lat": 40.7420616, "lon": -73.9780661}, {"type": "node", "id": 2555577727, "lat": 40.7420631, "lon": -73.9782665}, {"type": "node", "id": 2555577736, "lat": 40.7420888, "lon": -73.9783281}, {"type": "node", "id": 2555577742, "lat": 40.7420965, "lon": -73.9782859}, {"type": "node", "id": 2555577750, "lat": 40.7421083, "lon": -73.9783141}, {"type": "node", "id": 2555577767, "lat": 40.7421401, "lon": -73.9782544}, {"type": "node", "id": 2555640561, "lat": 40.5905398, "lon": -73.9713886, "tags": {"addr:city": "Brooklyn", "addr:housenumber": "315", "addr:postcode": "11223", "addr:state": "NY", "addr:street": "Avenue X", "amenity": "pub", "name": "Draft Barn"}}, {"type": "node", "id": 2561577765, "lat": 40.6440439, "lon": -74.0148048, "tags": {"addr:housenumber": "5401", "addr:postcode": "11220", "addr:street": "4th Avenue", "amenity": "pub", "cuisine": "dominican", "name": "My Coral", "outdoor_seating": "sidewalk", "phone": "+1-718-492-2009"}}, {"type": "node", "id": 2562001527, "lat": 40.6526396, "lon": -73.9758564, "tags": {"amenity": "pub", "atm": "yes", "cocktails": "yes", "cuisine": "sandwich;snack", "drink:beer": "draught", "drink:liquor": "yes", "drink:wine": "yes", "name": "The Adirondack", "opening_hours": "Mo-Th 15:00-02:00; Fr 15:00-04:00; Sa 12:00-04:00; Su 12:00-02:00", "outdoor_seating": "sidewalk", "phone": "+1-718-871-0100", "toilets": "yes", "toilets:access": "customers", "toilets:unisex": "yes", "website": "http://www.theadirondackbar.com"}}, {"type": "node", "id": 2562125777, "lat": 40.6650987, "lon": -73.9898893}, {"type": "node", "id": 2562125779, "lat": 40.6651465, "lon": -73.989849}, {"type": "node", "id": 2562125782, "lat": 40.6652289, "lon": -73.9901563}, {"type": "node", "id": 2562125784, "lat": 40.6652575, "lon": -73.9900766}, {"type": "node", "id": 2562125786, "lat": 40.6652767, "lon": -73.990116}, {"type": "node", "id": 2562449527, "lat": 40.7292304, "lon": -74.0038081, "tags": {"addr:housenumber": "34;35", "addr:postcode": "10014", "addr:street": "Downing Street", "amenity": "pub", "name": "Blue Ribbon Restaurant"}}, {"type": "node", "id": 2563930272, "lat": 40.7194563, "lon": -74.0041365, "tags": {"amenity": "pub", "cocktails": "yes", "cuisine": "american;pub", "drink:beer": "draught", "drink:liquor": "yes", "drink:wine": "yes", "internet_access": "yes", "internet_access:fee": "no", "live_music": "yes", "name": "Belle Reve", "opening_hours": "Mo-Su 11:00-04:00", "outdoor_seating": "sidewalk", "phone": "+1-212-680-0101", "takeaway": "yes", "toilets": "yes", "toilets:unisex": "yes", "website": "https://www.bellerevenyc.com"}}, {"type": "node", "id": 2565708226, "lat": 40.72064, "lon": -74.00497, "tags": {"addr:housenumber": "1", "addr:postcode": "10013", "addr:street": "Lispenard Street", "amenity": "pub", "building:levels": "3", "contact:phone": "+1 212 2269943", "contact:website": "http://nancywhiskeypub.com/", "name": "Nancy's Whiskey Pub"}}, {"type": "node", "id": 2567093839, "lat": 40.6699277, "lon": -73.9583973, "tags": {"addr:housenumber": "820", "addr:postcode": "11225", "addr:street": "Franklin Avenue", "amenity": "pub", "cocktails": "yes", "cuisine": "american;brunch", "diet:vegan": "limited", "diet:vegetarian": "yes", "drink:beer": "draught", "drink:liquor": "yes", "drink:wine": "yes", "name": "Franklin 820", "opening_hours": "Mo-We 16:00-24:00; Th-Fr 16:00-02:00; Sa 12:00-02:00; Su 12:00-24:00", "phone": "+1-718-708-4113", "website": "https://www.franklin820.com"}}, {"type": "node", "id": 2568196203, "lat": 40.6950123, "lon": -73.9532822}, {"type": "node", "id": 2568196205, "lat": 40.6950253, "lon": -73.9531714}, {"type": "node", "id": 2568196231, "lat": 40.6951497, "lon": -73.95331}, {"type": "node", "id": 2568196239, "lat": 40.6951627, "lon": -73.9531992}, {"type": "node", "id": 2568219115, "lat": 40.6934121, "lon": -73.9673748, "tags": {"amenity": "pub", "cocktails": "yes", "cuisine": "korean", "drink:beer": "draught", "drink:coffee": "yes", "drink:liquor": "yes", "drink:tea": "yes", "drink:wine": "yes", "fixme": "resurvey for hours 2023-03", "name": "White Tiger Tavern", "opening_hours": "Th 16:30-22:00; Fr 16:30-23:00; Sa 11:00-23:00; Su 11:00-22:00", "outdoor_seating": "garden", "phone": "+1-718-576-3783", "takeaway": "yes", "website": "http://www.whitetiger.nyc/wtt-about"}}, {"type": "node", "id": 2568634891, "lat": 40.7000021, "lon": -73.9197963, "tags": {"addr:housenumber": "242", "addr:postcode": "11237", "addr:street": "Himrod Street", "amenity": "pub", "atm": "yes", "cocktails": "yes", "contact:facebook": "https://www.facebook.com/darlingsbk/", "cuisine": "pub", "drink:beer": "draught", "drink:liquor": "yes", "drink:wine": "draught", "name": "Darlings", "opening_hours": "Mo-Su 12:00-04:00", "phone": "+1-347-425-7300", "toilets": "yes", "toilets:unisex": "yes", "toilets:wheelchair": "yes", "wheelchair": "yes"}}, {"type": "node", "id": 2568876406, "lat": 40.7068011, "lon": -73.9056815, "tags": {"addr:city": "Ridgewood", "addr:housenumber": "657", "addr:postcode": "11385", "addr:state": "NY", "addr:street": "Fairview Avenue", "amenity": "pub", "brewery": "guinness;finback;various", "craft": "caterer", "cuisine": "coffee;german", "diet:vegetarian": "yes", "email": "info@gottscheerhall.com", "internet_access": "no", "name": "Gottscheer Hall", "opening_hours": "Mo-Su 13:00-04:00", "outdoor_seating": "no", "payment:cash": "yes", "payment:credit_cards": "yes", "payment:debit_cards": "yes", "phone": "+1-718-366-3030", "smoking": "no", "toilets": "yes", "toilets:unisex": "no", "website": "http://gottscheerhall.com/", "wheelchair": "no"}}, {"type": "node", "id": 2568885145, "lat": 40.6721673, "lon": -73.9580088}, {"type": "node", "id": 2568885161, "lat": 40.6721809, "lon": -73.9578073}, {"type": "node", "id": 2568885163, "lat": 40.6721826, "lon": -73.9579256}, {"type": "node", "id": 2568885167, "lat": 40.6721866, "lon": -73.9575513}, {"type": "node", "id": 2568885175, "lat": 40.6721978, "lon": -73.9579977}, {"type": "node", "id": 2568885182, "lat": 40.6722042, "lon": -73.9579176}, {"type": "node", "id": 2568885192, "lat": 40.6722205, "lon": -73.9577118}, {"type": "node", "id": 2568885204, "lat": 40.6722363, "lon": -73.957787}, {"type": "node", "id": 2568885233, "lat": 40.6722764, "lon": -73.9577033}, {"type": "node", "id": 2568885239, "lat": 40.6722849, "lon": -73.9579657}, {"type": "node", "id": 2568885256, "lat": 40.6723041, "lon": -73.957835}, {"type": "node", "id": 2568885261, "lat": 40.6723131, "lon": -73.9578777}, {"type": "node", "id": 2568885326, "lat": 40.6723579, "lon": -73.9578613}, {"type": "node", "id": 2568885375, "lat": 40.6724047, "lon": -73.9579218}, {"type": "node", "id": 2569262832, "lat": 40.7355904, "lon": -74.0066215}, {"type": "node", "id": 2569262843, "lat": 40.7356049, "lon": -74.0067283}, {"type": "node", "id": 2569262856, "lat": 40.7356594, "lon": -74.0067155}, {"type": "node", "id": 2569262862, "lat": 40.7356701, "lon": -74.0066384}, {"type": "node", "id": 2570158971, "lat": 40.7518561, "lon": -73.8959515}, {"type": "node", "id": 2570158987, "lat": 40.7518939, "lon": -73.8955975}, {"type": "node", "id": 2570159080, "lat": 40.752436, "lon": -73.8960589}, {"type": "node", "id": 2570159087, "lat": 40.7524739, "lon": -73.8957048}, {"type": "node", "id": 2573098441, "lat": 40.6792534, "lon": -73.968081, "tags": {"addr:housenumber": "603", "addr:postcode": "11238", "addr:street": "Vanderbilt Avenue", "amenity": "pub", "cocktails": "yes", "cuisine": "pub;brunch", "drink:beer": "draught", "drink:liquor": "yes", "drink:wine": "yes", "name": "Branded Saloon", "opening_hours": "Mo-We 16:00-02:00; Th-Fr 16:00-04:00; Sa 12:00-04:00; Su 12:00-02:00", "outdoor_seating": "yes"}}, {"type": "node", "id": 2592129920, "lat": 40.7833893, "lon": -73.9778831, "tags": {"addr:city": "New York", "addr:country": "US", "addr:housenumber": "407", "addr:postcode": "10024", "addr:state": "NY", "addr:street": "Amsterdam Avenue", "amenity": "pub", "name": "Boubon St"}}, {"type": "node", "id": 2592129931, "lat": 40.7837556, "lon": -73.9792824, "tags": {"addr:city": "New York", "addr:country": "US", "addr:housenumber": "225", "addr:postcode": "10024", "addr:state": "NY", "addr:street": "West 79th Street", "amenity": "pub", "email": "info@dublinhousenyc.com", "name": "Dublin House", "website": "http://www.dublinhousenyc.com/", "wheelchair": "no"}}, {"type": "node", "id": 2605399150, "lat": 40.6932326, "lon": -73.9690543, "tags": {"amenity": "pub", "name": "Putnam's Pub & Cooker", "opening_hours": "Mo-Fr 11:00-04:00; Sa-Su 10:00-04:00", "website": "http://putnamspub.com/"}}, {"type": "node", "id": 2610440247, "lat": 40.7625486, "lon": -73.9824969, "tags": {"addr:city": "New York", "addr:country": "US", "addr:housenumber": "800", "addr:postcode": "10019", "addr:state": "NY", "addr:street": "7th Avenue", "amenity": "pub", "name": "Rosie O'Grady's Saloon", "website": "https://www.rosieogradys.com/", "wheelchair": "yes"}}, {"type": "node", "id": 2610440254, "lat": 40.7633512, "lon": -73.9813706, "tags": {"addr:city": "New York", "addr:country": "US", "addr:housenumber": "837", "addr:postcode": "10019", "addr:state": "NY", "addr:street": "7th Avenue", "amenity": "pub", "name": "The Irish Pub", "theme": "irish", "website": "http://www.theirishpubnyc.com/"}}, {"type": "node", "id": 2622651509, "lat": 40.7645366, "lon": -73.9833266, "tags": {"addr:city": "New York", "addr:housenumber": "243", "addr:postcode": "10019", "addr:street": "West 54th Street", "amenity": "pub", "contact:phone": "+1 212 459 8904", "contact:website": "http://charactersnyc.com/", "name": "Characters NYC Bar & Lounge", "opening_hours": "11:00-04:00", "source": "local knowledge", "wheelchair": "no"}}, {"type": "node", "id": 2626236854, "lat": 40.7444122, "lon": -73.9907381, "tags": {"addr:city": "New York", "addr:housenumber": "38", "addr:postcode": "10010", "addr:state": "NY", "addr:street": "West 26th Street", "amenity": "pub", "name": "Flatiron Hall Restaurant and Beer Cellar", "opening_hours": "Mo-Tu 12:00-24:00; We,Th 12:00-1:00; Fr,Sa 12:00-2:00; Su 11:00-22:00", "phone": "+1-646-790-3200", "website": "http://www.flatironhall.com"}}, {"type": "node", "id": 2629371828, "lat": 40.7686775, "lon": -73.9556375, "tags": {"addr:housenumber": "1361", "addr:postcode": "10021", "addr:street": "1st Avenue", "amenity": "pub", "cocktails": "yes", "cuisine": "irish", "drink:beer": "yes", "drink:wine": "yes", "mapillary": "1050176735391038", "name": "Finnegan's Wake Pub", "opening_hours": "11:00-01:00", "outdoor_seating": "yes", "phone": "+1 212-737-3664", "survey:date": "2018-07-23", "theme": "irish", "website": "https://finneganswakepubnyc.com"}}, {"type": "node", "id": 2629371900, "lat": 40.7697624, "lon": -73.954314, "tags": {"addr:housenumber": "1444", "addr:postcode": "10021", "addr:street": "1st Avenue", "amenity": "pub", "cocktails": "yes", "contact:facebook": "https://www.facebook.com/theponybarnyc/", "contact:instagram": "https://www.instagram.com/theponybarnyc/", "contact:twitter": "https://www.twitter.com/theponybarues/", "cuisine": "pub", "drink:beer": "draught", "email": "theponybar@gmail.com", "happy_hours": "16:20-17:20", "name": "The Pony Bar", "opening_hours": "Mo-Th, Su 15:00-02:00; Fr, Sa 12:00-04:00", "phone": "+1-212-288-0090", "website": "https://theponybar.com"}}, {"type": "node", "id": 2630333113, "lat": 40.7092274, "lon": -73.9372024, "tags": {"addr:city": "Brooklyn", "addr:housenumber": "57", "addr:postcode": "11206", "addr:street": "Waterbury Street", "amenity": "pub", "cocktails": "yes", "cuisine": "burrito;burger", "drink:beer": "yes", "drink:liquor": "yes", "drink:wine": "yes", "email": "eightydowd@gmail.com", "happy_hours": "yes", "name": "The Anchored Inn", "opening_hours": "Su-Th 12:00-28:00; Fr-Sa 12:00-27:00", "outdoor_seating": "yes", "phone": "+1-718-576-3297", "source": "local knowledge", "sport": "billiards", "toilets": "yes", "toilets:unisex": "yes", "toilets:wheelchair": "yes", "website": "https://theanchoredinn.com/", "wheelchair": "yes"}}, {"type": "node", "id": 2649091999, "lat": 40.7559296, "lon": -73.9910356, "tags": {"addr:city": "New York", "addr:country": "US", "addr:housenumber": "300", "addr:postcode": "10018", "addr:state": "NY", "addr:street": "West 40th Street", "amenity": "pub", "cocktails": "yes", "contact:email": "info@beerauthoritynyc.com", "contact:facebook": "BeerAuthorityNYC", "contact:instagram": "@beerauthoritynyc", "contact:phone": "+1-212-510-8415", "contact:twitter": "BeerAuthNY", "contact:website": "https://www.beerauthoritynyc.com/", "cuisine": "gastropub", "drink:beer": "draught;bottled", "drink:coffee": "yes", "happy_hours": "Mo-Su 11:00-19:00", "internet_access": "wlan", "level": "0;1;2", "name": "Beer Authority", "opening_hours": "Mo-We, Su 11:00-02:00; Th-Sa 11:00-04:00", "outdoor_seating": "yes", "reservation": "recommended", "wheelchair": "limited"}}, {"type": "node", "id": 2678581856, "lat": 40.7601307, "lon": -73.9871355, "tags": {"addr:city": "New York", "addr:housenumber": "266", "addr:street": "West 47th Street", "amenity": "pub", "name": "The Mean Fiddler", "website": "https://www.themeanfiddlernyc.com/"}}, {"type": "node", "id": 2679311665, "lat": 40.7444118, "lon": -73.991938, "tags": {"addr:street": "6th Avenue", "amenity": "pub", "cocktails": "yes", "cuisine": "american;brunch", "drink:beer": "draught", "drink:liquor": "yes", "drink:wine": "yes", "happy_hours": "Mo-Fr 15:00-19:00", "name": "J. J. Kinahan's", "phone": "+1-646-476-6276", "toilets": "yes", "toilets:access": "customers"}}, {"type": "node", "id": 2701655547, "lat": 40.6752052, "lon": -73.9668209, "tags": {"addr:housenumber": "176", "addr:postcode": "11238", "addr:street": "Underhill Avenue", "amenity": "pub", "cuisine": "sandwich;snack", "drink:beer": "draught", "drink:cider": "draught", "drink:liquor": "no", "drink:wine": "no", "indoor_seating": "yes", "name": "Gold Star Beer Counter", "not:brand:wikidata": "Q16994254", "outdoor_seating": "yes", "phone": "+1 347-955-5031", "takeaway": "yes", "walkup_window": "yes", "website": "http://goldstarbeercounter.com", "wheelchair": "yes"}}, {"type": "node", "id": 2702887584, "lat": 40.7388144, "lon": -73.9999094}, {"type": "node", "id": 2702887586, "lat": 40.7388272, "lon": -73.9999}, {"type": "node", "id": 2702887587, "lat": 40.7388444, "lon": -73.9999809}, {"type": "node", "id": 2702887592, "lat": 40.7389589, "lon": -73.9998037}, {"type": "node", "id": 2702887596, "lat": 40.7389876, "lon": -73.9998761}, {"type": "node", "id": 2702887603, "lat": 40.739039, "lon": -73.999745}, {"type": "node", "id": 2702887604, "lat": 40.739048, "lon": -73.9997667}, {"type": "node", "id": 2702887607, "lat": 40.739069, "lon": -73.9998165}, {"type": "node", "id": 2704104179, "lat": 40.7400416, "lon": -73.9825012, "tags": {"addr:housenumber": "336", "addr:postcode": "10010", "addr:street": "3rd Avenue", "amenity": "pub", "cuisine": "pub", "name": "Fitzgerald's Pub", "outdoor_seating": "street", "phone": "+1-212-679-6931"}}, {"type": "node", "id": 2704104183, "lat": 40.7400968, "lon": -73.9824601, "tags": {"addr:housenumber": "338", "addr:postcode": "10010", "addr:street": "3rd Avenue", "amenity": "pub", "cuisine": "pub", "indoor_seating": "yes", "name": "Dog & Bone", "outdoor_seating": "yes", "phone": "+1-212-889-1570", "website": "https://www.dogandboneny.com"}}, {"type": "node", "id": 2704104190, "lat": 40.7407157, "lon": -73.9820338, "tags": {"addr:housenumber": "354", "addr:postcode": "10010", "addr:street": "3rd Avenue", "amenity": "pub", "cocktails": "yes", "cuisine": "pub", "drink:beer": "yes", "drink:liquor": "yes", "drink:wine": "yes", "name": "Abbey Tavern", "outdoor_seating": "yes"}}, {"type": "node", "id": 2704116914, "lat": 40.7410246, "lon": -73.9813006, "tags": {"addr:housenumber": "367", "addr:postcode": "10016", "addr:street": "3rd Avenue", "amenity": "pub", "cocktails": "yes", "drink:beer": "draught", "drink:liquor": "yes", "drink:wine": "yes", "name": "Handcraft"}}, {"type": "node", "id": 2708083604, "lat": 40.7648784, "lon": -73.9781096, "tags": {"addr:housenumber": "119", "addr:postcode": "10019", "addr:street": "West 57th Street", "amenity": "pub", "cuisine": "burger", "name": "Burger Joint", "opening_hours": "Mo-Su 11:00-23:00", "phone": "+1 212-708-7414", "website": "http://hyatt.com"}}, {"type": "node", "id": 2709430388, "lat": 40.7514256, "lon": -73.9933833}, {"type": "node", "id": 2709430390, "lat": 40.7514934, "lon": -73.9935482}, {"type": "node", "id": 2709430392, "lat": 40.7515077, "lon": -73.9935379}, {"type": "node", "id": 2709430394, "lat": 40.7515085, "lon": -73.993324}, {"type": "node", "id": 2709430401, "lat": 40.7515347, "lon": -73.9935287}, {"type": "node", "id": 2709430410, "lat": 40.7515792, "lon": -73.9934961}, {"type": "node", "id": 2709479288, "lat": 40.753643, "lon": -73.9921669, "tags": {"addr:housenumber": "520", "addr:postcode": "10018", "addr:street": "8th Avenue", "amenity": "pub", "cocktails": "yes", "cuisine": "pub;british;american", "drink:beer": "yes", "drink:liquor": "yes", "email": "info@houndstoothpub.com", "facebook": "houndstoothpub", "happy_hours": "Mo-Su 12:00-19:00", "instagram": "houndstoothpub", "name": "The Houndstooth Pub", "opening_hours": "Mo-Fr 11:00-01:00; Sa,Su 12:00-02:00", "opening_hours:covid19": "Mo, Tu 12:00-21:00; We-Fr 12:00-22:00", "phone": "+1 212-643-0034", "reservation": "yes", "toilets": "yes", "twitter": "houndstoothnyc", "website": "https://www.houndstoothpub.com/", "wheelchair": "yes"}}, {"type": "node", "id": 2710280685, "lat": 40.762263, "lon": -73.9974749}, {"type": "node", "id": 2710280688, "lat": 40.7623174, "lon": -73.9976008}, {"type": "node", "id": 2710280689, "lat": 40.7623229, "lon": -73.9974302}, {"type": "node", "id": 2710280692, "lat": 40.7623773, "lon": -73.997556}, {"type": "node", "id": 2710917515, "lat": 40.7494964, "lon": -73.9833261, "tags": {"addr:city": "New York", "addr:housenumber": "2", "addr:postcode": "10016", "addr:state": "NY", "addr:street": "East 36th Street", "amenity": "pub", "branch": "36th Street", "email": "peterdillons36@gmail.com", "name": "Peter Dillon's", "opening_hours": "12:00-04:00", "phone": "+1-212-300-4091", "website": "https://www.peterdillons.com/"}}, {"type": "node", "id": 2711393461, "lat": 40.7563383, "lon": -73.9678566, "tags": {"addr:housenumber": "251", "addr:postcode": "10022", "addr:street": "East 52nd Street", "amenity": "pub", "name": "Bareburger", "opening_hours": "Mo-Su 11:00-22:30; PH closed", "outdoor_seating": "yes", "phone": "646-922-7169", "website": "https://www.bareburger.com/"}}, {"type": "node", "id": 2713484783, "lat": 40.6802655, "lon": -73.9677059, "tags": {"amenity": "pub", "contact:facebook": "https://www.facebook.com/Bilt-Bar-100153434688553/", "cuisine": "american", "drink:beer": "draught", "drink:liquor": "yes", "drink:wine": "yes", "name": "Bilt Bar", "opening_hours": "Mo-Fr 14:00-02:00; Sa 12:00-02:00; Su 12:00-01:00", "phone": "+1-347-295-3579"}}, {"type": "node", "id": 2713490479, "lat": 40.6794435, "lon": -73.9649602, "tags": {"addr:housenumber": "760", "addr:postcode": "11238", "addr:street": "Dean Street", "amenity": "pub", "cuisine": "mediterranean", "drink:beer": "draught", "drink:coffee": "yes", "drink:espresso": "yes", "drink:wine": "yes", "name": "Underhill", "phone": "+1-718-484-3744"}}, {"type": "node", "id": 2717545066, "lat": 40.7572363, "lon": -73.9835963}, {"type": "node", "id": 2717545159, "lat": 40.7572858, "lon": -73.983718}, {"type": "node", "id": 2717545182, "lat": 40.7573043, "lon": -73.9835481}, {"type": "node", "id": 2717545186, "lat": 40.7573107, "lon": -73.9837795}, {"type": "node", "id": 2717545189, "lat": 40.7573159, "lon": -73.9837758}, {"type": "node", "id": 2717545193, "lat": 40.7573236, "lon": -73.9835345}, {"type": "node", "id": 2717545203, "lat": 40.7573445, "lon": -73.9835197}, {"type": "node", "id": 2717545216, "lat": 40.7573633, "lon": -73.9835065}, {"type": "node", "id": 2717545262, "lat": 40.757431, "lon": -73.9834585}, {"type": "node", "id": 2717545281, "lat": 40.7574804, "lon": -73.9835802}, {"type": "node", "id": 2717545295, "lat": 40.7575054, "lon": -73.9836417}, {"type": "node", "id": 2717545409, "lat": 40.7577147, "lon": -73.9839856}, {"type": "node", "id": 2717545413, "lat": 40.7577348, "lon": -73.9840348}, {"type": "node", "id": 2717545585, "lat": 40.7579537, "lon": -73.9838168}, {"type": "node", "id": 2717545599, "lat": 40.7579738, "lon": -73.983866}, {"type": "node", "id": 2718031090, "lat": 40.7620092, "lon": -73.9596863}, {"type": "node", "id": 2718031097, "lat": 40.7620712, "lon": -73.9596411}, {"type": "node", "id": 2718031099, "lat": 40.7620978, "lon": -73.9597043}, {"type": "node", "id": 2718031100, "lat": 40.7621139, "lon": -73.9599354}, {"type": "node", "id": 2718031112, "lat": 40.762176, "lon": -73.9598902}, {"type": "node", "id": 2721574108, "lat": 40.7605232, "lon": -73.9861219, "tags": {"addr:city": "New York", "addr:housenumber": "232", "addr:postcode": "10036", "addr:street": "West 48th Street", "amenity": "pub", "cuisine": "american", "name": "Hurley's", "website": "http://www.hurleysnyc.com/"}}, {"type": "node", "id": 2724057631, "lat": 40.7747898, "lon": -73.9511428, "tags": {"addr:housenumber": "1589", "addr:postcode": "10028", "addr:street": "1st Avenue", "amenity": "pub", "cocktails": "yes", "contact:instagram": "hornshooktavern", "cuisine": "american", "delivery": "yes", "diet:gluten_free": "yes", "diet:pescetarian": "yes", "diet:vegan": "yes", "diet:vegetarian": "yes", "drink:beer": "draught; bottled", "drink:wine": "yes", "email": "info@hornshooktavern.com", "level": "0", "name": "Horn's Hook Tavern", "opening_hours": "11:00-04:00", "phone": "+1 212-879-1500", "takeaway": "yes", "website": "https://www.hornshooktavern.com", "wheelchair": "yes"}}, {"type": "node", "id": 2731108933, "lat": 40.7059245, "lon": -74.0103947, "tags": {"addr:city": "New York", "addr:housenumber": "40", "addr:postcode": "10005", "addr:street": "Exchange Place", "amenity": "pub", "internet_access": "yes", "internet_access:fee": "no", "name": "The Irish Punt", "phone": "+1 212-422-7868", "wheelchair": "no"}}, {"type": "node", "id": 2758640953, "lat": 40.7859091, "lon": -73.9765477, "tags": {"addr:city": "New York", "addr:country": "US", "addr:housenumber": "480", "addr:postcode": "10024", "addr:state": "NY", "addr:street": "Amsterdam Avenue", "amenity": "pub", "name": "Soldier McGee", "opening_hours": "Mo-Su 00:00-04:00,12:00-24:00", "website": "http://www.smcgeetavernnyc.com"}}, {"type": "node", "id": 2761677763, "lat": 40.8025625, "lon": -73.9644039, "tags": {"addr:housenumber": "992", "addr:postcode": "10025", "addr:street": "Amsterdam Avenue", "amenity": "pub", "gay": "yes", "lgbtq": "primary", "name": "Suite", "phone": "+12122224600", "website": "http://suitenyc.com/"}}, {"type": "node", "id": 2762571708, "lat": 40.8046688, "lon": -73.9555782}, {"type": "node", "id": 2762571740, "lat": 40.8047083, "lon": -73.9555494}, {"type": "node", "id": 2762571753, "lat": 40.8047272, "lon": -73.9557182}, {"type": "node", "id": 2762571841, "lat": 40.8048203, "lon": -73.9553425}, {"type": "node", "id": 2762571853, "lat": 40.8048801, "lon": -73.9556069}, {"type": "node", "id": 2762571872, "lat": 40.8049188, "lon": -73.9555788}, {"type": "node", "id": 2790840192, "lat": 40.7523552, "lon": -73.9901323, "tags": {"addr:housenumber": "202", "addr:street": "West 36th Street", "amenity": "pub", "cuisine": "irish;american;sandwich;salad;steak;burger;seafood", "drink:beer": "yes", "drink:coffee": "yes", "email": "info@pignwhistleon36th.com", "name": "Pig 'N' Whistle On 36th", "opening_hours": "Mo-Su 11:00-04:00", "phone": "+1-212-239-4820", "reservation": "yes", "takeaway": "yes", "toilets": "yes", "website": "https://pignwhistleon36th.com/", "wheelchair": "yes"}}, {"type": "node", "id": 2810080141, "lat": 40.8834265, "lon": -73.9018467, "tags": {"addr:housenumber": "5757", "addr:postcode": "10463", "addr:street": "Broadway", "amenity": "pub", "cuisine": "pub;latin_american", "name": "Game Day", "opening_hours": "Th-Su 16:00-24:00", "phone": "+1-718-548-1782", "website": "https://www.gamedaysportsbarny.com"}}, {"type": "node", "id": 2824828390, "lat": 40.7041146, "lon": -74.0117291, "tags": {"addr:housenumber": "88", "addr:postcode": "10004", "addr:street": "Broad Street", "amenity": "pub", "name": "Broadstone Bar & Kitchen", "wheelchair": "yes"}}, {"type": "node", "id": 2824829206, "lat": 40.7042378, "lon": -74.0106561}, {"type": "node", "id": 2824829212, "lat": 40.7042991, "lon": -74.0104836}, {"type": "node", "id": 2824829234, "lat": 40.7044189, "lon": -74.0107579}, {"type": "node", "id": 2824829239, "lat": 40.7044486, "lon": -74.0106617}, {"type": "node", "id": 2827554068, "lat": 40.6791, "lon": -74.0110743, "tags": {"addr:housenumber": "320", "addr:postcode": "11231", "addr:street": "Van Brunt Street", "amenity": "pub", "atm": "yes", "cocktails": "yes", "cuisine": "mexican", "drink:beer": "draught", "drink:liquor": "yes", "drink:wine": "yes", "happy_hours": "Mo-Fr 15:00-18:00", "name": "San Pedro Inn", "opening_hours": "Mo-We 15:00-02:00; Th 15:00-02:00; Fr-Sa 12:00-04:00; Su 12:00-02:00", "outdoor_seating": "sidewalk", "phone": "+1-718-576-3916", "sport": "darts", "takeaway": "yes", "toilets": "yes", "toilets:unisex": "yes", "website": "https://sanpedroinn.com"}}, {"type": "node", "id": 2838510036, "lat": 40.7064444, "lon": -73.943238, "tags": {"addr:housenumber": "135", "addr:postcode": "11206", "addr:street": "Graham Avenue", "amenity": "pub", "name": "Sweet Science", "outdoor_seating": "sidewalk;street"}}, {"type": "node", "id": 2842878652, "lat": 40.7223581, "lon": -73.9592747, "tags": {"amenity": "pub", "cocktails": "yes", "cuisine": "pub", "drink:beer": "draught", "drink:liquor": "yes", "drink:wine": "yes", "name": "Kent Ale House", "outdoor_seating": "sidewalk;street", "phone": "+1-347-227-8624", "website": "https://www.kentalehouse.com"}}, {"type": "node", "id": 2847059239, "lat": 40.7420058, "lon": -73.9560711}, {"type": "node", "id": 2847059251, "lat": 40.7420381, "lon": -73.9562398}, {"type": "node", "id": 2847059412, "lat": 40.7421379, "lon": -73.9562067}, {"type": "node", "id": 2847059437, "lat": 40.7422516, "lon": -73.9560188}, {"type": "node", "id": 2847059439, "lat": 40.7422644, "lon": -73.9560859}, {"type": "node", "id": 2847059440, "lat": 40.742269, "lon": -73.955984}, {"type": "node", "id": 2847059442, "lat": 40.7422743, "lon": -73.9560113}, {"type": "node", "id": 2847059443, "lat": 40.7422871, "lon": -73.9560783}, {"type": "node", "id": 2847059444, "lat": 40.7422909, "lon": -73.9561114}, {"type": "node", "id": 2847059446, "lat": 40.7422933, "lon": -73.9561106}, {"type": "node", "id": 2847059447, "lat": 40.742299, "lon": -73.9561534}, {"type": "node", "id": 2897876739, "lat": 40.7184521, "lon": -74.0049427, "tags": {"addr:housenumber": "273", "addr:street": "Church Street", "amenity": "pub", "name": "Souths", "official_name": "Souths Bar and Restaurant"}}, {"type": "node", "id": 2902952601, "lat": 40.7526442, "lon": -73.9726484, "tags": {"addr:city": "New York", "addr:housenumber": "203", "addr:postcode": "10017", "addr:street": "East 45th Street", "amenity": "pub", "name": "The Perfect Pint", "website": "http://www.theperfectpintnyc.com/", "wheelchair": "yes"}}, {"type": "node", "id": 2958284620, "lat": 40.7632835, "lon": -73.9810028, "tags": {"addr:city": "New York", "addr:housenumber": "160", "addr:postcode": "10019", "addr:street": "West 54th Street", "amenity": "pub", "name": "Old Castle", "website": "http://www.oldcastlepub.com/"}}, {"type": "node", "id": 2981930233, "lat": 40.7523006, "lon": -74.0094145, "tags": {"amenity": "pub", "cuisine": "burger", "name": "Frying Pan", "website": "http://fryingpan.com/"}}, {"type": "node", "id": 3003918342, "lat": 40.7121749, "lon": -73.9573306, "tags": {"amenity": "pub", "name": "Banter"}}, {"type": "node", "id": 3003918346, "lat": 40.7206682, "lon": -73.9899466, "tags": {"addr:city": "New York", "addr:housenumber": "66", "addr:postcode": "10002", "addr:state": "NY", "addr:street": "Rivington Street", "amenity": "pub", "brewery": "yes", "description": "Laid-back bar with rock on the jukebox and craft beer on tap, plus wine and small bites.", "name": "Marshall Stack", "opening_hours": "Mo-We 16:00-02:00; Th 16:00-04:00; Sa 13:00-04:00; Su 13:00-02:00", "phone": "(212) 228-4667", "website": "https://marshallstacknyc.com", "wheelchair": "no"}}, {"type": "node", "id": 3040296939, "lat": 40.7511973, "lon": -73.9836072, "tags": {"addr:housenumber": "8", "addr:postcode": "10018", "addr:street": "West 38th Street", "amenity": "pub", "cocktails": "yes", "delivery": "yes", "drink:beer": "yes", "drink:wine": "yes", "email": "blaggards@verizon.net", "happy_hours": "Mo-Fr 16:00-19:00", "name": "Blaggards Pub", "opening_hours": "Mo-Sa 11:00-04:00; Su 12:00-04:00", "phone": "+1 212-382-2611", "takeaway": "yes", "website": "https://blaggardsnyc.com"}}, {"type": "node", "id": 3057254959, "lat": 40.7562153, "lon": -73.9771764, "tags": {"addr:city": "New York", "addr:housenumber": "21", "addr:postcode": "10017", "addr:street": "East 47th Street", "amenity": "pub", "cocktails": "yes", "contact:facebook": "https://www.facebook.com/maggiesnyc/", "contact:instagram": "https://instagram.com/maggiesplacenyc", "cuisine": "irish;pub", "drink:beer": "draught;bottled", "drink:wine": "served", "email": "maggiesplace@erols.com", "name": "Maggie's Place", "opening_hours": "Mo-Fr 11:30-00:00; Sa 11:30-20:30", "phone": "+1 212-753-5757", "start_date": "1974", "website": "https://www.maggiesnyc.com/", "wheelchair": "limited"}}, {"type": "node", "id": 3058719826, "lat": 40.7109116, "lon": -74.0062842, "tags": {"addr:city": "New York", "addr:housenumber": "15-17", "addr:postcode": "10038", "addr:street": "Beekman Street", "amenity": "pub", "name": "The Beekman Pub", "start_date": "1936", "website": "https://www.thebeekmanpub.com/"}}, {"type": "node", "id": 3067940109, "lat": 40.7627917, "lon": -73.9850724, "tags": {"addr:city": "New York", "addr:housenumber": "251", "addr:postcode": "10019", "addr:street": "West 51st Street", "amenity": "pub", "name": "McHale's Pub", "official_name": "McHale's Bar & Grill", "website": "http://mchalespub.com/"}}, {"type": "node", "id": 3079037404, "lat": 40.7628066, "lon": -73.9773732, "tags": {"addr:city": "New York", "addr:housenumber": "65", "addr:postcode": "10019", "addr:street": "West 55th Street", "amenity": "pub", "name": "Cassidy\u2019s"}}, {"type": "node", "id": 3079054057, "lat": 40.7628723, "lon": -73.9775236, "tags": {"addr:city": "New York", "addr:housenumber": "71", "addr:postcode": "10019", "addr:state": "NY", "addr:street": "West 55th Street", "amenity": "pub", "name": "Whiskey Trader", "website": "http://whiskeytradernyc.com/"}}, {"type": "node", "id": 3079068320, "lat": 40.7620862, "lon": -73.9775771, "tags": {"addr:city": "New York", "addr:housenumber": "43", "addr:postcode": "10019", "addr:state": "NY", "addr:street": "West 54th Street", "amenity": "pub", "name": "Connolly's", "website": "http://www.connollyspubandrestaurant.com/"}}, {"type": "node", "id": 3116410275, "lat": 40.7571671, "lon": -73.9775351, "tags": {"addr:city": "New York", "addr:housenumber": "3", "addr:postcode": "10017", "addr:state": "NY", "addr:street": "East 48th Street", "amenity": "pub", "brewery": "Samuel Adams Boston Lager;Bass;Harp;Budweiser;Bud Light;Stella Artois;Hoegaarden;Blue Point;Goose Island;Goose Island Seasonal;Leffe Blonde;Smithwick's", "cocktails": "yes", "cuisine": "pub;irish", "delivery": "yes", "drink:beer": "draught;bottled", "drink:wine": "served", "name": "P.J. Moran's", "opening_hours": "Mo-Su 11:00-02:00", "opening_hours:kitchen": "11:00-23:00", "phone": "+1 212-753-6444", "reservation": "yes", "website": "https://www.pjmorans.com/"}}, {"type": "node", "id": 3131828039, "lat": 40.7348845, "lon": -73.9885442, "tags": {"addr:housenumber": "119", "addr:street": "East 15th Street", "amenity": "pub", "brewery": "Guinness;Stella Artois", "name": "The Headless Horseman", "opening_hours": "We 16:00-01:00; Sa 12:00-03:00; Su 12:00-23:00; Mo, Tu 16:00-00:00; Th 16:00-02:00; Fr 16:00-03:00", "payment:cash": "yes", "payment:credit_cards": "yes", "payment:debit_cards": "yes", "phone": "+1-212-777-5101", "smoking": "no", "toilets": "yes", "toilets:access": "permissive", "toilets:unisex": "no", "website": "http://headlesshorsemannyc.com/", "wheelchair": "yes"}}, {"type": "node", "id": 3154211509, "lat": 40.6872709, "lon": -73.9754546, "tags": {"addr:city": "Brooklyn", "addr:housenumber": "71", "addr:postcode": "11238", "addr:state": "NY", "addr:street": "Lafayette Avenue", "amenity": "pub", "contact:instagram": "https://www.instagram.com/fancyfreebk/", "cuisine": "american;pub", "drink:beer": "draught", "drink:liquor": "yes", "drink:wine": "yes", "name": "Fancy Free", "opening_hours": "Mo-Fr 15:00-23:00; Sa,Su 12:00-23:00", "outdoor_seating": "sidewalk", "phone": "+1-347-763-0024", "website": "https://www.fancyfreebk.com"}}, {"type": "node", "id": 3154284869, "lat": 40.6866181, "lon": -73.9748413, "tags": {"addr:housenumber": "745", "addr:postcode": "11217", "addr:street": "Fulton Street", "amenity": "pub", "cuisine": "caribbean", "name": "Brooklyn Moon", "outdoor_seating": "sidewalk", "phone": "+1-718-855-7149", "smoking": "no"}}, {"type": "node", "id": 3448866514, "lat": 40.771073, "lon": -73.9593705, "tags": {"addr:housenumber": "1291", "addr:postcode": "10021", "addr:street": "3rd Avenue", "amenity": "pub", "cocktails": "yes", "cuisine": "american;burger", "drink:beer": "yes", "drink:wine": "yes", "name": "J.G. Melon", "opening_hours": "Mo-We 11:30-03:00; Th-Sa 11:30-04:00; Su 11:30-01:00", "payment:cash": "only", "phone": "+1 212-744-0585", "website": "https://jgmelon-nyc.com", "wikidata": "Q6104078", "wikipedia": "en:J.G. Melon"}}, {"type": "node", "id": 3618200208, "lat": 40.7505917, "lon": -73.9802461, "tags": {"addr:city": "New York", "addr:housenumber": "24", "addr:postcode": "10016", "addr:street": "East 39th Street", "amenity": "pub", "name": "The Shakespeare", "website": "https://www.theshakespearenyc.com/"}}, {"type": "node", "id": 3620493481, "lat": 40.7483513, "lon": -73.9759677, "tags": {"amenity": "pub", "cuisine": "pub", "drink:beer": "draught", "drink:liquor": "yes", "drink:wine": "yes", "name": "The Black Sheep", "opening_hours": "Mo-Su 11:00-23:00+", "opening_hours:kitchen": "Mo-We 11:00-22:00; Th-Sa 11:00-23:00; Su 11:00-22:00", "phone": "+1-212-599-3476", "website": "http://blacksheepnyc.com"}}, {"type": "node", "id": 3637045573, "lat": 40.7404607, "lon": -74.0079857, "tags": {"addr:housenumber": "848", "addr:street": "Washington Street", "amenity": "pub", "name": "Biergarten"}}, {"type": "node", "id": 3738776600, "lat": 40.7043867, "lon": -74.0106192}, {"type": "node", "id": 3782040191, "lat": 40.6596197, "lon": -73.9603859, "tags": {"addr:housenumber": "555", "addr:postcode": "11225", "addr:street": "Flatbush Avenue", "amenity": "pub", "cocktails": "yes", "cuisine": "pub;brunch", "drink:beer": "draught", "drink:liquor": "yes", "drink:wine": "yes", "name": "Midwood Flats", "opening_hours": "Mo-Th 12:00-24:00; Fr-Sa 11:00-01:00; Su 12:00-24:00", "phone": "+1-718-484-4466", "website": "https://www.midwoodflats.com"}}, {"type": "node", "id": 3784213874, "lat": 40.7081693, "lon": -74.0051431, "tags": {"addr:city": "New York", "addr:housenumber": "28", "addr:postcode": "10038", "addr:street": "Cliff Street", "amenity": "pub", "name": "Ryan Maguire\u2019s", "website": "http://ryanmaguiresalehouse.com/", "wheelchair": "no"}}, {"type": "node", "id": 3822461833, "lat": 40.7299133, "lon": -74.0004358, "tags": {"addr:city": "New York", "addr:housenumber": "122", "addr:postcode": "10012", "addr:state": "NY", "addr:street": "MacDougal Street", "amenity": "pub", "contact:facebook": "https://www.facebook.com/pages/MacDougal-St-Ale-House-Pla-Street/116550071739296", "contact:phone": "+1 212 254 0006", "name": "MacDougal Street Ale House"}}, {"type": "node", "id": 3822484906, "lat": 40.7186039, "lon": -73.9549145, "tags": {"addr:city": "Brooklyn", "addr:housenumber": "488", "addr:postcode": "11211", "addr:state": "NY", "addr:street": "Driggs Avenue", "amenity": "pub", "contact:phone": "+1 347 384 2772", "contact:website": "http://thecraicbrooklyn.com/", "name": "The Craic"}}, {"type": "node", "id": 3822494061, "lat": 40.7473377, "lon": -73.984293, "tags": {"addr:city": "New York", "addr:housenumber": "14", "addr:postcode": "10016", "addr:state": "NY", "addr:street": "East 33rd Street", "amenity": "pub", "contact:phone": "+1 212 481 1586", "contact:website": "http://www.rattlenhumbarnyc.com/home", "name": "Rattle n Hum", "opening_hours": "Mo-Th 11:00-02:00; Fr-Su 11:00-04:00"}}, {"type": "node", "id": 3822494062, "lat": 40.759059, "lon": -73.9898271, "tags": {"addr:city": "New York", "addr:housenumber": "321", "addr:state": "NY", "addr:street": "West 44th Street", "amenity": "pub", "contact:phone": "+1 212 245 2337", "contact:website": "http://www.nybeercompany.com/", "name": "New York Beer Company"}}, {"type": "node", "id": 3826850957, "lat": 40.7429493, "lon": -73.9820378, "tags": {"amenity": "pub", "name": "Sally's Bar"}}, {"type": "node", "id": 3867409162, "lat": 40.675232, "lon": -73.96012, "tags": {"addr:city": "Brooklyn", "addr:housenumber": "730", "addr:street": "Classon Avenue", "amenity": "pub", "name": "Covenhoven", "opening_hours": "Mo-Th 14:00-24:00; Fr 14:00-01:00; Sa 12:00-01:00; Su 12:00-24:00", "phone": "+1-718-483-9950", "website": "https://www.covenhovennyc.com"}}, {"type": "node", "id": 3867497359, "lat": 40.6743355, "lon": -73.9526676, "tags": {"addr:city": "Brooklyn", "addr:housenumber": "99", "addr:postcode": "11216", "addr:street": "Rogers Avenue", "amenity": "pub", "cocktails": "yes", "cuisine": "american;pub", "drink:beer": "draught", "drink:liquor": "yes", "drink:wine": "yes", "name": "99 Rogers", "opening_hours": "Mo-Th 13:00-24:00; Fr 13:00-01:00; Sa 12:00-01:00; Su 12:00-24:00", "outdoor_seating": "yes", "phone": "+1-718-708-4933"}}, {"type": "node", "id": 3922485803, "lat": 40.7575469, "lon": -73.9842786, "tags": {"addr:city": "New York", "addr:housenumber": "145", "addr:postcode": "10036", "addr:street": "West 45th Street", "amenity": "pub", "name": "O'Lunney's", "website": "https://www.olunneys.com/"}}, {"type": "node", "id": 3929098333, "lat": 40.7453351, "lon": -73.9781831, "tags": {"amenity": "pub", "cocktails": "yes", "cuisine": "pub;brunch", "drink:beer": "draught", "drink:liquor": "yes", "drink:wine": "yes", "name": "Flying Cock", "opening_hours": "Mo-We 12:00-24:00; Th 12:00-02:00; Fr 12:00-04:00; Sa 11:00-04:00; Su 11:00-24:00", "opening_hours:kitchen": "Mo 12:00-22:00; Tu-Th 12:00-24:00; Fr 12:00-23:00; Sa 11:00-23:00; Su 11:00-22:00", "outdoor_seating": "sidewalk", "phone": "+1-212-689-6900", "website": "https://www.theflyingcocknyc.com"}}, {"type": "node", "id": 3929098335, "lat": 40.7452149, "lon": -73.9782708, "tags": {"alt_name": "Blue Haven East", "amenity": "pub", "cocktails": "yes", "cuisine": "pub;burger;brunch", "drink:beer": "draught", "drink:liquor": "yes", "drink:wine": "yes", "name": "Blue Haven", "opening_hours": "Mo-Su 11:00-04:00", "phone": "+1-646-678-4200", "takeaway": "yes", "website": "https://bluehaveneast.com", "wheelchair": "limited"}}, {"type": "node", "id": 3939671140, "lat": 40.7459787, "lon": -73.9776827, "tags": {"amenity": "pub", "cocktails": "yes", "cuisine": "pub", "drink:beer": "draught", "drink:liquor": "yes", "drink:wine": "yes", "name": "Joshua Tree", "phone": "+1-212-689-0058", "website": "https://joshuatreebar.com/"}}, {"type": "node", "id": 3946494775, "lat": 40.7462199, "lon": -73.9775208, "tags": {"addr:housenumber": "523", "addr:postcode": "10016", "addr:street": "3rd Avenue", "amenity": "pub", "cuisine": "greek", "drink:beer": "draught", "drink:liquor": "yes", "drink:wine": "yes", "name": "Ted's Corner Tavern", "opening_hours": "Mo-Th 16:00-02:00; Fr-Sa 16:00-04:00; Su 16:00-02:00"}}, {"type": "node", "id": 3957124181, "lat": 40.7420892, "lon": -73.9775979, "tags": {"addr:housenumber": "540", "addr:postcode": "10016", "addr:street": "2nd Avenue", "amenity": "pub", "cuisine": "pub;brunch", "happy_hours": "Mo-Fr 15:00-19:00", "name": "The Crooked Knife", "opening_hours": "Mo-Su 11:00-02:00", "opening_hours:kitchen": "Mo-Fr 11:00-22:00; Sa-Su 11:00-16:00,18:00-22:00", "phone": "+1-212-696-4104", "website": "http://thecrookedknife.com/2avenue/"}}, {"type": "node", "id": 3960166160, "lat": 40.7447575, "lon": -73.987006, "tags": {"addr:city": "New York", "addr:housenumber": "253", "addr:street": "Fifth Avenue", "amenity": "pub", "name": "John Doe Bar & Kitchen"}}, {"type": "node", "id": 3974095815, "lat": 40.7560857, "lon": -73.9846852, "tags": {"addr:city": "New York", "addr:housenumber": "125", "addr:postcode": "10036", "addr:street": "West 43rd Street", "alt_name": "BXL", "amenity": "pub", "beer": "belgian", "cuisine": "belgian", "food": "yes", "name": "BXL Cafe"}}, {"type": "node", "id": 3974095816, "lat": 40.7567033, "lon": -73.9847548, "tags": {"addr:city": "New York", "addr:country": "US", "addr:housenumber": "140", "addr:postcode": "10036", "addr:state": "NY", "addr:street": "West 44th Street", "amenity": "pub", "name": "Jimmy's Corner", "website": "http://nymag.com/listings/bar/jimmys_corner/"}}, {"type": "node", "id": 3982236000, "lat": 40.7484275, "lon": -73.9868832, "tags": {"addr:city": "New York", "addr:housenumber": "36", "addr:postcode": "10001", "addr:state": "NY", "addr:street": "West 33rd Street", "amenity": "pub", "email": "info@jackdemseys.com", "facebook": "jackdemseysny", "happy_hours": "Mo-Fr 16:00-20:00", "name": "Jack Demsey's", "opening_hours:covid19": "11:30-23:00", "phone": "+1 212-629-9899", "twitter": "jackdemseysnyc", "website": "https://jackdemseys.com/"}}, {"type": "node", "id": 4035602815, "lat": 40.7295509, "lon": -73.9985745, "tags": {"addr:housenumber": "76", "addr:street": "West 3rd Street", "amenity": "pub", "name": "The Half Pint", "opening_hours": "Mo, Tu 12:00-02:00; We 12:00-03:00; Th, Fr 12:00-04:00; Sa 11:00-04:00; Su 11:00-02:00", "payment:cash": "yes", "payment:cheque": "yes", "payment:credit_cards": "yes", "phone": "+1-212-260-1088", "reservation": "yes", "takeaway": "yes", "toilets": "yes", "toilets:wheelchair": "yes", "website": "http://www.thehalfpintnyc.com/", "wheelchair": "yes"}}, {"type": "node", "id": 4035635994, "lat": 40.7349467, "lon": -74.0062752, "tags": {"addr:city": "New York", "addr:housenumber": "547", "addr:place": "Hudson Street", "addr:postcode": "10014", "amenity": "pub", "name": "Upright Brew House", "opening_hours": "Mo-Th 12:00-00:00; Fr 12:00-02:00; Sa 11:00-02:00; Su 11:00-00:00", "phone": "+12128109944", "website": "http://www.uprightbrewhouse.com/"}}, {"type": "node", "id": 4168085045, "lat": 40.7479898, "lon": -74.0044046, "tags": {"addr:housenumber": "505", "addr:postcode": "10011", "addr:street": "West 23rd Street", "amenity": "pub", "name": "The Half King", "source": "survey", "website": "http://www.thehalfking.com/"}}, {"type": "node", "id": 4209978763, "lat": 40.7062813, "lon": -74.0730714}, {"type": "node", "id": 4209978772, "lat": 40.7062888, "lon": -74.0730915}, {"type": "node", "id": 4209978774, "lat": 40.7061541, "lon": -74.0732025}, {"type": "node", "id": 4209978775, "lat": 40.7061434, "lon": -74.0731767}, {"type": "node", "id": 4209978776, "lat": 40.7062223, "lon": -74.0733596}, {"type": "node", "id": 4209978777, "lat": 40.7062349, "lon": -74.0732339}, {"type": "node", "id": 4209978778, "lat": 40.7062703, "lon": -74.0733284}, {"type": "node", "id": 4209978779, "lat": 40.7063598, "lon": -74.0731359}, {"type": "node", "id": 4209978780, "lat": 40.7063649, "lon": -74.0731494}, {"type": "node", "id": 4209978781, "lat": 40.7063934, "lon": -74.073114}, {"type": "node", "id": 4209978782, "lat": 40.7063737, "lon": -74.0730613}, {"type": "node", "id": 4209978783, "lat": 40.7063083, "lon": -74.0730788}, {"type": "node", "id": 4209978785, "lat": 40.7063159, "lon": -74.073099}, {"type": "node", "id": 4267352958, "lat": 40.7239341, "lon": -73.9959991, "tags": {"addr:city": "New York", "addr:housenumber": "281", "addr:postcode": "10012", "addr:state": "NY", "addr:street": "Lafayette Street", "amenity": "pub", "cuisine": "russian", "name": "Pravda New York", "phone": "+1-212-226-4944", "website": "http://www.pravdany.com/"}}, {"type": "node", "id": 4284531651, "lat": 40.7356943, "lon": -74.0061832, "tags": {"amenity": "pub", "cuisine": "american;burger", "name": "Whitehorse Tavern", "wikidata": "Q1540082"}}, {"type": "node", "id": 4288405518, "lat": 40.7442428, "lon": -73.9839881, "tags": {"amenity": "pub", "name": "Tavern29", "outdoor_seating": "yes", "website": "http://tavern29.com/"}}, {"type": "node", "id": 4309345260, "lat": 40.7209596, "lon": -73.9615745, "tags": {"amenity": "pub", "name": "BIBA", "outdoor_seating": "yes", "website": "http://bibawilliamsburg.com/"}}, {"type": "node", "id": 4324282097, "lat": 40.7090297, "lon": -74.0114731, "tags": {"addr:housenumber": "115", "addr:postcode": "10006", "addr:state": "NY", "addr:street": "Broadway", "amenity": "pub", "name": "Trinity Place Bar and Restaurant", "opening_hours": "Mo-Fr 11:30-01:00"}}, {"type": "node", "id": 4383823112, "lat": 40.6457523, "lon": -73.7739609, "tags": {"amenity": "pub", "cocktails": "yes", "cuisine": "american", "drink:beer": "draught", "drink:liquor": "yes", "drink:wine": "yes", "name": "New York Sports Grill"}}, {"type": "node", "id": 4387094640, "lat": 40.7081144, "lon": -74.0065237, "tags": {"addr:city": "New York", "addr:housenumber": "90", "addr:postcode": "10038", "addr:street": "John Street", "amenity": "pub", "name": "Stout NYC - FiDi", "opening_hours": "Mo-Tu 11:30-02:00; We-Sa 11:30-04:00; Su 11:30-02:00", "opening_hours:url": "http://www.fidi.stoutnyc.com/faq.php", "operator": "Stout NYC", "phone": "+12122409122", "wheelchair": "no"}}, {"type": "node", "id": 4408715556, "lat": 40.7103625, "lon": -74.0167279}, {"type": "node", "id": 4408715557, "lat": 40.7103499, "lon": -74.0167329}, {"type": "node", "id": 4408715558, "lat": 40.7103612, "lon": -74.0167828}, {"type": "node", "id": 4408715559, "lat": 40.7103042, "lon": -74.0168053}, {"type": "node", "id": 4408715560, "lat": 40.7102472, "lon": -74.0165543}, {"type": "node", "id": 4408715561, "lat": 40.7103168, "lon": -74.0165268}, {"type": "node", "id": 4455392287, "lat": 40.7545392, "lon": -73.9896037, "tags": {"addr:city": "New York", "addr:housenumber": "229", "addr:postcode": "10018", "addr:state": "NY", "addr:street": "West 39th Street", "amenity": "pub", "cocktails": "yes", "contact:facebook": "https://www.facebook.com/CarrasNYC/", "contact:instagram": "https://www.instagram.com/carrasnyc", "contact:twitter": "https://twitter.com/carrasnyc", "drink:beer": "yes", "drink:wine": "yes", "name": "Carragher's", "opening_hours": "Mo 11:00-24:00; Tu-Fr 11:00-24:00; Sa 10:00-24:00; Su 10:00-01:00", "phone": "+1-646-370-1545", "reservation": "yes", "smoking": "no", "website": "https://www.carraghersnyc.com/"}}, {"type": "node", "id": 4462798731, "lat": 40.7253962, "lon": -74.0034071, "tags": {"addr:city": "New York", "addr:housenumber": "203", "addr:postcode": "10012", "addr:state": "NY", "addr:street": "Spring Street", "amenity": "pub", "name": "Soho Room", "opening_hours": "Mo-Th 11:00-02:00; Fr-Sa 11:00-03:00; Su 12:00-01:00", "owner": "Louis Raiolo", "payment:american_express": "yes", "payment:cash": "yes", "payment:discover_card": "yes", "payment:mastercard": "yes", "payment:visa": "yes", "phone": "+1-212-334-3855", "website": "http://sohoroomnyc.com"}}, {"type": "node", "id": 4470157291, "lat": 40.7269503, "lon": -73.9890887, "tags": {"addr:housenumber": "87", "addr:postcode": "10003", "addr:street": "2nd Avenue", "amenity": "pub", "cocktails": "yes", "cuisine": "american;pub", "drink:beer": "draught", "drink:liquor": "yes", "drink:wine": "yes", "name": "Coopers Craft & Kitchen", "opening_hours": "Mo-We 12:00-02:00; Th-Sa 12:00-03:00; Su 12:00-02:00", "outdoor_seating": "sidewalk;street", "phone": "+1-646-606-2384", "website": "https://www.coopersnyc.com"}}, {"type": "node", "id": 4471415766, "lat": 40.754373, "lon": -74.0312906}, {"type": "node", "id": 4471415767, "lat": 40.7543915, "lon": -74.0313828}, {"type": "node", "id": 4471415776, "lat": 40.7544583, "lon": -74.031263}, {"type": "node", "id": 4471415785, "lat": 40.7545085, "lon": -74.0312468}, {"type": "node", "id": 4471415788, "lat": 40.7545257, "lon": -74.0313372}, {"type": "node", "id": 4471416190, "lat": 40.7545274, "lon": -74.0313441}, {"type": "node", "id": 4549080336, "lat": 40.756641, "lon": -73.9691064, "tags": {"amenity": "pub", "name": "Nall's Irish Pub & Restaurant"}}, {"type": "node", "id": 4678630782, "lat": 40.734068, "lon": -74.0030242, "tags": {"addr:city": "New York", "addr:housenumber": "228", "addr:postcode": "10014", "addr:state": "NY", "addr:street": "West 4th Street", "amenity": "pub", "ele": "1", "name": "Wilfie & Nell", "opening_hours": "Mo-We 16:00-03:00; Th-Fr 16:00-04:00; Sa 12:00-04:00; Su 12:00-03:00", "phone": "+1 (212) 242-2990", "smoking": "no", "website": "https://www.wilfieandnell.com/"}}, {"type": "node", "id": 4787145125, "lat": 40.7332046, "lon": -74.0033643, "tags": {"amenity": "pub", "name:en": "Marie's Crisis Cafe"}}, {"type": "node", "id": 4843854724, "lat": 40.7032493, "lon": -74.0110052, "tags": {"addr:postcode": "10004", "amenity": "pub", "name": "The Dead Rabbit", "opening_hours": "Mo-Su 11:00-04:00", "phone": "+1-646-422-7906", "website": "https://www.deadrabbitnyc.com/", "wheelchair": "no"}}, {"type": "node", "id": 4844071325, "lat": 40.7057744, "lon": -74.0075857, "tags": {"addr:city": "New York", "addr:postcode": "10005", "amenity": "pub", "name": "Full Shilling", "opening_hours": "Mo-Sa 11:00-00:00", "phone": "+12124223855", "website": "http://www.thefullshilling.com", "wheelchair": "yes"}}, {"type": "node", "id": 4846659021, "lat": 40.7275694, "lon": -73.9905482, "tags": {"addr:city": "New York", "addr:housenumber": "209", "addr:postcode": "10003", "addr:state": "NY", "addr:street": "East 5th Street", "amenity": "pub", "brewery": "yes", "contact:facebook": "https://www.facebook.com/The-Scratcher-385137331523990/", "cuisine": "irish", "name": "The Scratcher", "name:en": "The Scratcher", "opening_hours": "Su, Mo 16:00-03:00; Tu-Sa 15:00-03:00", "phone": "+1-212-477-0030"}}, {"type": "node", "id": 4847529522, "lat": 40.7472167, "lon": -73.9841182, "tags": {"addr:postcode": "10016", "amenity": "pub", "cuisine": "irish", "name": "Nelly Spillanes", "opening_hours": "Mo-Su 11:00-16:00", "phone": "+12127929673", "website": "http://www.nellyspillanes.com"}}, {"type": "node", "id": 4884161241, "lat": 40.5857794, "lon": -73.9516177, "tags": {"addr:housenumber": "1705", "addr:postcode": "11235", "addr:street": "Sheepshead Bay Road", "amenity": "pub", "check_date:opening_hours": "2021-01-05", "cocktails": "yes", "cuisine": "american", "drink:beer": "draught", "drink:liquor": "yes", "drink:wine": "yes", "name": "Wheeler's", "opening_hours": "11:30-04:00", "phone": "+1 718 646 9320"}}, {"type": "node", "id": 4909127626, "lat": 40.7620084, "lon": -73.9902397, "tags": {"addr:housenumber": "691", "addr:street": "9th Avenue", "amenity": "pub", "name": "Mezze Bar"}}, {"type": "node", "id": 4922165421, "lat": 40.6912596, "lon": -73.9842362, "tags": {"amenity": "pub", "cuisine": "american;breakfast", "name": "Brooklyn Brewhouse", "opening_hours": "Mo-Su 06:30-02:00", "opening_hours:kitchen": "Mo-Su 06:30-24:00", "phone": "+1-718-254-7813", "website": "http://brooklynbrewhouse.com"}}, {"type": "node", "id": 4939086765, "lat": 40.6748633, "lon": -73.9813709, "tags": {"amenity": "pub", "cocktails": "yes", "contact:facebook": "https://www.facebook.com/thecommissionerbk/", "cuisine": "pub", "drink:beer": "draught", "drink:liquor": "yes", "drink:wine": "yes", "happy_hours": "Mo-Fr 16:00-19:00; Sa-Su 12:00-16:00", "name": "The Commissioner", "opening_hours": "Mo-Fr 16:00-04:00; Sa 12:00-04:00; Su 12:00-02:00", "phone": "+1-347-689-3968", "smoking": "no", "sport": "darts", "website": "http://thecommissionerbk.com"}}, {"type": "node", "id": 4995779511, "lat": 40.7464921, "lon": -73.9515404, "tags": {"addr:city": "Long Island City", "addr:housenumber": "10-28", "addr:postcode": "11101", "addr:state": "NY", "addr:street": "46th Avenue", "amenity": "pub", "craft": "brewery", "name": "Fifth Hammer Brewing Company", "website": "http://www.fifthhammerbrewing.com/"}}, {"type": "node", "id": 5070272323, "lat": 40.7452487, "lon": -73.9068221, "tags": {"addr:postcode": "11377", "addr:street": "Roosevelt Avenue", "amenity": "pub", "cuisine": "irish", "name": "Donovan's Pub", "name:en": "Donovan's Pub", "opening_hours": "Mo-Su 11:00-23:00", "toilets": "yes"}}, {"type": "node", "id": 5155829164, "lat": 40.6127274, "lon": -74.1298067, "tags": {"addr:housenumber": "1975", "addr:street": "Victory Boulevard", "amenity": "pub", "name": "Legend's Pub"}}, {"type": "node", "id": 5215252922, "lat": 40.7613895, "lon": -73.9639959, "tags": {"addr:housenumber": "1145", "addr:postcode": "10021", "addr:street": "2nd Avenue", "amenity": "pub", "cocktails": "no", "drink:beer": "yes", "food": "no", "name": "City Hops", "opening_hours": "Mo-We, Su 12:00-22:00; Th 12:00-23:00; Fr, Sa 12:00-24:00", "phone": "+1 917-244-9394", "shop": "beverages", "website": "https://www.beermenus.com/places/28836-city-hops"}}, {"type": "node", "id": 5265734280, "lat": 40.7382853, "lon": -73.98331, "tags": {"alt_name": "Molly's Shebeen", "amenity": "pub", "cocktails": "yes", "cuisine": "pub", "drink:beer": "draught", "drink:liquor": "yes", "drink:wine": "yes", "name": "Molly's", "opening_hours": "Mo-Sa 11:00-04:00", "opening_hours:kitchen": "Mo-We 11:00-24:00; Th-Sa 11:00-01:00; Su 11:00-24:00", "phone": "+1-212-889-3361", "theme": "irish", "toilets": "yes", "toilets:unisex": "no", "website": "http://www.mollysshebeen.com"}}, {"type": "node", "id": 5274344921, "lat": 40.681303, "lon": -74.0043168, "tags": {"amenity": "pub", "cocktails": "yes", "cuisine": "pub", "drink:beer": "draught", "drink:liquor": "yes", "drink:wine": "yes", "live_music": "yes", "name": "Jalopy Tavern", "opening_hours": "Mo-Th 16:00-02:00; Fr 16:00-04:00; Sa 12:00-04:00; Su 11:00-02:00", "toilets": "yes", "website": "http://jalopytavern.biz"}}, {"type": "node", "id": 5337272121, "lat": 40.7036814, "lon": -74.0123807, "tags": {"amenity": "pub", "cuisine": "american;pub", "drink:beer": "draught", "drink:liquor": "yes", "drink:wine": "yes", "name": "The White Horse Tavern", "opening_hours": "Mo-Sa 10:00-01:00", "opening_hours:kitchen": "Mo-Tu 11:00-21:00; We-Sa 11:00-22:00", "phone": "+1-212-668-9046", "sport": "darts", "website": "https://www.whitehorsetavernny.com", "wheelchair": "no"}}, {"type": "node", "id": 5357598225, "lat": 40.6885204, "lon": -73.9510534, "tags": {"addr:city": "Brooklyn", "addr:housenumber": "497", "addr:postcode": "11216", "addr:street": "Greene Avenue", "amenity": "pub", "cuisine": "american", "drink:beer": "draught", "drink:liquor": "yes", "drink:wine": "yes", "name": "Captain Dan's", "opening_hours": "Mo-Fr 12:00-04:00; Sa-Su 11:00-04:00", "opening_hours:kitchen": "Mo-Fr 12:00-03:00; Sa-Su 11:00-03:00", "outdoor_seating": "sidewalk", "phone": "+1-718-975-3887", "toilets": "yes", "toilets:unisex": "yes", "website": "https://www.captdansgoodtimetavern.com", "wheelchair": "yes"}}, {"type": "node", "id": 5363844200, "lat": 40.7055273, "lon": -73.9225462, "tags": {"addr:city": "Brooklyn", "addr:housenumber": "234", "addr:postcode": "11237", "addr:street": "Starr Street", "addr:unit": "#3", "amenity": "pub", "cocktails": "yes", "cuisine": "mexican", "drink:beer": "draught", "drink:liquor": "yes", "drink:wine": "yes", "name": "Calabrije's Margaritas & Tacos", "opening_hours": "Mo, Su 17:00-23:00; Tu-Th 17:00-24:00; Fr, Sa 17:00-25:00", "payment:cash": "yes", "payment:credit_cards": "yes", "phone": "+1-718-484-2110", "toilets": "yes", "website": "https://www.calabrijesnyc.com/"}}, {"type": "node", "id": 5417691690, "lat": 40.7097781, "lon": -73.899215, "tags": {"addr:housenumber": "64-18", "addr:street": "Fresh Pond Road", "amenity": "pub", "name": "Glenlo Tavern", "opening_hours": "Mo-Su 11:30-04:00", "outdoor_seating": "yes", "payment:credit_cards": "yes", "phone": "+1-718-418-0661", "takeaway": "yes", "toilets": "yes", "website": "http://glenlotavern.com/", "wheelchair": "limited"}}, {"type": "node", "id": 5417719123, "lat": 40.7170776, "lon": -73.9016573, "tags": {"addr:housenumber": "59-94", "addr:street": "Fresh Pond Road", "amenity": "pub", "delivery": "yes", "name": "The Live Oak", "opening_hours": "Fr, Sa 11:00-28:00; Mo-Th, Su 11:00-26:00", "payment:credit_cards": "yes", "phone": "+1-718-326-4920", "takeaway": "yes", "toilets": "yes", "wheelchair": "no"}}, {"type": "node", "id": 5420325030, "lat": 40.7005262, "lon": -73.9258167, "tags": {"addr:housenumber": "140", "addr:street": "Wilson Avenue", "amenity": "pub", "cocktails": "yes", "cuisine": "chicken;burger", "delivery": "Mo-Su 18:00-00:00", "drink:beer": "yes", "drink:liquor": "yes", "drink:wine": "yes", "happy_hours": "yes", "name": "Alphaville", "opening_hours": "Mo-Su 18:00-04:00", "opening_hours:kitchen": "Mo-Su 17:00-03:00", "payment:cash": "only", "phone": "+1-347-508-5006", "toilets": "yes", "website": "http://www.alphavillebk.com/"}}, {"type": "node", "id": 5455223694, "lat": 40.663297, "lon": -73.9911777, "tags": {"amenity": "pub", "atm": "yes", "cocktails": "yes", "cuisine": "pub", "drink:beer": "draught", "drink:liquor": "yes", "drink:wine": "yes", "happy_hours": "Mo-Fr 12:00-19:00", "internet_access": "wlan", "internet_access:fee": "no", "live_music": "yes", "min_age": "21", "name": "Freddy's", "not:brand:wikidata": "Q5496837", "opening_hours": "Mo-Su 12:00-04:00", "opening_hours:kitchen": "Mo-Su 12:00-02:00", "outdoor_seating": "garden;street", "toilets": "yes", "website": "https://freddysbar.com"}}, {"type": "node", "id": 5487146978, "lat": 40.6798144, "lon": -73.9821529, "tags": {"addr:housenumber": "333", "addr:postcode": "11217", "addr:street": "Douglass Street", "amenity": "pub", "bar": "yes", "cocktails": "yes", "craft": "brewery", "cuisine": "burger;american;brunch", "drink:beer": "draught", "drink:liquor": "yes", "drink:wine": "yes", "name": "Threes Brewing", "opening_hours": "Mo-We 17:00-00:00; Th 17:00-02:00; Fr 15:00-02:00; Sa 12:00-02:00; Su 12:00-00:00", "outdoor_seating": "yes", "phone": "+1 718 522 2110", "website": "https://www.threesbrewing.com"}}, {"type": "node", "id": 5487456229, "lat": 40.6931564, "lon": -74.0160962}, {"type": "node", "id": 5487456230, "lat": 40.693061, "lon": -74.0162698}, {"type": "node", "id": 5487456231, "lat": 40.6931734, "lon": -74.0164721}, {"type": "node", "id": 5487456232, "lat": 40.6930785, "lon": -74.0163573}, {"type": "node", "id": 5487456233, "lat": 40.6931459, "lon": -74.016334}, {"type": "node", "id": 5487456234, "lat": 40.6931031, "lon": -74.0161147}, {"type": "node", "id": 5487456235, "lat": 40.6932276, "lon": -74.0164533}, {"type": "node", "id": 5487456733, "lat": 40.6931293, "lon": -74.0162461}, {"type": "node", "id": 5487456734, "lat": 40.6891393, "lon": -74.0183329, "tags": {"amenity": "pub", "cocktails": "yes", "cuisine": "pub;seafood", "drink:beer": "yes", "drink:coffee": "yes", "drink:wine": "yes", "name": "Little Eva's", "outdoor_seating": "only", "takeaway": "yes"}}, {"type": "node", "id": 5504237385, "lat": 40.7094369, "lon": -73.829983, "tags": {"addr:housenumber": "82-70", "addr:street": "Austin Street", "amenity": "pub", "name": "Austin Ale House", "phone": "+1-718-849-3939", "toilets": "yes"}}, {"type": "node", "id": 5509996165, "lat": 40.7283007, "lon": -73.9991218, "tags": {"addr:city": "New York", "addr:housenumber": "145", "addr:postcode": "10012", "addr:state": "NY", "addr:street": "Bleecker Street", "amenity": "pub", "brewery": "founders;dogfish_head", "cuisine": "sandwich;burger", "name": "Peculier Pub", "opening_hours": "Mo-We 16:00-02:00; Th 16:00-03:00; Fr 15:00-04:00; Sa 14:00-04:00; Su 14:00-01:00", "payment:credit_cards": "yes", "phone": "+1-212-353-1327", "toilets": "yes", "website": "http://www.peculierpub.com/", "wheelchair": "no"}}, {"type": "node", "id": 5511958908, "lat": 40.7286081, "lon": -73.9993367, "tags": {"addr:housenumber": "206", "addr:street": "Thompson Street", "amenity": "pub", "cuisine": "american", "email": "hello@themalthousenyc.com", "happy_hours": "Mo-Fr 16:00-19:00", "name": "The Malt House", "opening_hours": "Mo-Fr 11:30-04:00; Sa, Su 10:30-04:00", "phone": "+1-212-228-7713", "reservation": "yes", "toilets": "yes", "website": "https://www.themalthousevillage.com/"}}, {"type": "node", "id": 5512018756, "lat": 40.727248, "lon": -74.0000218, "tags": {"addr:housenumber": "92", "addr:street": "West Houston Street", "amenity": "pub", "cocktails": "yes", "cuisine": "sandwich;salad;chicken;seafood;soup", "diet:vegan": "limited", "diet:vegetarian": "limited", "drink:beer": "yes", "drink:wine": "yes", "happy_hours": "Mo-Su 12:00-20:00", "internet_access": "wlan", "internet_access:fee": "no", "internet_access:ssid": "FollyWifi", "name": "The Folly", "opening_hours": "Mo-Su 12:00-04:00", "payment:credit_cards": "yes", "phone": "+1-646-726-4740", "reservation": "yes", "toilets": "yes", "toilets:access": "permissive", "toilets:unisex": "no", "toilets:wheelchair": "no", "website": "https://www.follynyc.com/", "wheelchair": "no"}}, {"type": "node", "id": 5542993926, "lat": 40.6856259, "lon": -73.9819272, "tags": {"amenity": "pub", "cocktails": "yes", "cuisine": "american;pub", "drink:beer": "draught", "drink:liquor": "yes", "drink:wine": "yes", "happy_hours": "Mo-Su 12:00-19:00", "name": "Hollow Nickel", "opening_hours": "Mo-Su 12:00-02:00", "outdoor_seating": "garden", "phone": "+1-347-236-3417", "website": "https://www.hollownickel.com"}}, {"type": "node", "id": 5550510680, "lat": 40.7009851, "lon": -73.9134037, "tags": {"addr:housenumber": "277", "addr:street": "Wyckoff Avenue", "amenity": "pub", "brewery": "various", "leisure": "dance", "name": "Elmekkah Bar and Grill", "opening_hours": "Mo-Th, Su 17:00-26:00; Fr, Sa 17:30-28:00", "payment:cash": "yes", "payment:credit_cards": "yes", "phone": "+1-917-518-3475", "reservation": "yes", "toilets": "yes"}}, {"type": "node", "id": 5562952078, "lat": 40.6813471, "lon": -73.9772854, "tags": {"amenity": "pub", "cocktails": "yes", "cuisine": "american;pub;brunch", "drink:beer": "draught", "drink:liquor": "yes", "drink:wine": "yes", "happy_hours": "Mo-Fr 16:00-18:30", "name": "Alchemy", "opening_hours": "Mo-Th 09:00-23:00; Fr 09:00-24:00; Sa 10:00-24:00; Su 10:00-23:00", "outdoor_seating": "garden;sidewalk;street", "phone": "+1-718-636-4385", "website": "http://alchemybrooklyn.com"}}, {"type": "node", "id": 5574466301, "lat": 40.6366072, "lon": -74.0258612, "tags": {"addr:housenumber": "6802", "addr:postcode": "11220", "addr:street": "3rd Avenue", "amenity": "pub", "cocktails": "yes", "drink:beer": "draught", "drink:liquor": "yes", "drink:wine": "yes", "name": "Three Jolly Pigeons", "phone": "+1-718-745-9350", "short_name": "III J.P.\u2019s Pub"}}, {"type": "node", "id": 5580259894, "lat": 40.8669949, "lon": -73.8966608, "tags": {"addr:housenumber": "28", "addr:street": "East Kingsbridge Road", "amenity": "pub", "name": "O'Brian's Pub"}}, {"type": "node", "id": 5585278021, "lat": 40.7005204, "lon": -73.9875274, "tags": {"addr:housenumber": "82", "addr:street": "Prospect Street", "amenity": "pub", "brewery": "various", "name": "Randolph Beer DUMBO", "opening_hours": "Mo-Th 11:00-24:00; Fr-Sa 11:00-25:00; Su 11:00-21:00", "payment:cash": "yes", "payment:contactless": "yes", "payment:credit_cards": "yes", "phone": "+1-646-383-3623", "reservation": "yes", "toilets": "yes", "toilets:wheelchair": "yes", "website": "https://www.randolphbeer.com/", "wheelchair": "yes"}}, {"type": "node", "id": 5592631079, "lat": 40.7191151, "lon": -74.0032838, "tags": {"addr:housenumber": "52", "addr:street": "Walker Street", "amenity": "pub", "brewery": "various", "level": "0", "name": "M1-5 Bar and Lounge", "opening_hours": "Mo, Tu 16:00-00:00; We-Fr 04:00-04:00; Sa 19:00-04:00", "payment:cash": "yes", "payment:cheque": "yes", "payment:contactless": "yes", "payment:credit_cards": "yes", "phone": "+1-212-965-1701", "reservation": "yes", "sport": "yes", "toilets": "yes", "website": "https://m1-5.com/", "wheelchair": "yes"}}, {"type": "node", "id": 5625524072, "lat": 40.7079507, "lon": -73.9216704, "tags": {"addr:housenumber": "445", "addr:street": "Troutman Street", "amenity": "pub", "name": "Echo Bravo Bar", "opening_hours": "Fr, Sa 12:00-28:00; Mo, Su 12:00-24:00; Tu-Th 12:00-26:00", "outdoor_seating": "yes", "payment:cash": "yes", "payment:credit_cards": "yes", "payment:debit_cards": "yes", "phone": "+1-347-542-4117", "reservation": "yes", "sport": "yes", "toilets": "yes", "toilets:wheelchair": "yes", "website": "https://www.echobravobar.com/", "wheelchair": "yes"}}, {"type": "node", "id": 5625538922, "lat": 40.7056487, "lon": -73.9216186, "tags": {"addr:housenumber": "50", "addr:postcode": "11237", "addr:street": "Wyckoff Avenue", "amenity": "pub", "cocktails": "yes", "cuisine": "cajun", "drink:beer": "draught", "drink:liquor": "yes", "drink:wine": "yes", "email": "heavywoodsbar@gmail.com", "happy_hours": "Mo-Fr 14:00-19:00", "name": "Heavy Woods", "opening_hours": "Mo-Su 11:00-04:00", "opening_hours:kitchen": "Su-Th 11:00-23:00; Fr-Sa 11:00-24:00", "outdoor_seating": "sidewalk", "payment:cash": "yes", "payment:credit_cards": "yes", "phone": "+1-929-234-3500", "sport": "billiards", "takeaway": "yes", "toilets": "yes", "toilets:unisex": "yes", "website": "http://heavywoodsbar.com/", "wheelchair": "yes"}}, {"type": "node", "id": 5627874267, "lat": 40.7038877, "lon": -73.9188896, "tags": {"addr:housenumber": "108", "addr:street": "Wyckoff Avenue", "amenity": "pub", "internet_access": "wlan", "name": "Abe's Pagoda Bar", "opening_hours": "Mo-Su 12:00-04:00", "payment:cash": "yes", "payment:credit_cards": "yes", "payment:debit_cards": "yes", "phone": "+1-718-366-6913", "sport": "billiards", "toilets": "yes", "website": "https://www.abespagodabar.com/", "wheelchair": "yes"}}, {"type": "node", "id": 5642872120, "lat": 40.7203132, "lon": -73.9054652, "tags": {"addr:housenumber": "60-65", "addr:postcode": "11378", "addr:street": "Flushing Avenue", "alt_name": "Chasers", "amenity": "pub", "brewery": "various", "cocktails": "yes", "cuisine": "pub", "drink:beer": "draught", "drink:liquor": "yes", "drink:wine": "yes", "name": "Chaser McGee's", "opening_hours": "Mo-Su 11:00-04:00", "phone": "+1-718-326-2973", "sport": "yes", "theme": "irish", "toilets": "yes"}}, {"type": "node", "id": 5676615632, "lat": 40.6812805, "lon": -73.9752043, "tags": {"amenity": "pub", "cocktails": "yes", "cuisine": "mexican", "drink:beer": "draught", "drink:liquor": "yes", "drink:wine": "yes", "name": "Tiny's Cantina", "opening_hours": "Mo-Su 16:00-24:00", "phone": "+1-718-970-7007", "website": "https://tinyscantina.com"}}, {"type": "node", "id": 5706864741, "lat": 40.6687941, "lon": -73.9851157, "tags": {"amenity": "pub", "cocktails": "yes", "cuisine": "burger;pub;mexican", "delivery": "yes", "drink:beer": "draught", "drink:liquor": "yes", "drink:wine": "yes", "name": "Dram Shop", "opening_hours": "Mo-Th 17:00-24:00; Fr 15:00-02:00; Sa 12:00-02:00; Su 12:00-24:00", "opening_hours:kitchen": "Mo-Th 17:00-24:00; Fr 15:00-24:00; Sa-Su 12:00-24:00", "outdoor_seating": "street", "phone": "+1-929-276-3452", "pinball": "yes", "sport": "billiards;darts", "toilets": "yes", "website": "https://www.dramshopbrooklyn.com", "wheelchair": "yes"}}, {"type": "node", "id": 5712382892, "lat": 40.8649993, "lon": -73.927845, "tags": {"addr:housenumber": "4740", "addr:street": "Broadway", "amenity": "pub", "cocktails": "yes", "cuisine": "american", "delivery": "yes", "description": "Classic American faire served in an upscale sports bar and grill, offering cocktails and a weekend brunch menu.", "drink:coffee": "yes", "email": "info@tryonpublichouse.com", "happy_hours": "Mo-Fr 16:00-19:00", "name": "Tryon Public House", "opening_hours": "Mo-Su 11:30-04:00", "phone": "+1-646-918-7129", "takeaway": "yes", "website": "https://tryonpublichouse.com/"}}, {"type": "node", "id": 5721466229, "lat": 40.6913214, "lon": -73.9095051, "tags": {"addr:housenumber": "1204", "addr:street": "Halsey Street", "amenity": "pub", "description": "Pub nestled in a former pawn shop.", "name": "Halsey Ale House", "opening_hours": "Mo-Th 12:00-03:00; Fr-Su 12:00-04:00", "operator": "Ricardo Velez", "phone": "(718) 576-6366", "start_date": "2019-08-22", "website": "https://halseyalehouse.com/"}}, {"type": "node", "id": 5721473937, "lat": 40.7434372, "lon": -73.9237032, "tags": {"addr:housenumber": "40-18", "addr:street": "Queens Boulevard", "amenity": "pub", "name": "The Courtyard Ale House"}}, {"type": "node", "id": 5756089922, "lat": 40.7278488, "lon": -73.9855823, "tags": {"amenity": "pub", "cocktails": "yes", "cuisine": "mexican", "drink:beer": "yes", "drink:liquor": "yes", "drink:wine": "yes", "name": "Taqueria St. Marks Place", "opening_hours": "Mo-Su 12:00-01:00", "opening_hours:kitchen": "Mo-Su 12:00-24:00", "phone": "+1-646-964-5614"}}, {"type": "node", "id": 5762582555, "lat": 40.7622424, "lon": -73.9832858, "tags": {"addr:housenumber": "1650", "addr:postcode": "10019", "addr:street": "Broadway", "amenity": "pub", "name": "Iridium Jazz Club", "opening_hours": "Mo-Su 18:00-00:00", "phone": "+12125822121", "wikidata": "Q1331383"}}, {"type": "node", "id": 5774139397, "lat": 40.6732561, "lon": -73.9897416, "tags": {"addr:housenumber": "406", "addr:postcode": "11215", "addr:street": "3rd Avenue", "amenity": "pub", "cocktails": "yes", "cuisine": "pizza;snack", "drink:beer": "draught", "drink:liquor": "yes", "drink:wine": "yes", "name": "Halyards", "opening_hours": "We-Su 14:00-22:00", "outdoor_seating": "sidewalk;street", "sport": "billiards", "toilets": "yes", "toilets:unisex": "yes", "website": "https://www.barhalyards.com/"}}, {"type": "node", "id": 5805217641, "lat": 40.6694826, "lon": -73.9862602, "tags": {"amenity": "pub", "cocktails": "yes", "drink:beer": "draught", "drink:liquor": "yes", "name": "Smith's Tavern"}}, {"type": "node", "id": 5812743217, "lat": 40.7522208, "lon": -73.9918556, "tags": {"addr:housenumber": "240", "addr:street": "West 35th Street", "amenity": "pub", "brunch": "Su 11:00-15:00", "cuisine": "irish", "drink:beer": "yes", "drink:coffee": "yes", "email": "info@jackdoylesnyc.com", "happy_hours": "yes", "name": "Jack Doyle's", "opening_hours": "Mo-Su 08:00-04:00", "phone": "+1-212-268-1255", "reservation": "yes", "takeaway": "yes", "theme": "irish", "toilets": "yes", "website": "http://jackdoylesnyc.com/", "wheelchair": "yes"}}, {"type": "node", "id": 5819364580, "lat": 40.7561041, "lon": -73.9940676, "tags": {"addr:housenumber": "508", "addr:street": "9th Avenue", "amenity": "pub", "cuisine": "fish_and_chips;american", "drink:beer": "yes", "email": "ScallywagsNYC@gmail.com", "name": "Scallywag's Irish Pub", "opening_hours": "Mo-Su 10:00-04:00", "phone": "+1-646-490-4803", "reservation": "yes", "toilets": "yes", "website": "https://scallywagsnyc.com/", "wheelchair": "yes"}}, {"type": "node", "id": 5835370878, "lat": 40.7443756, "lon": -73.9843295, "tags": {"addr:housenumber": "37E", "addr:postcode": "10016", "addr:street": "East 29th Street", "amenity": "pub", "name": "Wolfe Tone's"}}, {"type": "node", "id": 5847456103, "lat": 40.6834166, "lon": -73.999908, "tags": {"amenity": "pub", "cocktails": "yes", "cuisine": "mexican", "drink:beer": "draught", "drink:liquor": "yes", "drink:wine": "yes", "name": "Bar Bruno", "opening_hours": "Mo-Fr 12:00-24:00; Sa-Su 10:00-24:00", "outdoor_seating": "sidewalk", "phone": "+1-347-763-0850", "toilets": "yes", "toilets:unisex": "yes", "website": "http://barbrunonyc.com"}}, {"type": "node", "id": 5906945686, "lat": 40.6477134, "lon": -73.7918898, "tags": {"amenity": "pub", "name": "New York Sports Bar"}}, {"type": "node", "id": 5906946188, "lat": 40.6474016, "lon": -73.792637, "tags": {"amenity": "pub", "name": "O'Neals'"}}, {"type": "node", "id": 5912873404, "lat": 40.6865536, "lon": -73.9940438, "tags": {"alt_name": "Viva Lobo", "amenity": "pub", "atm": "yes", "cocktails": "yes", "cuisine": "mexican", "drink:beer": "draught", "drink:liquor": "yes", "drink:wine": "yes", "name": "Lobo", "opening_hours": "Mo-We 11:00-23:00+; Th 11:00-24:00+; Fr-Sa 10:00-24:00+; Su 10:00-23:00+", "opening_hours:kitchen": "Mo-We 11:00-23:00; Th 11:00-24:00; Fr-Sa 10:00-24:00; Su 10:00-23:00", "phone": "+1-718-858-7739", "website": "https://lobonyc.com"}}, {"type": "node", "id": 5978510506, "lat": 40.7827926, "lon": -73.9513056, "tags": {"addr:housenumber": "1644", "addr:street": "3rd Avenue", "amenity": "pub", "cocktails": "yes", "contact:instagram": "https://instagram.com/3rdavealehouse", "cuisine": "gastropub;american", "delivery": "yes", "drink:beer": "yes", "drink:wine": "yes", "happy_hours": "Mo-Th 14:00-18:00; Fr 12:00-18:00", "name": "Third Avenue Ale House", "opening_hours": "Mo-Th 14:00-02:00; Fr-Su 12:00-02:00", "outdoor_seating": "yes", "phone": "+1 646-559-9131", "website": "https://www.thirdavealehousenyc.com/"}}, {"type": "node", "id": 5978874191, "lat": 40.732805, "lon": -74.062636, "tags": {"amenity": "pub", "name": "PJ Rayan\u2019s Squared", "opening_hours": "Mo-Sa 11:30-24:00", "wheelchair": "yes"}}, {"type": "node", "id": 5981570885, "lat": 40.7509316, "lon": -73.9804377, "tags": {"addr:housenumber": "267", "addr:street": "Madison Avenue", "amenity": "pub", "name": "Mulligan\u2019s Pub"}}, {"type": "node", "id": 5984018668, "lat": 40.6657549, "lon": -73.9889477, "tags": {"amenity": "pub", "bar": "yes", "cocktails": "yes", "cuisine": "pub", "drink:beer": "draught", "drink:liquor": "yes", "drink:wine": "yes", "name": "Prospect Bar & Grill", "opening_hours": "We-Fr 15:00-23:00; Sa 12:00-23:00; Su 12:00-21:00", "phone": "+1-347-599-1087", "toilets": "yes", "toilets:unisex": "yes", "website": "https://prospectbarandgrill.com"}}, {"type": "node", "id": 5987486727, "lat": 40.6825247, "lon": -73.9931709, "tags": {"amenity": "pub", "atm": "yes", "cocktails": "yes", "cuisine": "american;burger", "drink:beer": "draught", "drink:liquor": "yes", "drink:wine": "yes", "name": "Wing Bar", "opening_hours": "Mo-Th 12:00-24:00; Fr-Sa 12:00-03:00; Su 12:00-24:00", "phone": "+1-718-624-3157", "toilets": "yes", "toilets:unisex": "yes", "wheelchair": "limited"}}, {"type": "node", "id": 6003410966, "lat": 40.6747032, "lon": -73.9890479, "tags": {"amenity": "pub", "cuisine": "american;pub", "drink:beer": "draught", "drink:liquor": "no", "drink:wine": "yes", "happy_hours": "Mo-Fr 16:00-20:00", "level": "1", "name": "The Roof", "opening_hours": "Mo-Su 11:00-23:00", "operator": "Whole Foods", "outdoor_seating": "roof", "toilets": "yes", "toilets:access": "permissive", "toilets:unisex": "no"}}, {"type": "node", "id": 6027534885, "lat": 40.7290966, "lon": -73.9917737, "tags": {"amenity": "pub", "name": "joe\u2019s pub", "opening_hours:signed": "no", "wikidata": "Q6208228"}}, {"type": "node", "id": 6037924843, "lat": 40.6609017, "lon": -73.9936738, "tags": {"amenity": "pub", "atm": "yes", "cocktails": "yes", "cuisine": "pub;seafood;brunch", "drink:beer": "draught", "drink:coffee": "yes", "drink:liquor": "yes", "drink:wine": "yes", "name": "Sea Witch", "opening_hours": "Mo-Th 17:00-23:00+; Fr 16:00-24:00+; Sa 14:00-24:00+; Su 14:00-23:00+", "outdoor_seating": "garden;street", "toilets": "yes", "toilets:unisex": "yes", "toilets:wheelchair": "yes", "wheelchair": "yes"}}, {"type": "node", "id": 6061610718, "lat": 40.7152236, "lon": -74.0088979, "tags": {"amenity": "pub", "cuisine": "pub", "name": "Mudville 9", "phone": "+1-212-964-9464", "website": "http://www.mudville9.com/", "wheelchair": "yes"}}, {"type": "node", "id": 6074807295, "lat": 40.7172055, "lon": -73.9449857, "tags": {"addr:housenumber": "413", "addr:street": "Graham Avenue", "amenity": "pub", "name": "Beer Street", "opening_hours": "Mo-Th 17:00-01:00; Fr 17:00-02:00; Sa 14:00-02:00; Su 14:00-13:00"}}, {"type": "node", "id": 6112610009, "lat": 40.7062939, "lon": -73.9313613, "tags": {"addr:housenumber": "52", "addr:street": "Harrison Place", "amenity": "pub", "cocktails": "yes", "craft": "brewery", "diet:vegan": "yes", "diet:vegetarian": "yes", "drink:beer": "yes", "drink:wine": "yes", "name": "Braven Brewing Company", "opening_hours": "Mo-Fr 17:00-24:00; Sa,Su 11:00-24:00", "organic": "yes", "phone": "+1-929-295-6673", "toilets": "yes", "toilets:wheelchair": "yes", "website": "https://www.bravenbrewing.com", "wheelchair": "yes"}}, {"type": "node", "id": 6126735790, "lat": 40.7028611, "lon": -73.9298474, "tags": {"addr:housenumber": "36", "addr:street": "Wilson Avenue", "amenity": "pub", "happy_hours": "Mo-Fr 17:00-20:00", "name": "The Little Whiskey", "opening_hours": "Mo-Fr 17:00-28:00; Sa, Su 12:00-28:00", "phone": "+1-718-366-4600", "toilets": "yes", "website": "http://thelittlewhiskey.com/"}}, {"type": "node", "id": 6177318442, "lat": 40.6856442, "lon": -73.9910513, "tags": {"amenity": "pub", "cocktails": "yes", "cuisine": "german", "drink:beer": "draught", "drink:coffee": "yes", "drink:liquor": "yes", "drink:wine": "yes", "name": "Black Forest Brooklyn", "opening_hours": "Mo-Fr 12:00-23:00; Sa 10:00-23:00; Su 10:00-22:00", "phone": "+1-718-522-1806", "toilets": "yes", "toilets:unisex": "yes", "toilets:wheelchair": "yes", "website": "https://www.blackforestbrooklyn.com"}}, {"type": "node", "id": 6231480917, "lat": 40.74687, "lon": -73.9864707, "tags": {"addr:housenumber": "5", "addr:postcode": "10001", "addr:street": "West 31st Street", "amenity": "pub", "cocktails": "yes", "contact:email": "info@osamil.com", "contact:facebook": "osamilnyc", "contact:instagram": "osamilnyc", "contact:pinterest": "osamil", "contact:twitter": "OsamilNYC", "cuisine": "korean;gastropub", "drink:beer": "yes", "drink:soju": "yes", "drink:wine": "yes", "happy_hours": "16:00-19:00", "name": "Osamil", "name:ko": "\uc624\uc0bc\uc77c", "opening_hours": "Mo-Th 16:00-02:00; Fr 16:00-03:00; Sa 11:00-02:00; Su 11:00-23:00", "opening_hours:covid19": "Tu-Th 17:00-23:00; Fr, Sa 17:00-24:00", "phone": "+1 212-300-4713", "reservation": "yes", "takeaway:covid19": "Tu-Sa 17:00-24:00", "website": "https://www.osamil.com"}}, {"type": "node", "id": 6240316485, "lat": 40.7746187, "lon": -73.9572996, "tags": {"addr:city": "New York", "addr:housenumber": "1394", "addr:state": "NY", "addr:street": "3rd Avenue", "amenity": "pub", "contact:facebook": "lukesbargrill", "contact:instagram": "lukesbargrill", "contact:twitter": "Lukes79thSt", "delivery": "yes", "email": "lukesbargrill@gmail.com", "name": "Luke\u2019s Bar & Grill", "opening_hours": "Mo-Fr 11:30-24:00; Sa, Su 11:00-12:00", "phone": "+1 212-249-7070", "start_date": "1991", "website": "https://lukesbarandgrill.com/"}}, {"type": "node", "id": 6275500545, "lat": 40.6943647, "lon": -73.8276452, "tags": {"addr:city": "Richmond Hill", "addr:housenumber": "119-09", "addr:state": "NY", "addr:street": "Atlantic Avenue", "amenity": "pub", "name": "Lenihans"}}, {"type": "node", "id": 6296605532, "lat": 40.6695398, "lon": -73.9866612, "tags": {"amenity": "pub", "atm": "yes", "cocktails": "yes", "drink:beer": "draught", "drink:liquor": "yes", "drink:wine": "yes", "internet_access": "wlan", "internet_access:fee": "no", "name": "The Owl Farm", "opening_hours": "Mo 14:00-04:00; Sa-Su 12:30-04:00", "phone": "+1-718-499-4988", "pinball": "yes", "toilets": "yes", "toilets:unisex": "yes", "toilets:wheelchair": "no", "website": "https://www.theowlfarm.com", "wheelchair": "no"}}, {"type": "node", "id": 6313220809, "lat": 40.6721521, "lon": -73.9579367}, {"type": "node", "id": 6317286783, "lat": 40.6886203, "lon": -73.989674, "tags": {"amenity": "pub", "bar": "yes", "cocktails": "yes", "cuisine": "burger;pub", "drink:beer": "draught", "drink:liquor": "yes", "drink:wine": "yes", "happy_hours": "Mo-Th 16:00-19:00", "name": "Two8Two Bar & Burger", "opening_hours": "Mo-Th 12:00-23:00;+ Fr-Sa 12:00-24:00+; Su 12:00-23:00+", "opening_hours:kitchen": "Mo-Th 12:00-23:00; Fr-Sa 12:00-24:00; Su 12:00-23:00", "outdoor_seating": "garden", "phone": "+1-718-596-2282", "takeaway": "yes", "website": "https://two8twoburger.com"}}, {"type": "node", "id": 6377007361, "lat": 40.7754854, "lon": -73.953238, "tags": {"addr:housenumber": "1590", "addr:street": "2nd Avenue", "amenity": "pub", "cocktails": "yes", "contact:email": "info@penrosebar.com", "contact:facebook": "ThePenrose", "contact:instagram": "penrosebar", "contact:phone": "+1 212-203-2751", "contact:website": "https://www.penrosebar.com", "drink:beer": "yes", "drink:wine": "yes", "happy_hours": "Mo-Fr 15:00-19:00", "name": "The Penrose", "opening_hours": "Mo-Fr 11:00-04:00; Sa, Su 09:30-04:00", "outdoor_seating": "sidewalk", "reservation": "yes"}}, {"type": "node", "id": 6442303691, "lat": 40.6434349, "lon": -73.7794941, "tags": {"amenity": "pub", "name": "Tigin"}}, {"type": "node", "id": 6445572939, "lat": 40.7493187, "lon": -73.9773908, "tags": {"amenity": "pub", "name": "The Junction", "phone": "+1-212-682-7700", "website": "http://www.thejunctionnyc.com"}}, {"type": "node", "id": 6516642584, "lat": 40.6427262, "lon": -73.9792132, "tags": {"amenity": "pub", "atm": "yes", "drink:beer": "yes", "name": "Denny's Pub", "not:brand:wikidata": "Q1189695", "payment:cash": "only", "toilets": "yes", "toilets:access": "customers"}}, {"type": "node", "id": 6542803860, "lat": 40.7499156, "lon": -73.9767115, "tags": {"addr:housenumber": "130", "addr:postcode": "10016", "addr:street": "East 40th Street", "amenity": "pub", "drink:beer": "draught", "name": "Peter Dillon's"}}, {"type": "node", "id": 6564024415, "lat": 40.7580663, "lon": -73.9926663, "tags": {"amenity": "pub", "name": "Irish Bar"}}, {"type": "node", "id": 6573662300, "lat": 40.6989353, "lon": -73.970904, "tags": {"amenity": "pub", "name": "Rustik Tavern", "website": "https://www.rustiktavern.com/brooklyn-navy-yard"}}, {"type": "node", "id": 6611038946, "lat": 40.7393564, "lon": -73.7002573, "tags": {"addr:housenumber": "99", "addr:street": "Hillside Avenue", "amenity": "pub", "name": "Moonlight Pub"}}, {"type": "node", "id": 6704420891, "lat": 40.6576876, "lon": -73.9795568, "tags": {"amenity": "pub", "cuisine": "pub;brunch", "diet:vegetarian": "limited", "drink:beer": "draught", "drink:liquor": "yes", "drink:wine": "yes", "happy_hours": "Mo-We 12:00-24:00; Th-Fr 15:00-19:00", "name": "Rhythm & Booze", "opening_hours": "Mo-We 12:00-02:00; Th-Sa 12:00-03:00; Su 12:00-02:00", "opening_hours:kitchen": "Mo-Th 12:00-22:00; Fr-Sa 12:00-23:00; Su 12:00-22:00", "outdoor_seating": "sidewalk;street", "phone": "+1 718-788-9699", "website": "https://www.rhythmandboozebrooklyn.com"}}, {"type": "node", "id": 6770073712, "lat": 40.7416339, "lon": -74.0323252, "tags": {"addr:city": "Hoboken", "addr:housenumber": "343", "addr:postcode": "07030", "addr:state": "NJ", "addr:street": "Park Avenue", "amenity": "pub", "name": "O'Nieal's"}}, {"type": "node", "id": 6770073738, "lat": 40.7425974, "lon": -74.0310524, "tags": {"addr:city": "Hoboken", "addr:housenumber": "501", "addr:postcode": "07030", "addr:state": "NJ", "addr:street": "Garden Street", "amenity": "pub", "name": "Moran's Pub", "opening_hours:signed": "no"}}, {"type": "node", "id": 6781584780, "lat": 40.7714158, "lon": -73.8658255, "tags": {"amenity": "pub", "name": "Biergarten", "note": "not a biergarten, despite the name"}}, {"type": "node", "id": 6781597921, "lat": 40.7690137, "lon": -73.8621227, "tags": {"amenity": "pub", "name": "Prime Tavern"}}, {"type": "node", "id": 6789145067, "lat": 40.7400377, "lon": -74.0308337, "tags": {"amenity": "pub", "name": "Cork City"}}, {"type": "node", "id": 6789145073, "lat": 40.7376666, "lon": -74.0315582, "tags": {"amenity": "pub", "name": "McSwiggans Pub"}}, {"type": "node", "id": 6789145078, "lat": 40.7376137, "lon": -74.0322483, "tags": {"amenity": "pub", "name": "Mulligans"}}, {"type": "node", "id": 6797680476, "lat": 40.7464704, "lon": -74.0320942, "tags": {"amenity": "pub", "name": "Finnegan's"}}, {"type": "node", "id": 6824102445, "lat": 40.6902852, "lon": -73.9962966, "tags": {"amenity": "pub", "cocktails": "yes", "cuisine": "pub", "drink:beer": "draught", "drink:liquor": "yes", "drink:wine": "yes", "name": "Henry Public", "opening_hours": "Mo-Th 16:00-23:00; Fr 16:00-24:00; Sa 12:00-24:00; Su 12:00-23:00", "opening_hours:kitchen": "Mo-Th 16:00-22:00; Fr 16:00-23:00; Sa 12:00-23:00; Su 12:00-22:00", "outdoor_seating": "street", "phone": "+1-718-852-8630", "website": "https://www.henrypublic.com"}}, {"type": "node", "id": 6833039071, "lat": 40.6784339, "lon": -73.9640584, "tags": {"addr:housenumber": "660", "addr:postcode": "11238", "addr:street": "Washington Avenue", "amenity": "pub", "cocktails": "yes", "cuisine": "hot_dog", "drink:beer": "draught", "drink:liquor": "yes", "drink:wine": "yes", "happy_hours": "Mo-Fr 15:00-19:00", "name": "Finn's Corner", "opening_hours": "Mo-Fr 15:00-24:00; Sa-Su 12:00-24:00", "outdoor_seating": "garden;sidewalk;street", "phone": "+1-347-663-9316", "sport": "billiards;darts", "toilets": "yes", "toilets:unisex": "yes", "toilets:wheelchair": "yes", "website": "https://www.finnscornernyc.com", "wheelchair": "yes"}}, {"type": "node", "id": 6854064076, "lat": 40.6764743, "lon": -73.9839513, "tags": {"amenity": "pub", "cocktails": "yes", "cuisine": "sandwich;snack", "diet:gluten_free": "yes", "diet:vegan": "limited", "diet:vegetarian": "limited", "drink:beer": "draught", "drink:liquor": "yes", "drink:wine": "yes", "happy_hours": "Mo-Fr 15:00-19:00", "name": "Gowanus Gardens", "opening_hours": "Mo-Th 15:00-02:00; Fr 15:00-04:00; Sa 12:00-04:00; Su 12:00-02:00", "opening_hours:kitchen": "Mo-Th 15:00-01:00; Fr 15:00-02:00; Sa 12:00-02:00; Su 12:00-01:00", "outdoor_seating": "garden;street", "toilets": "yes", "toilets:unisex": "yes", "website": "https://www.gowanusgardensbk.com"}}, {"type": "node", "id": 6854261685, "lat": 40.7066845, "lon": -73.8732574, "tags": {"addr:city": "Ridgewood", "addr:housenumber": "78-01", "addr:postcode": "11385", "addr:state": "NY", "addr:street": "77th Avenue", "amenity": "pub", "brewery": "yes", "craft": "brewery", "drink:beer": "draught", "email": "info@finbackbrewery.com", "name": "Finback Brewery", "opening_hours": "We-Fr 17:00-22:00; Sa 12:00-22:00; Su 12:00-20:00", "phone": "+1-718-628-8600", "website": "http://www.finbackbrewery.com/"}}, {"type": "node", "id": 6868465785, "lat": 40.7532631, "lon": -74.0295901, "tags": {"amenity": "pub", "name": "The Shepherd & The Knucklehead", "phone": "+12017144222"}}, {"type": "node", "id": 6868548285, "lat": 40.746483, "lon": -74.0321268, "tags": {"amenity": "pub", "name": "Finnegan\u2019s"}}, {"type": "node", "id": 6910698799, "lat": 40.7214223, "lon": -73.9877903, "tags": {"alt_name": "Dorante's Cocina", "amenity": "pub", "cocktails": "yes", "cuisine": "mexican", "drink:beer": "draught", "drink:liquor": "yes", "drink:wine": "yes", "name": "No Fun", "opening_hours": "Mo-Su 17:00-04:00", "phone": "+1-212-477-1616", "website": "http://nofun-nyc.com"}}, {"type": "node", "id": 6991451741, "lat": 40.7280803, "lon": -73.9812286, "tags": {"amenity": "pub", "cuisine": "snack", "drink:beer": "draught", "drink:coffee": "yes", "drink:liquor": "yes", "drink:tea": "yes", "drink:wine": "yes", "live_music": "yes", "name": "11th Street Bar", "opening_hours": "Mo-Su 12:00-22:00", "phone": "+1-212-982-3929", "theme": "irish", "toilets": "yes", "toilets:unisex": "yes", "website": "https://11thstbar.com"}}, {"type": "node", "id": 6997420501, "lat": 40.70191, "lon": -73.8085258, "tags": {"addr:city": "Jamaica", "addr:housenumber": "146-09", "addr:postcode": "11435", "addr:state": "NY", "addr:street": "Jamaica Avenue", "amenity": "pub", "name": "The Blarney"}}, {"type": "node", "id": 7045158376, "lat": 40.6228728, "lon": -74.0314813, "tags": {"addr:housenumber": "8622", "addr:postcode": "11209", "addr:street": "3rd Avenue", "amenity": "pub", "delivery": "yes", "dish": "burger;wings", "drink:beer": "yes", "name": "The Kettle Black", "opening_hours": "Mo, Tu 11:30-02:00; We, Th, Su 11:30-03:00; Fr, Sa 11:30-04:00", "opening_hours:kitchen": "Mo-Su 11:30-23:00", "phone": "+1 718-680-7862", "takeaway": "yes", "website": "https://www.kettleblackbar.com/"}}, {"type": "node", "id": 7089475612, "lat": 40.760572, "lon": -73.9665084, "tags": {"addr:housenumber": "208", "addr:postcode": "10022", "addr:street": "E 58th street", "amenity": "pub", "cocktails": "yes", "contact:facebook": "https://www.facebook.com/BloomsTavern", "contact:instagram": "http://instagram.com/bloomstavern", "cuisine": "irish", "drink:beer": "draught", "drink:wine": "yes", "email": "bloomstavern@gmail.com", "name": "Bloom's Tavern", "opening_hours": "11:00-02:00", "opening_hours:kitchen": "11:00-23:30", "phone": "+1 212-308-9400", "theme": "irish", "website": "https://bloomsnyc.com/"}}, {"type": "node", "id": 7093921926, "lat": 40.7579901, "lon": -73.9800977, "tags": {"addr:city": "New York", "addr:housenumber": "42", "addr:postcode": "10036", "addr:state": "NY", "addr:street": "West 48th Street", "amenity": "pub", "name": "Sean's Bar and Kitchen", "wheelchair": "yes"}}, {"type": "node", "id": 7093921930, "lat": 40.7581616, "lon": -73.9805063, "tags": {"addr:city": "New York", "addr:housenumber": "58", "addr:postcode": "10036", "addr:state": "NY", "addr:street": "West 48th Street", "amenity": "pub", "name": "Pig'n'Whistle", "wheelchair": "limited"}}, {"type": "node", "id": 7097867541, "lat": 40.7213153, "lon": -73.9884871, "tags": {"amenity": "pub", "contact:instagram": "hairofthedognyc", "name": "Hair of the dog", "website": "https://www.hairofthedognyc.com/"}}, {"type": "node", "id": 7152460743, "lat": 40.7471122, "lon": -73.9739294, "tags": {"addr:city": "New York", "addr:housenumber": "700", "addr:postcode": "10016", "addr:state": "NY", "addr:street": "2nd Avenue", "amenity": "pub", "cocktails": "yes", "cuisine": "pub", "delivery": "yes", "drink:beer": "draught", "drink:liquor": "yes", "happy_hours": "Mo-Fr 16:00-19:00", "instagram": "https://instagram.com/bravestnyc/", "name": "The Bravest", "opening_hours": "Mo, Tu 15:00-22:00; We-Fr 12:00-22:00; Sa, Su 13:00-22:00", "opening_hours:kitchen": "Mo-Su 12:00-22:00", "outdoor_seating": "yes", "phone": "+1-212-683-3766", "takeaway": "yes", "website": "https://www.thebravestnyc.com/"}}, {"type": "node", "id": 7161294640, "lat": 40.6698648, "lon": -73.9581019, "tags": {"addr:housenumber": "829", "addr:postcode": "11225", "addr:street": "Franklin Avenue", "amenity": "pub", "cocktails": "yes", "drink:beer": "draught", "drink:liquor": "yes", "drink:wine": "yes", "happy_hours": "Mo 18:00-20:00; Tu-Th 16:00-19:00; Sa-Su 15:00-18:00", "name": "Union Street Pub", "opening_hours": "Mo 18:00-04:00; Tu-Th 16:00-04:00; Fr 14:30-04:00; Sa 15:00-04:00; Su 15:00-04:00", "phone": "+1-347-715-6312", "toilets": "yes", "toilets:access": "customers", "website": "https://www.unionstreetpubbk.com"}}, {"type": "node", "id": 7173664038, "lat": 40.7108448, "lon": -73.9508448, "tags": {"amenity": "pub", "cocktails": "yes", "cuisine": "burger;sandwich", "drink:beer": "draught", "drink:liquor": "yes", "drink:wine": "yes", "name": "Burnside", "opening_hours": "Mo-We 17:00-02:00; Th-Fr 17:00-04:00; Sa 14:00-04:00; Su 14:00-02:00", "phone": "+1-347-889-7793", "sport": "table_shuffleboard", "toilets": "yes", "toilets:unisex": "yes", "website": "https://burnsidebrooklyn.com"}}, {"type": "node", "id": 7177751482, "lat": 40.6877614, "lon": -73.9785857, "tags": {"amenity": "pub", "cocktails": "yes", "cuisine": "american", "drink:beer": "draught", "drink:liquor": "yes", "drink:wine": "yes", "happy_hours": "Mo-Fr 16:00-19:00", "name": "Fulton Hall", "opening_hours": "Mo-Th 12:00-24:00; Fr-Sa 12:00-01:00; Su 12:00-24:00", "opening_hours:kitchen": "Mo-Su 12:00-23:00", "outdoor_seating": "yes", "phone": "+1-718-673-6740", "website": "https://fultonhall.com"}}, {"type": "node", "id": 7182227796, "lat": 40.7482371, "lon": -73.9735992, "tags": {"amenity": "pub", "cocktails": "yes", "cuisine": "pub", "drink:beer": "draught", "drink:liquor": "yes", "happy_hours": "Mo-Su 16:00-19:00", "name": "Tuttles", "opening_hours": "Mo-Su 11:00-02:00", "opening_hours:kitchen": "Mo-Su 11:00-24:00", "outdoor_seating": "garden", "phone": "+1-646-422-7072", "website": "http://tuttlesnyc.com"}}, {"type": "node", "id": 7194157461, "lat": 40.580211, "lon": -73.8376414, "tags": {"amenity": "pub"}}, {"type": "node", "id": 7194157468, "lat": 40.5799053, "lon": -73.8374691, "tags": {"amenity": "pub", "name": "Roger's"}}, {"type": "node", "id": 7194269383, "lat": 40.7839853, "lon": -73.9774841, "tags": {"addr:city": "New York", "addr:country": "US", "addr:housenumber": "425", "addr:postcode": "10024", "addr:state": "NY", "addr:street": "Amsterdam Avenue", "amenity": "pub", "name": "McAleer's Pub", "website": "http://mcaleerspub.com/"}}, {"type": "node", "id": 7418121964, "lat": 40.7849421, "lon": -73.9772607, "tags": {"addr:city": "New York", "addr:housenumber": "450", "addr:postcode": "10024", "addr:state": "NY", "addr:street": "Amsterdam Avenue", "addr:unit": "2", "amenity": "pub", "cuisine": "irish", "name": "The Dead Poet", "theme": "irish", "website": "http://www.thedeadpoet.com/"}}, {"type": "node", "id": 7424179953, "lat": 40.7303713, "lon": -73.9578334, "tags": {"addr:city": "Brooklyn", "addr:housenumber": "113", "addr:postcode": "11222", "addr:state": "NY", "addr:street": "Franklin Street", "amenity": "pub", "name": "Threes Brewing", "smoking": "no"}}, {"type": "node", "id": 7424179954, "lat": 40.7376661, "lon": -73.9552371, "tags": {"addr:city": "Brooklyn", "addr:housenumber": "1150", "addr:postcode": "11222", "addr:state": "NY", "addr:street": "Manhattan Avenue", "air_conditioning": "yes", "amenity": "pub", "brewery": "various", "craft": "brewery", "microbrewery": "yes", "name": "Greenpoint Beer & Ale", "outdoor_seating": "yes", "product": "beer", "real_fire": "no", "wheelchair": "limited"}}, {"type": "node", "id": 7653745268, "lat": 40.7476165, "lon": -73.9933167, "tags": {"addr:housenumber": "328", "addr:postcode": "10001", "addr:street": "7th Avenue", "amenity": "pub", "name": "Triple Crown", "outdoor_seating": "yes"}}, {"type": "node", "id": 7667683409, "lat": 40.7366487, "lon": -73.9844977, "tags": {"addr:housenumber": "237", "addr:street": "3rd Avenue", "amenity": "pub", "brewery": "various", "cocktails": "yes", "drink:wine": "yes", "name": "Paddy Maguire's", "opening_hours": "Mo-Su 11:00-04:00", "outdoor_seating": "sidewalk;street", "payment:contactless": "yes", "payment:debit_cards": "yes", "phone": "(212) 253-0031", "sport": "billiards", "website": "https://www.paddymaguiresnyc.com/", "wheelchair": "yes"}}, {"type": "node", "id": 7802850792, "lat": 40.54507, "lon": -74.1654476, "tags": {"amenity": "pub", "name": "Joyce's Tavern"}}, {"type": "node", "id": 7820953442, "lat": 40.7531352, "lon": -73.9882647, "tags": {"addr:housenumber": "156", "addr:street": "West 38th Street", "amenity": "pub", "name": "Jimmy\u2019s"}}, {"type": "node", "id": 7951139843, "lat": 40.7472278, "lon": -73.9821484, "tags": {"addr:housenumber": "58", "addr:street": "East 34th Street", "amenity": "pub", "cuisine": "pub", "name": "The Long Hall"}}, {"type": "node", "id": 8576802826, "lat": 40.7186007, "lon": -73.9483052, "tags": {"addr:street": "Leonard Street", "amenity": "pub", "brewery": "yes", "microbrewery": "yes", "name": "Talea", "outdoor_seating": "yes", "product": "beer", "wheelchair": "yes"}}, {"type": "node", "id": 8613867470, "lat": 40.6895922, "lon": -73.969402, "tags": {"addr:housenumber": "247", "addr:postcode": "11217", "addr:street": "DeKalb Avenue", "amenity": "pub", "name": "Brooklyn Public House", "website": "http://www.brooklynpublic.com"}}, {"type": "node", "id": 8792307152, "lat": 40.7379278, "lon": -73.9840376, "tags": {"amenity": "pub", "cocktails": "yes", "cuisine": "pub", "disused:website": "https://www.gramercyalehouse.com", "drink:beer": "draught", "drink:liquor": "yes", "drink:wine": "yes", "indoor_seating": "yes", "name": "Gramercy Ale House", "opening_hours": "Mo-Su 12:00-04:00", "outdoor_seating": "yes", "phone": "+1-646-678-3566"}}, {"type": "node", "id": 8889129293, "lat": 40.7202029, "lon": -73.9553551, "tags": {"amenity": "pub", "name": "The Gibson", "outdoor_seating": "sidewalk;street"}}, {"type": "node", "id": 8958489048, "lat": 40.7224516, "lon": -73.9832865, "tags": {"addr:city": "New York", "addr:housenumber": "28", "addr:postcode": "10009", "addr:state": "NY", "addr:street": "Avenue B", "amenity": "pub", "email": "info@hairylemonnyc.com", "name": "The Hairy Lemon", "opening_hours": "Mo-We 16:00-01:00; Th 16:00-02:00; Fr 16:00-04:00; Sa 12:00-04:00; Su 12:00-24:00", "outdoor_seating": "sidewalk", "phone": "+1-646-869-2151", "website": "https://www.hairylemonnyc.com/"}}, {"type": "node", "id": 8958523254, "lat": 40.7194065, "lon": -73.9850264, "tags": {"addr:housenumber": "67", "addr:postcode": "10002", "addr:street": "Clinton Street", "amenity": "pub", "cocktails": "yes", "cuisine": "burger", "delivery": "yes", "drink:beer": "draught", "drink:wine": "served", "email": "info@theburgary.com", "facebook": "theburgary", "instagram": "theburgary", "name": "The Burgary", "opening_hours": "14:00-22:00", "outdoor_seating": "sidewalk;street", "phone": "+1 212-529-6900", "takeaway": "yes", "website": "https://www.theburgary.com"}}, {"type": "node", "id": 8973176555, "lat": 40.6990763, "lon": -73.9923801, "tags": {"amenity": "pub", "cocktails": "yes", "cuisine": "pub", "drink:beer": "draught", "drink:liquor": "yes", "drink:wine": "yes", "name": "Henry Street Ale House", "opening_hours": "Mo-Th 15:00-22:00; Fr-Su 13:00-22:00", "outdoor_seating": "sidewalk;street", "phone": "+1-718-522-4801", "website": "http://www.henrystreetalehouse.com"}}, {"type": "node", "id": 8985879379, "lat": 40.7159233, "lon": -73.9668928, "tags": {"addr:city": "Brooklyn", "addr:housenumber": "34", "addr:postcode": "11249", "addr:state": "NY", "addr:street": "River Street", "amenity": "pub", "microbrewery": "yes", "name": "Other Half Brewing Company", "opening_hours": "Mo,Tu 12:00-20:00; We 12:00-22:00; Th 12:00-24:00; Fr 12:00-24:00; Sa 10:00-24:00; Su 11:00-21:00", "outdoor_seating": "yes", "toilets": "yes", "toilets:unisex": "yes", "toilets:wheelchair": "yes", "website": "https://otherhalfbrewing.com/location/domino-park/"}}, {"type": "node", "id": 9008347789, "lat": 40.6883562, "lon": -73.9569437, "tags": {"amenity": "pub", "cuisine": "mexican", "name": "Chilo's", "website": "https://www.chilosbk.com/chilos-bed-stuy-tacos"}}, {"type": "node", "id": 9025308625, "lat": 40.7044111, "lon": -74.0105524}, {"type": "node", "id": 9029130044, "lat": 40.7771126, "lon": -73.9537128, "tags": {"addr:housenumber": "229", "addr:street": "East 84th Street", "amenity": "pub", "cocktails": "yes", "cuisine": "irish", "drink:beer": "bottled; draught", "drink:wine": "served", "facebook": "TrinityPub", "name": "Trinity Pub", "opening_hours": "Mo-Fr 17:00-04:00; Sa, Su 15:00-16:00", "outdoor_seating": "street", "phone": "+1 212-327-4450"}}, {"type": "node", "id": 9036389119, "lat": 40.7287612, "lon": -73.9897021, "tags": {"amenity": "pub", "cuisine": "pub", "name": "McSorley's Old Ale House", "opening_hours": "Mo-Sa 11:00-01:00; Su 13:00-01:00", "outdoor_seating": "sidewalk;street", "payment:cash": "only", "phone": "+1-212-474-9148", "toilets": "yes", "website": "https://mcsorleysoldalehouse.nyc/", "wheelchair": "limited", "wikidata": "Q4276394", "wikipedia": "en:McSorley's Old Ale House"}}, {"type": "node", "id": 9120977794, "lat": 40.6772915, "lon": -74.0188315, "tags": {"amenity": "pub", "craft": "brewery", "internet_access": "wlan", "name": "Strong Rope Brewery - Red Hook", "outdoor_seating": "yes", "website": "http://strongropebrewery.com/red-hook"}}, {"type": "node", "id": 9270630238, "lat": 40.6568215, "lon": -73.9599671, "tags": {"alt_name": "Westbury Kitchen", "amenity": "pub", "atm": "yes", "cocktails": "yes", "cuisine": "pub", "drink:beer": "yes", "drink:liquor": "yes", "drink:wine": "yes", "name": "The Westbury Inn", "opening_hours": "Mo-Th 17:00-24:00; Fr-Sa 17:00-02:00; Su 13:00-24:00", "phone": "+1-929-454-7848", "website": "http://www.westburyinnbar.com"}}, {"type": "node", "id": 9275881443, "lat": 40.7762953, "lon": -73.9531193, "tags": {"addr:housenumber": "1609", "addr:street": "2nd Avenue", "amenity": "pub", "branch": "UES", "cocktails": "yes", "cuisine": "pub", "drink:beer": "draught; bottled", "drink:wine": "served", "email": "info@caledoniabar.com", "name": "Caledonia", "opening_hours": "Mo-We 17:00-02:00; Th 17:00-04:00; Fr, Sa 16:00-04:00; Su 16:00-24:00", "phone": "+1 212-734-4300", "website": "https://www.caledoniabar.com"}}, {"type": "node", "id": 9330247867, "lat": 40.7272486, "lon": -73.9853346, "tags": {"addr:city": "New York", "addr:housenumber": "126", "addr:postcode": "10009", "addr:state": "NY", "addr:street": "1st Avenue", "amenity": "pub", "cuisine": "pub", "email": "info@thegraftonnyc.com", "name": "The Grafton", "opening_hours": "Mo-Fr 16:00-02:00; Sa-Su 12:00-03:00", "outdoor_seating": "yes", "phone": "+1-212-228-8580", "website": "http://www.thegraftonnyc.com/"}}, {"type": "node", "id": 9344811864, "lat": 40.7128812, "lon": -73.8788198, "tags": {"amenity": "pub", "name": "Pat\u2019s Sports Bar"}}, {"type": "node", "id": 9354070899, "lat": 40.7268045, "lon": -73.8936158, "tags": {"amenity": "pub", "name": "The Cetli House"}}, {"type": "node", "id": 9354070902, "lat": 40.7268995, "lon": -73.893986, "tags": {"amenity": "pub", "name": "Bukowski's"}}, {"type": "node", "id": 9421121496, "lat": 40.7515109, "lon": -73.9935457}, {"type": "node", "id": 9431945818, "lat": 40.6419477, "lon": -74.0169567, "tags": {"addr:housenumber": "5721", "addr:postcode": "11220", "addr:street": "4th Avenue", "amenity": "pub", "contact:instagram": "@irish.haven", "name": "Irish Haven", "opening_hours": "Mo-Sa 08:00-04:00; Su 10:00-04:00", "outdoor_seating": "street", "phone": "+1-917-399-5928"}}, {"type": "node", "id": 9530982105, "lat": 40.6800689, "lon": -73.9413344, "tags": {"alt_name": "Libre InkWell II", "amenity": "pub", "cuisine": "seafood", "name": "Lebre Garden"}}, {"type": "node", "id": 9559184089, "lat": 40.7722993, "lon": -73.9555674, "tags": {"addr:housenumber": "1490", "addr:postcode": "10075", "addr:street": "2nd Avenue", "amenity": "pub", "cocktails": "yes", "contact:email": "docwatsons@gmail.com", "contact:facebook": "Doc-Watsons-NYC-108519442516640", "contact:instagram": "docwatsonsnyc", "contact:phone": "+1 212-988-5300", "contact:website": "http://docwatsonsnyc.com", "cuisine": "irish", "delivery": "yes", "drink:beer": "bottled; draught", "drink:wine": "served", "level": "0", "name": "Doc Watson's", "opening_hours": "Mo 14:00-04:00; Tu-Fr 12:00-04:00; Sa, Su 11:00-04:00", "outdoor_seating": "yes", "reservation": "yes", "takeaway": "yes"}}, {"type": "node", "id": 9578260090, "lat": 40.7259911, "lon": -73.9898144, "tags": {"amenity": "pub", "cocktails": "yes", "cuisine": "pub;brunch", "drink:beer": "draught", "drink:liquor": "yes", "drink:wine": "yes", "happy_hours": "Mo-Fr 15:00-20:00", "name": "The Gray Mare"}}, {"type": "node", "id": 9659603357, "lat": 40.7247677, "lon": -73.9926478, "tags": {"amenity": "pub", "cocktails": "yes", "cuisine": "pub", "drink:beer": "draught", "drink:liquor": "yes", "drink:wine": "yes", "name": "Slainte", "opening_hours": "Mo-Tu 12:00-01:00; We 12:00-02:00; Th-Sa 12:00-03:00; Su 12:00-01:00", "outdoor_seating": "sidewalk;street", "phone": "+1-212-253-7030", "website": "https://slaintenbarnyc.com"}}, {"type": "node", "id": 9668112183, "lat": 40.7026559, "lon": -73.9329545, "tags": {"addr:city": "Brooklyn", "addr:housenumber": "5", "addr:postcode": "11206", "addr:state": "NY", "addr:street": "Central Avenue", "addr:unit": "Space B", "amenity": "pub", "brewery": "no", "drink:beer": "no", "drink:sake": "yes", "microbrewery": "yes", "name": "Kato Sake Works", "opening_hours": "Fr 15:00-20:00; Sa 13:00-20:00; Su 13:00-20:00", "website": "https://www.katosakeworks.com/"}}, {"type": "node", "id": 9695838107, "lat": 40.7196016, "lon": -73.9394972, "tags": {"addr:housenumber": "300", "addr:postcode": "11222", "addr:street": "Richardson Street", "amenity": "pub", "dog": "yes", "email": "info@18thwardbrewing.com", "microbrewery": "yes", "name": "18th Ward Brewing", "opening_hours": "Fr 16:00-00:00; Sa 12:00-22:00; Su 12:00-20:00", "phone": "+1 718-387-4025", "reservation": "yes", "website": "https://www.18thwardbrewing.com"}}, {"type": "node", "id": 9695903782, "lat": 40.7139723, "lon": -73.944465, "tags": {"addr:housenumber": "323", "addr:postcode": "11211", "addr:street": "Graham Avenue", "amenity": "pub", "cocktails": "yes", "contact:facebook": "basikbrooklyn", "contact:instagram": "basikbrooklyn", "contact:twitter": "basikbrooklyn", "email": "contact@basikbrooklyn.com", "level": "0", "name": "Basik", "opening_hours": "Mo-Fr 17:00-026:00; Sa, Su 14:00-26:00", "phone": "+1 347-889-7597", "website": "https://www.basikbrooklyn.com"}}, {"type": "node", "id": 9717341632, "lat": 40.7161993, "lon": -73.9895927, "tags": {"addr:city": "New York", "addr:housename": "Old Man Hustle", "addr:housenumber": "39", "addr:postcode": "10002", "addr:state": "NY", "addr:street": "Essex Street", "amenity": "pub", "branch": "Lower East Side", "name": "Old Man Hustle Comedy Bar", "opening_hours": "16:00-02:00", "phone": "+1-212-253-7747", "website": "https://www.oldmanhustle.com/"}}, {"type": "node", "id": 9775989876, "lat": 40.6514815, "lon": -74.014222, "tags": {"addr:housenumber": "4575", "addr:postcode": "11220", "addr:street": "2nd Avenue", "alt_name": "Star World", "amenity": "pub", "cocktails": "yes", "cuisine": "pub;latin_american;hawaiian", "drink:beer": "draught", "drink:liquor": "yes", "happy_hours": "Mo-Fr 17:00-21:00", "leisure": "amusement_arcade", "name": "Ha-Weeda Tavern", "opening_hours": "Mo-Su 17:00-02:00", "outdoor_seating": "sidewalk", "sport": "billiards", "website": "https://www.haweedatavern.com"}}, {"type": "node", "id": 9780522586, "lat": 40.6297867, "lon": -74.0286536, "tags": {"amenity": "pub", "name": "The Harp", "outdoor_seating": "garden", "phone": "+1-718-745-4277"}}, {"type": "node", "id": 9786078580, "lat": 40.6346523, "lon": -74.0263014, "tags": {"amenity": "pub", "cocktails": "yes", "cuisine": "pizza", "delivery": "yes", "drink:beer": "draught", "drink:liquor": "yes", "drink:wine": "yes", "live_music": "yes", "name": "The Brooklyn Firefly", "opening_hours": "Tu-Fr 17:00-22:00; Sa-Su 13:00-22:00", "opening_hours:kitchen": "Tu-Fr 17:00-21:00; Sa-Su 13:00-21:00", "outdoor_seating": "sidewalk;street", "takeaway": "yes", "website": "https://www.thebrooklynfirefly.com"}}, {"type": "node", "id": 9807347129, "lat": 40.740969, "lon": -73.9818247, "tags": {"amenity": "pub", "cocktails": "yes", "cuisine": "pub", "drink:beer": "draught", "drink:liquor": "yes", "drink:wine": "yes", "name": "Sundays Well", "opening_hours": "Mo-Fr 15:00-02:00; Sa-Su 12:00-04:00", "outdoor_seating": "garden;street", "phone": "+1-646-707-3190", "website": "https://www.sundayswellnyc.com"}}, {"type": "node", "id": 9807449448, "lat": 40.729545, "lon": -73.9872359, "tags": {"addr:housenumber": "151", "addr:postcode": "10003", "addr:street": "2nd Avenue", "amenity": "pub", "cocktails": "yes", "cuisine": "pub;brunch", "drink:beer": "draught", "drink:liquor": "yes", "drink:wine": "yes", "name": "The Copper Still", "opening_hours": "Mo-We 16:00-01:00, Th 16:00-02:00, Fr 12:00-04:00, Sa 11:00-04:00, Su 11:00-12:00", "outdoor_seating": "sidewalk", "website": "https://www.thecopperstillnyc.com"}}, {"type": "node", "id": 9807449449, "lat": 40.7296514, "lon": -73.987159, "tags": {"addr:street": "2nd Avenue", "amenity": "pub", "drink:beer": "draught", "drink:liquor": "yes", "drink:wine": "yes", "happy_hours": "Mo-Fr 12:00-19:00", "internet_access": "wlan", "internet_access:fee": "no", "name": "The Long Pour", "opening_hours": "Mo-Fr 12:00-04:00; Sa, Su 10:00-04:00", "outdoor_seating": "sidewalk", "payment:contactless": "yes", "payment:debit_cards": "yes", "phone": "+1-646-822-8270", "sport": "darts", "toilets": "yes", "toilets:unisex": "yes", "website": "https://www.thelongpour.com", "wheelchair": "no"}}, {"type": "node", "id": 9874879434, "lat": 40.7177619, "lon": -73.9942349, "tags": {"amenity": "pub", "cuisine": "chinese", "drink:beer": "draught", "name": "Grand Master 95", "opening_hours": "Mo,We-Su 11:30-21:30", "website": "https://grandmaster95.com"}}, {"type": "node", "id": 9908595363, "lat": 40.7866925, "lon": -73.9505148, "tags": {"addr:housenumber": "1504", "addr:postcode": "10029", "addr:street": "Lexington Avenue", "amenity": "pub", "cocktails": "yes", "contact:instagram": "lexingtonpublicknyc", "drink:beer": "draught; bottled", "drink:wine": "served", "email": "LexingtonPublickNYC@gmail.com", "happy_hours": "Mo-Fr 16:00-19:00", "internet_access": "wlan", "name": "Lexington Publick", "opening_hours": "Mo-Th, Sa, Su 16:00-02:00; Fr 14:00-02:00", "phone": "+1 646-799-9494", "website": "https://www.lexingtonpublicknyc.com/"}}, {"type": "node", "id": 9995781426, "lat": 40.7238005, "lon": -74.0492257, "tags": {"amenity": "pub", "name": "Abbey's Pub", "outdoor_seating": "yes"}}, {"type": "node", "id": 10078964000, "lat": 40.7204588, "lon": -74.0436111, "tags": {"addr:city": "Jersey City", "addr:housenumber": "140", "addr:postcode": "07302", "addr:street": "Newark Avenue", "amenity": "pub", "name": "Grace O'Malley's", "outdoor_seating": "yes", "theme": "irish", "website": "https://www.graceomalleys-jc.com/"}}, {"type": "node", "id": 10148136561, "lat": 40.6722631, "lon": -73.957708}, {"type": "node", "id": 10148679027, "lat": 40.6722899, "lon": -73.9577674}, {"type": "node", "id": 10148679035, "lat": 40.6723971, "lon": -73.9578858, "tags": {"addr:housenumber": "618", "addr:postcode": "11238", "addr:street": "Saint Johns Place", "barrier": "gate", "entrance": "yes"}}, {"type": "node", "id": 10148679036, "lat": 40.6722269, "lon": -73.9575366}, {"type": "node", "id": 10206479347, "lat": 40.8047202, "lon": -73.9554153, "tags": {"entrance": "main"}}, {"type": "node", "id": 10206479348, "lat": 40.8046682, "lon": -73.9554532}, {"type": "node", "id": 10248126865, "lat": 40.70616, "lon": -74.0731658}, {"type": "node", "id": 10248126866, "lat": 40.7061166, "lon": -74.0732297}, {"type": "node", "id": 10248126867, "lat": 40.7061554, "lon": -74.0731536}, {"type": "node", "id": 10355265206, "lat": 40.7297253, "lon": -73.9579297, "tags": {"amenity": "pub", "name": "Brouwerij Lane", "opening_hours": "Mo-Th 14:00-22:00; Fr-Su 12:00-23:00", "phone": "3475296133", "website": "https://brouwerijlane.com/"}}, {"type": "node", "id": 10627463304, "lat": 40.6758798, "lon": -73.9500861, "tags": {"alt_name": "NPub", "amenity": "pub", "cuisine": "pub", "drink:beer": "draught", "drink:liquor": "yes", "drink:wine": "yes", "name": "Nostrand Avenue Pub", "opening_hours": "Mo-Su 15:00-04:00", "outdoor_seating": "garden", "short_name": "NAP"}}, {"type": "node", "id": 10689433836, "lat": 40.7389154, "lon": -73.9837535, "tags": {"alt_name": "Globe Bar", "amenity": "pub", "cocktails": "yes", "cuisine": "pub", "drink:beer": "draught", "drink:liquor": "yes", "drink:wine": "yes", "name": "The Globe", "opening_hours": "Mo-We 12:00-02:00; Th-Sa 12:00-04:00; Su 12:00-02:00", "outdoor_seating": "street", "phone": "+1-212-477-6161", "website": "https://www.theglobeny.com"}}, {"type": "node", "id": 10731651159, "lat": 40.7600413, "lon": -73.9953984, "tags": {"amenity": "pub", "cocktails": "yes", "cuisine": "pub", "drink:beer": "draught", "drink:liquor": "yes", "drink:wine": "yes", "name": "Walter's Cottage"}}, {"type": "node", "id": 10748500017, "lat": 40.7068658, "lon": -74.0694719, "tags": {"addr:city": "Jersey City", "addr:housenumber": "101", "addr:postcode": "07304", "addr:state": "NJ", "addr:street": "Pacific Avenue", "amenity": "pub", "brewery": "yes", "cuisine": "beer", "microbrewery": "yes", "name": "902 Brewing Co"}}, {"type": "node", "id": 10757178646, "lat": 40.7354861, "lon": -73.985814, "tags": {"amenity": "pub", "cocktails": "yes", "cuisine": "pub", "drink:beer": "draught", "drink:liquor": "yes", "drink:wine": "yes", "name": "Triona's", "opening_hours": "Mo-We 15:00-02:00, Th-Fr 14:00-02:00, Sa-Su 11:00-02:00", "outdoor_seating": "street", "phone": "+1-646-448-4671", "website": "https://east.trionasnyc.com"}}, {"type": "node", "id": 10769247440, "lat": 40.5365385, "lon": -74.1518055, "tags": {"amenity": "pub", "name": "Boulevard Tavern"}}, {"type": "node", "id": 10776922805, "lat": 40.7374631, "lon": -73.8960946, "tags": {"addr:housenumber": "49-04", "addr:state": "NY", "addr:street": "69th Street", "amenity": "pub", "name": "Luke Kelly's"}}, {"type": "way", "id": 241837928, "nodes": [2494194580, 2494194885, 2494194915, 2494194936, 2494194917, 2494194580], "tags": {"addr:city": "Brooklyn", "addr:housenumber": "303", "addr:postcode": "11211", "addr:state": "NY", "addr:street": "Bedford Avenue", "amenity": "pub", "building": "yes", "height": "11.7", "name": "Lucky Dog", "nycdoitt:bin": "3062959", "outdoor_seating": "yes"}}, {"type": "way", "id": 241857450, "nodes": [2494346798, 2511066682, 2494347426, 2494346999, 2494346798], "tags": {"addr:city": "Astoria", "addr:housenumber": "19-33", "addr:postcode": "11105", "addr:street": "37th Street", "amenity": "pub", "building": "brewery", "craft": "brewery", "email": "rulpsen@singlecut.com", "height": "5.6", "live_music": "yes", "name": "SingleCut Beersmiths", "nycdoitt:bin": "4016130", "opening_hours": "We 18:00-24:00, Th 16:00-24:00, Fr,Sa 12:00-24:00, Su 12:00-22:00", "outdoor_seating": "yes", "payment:cash": "yes", "payment:credit_cards": "yes", "phone": "+1-718-606-0788", "website": "https://singlecut.com/"}}, {"type": "way", "id": 247638241, "nodes": [2545194247, 2545194758, 2545194763, 2545194347, 2545194247], "tags": {"addr:city": "Ozone Park", "addr:housenumber": "88-14", "addr:postcode": "11417", "addr:state": "NY", "addr:street": "Liberty Avenue", "amenity": "pub", "building": "yes", "height": "7.0", "name": "Mike's Tavern", "nycdoitt:bin": "4190613"}}, {"type": "way", "id": 248163723, "nodes": [2550054906, 2550054892, 2550054901, 2550054902, 2550054911, 2550054921, 2550054910, 2550054906], "tags": {"addr:housenumber": "39", "addr:postcode": "11217", "addr:street": "5th Avenue", "amenity": "pub", "building": "yes", "cuisine": "pub", "height": "4.3", "name": "McMahon's", "nycdoitt:bin": "3018478", "outdoor_seating": "roof", "phone": "+1 718 230 4549"}}, {"type": "way", "id": 248164300, "nodes": [2550057157, 2550057167, 2550057174, 2550057176, 2550057165, 2550057157], "tags": {"addr:housenumber": "200", "addr:postcode": "11217", "addr:street": "5th Avenue", "amenity": "pub", "building": "yes", "cocktails": "yes", "cuisine": "italian;pizza;brunch", "drink:beer": "draught", "drink:liquor": "yes", "drink:wine": "yes", "height": "5.2", "name": "Black Oak", "nycdoitt:bin": "3332137", "opening_hours": "Mo-Su 10:00-24:00+", "opening_hours:kitchen": "Mo-Su 10:00-23:00", "outdoor_seating": "street", "toilets": "yes", "toilets:unisex": "yes"}}, {"type": "way", "id": 248167311, "nodes": [2550074094, 2550074102, 2550074121, 2550074111, 2550074087, 2550074094], "tags": {"addr:city": "Brooklyn", "addr:housenumber": "191", "addr:postcode": "11231", "addr:state": "NY", "addr:street": "Centre Street", "amenity": "pub", "building": "yes", "building:levels": "1", "craft": "brewery", "description": "Craft brewery and taproom specializing in NEIPAs", "drink:beer": "yes", "email": "info@otherhalfbrewing.com", "height": "4.2", "name": "Other Half Brewery", "nycdoitt:bin": "3402768;3008188", "opening_hours": "Mo-We 15:00-22:00; Th-Fr 12:00-00:00; Sa 10:00-00:00; Su 11:00-22:00", "phone": "+1-917-765-6107", "product": "beer", "shop": "alcohol", "website": "https://otherhalfbrewing.com", "wikidata": "Q111286149"}}, {"type": "way", "id": 248167942, "nodes": [2550079194, 2550079207, 2550079238, 2550079260, 2550079236, 2550079208, 2550079194], "tags": {"addr:housenumber": "158", "addr:postcode": "11231", "addr:street": "Beard Street", "amenity": "pub", "building": "yes", "cocktails": "yes", "craft": "brewery", "cuisine": "pub", "drink:beer": "draught", "drink:liquor": "yes", "drink:wine": "yes", "height": "4.7", "name": "Keg & Lantern Brewery", "nycdoitt:bin": "3008851", "opening_hours": "We-Fr 16:00-23:00; Sa-Su 12:00-23:00", "phone": "+1-718-852-3692", "website": "https://www.kegandlanternbrooklyn.com/redhook"}}, {"type": "way", "id": 248239484, "nodes": [2550592859, 2550592953, 2550593136, 2550593015, 2550592894, 2550592859], "tags": {"addr:housenumber": "273", "addr:postcode": "11215", "addr:street": "13th Street", "amenity": "pub", "building": "yes", "cocktails": "yes", "cuisine": "pub;pizza", "drink:beer": "draught", "drink:liquor": "yes", "height": "4.9", "name": "Paddy's", "nycdoitt:bin": "3023250", "pinball": "yes", "sport": "darts", "toilets": "yes", "toilets:unisex": "no"}}, {"type": "way", "id": 248827294, "nodes": [2555577706, 2555577727, 2555577736, 2555577750, 2555577742, 2555577767, 2555577725, 2555577706], "tags": {"addr:housenumber": "531", "addr:postcode": "10016", "addr:street": "2nd Avenue", "amenity": "pub", "building": "yes", "cocktails": "yes", "cuisine": "pub", "drink:beer": "draught", "drink:liquor": "yes", "height": "7.9", "name": "F\u00e1\u00edlte", "note": "building footprint is correct, but BIN 1019928 has a 4th-story overhang that extends over half of this building", "nycdoitt:bin": "1019926", "opening_hours": "Mo-Sa 11:30-04:00, Su 12:00-04:00", "outdoor_seating": "sidewalk", "phone": "+1-212-725-9440", "sport": "billiards", "website": "https://failtebar.com"}}, {"type": "way", "id": 249632922, "nodes": [2562125779, 2562125777, 2562125782, 2562125786, 2562125784, 2562125779], "tags": {"addr:housenumber": "568", "addr:postcode": "11215", "addr:street": "5th Avenue", "amenity": "pub", "atm": "yes", "building": "yes", "cocktails": "yes", "cuisine": "american;mexican", "drink:beer": "draught", "drink:liquor": "yes", "drink:wine": "yes", "height": "6.6", "name": "Black Horse Pub", "nycdoitt:bin": "3023925", "opening_hours": "Mo-Th 12:00-24:00; Fr 12:00-02:00; Sa 11:00-02:00; Su 11:00-24:00||\"Earlier on Saturday & Sunday depending on football start time\"", "outdoor_seating": "sidewalk", "toilets": "yes", "toilets:unisex": "no", "wheelchair": "yes"}}, {"type": "way", "id": 250348723, "nodes": [2568196231, 2568196239, 2568196205, 2568196203, 2568196231], "tags": {"addr:housenumber": "742", "addr:street": "Myrtle Street", "amenity": "pub", "building": "yes", "height": "6.0", "name": "Project Parlor", "nycdoitt:bin": "3341852"}}, {"type": "way", "id": 250489910, "nodes": [2569262843, 2569262856, 2569262862, 2569262832, 2569262843], "tags": {"addr:housenumber": "314", "addr:postcode": "10014", "addr:street": "West 11th Street", "amenity": "pub", "building": "yes", "building:levels": "3", "contact:phone": "+1 212 6200393", "contact:website": "http://thespottedpig.com/", "height": "10.4", "name": "The Spotted Pig", "nycdoitt:bin": "1078282", "opening_hours": "11:00-02:00", "wikidata": "Q7766054"}}, {"type": "way", "id": 250587177, "nodes": [2570158971, 2570159080, 2570159087, 2570158987, 2570158971], "tags": {"amenity": "pub", "building": "yes", "height": "4.4", "name": "BQE Billiards and Bar", "nycdoitt:bin": "4028797", "sport": "billiards"}}, {"type": "way", "id": 264630952, "nodes": [2702887603, 2702887592, 2702887586, 2702887584, 2702887587, 2702887596, 2702887607, 2702887604, 2702887603], "tags": {"addr:city": "New York", "addr:country": "US", "addr:housenumber": "205", "addr:postcode": "10001", "addr:state": "NY", "addr:street": "West 14th Street", "amenity": "pub", "building": "yes", "height": "18.7", "name": "Flannery's Bar", "nycdoitt:bin": "1013730", "opening_hours:signed": "no", "website": "http://www.flannerysny.com/"}}, {"type": "way", "id": 265277034, "nodes": [2709430388, 2709430390, 2709430392, 9421121496, 2709430401, 2709430410, 2709430394, 2709430388], "tags": {"addr:city": "New York", "addr:housenumber": "1", "addr:postcode": "10119", "addr:state": "NY", "addr:street": "Pennsylvania Plaza", "amenity": "pub", "building": "yes", "height": "8.9", "name": "Local", "nycdoitt:bin": "1088971"}}, {"type": "way", "id": 265357857, "nodes": [2710280685, 2710280688, 2710280692, 2710280689, 2710280685], "tags": {"amenity": "pub", "building": "yes", "height": "4.3", "name": "McQuaid", "nycdoitt:bin": "1080979", "outdoor_seating": "no"}}, {"type": "way", "id": 266170540, "nodes": [2717545066, 1753098052, 2717545159, 2717545281, 2717545262, 2717545216, 2717545203, 2717545193, 2717545182, 2717545066], "tags": {"addr:city": "New York", "addr:housenumber": "121", "addr:postcode": "10036", "addr:state": "NY", "addr:street": "West 45th Street", "amenity": "pub", "building": "yes", "building:colour": "#2C2428", "building:levels": "3", "height": "12.5", "name": "Connolly's", "nycdoitt:bin": "1022638", "official_name": "Connolly's Pub & Restaurant", "roof:material": "concrete", "roof:shape": "flat", "website": "http://www.connollyspubandrestaurant.com/"}}, {"type": "way", "id": 266170759, "nodes": [2717545409, 2717545413, 2717545599, 1753134755, 2717545585, 2717545409], "tags": {"addr:city": "New York", "addr:housenumber": "134", "addr:postcode": "10036", "addr:state": "NY", "addr:street": "West 46th Street", "amenity": "pub", "building": "yes", "height": "16.0", "name": "O\u2019Brien\u2019s", "nycdoitt:bin": "1022646", "official_name": "O\u2019Brien\u2019s Pub & Restaurant", "website": "https://www.obriensnyc.com/"}}, {"type": "way", "id": 266170760, "nodes": [2717545159, 1753098061, 2717545186, 2717545189, 2717545295, 2717545281, 2717545159], "tags": {"addr:city": "New York", "addr:housenumber": "123", "addr:postcode": "10036", "addr:state": "NY", "addr:street": "West 45th Street", "amenity": "pub", "building": "yes", "building:colour": "#CDC7AF", "building:levels": "5", "height": "16.6", "name": "Perfect Pint", "nycdoitt:bin": "1022657", "official_name": "The Perfect Pint", "roof:material": "concrete", "roof:shape": "flat", "website": "http://www.theperfectpintnyc.com/"}}, {"type": "way", "id": 266234914, "nodes": [2718031097, 2718031090, 2718031100, 2718031112, 2718031099, 2718031097], "tags": {"amenity": "pub", "building": "yes", "height": "16.6", "name": "Baker Street Pub", "nycdoitt:bin": "1045377"}}, {"type": "way", "id": 280623165, "nodes": [2847059447, 2847059444, 2847059446, 2847059443, 2847059439, 2847059437, 2847059442, 2847059440, 2847059239, 2847059251, 2847059412, 2847059447], "tags": {"addr:city": "Long Island City", "addr:housenumber": "5-14", "addr:postcode": "11101", "addr:street": "51st Avenue", "amenity": "pub", "atm": "no", "building": "yes", "building:levels": "2", "cuisine": "american", "food": "yes", "height": "17", "internet_access": "no", "microbrewery": "yes", "name": "Alewife Queens", "nycdoitt:bin": "4000185", "opening_hours": "Th-Fr 16:00-03:00; Sa-Su 11:00-01:00; Mo-We 16:00-01:00", "outdoor_seating": "no", "phone": "+17189377494", "smoking": "no", "takeaway": "no", "website": "https://www.alewifequeens.com", "wheelchair": "yes"}}, {"type": "way", "id": 421187341, "nodes": [4209978775, 4209978774, 10248126866, 4209978776, 4209978778, 4209978777, 4209978780, 4209978779, 4209978781, 4209978782, 4209978785, 4209978783, 4209978772, 4209978763, 10248126867, 10248126865, 4209978775], "tags": {"addr:city": "Jersey City", "addr:housenumber": "788", "addr:postcode": "07305", "addr:state": "NJ", "addr:street": "Garfield Avenue", "amenity": "pub", "building": "yes", "contact:facebook": "olearyspublikhouse", "contact:instagram": "olearyspublikhouse", "contact:twitter": "opublik", "delivery": "yes", "delivery:partner": "uber_eats", "name": "O'Leary's Publik House", "opening_hours": "Su-Th 11:00-02:00; Fr, Sa 11:00-03:00", "phone": "+1 201-435-7269", "takeaway": "yes", "website": "https://ophjc.com"}}, {"type": "way", "id": 443261093, "nodes": [4408715556, 4408715557, 4408715558, 4408715559, 4408715560, 4408715561, 4408715556], "tags": {"addr:city": "New York", "addr:housenumber": "301", "addr:postcode": "10280", "addr:state": "NY", "addr:street": "South End Avenue", "amenity": "pub", "building": "yes", "cuisine": "pub", "delivery": "yes", "name": "Treadwell Park", "opening_hours": "Mo-Fr 11:30-23:00; Sa-Su 11:00-23:00", "takeaway": "yes"}}, {"type": "way", "id": 450218996, "nodes": [4471416190, 4471415767, 4471415766, 4471415776, 4471415785, 4471415788, 4471416190], "tags": {"addr:city": "Hoboken", "addr:housenumber": "1405", "addr:postcode": "07030", "addr:state": "NJ", "addr:street": "Grand Street", "amenity": "pub", "building": "yes", "name": "Carpe Diem", "opening_hours": "Mo-Th 16:00-02:00; Fr 16:00-03:00; Sa 11:00-03:00; Su 11:00-02:00", "phone": "+1 (201) 792-0050", "website": "https://www.carpediemhoboken.com/"}}, {"type": "way", "id": 570798209, "nodes": [5487456235, 5487456231, 5487456233, 5487456232, 5487456230, 5487456733, 5487456234, 5487456229, 5487456235], "tags": {"amenity": "pub", "building": "roof", "cocktails": "yes", "cuisine": "seafood;pub", "drink:beer": "draught", "drink:liquor": "yes", "drink:wine": "yes", "name": "Island Oyster", "outdoor_seating": "only", "website": "https://crewny.com/island-oyster"}}, {"type": "way", "id": 674136717, "nodes": [6313220809, 2568885163, 2568885182, 2568885161, 2568885204, 2568885192, 2568885167, 720075075, 10148679036, 10148136561, 2568885233, 10148679027, 2568885256, 2568885261, 2568885326, 484072995, 10148679035, 2568885375, 2568885239, 2568885175, 2568885145, 6313220809], "tags": {"addr:housenumber": "618", "addr:postcode": "11238", "addr:street": "Saint Johns Place", "amenity": "pub", "atm": "yes", "cocktails": "yes", "cuisine": "burger;american;brunch", "diet:vegan": "limited", "diet:vegetarian": "yes", "drink:beer": "draught", "drink:liquor": "yes", "drink:wine": "yes", "happy_hours": "Mo-Tu 12:00-19:00,24:00-02:00; We-Fr 12:00-19:00; Sa-Su 11:00-16:00", "internet_access": "wlan", "level": "0", "name": "Franklin Park", "opening_hours": "Mo-Th 12:00-01:00; Fr-Sa 12:00-02:00; Su 12:00-24:00", "opening_hours:kitchen": "Mo-Su 12:00-24:00", "outdoor_seating": "yes", "phone": "+1-718-230-0293", "toilets": "yes", "toilets:unisex": "yes", "toilets:wheelchair": "no", "website": "https://franklinparkbrooklyn.com", "wheelchair": "limited"}}, {"type": "way", "id": 975290224, "nodes": [2824829234, 2824829239, 3738776600, 9025308625, 2824829212, 2824829206, 2824829234], "tags": {"addr:city": "New York", "addr:housenumber": "45", "addr:postcode": "10004", "addr:state": "NY", "addr:street": "Stone Street", "amenity": "pub", "contact:facebook": "https://www.facebook.com/thedublinernyc", "contact:instagram": "https://instagram.com/thedublinernyc/", "contact:twitter": "https://twitter.com/thedublinernyc", "cuisine": "irish", "email": "heather@dublinernyc.com", "name": "The Dubliner", "opening_hours": "Mo-We, Sa 11:00-01:00; Th, Fr 11:00-03:00; Su 11:00-24:00", "outdoor_seating": "street", "phone": "+1 212-785-5400", "reservation": "yes", "theme": "irish", "website": "http://dublinernyc.com/", "wheelchair": "limited"}}, {"type": "way", "id": 1115907819, "nodes": [2762571872, 2762571841, 1667405946, 10206479347, 10206479348, 2762571740, 2762571708, 2762571753, 2762571853, 2762571872], "tags": {"addr:housenumber": "2153", "addr:postcode": "10026", "addr:street": "Frederick Douglass Boulevard", "amenity": "pub", "cocktails": "yes", "cuisine": "pub", "drink:beer": "draught", "drink:liquor": "yes", "drink:wine": "yes", "height": "4.7", "name": "Harlem Tavern", "opening_hours": "Mo-Th 12:00-24:00; Fr-Sa 12:00-01:00; Su 12:00-24:00", "outdoor_seating": "yes", "phone": "+1-212-866-4500", "toilets": "yes", "toilets:unisex": "yes", "website": "https://harlemtavern.com"}}]}