{"version": 0.6, "generator": "Overpass API 0.7.60.2 e4cf9f7a", "osm3s": {"timestamp_osm_base": "2023-05-02T19:59:26Z", "copyright": "The data included in this document is from www.openstreetmap.org. The data is made available under ODbL."}, "elements": [{"type": "node", "id": 654195879, "lat": 41.0296378, "lon": 28.9740843, "tags": {"addr:city": "Istanbul", "addr:housenumber": "3", "addr:postcode": "34430", "addr:street": "\u015eehbender Soka\u011f\u0131, T\u00fcnel-Asmal\u0131mescit-Beyo\u011flu", "amenity": "nightclub", "name": "Babylon", "name:ar": "\u0628\u0627\u0628\u064a\u0644\u0648\u0646", "url": "http://www.babylon.com.tr/"}}, {"type": "node", "id": 654207749, "lat": 41.0351309, "lon": 28.9772861, "tags": {"addr:full": "Kameriye Sokak No:10 Nevizade, Galatasaray Istanbul", "amenity": "nightclub", "name": "Peyote", "name:ar": "\u0628\u0650\u064a\u0648\u062a\u064a", "url": "http://www.peyote.com.tr/"}}, {"type": "node", "id": 811076131, "lat": 41.0345095, "lon": 28.9766394, "tags": {"addr:city": "\u0130stanbul", "addr:district": "Beyo\u011flu", "addr:full": "Kalyoncu Kulluk Caddesi 10, Istanbul", "addr:housenumber": "7/1", "addr:neighbourhood": "Kamer Hatun Mahallesi", "addr:postcode": "34435", "addr:street": "Nevizade Soka\u011f\u0131", "amenity": "nightclub", "name": "Ghetto Corner", "name:ar": "\u0646\u0627\u062f\u064a \u062c\u064a\u062a\u0648 \u0627\u0644\u0644\u064a\u0644\u064a", "opening_hours": "23:00-09:00", "operator": "Ghetto Corner", "smoking": "isolated", "tourism": "yes", "website": "https://www.instagram.com/nighteventsistanbul"}}, {"type": "node", "id": 1915390157, "lat": 41.0354287, "lon": 28.9802016, "tags": {"addr:city": "Beyo\u011flu/\u0130stanbul", "addr:housenumber": "9", "addr:street": "At\u0131f Y\u0131lmaz Caddesi", "amenity": "nightclub", "name": "Depo Taksim", "opening_hours": "03:00-12:00"}}, {"type": "node", "id": 2469886147, "lat": 40.9536149, "lon": 29.0943172, "tags": {"amenity": "nightclub", "name": "Angels Club"}}, {"type": "node", "id": 2469886152, "lat": 40.9528849, "lon": 29.0961842, "tags": {"amenity": "nightclub", "name": "Dedikodulu"}}, {"type": "node", "id": 2509874516, "lat": 41.0326057, "lon": 28.9769834, "tags": {"amenity": "nightclub", "name": "Tektek\u00e7i"}}, {"type": "node", "id": 2509874539, "lat": 41.0351885, "lon": 28.9781246, "tags": {"addr:housenumber": "31/B", "addr:street": "Balo Sokak", "amenity": "nightclub", "name": "Machine", "opening_hours": "We, Fr, Sa 22:00-05:00", "phone": "0212 249 25 31", "website": "http://www.machineistanbul.com"}}, {"type": "node", "id": 2509875588, "lat": 41.035891, "lon": 28.982625, "tags": {"addr:housenumber": "7", "addr:street": "Zambak Sokak", "amenity": "nightclub", "name": "Wake Up Call", "opening_hours": "Mo-Sa 22:00-05:00", "phone": "0212 293 76 39"}}, {"type": "node", "id": 3657448724, "lat": 41.0361431, "lon": 28.9806079, "tags": {"amenity": "nightclub", "name": "Bigudi", "name:zh": "\u6bd4\u8c37\u5e95\u9152\u5427"}}, {"type": "node", "id": 4770577021, "lat": 41.035303, "lon": 28.9793984, "tags": {"amenity": "nightclub", "name": "BEAT", "name:tr": "BEAT"}}, {"type": "node", "id": 4831213353, "lat": 40.98956, "lon": 29.0225269, "tags": {"amenity": "nightclub", "name": "Dorock XL"}}, {"type": "node", "id": 4852111522, "lat": 41.0443756, "lon": 29.0066552, "tags": {"addr:city": "\u0130stanbul", "addr:district": "Be\u015fikta\u015f", "addr:housenumber": "26", "addr:neighbourhood": "Cihann\u00fcma Mahallesi,", "addr:postcode": "34353", "addr:street": "Akmaz\u00e7e\u015fme Soka\u011f\u0131", "amenity": "nightclub", "name": "If Performance Hall", "name:tr": "If Performance"}}, {"type": "node", "id": 4889905039, "lat": 41.0348151, "lon": 28.977076, "tags": {"amenity": "nightclub", "name": "Ritim", "name:en": "Ritim", "name:tr": "Ritim"}}, {"type": "node", "id": 6116727788, "lat": 41.0355228, "lon": 28.9793656, "tags": {"amenity": "nightclub", "name:en": "Glow"}}, {"type": "node", "id": 6116727789, "lat": 41.0329351, "lon": 28.9775207, "tags": {"amenity": "nightclub", "name:en": "Pixie"}}, {"type": "node", "id": 6116804087, "lat": 41.0324329, "lon": 28.984629, "tags": {"amenity": "nightclub", "name:en": "Minimuzikhol"}}, {"type": "node", "id": 6173319585, "lat": 41.0302416, "lon": 29.1819902, "tags": {"amenity": "nightclub", "name": "berk\u2019s"}}, {"type": "node", "id": 6185570322, "lat": 41.0309043, "lon": 28.9737224, "tags": {"amenity": "nightclub", "name": "Pablo", "wheelchair": "limited"}}, {"type": "node", "id": 6271723391, "lat": 41.0324648, "lon": 28.9846458, "tags": {"addr:housenumber": "3", "addr:postcode": "34433", "addr:street": "Soganc\u0131 Sk.", "amenity": "nightclub", "name": "Minim\u00fczikhol", "name:tr": "Minim\u00fczikhol"}}, {"type": "node", "id": 6879165600, "lat": 41.0345453, "lon": 29.0403854, "tags": {"amenity": "nightclub", "name": "Gece Nakka\u015ftepe"}}, {"type": "node", "id": 6935785932, "lat": 40.9923274, "lon": 29.1117165, "tags": {"amenity": "nightclub", "club": "sport", "name": "S\u00fcsl\u00fc Konak;Ata\u015fehir Tenis Spor Kul\u00fcb\u00fc"}}, {"type": "node", "id": 7128475563, "lat": 41.0426825, "lon": 28.9871259, "tags": {"amenity": "nightclub", "lgbtq": "primary", "name": "Superfabric"}}, {"type": "node", "id": 10075851913, "lat": 40.9636705, "lon": 29.0684251, "tags": {"addr:city": "\u0130stanbul", "addr:district": "Kad\u0131k\u00f6y", "addr:housenumber": "17", "addr:neighbourhood": "Caddebostan Mahallesi", "addr:postcode": "34728", "addr:street": "Erenk\u00f6y Camii Soka\u011f\u0131", "amenity": "nightclub", "contact:instagram": "nispetclub", "name": "Nispet", "website": "http://nispet.com.tr/"}}, {"type": "node", "id": 10178075387, "lat": 40.9903284, "lon": 29.0276034, "tags": {"addr:street": "K\u0131rtasiyeci Sokak", "amenity": "nightclub", "name": "Bade76"}}]}