{"version": 0.6, "generator": "Overpass API 0.7.60 f4c14d41", "osm3s": {"timestamp_osm_base": "2023-05-02T21:18:20Z", "copyright": "The data included in this document is from www.openstreetmap.org. The data is made available under ODbL."}, "elements": [{"type": "node", "id": 311073584, "lat": 13.7274447, "lon": 100.5334988, "tags": {"amenity": "bar", "name": "Molly Malone's", "name:en": "Molly Malones"}}, {"type": "node", "id": 478536604, "lat": 13.720795, "lon": 100.5280414, "tags": {"amenity": "bar", "name": "Hu'u Bar"}}, {"type": "node", "id": 670274486, "lat": 13.7392395, "lon": 100.5556686, "tags": {"amenity": "bar", "designation": "BJ Bar", "name": "Lolita's", "website": "http://www.lolitasbangkok.com/"}}, {"type": "node", "id": 674061337, "lat": 13.7178353, "lon": 100.5531811, "tags": {"amenity": "bar"}}, {"type": "node", "id": 674061338, "lat": 13.7181271, "lon": 100.5531489, "tags": {"amenity": "bar", "name": "Indy tree bar"}}, {"type": "node", "id": 776746053, "lat": 13.7415321, "lon": 100.5530394, "tags": {"amenity": "bar", "name": "Big Dog's"}}, {"type": "node", "id": 776746274, "lat": 13.7601131, "lon": 100.5027895, "tags": {"amenity": "bar", "name": "The Family", "tourism": "hotel"}}, {"type": "node", "id": 776746282, "lat": 13.7630189, "lon": 100.4986705}, {"type": "node", "id": 897193058, "lat": 13.8395004, "lon": 100.5742195, "tags": {"amenity": "bar", "name": "The Play"}}, {"type": "node", "id": 942311647, "lat": 13.8922149, "lon": 100.5605209, "tags": {"addr:city": "Bangkok", "addr:district": "Khet Lak Si", "addr:housenumber": "307", "addr:street": "\u0e0b\u0e2d\u0e22\u0e04\u0e38\u0e13\u0e27\u0e34\u0e40\u0e27\u0e35\u0e22\u0e19", "addr:subdistrict": "Khwaeng Thung Song Hong", "amenity": "bar", "name": "\u0e40\u0e2d\u0e40\u0e1a\u0e35\u0e22\u0e23\u0e4c\u0e42\u0e2e\u0e21\u0e1a\u0e32\u0e23\u0e4c\u0e41\u0e2d\u0e19\u0e14\u0e4c\u0e41\u0e01\u0e25\u0e40\u0e25\u0e2d\u0e23\u0e35\u0e48", "name:en": "aBeer Home Bar & Gallery", "opening_hours": "Mo-Su 17:00-00:00", "phone": "0830380634"}}, {"type": "node", "id": 1097723846, "lat": 13.7620197, "lon": 100.4935959, "tags": {"amenity": "bar", "name": "Jazz Happens"}}, {"type": "node", "id": 1239208685, "lat": 13.7305467, "lon": 100.5323211, "tags": {"amenity": "bar", "lgbtq": "primary", "name": "Boys Bangkok \u0433\u0435\u0438"}}, {"type": "node", "id": 1239208686, "lat": 13.7306043, "lon": 100.5322996, "tags": {"amenity": "bar", "lgbtq": "primary", "name": "Dream Boy"}}, {"type": "node", "id": 1346710573, "lat": 13.7591942, "lon": 100.4968826, "tags": {"amenity": "bar", "name": "Silk Bar"}}, {"type": "node", "id": 1359758188, "lat": 13.7592261, "lon": 100.4953383, "tags": {"amenity": "bar", "name": "Gazebo"}}, {"type": "node", "id": 1359843426, "lat": 13.7585971, "lon": 100.4984729, "tags": {"amenity": "bar", "name": "Brick Bar", "wheelchair": "yes"}}, {"type": "node", "id": 1359843432, "lat": 13.7556631, "lon": 100.5033034, "tags": {"amenity": "bar", "name": "Club Culture"}}, {"type": "node", "id": 1374638038, "lat": 13.8461336, "lon": 100.575738, "tags": {"amenity": "bar", "name": "\u0e23\u0e49\u0e32\u0e19\u0e42\u0e04\u0e49\u0e07\u0e2a\u0e31\u0e15\u0e27\u0e41\u0e1e\u0e17\u0e22\u0e4c"}}, {"type": "node", "id": 1414158877, "lat": 13.7542485, "lon": 100.6270479, "tags": {"amenity": "bar", "name": "Dream Pub"}}, {"type": "node", "id": 1414158878, "lat": 13.7543215, "lon": 100.6268283, "tags": {"amenity": "bar", "name": "3rd Pub"}}, {"type": "node", "id": 1597520234, "lat": 13.8395442, "lon": 100.5733728, "tags": {"amenity": "bar", "name:en": "Bann Phoen"}}, {"type": "node", "id": 1618710941, "lat": 13.7522661, "lon": 100.4982287, "tags": {"amenity": "bar"}}, {"type": "node", "id": 1678653018, "lat": 13.7283505, "lon": 100.5328854, "tags": {"amenity": "bar", "name": "Tapas Bar Club"}}, {"type": "node", "id": 1678679140, "lat": 13.7445515, "lon": 100.5559684, "tags": {"amenity": "bar", "name": "The Nest", "website": "www.nest-bangkok.com"}}, {"type": "node", "id": 1687384715, "lat": 13.6964692, "lon": 100.4078537, "tags": {"amenity": "bar", "name": "\u0e2b\u0e32\u0e14\u0e2b\u0e31\u0e27\u0e2b\u0e34\u0e19"}}, {"type": "node", "id": 1705391791, "lat": 13.7888497, "lon": 100.5953667, "tags": {"addr:postcode": "10310", "addr:street": "\u0e25\u0e32\u0e14\u0e1e\u0e23\u0e49\u0e32\u0e27 64 \u0e41\u0e22\u0e01 4", "amenity": "bar", "name": "\u0e1a\u0e32\u0e19\u0e0a\u0e37\u0e48\u0e19\u0e23\u0e37\u0e48\u0e19\u0e2d\u0e32\u0e23\u0e21\u0e13\u0e4c", "wifi": "yes"}}, {"type": "node", "id": 1720469693, "lat": 13.7331614, "lon": 100.5628593, "tags": {"amenity": "bar", "cuisine": "thai;european", "name": "Palm @18", "opening_hours": "Mo-Su 10:00-24:00", "phone": "081-989-4584", "restaurant": "yes"}}, {"type": "node", "id": 1811000341, "lat": 13.7618109, "lon": 100.4944747}, {"type": "node", "id": 1811000367, "lat": 13.7618902, "lon": 100.4945737}, {"type": "node", "id": 1811000447, "lat": 13.7618352, "lon": 100.4946203}, {"type": "node", "id": 1811000479, "lat": 13.7617559, "lon": 100.4945214}, {"type": "node", "id": 1932279682, "lat": 13.7279272, "lon": 100.5304878, "tags": {"amenity": "bar", "name": "Woodball"}}, {"type": "node", "id": 2065920181, "lat": 13.7419704, "lon": 100.5438502, "tags": {"amenity": "bar", "image": "http://farm9.staticflickr.com/8353/8382689201_9f70bfc7ed_m.jpg", "level": "0", "name": "Cafe Trio Jazz bar & Art Gallery", "phone": "+6622526572"}}, {"type": "node", "id": 2066072188, "lat": 13.7419919, "lon": 100.5436886, "tags": {"alcohol": "yes", "amenity": "bar", "contact:email": "info@wineloft.com", "contact:phone": "+6626521965", "contact:website": "www.wineloft.com", "cuisine": "steak;pasta;spagetti", "image": "http://farm9.staticflickr.com/8194/8382663361_6a07f3b273_m.jpg", "level": "1", "name": "Wine Loft", "opening_hours": "11:00-24:00", "payment:credit_cards": "yes", "price": "2,000 baht up", "reservation": "yes"}}, {"type": "node", "id": 2066285686, "lat": 13.7796255, "lon": 100.545086, "tags": {"amenity": "bar", "name": "HOBS (House of Beer)", "opening_hours": "17:00-01:00"}}, {"type": "node", "id": 2071777006, "lat": 13.7799401, "lon": 100.5450185, "tags": {"amenity": "bar", "level": "0", "name": "Hobs Away", "opening_hours": "11:00-01:00"}}, {"type": "node", "id": 2074262438, "lat": 13.7210341, "lon": 100.56903, "tags": {"amenity": "bar", "name": "Five wine bar"}}, {"type": "node", "id": 2077991939, "lat": 13.7589218, "lon": 100.4974577, "tags": {"amenity": "bar", "level": "2", "name": "Roof Bar"}}, {"type": "node", "id": 2099204248, "lat": 13.7043729, "lon": 100.501964, "tags": {"amenity": "bar"}}, {"type": "node", "id": 2099204249, "lat": 13.7043782, "lon": 100.5017627, "tags": {"amenity": "bar"}}, {"type": "node", "id": 2099204252, "lat": 13.7044536, "lon": 100.5018674, "tags": {"amenity": "bar"}}, {"type": "node", "id": 2099204256, "lat": 13.7042188, "lon": 100.5018728, "tags": {"amenity": "bar", "contact:website": "http://www.checkmatebarbistro.com/", "cuisine": "thai", "name": "Checkmate Bar & Bistro", "opening_hours": "Mo-Su 17:00-23:00", "payment:cash": "yes", "payment:mastercard": "yes", "payment:visa": "yes", "phone": "+66895035206;+66818664055", "price_range": "251 - 500 bath", "wifi": "free"}}, {"type": "node", "id": 2103957087, "lat": 13.7050353, "lon": 100.5022268, "tags": {"amenity": "bar", "email": "info.happyfish@gmail.com", "name": "HAPPY FISH", "phone": "+6621084498;+66830159988", "time": "Mo-Su 17:30-01:00", "wifi": "no"}}, {"type": "node", "id": 2106611484, "lat": 13.7051187, "lon": 100.5023072, "tags": {"amenity": "bar"}}, {"type": "node", "id": 2111898181, "lat": 13.8341995, "lon": 100.6118726, "tags": {"amenity": "bar", "facebook": "thehobs", "image": "http://pic.free.in.th/id/15ca392cde34ddd3fc93494982c6b064", "name": "hobs", "opening_hours": "Mo-Su 17:00-01:00", "phone": "+6629070936"}}, {"type": "node", "id": 2111898187, "lat": 13.8341969, "lon": 100.611827, "tags": {"amenity": "bar", "cuisine": "japanese;italian;thai", "facebook": "tellmewineandcuisine", "image": "http://pic.free.in.th/id/c330cb5d124eb2833a5ec06e72e1d945", "level": "0", "name": "tell me wine", "opening_hours": "Mo-Su 18:00-01:00", "phone": "+6629070502;+6629070503"}}, {"type": "node", "id": 2111937279, "lat": 13.8341839, "lon": 100.6116286, "tags": {"amenity": "bar", "name": "SlamDunk"}}, {"type": "node", "id": 2130613996, "lat": 13.7035887, "lon": 100.5027872, "tags": {"amenity": "bar"}}, {"type": "node", "id": 2156864010, "lat": 13.7212222, "lon": 100.5170726, "tags": {"amenity": "bar", "name": "Sky Bar", "name:en": "Sky Bar", "opening_hours": "Mo-Su 18:00-01:00", "wikidata": "Q23306140", "wikipedia": "en:Sky Bar (Bangkok)"}}, {"type": "node", "id": 2162064025, "lat": 13.7630481, "lon": 100.4986883}, {"type": "node", "id": 2162064028, "lat": 13.7630858, "lon": 100.4985524}, {"type": "node", "id": 2162064030, "lat": 13.7631153, "lon": 100.4985697}, {"type": "node", "id": 2162462905, "lat": 13.7631168, "lon": 100.4987091, "tags": {"amenity": "bar", "internet_access": "no", "name": "Asahi", "smoking": "yes"}}, {"type": "node", "id": 2248118008, "lat": 13.7390853, "lon": 100.558436, "tags": {"addr:housename": "Four Points by Sheraton", "addr:street": "Sukhumvit Soi 15", "amenity": "bar", "name": "BeerVault", "source": "(66)(2)(309-3000)", "website": "https://www.starwoodhotels.com/fourpoints/property/dining/index.html?propertyID=3409"}}, {"type": "node", "id": 2248136596, "lat": 13.74155, "lon": 100.5558579, "tags": {"addr:street": "Sukhumvit Soi 7/1", "amenity": "bar", "name": "The Pickled Liver", "source": "+66 2 651 1114", "website": "http://thepickledliver.com/"}}, {"type": "node", "id": 2248151306, "lat": 13.7433481, "lon": 100.5405146, "tags": {"addr:housename": "Grand Hyatt Erawan Hotel", "addr:street": "Ratchadamri Rd", "amenity": "bar", "name": "Bar@494", "website": "https://bangkok.grand.hyatt.com/hyatt/hotels-bangkok-grand/entertainment/dining_detail.jsp?itemDesc=fboutlet&itemId=1000112"}}, {"type": "node", "id": 2248228766, "lat": 13.7317603, "lon": 100.564805, "tags": {"addr:housename": "Queen's Park Plaza", "addr:street": "Sukhumvit Soi 22", "amenity": "bar", "name": "Sport 20-2"}}, {"type": "node", "id": 2248242323, "lat": 13.7329418, "lon": 100.5650606, "tags": {"addr:street": "Soi 22, Khlong Toei", "amenity": "bar", "name": "Titanium Club & Ice Bar", "source": "+66 2 258 3758", "website": "https://titaniumbangkok.com/"}}, {"type": "node", "id": 2305925283, "lat": 13.7604849, "lon": 100.5030547, "tags": {"addr:city": "Bangkok", "addr:housenumber": "19", "addr:street": "Prachathipatai Road", "amenity": "bar", "name": "Zoo bar", "phone": "+6626293376", "website": "https://www.facebook.com/pages/Zoo/332586263520077"}}, {"type": "node", "id": 2398070817, "lat": 13.7286197, "lon": 100.5327679, "tags": {"amenity": "bar", "name": "Telephone Pub", "wheelchair": "no"}}, {"type": "node", "id": 2398070818, "lat": 13.7286757, "lon": 100.5328443, "tags": {"amenity": "bar", "name": "The Balcony"}}, {"type": "node", "id": 2398818334, "lat": 13.7594375, "lon": 100.4975278, "tags": {"amenity": "bar", "name": "Bangkok Bar"}}, {"type": "node", "id": 2398818339, "lat": 13.7592667, "lon": 100.4979404, "tags": {"amenity": "bar", "name": "Cinnamon Bar"}}, {"type": "node", "id": 2398821652, "lat": 13.7596041, "lon": 100.4986279, "tags": {"amenity": "bar", "name": "tam-sa-bai", "name:en": "Noodle Soup"}}, {"type": "node", "id": 2398862893, "lat": 13.760381, "lon": 100.4964529, "tags": {"amenity": "bar", "wheelchair": "limited"}}, {"type": "node", "id": 2402006210, "lat": 13.7627186, "lon": 100.4944763, "tags": {"amenity": "bar", "name": "Comme"}}, {"type": "node", "id": 2402013970, "lat": 13.7625001, "lon": 100.4998349, "tags": {"amenity": "bar"}}, {"type": "node", "id": 2402013971, "lat": 13.7629517, "lon": 100.4999713, "tags": {"amenity": "bar"}}, {"type": "node", "id": 2402016149, "lat": 13.7639364, "lon": 100.499565, "tags": {"amenity": "bar", "name": "Little Bar"}}, {"type": "node", "id": 2402042275, "lat": 13.7601926, "lon": 100.4941266, "tags": {"amenity": "bar", "name": "Gypsy's Lips"}}, {"type": "node", "id": 2402047597, "lat": 13.7596928, "lon": 100.4987104, "tags": {"amenity": "bar", "name": "Red Deep", "wheelchair": "no"}}, {"type": "node", "id": 2402667070, "lat": 13.7291428, "lon": 100.5320885, "tags": {"alt_name": "SOL", "amenity": "bar", "designation": "BJ Bar", "name": "Star of Light", "wifi": "no"}}, {"type": "node", "id": 2402683385, "lat": 13.7412464, "lon": 100.5557456, "tags": {"addr:city": "Bangkok", "addr:housenumber": "131/31", "addr:street": "\u0e16\u0e19\u0e19\u0e2a\u0e38\u0e02\u0e38\u0e21\u0e27\u0e34\u0e17 \u0e0b\u0e2d\u0e227/1", "amenity": "bar", "designation": "BJ Bar", "name": "Dr BJ's Salon", "website": "http://bjbarbangkok.com/"}}, {"type": "node", "id": 2404144637, "lat": 13.762664, "lon": 100.4944006, "tags": {"amenity": "bar", "cuisine": "noodles", "name:en": "Nai Soi Noodle (80-100B)", "name:ko": "\ub098\uc774\uc3d8\uc774(\uace0\uae30\uad6d\uc218 80-100\ubc27)"}}, {"type": "node", "id": 2404586668, "lat": 13.7592479, "lon": 100.4960533, "tags": {"amenity": "bar", "name": "Hippie de Bar"}}, {"type": "node", "id": 2405887484, "lat": 13.7590623, "lon": 100.497806, "tags": {"amenity": "bar", "name": "Sanook"}}, {"type": "node", "id": 2405888431, "lat": 13.7589146, "lon": 100.4977691, "tags": {"amenity": "bar", "name": "Sunset Bar"}}, {"type": "node", "id": 2405894770, "lat": 13.7562992, "lon": 100.4985255, "tags": {"amenity": "bar", "name": "Tak Sura"}}, {"type": "node", "id": 2425075615, "lat": 13.7622298, "lon": 100.494133, "tags": {"amenity": "bar"}}, {"type": "node", "id": 2426274451, "lat": 13.7620814, "lon": 100.4949227}, {"type": "node", "id": 2426274452, "lat": 13.7621538, "lon": 100.4948613}, {"type": "node", "id": 2426274453, "lat": 13.7621622, "lon": 100.4950238}, {"type": "node", "id": 2426274455, "lat": 13.7622346, "lon": 100.4949624}, {"type": "node", "id": 2428628558, "lat": 13.7593824, "lon": 100.4986128, "tags": {"amenity": "bar", "name": "Lomprayah (Ship Office)", "name:ru": "\u0440\u0435\u0433\u0438\u0441\u0442\u0440\u0430\u0446\u0438\u044f \u0442\u0443\u0442", "name:zh": "\u53bb\u9f9f\u5c9b\u7684\u8f66\u8239\u7968", "shop": "travel_agency", "wheelchair": "no"}}, {"type": "node", "id": 2428799934, "lat": 13.7589521, "lon": 100.4977071, "tags": {"amenity": "bar", "name": "Sabai Bar"}}, {"type": "node", "id": 2428973199, "lat": 13.7591735, "lon": 100.4959493, "tags": {"amenity": "bar", "name": "The Fabulous"}}, {"type": "node", "id": 2429807777, "lat": 13.759505, "lon": 100.4982021, "tags": {"amenity": "bar"}}, {"type": "node", "id": 2429807833, "lat": 13.7601437, "lon": 100.496932, "tags": {"amenity": "bar", "name": "Au-Thong"}}, {"type": "node", "id": 2429807837, "lat": 13.7603408, "lon": 100.4967132, "tags": {"amenity": "bar", "wheelchair": "no"}}, {"type": "node", "id": 2511199368, "lat": 13.7369287, "lon": 100.5626005, "tags": {"amenity": "bar"}}, {"type": "node", "id": 2511199372, "lat": 13.7369478, "lon": 100.5623949, "tags": {"addr:street": "Soi Cowboy", "amenity": "bar", "name:en": "Moonshine Joint"}}, {"type": "node", "id": 2511199374, "lat": 13.7379009, "lon": 100.5622431, "tags": {"amenity": "bar", "name": "Shark"}}, {"type": "node", "id": 2511199378, "lat": 13.7369907, "lon": 100.5619099, "tags": {"amenity": "bar", "name": "Rawhide"}}, {"type": "node", "id": 2511199381, "lat": 13.7370118, "lon": 100.5616698, "tags": {"amenity": "bar", "name": "The Corner"}}, {"type": "node", "id": 2511199383, "lat": 13.737017, "lon": 100.5626353, "tags": {"amenity": "bar", "name": "Baccara"}}, {"type": "node", "id": 2511199387, "lat": 13.7370399, "lon": 100.562403, "tags": {"amenity": "bar"}}, {"type": "node", "id": 2511199389, "lat": 13.7370593, "lon": 100.5621954, "tags": {"addr:street": "\u0e16\u0e19\u0e19\u0e2a\u0e38\u0e02\u0e38\u0e21\u0e27\u0e34\u0e17 \u0e0b\u0e2d\u0e2223", "amenity": "bar", "name": "Sahara"}}, {"type": "node", "id": 2511199392, "lat": 13.7370901, "lon": 100.5619049, "tags": {"amenity": "bar", "name": "Deja Vu"}}, {"type": "node", "id": 2511199395, "lat": 13.7371121, "lon": 100.5617005, "tags": {"amenity": "bar", "internet_access": "wlan", "internet_access:fee": "no", "level": "0", "name": "Country Road", "outdoor_seating": "yes", "payment:cash": "yes", "payment:coins": "yes", "payment:credit_cards": "yes", "payment:debit_cards": "yes", "payment:mastercard": "yes", "payment:notes": "yes", "payment:visa": "yes", "toilets": "yes"}}, {"type": "node", "id": 2512680820, "lat": 13.7514077, "lon": 100.5317953, "tags": {"amenity": "bar", "name": "73 Bar", "name:en": "73 Bar"}}, {"type": "node", "id": 2512680822, "lat": 13.7506604, "lon": 100.5321785, "tags": {"amenity": "bar", "food": "yes", "internet_access": "wlan", "name": "Chilling House cafe", "outdoor_seating": "yes", "source": "Survey"}}, {"type": "node", "id": 2512680824, "lat": 13.751545, "lon": 100.531985, "tags": {"amenity": "bar", "name": "Skate Cafe", "name:en": "Skate Cafe - Couchsurfing meetup", "source": "Survey"}}, {"type": "node", "id": 2512680827, "lat": 13.751652, "lon": 100.532306, "tags": {"amenity": "bar", "food": "yes", "name": "Chang", "source": "Survey"}}, {"type": "node", "id": 2512680831, "lat": 13.751683, "lon": 100.532029, "tags": {"amenity": "bar", "internet_access": "wlan", "name": "Muay Thai", "outdoor_seating": "yes", "source": "Survey"}}, {"type": "node", "id": 2512680837, "lat": 13.751869, "lon": 100.5318537, "tags": {"amenity": "bar"}}, {"type": "node", "id": 2525302471, "lat": 13.7326473, "lon": 100.5649558, "tags": {"amenity": "bar", "name": "Underground Bar & Cafe"}}, {"type": "node", "id": 2592655818, "lat": 13.7370748, "lon": 100.5620421, "tags": {"addr:street": "Soi Cowboy", "amenity": "bar", "name": "Tilac bar", "smoking": "outside"}}, {"type": "node", "id": 2777701643, "lat": 13.759429, "lon": 100.497013, "tags": {"amenity": "bar", "name": "Happy bar"}}, {"type": "node", "id": 2900166433, "lat": 13.7448048, "lon": 100.5348739, "tags": {"amenity": "bar", "name": "Bar @ Siam Square"}}, {"type": "node", "id": 2900166437, "lat": 13.7477105, "lon": 100.5386241, "tags": {"amenity": "bar", "name": "Red Sky", "name:en": "Red Sky Bar", "name:th": "Red Sky Bar", "phone": "+66 2 100 6255", "website": "https://www.centarahotelsresorts.com/redsky/"}}, {"type": "node", "id": 2900166438, "lat": 13.7475173, "lon": 100.526935, "tags": {"amenity": "bar", "name": "The Roof"}}, {"type": "node", "id": 2987126897, "lat": 13.7498252, "lon": 100.510211, "tags": {"amenity": "bar", "name": "Hlung Raak Bar (First House)"}}, {"type": "node", "id": 3048486989, "lat": 13.7332291, "lon": 100.5650639, "tags": {"amenity": "bar", "name": "Buddy's"}}, {"type": "node", "id": 3048492513, "lat": 13.7326327, "lon": 100.5650484, "tags": {"amenity": "bar", "name": "Honey House Cafe & Restaurant"}}, {"type": "node", "id": 3083236049, "lat": 13.7260564, "lon": 100.5258029, "tags": {"amenity": "bar", "name": "Scarlett Wine Bar and Restaurant"}}, {"type": "node", "id": 3083236051, "lat": 13.7235648, "lon": 100.51428, "tags": {"amenity": "bar", "name": "The Bamboo Bar"}}, {"type": "node", "id": 3084085276, "lat": 13.7383421, "lon": 100.5886342, "tags": {"amenity": "bar", "name": "Tuba"}}, {"type": "node", "id": 3086094821, "lat": 13.7546204, "lon": 100.4865393, "tags": {"amenity": "bar", "name": "\u0e15\u0e25\u0e34\u0e48\u0e07\u0e1a\u0e32\u0e23\u0e4c", "name:en": "Taling Bar"}}, {"type": "node", "id": 3086094822, "lat": 13.7287786, "lon": 100.5113027, "tags": {"amenity": "bar", "name": "Three Sixty Lounge"}}, {"type": "node", "id": 3222785088, "lat": 13.797112, "lon": 100.6499742}, {"type": "node", "id": 3222785089, "lat": 13.7972856, "lon": 100.6498716}, {"type": "node", "id": 3222785090, "lat": 13.7973217, "lon": 100.6499778}, {"type": "node", "id": 3222785091, "lat": 13.7973079, "lon": 100.6500521}, {"type": "node", "id": 3222785092, "lat": 13.7973767, "lon": 100.6501777}, {"type": "node", "id": 3222785093, "lat": 13.7972598, "lon": 100.6502361}, {"type": "node", "id": 3245009564, "lat": 13.7324895, "lon": 100.5822447, "tags": {"addr:street": "Thong Lor Soi 10", "amenity": "bar", "name": "Wine Republic"}}, {"type": "node", "id": 3245774361, "lat": 13.7322942, "lon": 100.5828233, "tags": {"amenity": "bar", "name": "Bombay Blues"}}, {"type": "node", "id": 3245774364, "lat": 13.7334408, "lon": 100.5812873, "tags": {"amenity": "bar", "name": "Fat Gut'z"}}, {"type": "node", "id": 3253374182, "lat": 13.7452072, "lon": 100.5390491, "tags": {"amenity": "bar", "name": "Heaven"}}, {"type": "node", "id": 3256755658, "lat": 13.7323387, "lon": 100.5826542, "tags": {"amenity": "bar", "name": "Bangkok Bar"}}, {"type": "node", "id": 3256756062, "lat": 13.7345511, "lon": 100.5829866, "tags": {"addr:street": "\u0e0b\u0e2d\u0e22\u0e2a\u0e38\u0e02\u0e38\u0e21\u0e27\u0e34\u0e17 55", "amenity": "bar", "internet_access": "wlan", "name": "Mellow"}}, {"type": "node", "id": 3256756064, "lat": 13.7343762, "lon": 100.5830879, "tags": {"amenity": "bar", "name": "She Bar"}}, {"type": "node", "id": 3257290009, "lat": 13.73466, "lon": 100.5827445}, {"type": "node", "id": 3257290011, "lat": 13.7346971, "lon": 100.5826331}, {"type": "node", "id": 3257290013, "lat": 13.7347385, "lon": 100.5827722}, {"type": "node", "id": 3257290014, "lat": 13.7347756, "lon": 100.5826608}, {"type": "node", "id": 3258826170, "lat": 13.734141, "lon": 100.5797375, "tags": {"amenity": "bar", "name": "Tribeca"}}, {"type": "node", "id": 3281220925, "lat": 13.732486, "lon": 100.5857136}, {"type": "node", "id": 3281220928, "lat": 13.7325231, "lon": 100.5859383}, {"type": "node", "id": 3281220929, "lat": 13.732564, "lon": 100.5855329}, {"type": "node", "id": 3281220930, "lat": 13.7326834, "lon": 100.5855845}, {"type": "node", "id": 3283296728, "lat": 13.6618033, "lon": 100.4026718, "tags": {"amenity": "bar", "name": "\u0e21\u0e35\u0e2a\u0e38\u0e02\u0e04\u0e32\u0e23\u0e32\u0e42\u0e2d\u0e40\u0e01\u0e30"}}, {"type": "node", "id": 3286552782, "lat": 13.7326645, "lon": 100.5822892, "tags": {"amenity": "bar", "name": "Nang Kwak"}}, {"type": "node", "id": 3287444808, "lat": 13.7375297, "lon": 100.588771, "tags": {"amenity": "bar", "name": "Destiny"}}, {"type": "node", "id": 3289219637, "lat": 13.7339765, "lon": 100.5649249}, {"type": "node", "id": 3289219638, "lat": 13.7340191, "lon": 100.5648598}, {"type": "node", "id": 3289219639, "lat": 13.7340465, "lon": 100.5649786}, {"type": "node", "id": 3289219640, "lat": 13.7340905, "lon": 100.5649107}, {"type": "node", "id": 3308150594, "lat": 13.7333493, "lon": 100.5814951, "tags": {"amenity": "bar", "name": "Bon Bon Bar"}}, {"type": "node", "id": 3308150595, "lat": 13.7332159, "lon": 100.5813473, "tags": {"amenity": "bar", "name": "Clouds"}}, {"type": "node", "id": 3308150597, "lat": 13.7337734, "lon": 100.5811927, "tags": {"amenity": "bar", "name": "Sab Bar"}}, {"type": "node", "id": 3308150633, "lat": 13.7345138, "lon": 100.5811179}, {"type": "node", "id": 3308150634, "lat": 13.7345494, "lon": 100.5809887}, {"type": "node", "id": 3308150636, "lat": 13.7346512, "lon": 100.5811284}, {"type": "node", "id": 3308150638, "lat": 13.7346851, "lon": 100.5810096}, {"type": "node", "id": 3308183538, "lat": 13.7324067, "lon": 100.5858824}, {"type": "node", "id": 3309232379, "lat": 13.7323773, "lon": 100.5827605, "tags": {"amenity": "bar", "name": "Desi Beats"}}, {"type": "node", "id": 3309232381, "lat": 13.7325003, "lon": 100.5828034, "tags": {"amenity": "bar", "name": "Hotaru"}}, {"type": "node", "id": 3309232382, "lat": 13.7321752, "lon": 100.5824838, "tags": {"amenity": "bar", "name": "Romane"}}, {"type": "node", "id": 3316149343, "lat": 13.7308883, "lon": 100.5816227, "tags": {"amenity": "bar", "name": "Wine Collection"}}, {"type": "node", "id": 3316629480, "lat": 13.7339612, "lon": 100.5798609, "tags": {"amenity": "bar", "name": "Woodstock"}}, {"type": "node", "id": 3317028664, "lat": 13.7148399, "lon": 100.5942398, "tags": {"amenity": "bar", "name": "Ice Cream Cocktails"}}, {"type": "node", "id": 3317028667, "lat": 13.7145726, "lon": 100.594169, "tags": {"amenity": "bar"}}, {"type": "node", "id": 3317028678, "lat": 13.7156031, "lon": 100.5942192, "tags": {"amenity": "bar", "name": "Cheers"}}, {"type": "node", "id": 3322433006, "lat": 13.7369659, "lon": 100.5830643, "tags": {"amenity": "bar", "name": "Kwan"}}, {"type": "node", "id": 3335073542, "lat": 13.7322658, "lon": 100.5822295, "tags": {"amenity": "bar", "name": "Pick Me Up"}}, {"type": "node", "id": 3346270055, "lat": 13.7447969, "lon": 100.540733, "tags": {"amenity": "bar", "name": "Le Champagne"}}, {"type": "node", "id": 3411187317, "lat": 13.7294477, "lon": 100.5864881, "tags": {"amenity": "bar", "name": "Happy Monday"}}, {"type": "node", "id": 3412740979, "lat": 13.7317368, "lon": 100.5649935, "tags": {"amenity": "bar", "name": "Popeye 2 bar"}}, {"type": "node", "id": 3454380066, "lat": 13.733679, "lon": 100.5672733, "tags": {"amenity": "bar", "name": "Vari massaggi"}}, {"type": "node", "id": 3468373285, "lat": 13.7434827, "lon": 100.5565323, "tags": {"amenity": "bar", "name": "Ava"}}, {"type": "node", "id": 3468373287, "lat": 13.7433763, "lon": 100.5565175, "tags": {"amenity": "bar", "name": "Hillary Bar"}}, {"type": "node", "id": 3474966042, "lat": 13.7445137, "lon": 100.5729664, "tags": {"amenity": "bar", "name": "The Waxing Bar"}}, {"type": "node", "id": 3479105768, "lat": 13.7400457, "lon": 100.558333, "tags": {"alt_name": "Ara Karaoke", "amenity": "bar", "name": "Roma Karaoke"}}, {"type": "node", "id": 3490686675, "lat": 13.7395388, "lon": 100.5559624, "tags": {"amenity": "bar", "name": "Viva"}}, {"type": "node", "id": 3525611684, "lat": 13.7401662, "lon": 100.552259, "tags": {"amenity": "bar", "name": "Paradise Club"}}, {"type": "node", "id": 3525616566, "lat": 13.7396451, "lon": 100.5526345, "tags": {"amenity": "bar", "name": "Chaos 9"}}, {"type": "node", "id": 3525968920, "lat": 13.7337489, "lon": 100.5679049, "tags": {"amenity": "bar", "name": "Darkside Bar"}}, {"type": "node", "id": 3536107975, "lat": 13.7629063, "lon": 100.4994899, "tags": {"amenity": "bar", "name": "Cha's Bar"}}, {"type": "node", "id": 3536107978, "lat": 13.7628241, "lon": 100.4996381, "tags": {"amenity": "bar", "name": "Monster Bar"}}, {"type": "node", "id": 3544876145, "lat": 13.7282199, "lon": 100.561193, "tags": {"amenity": "bar", "name": "Bar 23"}}, {"type": "node", "id": 3544883109, "lat": 13.7414904, "lon": 100.5576706, "tags": {"amenity": "bar", "name": "Sportsman"}}, {"type": "node", "id": 3544883110, "lat": 13.732406, "lon": 100.5684563, "tags": {"amenity": "bar", "name": "Royal Oak"}}, {"type": "node", "id": 3676274854, "lat": 13.7230002, "lon": 100.5184573, "tags": {"addr:housenumber": "320", "addr:street": "Silom Road", "amenity": "bar", "name": "Maggie Choo", "phone": "026356055"}}, {"type": "node", "id": 3718445437, "lat": 13.7733932, "lon": 100.5713025, "tags": {"amenity": "bar", "name": "Mustache Bar"}}, {"type": "node", "id": 3724581567, "lat": 13.7860267, "lon": 100.5714437, "tags": {"amenity": "bar", "name": "60's Tree Bar"}}, {"type": "node", "id": 3778156485, "lat": 13.7398952, "lon": 100.5654595, "tags": {"amenity": "bar", "name": "Outer Room"}}, {"type": "node", "id": 3836982950, "lat": 13.7435304, "lon": 100.5439474, "tags": {"amenity": "bar", "name": "Octagon Bar"}}, {"type": "node", "id": 3860194629, "lat": 13.7389226, "lon": 100.5579997, "tags": {"amenity": "bar", "name": "Thermae"}}, {"type": "node", "id": 3877799800, "lat": 13.7384769, "lon": 100.5577371, "tags": {"amenity": "bar", "name": "The Lollipop 1"}}, {"type": "node", "id": 3877985913, "lat": 13.7370329, "lon": 100.5599165, "tags": {"amenity": "bar", "name": "The Players", "sport": "billiards"}}, {"type": "node", "id": 3906215070, "lat": 13.7046423, "lon": 100.5956024, "tags": {"amenity": "bar", "name": "Drink Drank Drunk"}}, {"type": "node", "id": 3932310495, "lat": 13.812548, "lon": 100.5600096, "tags": {"amenity": "bar"}}, {"type": "node", "id": 3933952862, "lat": 13.8128541, "lon": 100.560742, "tags": {"amenity": "bar"}}, {"type": "node", "id": 3933952863, "lat": 13.8129224, "lon": 100.5600674, "tags": {"amenity": "bar"}}, {"type": "node", "id": 3933952864, "lat": 13.8129531, "lon": 100.5605746, "tags": {"amenity": "bar"}}, {"type": "node", "id": 3933952865, "lat": 13.8130473, "lon": 100.5603926, "tags": {"amenity": "bar"}}, {"type": "node", "id": 3933952866, "lat": 13.8131581, "lon": 100.5602179, "tags": {"amenity": "bar", "name": "\u0e1b\u0e32\u0e40\u0e15\u0e4a\u0e30", "name:en": "Pat\u00e9 Bar"}}, {"type": "node", "id": 3964240458, "lat": 13.7443233, "lon": 100.5564845, "tags": {"amenity": "bar", "name": "wxyz"}}, {"type": "node", "id": 3964249867, "lat": 13.7448514, "lon": 100.5568999, "tags": {"amenity": "bar", "name": "Brew"}}, {"type": "node", "id": 3964249868, "lat": 13.743795, "lon": 100.5565468, "tags": {"amenity": "bar", "name": "Kazbar"}}, {"type": "node", "id": 3964250069, "lat": 13.7449522, "lon": 100.556023, "tags": {"amenity": "bar", "name": "Flow"}}, {"type": "node", "id": 3977890871, "lat": 13.7393763, "lon": 100.5139407, "tags": {"addr:housenumber": "221", "addr:street": "\u0e0b\u0e2d\u0e22\u0e19\u0e32\u0e19\u0e32", "amenity": "bar", "cuisine": "spanish", "internet_access": "wlan", "name": "El Chiringuito", "opening_hours": "Th-Su 18:00-00:00", "outdoor_seating": "yes", "toilets:access": "customers", "toilets:wheelchair": "no", "wheelchair": "no"}}, {"type": "node", "id": 3977891083, "lat": 13.7399456, "lon": 100.5139823, "tags": {"amenity": "bar", "name": "Teens of Thailand"}}, {"type": "node", "id": 3977891362, "lat": 13.7395913, "lon": 100.5138241, "tags": {"amenity": "bar", "name": "Bar gallery - 23"}}, {"type": "node", "id": 3977891363, "lat": 13.7396043, "lon": 100.5143618, "tags": {"amenity": "bar", "name": "Tep bar"}}, {"type": "node", "id": 4047305433, "lat": 13.7335536, "lon": 100.5651534, "tags": {"amenity": "bar", "name": "Otto Bar", "wheelchair": "no"}}, {"type": "node", "id": 4047312056, "lat": 13.7382772, "lon": 100.5631365, "tags": {"amenity": "bar", "name": "Wisgars", "smoking": "isolated"}}, {"type": "node", "id": 4054014117, "lat": 13.7349921, "lon": 100.5821961, "tags": {"amenity": "bar", "brewery": "yes", "name": "Beer Cap"}}, {"type": "node", "id": 4142540090, "lat": 13.7410857, "lon": 100.5557225, "tags": {"addr:street": "\u0e16\u0e19\u0e19\u0e2a\u0e38\u0e02\u0e38\u0e21\u0e27\u0e34\u0e17 \u0e0b\u0e2d\u0e227/1", "amenity": "bar", "name": "Eden Club", "website": "https://edenbangkok.com/login/login.php"}}, {"type": "node", "id": 4156016547, "lat": 13.7371602, "lon": 100.5580821, "tags": {"addr:city": "Bangkok", "addr:housenumber": "5/1-3", "addr:postcode": "10110", "addr:street": "Sukhumvit 12 (Soi Suk Chai)", "amenity": "bar", "name": "The Den"}}, {"type": "node", "id": 4217129823, "lat": 13.7193759, "lon": 100.7761246, "tags": {"amenity": "bar", "name": "The Lung Country Pub"}}, {"type": "node", "id": 4217155694, "lat": 13.7201995, "lon": 100.7761331, "tags": {"amenity": "bar", "name": "@One Bar"}}, {"type": "node", "id": 4217155695, "lat": 13.7203252, "lon": 100.7761371, "tags": {"amenity": "bar", "name": "Fin Bar"}}, {"type": "node", "id": 4217162589, "lat": 13.7200311, "lon": 100.7761278, "tags": {"amenity": "bar", "name": "Three Bar"}}, {"type": "node", "id": 4217162591, "lat": 13.7210358, "lon": 100.7761381, "tags": {"amenity": "bar", "name": "Sewana Bar"}}, {"type": "node", "id": 4217162790, "lat": 13.7215628, "lon": 100.7746368, "tags": {"amenity": "bar", "name": "The Peak"}}, {"type": "node", "id": 4220793890, "lat": 13.759362, "lon": 100.4960593, "tags": {"amenity": "bar", "name": "Oxxi's Bar"}}, {"type": "node", "id": 4223285990, "lat": 13.7317636, "lon": 100.565327, "tags": {"amenity": "bar", "name": "bit style"}}, {"type": "node", "id": 4223296791, "lat": 13.7331809, "lon": 100.5675959, "tags": {"amenity": "bar", "name": "7-heaven"}}, {"type": "node", "id": 4223364290, "lat": 13.7342318, "lon": 100.5660935, "tags": {"amenity": "bar", "name": "orange message"}}, {"type": "node", "id": 4223412508, "lat": 13.7589219, "lon": 100.5860905, "tags": {"addr:street": "\u0e16\u0e19\u0e19\u0e1e\u0e23\u0e30\u0e23\u0e32\u0e21 9", "amenity": "bar", "name": "victory secret ", "opening_hours": "Mo-Su 13:00-00:00", "phone": "+6623188370-3"}}, {"type": "node", "id": 4242300691, "lat": 13.7453115, "lon": 100.4908586, "tags": {"addr:housenumber": "39", "addr:street": "Thanon Mahathat", "amenity": "bar", "name": "Sala Ratthanakosin"}}, {"type": "node", "id": 4266266392, "lat": 13.7235507, "lon": 100.5804596, "tags": {"addr:city": "Bangkok", "addr:housenumber": "2", "addr:postcode": "10110", "addr:street": "Sukhumvit Soi 57", "amenity": "bar", "level": "45", "name": "Octave Roof Top Bar", "outdoor_seating": "yes", "phone": "027970000"}}, {"type": "node", "id": 4307307319, "lat": 13.7523021, "lon": 100.5748031, "tags": {"amenity": "bar", "name": "onyx bangkok"}}, {"type": "node", "id": 4346775770, "lat": 13.7657613, "lon": 100.500439, "tags": {"addr:housenumber": "170", "addr:street": "Samsen Soi 4", "amenity": "bar", "cuisine": "coffee_shop", "internet_access": "wlan", "name": "Snooze Coffee House", "opening_hours": "Mo-Su 08:00-17:00", "phone": "66982682940", "website": "http://www.facebook.com/CaffeineloverBKK/"}}, {"type": "node", "id": 4351603222, "lat": 13.7381417, "lon": 100.5575964, "tags": {"amenity": "bar", "name": "Check In bar"}}, {"type": "node", "id": 4353755094, "lat": 13.7827757, "lon": 100.5428064, "tags": {"addr:street": "\u0e0b\u0e2d\u0e22\u0e2d\u0e32\u0e23\u0e35\u0e22\u0e4c 4", "amenity": "bar", "description": "Note 675293: Local bar, live music", "internet_access": "wlan", "name": "Aree bar", "phone": "0615425535"}}, {"type": "node", "id": 4356324894, "lat": 13.7289144, "lon": 100.5318967, "tags": {"amenity": "bar", "name": "Music Cafe"}}, {"type": "node", "id": 4356839992, "lat": 13.7592004, "lon": 100.4965949, "tags": {"amenity": "bar", "name": "Cheap buckets"}}, {"type": "node", "id": 4356841691, "lat": 13.7593048, "lon": 100.4966503, "tags": {"amenity": "bar", "name": "La Lance", "wheelchair": "no"}}, {"type": "node", "id": 4361881690, "lat": 13.6273417, "lon": 100.370815, "tags": {"amenity": "bar"}}, {"type": "node", "id": 4402680989, "lat": 13.7181055, "lon": 100.5459767, "tags": {"amenity": "bar"}}, {"type": "node", "id": 4406611991, "lat": 13.7455483, "lon": 100.5560543, "tags": {"amenity": "bar", "name": "Hawana Beer Bar"}}, {"type": "node", "id": 4408378895, "lat": 13.7068316, "lon": 100.6056246, "tags": {"amenity": "bar"}}, {"type": "node", "id": 4408378897, "lat": 13.7068824, "lon": 100.6057037, "tags": {"amenity": "bar"}}, {"type": "node", "id": 4411709995, "lat": 13.7612461, "lon": 100.536519, "tags": {"amenity": "bar", "name": "Sky Train Jazz Bar", "name:de": "sky Train Jazz Club", "name:th": "Sky Train Jazz Bar"}}, {"type": "node", "id": 4460699217, "lat": 13.7304676, "lon": 100.5627951, "tags": {"amenity": "bar", "name": "Taqueria Bar"}}, {"type": "node", "id": 4464639192, "lat": 13.7067134, "lon": 100.6011298, "tags": {"amenity": "bar", "name:en": "The Corner 79"}}, {"type": "node", "id": 4466115703, "lat": 13.7026947, "lon": 100.6034534, "tags": {"amenity": "bar", "name:en": "Eighty Five Bar & Restaurant", "opening_hours": "Mo-Su 06:00-01:00"}}, {"type": "node", "id": 4470607990, "lat": 13.745528, "lon": 100.5558713, "tags": {"addr:housenumber": "28", "addr:postcode": "10110", "addr:street": "\u0e16\u0e19\u0e19\u0e2a\u0e38\u0e02\u0e38\u0e21\u0e27\u0e34\u0e17 \u0e0b\u0e2d\u0e2213", "amenity": "bar", "name:en": "Havana Social", "opening_hours": "Mo-Sa 18:00-02:00; Su 18:00-00:00"}}, {"type": "node", "id": 4474488367, "lat": 13.8015939, "lon": 100.5743996, "tags": {"amenity": "bar", "name": "Champions Sports Bar"}}, {"type": "node", "id": 4475532647, "lat": 13.7284852, "lon": 100.5701045, "tags": {"amenity": "bar", "name": "Bacchus"}}, {"type": "node", "id": 4484651858, "lat": 13.7341797, "lon": 100.5634547, "tags": {"amenity": "bar", "name": "Shag Bar 2"}}, {"type": "node", "id": 4484651859, "lat": 13.734001, "lon": 100.5635642, "tags": {"amenity": "bar", "name": "Top Secret"}}, {"type": "node", "id": 4508724195, "lat": 13.7567387, "lon": 100.4980535, "tags": {"amenity": "bar", "name": "Phra Nakorn Bar", "name:en": "Phra Nakorn Bar"}}, {"type": "node", "id": 4511703290, "lat": 13.8246544, "lon": 100.592916, "tags": {"amenity": "bar", "cuisine": "american", "name:en": "where do we go"}}, {"type": "node", "id": 4526249714, "lat": 13.7410609, "lon": 100.5890252, "tags": {"amenity": "bar"}}, {"type": "node", "id": 4526659791, "lat": 13.7427166, "lon": 100.5488974, "tags": {"amenity": "bar", "name:en": "Hair of the Dog"}}, {"type": "node", "id": 4541935392, "lat": 13.7223132, "lon": 100.5274481, "tags": {"addr:housenumber": "10", "addr:postcode": "10500", "addr:street": "Soi Sueksa Witthaya 1", "amenity": "bar", "name:en": "Revolucion Cocktailbar", "wheelchair": "yes"}}, {"type": "node", "id": 4553849422, "lat": 13.7319906, "lon": 100.5650208, "tags": {"amenity": "bar", "name:en": "Chao Siam"}}, {"type": "node", "id": 4554760891, "lat": 13.7411449, "lon": 100.555634, "tags": {"amenity": "bar", "name:en": "Down Under"}}, {"type": "node", "id": 4574126489, "lat": 13.7465007, "lon": 100.4905554, "tags": {"amenity": "bar", "name:es": "Buen pad tai"}}, {"type": "node", "id": 4589290041, "lat": 13.7281338, "lon": 100.5735064, "tags": {"addr:city": "Bangkok", "addr:postcode": "10110", "addr:street": "\u0e2a\u0e38\u0e02\u0e38\u0e21\u0e27\u0e34\u0e17 \u0e0b\u0e2d\u0e2245", "amenity": "bar", "name": "Sing Sing Theater"}}, {"type": "node", "id": 4593432891, "lat": 13.7334529, "lon": 100.5827339, "tags": {"amenity": "bar", "name:en": "T-Rex"}}, {"type": "node", "id": 4597550394, "lat": 13.7392867, "lon": 100.5600966, "tags": {"amenity": "bar", "name": "The Black Swan"}}, {"type": "node", "id": 4603791195, "lat": 13.7288982, "lon": 100.5348647, "tags": {"amenity": "bar", "name:en": "White Rabbit"}}, {"type": "node", "id": 4617236490, "lat": 13.741133, "lon": 100.5534053, "tags": {"amenity": "bar", "name:en": "Twister"}}, {"type": "node", "id": 4620777391, "lat": 13.7412437, "lon": 100.5528783, "tags": {"amenity": "bar", "name:en": "CI"}}, {"type": "node", "id": 4620817993, "lat": 13.7411431, "lon": 100.5528782, "tags": {"amenity": "bar", "name:en": "Melodies UK"}}, {"type": "node", "id": 4620842291, "lat": 13.82799, "lon": 100.5674824, "tags": {"amenity": "bar", "name:en": "Ochaya"}}, {"type": "node", "id": 4620842295, "lat": 13.828516, "lon": 100.5686275, "tags": {"amenity": "bar", "name:en": "Popcorn & Soft Drinks"}}, {"type": "node", "id": 4620843392, "lat": 13.8285304, "lon": 100.5687329, "tags": {"amenity": "bar", "name:en": "McCafe'"}}, {"type": "node", "id": 4620844191, "lat": 13.8281882, "lon": 100.5686907, "tags": {"amenity": "bar", "name:en": "Waft Me"}}, {"type": "node", "id": 4620844589, "lat": 13.8282397, "lon": 100.5678951, "tags": {"amenity": "bar", "name:en": "Mr. Shake"}}, {"type": "node", "id": 4620844590, "lat": 13.8284133, "lon": 100.5686075, "tags": {"amenity": "bar", "name:en": "S&P"}}, {"type": "node", "id": 4620846392, "lat": 13.8290841, "lon": 100.5695539, "tags": {"amenity": "bar", "name:en": "Meeting Point"}}, {"type": "node", "id": 4623046189, "lat": 13.7369828, "lon": 100.5619999, "tags": {"amenity": "bar", "name:en": "Long Gun"}}, {"type": "node", "id": 4630849389, "lat": 13.7369741, "lon": 100.5620883, "tags": {"amenity": "bar", "name:en": "cowboy 2"}}, {"type": "node", "id": 4630864189, "lat": 13.7370258, "lon": 100.562547, "tags": {"amenity": "bar", "name:en": "shark"}}, {"type": "node", "id": 4638473989, "lat": 13.7205057, "lon": 100.5376904, "tags": {"amenity": "bar", "name": "Smalls", "name:th": "Smalls"}}, {"type": "node", "id": 4640269890, "lat": 13.7416368, "lon": 100.5530378, "tags": {"amenity": "bar", "name:en": "Stumble Inn"}}, {"type": "node", "id": 4652871592, "lat": 13.7412124, "lon": 100.5533566, "tags": {"amenity": "bar", "name:en": "Temptations"}}, {"type": "node", "id": 4652871595, "lat": 13.7414843, "lon": 100.5531667, "tags": {"amenity": "bar", "name:en": "Straps"}}, {"type": "node", "id": 4652876298, "lat": 13.7414003, "lon": 100.553458, "tags": {"amenity": "bar", "name:en": "Casanova"}}, {"type": "node", "id": 4652876299, "lat": 13.7414317, "lon": 100.5534057, "tags": {"amenity": "bar", "name:en": "DC10"}}, {"type": "node", "id": 4652876300, "lat": 13.7415276, "lon": 100.5532423, "tags": {"amenity": "bar", "name:en": "Spankys"}}, {"type": "node", "id": 4652876301, "lat": 13.7415812, "lon": 100.553171, "tags": {"amenity": "bar", "name:en": "Chili"}}, {"type": "node", "id": 4652876302, "lat": 13.7415712, "lon": 100.5533059, "tags": {"amenity": "bar", "name:en": "Billboard"}}, {"type": "node", "id": 4652894892, "lat": 13.7414384, "lon": 100.5533052, "tags": {"amenity": "bar", "name:en": "Bangkok Bunnies"}}, {"type": "node", "id": 4652894893, "lat": 13.7412244, "lon": 100.5534636, "tags": {"amenity": "bar", "name:en": "Rainbow 2"}}, {"type": "node", "id": 4652901693, "lat": 13.7414563, "lon": 100.55324, "tags": {"amenity": "bar", "name:en": "Suckers"}}, {"type": "node", "id": 4652901694, "lat": 13.7412865, "lon": 100.553304, "tags": {"amenity": "bar", "name:en": "Rainbow"}}, {"type": "node", "id": 4652911893, "lat": 13.741168, "lon": 100.5534854, "tags": {"amenity": "bar", "name:en": "Rainbow 5"}}, {"type": "node", "id": 4652911894, "lat": 13.7415353, "lon": 100.5531878, "tags": {"amenity": "bar", "name:en": "Rainbow 3"}}, {"type": "node", "id": 4652935093, "lat": 13.7415176, "lon": 100.5533957, "tags": {"amenity": "bar", "name:en": "Enter"}}, {"type": "node", "id": 4652936691, "lat": 13.7413108, "lon": 100.5532463, "tags": {"amenity": "bar", "name:en": "Tiki"}}, {"type": "node", "id": 4652937389, "lat": 13.7412638, "lon": 100.5533662, "tags": {"amenity": "bar", "name:en": "Playskool"}}, {"type": "node", "id": 4652937489, "lat": 13.7412409, "lon": 100.5534182, "tags": {"amenity": "bar", "name:en": "London Calling"}}, {"type": "node", "id": 4652937490, "lat": 13.7410959, "lon": 100.5534832, "tags": {"amenity": "bar", "name:en": "Charadis"}}, {"type": "node", "id": 4652937689, "lat": 13.7412784, "lon": 100.5534959, "tags": {"amenity": "bar", "name:en": "True Obsession"}}, {"type": "node", "id": 4652937690, "lat": 13.7412811, "lon": 100.5531956, "tags": {"amenity": "bar", "name:en": "Mercury"}}, {"type": "node", "id": 4652937691, "lat": 13.7412603, "lon": 100.5532391, "tags": {"amenity": "bar", "name:en": "Mandarin"}}, {"type": "node", "id": 4652937692, "lat": 13.7412362, "lon": 100.5532956, "tags": {"amenity": "bar", "name:en": "Diamonds"}}, {"type": "node", "id": 4652937693, "lat": 13.7414619, "lon": 100.5533569, "tags": {"amenity": "bar", "name:en": "Sexy Night"}}, {"type": "node", "id": 4652937694, "lat": 13.7411642, "lon": 100.5532971, "tags": {"amenity": "bar", "name:en": "Butterflies"}}, {"type": "node", "id": 4652938389, "lat": 13.7414943, "lon": 100.5532988, "tags": {"amenity": "bar", "name:en": "Angelwitch"}}, {"type": "node", "id": 4652938989, "lat": 13.7416289, "lon": 100.5531332, "tags": {"amenity": "bar", "name:en": "Erotica"}}, {"type": "node", "id": 4663357894, "lat": 13.7370633, "lon": 100.5627188, "tags": {"amenity": "bar", "name:en": "Tiger"}}, {"type": "node", "id": 4663404301, "lat": 13.7369063, "lon": 100.5625984, "tags": {"amenity": "bar", "name:en": "Rio"}}, {"type": "node", "id": 4665562594, "lat": 13.7284723, "lon": 100.5322849, "tags": {"amenity": "bar", "name:en": "Bada Bing"}}, {"type": "node", "id": 4665562595, "lat": 13.7288002, "lon": 100.5321362, "tags": {"amenity": "bar", "name:en": "Black Pagoda"}}, {"type": "node", "id": 4665569200, "lat": 13.7286728, "lon": 100.5321941, "tags": {"amenity": "bar", "name:en": "Crystal Palace"}}, {"type": "node", "id": 4665576495, "lat": 13.7285098, "lon": 100.5324353, "tags": {"amenity": "bar", "name:en": "Electricblue"}}, {"type": "node", "id": 4665580292, "lat": 13.7283349, "lon": 100.5325454, "tags": {"amenity": "bar", "name:en": "The Strip"}}, {"type": "node", "id": 4665596791, "lat": 13.7282616, "lon": 100.5325799, "tags": {"amenity": "bar", "image": "https://images.mapillary.com/lPZ5hNLhShbdt1jz5cVfrg/thumb-2048.jpg", "mapillary": "487295832608894", "name:en": "Fetish BB"}}, {"type": "node", "id": 4665597494, "lat": 13.7287422, "lon": 100.5321618, "tags": {"amenity": "bar", "name:en": "Glamour"}}, {"type": "node", "id": 4665598094, "lat": 13.7285679, "lon": 100.5354868, "tags": {"amenity": "bar", "name:en": "Taruto"}}, {"type": "node", "id": 4665598098, "lat": 13.7289676, "lon": 100.5320656, "tags": {"amenity": "bar", "name:en": "King's Garden"}}, {"type": "node", "id": 4665598393, "lat": 13.7288556, "lon": 100.5321152, "tags": {"amenity": "bar", "name:en": "Cosmos"}}, {"type": "node", "id": 4665599092, "lat": 13.7285578, "lon": 100.5323752, "tags": {"amenity": "bar", "name:en": "Crowne Royal"}}, {"type": "node", "id": 4672077694, "lat": 13.7412502, "lon": 100.5528528, "tags": {"amenity": "bar", "name:en": "4"}}, {"type": "node", "id": 4698403489, "lat": 13.7223567, "lon": 100.5135725, "tags": {"amenity": "bar", "name:en": "Jack's Bar"}}, {"type": "node", "id": 4721724391, "lat": 13.7412168, "lon": 100.5534774, "tags": {"amenity": "bar", "name": "Rainbow", "name:th": "Rainbow", "opening_hours": "Mo-Su 21:00-01:00"}}, {"type": "node", "id": 4730198793, "lat": 13.7408103, "lon": 100.5557946, "tags": {"amenity": "bar"}}, {"type": "node", "id": 4753760035, "lat": 13.6516239, "lon": 100.4854407, "tags": {"amenity": "bar"}}, {"type": "node", "id": 4778503555, "lat": 13.6777988, "lon": 100.6361211, "tags": {"amenity": "bar", "name": "Lan Lom Udomsuk"}}, {"type": "node", "id": 4782393423, "lat": 13.7370712, "lon": 100.5623302, "tags": {"addr:street": "Soi Cowboy", "amenity": "bar", "name:en": "Suzie Wong"}}, {"type": "node", "id": 4783766643, "lat": 13.7291193, "lon": 100.5300361, "tags": {"amenity": "bar", "description": "Gay BDSM bar", "min_age": "18", "name": "Tawan Bar"}}, {"type": "node", "id": 4783966022, "lat": 13.7518024, "lon": 100.5751773, "tags": {"amenity": "bar", "name:zh": "\u9152\u5427\u8857RCA"}}, {"type": "node", "id": 4788162521, "lat": 13.7813968, "lon": 100.5740279, "tags": {"amenity": "bar", "name:en": "Oxa Pub & Restaurant"}}, {"type": "node", "id": 4788302041, "lat": 13.7234789, "lon": 100.5846572}, {"type": "node", "id": 4788302042, "lat": 13.7233363, "lon": 100.5846562}, {"type": "node", "id": 4788302043, "lat": 13.7233349, "lon": 100.5848182}, {"type": "node", "id": 4788302044, "lat": 13.7234759, "lon": 100.5848214}, {"type": "node", "id": 4788302045, "lat": 13.7234742, "lon": 100.5849}, {"type": "node", "id": 4788302046, "lat": 13.7233333, "lon": 100.5848968}, {"type": "node", "id": 4789268163, "lat": 13.7371054, "lon": 100.5618398, "tags": {"amenity": "bar", "name": "Lighthouse"}}, {"type": "node", "id": 4793620322, "lat": 13.7637579, "lon": 100.4991146, "tags": {"addr:housenumber": "75-77", "addr:street": "Samson Road", "amenity": "bar", "name:en": "The Bar Has No Name", "opening_hours": "Mo-Su 17:00-01:00"}}, {"type": "node", "id": 4809073623, "lat": 13.6997882, "lon": 100.604018, "tags": {"amenity": "bar", "name:en": "Books & Belongings"}}, {"type": "node", "id": 4809077322, "lat": 13.7757143, "lon": 100.543048, "tags": {"amenity": "bar", "name:en": "Future Factory Bangkok"}}, {"type": "node", "id": 4825202823, "lat": 13.7317173, "lon": 100.5305095, "tags": {"amenity": "bar", "name:en": "Telephone Bar"}}, {"type": "node", "id": 4826389166, "lat": 13.7071869, "lon": 100.50699, "tags": {"addr:city": "Bangkok", "addr:housenumber": "2074/99", "addr:postcode": "10120", "addr:street": "Soi Charoenkrung 72/2", "amenity": "bar", "name": "Top Knot", "outdoor_seating": "yes", "phone": "02-688-2596"}}, {"type": "node", "id": 4836792922, "lat": 13.7340745, "lon": 100.5651966, "tags": {"amenity": "bar", "name:en": "Grand Cafe the Green Parrot"}}, {"type": "node", "id": 4857502021, "lat": 13.7581592, "lon": 100.4987828, "tags": {"addr:street": "\u0e16\u0e19\u0e19\u0e02\u0e49\u0e32\u0e27\u0e2a\u0e32\u0e23", "amenity": "bar", "internet_access": "wlan", "name:en": "Rocco Bar (1976)"}}, {"type": "node", "id": 4863350621, "lat": 13.7213401, "lon": 100.5468426, "tags": {"addr:housenumber": "37/34", "addr:postcode": "10120", "addr:street": "\u0e0b\u0e2d\u0e22\u0e28\u0e23\u0e35\u0e1a\u0e33\u0e40\u0e1e\u0e47\u0e0d", "amenity": "bar", "name": "Wong's place", "name:en": "Wong's Place", "opening_hours": "Mo-Su 00:00-07:30", "phone": "+66819010235"}}, {"type": "node", "id": 4863815046, "lat": 13.7374842, "lon": 100.5150735, "tags": {"amenity": "bar", "description": "Rooftop bar of the Prime Hotel Central Station", "level": "11", "name": "Chyna", "outdoor_seating": "yes"}}, {"type": "node", "id": 4865406365, "lat": 13.7395229, "lon": 100.5653752, "tags": {"amenity": "bar", "name": "119 Bar & Bistro"}}, {"type": "node", "id": 4912232621, "lat": 13.9262718, "lon": 100.5912591, "tags": {"amenity": "bar", "internet_access": "wlan", "name:en": "Bar"}}, {"type": "node", "id": 4919239322, "lat": 13.7247772, "lon": 100.5631026, "tags": {"amenity": "bar", "name": "3 Bears Craft Brewery", "name:th": "3 Bears Craft Brewery"}}, {"type": "node", "id": 4939488208, "lat": 13.7652068, "lon": 100.5001256, "tags": {"addr:city": "Bangkok", "addr:housenumber": "160", "addr:postcode": "10200", "addr:street": "\u0e16\u0e19\u0e19\u0e2a\u0e32\u0e21\u0e40\u0e2a\u0e19", "amenity": "bar", "name": "Jools Bar", "opening_hours": "Mo-Su 10:00-23:59", "outdoor_seating": "yes", "phone": "+66 20 700 469", "smoking": "isolated"}}, {"type": "node", "id": 4945796921, "lat": 13.7285689, "lon": 100.5329463, "tags": {"amenity": "bar", "name:en": "Telephone Bar"}}, {"type": "node", "id": 4954022521, "lat": 13.7288027, "lon": 100.5327837, "tags": {"amenity": "bar", "internet_access": "wlan", "name:en": "Fork & Cork Jazz Bar"}}, {"type": "node", "id": 4967157524, "lat": 13.7636291, "lon": 100.4942909, "tags": {"amenity": "bar", "name": "Dock 13 / Sheepshank", "name:th": "Dock 13 / Sheepshank"}}, {"type": "node", "id": 4982959721, "lat": 13.7232495, "lon": 100.5842144, "tags": {"amenity": "bar", "name:en": "Iron Balls Gin Destillery"}}, {"type": "node", "id": 5008770421, "lat": 13.7436384, "lon": 100.5439615, "tags": {"addr:city": "Bangkok", "addr:postcode": "10330", "addr:street": "Mercury Tower", "amenity": "bar", "name": "Roof 409 Bar & Bistro", "opening_hours": "Mo-Su 11:00-00:00"}}, {"type": "node", "id": 5016427083, "lat": 13.7061613, "lon": 100.5989824, "tags": {"addr:city": "Bangkok", "addr:housenumber": "34/1", "addr:postcode": "10110", "addr:street": "\u0e2a\u0e38\u0e02\u0e38\u0e21\u0e27\u0e34\u0e17 50", "amenity": "bar", "name": "Dog Step"}}, {"type": "node", "id": 5026241422, "lat": 13.7452184, "lon": 100.4909057, "tags": {"addr:street": "\u0e17\u0e48\u0e32\u0e40\u0e23\u0e37\u0e2d\u0e41\u0e14\u0e07", "amenity": "bar", "name:en": "Eagle nest"}}, {"type": "node", "id": 5031805023, "lat": 13.7331122, "lon": 100.5671805, "tags": {"addr:street": "\u0e16\u0e19\u0e19\u0e2a\u0e38\u0e02\u0e38\u0e21\u0e27\u0e34\u0e17 \u0e0b\u0e2d\u0e2233", "amenity": "bar", "cuisine": "international", "name:en": "Checkinn99"}}, {"type": "node", "id": 5047028324, "lat": 13.7267998, "lon": 100.5316998, "tags": {"amenity": "bar", "name": "sky bar", "name:en": "Cloud 47", "name:th": "sky bar"}}, {"type": "node", "id": 5091973077, "lat": 13.7310067, "lon": 100.5814448, "tags": {"amenity": "bar", "cuisine": "tapas;wine", "name": "El Tapeo", "opening_hours": "Tu-Su 11:30-21:00"}}, {"type": "node", "id": 5137538221, "lat": 13.7415274, "lon": 100.5557956, "tags": {"amenity": "bar", "name:en": "Pickled liver"}}, {"type": "node", "id": 5139447081, "lat": 13.7296663, "lon": 100.5950255, "tags": {"addr:city": "Bangkok", "addr:street": "Pridi Bhanomyong Soi 31", "amenity": "bar", "building:level": "9", "name": "722 Craft Experience"}}, {"type": "node", "id": 5151213122, "lat": 13.7306201, "lon": 100.5322986, "tags": {"amenity": "bar", "name:en": "Dream Boy - Biw"}}, {"type": "node", "id": 5151216621, "lat": 13.7937733, "lon": 100.5971167, "tags": {"amenity": "bar", "name:en": "Bungalo"}}, {"type": "node", "id": 5172312817, "lat": 13.7363005, "lon": 100.5620463, "tags": {"amenity": "bar", "name": "Bangkok Heightz"}}, {"type": "node", "id": 5185051207, "lat": 13.7067364, "lon": 100.3746405, "tags": {"addr:city": "Bangkok", "addr:postcode": "10160", "addr:street": "\u0e16\u0e19\u0e19\u0e40\u0e1e\u0e0a\u0e23\u0e40\u0e01\u0e29\u0e21 69", "amenity": "bar", "contact:facebook": "https://www.facebook.com/pages/Craft-Oclock/1633353373383281", "contact:phone": "094 737 5668", "description": "Craft and imported beer, Thai and Western dishes, Savory bakeries", "name": "Bar Craft O'Clock", "name:he": "\u05d1\u05e8 \u05e7\u05e8\u05d0\u05e4\u05d8 \u05d0\u05d5'\u05e7\u05dc\u05d5\u05e7", "name:ja": "\u30af\u30e9\u30d5\u30c8\u30aa\u30af\u30ed\u30c3\u30af\u30d0\u30fc", "name:zh": "\u5de5\u827a\u65f6\u949f\u5427", "opening_hours": "Mo-Su 16:00-01:00", "outdoor_seating": "yes", "smoking": "outside", "website": "https://www.facebook.com/craftoclockbar/"}}, {"type": "node", "id": 5203903022, "lat": 13.7507947, "lon": 100.5118866, "tags": {"amenity": "bar", "internet_access": "wlan", "name": "The three musketbeers", "opening_hours": "Mo-Su 17:00-00:00"}}, {"type": "node", "id": 5219745322, "lat": 13.7272756, "lon": 100.5312665, "tags": {"amenity": "bar", "internet_access": "wlan", "name": "The Pintsman"}}, {"type": "node", "id": 5226570270, "lat": 13.6936818, "lon": 100.6454249}, {"type": "node", "id": 5226570271, "lat": 13.694042, "lon": 100.6453724}, {"type": "node", "id": 5226570272, "lat": 13.6941069, "lon": 100.6458445}, {"type": "node", "id": 5226570273, "lat": 13.6937468, "lon": 100.645897}, {"type": "node", "id": 5230304422, "lat": 13.7402202, "lon": 100.5140804, "tags": {"addr:housenumber": "8", "addr:postcode": "10100", "addr:street": "\u0e0b\u0e2d\u0e22\u0e19\u0e32\u0e19\u0e32", "amenity": "bar", "name:en": "Ha Bao", "opening_hours": "Mo-Su 18:00-00:00", "phone": "081 454 4959"}}, {"type": "node", "id": 5234480623, "lat": 13.7629234, "lon": 100.4988513, "tags": {"amenity": "bar", "internet_access": "wlan", "name:en": "Beer & Cider House", "opening_hours": "Mo-Su 07:30-23:30"}}, {"type": "node", "id": 5235805122, "lat": 13.7441206, "lon": 100.5565985, "tags": {"addr:housenumber": "29/1", "addr:street": "\u0e16\u0e19\u0e19\u0e2a\u0e38\u0e02\u0e38\u0e21\u0e27\u0e34\u0e17 \u0e0b\u0e2d\u0e2211", "amenity": "bar", "email": "info@baobabbarbangkok.com", "internet_access": "wlan", "name:en": "Baobab Bar", "opening_hours": "Mo-Su 17:00-03:00", "phone": "020599299", "website": "http://www.baobabbarbangkok.com"}}, {"type": "node", "id": 5285140722, "lat": 13.7162991, "lon": 100.5315882, "tags": {"amenity": "bar", "name:en": "Zoom Skybar & Restaurant"}}, {"type": "node", "id": 5291849624, "lat": 13.7742176, "lon": 100.5460602, "tags": {"amenity": "bar", "name:en": "rock pub"}}, {"type": "node", "id": 5291890521, "lat": 13.7539495, "lon": 100.5022912, "tags": {"amenity": "bar"}}, {"type": "node", "id": 5291946521, "lat": 13.7633952, "lon": 100.5446554, "tags": {"amenity": "bar"}}, {"type": "node", "id": 5294233522, "lat": 13.7345269, "lon": 100.5678153, "tags": {"amenity": "bar", "name": "Mitu Massage", "website": "http://mitubangkok.com"}}, {"type": "node", "id": 5301577226, "lat": 13.7890764, "lon": 100.4697749, "tags": {"amenity": "bar", "name": "Coppia"}}, {"type": "node", "id": 5301577227, "lat": 13.7892222, "lon": 100.4698446, "tags": {"amenity": "bar", "name": "\u0e43\u0e15\u0e49\u0e21\u0e38\u0e49\u0e07"}}, {"type": "node", "id": 5301577230, "lat": 13.7891571, "lon": 100.4708371, "tags": {"amenity": "bar", "name": "Runway Bar"}}, {"type": "node", "id": 5303210927, "lat": 13.7274342, "lon": 100.5308638, "tags": {"amenity": "bar", "name": "Whiteline"}}, {"type": "node", "id": 5305811124, "lat": 13.7229427, "lon": 100.5193688, "tags": {"amenity": "bar", "name:en": "whisgars", "name:fr": "Craft Silom"}}, {"type": "node", "id": 5322068499, "lat": 13.7340414, "lon": 100.5640148, "tags": {"amenity": "bar", "name": "SportsCorner Bangkok", "payment:bitcoincash": "yes", "website": "https://thesportcornerbkk.com"}}, {"type": "node", "id": 5327346322, "lat": 13.7437772, "lon": 100.5412634, "tags": {"amenity": "bar", "diet:vegan": "yes", "name:en": "Healthy Bar"}}, {"type": "node", "id": 5339320122, "lat": 13.711546, "lon": 100.586304, "tags": {"amenity": "bar", "name:en": "The Black Cabin"}}, {"type": "node", "id": 5348885822, "lat": 13.7366938, "lon": 100.5618417, "tags": {"amenity": "bar", "name:en": "Summer Smooth"}}, {"type": "node", "id": 5356835821, "lat": 13.7816009, "lon": 100.5741923, "tags": {"amenity": "bar", "name": "Board Game bar"}}, {"type": "node", "id": 5365430335, "lat": 13.7402679, "lon": 100.5141163, "tags": {"amenity": "bar", "name:en": "Pi Jiu Bar - craft beer"}}, {"type": "node", "id": 5372329542, "lat": 13.7242537, "lon": 100.5294738, "tags": {"alt_name": "Cloud47", "amenity": "bar", "internet_access": "wlan", "internet_access:fee": "no", "level": "9", "name": "Cloud9", "opening_hours": "Mo-Su 17:00-01:00", "outdoor_seating": "yes", "phone": "+66 91 889 9600", "toilets": "yes", "website": "https://cloud47bangkok.com/", "wheelchair": "no"}}, {"type": "node", "id": 5375855222, "lat": 13.8105337, "lon": 100.5641563, "tags": {"amenity": "bar", "name": "play yard"}}, {"type": "node", "id": 5380087921, "lat": 13.746596, "lon": 100.5113109, "tags": {"amenity": "bar", "name": "Let the boy die"}}, {"type": "node", "id": 5380313122, "lat": 13.7383517, "lon": 100.5150579, "tags": {"amenity": "bar", "name": "Copper"}}, {"type": "node", "id": 5394515421, "lat": 13.7369066, "lon": 100.5625741, "tags": {"amenity": "bar", "name:en": "Cockatoo Ladyboy Bar"}}, {"type": "node", "id": 5394515521, "lat": 13.7298751, "lon": 100.5318428, "tags": {"amenity": "bar", "name": "Pink Panther", "name:th": "Pink Panther"}}, {"type": "node", "id": 5394515522, "lat": 13.7602814, "lon": 100.4942681, "tags": {"amenity": "bar", "name": "Gangster Bar", "name:th": "Gangster Bar"}}, {"type": "node", "id": 5398501102, "lat": 13.7127907, "lon": 100.583122}, {"type": "node", "id": 5398501103, "lat": 13.7124037, "lon": 100.5831046}, {"type": "node", "id": 5398501104, "lat": 13.7123943, "lon": 100.5836422}, {"type": "node", "id": 5398501105, "lat": 13.7126836, "lon": 100.5836653}, {"type": "node", "id": 5398501106, "lat": 13.7127869, "lon": 100.5835648}, {"type": "node", "id": 5398507142, "lat": 13.712761, "lon": 100.5831206}, {"type": "node", "id": 5411866268, "lat": 13.7398355, "lon": 100.5141429, "tags": {"amenity": "bar", "name": "Asia today cocktail bar"}}, {"type": "node", "id": 5419861647, "lat": 13.8226704, "lon": 100.5269407, "tags": {"amenity": "bar", "name": "Bars?"}}, {"type": "node", "id": 5426091069, "lat": 13.7390672, "lon": 100.5095408, "tags": {"amenity": "bar"}}, {"type": "node", "id": 5444529518, "lat": 13.7130038, "lon": 100.5928289, "tags": {"amenity": "bar", "name": "F Bar", "opening_hours": "Tu-Su 17:15-24:00"}}, {"type": "node", "id": 5471369424, "lat": 13.9253122, "lon": 100.5933455, "tags": {"amenity": "bar", "cuisine": "seafood;barbecue;thai;local"}}, {"type": "node", "id": 5473901525, "lat": 13.7588735, "lon": 100.5036966, "tags": {"amenity": "bar", "name": "K\u016b bar"}}, {"type": "node", "id": 5486338221, "lat": 13.7298981, "lon": 100.5811206, "tags": {"amenity": "bar", "name": "Rabbit Hole"}}, {"type": "node", "id": 5549324922, "lat": 13.7460742, "lon": 100.4904006, "tags": {"amenity": "bar", "name:en": "Trok-Tha-Tian Rooftob bar & restaurant", "website": "http://facebook.com/trokthatian"}}, {"type": "node", "id": 5585815121, "lat": 13.7200971, "lon": 100.5481984, "tags": {"amenity": "bar", "name": "Secret Bar @ Sathorn", "opening_hours": "Mo-Su 16:00-00:00"}}, {"type": "node", "id": 5585816322, "lat": 13.7166062, "lon": 100.5898833, "tags": {"addr:housenumber": "1491", "addr:postcode": "10110", "addr:street": "\u0e0b\u0e2d\u0e22\u0e2a\u0e38\u0e02\u0e38\u0e21\u0e27\u0e34\u0e17 67", "amenity": "bar", "email": "homebar@wishbeer.com", "internet_access": "wlan", "name:en": "Wishbeer", "opening_hours": "Mo-Su 07:30-00:00", "phone": "02 392 1403", "website": "http://www.wishbeerhomebar.com"}}, {"type": "node", "id": 5615013121, "lat": 13.7643776, "lon": 100.4996499, "tags": {"amenity": "bar", "name": "Seb's Bar A.R. Travel"}}, {"type": "node", "id": 5626526522, "lat": 13.7285433, "lon": 100.5296656, "tags": {"amenity": "bar", "name": "Golden Cock 2pm on"}}, {"type": "node", "id": 5626526722, "lat": 13.7284438, "lon": 100.5295472, "tags": {"amenity": "bar"}}, {"type": "node", "id": 5636863421, "lat": 13.7286019, "lon": 100.5262308, "tags": {"amenity": "bar", "name:de": "Ping Pong"}}, {"type": "node", "id": 5694644158, "lat": 13.7506443, "lon": 100.5466843, "tags": {"addr:city": "Bangkok", "addr:housenumber": "1091/236", "addr:street": "Soi Petchburi 35 Alley", "amenity": "bar", "brewery": "yes", "name": "Fat Cow On The Roof", "outdoor_seating": "yes", "phone": "095-003-4911"}}, {"type": "node", "id": 5694774825, "lat": 13.7477432, "lon": 100.5384744, "tags": {"amenity": "bar", "name:zh": "Red Sky Bar"}}, {"type": "node", "id": 5713734221, "lat": 13.7094078, "lon": 100.4493472, "tags": {"amenity": "bar", "name:en": "Aso Pakin Sports Bar & Bistro"}}, {"type": "node", "id": 5732244225, "lat": 13.7403357, "lon": 100.5433569, "tags": {"amenity": "bar", "name:en": "Speakeasy Rooftop Bar"}}, {"type": "node", "id": 5774022453, "lat": 13.7285972, "lon": 100.5283212, "tags": {"amenity": "bar", "name": "Meet Armand!"}}, {"type": "node", "id": 5775385053, "lat": 13.784137, "lon": 100.5799184, "tags": {"addr:housenumber": "59", "addr:street": "\u0e23\u0e31\u0e0a\u0e14\u0e32\u0e20\u0e34\u0e40\u0e29\u0e01 18", "amenity": "bar", "name": "\u0e40\u0e2d\u0e40\u0e1a\u0e35\u0e22\u0e23\u0e4c\u0e42\u0e2e\u0e21\u0e1a\u0e32\u0e23\u0e4c \u0e23\u0e31\u0e0a\u0e14\u0e32 18", "name:en": "aBeer Home Bar Ratchada18", "opening_hours": "Mo-Su 17:00-00:00"}}, {"type": "node", "id": 5777166053, "lat": 13.7842021, "lon": 100.5800219, "tags": {"addr:street": "\u0e23\u0e31\u0e0a\u0e14\u0e32\u0e20\u0e34\u0e40\u0e29\u0e01 18", "amenity": "bar", "name": "\u0e40\u0e2d\u0e40\u0e1a\u0e35\u0e22\u0e23\u0e4c\u0e42\u0e2e\u0e21\u0e1a\u0e32\u0e23\u0e4c \u0e23\u0e31\u0e0a\u0e14\u0e3218", "name:en": "aBeer Home Bar Ratchada18", "opening_hours": "Mo-Su 17:00-00:00", "phone": "0830380634"}}, {"type": "node", "id": 5841535087, "lat": 13.7602504, "lon": 100.4986095, "tags": {"amenity": "bar", "name": "At-Mosphere skycaf\u00e9"}}, {"type": "node", "id": 5881066285, "lat": 13.7049396, "lon": 100.491239, "tags": {"amenity": "bar", "name:en": "Attitude Cocktail Bar", "opening_hours": "Mo-Su 17:30-01:00", "phone": "02 431 9120", "website": "http://attitudebangkok.com"}}, {"type": "node", "id": 5887797685, "lat": 13.7281157, "lon": 100.5678325, "tags": {"addr:street": "\u0e16\u0e19\u0e19\u0e2a\u0e38\u0e02\u0e38\u0e21\u0e27\u0e34\u0e17 \u0e0b\u0e2d\u0e22 24", "amenity": "bar", "internet_access": "wlan", "name": "AIRE", "name:en": "AIRE bar (Hyatt Place hotel)", "name:th": "AIRE bar (Hyatt Place hotel)", "opening_hours": "Mo-Su 18:00-00:00"}}, {"type": "node", "id": 5901540185, "lat": 13.7600896, "lon": 100.5028294, "tags": {"amenity": "bar"}}, {"type": "node", "id": 5917504165, "lat": 13.7636876, "lon": 100.538037}, {"type": "node", "id": 5917504166, "lat": 13.7636381, "lon": 100.5380069}, {"type": "node", "id": 5917504167, "lat": 13.7635684, "lon": 100.5381296}, {"type": "node", "id": 5917504168, "lat": 13.7636205, "lon": 100.5381577}, {"type": "node", "id": 5948975286, "lat": 13.7167765, "lon": 100.5474302, "tags": {"addr:housenumber": "15", "addr:street": "\u0e0b\u0e2d\u0e22\u0e40\u0e22\u0e47\u0e19\u0e2d\u0e32\u0e01\u0e32\u0e28", "amenity": "bar", "name:en": "Cactus", "opening_hours": "Tu-Su 17:00-02:00", "phone": "0834373515"}}, {"type": "node", "id": 6032448685, "lat": 13.727563, "lon": 100.5307688, "tags": {"addr:housenumber": "132/15", "amenity": "bar", "name:en": "Alter Hours"}}, {"type": "node", "id": 6036779085, "lat": 13.7400312, "lon": 100.514036, "tags": {"amenity": "bar", "name:en": "Beer Bar"}}, {"type": "node", "id": 6049182085, "lat": 13.7438935, "lon": 100.5427441, "tags": {"amenity": "bar", "name:en": "The One by Renaissance"}}, {"type": "node", "id": 6063443303, "lat": 13.7216242, "lon": 100.5662167, "tags": {"addr:city": "Bangkok", "addr:housenumber": "88/2,88/9", "addr:postcode": "10110", "addr:street": "Soi Sukhumvit 24 (Soi Attha Kawi)", "amenity": "bar", "name": "Sugar Ray", "opening_hours": "Tu-Mo 19:00-02:00", "phone": "094-417-9898"}}, {"type": "node", "id": 6067653485, "lat": 13.7448938, "lon": 100.4912463, "tags": {"amenity": "bar", "name": "The Deck"}}, {"type": "node", "id": 6105148485, "lat": 13.7383039, "lon": 100.5151164, "tags": {"amenity": "bar", "name:en": "Banmaitrachit"}}, {"type": "node", "id": 6109404085, "lat": 13.728151, "lon": 100.573137, "tags": {"amenity": "bar", "name": "Iron Balls"}}, {"type": "node", "id": 6114793485, "lat": 13.7583946, "lon": 100.4981526, "tags": {"addr:street": "\u0e16\u0e19\u0e19\u0e02\u0e49\u0e32\u0e27\u0e2a\u0e32\u0e23", "amenity": "bar", "cuisine": "local;regional;thai", "name:en": "Is Orange"}}, {"type": "node", "id": 6124532505, "lat": 13.7469997, "lon": 100.5275878, "tags": {"amenity": "bar", "brand": "Singha", "brand:wikidata": "Q2140520", "building": "kiosk", "colour": "yellow"}}, {"type": "node", "id": 6163747802, "lat": 13.7404888, "lon": 100.5612869, "tags": {"amenity": "bar", "name:en": "Ruby Blues"}}, {"type": "node", "id": 6163748689, "lat": 13.7374177, "lon": 100.562902, "tags": {"amenity": "bar", "name:en": "Murphy\u2019s Irish Pub"}}, {"type": "node", "id": 6167611385, "lat": 13.7380048, "lon": 100.563281, "tags": {"amenity": "bar", "name:en": "Little Wine Bar"}}, {"type": "node", "id": 6173217385, "lat": 13.7350407, "lon": 100.5639635, "tags": {"addr:street": "Sukhumvit Soi 27", "amenity": "bar", "name": "Brewski", "name:de": "Craft Beerbar Brewski"}}, {"type": "node", "id": 6174530885, "lat": 13.732211, "lon": 100.5824086, "tags": {"amenity": "bar", "name:en": "7th Street Bar & Bistro"}}, {"type": "node", "id": 6174530985, "lat": 13.7241391, "lon": 100.5789168, "tags": {"amenity": "bar", "name": "The Old English Pub", "name:en": "The Old English Pub"}}, {"type": "node", "id": 6183113085, "lat": 13.7785431, "lon": 100.5378795, "tags": {"amenity": "bar", "name:en": "Schneider Haus"}}, {"type": "node", "id": 6183125785, "lat": 13.7799569, "lon": 100.5436448, "tags": {"amenity": "bar", "name:en": "O\u2019Glee"}}, {"type": "node", "id": 6229399085, "lat": 13.7615702, "lon": 100.495685, "tags": {"amenity": "bar", "name": "My friend's bar"}}, {"type": "node", "id": 6241894685, "lat": 13.7613485, "lon": 100.4939696, "tags": {"amenity": "bar", "name": "Alley cat"}}, {"type": "node", "id": 6255804090, "lat": 13.7524456, "lon": 100.5021345, "tags": {"amenity": "bar", "cuisine": "thai;italian", "internet_access": "wlan", "name": "Swing Bar", "website": "https://www.chingchabangkok.com/"}}, {"type": "node", "id": 6263926889, "lat": 13.7288253, "lon": 100.5357191, "tags": {"addr:city": "\u0e41\u0e02\u0e27\u0e07\u0e2a\u0e35\u0e25\u0e21", "addr:housenumber": "12", "addr:postcode": "10500", "addr:street": "\u0e16\u0e19\u0e19\u0e28\u0e32\u0e25\u0e32\u0e41\u0e14\u0e07", "air_conditioning": "yes", "amenity": "bar", "name": "\u0e23\u0e49\u0e32\u0e19 \u0e21\u0e35\u0e44\u0e27\u0e19\u0e4c \u0e0a\u0e49\u0e2d\u0e1b", "name:en": "Me wine shop", "name:th": "\u0e23\u0e49\u0e32\u0e19 \u0e21\u0e35\u0e44\u0e27\u0e19\u0e4c \u0e0a\u0e49\u0e2d\u0e1b", "opening_hours": "Mo-Sa 11:00-22:00", "opening_hours:covid19": "Mo-Fr 11:00-19:00", "payment:cash": "yes", "payment:credit_cards": "yes", "phone": "0809894154", "website": "https://mewinesshop.com"}}, {"type": "node", "id": 6276053385, "lat": 13.7887744, "lon": 100.5480264, "tags": {"amenity": "bar", "name:en": "Dumbo"}}, {"type": "node", "id": 6280330579, "lat": 13.7223361, "lon": 100.5522986, "tags": {"addr:city": "Bangkok", "addr:housenumber": "1160/11", "addr:postcode": "10120", "addr:street": "Soi Green", "amenity": "bar", "brewery": "yes", "name": "The Rice Paddy", "opening_hours": "Th-Su 19:00-23:45", "outdoor_seating": "yes"}}, {"type": "node", "id": 6281369088, "lat": 13.7887242, "lon": 100.5481379, "tags": {"amenity": "bar", "name:en": "Dumbo Jazz & Vinyl Bar"}}, {"type": "node", "id": 6283801088, "lat": 13.7402552, "lon": 100.5528217, "tags": {"amenity": "bar", "level": "1", "name": "Red Moscow Club & Lounge"}}, {"type": "node", "id": 6288262086, "lat": 13.759087, "lon": 100.4968548, "tags": {"addr:street": "\u0e16\u0e19\u0e19\u0e02\u0e49\u0e32\u0e27\u0e2a\u0e32\u0e23", "amenity": "bar"}}, {"type": "node", "id": 6291823885, "lat": 13.7672663, "lon": 100.5683456, "tags": {"amenity": "bar", "name:en": "VW Bus Cocktail Bar"}}, {"type": "node", "id": 6296929285, "lat": 13.7208747, "lon": 100.5282082, "tags": {"addr:street": "\u0e16\u0e19\u0e19\u0e2a\u0e32\u0e17\u0e23\u0e43\u0e15\u0e49", "amenity": "bar", "internet_access": "wlan", "name:en": "the M bar"}}, {"type": "node", "id": 6298355285, "lat": 13.7411643, "lon": 100.5577315, "tags": {"amenity": "bar", "name:en": "Live Lounge"}}, {"type": "node", "id": 6298616285, "lat": 13.7274469, "lon": 100.5306217, "tags": {"amenity": "bar", "name:en": "Soulbar Silom"}}, {"type": "node", "id": 6315516885, "lat": 13.7603994, "lon": 100.4968714, "tags": {"addr:street": "\u0e16\u0e19\u0e19\u0e23\u0e32\u0e21\u0e1a\u0e38\u0e15\u0e23\u0e35", "amenity": "bar", "internet_access": "wlan", "name:en": "Gun cocktails (cheap cocktails and beer)", "opening_hours": "Mo-Su 12:00-03:00"}}, {"type": "node", "id": 6326834286, "lat": 13.7628754, "lon": 100.4974978, "tags": {"amenity": "bar", "name": "Thon Buri Bar"}}, {"type": "node", "id": 6331784774, "lat": 13.7678768, "lon": 100.6011453, "tags": {"addr:city": "Bangkok", "addr:postcode": "10310", "addr:street": "\u0e16\u0e19\u0e19\u0e1b\u0e23\u0e30\u0e0a\u0e32\u0e2d\u0e38\u0e17\u0e34\u0e28 (\u0e23\u0e32\u0e21\u0e04\u0e33\u0e41\u0e2b\u0e07 39)", "amenity": "bar", "description": "Bangkok's #1 VIP Nightclub.  A Party Every Night with 200+ Beautiful Thai Girls, Live Bands.  Private Party Rooms Available.  Open Late", "name": "The Pimp Bangkok", "outdoor_seating": "no", "phone": "+66873603666", "website": "https://www.pimpbangkok.com"}}, {"type": "node", "id": 6332342495, "lat": 13.7424534, "lon": 100.5614338, "tags": {"addr:city": "Bangkok", "addr:housenumber": "167", "addr:postcode": "10110", "addr:street": "Sukhumvit 21 Soi 3", "amenity": "bar", "name": "Home mens club"}}, {"type": "node", "id": 6365652188, "lat": 13.7621066, "lon": 100.4951346, "tags": {"amenity": "bar", "name:en": "Madame Musur", "name:fr": "Madame Musur"}}, {"type": "node", "id": 6377336485, "lat": 13.7384372, "lon": 100.5529555, "tags": {"amenity": "bar", "name:en": "BK Bar"}}, {"type": "node", "id": 6393118416, "lat": 13.659363, "lon": 100.384419, "tags": {"amenity": "bar", "name": "\u0e40\u0e21\u0e32\u0e21\u0e32\u0e22", "opening_hours": "Mo-Su 08:00-18:00; Apr 10-15 off; Jun 08:00-14:00; Aug off; Dec 25 off", "wheelchair": "yes"}}, {"type": "node", "id": 6417818988, "lat": 13.7338656, "lon": 100.579852, "tags": {"amenity": "bar", "name": "Wanderlust Rooftop Bar & Restaurant"}}, {"type": "node", "id": 6438317885, "lat": 13.721423, "lon": 100.5261038, "tags": {"amenity": "bar", "name:en": "Caf\u00e9 des stagiaires"}}, {"type": "node", "id": 6477479985, "lat": 13.7776336, "lon": 100.5102561, "tags": {"amenity": "bar", "name:en": "The Ramo Cat  - cat bar"}}, {"type": "node", "id": 6512253788, "lat": 13.7292103, "lon": 100.5354468, "tags": {"amenity": "bar", "name:en": "JJ\u2019s Music Bar"}}, {"type": "node", "id": 6512256288, "lat": 13.7226002, "lon": 100.5194314, "tags": {"amenity": "bar", "name:en": "Craft"}}, {"type": "node", "id": 6512256290, "lat": 13.7285039, "lon": 100.5323882, "tags": {"amenity": "bar", "name:en": "The Paddy Field"}}, {"type": "node", "id": 6512256291, "lat": 13.7297844, "lon": 100.5318537, "tags": {"amenity": "bar", "name:en": "Fresh Boys"}}, {"type": "node", "id": 6560799385, "lat": 13.8217902, "lon": 100.5213884, "tags": {"addr:street": "\u0e16\u0e19\u0e19\u0e27\u0e07\u0e28\u0e4c\u0e2a\u0e27\u0e48\u0e32\u0e07", "amenity": "bar", "internet_access": "wlan", "name": "The Gru", "website": "https://m.facebook.com/The-Gru-226439561072801/"}}, {"type": "node", "id": 6739094974, "lat": 13.7409373, "lon": 100.5562383, "tags": {"amenity": "bar", "description": "Bar and Restaurant", "name": "Zanzibar"}}, {"type": "node", "id": 6839690397, "lat": 13.7427346, "lon": 100.5411738, "tags": {"addr:city": "Pathum Wan", "addr:housenumber": "151", "addr:postcode": "10330", "addr:street": "\u0e16\u0e19\u0e19\u0e23\u0e32\u0e0a\u0e14\u0e33\u0e23\u0e34", "air_conditioning": "yes", "amenity": "bar", "brewery": "yes", "contact:facebook": "https://www.facebook.com/Theloftbangkok/", "contact:instagram": "https://www.instagram.com/theloftbangkok/", "email": "wabkk.fb@waldorfastoria.com", "internet_access": "wlan", "name": "The Champagne Bar", "name:th": "\u0e40\u0e14\u0e2d\u0e30 \u0e41\u0e0a\u0e21\u0e40\u0e1b\u0e0d \u0e1a\u0e32\u0e23\u0e4c", "opening_hours": "Mo-Sa 17:00-24:00; Su off", "outdoor_seating": "yes", "payment:american_express": "yes", "payment:bank_card": "yes", "payment:cash": "yes", "payment:diners_club": "yes", "payment:jcb": "yes", "payment:mastercard": "yes", "payment:visa": "yes", "phone": "+66 2 846 8851", "website": "https://www.hilton.com/en/hotels/bkkwawa-waldorf-astoria-bangkok/dining/", "wheelchair": "yes"}}, {"type": "node", "id": 6839846710, "lat": 13.7426967, "lon": 100.541234, "tags": {"addr:city": "Pathum Wan", "addr:housenumber": "151", "addr:postcode": "10330", "addr:street": "\u0e16\u0e19\u0e19\u0e23\u0e32\u0e0a\u0e14\u0e33\u0e23\u0e34", "amenity": "bar", "brewery": "yes", "contact:facebook": "https://www.facebook.com/Theloftbangkok/", "contact:instagram": "https://www.instagram.com/theloftbangkok/", "email": "wabkk.fb@waldorfastoria.com", "internet_access": "wlan", "internet_access:fee": "no", "name": "The Loft", "name:th": "\u0e40\u0e14\u0e2d\u0e30 \u0e25\u0e47\u0e2d\u0e1f\u0e17\u0e4c", "opening_date": "Aug 30, 2018", "opening_hours": "Mo-Th 17:00 - 00:00, Fr-Sat 17:00 - 01:00, Sun 17:00 - 00:00", "opening_hours:covid19": "open", "outdoor_seating": "yes", "payment:american_express": "yes", "payment:bank_card": "yes", "payment:cash": "yes", "payment:jcb": "yes", "payment:mastercard": "yes", "payment:visa": "yes", "phone": "+66 2 846 8851", "website": "https://www.hilton.com/en/hotels/bkkwawa-waldorf-astoria-bangkok/dining/", "wheelchair": "yes"}}, {"type": "node", "id": 6854817224, "lat": 13.842413, "lon": 100.5427785, "tags": {"amenity": "bar"}}, {"type": "node", "id": 6908924586, "lat": 13.7474211, "lon": 100.4971535, "tags": {"amenity": "bar", "name:en": "culture cafe"}}, {"type": "node", "id": 6952196085, "lat": 13.706149, "lon": 100.5988528, "tags": {"amenity": "bar", "name": "Bar Cheap Charlies"}}, {"type": "node", "id": 6964275686, "lat": 13.7453568, "lon": 100.4910016, "tags": {"amenity": "bar", "name:en": "salad Ann"}}, {"type": "node", "id": 7002897785, "lat": 13.6781968, "lon": 100.6248024, "tags": {"amenity": "bar", "name:en": "You32"}}, {"type": "node", "id": 7029346686, "lat": 13.7286872, "lon": 100.5327305, "tags": {"amenity": "bar", "name:en": "The Stranger Bar (House of Drag Queens)"}}, {"type": "node", "id": 7054343386, "lat": 13.7695845, "lon": 100.5079675, "tags": {"amenity": "bar", "name:en": "baan Bangkok local craft beer"}}, {"type": "node", "id": 7054560386, "lat": 13.7616916, "lon": 100.4975437, "tags": {"amenity": "bar", "name:en": "sunset rooftop bar"}}, {"type": "node", "id": 7055405411, "lat": 13.7398591, "lon": 100.5406845, "tags": {"addr:city": "Bangkok", "addr:housenumber": "2/60", "addr:postcode": "10330", "addr:street": "Soi Mahatlek Luang 2", "air_conditioning": "yes", "amenity": "bar", "brewery": "no", "email": "loft@teeragit.com", "internet_access": "wlan", "internet_access:fee": "no", "internet_access:ssid": "t", "level": "7", "min_age": "0", "name": "T LOFT", "opening_hours": "24/7", "outdoor_seating": "yes", "phone": "+66 2 651 9590", "start_date": "September 2010", "website": "https://loft.teeragit.com/"}}, {"type": "node", "id": 7100002085, "lat": 13.7605543, "lon": 100.4967581, "tags": {"amenity": "bar", "name": "Boom boom shop"}}, {"type": "node", "id": 7116911085, "lat": 13.7635543, "lon": 100.4989631, "tags": {"amenity": "bar", "cuisine": "international", "name:en": "The Exile"}}, {"type": "node", "id": 7124228685, "lat": 13.7585175, "lon": 100.4961982, "tags": {"addr:city": "Bangkok", "addr:housenumber": "81", "addr:postcode": "10200", "addr:street": "Mayom", "amenity": "bar", "internet_access": "wlan", "min_age": "18", "name": "Khao San Pub Crawl", "name:fr": "Khao San Pub Crawl", "outdoor_seating": "yes"}}, {"type": "node", "id": 7135770416, "lat": 13.7397066, "lon": 100.5652644, "tags": {"addr:city": "Bangkok", "addr:housenumber": "120/17", "addr:postcode": "10110", "addr:street": "Sukhumvit 23", "air_conditioning": "yes", "amenity": "bar", "description": "Welcome to the first and wildest pub crawl in Bangkok!", "min_age": "18", "name": "Bangkok Pub Crawl", "outdoor_seating": "yes"}}, {"type": "node", "id": 7136730885, "lat": 13.726199, "lon": 100.5432404, "tags": {"addr:street": "2 N Sathon Rd, Silom, Bang Rak, Bangkok 10500, Thailand", "amenity": "bar", "name:en": "HI-SO Rooftop Bar", "opening_hours": "Mo-Su 17:00-00:30", "phone": "+66 2 624 0000"}}, {"type": "node", "id": 7213882976, "lat": 13.7579942, "lon": 100.5026364, "tags": {"amenity": "bar", "description": "beer", "name": "Prasuri"}}, {"type": "node", "id": 7223080385, "lat": 13.7379818, "lon": 100.5595391, "tags": {"addr:housenumber": "259", "addr:postcode": "10110", "addr:street": "\u0e16\u0e19\u0e19\u0e2a\u0e38\u0e02\u0e38\u0e21\u0e27\u0e34\u0e17", "amenity": "bar", "internet_access": "wlan", "name:en": "Zest Bar & Terrace", "opening_hours": "Mo-Su 13:00-06:00", "phone": "+6622078000", "website": "https://zest-bar-terrace.business.site/"}}, {"type": "node", "id": 7318758730, "lat": 13.7315929, "lon": 100.5871948, "tags": {"addr:city": "Bangkok", "addr:housenumber": "126/7", "addr:postcode": "10110", "addr:street": "\u0e0b\u0e2d\u0e22\u0e2a\u0e38\u0e02\u0e38\u0e21\u0e27\u0e34\u0e17 63", "amenity": "bar", "brewery": "yes", "email": "M777@SyndicateClub.org", "internet_access": "wlan", "name": "SYNDICATE CLUB", "phone": "+66801477719", "smoking": "yes", "website": "https://www.facebook.com/SYNDICATECLUB"}}, {"type": "node", "id": 7407702704, "lat": 13.7997545, "lon": 100.5515793, "tags": {"amenity": "bar", "name": "Sodchuen Bar"}}, {"type": "node", "id": 7407702795, "lat": 13.7979744, "lon": 100.5491419, "tags": {"amenity": "bar", "name": "Brio Bistro & Bar"}}, {"type": "node", "id": 7417163290, "lat": 13.7318273, "lon": 100.5867595, "tags": {"amenity": "bar", "name": "Thay"}}, {"type": "node", "id": 7695372191, "lat": 13.7231326, "lon": 100.5209407, "tags": {"addr:city": "\u0e41\u0e02\u0e27\u0e07\u0e2a\u0e35\u0e25\u0e21", "addr:postcode": "10500", "addr:street": "\u0e42\u0e04\u0e23\u0e07\u0e01\u0e32\u0e23\u0e1a\u0e49\u0e32\u0e19\u0e2a\u0e35\u0e25\u0e21", "amenity": "bar", "brewery": "yes", "name": "Nineteens Up", "opening_hours": "Mo-Su 11:00-00:00", "opening_hours:covid19": "same", "phone": "+66966496919"}}, {"type": "node", "id": 7712592291, "lat": 13.6846074, "lon": 100.5442172, "tags": {"amenity": "bar"}}, {"type": "node", "id": 7783402378, "lat": 13.7492145, "lon": 100.5273487, "tags": {"addr:city": "Bangkok", "addr:housenumber": "2", "addr:postcode": "10330", "addr:street": "\u0e40\u0e01\u0e29\u0e21\u0e2a\u0e31\u0e19\u0e15\u0e4c 3", "amenity": "bar", "name": "Philtration", "opening_hours": "Mo-Su 18:00-00:00"}}, {"type": "node", "id": 7850443758, "lat": 13.7315935, "lon": 100.5870822, "tags": {"addr:street": "Ekkamai", "amenity": "bar", "internet_access:fee": "no", "level": "2", "name": "FOMO Bar", "outdoor_seating": "yes", "toilets": "yes"}}, {"type": "node", "id": 7966741107, "lat": 13.6848665, "lon": 100.5004267, "tags": {"amenity": "bar", "name:en": "U Bar"}}, {"type": "node", "id": 8081718965, "lat": 13.7562415, "lon": 100.5013617, "tags": {"amenity": "bar", "name": "Caf\u00e9 Democ"}}, {"type": "node", "id": 8259821405, "lat": 13.8025014, "lon": 100.5980052, "tags": {"amenity": "bar", "brewery": "yes", "description": "\u0e0b\u0e38\u0e49\u0e21\u0e21\u0e37\u0e2d\u0e1b\u0e37\u0e19 thlgun \u0e1c\u0e39\u0e49\u0e43\u0e2b\u0e49\u0e1a\u0e23\u0e34\u0e01\u0e32\u0e23 \u0e23\u0e31\u0e1a\u0e08\u0e49\u0e32\u0e07\u0e22\u0e34\u0e07\u0e04\u0e19 \u0e23\u0e31\u0e1a\u0e08\u0e49\u0e32\u0e07\u0e06\u0e48\u0e32\u0e04\u0e19 \u0e23\u0e31\u0e1a\u0e08\u0e49\u0e32\u0e07\u0e01\u0e23\u0e30\u0e17\u0e37\u0e1a\u0e04\u0e19 \u0e23\u0e31\u0e1a\u0e08\u0e49\u0e32\u0e07\u0e15\u0e1a\u0e04\u0e19 \u0e23\u0e32\u0e04\u0e32\u0e16\u0e39\u0e01 \u0e23\u0e27\u0e14\u0e40\u0e23\u0e47\u0e27 \u0e1b\u0e25\u0e2d\u0e14\u0e20\u0e31\u0e22 \u0e14\u0e35\u0e17\u0e35\u0e48\u0e2a\u0e38\u0e14\u0e43\u0e19\u0e02\u0e13\u0e30\u0e19\u0e35\u0e49 \u0e42\u0e14\u0e22 \u0e21\u0e37\u0e2d\u0e1b\u0e37\u0e19\u0e23\u0e31\u0e1a\u0e08\u0e49\u0e32\u0e07 \u0e19\u0e31\u0e01\u0e40\u0e25\u0e07\u0e23\u0e31\u0e1a\u0e08\u0e49\u0e32\u0e07 \u0e21\u0e37\u0e2d\u0e2d\u0e32\u0e0a\u0e35\u0e1e \u0e43\u0e19\u0e1b\u0e23\u0e30\u0e40\u0e17\u0e28\u0e44\u0e17\u0e22", "min_age": "19", "name": "\u0e0b\u0e38\u0e49\u0e21\u0e21\u0e37\u0e2d\u0e1b\u0e37\u0e19 thlgun", "opening_hours": "10:00-22:00", "opening_hours:covid19": "open", "website": "https://www.thlgun.com/"}}, {"type": "node", "id": 8419405064, "lat": 13.7196685, "lon": 100.5853364, "tags": {"amenity": "bar", "name": "Move on Ekkamai", "payment:bitcoincash": "yes", "website": "https://www.facebook.com/moveon.ekkamai"}}, {"type": "node", "id": 8419494502, "lat": 13.7568476, "lon": 100.5588402, "tags": {"amenity": "bar", "name": "Fatty's bar & dinner", "payment:bitcoincash": "yes", "website": "https://www.facebook.com/fattysbardiner"}}, {"type": "node", "id": 8850572365, "lat": 13.8225211, "lon": 100.5964485}, {"type": "node", "id": 8850572375, "lat": 13.8225463, "lon": 100.5964372}, {"type": "node", "id": 8850572376, "lat": 13.822409, "lon": 100.5964736}, {"type": "node", "id": 8850572377, "lat": 13.8224251, "lon": 100.5965621}, {"type": "node", "id": 8850572378, "lat": 13.8225708, "lon": 100.5965315}, {"type": "node", "id": 8850572383, "lat": 13.8226323, "lon": 100.596288}, {"type": "node", "id": 8850572384, "lat": 13.8226353, "lon": 100.5961629}, {"type": "node", "id": 8850572385, "lat": 13.8227531, "lon": 100.5961651}, {"type": "node", "id": 8850572386, "lat": 13.8227775, "lon": 100.5962903}, {"type": "node", "id": 9029086668, "lat": 13.8403278, "lon": 100.5845061, "tags": {"addr:city": "Bangkok", "addr:postcode": "10900", "addr:street": "Phasertmanukit2", "amenity": "bar", "min_age": "20", "name": "SUPERHIT", "opening_hours:covid19": "closed"}}, {"type": "node", "id": 9029089586, "lat": 13.8391602, "lon": 100.5733524, "tags": {"addr:city": "\u0e01\u0e23\u0e38\u0e07\u0e40\u0e17\u0e1e\u0e21\u0e2b\u0e32\u0e19\u0e04\u0e23", "addr:postcode": "10900", "addr:street": "\u0e16\u0e19\u0e19\u0e1e\u0e2b\u0e25\u0e42\u0e22\u0e18\u0e34\u0e19", "amenity": "bar", "min_age": "18", "name": "GO DUNG 64", "opening_hours:covid19": "closed"}}, {"type": "node", "id": 9029139942, "lat": 13.8418775, "lon": 100.5759812, "tags": {"addr:city": "\u0e41\u0e02\u0e27\u0e07\u0e40\u0e2a\u0e19\u0e32\u0e19\u0e34\u0e04\u0e21", "addr:street": "\u0e16\u0e19\u0e19\u0e1e\u0e2b\u0e25\u0e42\u0e22\u0e18\u0e34\u0e19", "amenity": "bar", "brewery": "yes", "min_age": "20", "name": "\u0e23\u0e49\u0e32\u0e19\u0e25\u0e31\u0e1a\u0e13 \u0e28\u0e32\u0e25\u0e32\u0e2b\u0e01\u0e40\u0e2b\u0e25\u0e35\u0e48\u0e22\u0e19\u0e21", "opening_hours": "Mo-Su 10:00-22:00", "opening_hours:covid19": "closed"}}, {"type": "node", "id": 9494520517, "lat": 13.722372, "lon": 100.5805517, "tags": {"amenity": "bar", "name": "Tichuca Rooftop Bar"}}, {"type": "node", "id": 9589864017, "lat": 13.7292469, "lon": 100.5726563, "tags": {"addr:city": "Bangkok", "addr:housenumber": "2/26", "addr:street": "\u0e0b\u0e2d\u0e22\u0e2a\u0e38\u0e02\u0e38\u0e21\u0e27\u0e34\u0e17 41", "amenity": "bar", "name": "Hanna", "opening_hours": "Mo-Sa 19:00-02:00", "opening_hours:covid19": "Mo-Sa 18:00-23:00"}}, {"type": "node", "id": 9589864018, "lat": 13.7292254, "lon": 100.5726343, "tags": {"addr:city": "Bangkok", "addr:postcode": "10110", "addr:street": "\u0e0b\u0e2d\u0e22\u0e2a\u0e38\u0e02\u0e38\u0e21\u0e27\u0e34\u0e17 41", "amenity": "bar", "name": "Utata"}}, {"type": "node", "id": 9642506354, "lat": 13.7397095, "lon": 100.5652473, "tags": {"addr:city": "Bangkok", "addr:housenumber": "120/17", "addr:postcode": "10110", "addr:street": "Sukhumvit Soi 23", "amenity": "bar", "min_age": "20", "name": "Anubis Bangkok"}}, {"type": "node", "id": 9645312117, "lat": 13.7555452, "lon": 100.5035027, "tags": {"addr:city": "\u0e41\u0e02\u0e27\u0e07\u0e1a\u0e27\u0e23\u0e19\u0e34\u0e40\u0e27\u0e28", "addr:country": "TH", "addr:postcode": "10200", "air_conditioning": "yes", "amenity": "bar", "brewery": "yes", "name:en": "There Bar", "operator": "Here Hostel", "outdoor_seating": "yes", "smoking": "yes", "website": "https://www.herehostel.com/there-bar"}}, {"type": "node", "id": 9705054719, "lat": 13.7398039, "lon": 100.5568459, "tags": {"amenity": "bar", "name": "Bobo club bangkok"}}, {"type": "node", "id": 9727442517, "lat": 13.7428952, "lon": 100.5563321, "tags": {"amenity": "bar", "name:en": "Lush Rooftop"}}, {"type": "node", "id": 9751068864, "lat": 13.6783862, "lon": 100.6181041, "tags": {"amenity": "bar"}}, {"type": "node", "id": 9774392455, "lat": 13.7366586, "lon": 100.5429643, "tags": {"amenity": "bar", "name": "The Crimson"}}, {"type": "node", "id": 9784520419, "lat": 13.7133962, "lon": 100.5479128, "tags": {"amenity": "bar", "name": "bar clandestino"}}, {"type": "node", "id": 9796844617, "lat": 13.7448308, "lon": 100.5567285, "tags": {"amenity": "bar", "name": "Hillary 11"}}, {"type": "node", "id": 9821017717, "lat": 13.7340915, "lon": 100.5130578, "tags": {"amenity": "bar", "name:en": "Q&A Bar"}}, {"type": "node", "id": 9821060917, "lat": 13.7278198, "lon": 100.5257441, "tags": {"amenity": "bar", "name:en": "Old Other Place"}}, {"type": "node", "id": 9821070617, "lat": 13.7226269, "lon": 100.519546, "tags": {"amenity": "bar", "name:en": "Belle\u2019s Room"}}, {"type": "node", "id": 9913671426, "lat": 13.7252002, "lon": 100.5777115, "tags": {"amenity": "bar", "name": "ASumo Snack"}}, {"type": "node", "id": 9913821104, "lat": 13.7359956, "lon": 100.5668493, "tags": {"amenity": "bar", "name": "Wine connection"}}, {"type": "node", "id": 9942223756, "lat": 13.7257156, "lon": 100.763641}, {"type": "node", "id": 9942223757, "lat": 13.725906, "lon": 100.7637426}, {"type": "node", "id": 9942223758, "lat": 13.7257167, "lon": 100.7637417}, {"type": "node", "id": 9942223759, "lat": 13.7254853, "lon": 100.7636407}, {"type": "node", "id": 9942223760, "lat": 13.7254858, "lon": 100.7638264}, {"type": "node", "id": 9942223761, "lat": 13.7256704, "lon": 100.7638239}, {"type": "node", "id": 9942223762, "lat": 13.7254855, "lon": 100.7635892}, {"type": "node", "id": 9942223763, "lat": 13.7256724, "lon": 100.7636414}, {"type": "node", "id": 9942223764, "lat": 13.7257163, "lon": 100.7638254}, {"type": "node", "id": 9942223765, "lat": 13.7259048, "lon": 100.7636427}, {"type": "node", "id": 9942223767, "lat": 13.7254847, "lon": 100.7637398}, {"type": "node", "id": 9942223768, "lat": 13.7259053, "lon": 100.7635714}, {"type": "node", "id": 9942223769, "lat": 13.7259056, "lon": 100.7638263}, {"type": "node", "id": 9942223770, "lat": 13.7257162, "lon": 100.7635699}, {"type": "node", "id": 9942223771, "lat": 13.7256693, "lon": 100.7637374}, {"type": "node", "id": 9942223772, "lat": 13.7256729, "lon": 100.7635905}, {"type": "node", "id": 9951134514, "lat": 13.7210327, "lon": 100.7711278}, {"type": "node", "id": 9951137719, "lat": 13.7212851, "lon": 100.7713856}, {"type": "node", "id": 9951137728, "lat": 13.7210326, "lon": 100.7710199}, {"type": "node", "id": 9951137735, "lat": 13.7211743, "lon": 100.7710206}, {"type": "node", "id": 9951137740, "lat": 13.7211748, "lon": 100.7711264}, {"type": "node", "id": 9951153797, "lat": 13.7209518, "lon": 100.7713015}, {"type": "node", "id": 9951153798, "lat": 13.7204602, "lon": 100.7713878}, {"type": "node", "id": 9951153799, "lat": 13.7204602, "lon": 100.771302}, {"type": "node", "id": 9951153800, "lat": 13.720749, "lon": 100.7713879}, {"type": "node", "id": 9951153801, "lat": 13.7210774, "lon": 100.7713141}, {"type": "node", "id": 9951153802, "lat": 13.721285, "lon": 100.7713129}, {"type": "node", "id": 9951153803, "lat": 13.720749, "lon": 100.7713021}, {"type": "node", "id": 9951153804, "lat": 13.7210776, "lon": 100.7713866}, {"type": "node", "id": 9951153805, "lat": 13.7209522, "lon": 100.7713871}, {"type": "node", "id": 9951153806, "lat": 13.7210773, "lon": 100.7713009}, {"type": "node", "id": 10204191802, "lat": 13.6933103, "lon": 100.6519275}, {"type": "node", "id": 10204191807, "lat": 13.693305, "lon": 100.6518761}, {"type": "node", "id": 10204191816, "lat": 13.693248, "lon": 100.6519342}, {"type": "node", "id": 10204203717, "lat": 13.6932427, "lon": 100.6518829}, {"type": "node", "id": 10235560811, "lat": 13.7316663, "lon": 100.5652189, "tags": {"amenity": "bar", "name": "The Bangkok Hangover", "name:en": "The Hangover Bangkok", "name:th": "The Hangover Bangkok"}}, {"type": "node", "id": 10265996609, "lat": 13.7409263, "lon": 100.5555962, "tags": {"amenity": "bar", "name:en": "New Victoria"}}, {"type": "node", "id": 10267975009, "lat": 13.737047, "lon": 100.5623952, "tags": {"amenity": "bar", "name:en": "The Dollhouse"}}, {"type": "node", "id": 10312525051, "lat": 13.7345642, "lon": 100.5824548, "tags": {"amenity": "bar", "name": "Racing 76"}}, {"type": "node", "id": 10572183963, "lat": 13.7393744, "lon": 100.5535286, "tags": {"addr:city": "Bangkok", "addr:housenumber": "27", "addr:neighbourhood": "Klongtoey", "addr:street": "\u0e0b\u0e2d\u0e22\u0e2a\u0e38\u0e02\u0e38\u0e21\u0e27\u0e34\u0e17 4", "amenity": "bar", "level": "25", "name": "RedSquare Rooftop Bar", "opening_hours": "Mo-Su 18:00-24:00"}}, {"type": "node", "id": 10574217312, "lat": 13.7333861, "lon": 100.5825439, "tags": {"addr:housenumber": "406", "addr:postcode": "10110", "addr:street": "\u0e0b\u0e2d\u0e22\u0e17\u0e2d\u0e07\u0e2b\u0e25\u0e48\u0e2d", "amenity": "bar", "name:en": "Find the locker room"}}, {"type": "node", "id": 10574217412, "lat": 13.7884754, "lon": 100.5483274, "tags": {"addr:housenumber": "488", "addr:postcode": "10400", "addr:street": "\u0e16\u0e19\u0e19\u0e1e\u0e2b\u0e25\u0e42\u0e22\u0e18\u0e34\u0e19", "amenity": "bar", "name:en": "Honest Mistake"}}, {"type": "node", "id": 10576803968, "lat": 13.74024, "lon": 100.5528731, "tags": {"amenity": "bar", "name": "Angels Four"}}, {"type": "node", "id": 10578821441, "lat": 13.7392753, "lon": 100.5144638, "tags": {"addr:housenumber": "80", "addr:postcode": "10100", "addr:street": "\u0e16\u0e19\u0e19\u0e44\u0e21\u0e15\u0e23\u0e35\u0e08\u0e34\u0e15\u0e15\u0e4c", "amenity": "bar", "name:en": "Shuushuu.hiddenplace"}}, {"type": "node", "id": 10578821442, "lat": 13.7835831, "lon": 100.5440604, "tags": {"addr:housenumber": "19/2", "addr:postcode": "10400", "addr:street": "\u0e0b\u0e2d\u0e22\u0e2d\u0e32\u0e23\u0e4a\u0e22\u0e4c \u0e54", "amenity": "bar", "name:en": "The key room No 72"}}, {"type": "node", "id": 10578821541, "lat": 13.7465178, "lon": 100.5622657, "tags": {"addr:housenumber": "235/13", "addr:postcode": "10110", "addr:street": "Soi Sukhumvit 21", "amenity": "bar", "name:en": "Q&A Bar"}}, {"type": "node", "id": 10578821641, "lat": 13.7363154, "lon": 100.5723408, "tags": {"addr:housenumber": "36/5", "addr:postcode": "10110", "addr:street": "\u0e0b\u0e2d\u0e22\u0e2a\u0e38\u0e02\u0e38\u0e21\u0e27\u0e34\u0e17 39", "amenity": "bar", "name:en": "Salon du Japonisant by Bacchus"}}, {"type": "node", "id": 10579750518, "lat": 13.74024, "lon": 100.5528731, "tags": {"amenity": "bar", "name": "Angels Four"}}, {"type": "node", "id": 10583717120, "lat": 13.7893136, "lon": 100.4698226}, {"type": "node", "id": 10583717121, "lat": 13.7893381, "lon": 100.4698178}, {"type": "node", "id": 10583717122, "lat": 13.7893579, "lon": 100.4699068}, {"type": "node", "id": 10583717123, "lat": 13.7892193, "lon": 100.4699433}, {"type": "node", "id": 10583717124, "lat": 13.789212, "lon": 100.4699127}, {"type": "node", "id": 10583717125, "lat": 13.7891688, "lon": 100.4699234}, {"type": "node", "id": 10583717126, "lat": 13.7891484, "lon": 100.4698301}, {"type": "node", "id": 10583717127, "lat": 13.7893073, "lon": 100.4697958}, {"type": "node", "id": 10583717133, "lat": 13.7893438, "lon": 100.4700854}, {"type": "node", "id": 10583717134, "lat": 13.7893146, "lon": 100.4700929}, {"type": "node", "id": 10583717138, "lat": 13.7893709, "lon": 100.4702083}, {"type": "node", "id": 10583717139, "lat": 13.7893214, "lon": 100.4702206}, {"type": "node", "id": 10583717140, "lat": 13.7893131, "lon": 100.4701691}, {"type": "node", "id": 10583717141, "lat": 13.7892954, "lon": 100.4701729}, {"type": "node", "id": 10583717142, "lat": 13.7892849, "lon": 100.4701123}, {"type": "node", "id": 10583717143, "lat": 13.7893167, "lon": 100.4701037}, {"type": "node", "id": 10610838005, "lat": 13.7307613, "lon": 100.5153761, "tags": {"amenity": "bar", "name:en": "Tropic City"}}, {"type": "node", "id": 10647745305, "lat": 13.7376764, "lon": 100.5667366, "tags": {"addr:street": "\u0e0b\u0e2d\u0e22\u0e2a\u0e38\u0e02\u0e38\u0e21\u0e27\u0e34\u0e17 31", "amenity": "bar", "name:en": "Alonetogether Bar", "opening_hours": "Mo-Su 19:00-01:00"}}, {"type": "node", "id": 10779619005, "lat": 13.7142371, "lon": 100.5932335, "tags": {"amenity": "bar", "name:en": "Slim Pig", "opening_hours": "Mo-Su 11:30-21:00"}}, {"type": "node", "id": 10794778241, "lat": 13.6581877, "lon": 100.6910077}, {"type": "node", "id": 10794778242, "lat": 13.6581802, "lon": 100.6910699}, {"type": "node", "id": 10794778243, "lat": 13.6581231, "lon": 100.6910626}, {"type": "node", "id": 10794778244, "lat": 13.6581306, "lon": 100.6910004}, {"type": "node", "id": 10814371005, "lat": 13.7391236, "lon": 100.5125613, "tags": {"amenity": "bar", "name:en": "Charoenkrung"}}, {"type": "node", "id": 10844243307, "lat": 13.7301306, "lon": 100.5807891, "tags": {"addr:street": "\u0e0b\u0e2d\u0e22\u0e17\u0e2d\u0e07\u0e2b\u0e25\u0e48\u0e2d", "amenity": "bar", "name:en": "J.Boroski", "opening_hours": "Mo-Su 18:30-03:00"}}, {"type": "way", "id": 169953607, "nodes": [1811000341, 1811000367, 1811000447, 1811000479, 1811000341], "tags": {"amenity": "bar", "building": "yes", "name": "Gecko Bar"}}, {"type": "way", "id": 206198132, "nodes": [2162064028, 2162064030, 2162064025, 776746282, 2162064028], "tags": {"addr:housenumber": "13", "amenity": "bar", "building": "retail", "name": "Adhere the 13th Rules", "name:en": "Adhere the 13th Rules"}}, {"type": "way", "id": 234374859, "nodes": [2426274452, 2426274455, 2426274453, 2426274451, 2426274452], "tags": {"amenity": "bar", "building": "yes", "cuisine": "thai", "internet_access": "wlan", "name": "Madame Musur"}}, {"type": "way", "id": 316164549, "nodes": [3222785088, 3222785089, 3222785090, 3222785091, 3222785092, 3222785093, 3222785088], "tags": {"amenity": "bar", "building": "yes", "name": "\u0e42\u0e15\u0e4b\u0e40\u0e15\u0e4b", "opening_hours": "\u0e17\u0e38\u0e01\u0e27\u0e31\u0e19 18.00 - 00.00", "smoking": "yes"}}, {"type": "way", "id": 319316016, "nodes": [3257290014, 3257290013, 3257290009, 3257290011, 3257290014], "tags": {"amenity": "bar", "building": "yes", "name": "Bad Motel", "wheelchair": "no"}}, {"type": "way", "id": 321380697, "nodes": [3281220930, 3281220928, 3308183538, 3281220925, 3281220929, 3281220930], "tags": {"amenity": "bar", "building": "yes", "name": "Yes!! R&B Karaoke"}}, {"type": "way", "id": 322167507, "nodes": [3289219639, 3289219640, 3289219638, 3289219637, 3289219639], "tags": {"amenity": "bar", "internet_access": "wlan", "internet_access:fee": "no", "name": "The Penalty Spot", "opening_hours": "Mo-Su 15:00-02:00", "smoking": "outside", "website": "www.the-penalty-spot.com", "wheelchair": "yes"}}, {"type": "way", "id": 324060261, "nodes": [3308150638, 3308150634, 3308150633, 3308150636, 3308150638], "tags": {"amenity": "bar", "building": "yes", "name": "Gossip"}}, {"type": "way", "id": 486115052, "nodes": [4788302041, 4788302042, 4788302043, 4788302044, 4788302041], "tags": {"amenity": "bar", "building": "yes"}}, {"type": "way", "id": 486115053, "nodes": [4788302044, 4788302045, 4788302046, 4788302043, 4788302044], "tags": {"amenity": "bar", "building": "yes"}}, {"type": "way", "id": 540204059, "nodes": [5226570270, 5226570271, 5226570272, 5226570273, 5226570270], "tags": {"amenity": "bar", "building": "yes"}}, {"type": "way", "id": 559770296, "nodes": [5398501102, 5398507142, 5398501103, 5398501104, 5398501105, 5398501106, 5398501102], "tags": {"amenity": "bar", "building": "yes", "name": "R&B Karaoke"}}, {"type": "way", "id": 626817132, "nodes": [5917504165, 5917504166, 5917504167, 5917504168, 5917504165], "tags": {"addr:city": "\u0e16\u0e19\u0e19\u0e1e\u0e0d\u0e32\u0e44\u0e17", "addr:housenumber": "3/8", "addr:postcode": "10400", "addr:street": "\u0e0b\u0e2d\u0e22\u0e23\u0e32\u0e0a\u0e27\u0e34\u0e16\u0e35 11", "amenity": "bar", "brewery": "yes", "building": "yes", "name": "Saxophone Pub and Restaurant", "name:ko": "\uc0c9\uc18c\ud3f0\ubc14", "opening_hours": "18:00-02:00", "outdoor_seating": "yes", "phone": "022465472", "smoking": "outside", "website": "http://www.saxophonepub.com"}}, {"type": "way", "id": 956318130, "nodes": [8850572375, 8850572365, 8850572376, 8850572377, 8850572378, 8850572375], "tags": {"amenity": "bar", "building": "yes", "layer": "1", "name": "PaK Soi Samakom"}}, {"type": "way", "id": 956318132, "nodes": [8850572383, 8850572384, 8850572385, 8850572386, 8850572383], "tags": {"amenity": "bar", "building": "yes", "name": "Lun La karaoke"}}, {"type": "way", "id": 1085053477, "nodes": [9942223771, 9942223761, 9942223760, 9942223767, 9942223771], "tags": {"air_conditioning": "yes", "amenity": "bar", "building": "yes", "name": "Me Smile Craft Beer", "opening_hours": "PH,Mo-Su 15:00-02:00", "phone": "+66 86 347 1024"}}, {"type": "way", "id": 1085053478, "nodes": [9942223763, 9942223772, 9942223762, 9942223759, 9942223763], "tags": {"air_conditioning": "yes", "amenity": "bar", "building": "yes", "karaoke": "yes", "name": "Echo Karaoke \u0e04\u0e32\u0e23\u0e32\u0e42\u0e2d\u0e40\u0e01\u0e30 \u0e1a\u0e49\u0e32\u0e19\u0e01\u0e25\u0e32\u0e07\u0e2a\u0e27\u0e19", "opening_hours": "PH,Mo-Su 15:00-02:00"}}, {"type": "way", "id": 1085053479, "nodes": [9942223758, 9942223764, 9942223769, 9942223757, 9942223758], "tags": {"amenity": "bar", "building": "yes", "name": "Echo Karaoke \u0e04\u0e32\u0e23\u0e32\u0e42\u0e2d\u0e40\u0e01\u0e30 \u0e1a\u0e49\u0e32\u0e19\u0e01\u0e25\u0e32\u0e07\u0e2a\u0e27\u0e19", "opening_hours": "PH,Mo-Su 15:00-02:00", "sport": "billiards"}}, {"type": "way", "id": 1085053480, "nodes": [9942223768, 9942223765, 9942223756, 9942223770, 9942223768], "tags": {"amenity": "bar", "building": "yes", "name": "Me Smile", "opening_hours": "PH,Mo-Su 18:00-02:00"}}, {"type": "way", "id": 1086027756, "nodes": [9951137740, 9951137735, 9951137728, 9951134514, 9951137740], "tags": {"amenity": "bar", "building": "yes", "name": "Oops! Bar", "opening_hours": "Mo-Su 17:00-24:00"}}, {"type": "way", "id": 1086030180, "nodes": [9951153803, 9951153800, 9951153798, 9951153799, 9951153803], "tags": {"amenity": "bar", "building": "yes", "check_date:opening_hours": "2022-09-30", "name": "BRIDGE BAR", "opening_hours:signed": "no"}}, {"type": "way", "id": 1086030181, "nodes": [9951153806, 9951153797, 9951153805, 9951153804, 9951153801, 9951153806], "tags": {"amenity": "bar", "building": "yes", "check_date:opening_hours": "2022-09-30", "name": "\u0e42\u0e2a\u0e14SING", "opening_hours:signed": "no"}}, {"type": "way", "id": 1086030182, "nodes": [9951153803, 9951153797, 9951153805, 9951153800, 9951153803], "tags": {"amenity": "bar", "building": "yes", "check_date:opening_hours": "2022-09-30", "name": "Society Music&Bar", "opening_hours:signed": "no"}}, {"type": "way", "id": 1086030183, "nodes": [9951153801, 9951153804, 9951137719, 9951153802, 9951153801], "tags": {"amenity": "bar", "building": "yes", "check_date:opening_hours": "2022-09-30", "name": "Paradox", "opening_hours:signed": "no"}}, {"type": "way", "id": 1115744620, "nodes": [10204191802, 10204191816, 10204203717, 10204191807, 10204191802], "tags": {"amenity": "bar", "building": "yes", "outdoor_seating": "yes"}}, {"type": "way", "id": 1135380272, "nodes": [10583717120, 10583717121, 10583717122, 10583717123, 10583717124, 10583717125, 10583717126, 10583717127, 10583717120], "tags": {"amenity": "bar", "building": "yes", "name": "\u0e43\u0e15\u0e49\u0e21\u0e38\u0e49\u0e07"}}, {"type": "way", "id": 1135380275, "nodes": [10583717134, 10583717133, 10583717138, 10583717139, 10583717140, 10583717141, 10583717142, 10583717143, 10583717134], "tags": {"amenity": "bar", "building": "yes", "name": "\u0e40\u0e09\u0e34\u0e14\u0e09\u0e32\u0e22"}}, {"type": "way", "id": 1160630416, "nodes": [10794778241, 10794778242, 10794778243, 10794778244, 10794778241], "tags": {"amenity": "bar", "building": "yes"}}]}