{"version": 0.6, "generator": "Overpass API 0.7.60 f4c14d41", "osm3s": {"timestamp_osm_base": "2023-05-02T21:17:24Z", "copyright": "The data included in this document is from www.openstreetmap.org. The data is made available under ODbL."}, "elements": [{"type": "node", "id": 359882059, "lat": -33.7233919, "lon": 150.9384957}, {"type": "node", "id": 452345776, "lat": -33.7601928, "lon": 150.6830944, "tags": {"amenity": "restaurant", "name": "Outback Steakhouse", "source": "survey"}}, {"type": "node", "id": 452351364, "lat": -33.7572777, "lon": 150.6917547, "tags": {"amenity": "restaurant", "cuisine": "chicken;korean", "name": "Gami Chicken & Beer"}}, {"type": "node", "id": 452351365, "lat": -33.7573723, "lon": 150.6914893, "tags": {"amenity": "restaurant", "cuisine": "bbq;american", "name": "Smoky Sue's"}}, {"type": "node", "id": 502862139, "lat": -33.7322388, "lon": 150.9466159, "tags": {"amenity": "restaurant", "name": "Thai Waterfront"}}, {"type": "node", "id": 502862141, "lat": -33.732353, "lon": 150.9466932, "tags": {"amenity": "restaurant", "diet:vegetarian": "only", "name": "Fontain Vegetarian"}}, {"type": "node", "id": 502862142, "lat": -33.7321246, "lon": 150.9465129, "tags": {"amenity": "restaurant", "name": "Woodfired Pizza"}}, {"type": "node", "id": 1004721641, "lat": -33.7446286, "lon": 150.8100747, "tags": {"amenity": "restaurant"}}, {"type": "node", "id": 1127285923, "lat": -33.605095, "lon": 150.8232891, "tags": {"amenity": "restaurant", "cuisine": "seafood", "name": "Windsor Seafoods"}}, {"type": "node", "id": 1327239012, "lat": -33.7576131, "lon": 150.6910106}, {"type": "node", "id": 1327239031, "lat": -33.7577655, "lon": 150.6908135}, {"type": "node", "id": 1327239054, "lat": -33.757478, "lon": 150.6908595}, {"type": "node", "id": 1327239077, "lat": -33.7576303, "lon": 150.6906623}, {"type": "node", "id": 1370767229, "lat": -33.7231022, "lon": 150.6713717, "tags": {"addr:housename": "Sydney International Regatta Centre", "addr:housenumber": "Gate A", "addr:postcode": "2750", "addr:street": "Old Castlereagh Road", "amenity": "restaurant", "name": "Lakeside Restaurant", "website": "https://www.lakesiderestaurant.com.au/"}}, {"type": "node", "id": 1671700815, "lat": -33.7633883, "lon": 150.8692382, "tags": {"amenity": "restaurant", "name": "Doonside Chinese Take Away"}}, {"type": "node", "id": 1835921784, "lat": -33.7464463, "lon": 150.6727346, "tags": {"addr:housenumber": "101", "addr:street": "Great Western Highway", "addr:suburb": "Emu Plains", "addr:unit": "5", "amenity": "restaurant", "cuisine": "chinese", "fixme": "Website isn't working", "name": "Lucky Dragon Chinese Restaurant", "website": "https://luckydragonchineserestaurant.com.au"}}, {"type": "node", "id": 1835921798, "lat": -33.7465808, "lon": 150.6739456, "tags": {"addr:housenumber": "91a", "addr:postcode": "2750", "addr:state": "NSW", "addr:street": "Great Western Highway", "addr:suburb": "Emu Plains", "amenity": "restaurant", "name": "Itza Mezza Bar & Grill", "website": "http://www.itza.com.au"}}, {"type": "node", "id": 2113159391, "lat": -33.6559838, "lon": 150.9395154, "tags": {"addr:housenumber": "233", "addr:postcode": "2156", "addr:street": "Annangrove Road", "amenity": "restaurant", "cuisine": "indian", "name": "Kashi", "website": "http://www.kashirestaurant.com.au/"}}, {"type": "node", "id": 2130503370, "lat": -33.5228682, "lon": 150.6276966, "tags": {"amenity": "restaurant", "name": "Cityview Bar and Grill", "source": "voice"}}, {"type": "node", "id": 2152981832, "lat": -33.6776441, "lon": 150.8636202, "tags": {"amenity": "restaurant", "cuisine": "chinese", "name": "Riverstone Memorial Club"}}, {"type": "node", "id": 2163547240, "lat": -33.7517921, "lon": 150.8149062, "tags": {"addr:housenumber": "247", "addr:postcode": "2770", "addr:state": "NSW", "addr:street": "Woodstock Avenue", "addr:suburb": "Dharruk", "amenity": "restaurant", "name": "West Tradies", "opening_hours": "Su-Th 10:00-24:00", "phone": "+61 2 9675 1099", "website": "https://www.westtradies.com.au/"}}, {"type": "node", "id": 2342560134, "lat": -33.6067415, "lon": 150.8217677, "tags": {"addr:housenumber": "37", "addr:street": "Macquarie Street", "addr:suburb": "Windsor", "amenity": "restaurant", "cuisine": "indian", "name": "Shahi Dining Windsor", "note": "KFC closed"}}, {"type": "node", "id": 2434575154, "lat": -33.7577015, "lon": 150.8939883, "tags": {"amenity": "restaurant", "cuisine": "pizza", "name": "Pizza King"}}, {"type": "node", "id": 2434575155, "lat": -33.7575767, "lon": 150.8941165, "tags": {"amenity": "restaurant", "cuisine": "chinese", "name": "Sinno Chinese"}}, {"type": "node", "id": 2434575171, "lat": -33.7488981, "lon": 150.8792267, "tags": {"amenity": "restaurant", "brand": "Pizza Hut", "brand:wikidata": "Q191615", "brand:wikipedia": "en:Pizza Hut", "cuisine": "pizza", "name": "Pizza Hut"}}, {"type": "node", "id": 2435100339, "lat": -33.6775341, "lon": 150.8654793, "tags": {"amenity": "restaurant", "cuisine": "pizza", "image": "http://osm.stayneutral.com/1377399908.jpg", "name": "Carlo's Cafe", "source": "survey"}}, {"type": "node", "id": 2435100342, "lat": -33.6789735, "lon": 150.8627095, "tags": {"amenity": "restaurant", "cuisine": "chinese", "name": "Hong Kong Chinese Restaurant"}}, {"type": "node", "id": 2784732640, "lat": -33.6824393, "lon": 150.916825, "tags": {"amenity": "restaurant", "cuisine": "pizza", "name": "Porto Bello"}}, {"type": "node", "id": 2819530463, "lat": -33.7693177, "lon": 150.9410417, "tags": {"amenity": "restaurant", "name": "Lily's Restaurant", "website": "https://www.lilys.net.au/"}}, {"type": "node", "id": 2819582198, "lat": -33.7614439, "lon": 150.942316, "tags": {"amenity": "restaurant", "cuisine": "thai", "name": "Lalor Thai"}}, {"type": "node", "id": 2973936931, "lat": -33.7650035, "lon": 150.8210776, "tags": {"amenity": "restaurant", "cuisine": "pizza;chicken;grill", "name": "Rashay's", "outdoor_seating": "no"}}, {"type": "node", "id": 3401293012, "lat": -33.698204, "lon": 150.941447, "tags": {"amenity": "restaurant"}}, {"type": "node", "id": 3467753132, "lat": -33.5979614, "lon": 150.7536376, "tags": {"addr:city": "Richmond", "addr:housenumber": "143", "addr:postcode": "2753", "addr:street": "Windsor Street", "addr:unit": "1", "amenity": "restaurant", "cuisine": "japanese", "internet_access": "no", "name": "Ikeda Bar", "note": "Sells music recordings Has cafe in the back"}}, {"type": "node", "id": 4057889850, "lat": -33.7400697, "lon": 150.7180019, "tags": {"amenity": "restaurant", "brand": "Pizza Hut", "brand:wikidata": "Q191615", "brand:wikipedia": "en:Pizza Hut", "cuisine": "pizza", "delivery": "yes", "drive_through": "no", "name": "Pizza Hut", "takeaway": "yes"}}, {"type": "node", "id": 4127681588, "lat": -33.7608468, "lon": 150.7205182, "tags": {"amenity": "restaurant", "cuisine": "indian", "name": "AB7 Restaurant"}}, {"type": "node", "id": 4281384090, "lat": -33.7510345, "lon": 150.6945245, "tags": {"amenity": "restaurant", "cuisine": "italian", "name": "Sittano's Bar & Restaurant", "phone": "+61 2 4722 4444", "takeaway": "no", "website": "http://sittanos.com.au/"}}, {"type": "node", "id": 4551512545, "lat": -33.7542765, "lon": 150.7048873}, {"type": "node", "id": 4551512560, "lat": -33.7543174, "lon": 150.705098}, {"type": "node", "id": 4551512565, "lat": -33.7545264, "lon": 150.7048177}, {"type": "node", "id": 4551512568, "lat": -33.7545663, "lon": 150.7050279}, {"type": "node", "id": 4595593589, "lat": -33.6050301, "lon": 150.8234724, "tags": {"amenity": "restaurant", "name": "Stir Crazy", "name:en": "Stir Crazy"}}, {"type": "node", "id": 4789534891, "lat": -33.7133334, "lon": 150.9722021, "tags": {"amenity": "restaurant", "cuisine": "chinese", "name": "Golden Palace", "outdoor_seating": "no", "smoking": "no", "takeaway": "yes"}}, {"type": "node", "id": 4789534892, "lat": -33.7133057, "lon": 150.9722854, "tags": {"amenity": "restaurant", "cuisine": "italian", "name": "Chianti's Ristorante", "outdoor_seating": "yes", "smoking": "no", "takeaway": "yes"}}, {"type": "node", "id": 4789534893, "lat": -33.7132862, "lon": 150.9723597, "tags": {"amenity": "restaurant", "cuisine": "thai", "name": "Gati Thai", "outdoor_seating": "yes", "smoking": "no", "takeaway": "yes"}}, {"type": "node", "id": 4789551417, "lat": -33.7131718, "lon": 150.9726463, "tags": {"amenity": "restaurant", "cuisine": "japanese", "name": "Makimoto"}}, {"type": "node", "id": 4797473847, "lat": -33.723313, "lon": 150.9387643}, {"type": "node", "id": 4797473862, "lat": -33.7234874, "lon": 150.9388383}, {"type": "node", "id": 4797473870, "lat": -33.7235662, "lon": 150.9385697}, {"type": "node", "id": 5174209155, "lat": -33.686345, "lon": 150.9517749, "tags": {"amenity": "restaurant", "cuisine": "thai", "name": "Barlame", "takeaway": "yes", "wheelchair": "yes"}}, {"type": "node", "id": 5174209161, "lat": -33.6856299, "lon": 150.9519994, "tags": {"amenity": "restaurant", "cuisine": "mediterranean", "name": "Lezette"}}, {"type": "node", "id": 5201209511, "lat": -33.4284315, "lon": 150.8304921}, {"type": "node", "id": 5201209512, "lat": -33.4284377, "lon": 150.8305345}, {"type": "node", "id": 5201209513, "lat": -33.4282972, "lon": 150.8306539}, {"type": "node", "id": 5201209514, "lat": -33.4282398, "lon": 150.8304396}, {"type": "node", "id": 5201209515, "lat": -33.4281546, "lon": 150.8304578}, {"type": "node", "id": 5201209516, "lat": -33.4284803, "lon": 150.8305258}, {"type": "node", "id": 5201209517, "lat": -33.4284743, "lon": 150.8304834}, {"type": "node", "id": 5201209518, "lat": -33.4281116, "lon": 150.8306873}, {"type": "node", "id": 5201209519, "lat": -33.4280847, "lon": 150.8304727}, {"type": "node", "id": 5201209520, "lat": -33.4282303, "lon": 150.8303775}, {"type": "node", "id": 5201209521, "lat": -33.4281452, "lon": 150.8303963}, {"type": "node", "id": 5201209522, "lat": -33.4283053, "lon": 150.8307091}, {"type": "node", "id": 5201209523, "lat": -33.4284183, "lon": 150.8304016}, {"type": "node", "id": 5201209524, "lat": -33.4284586, "lon": 150.8306779}, {"type": "node", "id": 5201209588, "lat": -33.5084212, "lon": 150.8765318}, {"type": "node", "id": 5201209589, "lat": -33.5083164, "lon": 150.8766336}, {"type": "node", "id": 5201209590, "lat": -33.5084206, "lon": 150.8764986}, {"type": "node", "id": 5201209591, "lat": -33.5082967, "lon": 150.8766144}, {"type": "node", "id": 5201209592, "lat": -33.5083356, "lon": 150.8764605}, {"type": "node", "id": 5201209593, "lat": -33.5083231, "lon": 150.8764722}, {"type": "node", "id": 5201209594, "lat": -33.5083626, "lon": 150.8764353}, {"type": "node", "id": 5201209595, "lat": -33.5083484, "lon": 150.8766816}, {"type": "node", "id": 5201209596, "lat": -33.5084537, "lon": 150.8765806}, {"type": "node", "id": 5201209597, "lat": -33.5084344, "lon": 150.876519}, {"type": "node", "id": 5201209598, "lat": -33.5083123, "lon": 150.8766375}, {"type": "node", "id": 5201209599, "lat": -33.5083635, "lon": 150.8764095}, {"type": "node", "id": 5201209600, "lat": -33.5083525, "lon": 150.8764196}, {"type": "node", "id": 5201209601, "lat": -33.5083252, "lon": 150.8764451}, {"type": "node", "id": 5201209602, "lat": -33.5083128, "lon": 150.8764572}, {"type": "node", "id": 5201209603, "lat": -33.5083735, "lon": 150.8764251}, {"type": "node", "id": 5201209604, "lat": -33.508421, "lon": 150.8764982}, {"type": "node", "id": 5201209605, "lat": -33.5082849, "lon": 150.8766255}, {"type": "node", "id": 5201209606, "lat": -33.5082374, "lon": 150.8765524}, {"type": "node", "id": 5274366210, "lat": -33.731974, "lon": 150.9642724, "tags": {"alt_name": "Bamiyan Afghan Restraunt", "amenity": "restaurant", "cuisine": "kebab", "name": "Bamiyan", "source": "Survey"}}, {"type": "node", "id": 5585892677, "lat": -33.7652572, "lon": 150.8269507, "tags": {"amenity": "restaurant", "cuisine": "kebab;pizza", "name": "Avanti Pizza and Kebab"}}, {"type": "node", "id": 5809895921, "lat": -33.7678352, "lon": 150.9096479, "tags": {"amenity": "restaurant", "cuisine": "chinese", "name": "Mr Ping's"}}, {"type": "node", "id": 5809896193, "lat": -33.7686044, "lon": 150.9120907, "tags": {"amenity": "restaurant", "name": "Crispy Crust Pizza"}}, {"type": "node", "id": 5809896194, "lat": -33.7685531, "lon": 150.9121002, "tags": {"amenity": "restaurant", "name": "Chinese Kitchen"}}, {"type": "node", "id": 5809897354, "lat": -33.7652572, "lon": 150.9083421, "tags": {"amenity": "restaurant", "cuisine": "indian", "name": "Chatpata House"}}, {"type": "node", "id": 5835913662, "lat": -33.7569344, "lon": 150.6867476, "tags": {"amenity": "restaurant", "name": "Hogs Breath Steakhouse"}}, {"type": "node", "id": 6366626218, "lat": -33.6056309, "lon": 150.8224657, "tags": {"amenity": "restaurant", "cuisine": "indian", "internet_access": "no", "name": "Classic Indian Curry Hut", "outdoor_seating": "yes", "smoking": "no", "takeaway": "yes"}}, {"type": "node", "id": 6796103236, "lat": -33.5508552, "lon": 150.6893538, "tags": {"amenity": "restaurant", "cuisine": "thai", "name": "Noy Thai Takeaway"}}, {"type": "node", "id": 7176556408, "lat": -33.7466178, "lon": 150.6735447, "tags": {"addr:housenumber": "95", "addr:street": "Great Western Highway", "addr:suburb": "Emu Plains", "amenity": "restaurant", "cuisine": "bbq", "name": "Bovine & Swine Barbecue Co.", "website": "http://bovineandswine.com.au"}}, {"type": "node", "id": 7176556441, "lat": -33.7466045, "lon": 150.6733813, "tags": {"amenity": "restaurant", "name": "The Carriage"}}, {"type": "node", "id": 7176945845, "lat": -33.7531456, "lon": 150.6571459, "tags": {"amenity": "restaurant", "name": "Noodle Paradise"}}, {"type": "node", "id": 7176946203, "lat": -33.7460034, "lon": 150.683454, "tags": {"amenity": "restaurant", "name": "Paddles", "website": "https://www.nepeanrowingclub.com.au/dining.html"}}, {"type": "node", "id": 7176946436, "lat": -33.7511078, "lon": 150.6945016, "tags": {"amenity": "restaurant", "name": "Stir Crazy"}}, {"type": "node", "id": 7176946437, "lat": -33.7511807, "lon": 150.6944671, "tags": {"amenity": "restaurant", "cuisine": "sushi", "name": "Sushi Bay"}}, {"type": "node", "id": 7176946440, "lat": -33.7506763, "lon": 150.694618, "tags": {"amenity": "restaurant", "name": "Fratelli Famous"}}, {"type": "node", "id": 7176946449, "lat": -33.7517608, "lon": 150.6937808, "tags": {"amenity": "restaurant", "name": "Dosa Hut"}}, {"type": "node", "id": 7176946451, "lat": -33.7507891, "lon": 150.6941604, "tags": {"amenity": "restaurant", "name": "Chilli Jam"}}, {"type": "node", "id": 7176946452, "lat": -33.7510156, "lon": 150.6940875, "tags": {"amenity": "restaurant", "brand": "Nando's", "brand:wikidata": "Q3472954", "brand:wikipedia": "en:Nando's", "cuisine": "chicken;portuguese", "name": "Nando's"}}, {"type": "node", "id": 7176946474, "lat": -33.7528205, "lon": 150.6946223, "tags": {"addr:housenumber": "535", "addr:street": "High Street", "addr:unit": "2", "amenity": "restaurant", "name": "El Jannah"}}, {"type": "node", "id": 7176946483, "lat": -33.7524592, "lon": 150.6937061, "tags": {"amenity": "restaurant", "cuisine": "sushi", "name": "Ichiban Sushi"}}, {"type": "node", "id": 7176946484, "lat": -33.7523384, "lon": 150.6934739, "tags": {"amenity": "restaurant", "cuisine": "indian", "name": "Talking Tables Indian"}}, {"type": "node", "id": 7178065784, "lat": -33.7528037, "lon": 150.69317, "tags": {"addr:housenumber": "558", "addr:street": "High Street", "addr:unit": "1", "amenity": "restaurant", "cuisine": "thai", "name": "Siam Cuisine"}}, {"type": "node", "id": 7178071085, "lat": -33.752794, "lon": 150.693112, "tags": {"addr:housenumber": "560", "addr:unit": "2", "amenity": "restaurant", "cuisine": "indian", "name": "Cook's Castle"}}, {"type": "node", "id": 7178071086, "lat": -33.752768, "lon": 150.6929914, "tags": {"addr:housenumber": "562", "addr:street": "High Street", "amenity": "restaurant", "name": "High Street Social"}}, {"type": "node", "id": 7178732247, "lat": -33.7535611, "lon": 150.6968395, "tags": {"addr:housenumber": "444", "addr:postcode": "2750", "addr:state": "NSW", "addr:street": "High Street", "addr:suburb": "Penrith", "addr:unit": "2", "amenity": "restaurant", "name": "Manee Manee Thai Restaurant", "phone": "+61 2 4722 5909", "website": "http://maneemanee.com.au"}}, {"type": "node", "id": 7185292299, "lat": -33.7525521, "lon": 150.7002434, "tags": {"addr:housenumber": "19", "addr:street": "Lawson Street", "amenity": "restaurant", "cuisine": "japanese", "name": "Akira Teppanyaki"}}, {"type": "node", "id": 7185292363, "lat": -33.7537963, "lon": 150.6989156, "tags": {"addr:housenumber": "391", "addr:postcode": "2750", "addr:state": "NSW", "addr:street": "High Street", "addr:suburb": "Penrith", "amenity": "restaurant", "name": "Himalaya Restaurant", "phone": "+61 2 4721 5151", "website": "https://himalayarestaurant.com.au"}}, {"type": "node", "id": 7185292364, "lat": -33.7537016, "lon": 150.6986171, "tags": {"addr:housenumber": "401", "addr:postcode": "2750", "addr:state": "NSW", "addr:street": "High Street", "addr:suburb": "Penrith", "amenity": "restaurant", "cuisine": "chinese", "name": "Happy Inn", "phone": "+61 2 4731 5352", "website": "https://happyinnchineserestaurant.com.au/"}}, {"type": "node", "id": 7187432672, "lat": -33.6711383, "lon": 150.9562795, "tags": {"addr:housenumber": "169", "addr:street": "Annangrove Road", "amenity": "restaurant", "name": "Cafe Rialto Pizza Bar", "website": "https://www.caferialto.com.au"}}, {"type": "node", "id": 7192760727, "lat": -33.7543418, "lon": 150.6973767, "tags": {"addr:housenumber": "22", "addr:street": "Woodriff Street", "amenity": "restaurant", "cuisine": "thai", "name": "Bai Bua Thai Restaurant", "website": "http://www.baibuathai.com"}}, {"type": "node", "id": 7192760729, "lat": -33.7543276, "lon": 150.6976723, "tags": {"addr:housenumber": "20-22", "addr:street": "Woodriff Street", "addr:unit": "5", "amenity": "restaurant", "name": "Trevi"}}, {"type": "node", "id": 7192760739, "lat": -33.7547545, "lon": 150.6969325, "tags": {"addr:housenumber": "12", "addr:street": "Tindale Street", "addr:unit": "3", "amenity": "restaurant", "name": "Tins & Wood", "website": "https://www.tinsandwood.com.au"}}, {"type": "node", "id": 7192760774, "lat": -33.7550273, "lon": 150.6991268, "tags": {"addr:housenumber": "12", "addr:street": "Castlereagh Street", "amenity": "restaurant", "cuisine": "indian", "name": "Tamleni Indian Restaurant"}}, {"type": "node", "id": 7194087597, "lat": -33.7531283, "lon": 150.7006336, "tags": {"addr:housenumber": "80", "addr:street": "Henry Street", "amenity": "restaurant", "name": "Big Daddy's Burger Bar", "opening_hours": "Mo-Sa 11:00-22:00; Su 11:00-21:00", "website": "http://bigdaddysburgerbar.com.au"}}, {"type": "node", "id": 7194087598, "lat": -33.7531989, "lon": 150.7008847, "tags": {"addr:housenumber": "76", "addr:street": "Henry Street", "addr:unit": "4", "amenity": "restaurant", "name": "Product of Italy", "website": "https://productofitaly.com.au"}}, {"type": "node", "id": 7194087680, "lat": -33.754616, "lon": 150.7035978, "tags": {"addr:housenumber": "261", "addr:street": "High Street", "addr:unit": "1", "amenity": "restaurant", "name": "Downtown Brooklyn"}}, {"type": "node", "id": 7221980790, "lat": -33.7614726, "lon": 150.7137304, "tags": {"addr:housenumber": "54", "addr:street": "Derby Street", "amenity": "restaurant", "cuisine": "sushi", "name": "Jin Sushi", "opening_hours": "Mo-Su 08:00-21:30"}}, {"type": "node", "id": 7221980992, "lat": -33.7584002, "lon": 150.718075, "tags": {"addr:housenumber": "232", "addr:street": "Great Western Highway", "amenity": "restaurant", "cuisine": "chinese", "name": "Say Inn Chinese Restaurant", "website": "https://www.sayinnkingswood.com.au/menu"}}, {"type": "node", "id": 7236403341, "lat": -33.5311481, "lon": 150.6307321, "tags": {"addr:housenumber": "1259", "addr:street": "Bells Line of Road", "amenity": "restaurant", "name": "Lochiel House", "website": "https://www.lochielhouse.com.au"}}, {"type": "node", "id": 7236403366, "lat": -33.5548303, "lon": 150.6652207, "tags": {"addr:housenumber": "1147", "addr:street": "Grose Vale Road", "addr:unit": "5", "amenity": "restaurant", "cuisine": "pizza", "name": "Numero Uno Pizzeria & Pasta Bar"}}, {"type": "node", "id": 7236403481, "lat": -33.5531823, "lon": 150.6956958, "tags": {"addr:housenumber": "452", "addr:street": "Bells Line of Road", "amenity": "restaurant", "name": "Kravings", "website": "https://www.kravings.com.au"}}, {"type": "node", "id": 7236403482, "lat": -33.5560582, "lon": 150.6991707, "tags": {"addr:housenumber": "406", "addr:street": "Bells Line of Road", "amenity": "restaurant", "name": "Kurmond Social", "website": "https://www.kurmondsocial.com.au"}}, {"type": "node", "id": 7305079529, "lat": -33.5823986, "lon": 150.7212862, "tags": {"addr:housenumber": "15-17", "addr:street": "Bells Line of Road", "addr:unit": "8", "amenity": "restaurant", "cuisine": "chinese", "name": "The River Orchid Chinese Restaurant"}}, {"type": "node", "id": 7305079624, "lat": -33.5810431, "lon": 150.7192411, "tags": {"amenity": "restaurant", "cuisine": "chinese", "name": "The Yummy Cuisine"}}, {"type": "node", "id": 7305222765, "lat": -33.580793, "lon": 150.721222, "tags": {"addr:housenumber": "30", "addr:street": "Bells Line of Road", "amenity": "restaurant", "cuisine": "thai", "name": "Thai Lai Krarm", "phone": "+61245713654"}}, {"type": "node", "id": 7308799338, "lat": -33.3843996, "lon": 150.9863133, "tags": {"addr:housenumber": "5564", "addr:street": "Old Northern Road", "amenity": "restaurant", "cuisine": "modern_australian", "name": "Riverbend Restaurant", "phone": "+6124566 4422"}}, {"type": "node", "id": 7314034129, "lat": -33.3858397, "lon": 150.9856456, "tags": {"addr:housenumber": "6", "addr:street": "Old Northern Road", "amenity": "restaurant", "cuisine": "pub", "name": "Wisemans Inn Bistro", "phone": "+6124566 4739", "website": "https://www.wisemansinnhotel.com.au/#BISTRO2"}}, {"type": "node", "id": 7314034142, "lat": -33.3846586, "lon": 150.9869667, "tags": {"amenity": "restaurant", "cuisine": "pub", "name": "Grub on the Green", "opening_hours": "Mo-Fr 12:00-14:30; We-Su 17:30-20:30", "phone": "+6124566 4307", "website": "https://www.wfbc.com.au/dining/"}}, {"type": "node", "id": 7758641510, "lat": -33.7247472, "lon": 150.845305, "tags": {"amenity": "restaurant", "cuisine": "vietnamese", "name": "Greenway Pho & Vietnamese"}}, {"type": "node", "id": 8380734735, "lat": -33.7464197, "lon": 150.8998137, "tags": {"amenity": "restaurant", "cuisine": "chinese", "name": "Marayong Court Chinese Restaurant", "name:zh": "\u597d\u5f69"}}, {"type": "node", "id": 8380734761, "lat": -33.7461618, "lon": 150.9045823}, {"type": "node", "id": 8380734762, "lat": -33.7462139, "lon": 150.9048615}, {"type": "node", "id": 8380734763, "lat": -33.7465864, "lon": 150.9047829}, {"type": "node", "id": 8380734764, "lat": -33.7465903, "lon": 150.9044938}, {"type": "node", "id": 8380734765, "lat": -33.7466173, "lon": 150.9047253}, {"type": "node", "id": 8380734809, "lat": -33.7464671, "lon": 150.8998308, "tags": {"amenity": "restaurant", "name": "Marayong Take Away & Milk Bar"}}, {"type": "node", "id": 8689929720, "lat": -33.7537561, "lon": 150.8880325, "tags": {"amenity": "restaurant", "cuisine": "Burnese", "name": "Sun's Kitchen"}}, {"type": "node", "id": 8695632771, "lat": -33.6405705, "lon": 150.7857918}, {"type": "node", "id": 8695632772, "lat": -33.6406937, "lon": 150.7856697}, {"type": "node", "id": 8695632773, "lat": -33.6407822, "lon": 150.7857293}, {"type": "node", "id": 8695632774, "lat": -33.6407191, "lon": 150.7858153}, {"type": "node", "id": 8695632775, "lat": -33.6407347, "lon": 150.7858529}, {"type": "node", "id": 8695632776, "lat": -33.6406702, "lon": 150.7859116}, {"type": "node", "id": 8695632777, "lat": -33.6406467, "lon": 150.7858717}, {"type": "node", "id": 8695632778, "lat": -33.6406233, "lon": 150.7858928}, {"type": "node", "id": 8748534288, "lat": -33.7450073, "lon": 150.6917509}, {"type": "node", "id": 8748534289, "lat": -33.7451096, "lon": 150.6917197}, {"type": "node", "id": 8748534290, "lat": -33.7451469, "lon": 150.6918961}, {"type": "node", "id": 8748534291, "lat": -33.7451343, "lon": 150.6919}, {"type": "node", "id": 8748534292, "lat": -33.7451655, "lon": 150.6920476}, {"type": "node", "id": 8748534293, "lat": -33.745136, "lon": 150.6920566}, {"type": "node", "id": 8748534294, "lat": -33.7451252, "lon": 150.6920056}, {"type": "node", "id": 8748534295, "lat": -33.745065, "lon": 150.692024}, {"type": "node", "id": 8838437699, "lat": -33.7197816, "lon": 150.8409861, "tags": {"amenity": "restaurant", "brand": "Zambrero", "brand:wikidata": "Q18636431", "brand:wikipedia": "en:Zambrero", "cuisine": "mexican", "name": "Zambrero"}}, {"type": "node", "id": 8838437702, "lat": -33.7197066, "lon": 150.8407299, "tags": {"amenity": "restaurant", "cuisine": "sushi", "name": "Choice Sushi"}}, {"type": "node", "id": 8909270065, "lat": -33.7467676, "lon": 150.7420848, "tags": {"addr:housenumber": "11", "addr:postcode": "2747", "addr:state": "NSW", "addr:street": "Dunheved Road", "addr:suburb": "Werrington County", "amenity": "restaurant", "cuisine": "chinese", "delivery": "yes", "name": "Soo's Chinese Restaurant", "phone": "+61 2 9623 6638", "takeaway": "yes"}}, {"type": "node", "id": 8909270082, "lat": -33.7465369, "lon": 150.7398738, "tags": {"addr:housenumber": "21", "addr:postcode": "2747", "addr:state": "NSW", "addr:street": "Lavin Crescent", "addr:suburb": "Werrington County", "addr:unit": "5", "amenity": "restaurant", "cuisine": "thai", "name": "Thai La-Ong", "opening_hours": "Mo-Su 11:30-21:00", "phone": "+61 2 9623 2000"}}, {"type": "node", "id": 8911213265, "lat": -33.7580663, "lon": 150.7567005, "tags": {"addr:housenumber": "82", "addr:postcode": "2747", "addr:state": "NSW", "addr:street": "Victoria Street", "addr:suburb": "Werrington", "addr:unit": "Shop 9", "amenity": "restaurant", "cuisine": "asian", "name": "Fountain Kitchen", "opening_hours": "Mo-Sa 11:30-14:30,16:30-20:30", "phone": "+61 2 9623 1617"}}, {"type": "node", "id": 9175979516, "lat": -33.7127395, "lon": 150.9572197, "tags": {"addr:housenumber": "6", "addr:street": "50 Windsor rd, Kellyville, 2155", "amenity": "restaurant", "name": "Galaxy Pizza", "opening_hours": "Tu-Th 16:00-21:00; Fr,Sa 15:00-22:00; Su 15:00-21:00", "phone": "+61 2 8883 0200", "website": "https://pizzagalaxy-kellyville.com.au/"}}, {"type": "node", "id": 9259000115, "lat": -33.7457599, "lon": 150.6215201, "tags": {"addr:housenumber": "43-47", "addr:street": "Old Bathurst Road", "addr:unit": "3", "amenity": "restaurant", "cuisine": "thai", "name": "Thai Street"}}, {"type": "node", "id": 9295247730, "lat": -33.7055058, "lon": 150.8755928, "tags": {"amenity": "restaurant", "brand": "Mad Mex Fresh Mexican Grill", "brand:wikidata": "Q19589766", "brand:wikipedia": "en:Mad Mex Fresh Mexican Grill", "cuisine": "mexican", "name": "Mad Mex Fresh Mexican Grill"}}, {"type": "node", "id": 9318665509, "lat": -33.7577308, "lon": 150.6917343, "tags": {"amenity": "restaurant", "cuisine": "sushi", "name": "Sushi Sapporo"}}, {"type": "node", "id": 9318680817, "lat": -33.7574984, "lon": 150.6923756, "tags": {"amenity": "restaurant", "cuisine": "indian", "name": "Sehaj Indian Food & Sweets"}}, {"type": "node", "id": 9318680820, "lat": -33.757359, "lon": 150.6922893, "tags": {"amenity": "restaurant", "cuisine": "chinese", "name": "Koon Hong"}}, {"type": "node", "id": 9318680821, "lat": -33.7573336, "lon": 150.6924254, "tags": {"amenity": "restaurant", "cuisine": "sushi", "name": "Akira Sushi"}}, {"type": "node", "id": 9318680857, "lat": -33.7573055, "lon": 150.6896208, "tags": {"addr:housenumber": "147", "addr:street": "Station Street", "amenity": "restaurant", "cuisine": "pub", "name": "Bistro K @ Club Paceway", "opening_hours": "Mo-Su 12:00-14:00,17:30-21:00", "website": "https://www.clubpacewaypenrith.com/club-paceway-bistro"}}, {"type": "node", "id": 9331650632, "lat": -33.7536156, "lon": 150.698108, "tags": {"addr:housenumber": "419", "addr:postcode": "2750", "addr:state": "NSW", "addr:street": "High Street", "addr:suburb": "Penrith", "amenity": "restaurant", "cuisine": "indian", "name": "Taj of the Valley", "phone": "+61 2 4721 1833", "website": "https://taj-of-the-valley.com.au/"}}, {"type": "node", "id": 9331650633, "lat": -33.7536837, "lon": 150.6983956, "tags": {"addr:housenumber": "407-411", "addr:postcode": "2750", "addr:state": "NSW", "addr:street": "High Street", "addr:suburb": "Penrith", "amenity": "restaurant", "cuisine": "vietnamese", "name": "The Savoury Dining", "phone:AU": "1800 687 168", "website": "https://www.thesavourydining.com.au/"}}, {"type": "node", "id": 9331650645, "lat": -33.7539281, "lon": 150.6994965, "tags": {"addr:housenumber": "375", "addr:postcode": "2750", "addr:state": "NSW", "addr:street": "High Street", "addr:suburb": "Penrith", "amenity": "restaurant", "cuisine": "thai", "name": "3 Junction Thai Food", "phone": "+61 2 4731 5128"}}, {"type": "node", "id": 9334029005, "lat": -33.7536326, "lon": 150.6971533, "tags": {"addr:housenumber": "440B", "addr:postcode": "2750", "addr:state": "NSW", "addr:street": "High Street", "addr:suburb": "Penrith", "amenity": "restaurant", "cuisine": "indian", "name": "I LOVE CURRY'S", "phone": "+61 2 4742 5701"}}, {"type": "node", "id": 9334029009, "lat": -33.7535796, "lon": 150.696917, "tags": {"addr:housenumber": "444", "addr:postcode": "2750", "addr:state": "NSW", "addr:street": "High Street", "addr:suburb": "Penrith", "amenity": "restaurant", "cuisine": "lebanese;breakfast;coffee", "delivery": "yes", "delivery:partner": "Doordash;Uber Eats;Menu Log", "diet:halal": "yes", "name": "Pappa Charlies Bakehouse", "opening_hours": "Tu-Sa 08:00-20:00; Su 08:00-04:00", "phone": "+61 2 4732 4612", "website": "https://www.pappacharlies.com.au/"}}, {"type": "node", "id": 9334029011, "lat": -33.7535367, "lon": 150.6967173, "tags": {"addr:housenumber": "450", "amenity": "restaurant", "cuisine": "sushi", "name": "Windy Sushi", "phone": "+61 2 4722 8891"}}, {"type": "node", "id": 9334029013, "lat": -33.7535147, "lon": 150.6966477, "tags": {"addr:housenumber": "450", "addr:postcode": "2750", "addr:state": "NSW", "addr:street": "High Street", "addr:suburb": "Penrith", "amenity": "restaurant", "cuisine": "thai", "name": "Tuk Tuk Thai Street Food", "phone": "+61 2 4721 4929", "website": "https://tuktukthaistreetfood.com.au"}}, {"type": "node", "id": 9351509104, "lat": -33.7508596, "lon": 150.690871, "tags": {"amenity": "restaurant", "cuisine": "sushi", "name": "Sushi Hub", "opening_hours": "Mo-We 08:00-19:00; Th 08:00-21:30; Fr 08:00-19:30; Sa 08:00-19:00; Su 08:00-18:30", "phone": "+61 2 4722 5588", "website": "https://www.sushihub.com.au/", "wheelchair": "yes"}}, {"type": "node", "id": 9351509106, "lat": -33.7509003, "lon": 150.6908562, "tags": {"amenity": "restaurant", "cuisine": "chinese", "name": "Happy Year Chinese Takeaway"}}, {"type": "node", "id": 9351509111, "lat": -33.7509517, "lon": 150.6910432, "tags": {"amenity": "restaurant", "cuisine": "indian", "name": "Mumbai Express"}}, {"type": "node", "id": 9351509112, "lat": -33.7508864, "lon": 150.6910607, "tags": {"amenity": "restaurant", "cuisine": "vietnamese", "name": "Roll'd"}}, {"type": "node", "id": 9364661966, "lat": -33.7652997, "lon": 150.7740949, "tags": {"amenity": "restaurant", "cuisine": "indian", "name": "Connaught Place"}}, {"type": "node", "id": 9364661969, "lat": -33.7651293, "lon": 150.774124, "tags": {"amenity": "restaurant", "cuisine": "american;chinese", "name": "Chicago Ribs & Imperial City Chinese Restaurant"}}, {"type": "node", "id": 9364661979, "lat": -33.7645316, "lon": 150.7742261, "tags": {"amenity": "restaurant", "cuisine": "chinese", "name": "Golden Chopsticks Chinese Restaurant"}}, {"type": "node", "id": 9364661988, "lat": -33.7640188, "lon": 150.774305, "tags": {"amenity": "restaurant", "name": "Major Oak Theatre Restaurant"}}, {"type": "node", "id": 9365266923, "lat": -33.7627955, "lon": 150.7748305, "tags": {"amenity": "restaurant", "cuisine": "indian", "name": "Khizer Biryani & Tikka House"}}, {"type": "node", "id": 9365266937, "lat": -33.7642736, "lon": 150.7746005, "tags": {"amenity": "restaurant", "cuisine": "indian", "name": "Princess Nisha's Kitchen"}}, {"type": "node", "id": 9365266945, "lat": -33.7649899, "lon": 150.7745251, "tags": {"amenity": "restaurant", "cuisine": "lebanese", "name": "Sydney's Charcoal Chicken"}}, {"type": "node", "id": 9448730928, "lat": -33.7457045, "lon": 150.9520164, "tags": {"addr:housenumber": "1", "addr:postcode": "2153", "addr:state": "NSW", "addr:street": "Circa Boulevarde", "addr:suburb": "Bella Vista", "addr:unit": "18", "amenity": "restaurant", "cuisine": "sushi", "name": "Sushi Gon"}}, {"type": "node", "id": 9448730929, "lat": -33.745798, "lon": 150.9522327, "tags": {"amenity": "restaurant", "cuisine": "chinese", "name": "Golden Bowl BBQ"}}, {"type": "node", "id": 9448730931, "lat": -33.7455823, "lon": 150.9521283, "tags": {"amenity": "restaurant", "cuisine": "pizza", "name": "George's Gormet Pizzeria", "phone": "+61 2 9836 2711", "website": "https://georges.pizza/"}}, {"type": "node", "id": 9480179650, "lat": -33.7206993, "lon": 150.6966731}, {"type": "node", "id": 9480179651, "lat": -33.7207338, "lon": 150.6966667}, {"type": "node", "id": 9480179652, "lat": -33.7207269, "lon": 150.6966132}, {"type": "node", "id": 9480179653, "lat": -33.7207446, "lon": 150.6966098}, {"type": "node", "id": 9480179654, "lat": -33.7207433, "lon": 150.6965992}, {"type": "node", "id": 9480179655, "lat": -33.7207898, "lon": 150.6965905}, {"type": "node", "id": 9480179656, "lat": -33.7207931, "lon": 150.6966159}, {"type": "node", "id": 9480179657, "lat": -33.7208057, "lon": 150.6966135}, {"type": "node", "id": 9480179658, "lat": -33.7208204, "lon": 150.6967274}, {"type": "node", "id": 9480179659, "lat": -33.7208613, "lon": 150.6967197}, {"type": "node", "id": 9480179660, "lat": -33.7208651, "lon": 150.6967495}, {"type": "node", "id": 9480179661, "lat": -33.7208264, "lon": 150.6967568}, {"type": "node", "id": 9480179662, "lat": -33.7208305, "lon": 150.6967887}, {"type": "node", "id": 9480179663, "lat": -33.7208525, "lon": 150.6967845}, {"type": "node", "id": 9480179664, "lat": -33.7208658, "lon": 150.6968868}, {"type": "node", "id": 9480179665, "lat": -33.7208439, "lon": 150.6968909}, {"type": "node", "id": 9480179666, "lat": -33.7208444, "lon": 150.696895}, {"type": "node", "id": 9480179667, "lat": -33.7207651, "lon": 150.6969098}, {"type": "node", "id": 9480179668, "lat": -33.7207498, "lon": 150.6967912}, {"type": "node", "id": 9480179669, "lat": -33.7207154, "lon": 150.6967976}, {"type": "node", "id": 9491813160, "lat": -33.7436051, "lon": 150.8091061, "tags": {"addr:housenumber": "40", "addr:street": "Jersey Road", "addr:unit": "5", "amenity": "restaurant", "cuisine": "noodle", "name": "Noodle Hut", "opening_hours": "Mo-Su 011:00-21:30", "phone": "+61 2 9835 2530", "website": "https://noodlehuts.com.au/nsw-emerton"}}, {"type": "node", "id": 9491813162, "lat": -33.7436104, "lon": 150.8092338, "tags": {"addr:housenumber": "40", "addr:street": "Jersey Road", "addr:unit": "3", "amenity": "restaurant", "cuisine": "indian", "name": "Sehaj Indian", "note": "Website link dead", "opening_hours": "Mo-Su 10:00-22:00", "phone": "+61 2 9835 3253", "website": "https://www.sehajindianfood.com.au/"}}, {"type": "node", "id": 9491813163, "lat": -33.7436132, "lon": 150.8093033, "tags": {"addr:housenumber": "40", "addr:street": "Jersey Road", "addr:unit": "2", "amenity": "restaurant", "branch": "Emerton", "cuisine": "turkish", "name": "Sahara Street Food", "opening_hours": "Mo-Su 09:30-21:00", "phone": "+61 2 9628 5709", "website": "https://www.saharastreetfood.com.au/"}}, {"type": "node", "id": 9491813170, "lat": -33.7435716, "lon": 150.8096477, "tags": {"addr:housenumber": "40", "addr:street": "Jersey Road", "addr:unit": "15", "amenity": "restaurant", "cuisine": "seafood", "name": "Kickin' Inn", "phone": "+61 2 8809 7887", "strapline": "Kajun Seafood Taste the Experience", "website": "https://www.kickininn.com.au/"}}, {"type": "node", "id": 9619978487, "lat": -33.7658634, "lon": 150.8208823, "tags": {"amenity": "restaurant", "brand": "TGI Friday's", "brand:wikidata": "Q1524184", "brand:wikipedia": "en:TGI Fridays", "cuisine": "american", "name": "TGI Friday's"}}, {"type": "node", "id": 9619978491, "lat": -33.766128, "lon": 150.8207817, "tags": {"amenity": "restaurant", "cuisine": "thai", "name": "Little Bangkok"}}, {"type": "node", "id": 9619978492, "lat": -33.7661313, "lon": 150.8208823, "tags": {"amenity": "restaurant", "brand": "Mad Mex Fresh Mexican Grill", "brand:wikidata": "Q19589766", "brand:wikipedia": "en:Mad Mex Fresh Mexican Grill", "cuisine": "mexican", "name": "Mad Mex Fresh Mexican Grill"}}, {"type": "node", "id": 9619978494, "lat": -33.7657779, "lon": 150.8207763, "tags": {"amenity": "restaurant", "cuisine": "turkish", "name": "Pasha"}}, {"type": "node", "id": 9689096273, "lat": -33.7462141, "lon": 150.6792505, "tags": {"amenity": "restaurant", "name": "Emu Hall Bar & Kitchen"}}, {"type": "node", "id": 10180526459, "lat": -33.7199836, "lon": 150.7099788}, {"type": "node", "id": 10180526460, "lat": -33.7199253, "lon": 150.7101952}, {"type": "node", "id": 10180526461, "lat": -33.7199004, "lon": 150.7099937}, {"type": "node", "id": 10221053210, "lat": -33.7545401, "lon": 150.7048887}, {"type": "node", "id": 10221053211, "lat": -33.7542902, "lon": 150.7049584}, {"type": "node", "id": 10221053212, "lat": -33.7543042, "lon": 150.7050293}, {"type": "node", "id": 10221053213, "lat": -33.7545534, "lon": 150.7049598}, {"type": "node", "id": 10221555459, "lat": -33.7542838, "lon": 150.7049253, "tags": {"access": "customers", "entrance": "yes"}}, {"type": "node", "id": 10221555460, "lat": -33.7543094, "lon": 150.7050562, "tags": {"access": "customers", "entrance": "yes"}}, {"type": "node", "id": 10239329065, "lat": -33.6904423, "lon": 150.925403, "tags": {"addr:unit": "GR 112", "amenity": "restaurant", "cuisine": "sushi", "name": "Sushi Musa", "opening_hours": "Mo-Su 11:30-21:00", "phone": "+61 2 8824 7853", "website": "https://www.sushimusa.com.au/"}}, {"type": "node", "id": 10251607766, "lat": -33.6910292, "lon": 150.9250179, "tags": {"amenity": "restaurant", "brand": "Nando's", "brand:wikidata": "Q3472954", "cuisine": "chicken;portuguese", "name": "Nando's"}}, {"type": "node", "id": 10251607767, "lat": -33.6911628, "lon": 150.9248185, "tags": {"amenity": "restaurant", "cuisine": "german", "name": "The Bavarian"}}, {"type": "node", "id": 10251749417, "lat": -33.6904582, "lon": 150.9262735, "tags": {"amenity": "restaurant", "cuisine": "greek", "name": "Eat GRK"}}, {"type": "node", "id": 10251749419, "lat": -33.6902228, "lon": 150.9262415, "tags": {"amenity": "restaurant", "brand": "Mad Mex Fresh Mexican Grill", "brand:wikidata": "Q19589766", "cuisine": "mexican", "name": "Mad Mex Fresh Mexican Grill"}}, {"type": "node", "id": 10251749426, "lat": -33.6898095, "lon": 150.9268521, "tags": {"amenity": "restaurant", "cuisine": "japanese", "name": "Kaito"}}, {"type": "node", "id": 10252926555, "lat": -33.6909928, "lon": 150.9245447, "tags": {"amenity": "restaurant", "cuisine": "thai", "name": "Thai Splendid"}}, {"type": "node", "id": 10252926556, "lat": -33.6909087, "lon": 150.9246644, "tags": {"amenity": "restaurant", "cuisine": "thai", "name": "P'Nut Street Noodles"}}, {"type": "node", "id": 10253960716, "lat": -33.7055912, "lon": 150.9110806, "tags": {"addr:unit": "Shop 5", "amenity": "restaurant", "cuisine": "thai", "name": "Koko Thai Restaurant"}}, {"type": "node", "id": 10253960718, "lat": -33.7056429, "lon": 150.9112074, "tags": {"addr:unit": "Shop 7", "amenity": "restaurant", "cuisine": "chinese", "name": "Golden Ponds Chinese Restaurant"}}, {"type": "node", "id": 10253960719, "lat": -33.7058051, "lon": 150.91116, "tags": {"addr:unit": "Shop 2", "amenity": "restaurant", "cuisine": "turkish", "name": "Sahara Street Food"}}, {"type": "node", "id": 10253960722, "lat": -33.7057483, "lon": 150.911825, "tags": {"addr:unit": "Shop 13", "amenity": "restaurant", "cuisine": "sushi", "name": "Wonder Sushi"}}, {"type": "node", "id": 10254148491, "lat": -33.7003515, "lon": 150.927465, "tags": {"amenity": "restaurant", "cuisine": "pizza", "name": "Ricks Pizzeria e Ristorante"}}, {"type": "node", "id": 10261718348, "lat": -33.7200085, "lon": 150.7101802}, {"type": "node", "id": 10261718349, "lat": -33.7199161, "lon": 150.7101205}, {"type": "node", "id": 10564327471, "lat": -33.6845991, "lon": 150.9180059}, {"type": "node", "id": 10564327472, "lat": -33.6845028, "lon": 150.9179287}, {"type": "node", "id": 10564327473, "lat": -33.6845707, "lon": 150.9178084}, {"type": "node", "id": 10564327474, "lat": -33.6846737, "lon": 150.9179023}, {"type": "node", "id": 10564327475, "lat": -33.6846078, "lon": 150.9180064}, {"type": "node", "id": 10564333521, "lat": -33.684577, "lon": 150.9179183, "tags": {"addr:housenumber": "4/1", "addr:postcode": "2155", "addr:state": "NSW", "addr:street": "Resolution Place", "addr:suburb": "Rouse Hill", "amenity": "restaurant", "name": "MEAT AND FIRE BBQ"}}, {"type": "node", "id": 10586312876, "lat": -33.5965146, "lon": 150.7498898, "tags": {"amenity": "restaurant", "cuisine": "pizza", "name": "Aldo's Pizza Restaurant"}}, {"type": "node", "id": 10586312957, "lat": -33.5957929, "lon": 150.7484026, "tags": {"amenity": "restaurant", "cuisine": "italian", "name": "Fontina Woodfire Pizzeria"}}, {"type": "node", "id": 10586317862, "lat": -33.5965146, "lon": 150.7498898, "tags": {"amenity": "restaurant", "cuisine": "pizza", "name": "Aldo's Pizza Restaurant"}}, {"type": "node", "id": 10586317943, "lat": -33.5957929, "lon": 150.7484026, "tags": {"amenity": "restaurant", "cuisine": "italian", "name": "Fontina Woodfire Pizzeria"}}, {"type": "node", "id": 10587986805, "lat": -33.597052, "lon": 150.7517479, "tags": {"amenity": "restaurant", "cuisine": "asian", "name": "Yoko Korean & Japanese Food Paradise"}}, {"type": "node", "id": 10587986849, "lat": -33.5974098, "lon": 150.7525346, "tags": {"amenity": "restaurant", "cuisine": "thai", "name": "Kasalong Thai Restaurant"}}, {"type": "node", "id": 10588120655, "lat": -33.5979867, "lon": 150.7536972, "tags": {"amenity": "restaurant", "cuisine": "noodle", "name": "Classic Noodle House"}}, {"type": "node", "id": 10588123481, "lat": -33.5980387, "lon": 150.7528823, "tags": {"amenity": "restaurant", "cuisine": "indian", "name": "Tandoori Village"}}, {"type": "node", "id": 10588123482, "lat": -33.598092, "lon": 150.7528406, "tags": {"amenity": "restaurant", "cuisine": "thai", "name": "Monkey King Thai"}}, {"type": "node", "id": 10588123501, "lat": -33.5982492, "lon": 150.7536142, "tags": {"amenity": "restaurant", "cuisine": "indian", "name": "Patiala House Indian Restaurant"}}, {"type": "node", "id": 10588123502, "lat": -33.5982846, "lon": 150.7537122, "tags": {"amenity": "restaurant", "cuisine": "chinese", "name": "East Court Restaurant"}}, {"type": "node", "id": 10588123503, "lat": -33.5983063, "lon": 150.7537754, "tags": {"amenity": "restaurant", "cuisine": "pizza", "name": "Macquarie Pizza Place"}}, {"type": "node", "id": 10588599764, "lat": -33.6094183, "lon": 150.8073428, "tags": {"amenity": "restaurant", "name": "High Tea in the Valley"}}, {"type": "node", "id": 10590373740, "lat": -33.6050096, "lon": 150.8235492, "tags": {"amenity": "restaurant", "cuisine": "pizza", "name": "Dom's Pizza & Pasta"}}, {"type": "node", "id": 10590373741, "lat": -33.6050547, "lon": 150.8234032, "tags": {"amenity": "restaurant", "cuisine": "burger", "name": "The Grill On George"}}, {"type": "node", "id": 10591053657, "lat": -33.6051673, "lon": 150.8230927, "tags": {"addr:housenumber": "82", "addr:street": "George Street", "amenity": "restaurant", "cuisine": "thai", "name": "Windsor Thai"}}, {"type": "node", "id": 10591053690, "lat": -33.605282, "lon": 150.822969, "tags": {"amenity": "restaurant", "cuisine": "chinese", "name": "Windsor Chinese"}}, {"type": "node", "id": 10591064195, "lat": -33.6059629, "lon": 150.8229157, "tags": {"amenity": "restaurant", "cuisine": "chinese", "name": "Fine & Cheap Chinese Take-Away"}}, {"type": "node", "id": 10591094158, "lat": -33.6058372, "lon": 150.8216661, "tags": {"addr:housenumber": "135", "addr:street": "George Street", "addr:unit": "2", "amenity": "restaurant", "cuisine": "burger;wings", "name": "Daddy's Burgers 'n Wings"}}, {"type": "node", "id": 10591094159, "lat": -33.6058528, "lon": 150.8216302, "tags": {"addr:housenumber": "135", "addr:street": "George Street", "addr:unit": "1", "amenity": "restaurant", "name": "Cricca"}}, {"type": "node", "id": 10591095262, "lat": -33.6051456, "lon": 150.821246, "tags": {"amenity": "restaurant", "cuisine": "noodle", "name": "J&B Asian Noodle Bar"}}, {"type": "node", "id": 10591291428, "lat": -33.6063621, "lon": 150.8203832, "tags": {"amenity": "restaurant", "cuisine": "chinese", "name": "Orchid 22 Chinese restaurant"}}, {"type": "node", "id": 10591343297, "lat": -33.6062689, "lon": 150.8215034, "tags": {"amenity": "restaurant", "cuisine": "thai", "name": "89 Thai Windsor"}}, {"type": "node", "id": 10592541909, "lat": -33.6083258, "lon": 150.8195833, "tags": {"amenity": "restaurant", "brand": "Pizza Hut", "brand:wikidata": "Q191615", "cuisine": "pizza", "name": "Pizza Hut"}}, {"type": "node", "id": 10760385507, "lat": -33.7619231, "lon": 150.7070801, "tags": {"amenity": "restaurant", "name": "Pizza Connect"}}, {"type": "node", "id": 10785794305, "lat": -33.7581746, "lon": 150.7171209, "tags": {"amenity": "restaurant", "cuisine": "japanese;ramen;sushi", "name": "Asuka"}}, {"type": "way", "id": 117917148, "nodes": [1327239077, 1327239031, 1327239012, 1327239054, 1327239077], "tags": {"addr:housenumber": "122", "addr:street": "Station Street", "amenity": "restaurant", "building": "yes", "cuisine": "mexican", "name": "El Gringos Locos"}}, {"type": "way", "id": 487238514, "nodes": [359882059, 4797473847, 4797473862, 4797473870, 359882059], "tags": {"amenity": "restaurant", "brand": "Outback Steakhouse", "brand:wikidata": "Q1064893", "brand:wikipedia": "en:Outback Steakhouse", "building": "yes", "cuisine": "american;steak", "name": "Outback Steakhouse"}}, {"type": "way", "id": 537038752, "nodes": [5201209514, 5201209520, 5201209521, 5201209515, 5201209519, 5201209518, 5201209513, 5201209522, 5201209524, 5201209512, 5201209516, 5201209517, 5201209511, 5201209523, 5201209514], "tags": {"amenity": "restaurant", "building": "yes"}}, {"type": "way", "id": 537038757, "nodes": [5201209592, 5201209601, 5201209602, 5201209593, 5201209606, 5201209605, 5201209591, 5201209598, 5201209589, 5201209595, 5201209596, 5201209588, 5201209597, 5201209590, 5201209604, 5201209603, 5201209599, 5201209600, 5201209594, 5201209592], "tags": {"amenity": "restaurant", "building": "yes", "cuisine": "regional", "name": "Tractor 828", "smoking": "no", "takeaway": "yes"}}, {"type": "way", "id": 902272675, "nodes": [8380734761, 8380734762, 8380734763, 8380734765, 8380734764, 8380734761], "tags": {"amenity": "restaurant", "building": "yes", "name": "Grind & Grill"}}, {"type": "way", "id": 938646048, "nodes": [8695632771, 8695632772, 8695632773, 8695632774, 8695632775, 8695632776, 8695632777, 8695632778, 8695632771], "tags": {"amenity": "restaurant", "brand": "Guzman y Gomez", "brand:wikidata": "Q23019759", "brand:wikipedia": "en:Guzman y Gomez", "building": "yes", "cuisine": "mexican", "drive_through": "yes", "name": "Guzman y Gomez"}}, {"type": "way", "id": 944981615, "nodes": [8748534288, 8748534289, 8748534290, 8748534291, 8748534292, 8748534293, 8748534294, 8748534295, 8748534288], "tags": {"amenity": "restaurant", "brand": "Zambrero", "brand:wikidata": "Q18636431", "brand:wikipedia": "en:Zambrero", "building": "yes", "cuisine": "mexican", "name": "Zambrero"}}, {"type": "way", "id": 1028271836, "nodes": [9480179650, 9480179651, 9480179652, 9480179653, 9480179654, 9480179655, 9480179656, 9480179657, 9480179658, 9480179659, 9480179660, 9480179661, 9480179662, 9480179663, 9480179664, 9480179665, 9480179666, 9480179667, 9480179668, 9480179669, 9480179650], "tags": {"amenity": "restaurant", "building": "yes", "cuisine": "greek", "name": "Avli", "phone": "+61 2 4729 1970", "website": "https://avlirestaurant.com.au/"}}, {"type": "way", "id": 1112685716, "nodes": [10261718348, 10180526460, 10261718349, 10180526461, 10180526459, 10261718348], "tags": {"addr:unit": "6", "amenity": "restaurant", "branch": "Cranebrook", "cuisine": "noodle", "indoor": "room", "indoor_seating": "yes", "name": "Noodle Paradise", "opening_hours": "Mo-We 09:30-21:00; Th-Su 09:30-21:30", "outdoor_seating": "sidewalk", "payment:credit_cards": "yes", "payment:debit_cards": "yes", "phone": "+61 2 4729 1710", "website": "https://www.noodleparadise.net.au/", "wheelchair": "yes"}}, {"type": "way", "id": 1117552724, "nodes": [10221053210, 10221053211, 10221555459, 4551512545, 4551512565, 10221053210], "tags": {"addr:housenumber": "26", "addr:street": "Henry Street", "addr:unit": "2", "air_conditioning": "yes", "amenity": "restaurant", "building": "yes", "cuisine": "chinese", "diet:vegetarian": "yes", "indoor_seating": "yes", "name": "Golden Inn", "opening_hours": "Mo,We,Th 16:30-21:00; Fr 04:30-21:30; Sa 11:30-21:30; Su 11:30-21:00; Tu off", "outdoor_seating": "no", "phone": "+61 2 4731 1688", "smoking": "no", "wheelchair": "yes"}}, {"type": "way", "id": 1117552726, "nodes": [4551512560, 10221555460, 10221053212, 10221053213, 4551512568, 4551512560], "tags": {"addr:housenumber": "26", "addr:street": "Henry Street", "addr:unit": "1", "amenity": "restaurant", "building": "yes", "cuisine": "pizza", "name": "Ronnie's Pizza House", "opening_hours": "We-Fr 16:00-21:00; Sa,Su 12:00-21:00; Mo,Tu off", "phone": "+61 (02) 4721 5222;+61 (02) 4723 3313", "website": "https://ronniespizzahouse.com.au", "wheelchair": "yes"}}, {"type": "way", "id": 1133054407, "nodes": [10564327471, 10564327472, 10564327473, 10564327474, 10564327475, 10564327471], "tags": {"addr:housenumber": "4/1", "addr:postcode": "2155", "addr:state": "NSW", "addr:street": "Resolution Place", "addr:suburb": "Rouse Hil", "amenity": "restaurant", "building": "yes", "cuisine": "steak_house;burger;chicken;barbecue;s36", "name": "MEAT AND FIRE BBQ", "phone": "(02) 8604 7713"}}]}