{"version": 0.6, "generator": "Overpass API 0.7.60 f4c14d41", "osm3s": {"timestamp_osm_base": "2023-05-02T21:17:24Z", "copyright": "The data included in this document is from www.openstreetmap.org. The data is made available under ODbL."}, "elements": [{"type": "node", "id": 2902722288, "lat": -33.6062963, "lon": 150.8219873, "tags": {"addr:postcode": "2756", "addr:street": "Kable Street", "addr:town": "Windsor", "amenity": "bar", "name": "The Church Bar"}}, {"type": "node", "id": 7213420094, "lat": -33.7581, "lon": 150.6837681, "tags": {"amenity": "bar", "name": "Squires Terrace Bar"}}, {"type": "node", "id": 7308799652, "lat": -33.3845236, "lon": 150.984234, "tags": {"amenity": "bar", "name": "Pool Bar"}}, {"type": "node", "id": 8448892912, "lat": -33.7354073, "lon": 150.9632128, "tags": {"addr:housenumber": "36", "addr:postcode": "2153", "addr:state": "NSW", "addr:street": "Brookhollow Avenue", "addr:suburb": "Baulkham Hills", "amenity": "bar", "name": "Mullane's Hotel", "phone": "+6188842828", "website": "https://mullanes.com.au"}}, {"type": "node", "id": 9331652560, "lat": -33.754307, "lon": 150.6967436, "tags": {"addr:housenumber": "21-25", "addr:postcode": "2750", "addr:state": "NSW", "addr:street": "Woodriff Street", "addr:suburb": "Penrith", "amenity": "bar", "min_age": "18", "name": "Theos Rooftop Bar", "note": "Smart Casual", "opening_hours": "We-Su 12:00-22:00", "source": "https://astinasuites.com.au/bar-and-dining"}}, {"type": "node", "id": 9619978488, "lat": -33.766248, "lon": 150.821113, "tags": {"amenity": "bar", "name": "The Sporting Globe"}}, {"type": "node", "id": 10591095265, "lat": -33.6055336, "lon": 150.82215, "tags": {"amenity": "bar", "name": "Ori\u2019s Bar"}}]}