{"version": 0.6, "generator": "Overpass API 0.7.60 f4c14d41", "osm3s": {"timestamp_osm_base": "2023-05-02T21:15:23Z", "copyright": "The data included in this document is from www.openstreetmap.org. The data is made available under ODbL."}, "elements": [{"type": "node", "id": 629118337, "lat": 22.2796211, "lon": 114.1852232, "tags": {"amenity": "bureau_de_change", "name": "\u52a0\u8aa0\u884c"}}, {"type": "node", "id": 3668123384, "lat": 22.2768575, "lon": 114.1754914, "tags": {"amenity": "bureau_de_change", "name": "\u8208\u696d\u627e\u63db\u6ed9\u6b3e\u516c\u53f8"}}, {"type": "node", "id": 3929690580, "lat": 22.2864334, "lon": 114.1519453, "tags": {"addr:street": "\u5fb7\u8f14\u9053\u4e2d Des Voeux Road Central", "amenity": "bureau_de_change", "name": "\u8aa0\u901a\u627e\u63db Trust Pass Exchange", "name:en": "Trust Pass Exchange", "name:zh": "\u8aa0\u901a\u627e\u63db"}}, {"type": "node", "id": 4075184715, "lat": 22.282633, "lon": 114.1576581, "tags": {"amenity": "bureau_de_change", "level": "0", "name": "\u6e2f\u8c50\u4eba\u6c11\u5e63\u627e\u63db Kong Fung RMB Exchange", "name:en": "Kong Fung RMB Exchange", "name:zh": "\u6e2f\u8c50\u4eba\u6c11\u5e63\u627e\u63db"}}, {"type": "node", "id": 4079478403, "lat": 22.2773409, "lon": 114.1749272, "tags": {"amenity": "bureau_de_change", "level": "0", "name": "\u6e2f\u8c50\u4eba\u6c11\u5e63\u627e\u63db Kong Fung RMB Exchange", "name:en": "Kong Fung RMB Exchange", "name:zh": "\u6e2f\u8c50\u4eba\u6c11\u5e63\u627e\u63db"}}, {"type": "node", "id": 4092054340, "lat": 22.2866522, "lon": 114.1510006, "tags": {"amenity": "bureau_de_change", "level": "0"}}, {"type": "node", "id": 4844224178, "lat": 22.2651695, "lon": 114.2362237, "tags": {"amenity": "bureau_de_change", "name": "Money Gram", "source": "Kaart Ground Survey 2017"}}, {"type": "node", "id": 4845935904, "lat": 22.2668319, "lon": 114.2470845, "tags": {"addr:street": "\u5c0f\u897f\u7063\u9053 Siu Sai Wan Road", "amenity": "bureau_de_change", "name": "WT Exchange Company", "source": "Kaart Ground Survey 2017"}}, {"type": "node", "id": 4849838366, "lat": 22.2814755, "lon": 114.2225731, "tags": {"addr:street": "\u7b72\u7b95\u7063\u9053 Shau Kei Wan Road", "amenity": "bureau_de_change", "name": "Foreign Currency Exchange", "source": "Kaart Ground Survey 2017"}}, {"type": "node", "id": 4849886869, "lat": 22.2477727, "lon": 114.1554613, "tags": {"addr:street": "\u6e56\u5357\u8857 Wu Nam Street", "amenity": "bureau_de_change", "name": "Foreign Currency Exchange", "source": "Kaart Ground Survey 2017"}}, {"type": "node", "id": 4855826681, "lat": 22.2915681, "lon": 114.2015426, "tags": {"addr:street": "\u82f1\u7687\u9053 King's Road", "amenity": "bureau_de_change", "source": "Kaart Ground Survey 2017"}}, {"type": "node", "id": 4856133239, "lat": 22.2790528, "lon": 114.1807773, "tags": {"addr:street": "\u8ed2\u5c3c\u8a69\u9053 Hennessy Road", "amenity": "bureau_de_change", "name": "\u6e2f\u8c50\u627e\u63db Kong Fung Exchange", "name:en": "Kong Fung Exchange", "name:zh": "\u6e2f\u8c50\u627e\u63db"}}, {"type": "node", "id": 4858417126, "lat": 22.2780087, "lon": 114.1717796, "tags": {"addr:street": "\u99f1\u514b\u9053 Lockhart Road", "amenity": "bureau_de_change", "fixme": "name", "name": "Kong Fung Exchange", "source": "Kaart Ground Survey 2017"}}, {"type": "node", "id": 4858575248, "lat": 22.2808166, "lon": 114.183789, "tags": {"amenity": "bureau_de_change", "name": "Chung Hau Exchange", "source": "Kaart Ground Survey 2017"}}, {"type": "node", "id": 4858575253, "lat": 22.2809724, "lon": 114.1837819, "tags": {"amenity": "bureau_de_change", "name": "Change", "source": "Kaart Ground Survey 2017"}}, {"type": "node", "id": 4858620554, "lat": 22.2807457, "lon": 114.1836433, "tags": {"amenity": "bureau_de_change", "name": "Hong Kong Exchange", "source": "Kaart Ground Survey 2017"}}, {"type": "node", "id": 4858622473, "lat": 22.2902929, "lon": 114.1968359, "tags": {"addr:street": "\u82f1\u7687\u9053 King's Road", "amenity": "bureau_de_change", "name": "Kwok Hing", "source": "Kaart Ground Survey 2017"}}, {"type": "node", "id": 4858622478, "lat": 22.2900142, "lon": 114.1955865, "tags": {"amenity": "bureau_de_change", "name": "Shing Feng Money Exchange", "source": "Kaart Ground Survey 2017"}}, {"type": "node", "id": 4860769675, "lat": 22.2898142, "lon": 114.1969239, "tags": {"addr:street": "\u5317\u666f\u8857 North View Street", "amenity": "bureau_de_change", "name": "Ngai Hing Money Exchange", "source": "Kaart Ground Survey 2017"}}, {"type": "node", "id": 4862113246, "lat": 22.2874298, "lon": 114.1383987, "tags": {"addr:street": "\u5fb7\u8f14\u9053\u897f Des Voeux Road West", "amenity": "bureau_de_change", "name": "Foreign Exchange", "source": "Kaart Ground Survey 2017"}}, {"type": "node", "id": 4870058497, "lat": 22.2875251, "lon": 114.1387026, "tags": {"addr:street": "\u6c34\u8857 Water Street", "amenity": "bureau_de_change", "name": "Max Luck Exchange", "source": "Kaart Ground Survey 2017"}}, {"type": "node", "id": 5564196029, "lat": 22.2856789, "lon": 114.153889, "tags": {"amenity": "bureau_de_change", "name": "BT Exchange", "name:en": "BT Exchange"}}, {"type": "node", "id": 5564196030, "lat": 22.2855945, "lon": 114.1542135, "tags": {"amenity": "bureau_de_change", "phone": "2772 2886"}}, {"type": "node", "id": 6008989785, "lat": 22.2837062, "lon": 114.1567694, "tags": {"amenity": "bureau_de_change", "name:en": "Berlin Company Currency Exchange"}}, {"type": "node", "id": 6433997610, "lat": 22.284274, "lon": 114.153863, "tags": {"addr:street": "\u7687\u540e\u5927\u9053\u4e2d Queen's Road Central", "amenity": "bureau_de_change", "name": "\u8a31\u6c0f\u5144\u5f1f"}}, {"type": "node", "id": 6438697142, "lat": 22.2779046, "lon": 114.1743347, "tags": {"addr:street": "\u8ed2\u5c3c\u8a69\u9053 Hennessy Road", "amenity": "bureau_de_change", "name": "\u9577\u57ce\u570b\u969b\u532f\u514c Great Wall International Money Exchange", "name:en": "Great Wall International Money Exchange", "name:zh": "\u9577\u57ce\u570b\u969b\u532f\u514c"}}, {"type": "node", "id": 6442475383, "lat": 22.2782742, "lon": 114.1773065, "tags": {"addr:street": "\u8ed2\u5c3c\u8a69\u9053 Hennessy Road", "amenity": "bureau_de_change", "name": "\u8a31\u6c0f\u5144\u5f1f"}}, {"type": "node", "id": 6445151606, "lat": 22.2778108, "lon": 114.1735389, "tags": {"addr:housenumber": "155", "addr:street": "\u8ed2\u5c3c\u8a69\u9053 Hennessy Road", "amenity": "bureau_de_change", "name": "\u5927\u7063\u5340\u627e\u63db\u5e97 Greater Bay Exchange", "name:en": "Greater Bay Exchange", "name:zh": "\u5927\u7063\u5340\u627e\u63db\u5e97"}}, {"type": "node", "id": 6713630041, "lat": 22.278584, "lon": 114.1784217, "tags": {"amenity": "bureau_de_change", "name": "\u8a31\u6c0f\u5144\u5f1f"}}, {"type": "node", "id": 6715363685, "lat": 22.2779803, "lon": 114.1733698, "tags": {"amenity": "bureau_de_change", "name": "\u8208\u83ef\u627e\u63db"}}, {"type": "node", "id": 6715363691, "lat": 22.2778863, "lon": 114.1731307, "tags": {"amenity": "bureau_de_change", "name": "\u91d1\u82f1\u4eba\u6c11\u5e63\u627e\u63db\u884c"}}, {"type": "node", "id": 6715363692, "lat": 22.2802141, "lon": 114.1814415, "tags": {"amenity": "bureau_de_change", "name": "\u6cf0\u5b89\u96c6\u5718\u627e\u63db\u532f\u6b3e"}}, {"type": "node", "id": 7062306052, "lat": 22.2872448, "lon": 114.1514346, "tags": {"addr:housenumber": "1", "addr:street": "Cleverly Street", "amenity": "bureau_de_change", "name": "Ngau Kee Money Changer", "opening_hours": "Mo-Fr 09:00-17:30; Sa 09:30-17:00", "phone": "+852 28505057"}}, {"type": "node", "id": 7291554281, "lat": 22.2848533, "lon": 114.1553214, "tags": {"amenity": "bureau_de_change", "name": "\u6e2f\u8c50\u627e\u63db Kong Fung Exchange", "name:en": "Kong Fung Exchange", "name:zh": "\u6e2f\u8c50\u627e\u63db"}}, {"type": "node", "id": 8008106849, "lat": 22.2784281, "lon": 114.1730544, "tags": {"amenity": "bureau_de_change", "name": "\u838a\u6c0f Chong\u2019s", "name:en": "Chong\u2019s Money Exchange", "name:zh": "\u838a\u6c0f\u8ca8\u5e63\u514c\u63db"}}, {"type": "node", "id": 8244642348, "lat": 22.2807575, "lon": 114.186144, "tags": {"amenity": "bureau_de_change", "name": "Chandra"}}, {"type": "node", "id": 8406838573, "lat": 22.2775818, "lon": 114.2272556, "tags": {"amenity": "bureau_de_change", "name": "\u52a0\u8aa0\u884c Casson Hong", "name:en": "Casson Hong", "name:zh": "\u52a0\u8aa0\u884c"}}, {"type": "node", "id": 10744751691, "lat": 22.2869931, "lon": 114.1524539, "tags": {"addr:housenumber": "122-124", "addr:street": "\u5e72\u8afe\u9053\u4e2d Connaught Road Central", "amenity": "bureau_de_change", "level": "0", "name": "\u6e2f\u8c50\u627e\u63db Kong Fung Exchange", "name:en": "Kong Fung Exchange", "name:zh": "\u6e2f\u8c50\u627e\u63db"}}]}