{"version": 0.6, "generator": "Overpass API 0.7.60 f4c14d41", "osm3s": {"timestamp_osm_base": "2023-05-02T21:15:23Z", "copyright": "The data included in this document is from www.openstreetmap.org. The data is made available under ODbL."}, "elements": [{"type": "node", "id": 2367422924, "lat": 13.7483235, "lon": 100.5416135, "tags": {"amenity": "bureau_de_change", "colour": "orange", "name": "Super Rich", "website": "https://www.superrich1965.com/home.php"}}, {"type": "node", "id": 2402040942, "lat": 13.7614592, "lon": 100.4958889, "tags": {"amenity": "bureau_de_change", "operator": "Kasikorn"}}, {"type": "node", "id": 2426034187, "lat": 13.758953, "lon": 100.4968161}, {"type": "node", "id": 2428327309, "lat": 13.7582204, "lon": 100.4988877}, {"type": "node", "id": 2428628557, "lat": 13.7592865, "lon": 100.4983734, "tags": {"amenity": "bureau_de_change", "name": "Kasikorn", "operator": "Kasikorn"}}, {"type": "node", "id": 2428628784, "lat": 13.762287, "lon": 100.4951403, "tags": {"amenity": "bureau_de_change", "name:en": "Rainbow exchange", "name:ko": "\ub808\uc778\ubcf4\uc6b0 \ud658\uc804\uc18c", "source": "survey"}}, {"type": "node", "id": 2428799921, "lat": 13.7589568, "lon": 100.4974159, "tags": {"amenity": "bureau_de_change", "name": "Bangkok Bank"}}, {"type": "node", "id": 2428799922, "lat": 13.7590836, "lon": 100.4971138, "tags": {"amenity": "bureau_de_change", "name": "Bangkok Bank"}}, {"type": "node", "id": 2428799930, "lat": 13.7584437, "lon": 100.4985567, "tags": {"amenity": "bureau_de_change", "name": "Kasikorn"}}, {"type": "node", "id": 2428799933, "lat": 13.7582141, "lon": 100.498906}, {"type": "node", "id": 2428799940, "lat": 13.7589532, "lon": 100.4973847, "tags": {"amenity": "bureau_de_change", "name": "UOB Bank"}}, {"type": "node", "id": 2428800041, "lat": 13.7589753, "lon": 100.4973538, "tags": {"amenity": "bureau_de_change"}}, {"type": "node", "id": 2428800114, "lat": 13.759681, "lon": 100.4959507, "tags": {"amenity": "bureau_de_change", "name": "Super Rich Money Exchange"}}, {"type": "node", "id": 2428973181, "lat": 13.75895, "lon": 100.4969643, "tags": {"amenity": "bureau_de_change", "name": "Kasikorn"}}, {"type": "node", "id": 2428973187, "lat": 13.7594672, "lon": 100.4958874, "tags": {"amenity": "bureau_de_change", "name": "Rainbow", "wheelchair": "no"}}, {"type": "node", "id": 2428973196, "lat": 13.7582113, "lon": 100.4985171, "tags": {"amenity": "bureau_de_change", "name": "TMB Bank", "wheelchair": "no"}}, {"type": "node", "id": 2428973239, "lat": 13.758111, "lon": 100.4987747, "tags": {"amenity": "bureau_de_change", "wheelchair": "no"}}, {"type": "node", "id": 2428973320, "lat": 13.7587549, "lon": 100.4974101, "tags": {"amenity": "bureau_de_change"}}, {"type": "node", "id": 2430549377, "lat": 13.7623104, "lon": 100.4939443, "tags": {"amenity": "bureau_de_change"}}, {"type": "node", "id": 2593802203, "lat": 13.7486978, "lon": 100.5420403, "tags": {"amenity": "bureau_de_change", "colour": "blue", "name": "Grand Superrich", "website": "http://www.grandsuperrich.com/index.php?pageID=1&languageID="}}, {"type": "node", "id": 2695739086, "lat": 13.7088285, "lon": 100.5643085, "tags": {"amenity": "bureau_de_change"}}, {"type": "node", "id": 3392417064, "lat": 13.7410105, "lon": 100.5431931, "tags": {"amenity": "bureau_de_change", "name": "Shut Down SuperRich Money Exchange", "operator": "Permanantly Closed ?"}}, {"type": "node", "id": 3491496468, "lat": 13.7215084, "lon": 100.5463678, "tags": {"amenity": "bureau_de_change", "name": "Siam Commercial Bank"}}, {"type": "node", "id": 4068103508, "lat": 13.7494441, "lon": 100.5637938, "tags": {"amenity": "bureau_de_change", "name": "Super Rich"}}, {"type": "node", "id": 4305778293, "lat": 13.7305116, "lon": 100.5687842, "tags": {"addr:housenumber": "B1 Floor", "addr:street": "\u0e16\u0e19\u0e19\u0e2a\u0e38\u0e02\u0e38\u0e21\u0e27\u0e34\u0e17 \u0e0b\u0e2d\u0e2224", "amenity": "bureau_de_change", "name": "Superrich Thailand", "opening_hours": "Mo-Su 11:00-22:00", "phone": "+6622544444", "website": "http://superrichthailand.com"}}, {"type": "node", "id": 4549199190, "lat": 13.7323629, "lon": 100.5672462, "tags": {"amenity": "bureau_de_change", "name:en": "K", "wheelchair": "yes"}}, {"type": "node", "id": 4588370091, "lat": 13.7467654, "lon": 100.5286098, "tags": {"amenity": "bureau_de_change", "name": "Pentor Exchange", "website": "http://www.pentorexchange.com/"}}, {"type": "node", "id": 4589163991, "lat": 13.7209904, "lon": 100.7273329, "tags": {"amenity": "bureau_de_change", "name": "Yenjit Exchange", "name:en": "Yenjit Exchange", "opening_hours": "Mo-Sa 10:00-18:00"}}, {"type": "node", "id": 4606174193, "lat": 13.7909162, "lon": 100.5430451, "tags": {"amenity": "bureau_de_change", "name:en": "Linda Exchange"}}, {"type": "node", "id": 4606186396, "lat": 13.8055168, "lon": 100.5624481, "tags": {"addr:city": "Bangkok", "addr:housenumber": "18/34", "addr:postcode": "10900", "addr:street": "\u0e0b\u0e2d\u0e22\u0e27\u0e34\u0e20\u0e32\u0e27\u0e14\u0e35\u0e23\u0e31\u0e07\u0e2a\u0e34\u0e15 22 \u0e16\u0e19\u0e19\u0e27\u0e34\u0e20\u0e32\u0e27\u0e14\u0e35\u0e23\u0e31\u0e07\u0e2a\u0e34\u0e15", "amenity": "bureau_de_change", "currency:ARS": "yes", "currency:CAD": "yes", "currency:EUR": "yes", "currency:GBP": "yes", "currency:JPY": "yes", "currency:USD": "yes", "name": "SuperRich Vibhavadi 22", "name:en": "SuperRich Vibhavadi 22", "opening_hours": "Mo-Sa 09:00-18:00", "operator": "Superrich currency exchange 1965", "phone": "+6625138127", "website": "http://www.superrich1965.com"}}, {"type": "node", "id": 4608446590, "lat": 13.7408433, "lon": 100.552895, "tags": {"amenity": "bureau_de_change", "name:en": "Scb"}}, {"type": "node", "id": 4620871290, "lat": 13.7414123, "lon": 100.5531064, "tags": {"amenity": "bureau_de_change", "name:en": "Cimb"}}, {"type": "node", "id": 4622990594, "lat": 13.7392221, "lon": 100.5575695, "tags": {"amenity": "bureau_de_change", "name:en": "Cimb"}}, {"type": "node", "id": 4623861793, "lat": 13.7426122, "lon": 100.5520977, "tags": {"amenity": "bureau_de_change", "name:en": "Krungthai"}}, {"type": "node", "id": 4635080894, "lat": 13.7428943, "lon": 100.5537997, "tags": {"amenity": "bureau_de_change"}}, {"type": "node", "id": 4640057898, "lat": 13.7423299, "lon": 100.5540506, "tags": {"amenity": "bureau_de_change", "name:en": "Krungsri"}}, {"type": "node", "id": 4640099989, "lat": 13.737619, "lon": 100.5600434, "tags": {"amenity": "bureau_de_change", "name": "SCB Exchange", "name:en": "SCB", "opening_hours": "PH,Mo-Su 10:00-21:00"}}, {"type": "node", "id": 4652890497, "lat": 13.7423212, "lon": 100.5528204, "tags": {"amenity": "bureau_de_change", "name:en": "Krungsri"}}, {"type": "node", "id": 4652936090, "lat": 13.7417126, "lon": 100.5534041, "tags": {"amenity": "bureau_de_change", "name:en": "Krungthai"}}, {"type": "node", "id": 4663403718, "lat": 13.7370081, "lon": 100.5629013, "tags": {"amenity": "bureau_de_change", "name:en": "Siam Commercial"}}, {"type": "node", "id": 4663884790, "lat": 13.7383736, "lon": 100.5581317, "tags": {"amenity": "bureau_de_change", "name:en": "Union"}}, {"type": "node", "id": 4665598589, "lat": 13.7188688, "lon": 100.5140125, "tags": {"amenity": "bureau_de_change", "name:en": "Siam"}}, {"type": "node", "id": 4744964959, "lat": 13.7384452, "lon": 100.5580034, "tags": {"amenity": "bureau_de_change", "name": "Union"}}, {"type": "node", "id": 4744965127, "lat": 13.736155, "lon": 100.5607936, "tags": {"amenity": "bureau_de_change", "name": "Asok money exchange"}}, {"type": "node", "id": 4744968410, "lat": 13.7394396, "lon": 100.5566776, "tags": {"amenity": "bureau_de_change", "name": "Bangkok Bank"}}, {"type": "node", "id": 4744969395, "lat": 13.7411023, "lon": 100.5543929, "tags": {"amenity": "bureau_de_change", "name": "Kasikorn Exchange"}}, {"type": "node", "id": 4863815050, "lat": 13.7378201, "lon": 100.5153634, "tags": {"amenity": "bureau_de_change", "level": "0", "name": "SuperRich"}}, {"type": "node", "id": 4898930222, "lat": 13.8012342, "lon": 100.5507594, "tags": {"amenity": "bureau_de_change", "name:en": "Kasikornbank", "name:th": "\u0e18\u0e19\u0e32\u0e04\u0e32\u0e23\u0e01\u0e2a\u0e34\u0e01\u0e23\u0e44\u0e17\u0e22"}}, {"type": "node", "id": 5243765521, "lat": 13.7484826, "lon": 100.5417242, "tags": {"amenity": "bureau_de_change", "colour": "green", "name": "Superrich Thailand", "name:fr": "Superrich Thailand - Thailand meilleur taux", "website": "https://www.superrichthailand.com/#!/en"}}, {"type": "node", "id": 5498168224, "lat": 13.7526572, "lon": 100.5388645, "tags": {"amenity": "bureau_de_change", "name:en": "Money exchange", "name:ru": "\u041e\u0431\u043c\u0435\u043d \u0432\u0430\u043b\u044e\u0442\u044b"}}, {"type": "node", "id": 5826795199, "lat": 13.7287797, "lon": 100.5342672, "tags": {"addr:street": "\u0e16\u0e19\u0e19\u0e2a\u0e35\u0e25\u0e21", "amenity": "bureau_de_change", "name:ja": "\u30bf\u30cb\u30e4\u30fb\u30b9\u30d4\u30ea\u30c3\u30c8"}}, {"type": "node", "id": 5940830128, "lat": 13.7582372, "lon": 100.4988892}, {"type": "node", "id": 6086143313, "lat": 13.758984, "lon": 100.4967725}, {"type": "node", "id": 6086143315, "lat": 13.7589989, "lon": 100.4968545}, {"type": "node", "id": 6086143317, "lat": 13.7590299, "lon": 100.4968109}, {"type": "node", "id": 6106762869, "lat": 13.758235, "lon": 100.4989086}, {"type": "node", "id": 6130129285, "lat": 13.7059602, "lon": 100.6008722, "tags": {"amenity": "bureau_de_change", "level": "1", "name:en": "SuperRich 1965", "opening_hours": "Mo-Sa 09:00-20:00; Su 10:00-20:00", "phone": "026552488", "website": "http://www.superrich.co.th"}}, {"type": "node", "id": 6142611987, "lat": 13.7250778, "lon": 100.579402, "tags": {"amenity": "bureau_de_change", "name:en": "12 Victory Exchange", "opening_hours": "Mo-Su 09:00-18:00"}}, {"type": "node", "id": 6163744224, "lat": 13.739492, "lon": 100.5559708, "tags": {"amenity": "bureau_de_change", "name:en": "Currency Exchange"}}, {"type": "node", "id": 6388824987, "lat": 13.7474541, "lon": 100.5345448, "tags": {"amenity": "bureau_de_change", "name:en": "Superrich Thailand"}}, {"type": "node", "id": 6391901318, "lat": 13.7900958, "lon": 100.5470429, "tags": {"amenity": "bureau_de_change"}}, {"type": "node", "id": 6391901319, "lat": 13.7901422, "lon": 100.5468948, "tags": {"amenity": "bureau_de_change"}}, {"type": "node", "id": 6609779789, "lat": 13.9214406, "lon": 100.6032454, "tags": {"amenity": "bureau_de_change"}}, {"type": "node", "id": 6653325888, "lat": 13.7183341, "lon": 100.5850583, "tags": {"amenity": "bureau_de_change", "name:en": "SuperRich", "opening_hours": "Mo-Su 10:30-20:00"}}, {"type": "node", "id": 6690731385, "lat": 13.7258929, "lon": 100.5273831, "tags": {"addr:street": "\u0e16\u0e19\u0e19\u0e2a\u0e35\u0e25\u0e21", "amenity": "bureau_de_change", "name": "Super Rich"}}, {"type": "node", "id": 6745294385, "lat": 13.7595229, "lon": 100.4957234, "tags": {"amenity": "bureau_de_change", "name:en": "Pannee Money Exchange"}}, {"type": "node", "id": 6844574086, "lat": 13.7288916, "lon": 100.5339316, "tags": {"amenity": "bureau_de_change", "name:ja": "\u30bf\u30cb\u30e4\u30b9\u30d4\u30ea\u30c3\u30c8"}}, {"type": "node", "id": 6909123585, "lat": 13.7510097, "lon": 100.5378598, "tags": {"amenity": "bureau_de_change", "name:en": "Super rich exchange office", "opening_hours": "Mo-Su 10:00-19:00"}}, {"type": "node", "id": 7017923794, "lat": 13.7535611, "lon": 100.5382791, "tags": {"amenity": "bureau_de_change", "name:en": "Stang Exchange"}}, {"type": "node", "id": 7017923796, "lat": 13.7539563, "lon": 100.5386033, "tags": {"amenity": "bureau_de_change", "name:en": "AU Exchange"}}, {"type": "node", "id": 7017924090, "lat": 13.7537878, "lon": 100.5383646, "tags": {"amenity": "bureau_de_change", "name:en": "P&J Money Exchange"}}, {"type": "node", "id": 7048459485, "lat": 13.739806, "lon": 100.5106968, "tags": {"amenity": "bureau_de_change", "name": "Roongsarp currency exchange (2nd floor) - probably the best rates in downtown Bangkok!"}}, {"type": "node", "id": 7049071585, "lat": 13.7510428, "lon": 100.4916288, "tags": {"amenity": "bureau_de_change", "name:en": "Siam Commercial Bank", "opening_hours": "Mo-Su 08:30-16:30"}}, {"type": "node", "id": 7229631365, "lat": 13.7483193, "lon": 100.5412881, "tags": {"amenity": "bureau_de_change", "name": "Power Exchange"}}, {"type": "node", "id": 7293589786, "lat": 13.7241452, "lon": 100.5164012, "tags": {"amenity": "bureau_de_change", "name:en": "Chai Som Boone Exchange"}}, {"type": "node", "id": 7307476085, "lat": 13.7574205, "lon": 100.5647764, "tags": {"amenity": "bureau_de_change", "name:en": "Super Rich"}}, {"type": "node", "id": 9613002858, "lat": 13.7372598, "lon": 100.5598979, "tags": {"amenity": "bureau_de_change", "level": "1", "name": "SuperRich BTS (Asok)", "opening_hours": "Mo-Su 10:00-19:00", "operator": "SuperRich"}}, {"type": "node", "id": 9623002517, "lat": 13.7287989, "lon": 100.5280925, "tags": {"addr:housenumber": "149/7", "addr:postcode": "10500", "addr:street": "149/7 Surawong Road, Suriyawongse Bangrak Bangkok 10500", "amenity": "bureau_de_change", "name": "XONE", "name:en": "Xchance", "opening_hours": "Mo-Fr 09:00-18:00; Sa-Su 10:00-17:00", "phone": "021668888", "website": "http://x-one.com", "wheelchair": "yes"}}, {"type": "node", "id": 9669341117, "lat": 13.728833, "lon": 100.533968, "tags": {"amenity": "bureau_de_change", "name:en": "Thaniya Spirit Exchancge"}}, {"type": "node", "id": 9671285817, "lat": 13.7226055, "lon": 100.5200945, "tags": {"amenity": "bureau_de_change", "name:en": "SuperRichThailand"}}, {"type": "node", "id": 9934822717, "lat": 13.7784297, "lon": 100.576359, "tags": {"amenity": "bureau_de_change", "name:ja": "\u4e21\u66ff\u5c4b"}}, {"type": "node", "id": 10295015106, "lat": 13.9204287, "lon": 100.6014766, "tags": {"amenity": "bureau_de_change", "building": "container", "contact:mobile": "+66 88 2888885", "layer": "0", "name": "HAPPYRICH", "opening_hours": "Mo-Sa 07:00-16:00; Su off", "source": "survey", "source:date": "2023-01-03", "surveillance": "yes"}}, {"type": "node", "id": 10729516806, "lat": 13.7312268, "lon": 100.5690407, "tags": {"amenity": "bureau_de_change", "name:en": "Value Plus"}}, {"type": "way", "id": 648231367, "nodes": [6086143315, 2426034187, 6086143313, 6086143317, 6086143315], "tags": {"amenity": "bureau_de_change", "building": "yes", "building:levels": "1", "name": "Krungthai Bank Currency Exchange", "name:en": "Krungthai Bank Currency Exchange", "opening_hours": "08:30-19:30", "operator": "\u0e18\u0e19\u0e32\u0e04\u0e32\u0e23\u0e01\u0e23\u0e38\u0e07\u0e44\u0e17\u0e22", "operator:wikidata": "Q962865"}}, {"type": "way", "id": 651180214, "nodes": [2428799933, 2428327309, 5940830128, 6106762869, 2428799933], "tags": {"alt_name:th": "\u0e40\u0e23\u0e19\u0e42\u0e1a\u0e27\u0e4c\u0e40\u0e2d\u0e47\u0e01\u0e0b\u0e40\u0e0a\u0e19\u0e08\u0e4c", "amenity": "bureau_de_change", "building": "kiosk", "name": "Rainbow Exchange", "name:en": "Rainbow Exchange", "name:th": "\u0e40\u0e23\u0e19\u0e42\u0e1a\u0e27\u0e4c \u0e40\u0e2d\u0e47\u0e01\u0e0b\u0e40\u0e0a\u0e19\u0e08\u0e4c", "operator": "Rainbow Silver Company Limited", "ref:bot": "125480104"}}]}