{"version": 0.6, "generator": "Overpass API 0.7.60 f4c14d41", "osm3s": {"timestamp_osm_base": "2023-05-02T21:14:21Z", "copyright": "The data included in this document is from www.openstreetmap.org. The data is made available under ODbL."}, "elements": [{"type": "node", "id": 3499019222, "lat": 41.0089054, "lon": 28.9675916, "tags": {"amenity": "bureau_de_change", "name": "Beyazit D\u00f6viz", "name:ar": "\u0645\u062d\u0648\u0644 \u0639\u0645\u0644\u0627\u062a", "wheelchair": "yes"}}, {"type": "node", "id": 4154257189, "lat": 41.0149794, "lon": 28.9754203, "tags": {"addr:housenumber": "2/C", "addr:street": "Hamidiye Caddesi", "amenity": "bureau_de_change", "email": "akbaykal@gmail.com", "name": "Poyraz & Aksa", "phone": "0212 518 47 47"}}, {"type": "node", "id": 4564042373, "lat": 40.9239544, "lon": 29.1328247, "tags": {"amenity": "bureau_de_change", "name": "Diyet D\u00f6viz"}}, {"type": "node", "id": 4580185571, "lat": 40.9700579, "lon": 29.0620303, "tags": {"amenity": "bureau_de_change", "name": "As D\u00f6viz"}}, {"type": "node", "id": 5108837442, "lat": 41.0141264, "lon": 28.9764372, "tags": {"addr:city": "Istanbul", "addr:district": "Fatih", "addr:street": "Muradiye Caddesi", "amenity": "bureau_de_change", "name": "Sembol D\u00f6viz", "phone": "+90 212 522 96 48"}}, {"type": "node", "id": 5108843043, "lat": 41.0081838, "lon": 28.9757767, "tags": {"addr:city": "Istanbul", "addr:district": "Fatih", "addr:street": "Divan Yolu Caddesi", "amenity": "bureau_de_change", "name": "Arkent Doviz", "name:ar": "\u0623\u0631\u0643\u064a\u0646\u062a \u062f\u0648\u0641\u064a\u0632 \u0644\u0644\u0635\u0631\u0627\u0641\u0629"}}, {"type": "node", "id": 5108843050, "lat": 41.0080914, "lon": 28.9761536, "tags": {"addr:city": "Istanbul", "addr:district": "Fatih", "addr:street": "Divan Yolu Caddesi", "amenity": "bureau_de_change", "name": "Change Office", "name:ar": "\u062a\u0634\u0627\u0646\u062c \u0623\u0648\u0641\u064a\u0633 \u0644\u0644\u0635\u0631\u0627\u0641\u0629"}}, {"type": "node", "id": 5108843750, "lat": 41.0082726, "lon": 28.9746387, "tags": {"addr:city": "Istanbul", "addr:district": "Fatih", "addr:street": "Divan Yolu Caddesi", "amenity": "bureau_de_change", "name": "\u00c7a\u011fatay D\u00f6viz A. \u015e.", "name:ar": "\u062a\u0634\u0627\u063a\u0627\u062a\u0627\u064a \u062f\u0648\u0641\u064a\u0632 \u0644\u0644\u0635\u0631\u0627\u0641\u0629"}}, {"type": "node", "id": 5110345250, "lat": 41.0149053, "lon": 28.9754619, "tags": {"addr:city": "Istanbul", "addr:district": "Fatih", "addr:street": "Hamidiye caddesi", "amenity": "bureau_de_change", "name": "D\u00f6viz"}}, {"type": "node", "id": 5110345259, "lat": 41.0156758, "lon": 28.9739426, "tags": {"addr:city": "Istanbul", "addr:district": "Fatih", "addr:street": "Hamidiye caddesi", "amenity": "bureau_de_change", "name": "D\u00f6viz"}}, {"type": "node", "id": 5110345278, "lat": 41.0154065, "lon": 28.9723918, "tags": {"addr:city": "Istanbul", "addr:district": "Fatih", "addr:street": "B\u00fcy\u00fck postane caddesi", "amenity": "bureau_de_change", "name": "Zeki d\u00f6viz"}}, {"type": "node", "id": 5110345315, "lat": 41.0148911, "lon": 28.9712946, "tags": {"addr:city": "Istanbul", "addr:district": "Fatih", "addr:street": "Yeni cami caddesi", "amenity": "bureau_de_change", "name": "Ang\u00fcn d\u00f6viz", "name:ar": "\u0635\u0631\u0627\u0641 \u0627\u0646\u063a\u0648\u0646"}}, {"type": "node", "id": 5110347249, "lat": 41.0150427, "lon": 28.9749718, "tags": {"addr:city": "Istanbul", "addr:district": "Fatih", "addr:street": "Hamidiye caddesi", "amenity": "bureau_de_change", "name": "Ozmernler d\u00f6viz"}}, {"type": "node", "id": 5111222088, "lat": 41.0093174, "lon": 28.9627075, "tags": {"addr:city": "Istanbul", "addr:district": "Fatih", "addr:street": "Ordu caddesi", "amenity": "bureau_de_change", "name": "Servet doviz", "name:ar": "\u0633\u0631\u0648\u062a \u062f\u0648\u0641\u064a\u0633"}}, {"type": "node", "id": 5112736049, "lat": 41.0147639, "lon": 28.9696505, "tags": {"addr:city": "Istanbul", "addr:district": "Fatih", "addr:street": "Vas\u0131f \u00c7\u0131nar Caddesi", "amenity": "bureau_de_change", "name": "Aypek D\u00f6viz", "name:ar": "\u0622\u064a\u0628\u064a\u0643 \u062f\u0648\u0641\u064a\u0632 \u0644\u0644\u0635\u0631\u0627\u0641\u0629"}}, {"type": "node", "id": 5112739258, "lat": 41.0135665, "lon": 28.9675873, "tags": {"addr:city": "Istanbul", "addr:district": "Fatih", "addr:street": "Uzun \u00c7ar\u015f\u0131 Caddesi", "amenity": "bureau_de_change", "name": "Ak D\u00f6viz", "name:ar": "\u0623\u0643 \u062f\u0648\u0641\u064a\u0632 \u0644\u0644\u0635\u0631\u0627\u0641\u0629"}}, {"type": "node", "id": 5113620617, "lat": 41.0087649, "lon": 28.9787283, "tags": {"addr:city": "Istanbul", "addr:district": "Turkey", "addr:street": "Alemdar Caddesi", "amenity": "bureau_de_change", "name": "Change excahnge"}}, {"type": "node", "id": 5115929115, "lat": 41.0094669, "lon": 28.9664952, "tags": {"addr:city": "Istanbul", "addr:district": "Fatih", "addr:street": "Makas\u00e7\u0131lar Caddesi", "amenity": "bureau_de_change", "name": "Beyaz\u0131t D\u00f6viz", "name:ar": "\u0628\u064a\u0627\u0632\u064a\u062f \u0644\u0644\u0635\u0631\u0627\u0641\u0629", "phone": "02125134939"}}, {"type": "node", "id": 5115939927, "lat": 41.0101633, "lon": 28.9699066, "tags": {"addr:city": "Istanbul", "addr:district": "Fatih", "addr:street": "Nuruosmaniye Caddesi", "amenity": "bureau_de_change", "name": "Y\u0131ld\u0131z D\u00f6viz", "name:ar": "\u064a\u0644\u062f\u0632 \u0644\u0644\u0635\u0631\u0627\u0641\u0629", "payment:lightning": "yes", "phone": "02125126902"}}, {"type": "node", "id": 5115939935, "lat": 41.0108652, "lon": 28.9697289, "tags": {"addr:city": "Istanbul", "addr:district": "Fatih", "addr:street": "\u00c7uhac\u0131 Han Sokak", "amenity": "bureau_de_change", "description": "Gold Exchange", "name": "Borsa Gold", "name:ar": "\u0628\u0648\u0631\u0635\u0627 \u0644\u0635\u0631\u0627\u0641\u0629 \u0627\u0644\u0630\u0647\u0628", "phone": "02125145030"}}, {"type": "node", "id": 5115939936, "lat": 41.0110139, "lon": 28.9697055, "tags": {"addr:city": "Istanbul", "addr:district": "Fatih", "addr:street": "\u00c7uhac\u0131 Han Sokak", "amenity": "bureau_de_change", "name": "Guven Doviz", "name:ar": "\u063a\u0648\u0641\u064a\u0646 \u0644\u0644\u0635\u0631\u0627\u0641\u0629", "phone": "02125205133"}}, {"type": "node", "id": 5115939945, "lat": 41.0121573, "lon": 28.9680948, "tags": {"addr:city": "Istanbul", "addr:district": "Fatih", "addr:street": "T\u0131\u011fc\u0131lar Sokak", "amenity": "bureau_de_change", "name": "Mako D\u00f6viz", "name:ar": "\u0645\u0627\u0643\u0648 \u0644\u0644\u0635\u0631\u0627\u0641\u0629"}}, {"type": "node", "id": 5244795878, "lat": 41.0163353, "lon": 28.9689213, "tags": {"addr:city": "Istanbul", "addr:district": "Fatih", "addr:street": "Tahtakale Caddesi", "amenity": "bureau_de_change", "name": "Sancak D\u00f6viz", "name:ar": "\u0633\u0627\u0646\u062c\u0627\u0643 \u062f\u0648\u0641\u064a\u0632", "operator": "private"}}, {"type": "node", "id": 5244796197, "lat": 41.0153149, "lon": 28.9696064, "tags": {"addr:city": "Istanbul", "addr:district": "Fatih", "addr:street": "Sabuncu Han\u0131 Sokak", "amenity": "bureau_de_change", "name": "Narin D\u00f6viz", "operator": "private"}}, {"type": "node", "id": 5244807390, "lat": 41.009594, "lon": 28.9712684, "tags": {"addr:city": "Istanbul", "addr:district": "Fatih", "addr:street": "Vezirhan Caddesi", "amenity": "bureau_de_change", "name": "ALB D\u00f6viz", "name:ar": "\u0623\u0644\u0628 \u062f\u0648\u0641\u064a\u0632"}}, {"type": "node", "id": 5244807396, "lat": 41.0102361, "lon": 28.9698893, "tags": {"addr:city": "Istanbul", "addr:district": "Fatih", "addr:street": "\u00c7ar\u015f\u0131kap\u0131 Nuruosmaniye Caddesi", "amenity": "bureau_de_change", "name": "Y\u0131ld\u0131z D\u00f6viz", "name:ar": "\u064a\u0644\u062f\u0632 \u062f\u0648\u0641\u064a\u0632", "payment:bitcoin": "yes", "payment:lightning": "yes"}}, {"type": "node", "id": 5244807875, "lat": 41.0085002, "lon": 28.9690806, "tags": {"addr:city": "Istanbul", "addr:district": "Fatih", "addr:street": "Yeni\u00e7eriler Caddesi", "amenity": "bureau_de_change", "check_date": "2022-11-20", "name": "A\u011fao\u011flu D\u00f6viz", "name:ar": "\u0627\u063a\u0627 \u0627\u0648\u063a\u0644\u0648 \u062f\u0648\u0641\u064a\u0632", "name:tr": "A\u011fao\u011flu D\u00f6viz", "operator": "private"}}, {"type": "node", "id": 5244807892, "lat": 41.0089152, "lon": 28.9662844, "tags": {"addr:city": "Istanbul", "addr:district": "Fatih", "addr:street": "Yeni\u00e7eriler Caddesi", "amenity": "bureau_de_change", "name": "Artvin D\u00f6viz", "name:ar": "\u0627\u0631\u062a\u064a\u0646 \u062f\u0648\u0641\u064a\u0632", "operator": "private"}}, {"type": "node", "id": 5244811473, "lat": 41.0111536, "lon": 28.9691176, "tags": {"addr:city": "Istanbul", "addr:district": "Fatih", "addr:street": "Mahmutpa\u015fa Yoku\u015fu Sokak", "amenity": "bureau_de_change", "name": "Nadir D\u00f6viz", "name:ar": "\u0646\u0627\u062f\u0631 \u062f\u0648\u0641\u064a\u0632", "operator": "private"}}, {"type": "node", "id": 5244811479, "lat": 41.0120694, "lon": 28.9683102, "tags": {"addr:city": "Istanbul", "addr:district": "Fatih", "addr:street": "T\u0131\u011fc\u0131lar Sokak", "amenity": "bureau_de_change", "name": "Atlas D\u00f6viz", "name:ar": "\u0627\u062a\u0644\u0633 \u062f\u0648\u0641\u064a\u0632", "operator": "private"}}, {"type": "node", "id": 5272473023, "lat": 40.9549156, "lon": 29.0946511, "tags": {"amenity": "bureau_de_change", "currency:EUR": "yes", "currency:PLN": "yes", "currency:RUB": "yes", "currency:USD": "yes", "name": "D\u00f6viz B\u00fcrosu"}}, {"type": "node", "id": 5291750322, "lat": 40.9908906, "lon": 29.0257742, "tags": {"amenity": "bureau_de_change"}}, {"type": "node", "id": 5329311687, "lat": 40.9732652, "lon": 29.2742135, "tags": {"addr:city": "Istanbul", "addr:district": "Sultanbeyli", "addr:street": "M\u00fccahit Caddesi", "amenity": "bureau_de_change", "name": "Kolay", "name:ar": "\u0645\u0643\u062a\u0628 \u0643\u0648\u0644\u0627\u064a", "opening_hours": "Su 09:00-02:00; Mo-Fr 07:00-13:30; Mo-Fr 17:00-20:00"}}, {"type": "node", "id": 5329337927, "lat": 40.9629926, "lon": 29.2700194, "tags": {"addr:city": "Istanbul", "addr:district": "Sultanbeyli", "addr:street": "Ziya-\u00fcl hak caddise", "amenity": "bureau_de_change", "name": "Alharam", "name:ar": "\u0627\u0644\u0647\u0631\u0645 \u0648\u0627\u0633\u064a\u0627 \u0644\u0644\u0635\u0631\u0627\u0641\u0629", "opening_hours": "Mo-Fr 07:00-13:30; Mo-Fr 17:00-20:00"}}, {"type": "node", "id": 5372736552, "lat": 41.0082604, "lon": 28.9743426, "tags": {"amenity": "bureau_de_change", "name": "Karaman D\u00f6viz"}}, {"type": "node", "id": 5451290925, "lat": 41.0111057, "lon": 28.9685962, "tags": {"amenity": "bureau_de_change"}}, {"type": "node", "id": 5665685226, "lat": 41.0323754, "lon": 28.9762532, "tags": {"amenity": "bureau_de_change", "name": "G\u00fcnayd\u0131n D\u00f6viz", "name:en": "Gunaydin Doviz", "name:tr": "G\u00fcnayd\u0131n D\u00f6viz", "wheelchair": "limited"}}, {"type": "node", "id": 5710047223, "lat": 41.0358942, "lon": 28.9834194, "tags": {"amenity": "bureau_de_change", "name": "Hakki Zade 1864", "shop": "pastry", "wheelchair": "no"}}, {"type": "node", "id": 5710047226, "lat": 41.0392138, "lon": 28.9856587, "tags": {"amenity": "bureau_de_change"}}, {"type": "node", "id": 5715211322, "lat": 41.0258886, "lon": 28.9736493, "tags": {"amenity": "bureau_de_change"}}, {"type": "node", "id": 5715714442, "lat": 41.0348372, "lon": 28.9807659, "tags": {"amenity": "bureau_de_change"}}, {"type": "node", "id": 5715720937, "lat": 41.0363298, "lon": 28.985285, "tags": {"amenity": "bureau_de_change"}}, {"type": "node", "id": 5715720938, "lat": 41.0360321, "lon": 28.9841072, "tags": {"amenity": "bureau_de_change", "name": "Nizam D\u00f6viz"}}, {"type": "node", "id": 5718181834, "lat": 41.0301282, "lon": 28.9752984, "tags": {"amenity": "bureau_de_change"}}, {"type": "node", "id": 6018139567, "lat": 40.9783322, "lon": 29.1212004, "tags": {"amenity": "bureau_de_change", "name": "Rafine D\u00f6viz"}}, {"type": "node", "id": 6185588864, "lat": 41.0359554, "lon": 28.9838398, "tags": {"amenity": "bureau_de_change", "name": "\u00c7etin D\u00f6viz", "wheelchair": "no"}}, {"type": "node", "id": 6185756948, "lat": 41.0360188, "lon": 28.984061, "tags": {"amenity": "bureau_de_change", "name": "Change exchange wechsel cambio", "wheelchair": "no", "wheelchair:description": "ICT4SOCIETY"}}, {"type": "node", "id": 6185937311, "lat": 41.0254135, "lon": 28.9748851, "tags": {"amenity": "bureau_de_change", "wheelchair": "yes"}}, {"type": "node", "id": 6185937329, "lat": 41.0241248, "lon": 28.9751425, "tags": {"amenity": "bureau_de_change", "name": "Sayar", "wheelchair": "no"}}, {"type": "node", "id": 6255578648, "lat": 41.0084613, "lon": 28.9719677, "tags": {"amenity": "bureau_de_change", "name": "Biblos"}}, {"type": "node", "id": 6454239685, "lat": 41.0089342, "lon": 28.9662489, "tags": {"amenity": "bureau_de_change", "name": "Artvin doviz", "name:en": "change", "name:ru": "\u0445\u043e\u0440\u043e\u0448\u0438\u0439 \u043a\u0443\u0440\u0441 \u043e\u0431\u043c\u0435\u043d\u0430"}}, {"type": "node", "id": 6461554485, "lat": 41.0092043, "lon": 28.9628879, "tags": {"addr:street": "Ordu Caddesi", "amenity": "bureau_de_change", "name": "Servet D\u00f6viz", "name:en": "Servet change Office", "name:ru": "\u0445\u043e\u0440\u043e\u0448\u0438\u0439 \u043a\u0443\u0440\u0441 \u043e\u0431\u043c\u0435\u043d\u0430"}}, {"type": "node", "id": 6518576187, "lat": 41.0106872, "lon": 28.9692396, "tags": {"amenity": "bureau_de_change"}}, {"type": "node", "id": 6518579985, "lat": 41.0098054, "lon": 28.9673642, "tags": {"amenity": "bureau_de_change"}}, {"type": "node", "id": 6775524685, "lat": 41.0435607, "lon": 29.0036465, "tags": {"amenity": "bureau_de_change", "name": "Zirve D\u00f6viz", "name:en": "Zirve Doviz"}}, {"type": "node", "id": 6961502688, "lat": 41.0150058, "lon": 28.9755143, "tags": {"amenity": "bureau_de_change", "name": "D\u00f6viz"}}, {"type": "node", "id": 7626012877, "lat": 41.0365755, "lon": 28.9855357, "tags": {"addr:housenumber": "3A", "addr:postcode": "34437", "amenity": "bureau_de_change", "name": "Plevne D\u00f6viz"}}, {"type": "node", "id": 7626319174, "lat": 40.9547776, "lon": 29.0943671, "tags": {"amenity": "bureau_de_change", "name": "Kuro\u011flu D\u00f6viz"}}, {"type": "node", "id": 7652665257, "lat": 40.9912115, "lon": 29.0263303, "tags": {"amenity": "bureau_de_change", "name": "\u015eat\u0131r D\u00f6viz"}}, {"type": "node", "id": 8143422417, "lat": 41.0401091, "lon": 28.984212, "tags": {"amenity": "bureau_de_change", "name:en": "Liman Change Office"}}, {"type": "node", "id": 8319691857, "lat": 41.043091, "lon": 29.0065511, "tags": {"amenity": "bureau_de_change", "name": "ba\u015fak d\u00f6viz"}}, {"type": "node", "id": 8520648990, "lat": 40.9800941, "lon": 29.112898, "tags": {"amenity": "bureau_de_change", "name": "Hakan D\u00f6viz"}}, {"type": "node", "id": 8562278131, "lat": 40.9790554, "lon": 29.1136052, "tags": {"amenity": "bureau_de_change", "name": "Asy\u0131ld\u0131z D\u00f6viz"}}, {"type": "node", "id": 8742327180, "lat": 40.981573, "lon": 29.0845626, "tags": {"amenity": "bureau_de_change", "name": "Sentez D\u00f6viz"}}, {"type": "node", "id": 9078431617, "lat": 41.0391025, "lon": 28.9844307, "tags": {"amenity": "bureau_de_change", "name:en": "Good exchange rate in Taksim", "name:ru": "\u0425\u043e\u0440\u043e\u0448\u0438\u0439 \u043a\u0443\u0440\u0441 \u0432 \u0422\u0430\u043a\u0441\u0438\u043c"}}, {"type": "node", "id": 9143901219, "lat": 41.0249999, "lon": 29.1005657, "tags": {"amenity": "bureau_de_change", "name": "Akg\u00fcl D\u00f6viz Alt\u0131n"}}, {"type": "node", "id": 9255339826, "lat": 41.04307, "lon": 29.0063966, "tags": {"amenity": "bureau_de_change", "name": "Ba\u015fak D\u00f6viz"}}, {"type": "node", "id": 9259642502, "lat": 40.9798202, "lon": 29.0764888, "tags": {"amenity": "bureau_de_change", "name": "\u00c7impa\u015f D\u00f6viz"}}, {"type": "node", "id": 9293970196, "lat": 41.0090917, "lon": 28.9675708, "tags": {"amenity": "bureau_de_change", "name": "Change Office"}}, {"type": "node", "id": 9484013740, "lat": 40.8794706, "lon": 29.2320264, "tags": {"amenity": "bureau_de_change", "name": "Sedef D\u00f6viz & Alt\u0131n"}}, {"type": "node", "id": 9498241828, "lat": 40.9818001, "lon": 29.1317558, "tags": {"amenity": "bureau_de_change", "name": "Bereket D\u00f6viz"}}, {"type": "node", "id": 9619863017, "lat": 41.0281459, "lon": 28.9744802, "tags": {"amenity": "bureau_de_change", "name:en": "Change Off\u0131ce (USD 14.5)"}}, {"type": "node", "id": 9670693024, "lat": 41.0087441, "lon": 28.971402, "tags": {"amenity": "bureau_de_change"}}, {"type": "node", "id": 9718412474, "lat": 41.0049483, "lon": 28.9794107, "tags": {"amenity": "bureau_de_change"}}, {"type": "node", "id": 9907143646, "lat": 41.008622, "lon": 29.2139017, "tags": {"amenity": "bureau_de_change", "name": "Reel D\u00f6viz"}}, {"type": "node", "id": 9975406076, "lat": 41.0376699, "lon": 28.9837521, "tags": {"amenity": "bureau_de_change", "check_date": "2022-08-24"}}, {"type": "node", "id": 10169090591, "lat": 40.9456647, "lon": 29.1113466, "tags": {"addr:housenumber": "171", "addr:street": "Ba\u011fdat Cd.", "amenity": "bureau_de_change", "name": "Yurt d\u00f6viz", "opening_hours": "Mo-Fr 08:45-18:30; Sa 09:00-18:00"}}, {"type": "node", "id": 10209390124, "lat": 41.0242363, "lon": 29.0163951, "tags": {"amenity": "bureau_de_change", "name": "Dilrubam D\u00f6viz"}}, {"type": "node", "id": 10670574506, "lat": 40.9041444, "lon": 29.3093113, "tags": {"amenity": "bureau_de_change", "internet_access": "wlan"}}, {"type": "node", "id": 10855599805, "lat": 41.0106753, "lon": 28.9711027, "tags": {"amenity": "bureau_de_change", "name:ru": "\u041b\u0443\u0447\u0448\u0438\u0439 \u043a\u0443\u0440\u0441"}}]}