{"version": 0.6, "generator": "Overpass API 0.7.60 f4c14d41", "osm3s": {"timestamp_osm_base": "2023-05-02T21:15:23Z", "copyright": "The data included in this document is from www.openstreetmap.org. The data is made available under ODbL."}, "elements": [{"type": "node", "id": 419367087, "lat": 40.7473249, "lon": -73.9771517, "tags": {"amenity": "atm"}}, {"type": "node", "id": 419367317, "lat": 40.7311374, "lon": -73.9856068, "tags": {"amenity": "atm"}}, {"type": "node", "id": 1420931992, "lat": 40.8058496, "lon": -73.9651, "tags": {"addr:city": "New York", "addr:country": "US", "addr:housenumber": "2898", "addr:postcode": "10025", "addr:state": "NY", "addr:street": "Broadway", "amenity": "atm", "brand": "Chase", "brand:wikidata": "Q524629", "brand:wikipedia": "en:Chase Bank", "name": "Chase", "opening_hours": "24/7", "operator": "Chase", "operator:wikidata": "Q524629", "operator:wikipedia": "en:Chase Bank"}}, {"type": "node", "id": 1640916379, "lat": 40.6752586, "lon": -73.9631416, "tags": {"amenity": "atm"}}, {"type": "node", "id": 1706057512, "lat": 40.7553098, "lon": -73.9848042, "tags": {"amenity": "atm", "brand": "Bank of America", "brand:wikidata": "Q487907", "brand:wikipedia": "en:Bank of America", "name": "Bank of America", "operator": "Bank of America", "operator:wikidata": "Q487907", "operator:wikipedia": "en:Bank of America", "wheelchair": "yes"}}, {"type": "node", "id": 1825853223, "lat": 40.7916923, "lon": -73.9743124, "tags": {"addr:city": "New York", "addr:country": "US", "addr:housenumber": "2461", "addr:postcode": "10025", "addr:state": "NY", "addr:street": "Broadway", "amenity": "atm", "brand": "Bank of America", "brand:wikidata": "Q487907", "brand:wikipedia": "en:Bank of America", "name": "Bank of America", "operator": "Bank of America", "operator:wikidata": "Q487907", "operator:wikipedia": "en:Bank of America"}}, {"type": "node", "id": 1825853224, "lat": 40.7984666, "lon": -73.9686598, "tags": {"addr:city": "New York", "addr:country": "US", "addr:housenumber": "2680", "addr:postcode": "10025", "addr:state": "NY", "addr:street": "Broadway", "amenity": "atm", "brand": "Bank of America", "brand:wikidata": "Q487907", "brand:wikipedia": "en:Bank of America", "name": "Bank of America", "opening_hours": "24/7", "operator": "Bank of America", "operator:wikidata": "Q487907", "operator:wikipedia": "en:Bank of America", "website": "https://locators.bankofamerica.com/ny/newyork/atm-new-york-107475.html"}}, {"type": "node", "id": 1825853229, "lat": 40.7406522, "lon": -74.002154, "tags": {"amenity": "atm", "brand": "Chase", "brand:wikidata": "Q524629", "brand:wikipedia": "en:Chase Bank", "name": "Chase", "opening_hours": "24/7", "operator": "Chase", "operator:wikidata": "Q524629", "operator:wikipedia": "en:Chase Bank"}}, {"type": "node", "id": 1825853230, "lat": 40.7410583, "lon": -74.0018528, "tags": {"amenity": "atm", "brand": "Citibank", "brand:wikidata": "Q857063", "brand:wikipedia": "en:Citibank", "name": "Citibank", "opening_hours": "24/7", "operator": "Citibank", "operator:wikidata": "Q857063", "operator:wikipedia": "en:Citibank", "short_name": "Citi"}}, {"type": "node", "id": 1825853231, "lat": 40.7880317, "lon": -73.9763655, "tags": {"amenity": "atm", "brand": "Citibank", "brand:wikidata": "Q857063", "brand:wikipedia": "en:Citibank", "name": "Citibank", "opening_hours": "24/7", "operator": "Citibank", "operator:wikidata": "Q857063", "operator:wikipedia": "en:Citibank", "short_name": "Citi"}}, {"type": "node", "id": 1825853232, "lat": 40.7889634, "lon": -73.9755658, "tags": {"amenity": "atm", "brand": "Bank of America", "brand:wikidata": "Q487907", "brand:wikipedia": "en:Bank of America", "name": "Bank of America", "opening_hours": "24/7", "operator": "Bank of America", "operator:wikidata": "Q487907", "operator:wikipedia": "en:Bank of America"}}, {"type": "node", "id": 1989096589, "lat": 40.7799233, "lon": -73.9771952, "tags": {"amenity": "atm", "brand": "Bank of America", "brand:wikidata": "Q487907", "brand:wikipedia": "en:Bank of America", "check_date": "2021-05-09", "name": "Bank of America", "opening_hours": "24/7", "operator": "Bank of America", "operator:wikidata": "Q487907", "operator:wikipedia": "en:Bank of America"}}, {"type": "node", "id": 1994680570, "lat": 40.8035754, "lon": -73.9667685, "tags": {"amenity": "atm", "brand": "Chase", "brand:wikidata": "Q524629", "brand:wikipedia": "en:Chase Bank", "name": "Chase", "opening_hours": "24/7", "operator": "Chase", "operator:wikidata": "Q524629", "operator:wikipedia": "en:Chase Bank"}}, {"type": "node", "id": 1994680605, "lat": 40.8051154, "lon": -73.9656768, "tags": {"amenity": "atm", "brand": "Citibank", "brand:wikidata": "Q857063", "brand:wikipedia": "en:Citibank", "name": "Citibank", "opening_hours": "24/7", "operator": "Citibank", "operator:wikidata": "Q857063", "operator:wikipedia": "en:Citibank", "short_name": "Citi"}}, {"type": "node", "id": 2047269447, "lat": 40.7102264, "lon": -74.0080462, "tags": {"amenity": "atm", "brand": "Bank of America", "brand:wikidata": "Q487907", "brand:wikipedia": "en:Bank of America", "name": "Bank of America", "opening_hours": "24/7", "operator": "Bank of America", "operator:wikidata": "Q487907", "operator:wikipedia": "en:Bank of America"}}, {"type": "node", "id": 2131716808, "lat": 40.7832992, "lon": -73.9742433, "tags": {"amenity": "atm", "brand": "Citibank", "brand:wikidata": "Q857063", "brand:wikipedia": "en:Citibank", "name": "Citibank", "opening_hours": "24/7", "operator": "Citibank", "operator:wikidata": "Q857063", "operator:wikipedia": "en:Citibank", "short_name": "Citi"}}, {"type": "node", "id": 2183010494, "lat": 40.7047334, "lon": -74.0114054, "tags": {"amenity": "atm", "brand": "Wells Fargo", "brand:wikidata": "Q744149", "brand:wikipedia": "en:Wells Fargo", "name": "Wells Fargo", "operator": "Wells Fargo", "operator:wikidata": "Q744149", "operator:wikipedia": "en:Wells Fargo", "wheelchair": "yes"}}, {"type": "node", "id": 2279017960, "lat": 40.8019491, "lon": -73.9675075, "tags": {"amenity": "atm", "brand": "Bank of America", "brand:wikidata": "Q487907", "brand:wikipedia": "en:Bank of America", "check_date": "2021-08-21", "name": "Bank of America", "opening_hours": "24/7", "operator": "Bank of America", "operator:wikidata": "Q487907", "operator:wikipedia": "en:Bank of America"}}, {"type": "node", "id": 2279017962, "lat": 40.8054128, "lon": -73.9661851, "tags": {"amenity": "atm", "brand": "Chase", "brand:wikidata": "Q524629", "brand:wikipedia": "en:Chase Bank", "name": "Chase", "opening_hours": "24/7", "operator": "Chase", "operator:wikidata": "Q524629", "operator:wikipedia": "en:Chase Bank"}}, {"type": "node", "id": 2302043649, "lat": 40.8747813, "lon": -73.9098155, "tags": {"addr:city": "Bronx", "addr:country": "US", "addr:housenumber": "5205", "addr:postcode": "10463", "addr:state": "NY", "addr:street": "Broadway", "amenity": "atm", "brand": "Bank of America", "brand:wikidata": "Q487907", "brand:wikipedia": "en:Bank of America", "name": "Bank of America", "opening_hours": "24/7", "operator": "Bank of America", "operator:wikidata": "Q487907", "operator:wikipedia": "en:Bank of America"}}, {"type": "node", "id": 2312065790, "lat": 40.786493, "lon": -73.9717164, "tags": {"amenity": "atm", "brand": "Chase", "brand:wikidata": "Q524629", "brand:wikipedia": "en:Chase Bank", "name": "Chase", "opening_hours": "24/7", "operator": "Chase", "operator:wikidata": "Q524629", "operator:wikipedia": "en:Chase Bank"}}, {"type": "node", "id": 2348610332, "lat": 40.855016, "lon": -73.9367189, "tags": {"amenity": "atm", "brand": "Chase", "brand:wikidata": "Q524629", "brand:wikipedia": "en:Chase Bank", "check_date": "2021-05-03", "name": "Chase", "opening_hours": "24/7", "operator": "Chase", "operator:wikidata": "Q524629", "operator:wikipedia": "en:Chase Bank"}}, {"type": "node", "id": 2348610411, "lat": 40.8652463, "lon": -73.9273619, "tags": {"amenity": "atm", "brand": "Bank of America", "brand:wikidata": "Q487907", "brand:wikipedia": "en:Bank of America", "name": "Bank of America", "opening_hours": "24/7", "operator": "Bank of America", "operator:wikidata": "Q487907", "operator:wikipedia": "en:Bank of America"}}, {"type": "node", "id": 2348610412, "lat": 40.8653482, "lon": -73.9268706, "tags": {"addr:housenumber": "211", "addr:street": "Dyckman Street", "amenity": "atm", "brand": "Capital One", "brand:wikidata": "Q1034654", "brand:wikipedia": "en:Capital One", "name": "Capital One", "opening_hours": "Mo-Th 09:00-17:00; Fr 09:00-18:00; Sa 10:00-14:00", "opening_hours:atm": "24/7", "operator": "Capital One", "operator:wikidata": "Q1034654", "operator:wikipedia": "en:Capital One", "phone": "+1-646-963-9728", "ref": "81730", "website": "https://locations.capitalone.com/?id=81730&address&city&state&zip=10040&searchType=branchSearch&useRadius=-1", "wheelchair": "yes"}}, {"type": "node", "id": 2348621723, "lat": 40.8391754, "lon": -73.9407572, "tags": {"amenity": "atm", "brand": "Chase", "brand:wikidata": "Q524629", "brand:wikipedia": "en:Chase Bank", "drive_through": "no", "name": "Chase", "opening_hours": "24/7", "operator": "Chase", "operator:wikidata": "Q524629", "operator:wikipedia": "en:Chase Bank"}}, {"type": "node", "id": 2357937280, "lat": 40.7631686, "lon": -73.9719879, "tags": {"amenity": "atm", "brand": "Chase", "brand:wikidata": "Q524629", "brand:wikipedia": "en:Chase Bank", "name": "Chase", "opening_hours": "24/7", "operator": "Chase", "operator:wikidata": "Q524629", "operator:wikipedia": "en:Chase Bank"}}, {"type": "node", "id": 2358000767, "lat": 40.7560243, "lon": -73.9766969, "tags": {"amenity": "atm", "brand": "Chase", "brand:wikidata": "Q524629", "brand:wikipedia": "en:Chase Bank", "name": "Chase", "opening_hours": "24/7", "operator": "Chase", "operator:wikidata": "Q524629", "operator:wikipedia": "en:Chase Bank", "wheelchair": "yes"}}, {"type": "node", "id": 2358000768, "lat": 40.763538, "lon": -73.969728, "tags": {"amenity": "atm", "brand": "Chase", "brand:wikidata": "Q524629", "brand:wikipedia": "en:Chase Bank", "name": "Chase", "opening_hours": "24/7", "operator": "Chase", "operator:wikidata": "Q524629", "operator:wikipedia": "en:Chase Bank"}}, {"type": "node", "id": 2358048553, "lat": 40.7332332, "lon": -74.0026154, "tags": {"amenity": "atm", "brand": "Chase", "brand:wikidata": "Q524629", "brand:wikipedia": "en:Chase Bank", "check_date": "2021-03-08", "name": "Chase", "opening_hours": "24/7", "operator": "Chase", "operator:wikidata": "Q524629", "operator:wikipedia": "en:Chase Bank"}}, {"type": "node", "id": 2366519602, "lat": 40.7478019, "lon": -74.0037753, "tags": {"amenity": "atm", "brand": "Chase", "brand:wikidata": "Q524629", "brand:wikipedia": "en:Chase Bank", "name": "Chase", "opening_hours": "24/7", "operator": "Chase", "operator:wikidata": "Q524629", "operator:wikipedia": "en:Chase Bank"}}, {"type": "node", "id": 2366519603, "lat": 40.7483851, "lon": -74.008099, "tags": {"amenity": "atm", "brand": "Capital One", "brand:wikidata": "Q1034654", "brand:wikipedia": "en:Capital One", "name": "Capital One", "operator": "Capital One", "operator:wikidata": "Q1034654", "operator:wikipedia": "en:Capital One"}}, {"type": "node", "id": 2377128160, "lat": 40.7446847, "lon": -73.9986558, "tags": {"addr:city": "New York", "addr:country": "US", "addr:housenumber": "238", "addr:postcode": "10011", "addr:state": "NY", "addr:street": "8th Avenue", "amenity": "atm", "brand": "Chase", "brand:wikidata": "Q524629", "brand:wikipedia": "en:Chase Bank", "name": "Chase", "opening_hours": "24/7", "operator": "Chase", "operator:wikidata": "Q524629", "operator:wikipedia": "en:Chase Bank"}}, {"type": "node", "id": 2377128161, "lat": 40.7448288, "lon": -73.998551, "tags": {"addr:city": "New York", "addr:country": "US", "addr:housenumber": "244", "addr:postcode": "10011", "addr:state": "NY", "addr:street": "8th Avenue", "amenity": "atm", "brand": "Bank of America", "brand:wikidata": "Q487907", "brand:wikipedia": "en:Bank of America", "name": "Bank of America", "opening_hours": "24/7", "operator": "Bank of America", "operator:wikidata": "Q487907", "operator:wikipedia": "en:Bank of America"}}, {"type": "node", "id": 2377128197, "lat": 40.7412737, "lon": -74.001687, "tags": {"amenity": "atm", "brand": "Bank of America", "brand:wikidata": "Q487907", "brand:wikipedia": "en:Bank of America", "name": "Bank of America", "opening_hours": "24/7", "operator": "Bank of America", "operator:wikidata": "Q487907", "operator:wikipedia": "en:Bank of America"}}, {"type": "node", "id": 2377128198, "lat": 40.7416901, "lon": -74.0008357, "tags": {"amenity": "atm", "brand": "Capital One", "brand:wikidata": "Q1034654", "brand:wikipedia": "en:Capital One", "name": "Capital One", "opening_hours": "24/7", "operator": "Capital One", "operator:wikidata": "Q1034654", "operator:wikipedia": "en:Capital One"}}, {"type": "node", "id": 2377128199, "lat": 40.7422163, "lon": -74.0010011, "tags": {"amenity": "atm", "opening_hours": "24/7", "operator": "Valley National Bank"}}, {"type": "node", "id": 2384821785, "lat": 40.7381843, "lon": -73.9996882, "tags": {"amenity": "atm", "brand": "Chase", "brand:wikidata": "Q524629", "brand:wikipedia": "en:Chase Bank", "check_date": "2021-05-07", "name": "Chase", "opening_hours": "24/7", "operator": "Chase", "operator:wikidata": "Q524629", "operator:wikipedia": "en:Chase Bank"}}, {"type": "node", "id": 2443892129, "lat": 40.7866512, "lon": -73.9782659, "tags": {"addr:city": "New York", "addr:country": "US", "addr:housenumber": "2301", "addr:postcode": "10024", "addr:state": "NY", "addr:street": "Broadway", "amenity": "atm", "brand": "Bank of America", "brand:wikidata": "Q487907", "brand:wikipedia": "en:Bank of America", "name": "Bank of America", "opening_hours": "24/7", "operator": "Bank of America", "operator:wikidata": "Q487907", "operator:wikipedia": "en:Bank of America"}}, {"type": "node", "id": 2443892164, "lat": 40.7898506, "lon": -73.975661, "tags": {"amenity": "atm", "brand": "Chase", "brand:wikidata": "Q524629", "brand:wikipedia": "en:Chase Bank", "name": "Chase", "opening_hours": "24/7", "operator": "Chase", "operator:wikidata": "Q524629", "operator:wikipedia": "en:Chase Bank"}}, {"type": "node", "id": 2494057286, "lat": 40.6879215, "lon": -73.9897672, "tags": {"amenity": "atm"}}, {"type": "node", "id": 2494153106, "lat": 40.6932775, "lon": -73.9908184, "tags": {"addr:housenumber": "26", "addr:postcode": "11201", "addr:street": "Court Street", "amenity": "atm", "opening_hours": "06:00-24:00", "operator": "Signature Bank", "website": "https://www.signatureny.com"}}, {"type": "node", "id": 2547041148, "lat": 40.7251978, "lon": -73.995012, "tags": {"addr:housenumber": "315", "addr:postcode": "10012", "addr:street": "Lafayette Street", "amenity": "atm", "brand": "Bank of America", "website": "https://locators.bankofamerica.com/ny/newyork/atm-new-york-107919.html"}}, {"type": "node", "id": 2553613119, "lat": 40.6084511, "lon": -73.9583888, "tags": {"addr:city": "Brooklyn", "addr:housenumber": "1684", "addr:postcode": "11229", "addr:street": "East 15th Street", "amenity": "atm", "name": "Atlas Atm"}}, {"type": "node", "id": 2562438703, "lat": 40.8241317, "lon": -73.9444319, "tags": {"amenity": "atm", "brand": "Capital One", "brand:wikidata": "Q1034654", "brand:wikipedia": "en:Capital One", "name": "Capital One", "opening_hours": "24/7", "operator": "Capital One", "operator:wikidata": "Q1034654", "operator:wikipedia": "en:Capital One"}}, {"type": "node", "id": 2572216595, "lat": 40.7295702, "lon": -73.986687, "tags": {"amenity": "atm", "brand": "Chase", "brand:wikidata": "Q524629", "brand:wikipedia": "en:Chase Bank", "check_date": "2021-03-01", "name": "Chase", "opening_hours": "24/7", "operator": "Chase", "operator:wikidata": "Q524629", "operator:wikipedia": "en:Chase Bank"}}, {"type": "node", "id": 2572245383, "lat": 40.7164133, "lon": -73.9972202, "tags": {"amenity": "atm", "brand": "Citibank", "brand:wikidata": "Q857063", "brand:wikipedia": "en:Citibank", "name": "Citibank", "opening_hours": "24/7", "operator": "Citibank", "operator:wikidata": "Q857063", "operator:wikipedia": "en:Citibank", "short_name": "Citi"}}, {"type": "node", "id": 2572411298, "lat": 40.7184413, "lon": -73.9951769, "tags": {"amenity": "atm", "brand": "Chase", "brand:wikidata": "Q524629", "brand:wikipedia": "en:Chase Bank", "name": "Chase", "opening_hours": "24/7", "operator": "Chase", "operator:wikidata": "Q524629", "operator:wikipedia": "en:Chase Bank"}}, {"type": "node", "id": 2572411299, "lat": 40.7230083, "lon": -73.999069, "tags": {"amenity": "atm", "brand": "Chase", "brand:wikidata": "Q524629", "brand:wikipedia": "en:Chase Bank", "name": "Chase", "opening_hours": "24/7", "operator": "Chase", "operator:wikidata": "Q524629", "operator:wikipedia": "en:Chase Bank"}}, {"type": "node", "id": 2572411301, "lat": 40.732514, "lon": -73.9898363, "tags": {"amenity": "atm", "check_date": "2021-03-25", "opening_hours": "24/7", "operator": "Valley National Bank"}}, {"type": "node", "id": 2572411302, "lat": 40.7339253, "lon": -73.9911536, "tags": {"amenity": "atm", "brand": "Chase", "brand:wikidata": "Q524629", "brand:wikipedia": "en:Chase Bank", "check_date": "2021-06-20", "name": "Chase", "opening_hours": "24/7", "operator": "Chase", "operator:wikidata": "Q524629", "operator:wikipedia": "en:Chase Bank"}}, {"type": "node", "id": 2573047724, "lat": 40.6809387, "lon": -73.9749616, "tags": {"addr:housenumber": "243", "addr:postcode": "11217", "addr:street": "Flatbush Avenue", "amenity": "atm", "brand": "Bank of America", "brand:wikidata": "Q487907", "brand:wikipedia": "en:Bank of America", "cash_in": "yes", "name": "Bank of America", "note": "looks like a bank branch but it's just a room with 2 atms", "opening_hours": "24/7", "operator": "Bank of America", "operator:wikidata": "Q487907", "operator:wikipedia": "en:Bank of America"}}, {"type": "node", "id": 2596227490, "lat": 40.6917164, "lon": -73.9883667, "tags": {"amenity": "atm", "brand": "Bank of America", "brand:wikidata": "Q487907", "brand:wikipedia": "en:Bank of America", "name": "Bank of America", "opening_hours": "24/7", "operator": "Bank of America", "operator:wikidata": "Q487907", "operator:wikipedia": "en:Bank of America", "wheelchair": "yes"}}, {"type": "node", "id": 2603955405, "lat": 40.8413759, "lon": -73.9399231, "tags": {"amenity": "atm", "brand": "Bank of America", "brand:wikidata": "Q487907", "brand:wikipedia": "en:Bank of America", "name": "Bank of America", "operator": "Bank of America", "operator:wikidata": "Q487907", "operator:wikipedia": "en:Bank of America"}}, {"type": "node", "id": 2603955420, "lat": 40.8434557, "lon": -73.9393856, "tags": {"amenity": "atm", "brand": "Bank of America", "brand:wikidata": "Q487907", "brand:wikipedia": "en:Bank of America", "name": "Bank of America", "opening_hours": "24/7", "operator": "Bank of America", "operator:wikidata": "Q487907", "operator:wikipedia": "en:Bank of America"}}, {"type": "node", "id": 2610440264, "lat": 40.7617657, "lon": -73.9825061, "tags": {"amenity": "atm", "brand": "Citibank", "brand:wikidata": "Q857063", "brand:wikipedia": "en:Citibank", "name": "Citibank", "operator": "Citibank", "operator:wikidata": "Q857063", "operator:wikipedia": "en:Citibank", "short_name": "Citi", "wheelchair": "yes"}}, {"type": "node", "id": 2610440265, "lat": 40.7621069, "lon": -73.9822562, "tags": {"amenity": "atm", "brand": "Chase", "brand:wikidata": "Q524629", "brand:wikipedia": "en:Chase Bank", "name": "Chase", "opening_hours": "24/7", "operator": "Chase", "operator:wikidata": "Q524629", "operator:wikipedia": "en:Chase Bank"}}, {"type": "node", "id": 2610440267, "lat": 40.7628755, "lon": -73.9822669, "tags": {"amenity": "atm", "brand": "Chase", "brand:wikidata": "Q524629", "brand:wikipedia": "en:Chase Bank", "name": "Chase", "opening_hours": "24/7", "operator": "Chase", "operator:wikidata": "Q524629", "operator:wikipedia": "en:Chase Bank"}}, {"type": "node", "id": 2611782767, "lat": 40.7567398, "lon": -73.9830661, "tags": {"amenity": "atm", "brand": "Citibank", "brand:wikidata": "Q857063", "brand:wikipedia": "en:Citibank", "name": "Citibank", "opening_hours": "24/7", "operator": "Citibank", "operator:wikidata": "Q857063", "operator:wikipedia": "en:Citibank", "short_name": "Citi"}}, {"type": "node", "id": 2620513910, "lat": 40.7759713, "lon": -73.9557489, "tags": {"amenity": "atm", "brand": "Citibank", "brand:wikidata": "Q857063", "brand:wikipedia": "en:Citibank", "name": "Citibank", "opening_hours": "24/7", "operator": "Citibank", "operator:wikidata": "Q857063", "operator:wikipedia": "en:Citibank", "short_name": "Citi"}}, {"type": "node", "id": 2620513911, "lat": 40.7792183, "lon": -73.9555156, "tags": {"amenity": "atm", "brand": "Bank of America", "brand:wikidata": "Q487907", "brand:wikipedia": "en:Bank of America", "name": "Bank of America", "opening_hours": "24/7", "operator": "Bank of America", "operator:wikidata": "Q487907", "operator:wikipedia": "en:Bank of America"}}, {"type": "node", "id": 2623014661, "lat": 40.7646512, "lon": -73.964601, "tags": {"amenity": "atm", "brand": "Citibank", "brand:wikidata": "Q857063", "brand:wikipedia": "en:Citibank", "name": "Citibank", "opening_hours": "24/7", "operator": "Citibank", "operator:wikidata": "Q857063", "operator:wikipedia": "en:Citibank", "short_name": "Citi"}}, {"type": "node", "id": 2623014666, "lat": 40.7650853, "lon": -73.9637151, "tags": {"amenity": "atm", "brand": "Bank of America", "brand:wikidata": "Q487907", "brand:wikipedia": "en:Bank of America", "name": "Bank of America", "opening_hours": "24/7", "operator": "Bank of America", "operator:wikidata": "Q487907", "operator:wikipedia": "en:Bank of America"}}, {"type": "node", "id": 2623014696, "lat": 40.7743561, "lon": -73.9569681, "tags": {"amenity": "atm", "brand": "Chase", "brand:wikidata": "Q524629", "brand:wikipedia": "en:Chase Bank", "name": "Chase", "opening_hours": "24/7", "operator": "Chase", "operator:wikidata": "Q524629", "operator:wikipedia": "en:Chase Bank"}}, {"type": "node", "id": 2629277999, "lat": 40.7619109, "lon": -73.9709184, "tags": {"amenity": "atm", "brand": "Citibank", "brand:wikidata": "Q857063", "brand:wikipedia": "en:Citibank", "name": "Citibank", "opening_hours": "24/7", "operator": "Citibank", "operator:wikidata": "Q857063", "operator:wikipedia": "en:Citibank", "short_name": "Citi"}}, {"type": "node", "id": 2629278001, "lat": 40.7633611, "lon": -73.9776464, "tags": {"amenity": "atm", "brand": "Chase", "brand:wikidata": "Q524629", "brand:wikipedia": "en:Chase Bank", "name": "Chase", "opening_hours": "24/7", "operator": "Chase", "operator:wikidata": "Q524629", "operator:wikipedia": "en:Chase Bank"}}, {"type": "node", "id": 2629371832, "lat": 40.7652725, "lon": -73.9575747, "tags": {"addr:city": "New York", "addr:country": "US", "addr:housenumber": "1266", "addr:postcode": "10021", "addr:state": "NY", "addr:street": "1st Avenue", "amenity": "atm", "brand": "Citibank", "brand:wikidata": "Q857063", "brand:wikipedia": "en:Citibank", "name": "Citibank", "opening_hours": "24/7", "operator": "Citibank", "operator:wikidata": "Q857063", "operator:wikipedia": "en:Citibank", "short_name": "Citi"}}, {"type": "node", "id": 2629371902, "lat": 40.7720749, "lon": -73.9525944, "tags": {"amenity": "atm", "brand": "Citibank", "brand:wikidata": "Q857063", "brand:wikipedia": "en:Citibank", "name": "Citibank", "opening_hours": "24/7", "operator": "Citibank", "operator:wikidata": "Q857063", "operator:wikipedia": "en:Citibank", "short_name": "Citi"}}, {"type": "node", "id": 2649092012, "lat": 40.7559175, "lon": -73.9910251, "tags": {"amenity": "atm", "brand": "Chase", "brand:wikidata": "Q524629", "brand:wikipedia": "en:Chase Bank", "name": "Chase", "opening_hours": "24/7", "operator": "Chase", "operator:wikidata": "Q524629", "operator:wikipedia": "en:Chase Bank"}}, {"type": "node", "id": 2703083234, "lat": 40.7435107, "lon": -73.9925628, "tags": {"amenity": "atm"}}, {"type": "node", "id": 2713490462, "lat": 40.677589, "lon": -73.9635664, "tags": {"amenity": "atm"}}, {"type": "node", "id": 2713495199, "lat": 40.6766469, "lon": -73.96341, "tags": {"amenity": "atm"}}, {"type": "node", "id": 2782255522, "lat": 40.7085466, "lon": -73.9579353, "tags": {"amenity": "atm"}}, {"type": "node", "id": 2782255551, "lat": 40.7099585, "lon": -73.9627628, "tags": {"amenity": "atm"}}, {"type": "node", "id": 2789510007, "lat": 40.7037215, "lon": -73.7995916, "tags": {"addr:city": "Jamaica", "addr:country": "US", "addr:housenumber": "159-17", "addr:postcode": "11432", "addr:state": "NY", "addr:street": "Jamaica Avenue", "amenity": "atm", "atm": "yes", "brand": "Chase", "brand:wikidata": "Q524629", "brand:wikipedia": "en:Chase Bank", "cash_in": "yes", "drive_through": "no", "name": "Chase", "opening_hours": "24/7", "operator": "Chase", "operator:wikidata": "Q524629", "operator:wikipedia": "en:Chase Bank"}}, {"type": "node", "id": 2850982603, "lat": 40.7634063, "lon": -73.7711964, "tags": {"amenity": "atm"}}, {"type": "node", "id": 2871010407, "lat": 40.7297264, "lon": -73.8235926, "tags": {"addr:housenumber": "69-58", "addr:postcode": "11367", "addr:street": "Main Street", "amenity": "atm", "brand": "Citibank", "brand:wikidata": "Q857063", "brand:wikipedia": "en:Citibank", "description": "Citibank ATM", "name": "Citibank", "name_1": "7-11", "name_2": "ATM", "operator": "Citibank", "operator:wikidata": "Q857063", "operator:wikipedia": "en:Citibank", "short_name": "Citi"}}, {"type": "node", "id": 2878118472, "lat": 40.7883599, "lon": -73.7851635, "tags": {"amenity": "atm"}}, {"type": "node", "id": 2898706762, "lat": 40.7064378, "lon": -74.0053153, "tags": {"amenity": "atm", "brand": "Bank of America", "brand:wikidata": "Q487907", "brand:wikipedia": "en:Bank of America", "name": "Bank of America", "operator": "Bank of America", "operator:wikidata": "Q487907", "operator:wikipedia": "en:Bank of America"}}, {"type": "node", "id": 3003918345, "lat": 40.7175722, "lon": -73.9578506, "tags": {"amenity": "atm", "cash_in": "no", "drive_through": "no", "indoor": "yes"}}, {"type": "node", "id": 3146200329, "lat": 40.766586, "lon": -73.987006, "tags": {"amenity": "atm", "wheelchair": "yes"}}, {"type": "node", "id": 3146526129, "lat": 40.742618, "lon": -74.006402, "tags": {"amenity": "atm", "check_date": "2023-02-21"}}, {"type": "node", "id": 3215276726, "lat": 40.7648167, "lon": -73.9836953, "tags": {"amenity": "atm", "operator": "TD", "wheelchair": "yes"}}, {"type": "node", "id": 3215276727, "lat": 40.7628801, "lon": -73.9859058, "tags": {"amenity": "atm", "brand": "Bank of America", "brand:wikidata": "Q487907", "brand:wikipedia": "en:Bank of America", "name": "Bank of America", "operator": "Bank of America", "operator:wikidata": "Q487907", "operator:wikipedia": "en:Bank of America"}}, {"type": "node", "id": 3238681556, "lat": 40.7339966, "lon": -73.9893262, "tags": {"amenity": "atm", "brand": "Wells Fargo", "brand:wikidata": "Q744149", "brand:wikipedia": "en:Wells Fargo", "check_date": "2021-02-13", "name": "Wells Fargo", "operator": "Wells Fargo", "operator:wikidata": "Q744149", "operator:wikipedia": "en:Wells Fargo"}}, {"type": "node", "id": 3449138655, "lat": 40.6918198, "lon": -73.9638204, "tags": {"amenity": "atm"}}, {"type": "node", "id": 3565800093, "lat": 40.6712268, "lon": -73.9636183, "tags": {"amenity": "atm"}}, {"type": "node", "id": 3575305298, "lat": 40.7108688, "lon": -73.9678024, "tags": {"amenity": "atm", "operator": "MetaBank"}}, {"type": "node", "id": 3829602556, "lat": 40.7507513, "lon": -73.9712998, "tags": {"amenity": "atm", "name": "UNFCU", "operator": "UNFCU"}}, {"type": "node", "id": 3913449147, "lat": 40.8501569, "lon": -73.8805108, "tags": {"amenity": "atm"}}, {"type": "node", "id": 4110025390, "lat": 40.63981, "lon": -73.781318, "tags": {"amenity": "atm"}}, {"type": "node", "id": 4111933908, "lat": 40.6746342, "lon": -73.9754998, "tags": {"addr:housenumber": "92", "addr:postcode": "11217", "addr:street": "7th Avenue", "amenity": "atm", "brand": "Bank of America", "brand:wikidata": "Q487907", "brand:wikipedia": "en:Bank of America", "name": "Bank of America", "note": "looks like a bank branch but is just a room with 2 atms", "opening_hours": "24/7", "operator": "Bank of America", "operator:wikidata": "Q487907", "operator:wikipedia": "en:Bank of America"}}, {"type": "node", "id": 4144668734, "lat": 40.7632469, "lon": -73.9851823, "tags": {"amenity": "atm", "brand": "Santander", "brand:wikidata": "Q5835668", "brand:wikipedia": "en:Santander Bank", "name": "Santander", "operator": "Santander", "operator:wikidata": "Q5835668", "operator:wikipedia": "en:Santander Bank"}}, {"type": "node", "id": 4144668737, "lat": 40.7507159, "lon": -73.9873346, "tags": {"amenity": "atm", "brand": "Santander", "brand:wikidata": "Q5835668", "brand:wikipedia": "en:Santander Bank", "name": "Santander", "operator": "Santander", "operator:wikidata": "Q5835668", "operator:wikipedia": "en:Santander Bank"}}, {"type": "node", "id": 4213034147, "lat": 40.7112329, "lon": -73.7910434, "tags": {"addr:city": "Jamaica", "addr:housenumber": "170-26", "addr:postcode": "11432", "addr:state": "NY", "addr:street": "Hillside Avenue", "amenity": "atm", "currency:USD": "yes", "drive_through": "no", "fee": "yes", "indoor": "yes"}}, {"type": "node", "id": 4213034148, "lat": 40.7075873, "lon": -73.7889207, "tags": {"addr:city": "Jamaica", "addr:housenumber": "170-23", "addr:postcode": "11432", "addr:state": "NY", "addr:street": "Jamaica Avenue", "amenity": "atm", "currency:USD": "yes", "drive_through": "no", "level": "1"}}, {"type": "node", "id": 4367840493, "lat": 40.672431, "lon": -73.9417937, "tags": {"amenity": "atm"}}, {"type": "node", "id": 4397681690, "lat": 40.7355865, "lon": -73.9797375, "tags": {"amenity": "atm", "brand": "Bank of America", "brand:wikidata": "Q487907", "count": "3", "note": "looks like a bank branch but is just a room with 3 atms", "operator": "Bank of America", "operator:wikidata": "Q487907"}}, {"type": "node", "id": 4402335681, "lat": 40.6895888, "lon": -74.0460003, "tags": {"amenity": "atm", "indoor": "yes"}}, {"type": "node", "id": 4407735191, "lat": 40.5762669, "lon": -74.1660663, "tags": {"amenity": "atm", "brand": "People's United Bank", "wheelchair": "yes"}}, {"type": "node", "id": 4412575737, "lat": 40.545937, "lon": -74.1609392, "tags": {"amenity": "atm", "brand": "People's United Bank", "indoor": "yes", "wheelchair": "yes"}}, {"type": "node", "id": 4414226411, "lat": 40.5639761, "lon": -74.1144723, "tags": {"amenity": "atm", "brand": "People's United Bank"}}, {"type": "node", "id": 4604146990, "lat": 40.7508672, "lon": -73.9982613, "tags": {"amenity": "atm", "opening_hours": "24/7"}}, {"type": "node", "id": 4676427566, "lat": 40.7529319, "lon": -73.9775953, "tags": {"amenity": "atm", "level": "0"}}, {"type": "node", "id": 4676427583, "lat": 40.7529532, "lon": -73.9776453, "tags": {"amenity": "atm", "level": "0"}}, {"type": "node", "id": 4676427789, "lat": 40.75294, "lon": -73.9776144, "tags": {"amenity": "atm", "level": "0"}}, {"type": "node", "id": 4676427791, "lat": 40.7529563, "lon": -73.9776537, "tags": {"amenity": "atm", "level": "0"}}, {"type": "node", "id": 4676427814, "lat": 40.7529286, "lon": -73.9775863, "tags": {"amenity": "atm", "level": "0"}}, {"type": "node", "id": 4676427826, "lat": 40.7529497, "lon": -73.9776379, "tags": {"amenity": "atm", "level": "0"}}, {"type": "node", "id": 4676427832, "lat": 40.7529359, "lon": -73.9776047, "tags": {"amenity": "atm", "level": "0"}}, {"type": "node", "id": 4676427852, "lat": 40.7529448, "lon": -73.9776265, "tags": {"amenity": "atm", "level": "0"}}, {"type": "node", "id": 4715379490, "lat": 40.8193959, "lon": -73.9138826, "tags": {"addr:housenumber": "303", "addr:postcode": "10541", "addr:street": "East 155th Street", "amenity": "atm", "shop": "beauty"}}, {"type": "node", "id": 4771881054, "lat": 40.7213141, "lon": -73.9840446, "tags": {"amenity": "atm", "check_date": "2021-05-10"}}, {"type": "node", "id": 4850205321, "lat": 40.7049006, "lon": -74.00727, "tags": {"amenity": "atm", "brand": "PNC Bank", "brand:wikidata": "Q38928", "brand:wikipedia": "en:PNC Financial Services", "name": "PNC Bank", "opening_hours": "24/7", "operator": "PNC Bank", "operator:wikidata": "Q38928", "operator:wikipedia": "en:PNC Financial Services"}}, {"type": "node", "id": 4915258224, "lat": 40.7065894, "lon": -74.0064379, "tags": {"amenity": "atm", "brand": "PNC Bank", "brand:wikidata": "Q38928", "brand:wikipedia": "en:PNC Financial Services", "name": "PNC Bank", "opening_hours": "24/7", "operator": "PNC Bank", "operator:wikidata": "Q38928", "operator:wikipedia": "en:PNC Financial Services"}}, {"type": "node", "id": 4990556245, "lat": 40.6929082, "lon": -74.0159407, "tags": {"amenity": "atm"}}, {"type": "node", "id": 4990556276, "lat": 40.6895037, "lon": -74.0187116, "tags": {"amenity": "atm"}}, {"type": "node", "id": 4990556277, "lat": 40.6884893, "lon": -74.0171613, "tags": {"amenity": "atm"}}, {"type": "node", "id": 4995839491, "lat": 40.7487009, "lon": -73.9396535, "tags": {"amenity": "atm"}}, {"type": "node", "id": 5023063721, "lat": 40.7630541, "lon": -73.9778787, "tags": {"amenity": "atm", "brand": "Bank of America", "brand:wikidata": "Q487907", "brand:wikipedia": "en:Bank of America", "name": "Bank of America", "operator": "Bank of America", "operator:wikidata": "Q487907", "operator:wikipedia": "en:Bank of America"}}, {"type": "node", "id": 5155784032, "lat": 40.7467521, "lon": -73.997227, "tags": {"amenity": "atm"}}, {"type": "node", "id": 5269167822, "lat": 40.6423961, "lon": -73.7916198, "tags": {"amenity": "atm"}}, {"type": "node", "id": 5549150588, "lat": 40.6813026, "lon": -73.976753, "tags": {"amenity": "atm"}}, {"type": "node", "id": 5594646438, "lat": 40.7883618, "lon": -73.9472413, "tags": {"addr:housenumber": "1810", "addr:street": "3rd Avenue", "amenity": "atm", "brand": "Coinsource", "brand:wikidata": "Q109850339", "currency:XBT": "yes", "drive_through": "no", "email": "support@coinsource.net", "fee": "8%", "name": "Coinsource", "network": "Bitcoin", "opening_hours": "24/7", "operator": "Coinsource", "payment:cash": "only", "phone": "+1-805-500-2646", "website": "https://coinsource.net"}}, {"type": "node", "id": 5641053280, "lat": 40.8041286, "lon": -73.9377662, "tags": {"addr:housenumber": "2056", "addr:postcode": "10035", "addr:street": "Lexington Avenue", "amenity": "atm", "brand": "Genesis Coin", "cash_in": "yes", "currency:USD": "yes", "currency:XBT": "yes", "drive_through": "no", "email": "support@coinbtm.com", "fee": "5-20%", "name": "Bitcoin ATM", "network": "Bitcoin", "opening_hours": "24/7", "operator": "Cottonwood Vending", "phone": "+1-917-789-5251", "website": "http://coinbtm.com"}}, {"type": "node", "id": 5676615628, "lat": 40.6816039, "lon": -73.975867, "tags": {"amenity": "atm"}}, {"type": "node", "id": 5687058540, "lat": 40.7128582, "lon": -73.7822675, "tags": {"amenity": "atm", "check_date": "2022-07-31"}}, {"type": "node", "id": 5687058541, "lat": 40.7127106, "lon": -73.7828554, "tags": {"amenity": "atm"}}, {"type": "node", "id": 5712402443, "lat": 40.6816463, "lon": -73.9770538, "tags": {"amenity": "atm", "check_date": "2021-06-26"}}, {"type": "node", "id": 5745808908, "lat": 40.6883457, "lon": -73.9888394, "tags": {"amenity": "atm", "check_date": "2021-06-26"}}, {"type": "node", "id": 5754769712, "lat": 40.7809286, "lon": -73.9467173, "tags": {"amenity": "atm", "brand": "Citibank", "brand:wikidata": "Q857063", "brand:wikipedia": "en:Citibank", "level": "0", "name": "Citibank", "opening_hours": "24/7", "operator": "Citibank", "operator:wikidata": "Q857063", "operator:wikipedia": "en:Citibank", "short_name": "Citi"}}, {"type": "node", "id": 5793254014, "lat": 40.7875957, "lon": -73.9540901, "tags": {"addr:housenumber": "21", "addr:postcode": "10128", "addr:street": "East 96th Street", "amenity": "atm", "brand": "Bank of America", "brand:wikidata": "Q487907", "brand:wikipedia": "en:Bank of America", "name": "Bank of America", "opening_hours": "24/7", "operator": "Bank of America", "operator:wikidata": "Q487907", "operator:wikipedia": "en:Bank of America"}}, {"type": "node", "id": 5794594704, "lat": 40.6804804, "lon": -73.9892939, "tags": {"amenity": "atm"}}, {"type": "node", "id": 5794694808, "lat": 40.683345, "lon": -73.9995819, "tags": {"amenity": "atm"}}, {"type": "node", "id": 5798351445, "lat": 40.7980115, "lon": -73.9397443, "tags": {"addr:housenumber": "201", "addr:postcode": "10029", "addr:street": "East 116th Street", "amenity": "atm", "branch": "116th & 3rd", "brand": "Bank of America", "brand:wikidata": "Q487907", "brand:wikipedia": "en:Bank of America", "name": "Bank of America", "opening_hours": "24/7", "operator": "Bank of America", "operator:wikidata": "Q487907", "operator:wikipedia": "en:Bank of America"}}, {"type": "node", "id": 5832647115, "lat": 40.6665988, "lon": -73.9816337, "tags": {"addr:housenumber": "337", "addr:postcode": "11215", "addr:street": "7th Avenue", "amenity": "atm", "brand": "Bank of America", "brand:wikidata": "Q487907", "brand:wikipedia": "en:Bank of America", "drive_through": "no", "name": "Bank of America", "note": "looks like a bank branch but is just a room with 2 atms", "opening_hours": "24/7", "operator": "Bank of America", "operator:wikidata": "Q487907", "operator:wikipedia": "en:Bank of America"}}, {"type": "node", "id": 5854772930, "lat": 40.7089951, "lon": -73.9224935, "tags": {"amenity": "atm"}}, {"type": "node", "id": 5854848884, "lat": 40.7063134, "lon": -73.9226268, "tags": {"amenity": "atm", "check_date": "2021-12-17", "operator": "Atmworld"}}, {"type": "node", "id": 5906945985, "lat": 40.6479568, "lon": -73.7908703, "tags": {"amenity": "atm"}}, {"type": "node", "id": 5906948486, "lat": 40.6473256, "lon": -73.7928155, "tags": {"amenity": "atm", "check_date": "2022-08-20"}}, {"type": "node", "id": 5907007485, "lat": 40.6492138, "lon": -73.7946142, "tags": {"amenity": "atm"}}, {"type": "node", "id": 5932291050, "lat": 40.6730222, "lon": -73.9905554, "tags": {"amenity": "atm"}}, {"type": "node", "id": 5935153176, "lat": 40.7194583, "lon": -74.0041799, "tags": {"amenity": "atm"}}, {"type": "node", "id": 5938006746, "lat": 40.706163, "lon": -73.9231488, "tags": {"amenity": "atm"}}, {"type": "node", "id": 5960289929, "lat": 40.6884401, "lon": -73.9794075, "tags": {"amenity": "atm"}}, {"type": "node", "id": 5986292885, "lat": 40.7339865, "lon": -73.8693468, "tags": {"amenity": "atm", "check_date": "2022-04-20"}}, {"type": "node", "id": 6008597570, "lat": 40.6180345, "lon": -74.0305259, "tags": {"amenity": "atm"}}, {"type": "node", "id": 6037145792, "lat": 40.7183682, "lon": -73.957278, "tags": {"amenity": "atm", "level": "0"}}, {"type": "node", "id": 6037817187, "lat": 40.7597993, "lon": -74.0281885, "tags": {"amenity": "atm", "brand": "Bank of America", "brand:wikidata": "Q487907", "drive_through": "yes", "name": "Bank of America", "network": "Bank of America", "operator": "Bank of America", "operator:wikidata": "Q487907"}}, {"type": "node", "id": 6135689367, "lat": 40.7116748, "lon": -73.7870623, "tags": {"amenity": "atm", "level": "2"}}, {"type": "node", "id": 6139141877, "lat": 40.7742196, "lon": -73.8693529, "tags": {"amenity": "atm"}}, {"type": "node", "id": 6139141878, "lat": 40.7734451, "lon": -73.8688716, "tags": {"amenity": "atm"}}, {"type": "node", "id": 6139560287, "lat": 40.7429417, "lon": -74.0037076, "tags": {"amenity": "atm", "opening_hours": "24/7", "wheelchair": "yes"}}, {"type": "node", "id": 6177318447, "lat": 40.6852461, "lon": -73.9916241, "tags": {"amenity": "atm", "level": "0", "operator": "Welch"}}, {"type": "node", "id": 6201863798, "lat": 40.6413517, "lon": -73.7826723, "tags": {"amenity": "atm", "check_date": "2022-11-30"}}, {"type": "node", "id": 6220850154, "lat": 40.7846403, "lon": -73.9470475, "tags": {"amenity": "atm", "level": "0", "network": "Allpoint", "wheelchair": "yes"}}, {"type": "node", "id": 6220901120, "lat": 40.7842393, "lon": -73.9476495, "tags": {"amenity": "atm", "level": "0", "network": "Citi", "opening_hours": "24/7", "wheelchair": "yes"}}, {"type": "node", "id": 6226167939, "lat": 40.7846222, "lon": -73.9471069, "tags": {"amenity": "atm", "cash_in": "no", "fee": "yes", "level": "0", "opening_hours": "24/7", "wheelchair": "yes"}}, {"type": "node", "id": 6233725909, "lat": 40.719922, "lon": -73.9885592, "tags": {"amenity": "atm", "operator": "ATM Services NY, Inc."}}, {"type": "node", "id": 6260920343, "lat": 40.7204941, "lon": -73.9894266, "tags": {"amenity": "atm"}}, {"type": "node", "id": 6261908601, "lat": 40.7165968, "lon": -73.99764, "tags": {"amenity": "atm"}}, {"type": "node", "id": 6288549410, "lat": 40.7563772, "lon": -73.9827989, "tags": {"amenity": "atm", "wheelchair": "yes"}}, {"type": "node", "id": 6299824439, "lat": 40.6586233, "lon": -73.9817342, "tags": {"amenity": "atm", "operator": "Innovative Card Solutions"}}, {"type": "node", "id": 6379862626, "lat": 40.6798171, "lon": -73.9969167, "tags": {"amenity": "atm", "brand": "Santander", "brand:wikidata": "Q5835668", "brand:wikipedia": "en:Santander Bank", "level": "0", "name": "Santander", "operator": "Santander", "operator:wikidata": "Q5835668", "operator:wikipedia": "en:Santander Bank"}}, {"type": "node", "id": 6401451685, "lat": 40.7031934, "lon": -73.9865017, "tags": {"amenity": "atm", "operator": "Bank of America"}}, {"type": "node", "id": 6442303490, "lat": 40.6436964, "lon": -73.7812546, "tags": {"amenity": "atm"}}, {"type": "node", "id": 6442303685, "lat": 40.6430684, "lon": -73.7827847, "tags": {"amenity": "atm"}}, {"type": "node", "id": 6442305185, "lat": 40.6436006, "lon": -73.7798455, "tags": {"amenity": "atm"}}, {"type": "node", "id": 6442347487, "lat": 40.6392954, "lon": -73.7814383, "tags": {"amenity": "atm"}}, {"type": "node", "id": 6442347489, "lat": 40.639102, "lon": -73.7811273, "tags": {"amenity": "atm", "operator": "Delta Community Credit Union"}}, {"type": "node", "id": 6507019902, "lat": 40.7505753, "lon": -73.9911926, "tags": {"amenity": "atm", "brand": "Bank of America", "brand:wikidata": "Q487907", "brand:wikipedia": "en:Bank of America", "name": "Bank of America", "operator": "Bank of America", "operator:wikidata": "Q487907", "operator:wikipedia": "en:Bank of America"}}, {"type": "node", "id": 6530593034, "lat": 40.7148107, "lon": -73.9965532, "tags": {"amenity": "atm"}}, {"type": "node", "id": 6575678827, "lat": 40.7596025, "lon": -74.0358709, "tags": {"amenity": "atm"}}, {"type": "node", "id": 6595216850, "lat": 40.6571471, "lon": -73.9638059, "tags": {"amenity": "atm", "brand": "Chase", "brand:wikidata": "Q524629", "brand:wikipedia": "en:Chase Bank", "drive_through": "no", "level": "0", "name": "Chase", "operator": "Chase", "operator:wikidata": "Q524629", "operator:wikipedia": "en:Chase Bank"}}, {"type": "node", "id": 6611254405, "lat": 40.701485, "lon": -74.0132488, "tags": {"amenity": "atm", "brand": "Bank of America", "brand:wikidata": "Q487907", "brand:wikipedia": "en:Bank of America", "name": "Bank of America", "operator": "Bank of America", "operator:wikidata": "Q487907", "operator:wikipedia": "en:Bank of America"}}, {"type": "node", "id": 6639135304, "lat": 40.6888048, "lon": -73.9860047, "tags": {"amenity": "atm"}}, {"type": "node", "id": 6672688809, "lat": 40.7613971, "lon": -73.9939721, "tags": {"amenity": "atm", "drive_through": "no"}}, {"type": "node", "id": 6680695930, "lat": 40.7341501, "lon": -73.9896951, "tags": {"amenity": "atm", "brand": "Citibank", "brand:wikidata": "Q857063", "brand:wikipedia": "en:Citibank", "name": "Citibank", "operator": "Citibank", "operator:wikidata": "Q857063", "operator:wikipedia": "en:Citibank", "short_name": "Citi"}}, {"type": "node", "id": 6681964473, "lat": 40.7024153, "lon": -73.9895055, "tags": {"amenity": "atm", "drive_through": "no"}}, {"type": "node", "id": 6684023489, "lat": 40.6498574, "lon": -73.782363, "tags": {"amenity": "atm", "drive_through": "no", "indoor": "yes", "name": "Travelex"}}, {"type": "node", "id": 6699676908, "lat": 40.5417665, "lon": -74.1776049, "tags": {"amenity": "atm"}}, {"type": "node", "id": 6699676909, "lat": 40.5417516, "lon": -74.1776029, "tags": {"amenity": "atm"}}, {"type": "node", "id": 6772982785, "lat": 40.7090442, "lon": -74.0068976, "tags": {"amenity": "atm"}}, {"type": "node", "id": 6781584778, "lat": 40.7718673, "lon": -73.865972, "tags": {"amenity": "atm", "operator": "Travelex"}}, {"type": "node", "id": 6781597926, "lat": 40.7685597, "lon": -73.8615487, "tags": {"amenity": "atm"}}, {"type": "node", "id": 6816154841, "lat": 40.7075542, "lon": -73.7960882, "tags": {"amenity": "atm", "check_date": "2022-05-19", "drive_through": "no"}}, {"type": "node", "id": 6910650056, "lat": 40.7198626, "lon": -73.9902959, "tags": {"amenity": "atm"}}, {"type": "node", "id": 6917080351, "lat": 40.67866, "lon": -73.9501542, "tags": {"amenity": "atm"}}, {"type": "node", "id": 6918962447, "lat": 40.7989644, "lon": -73.942008, "tags": {"amenity": "atm"}}, {"type": "node", "id": 6935858258, "lat": 40.718995, "lon": -73.9563445, "tags": {"amenity": "atm"}}, {"type": "node", "id": 6935858259, "lat": 40.7188019, "lon": -73.9561855, "tags": {"amenity": "atm"}}, {"type": "node", "id": 6992697771, "lat": 40.7123135, "lon": -73.7859409, "tags": {"amenity": "atm", "brand": "Bank of America", "brand:wikidata": "Q487907", "drive_through": "yes", "name": "Bank of America", "operator": "Bank of America", "operator:wikidata": "Q487907"}}, {"type": "node", "id": 7055608601, "lat": 40.7421628, "lon": -73.9804707, "tags": {"addr:housenumber": "399", "addr:postcode": "10016", "addr:street": "3rd Avenue", "amenity": "atm", "brand": "Bank of America", "brand:wikidata": "Q487907", "brand:wikipedia": "en:Bank of America", "drive_through": "no", "name": "Bank of America", "operator": "Bank of America", "operator:wikidata": "Q487907", "operator:wikipedia": "en:Bank of America"}}, {"type": "node", "id": 7091113350, "lat": 40.7169046, "lon": -73.9617749, "tags": {"amenity": "atm", "drive_through": "no"}}, {"type": "node", "id": 7132080958, "lat": 40.6826082, "lon": -73.9931472, "tags": {"amenity": "atm"}}, {"type": "node", "id": 7132179451, "lat": 40.6831874, "lon": -73.9824089, "tags": {"amenity": "atm"}}, {"type": "node", "id": 7143243404, "lat": 40.6844222, "lon": -73.9919161, "tags": {"amenity": "atm"}}, {"type": "node", "id": 7173321589, "lat": 40.6979187, "lon": -73.9617555, "tags": {"amenity": "atm"}}, {"type": "node", "id": 7209800035, "lat": 40.6753078, "lon": -74.0011277, "tags": {"amenity": "atm", "opening_hours": "24/7"}}, {"type": "node", "id": 7256313322, "lat": 40.6231535, "lon": -74.0284267, "tags": {"amenity": "atm", "opening_hours": "24/7", "operator": "Dime Bank"}}, {"type": "node", "id": 7256957268, "lat": 40.6383201, "lon": -74.0064125, "tags": {"amenity": "atm", "drive_through": "no", "operator": "Chase ATM"}}, {"type": "node", "id": 7262668660, "lat": 40.8470543, "lon": -73.8591556, "tags": {"amenity": "atm"}}, {"type": "node", "id": 7368515785, "lat": 40.7493062, "lon": -73.9883682, "tags": {"amenity": "atm", "brand": "Bank of America", "brand:wikidata": "Q487907", "brand:wikipedia": "en:Bank of America", "name": "Bank of America", "opening_hours": "Mo-Fr 09:00-17:00; Sa 09:00-14:00", "operator": "Bank of America", "operator:wikidata": "Q487907", "operator:wikipedia": "en:Bank of America"}}, {"type": "node", "id": 7545887609, "lat": 40.8792943, "lon": -73.8266241, "tags": {"amenity": "atm"}}, {"type": "node", "id": 7545887610, "lat": 40.8793147, "lon": -73.8265721, "tags": {"amenity": "atm"}}, {"type": "node", "id": 7545887611, "lat": 40.87933, "lon": -73.8265129, "tags": {"amenity": "atm"}}, {"type": "node", "id": 7678230974, "lat": 40.7341562, "lon": -73.9910907, "tags": {"amenity": "atm", "brand": "Santander", "brand:wikidata": "Q5835668", "brand:wikipedia": "en:Santander Bank", "name": "Santander", "opening_hours": "24/7", "operator": "Santander", "operator:wikidata": "Q5835668", "operator:wikipedia": "en:Santander Bank"}}, {"type": "node", "id": 7696399385, "lat": 40.7069367, "lon": -74.0053035, "tags": {"amenity": "atm", "brand": "Citibank", "brand:wikidata": "Q857063", "brand:wikipedia": "en:Citibank", "name": "Citibank", "operator": "Citibank", "operator:wikidata": "Q857063", "operator:wikipedia": "en:Citibank", "short_name": "Citi"}}, {"type": "node", "id": 7801509226, "lat": 40.775546, "lon": -73.8719146, "tags": {"amenity": "atm"}}, {"type": "node", "id": 7917605553, "lat": 40.7150145, "lon": -73.7755222, "tags": {"amenity": "atm"}}, {"type": "node", "id": 8373415513, "lat": 40.7493473, "lon": -73.9921822, "tags": {"amenity": "atm", "brand": "Bank of America", "brand:wikidata": "Q487907", "brand:wikipedia": "en:Bank of America", "name": "Bank of America", "operator": "Bank of America", "operator:wikidata": "Q487907", "operator:wikipedia": "en:Bank of America"}}, {"type": "node", "id": 8455829694, "lat": 40.745462, "lon": -73.9821457, "tags": {"amenity": "atm", "brand": "TD Bank", "brand:wikidata": "Q7669891", "brand:wikipedia": "en:TD Bank, N.A.", "name": "TD Bank", "operator": "TD Bank", "operator:wikidata": "Q7669891", "operator:wikipedia": "en:TD Bank, N.A."}}, {"type": "node", "id": 8458432262, "lat": 40.7385537, "lon": -73.7933801, "tags": {"amenity": "atm", "brand": "TD Bank", "brand:wikidata": "Q7669891", "brand:wikipedia": "en:TD Bank, N.A.", "covered": "yes", "drive_through": "yes", "indoor": "no", "lit": "yes", "name": "TD Bank", "operator": "TD Bank", "operator:wikidata": "Q7669891", "operator:wikipedia": "en:TD Bank, N.A."}}, {"type": "node", "id": 8712863767, "lat": 40.6701171, "lon": -73.9853626, "tags": {"amenity": "atm"}}, {"type": "node", "id": 8769373117, "lat": 40.7154099, "lon": -74.0077828, "tags": {"amenity": "atm", "brand": "Bank of America", "brand:wikidata": "Q487907", "brand:wikipedia": "en:Bank of America", "name": "Bank of America", "operator": "Bank of America", "operator:wikidata": "Q487907", "operator:wikipedia": "en:Bank of America"}}, {"type": "node", "id": 8910858021, "lat": 40.7071247, "lon": -73.789418, "tags": {"amenity": "atm", "check_date": "2022-07-30", "drive_through": "no"}}, {"type": "node", "id": 8936725188, "lat": 40.7239391, "lon": -73.8480512, "tags": {"amenity": "atm", "brand": "Citibank", "brand:wikidata": "Q857063", "brand:wikipedia": "en:Citibank", "name": "Citibank", "operator": "Citibank", "operator:wikidata": "Q857063", "operator:wikipedia": "en:Citibank", "short_name": "Citi"}}, {"type": "node", "id": 8936725193, "lat": 40.7237732, "lon": -73.8483777, "tags": {"amenity": "atm"}}, {"type": "node", "id": 8942090278, "lat": 40.7619577, "lon": -73.9250938, "tags": {"amenity": "atm", "brand": "Investors Bank", "brand:wikidata": "Q15109896", "brand:wikipedia": "en:Investors Bank", "name": "Investors Bank", "operator": "Investors Bank", "operator:wikidata": "Q15109896", "operator:wikipedia": "en:Investors Bank"}}, {"type": "node", "id": 8942090284, "lat": 40.7612516, "lon": -73.9241069, "tags": {"amenity": "atm"}}, {"type": "node", "id": 8969249028, "lat": 40.7057967, "lon": -74.0040296, "tags": {"amenity": "atm"}}, {"type": "node", "id": 9005683038, "lat": 40.7094833, "lon": -73.7974912, "tags": {"amenity": "atm", "height": "4.7", "nycdoitt:bin": "4438689", "phone": "(718) 291-7010"}}, {"type": "node", "id": 9092737217, "lat": 40.7109519, "lon": -73.7928586, "tags": {"amenity": "atm", "drive_through": "no", "indoor": "yes", "survey:date": "2021-09-14"}}, {"type": "node", "id": 9136556338, "lat": 40.561279, "lon": -73.9118975, "tags": {"amenity": "atm", "operator": "ATM"}}, {"type": "node", "id": 9140832081, "lat": 40.7369853, "lon": -73.9926128, "tags": {"amenity": "atm", "brand": "Citibank", "brand:wikidata": "Q857063", "brand:wikipedia": "en:Citibank", "name": "Citibank", "operator": "Citibank", "operator:wikidata": "Q857063", "operator:wikipedia": "en:Citibank", "short_name": "Citi"}}, {"type": "node", "id": 9247775999, "lat": 40.8467165, "lon": -73.8322443, "tags": {"amenity": "atm", "brand": "TD Bank", "brand:wikidata": "Q7669891", "brand:wikipedia": "en:TD Bank, N.A.", "cash_in": "yes", "covered": "yes", "currency:USD": "yes", "drive_through": "no", "name": "TD Bank", "opening_hours": "24/7", "operator": "TD Bank", "operator:wikidata": "Q7669891", "operator:wikipedia": "en:TD Bank, N.A."}}, {"type": "node", "id": 9272705777, "lat": 40.7267009, "lon": -73.853847, "tags": {"amenity": "atm", "brand": "Santander", "brand:wikidata": "Q5835668", "brand:wikipedia": "en:Santander Bank", "name": "Santander", "operator": "Santander", "operator:wikidata": "Q5835668", "operator:wikipedia": "en:Santander Bank"}}, {"type": "node", "id": 9307172184, "lat": 40.576755, "lon": -73.9824709, "tags": {"amenity": "atm", "brand": "Chase", "brand:wikidata": "Q524629", "brand:wikipedia": "en:Chase Bank", "cash_in": "yes", "covered": "yes", "drive_through": "no", "indoor": "yes", "name": "Chase", "opening_hours": "24/7", "operator": "Chase", "operator:wikidata": "Q524629", "operator:wikipedia": "en:Chase Bank", "website": "https://locator.chase.com/ny/brooklyn/1428-mermaid-ave-ATM-NY2165", "wheelchair": "yes"}}, {"type": "node", "id": 9348991205, "lat": 40.7131019, "lon": -73.8766495, "tags": {"amenity": "atm"}}, {"type": "node", "id": 9350957304, "lat": 40.7135689, "lon": -73.8722664, "tags": {"amenity": "atm", "brand": "TD Bank", "brand:wikidata": "Q7669891", "brand:wikipedia": "en:TD Bank, N.A.", "drive_through": "yes", "name": "TD Bank", "operator": "TD Bank", "operator:wikidata": "Q7669891", "operator:wikipedia": "en:TD Bank, N.A."}}, {"type": "node", "id": 9362944089, "lat": 40.7353891, "lon": -73.8743292, "tags": {"amenity": "atm"}}, {"type": "node", "id": 9379722179, "lat": 40.5971554, "lon": -73.9728183, "tags": {"addr:housenumber": "301", "addr:street": "Avenue U", "amenity": "atm", "brand": "Santander", "brand:wikidata": "Q5835668", "brand:wikipedia": "en:Santander Bank", "cash_in": "yes", "check_date": "2022-10-28", "covered": "yes", "currency:USD": "yes", "drive_through": "no", "indoor": "yes", "lit": "yes", "name": "Santander", "opening_hours": "24/7", "operator": "Santander", "operator:wikidata": "Q5835668", "operator:wikipedia": "en:Santander Bank", "website": "https://locations.santanderbank.com/ny/brooklyn/301-avenue-u-2130.html", "wheelchair": "yes"}}, {"type": "node", "id": 9379733417, "lat": 40.7255308, "lon": -73.9519459, "tags": {"amenity": "atm", "cash_in": "no", "drive_through": "no", "indoor": "yes"}}, {"type": "node", "id": 9382602103, "lat": 40.7220859, "lon": -73.9578167, "tags": {"amenity": "atm", "covered": "no", "drive_through": "no", "indoor": "no"}}, {"type": "node", "id": 9382857144, "lat": 40.6498891, "lon": -73.7823549, "tags": {"amenity": "atm", "drive_through": "no", "indoor": "yes", "name": "Travelex"}}, {"type": "node", "id": 9404212605, "lat": 40.7675579, "lon": -73.8598334, "tags": {"amenity": "atm", "drive_through": "no", "indoor": "yes", "name": "Travelex"}}, {"type": "node", "id": 9681228253, "lat": 40.7074902, "lon": -73.9133871, "tags": {"amenity": "atm", "currency:USD": "yes", "description": "can be found inside G&D Deli & Grocery inc.", "drive_through": "no"}}, {"type": "node", "id": 9681258926, "lat": 40.7070471, "lon": -73.9127183, "tags": {"amenity": "atm", "currency:USD": "yes", "drive_through": "no"}}, {"type": "node", "id": 9698998292, "lat": 40.7601167, "lon": -73.7689582, "tags": {"amenity": "atm", "brand": "Capital One", "brand:wikidata": "Q1034654", "name": "Capital One", "operator": "Capital One", "operator:wikidata": "Q1034654"}}, {"type": "node", "id": 9733275485, "lat": 40.7075949, "lon": -73.7970319, "tags": {"amenity": "atm", "drive_through": "no", "indoor": "yes"}}, {"type": "node", "id": 9799686899, "lat": 40.7123177, "lon": -73.7839192, "tags": {"amenity": "atm", "drive_through": "no", "indoor": "yes"}}, {"type": "node", "id": 9823082272, "lat": 40.5832184, "lon": -73.9867197, "tags": {"amenity": "atm", "brand": "Bank of America", "brand:wikidata": "Q487907", "drive_through": "yes", "name": "Bank of America", "opening_hours": "24/7", "operator": "Bank of America", "operator:wikidata": "Q487907", "website": "https://locators.bankofamerica.com/ny/brooklyn/atm-brooklyn-110321.html"}}, {"type": "node", "id": 9853269820, "lat": 40.6075072, "lon": -74.0033532, "tags": {"addr:city": "Brooklyn", "addr:country": "US", "addr:housenumber": "1750", "addr:postcode": "11214", "addr:state": "NY", "addr:street": "86th Street", "amenity": "atm", "brand": "Citi", "brand:wikidata": "Q219508", "cash_in": "yes", "drive_through": "no", "not:brand:wikidata": "Q857063"}}, {"type": "node", "id": 9853269828, "lat": 40.6506643, "lon": -73.9493854, "tags": {"addr:city": "Brooklyn", "addr:country": "US", "addr:housenumber": "3000", "addr:postcode": "11226", "addr:state": "NY", "addr:street": "Church Avenue", "amenity": "atm", "brand": "Citibank", "brand:wikidata": "Q857063", "drive_through": "no", "name": "Citibank", "operator": "Citibank", "operator:wikidata": "Q857063", "short_name": "Citi"}}, {"type": "node", "id": 9859499644, "lat": 40.5766486, "lon": -73.9667722, "tags": {"amenity": "atm", "covered": "yes", "currency:USD": "yes", "drive_through": "no", "indoor": "yes", "opening_hours": "24/7", "operator": "Valley Bank"}}, {"type": "node", "id": 9876778518, "lat": 40.7069749, "lon": -73.8046246, "tags": {"amenity": "atm", "cash_in": "yes", "drive_through": "no", "indoor": "yes", "opening_hours": "24/7", "survey:date": "2022-07-07"}}, {"type": "node", "id": 9876805319, "lat": 40.7069872, "lon": -73.8046334, "tags": {"amenity": "atm", "cash_in": "yes", "drive_through": "no", "indoor": "yes", "opening_hours": "24/7", "survey:date": "2022-07-07"}}, {"type": "node", "id": 9876805418, "lat": 40.7069638, "lon": -73.8046167, "tags": {"amenity": "atm", "cash_in": "yes", "drive_through": "no", "indoor": "yes", "opening_hours": "24/7", "survey:date": "2022-07-07"}}, {"type": "node", "id": 9879181338, "lat": 40.689828, "lon": -74.0206556, "tags": {"amenity": "atm"}}, {"type": "node", "id": 9884107163, "lat": 40.5795907, "lon": -73.9721797, "tags": {"addr:housenumber": "486", "addr:street": "Neptune Avenue", "amenity": "atm", "brand": "Apple Bank", "brand:wikidata": "Q4781125", "cash_in": "yes", "check_date": "2022-12-17", "covered": "yes", "currency:USD": "yes", "drive_through": "no", "indoor": "yes", "lit": "yes", "name": "Apple Bank", "opening_hours": "24/7", "operator": "Apple Bank", "operator:wikidata": "Q4781125", "website": "https://www.applebank.com/about/get-in-touch/atm-branch-locations/brooklyn/486-neptune-avenue-(brooklyn)", "wheelchair": "yes"}}, {"type": "node", "id": 9943767987, "lat": 40.5669809, "lon": -74.1127087, "tags": {"amenity": "atm", "brand": "Chase", "brand:wikidata": "Q524629", "name": "Chase", "operator": "Chase", "operator:wikidata": "Q524629"}}, {"type": "node", "id": 9966052106, "lat": 40.6168867, "lon": -74.0266653, "tags": {"amenity": "atm"}}, {"type": "node", "id": 10195939269, "lat": 40.572325, "lon": -74.1136548, "tags": {"amenity": "atm", "brand": "Santander", "brand:wikidata": "Q5835668", "drive_through": "yes", "indoor": "yes", "name": "Santander", "operator": "Santander", "operator:wikidata": "Q5835668"}}, {"type": "node", "id": 10216105386, "lat": 40.7586434, "lon": -73.9790075, "tags": {"access": "yes", "amenity": "atm", "drive_through": "no", "level": "1"}}, {"type": "node", "id": 10293982301, "lat": 40.7858459, "lon": -74.0190363, "tags": {"amenity": "atm", "check_date": "2022-12-30", "currency:XBT": "yes", "opening_hours": "24/7", "operator": "Pay Depot", "payment:lightning": "no", "payment:lightning_contactless": "no", "payment:onchain": "yes", "phone": "+1 855 558 6580", "website": "https://paydepot.com/"}}, {"type": "node", "id": 10302971794, "lat": 40.795282, "lon": -73.9309203, "tags": {"amenity": "atm", "currency:XBT": "yes", "opening_hours": "24/7", "operator": "Pay Depot", "payment:lightning": "no", "payment:lightning_contactless": "no", "payment:onchain": "yes", "phone": "+1 855 558 6580", "website": "https://paydepot.com/"}}, {"type": "node", "id": 10538298399, "lat": 40.720498, "lon": -73.9851134, "tags": {"amenity": "atm", "drive_through": "no"}}, {"type": "node", "id": 10687171154, "lat": 40.676062, "lon": -74.014105, "tags": {"amenity": "atm", "check_date": "2023-02-22"}}, {"type": "node", "id": 10689197469, "lat": 40.7329656, "lon": -73.9876484, "tags": {"addr:housenumber": "110", "addr:postcode": "10003", "addr:street": "3rd Avenue", "amenity": "atm", "brand": "Bank of America", "opening_hours": "24/7", "website": "https://locators.bankofamerica.com/ny/newyork/atm-new-york-108821.html"}}, {"type": "node", "id": 10794215235, "lat": 40.7104863, "lon": -73.7932008, "tags": {"amenity": "atm", "drive_through": "no"}}, {"type": "node", "id": 10794215236, "lat": 40.7104911, "lon": -73.7931896, "tags": {"amenity": "atm", "drive_through": "no"}}]}