{"version": 0.6, "generator": "Overpass API 0.7.60.2 e4cf9f7a", "osm3s": {"timestamp_osm_base": "2023-05-02T19:59:26Z", "copyright": "The data included in this document is from www.openstreetmap.org. The data is made available under ODbL."}, "elements": [{"type": "node", "id": 368043485, "lat": 40.7259416, "lon": -73.9973321, "tags": {"addr:state": "NY", "amenity": "cinema", "ele": "10", "gnis:county_name": "New York", "gnis:feature_id": "2082840", "gnis:import_uuid": "57871b70-0100-4405-bb30-88b2e001a944", "gnis:reviewed": "no", "name": "Angelika Film Center", "source": "USGS Geonames", "wikidata": "Q45104731"}}, {"type": "node", "id": 368043799, "lat": 40.7750135, "lon": -73.9817481, "tags": {"addr:city": "New York", "addr:country": "US", "addr:housenumber": "1998", "addr:postcode": "10023", "addr:state": "NY", "addr:street": "Broadway", "air_conditioning": "yes", "amenity": "cinema", "brand": "AMC", "brand:wikidata": "Q294721", "brand:wikipedia": "en:AMC Theatres", "check_date": "2022-12-19", "ele": "23", "gnis:county_name": "New York", "gnis:feature_id": "2083343", "gnis:import_uuid": "57871b70-0100-4405-bb30-88b2e001a944", "gnis:reviewed": "no", "name": "AMC Loews Lincoln Square 13", "payment:american_express": "yes", "payment:cash": "yes", "payment:contactless": "yes", "payment:credit_cards": "yes", "payment:debit_cards": "yes", "payment:mastercard": "yes", "payment:visa": "yes", "phone": "+1 212-336-5020", "source": "USGS Geonames", "start_date": "1994", "website": "https://www.amctheatres.com/movie-theatres/new-york-city/amc-loews-lincoln-square-13", "wheelchair": "yes", "wikidata": "Q45109841"}}, {"type": "node", "id": 368051450, "lat": 40.7742155, "lon": -73.9834793, "tags": {"addr:state": "NY", "amenity": "cinema", "ele": "21", "gnis:county_name": "New York", "gnis:feature_id": "2044313", "gnis:import_uuid": "57871b70-0100-4405-bb30-88b2e001a944", "gnis:reviewed": "no", "name": "Walter Reade Theater", "source": "USGS Geonames", "wikidata": "Q3565863"}}, {"type": "node", "id": 368051477, "lat": 40.7734488, "lon": -73.9835741, "tags": {"addr:city": "New York", "addr:postcode": "10023", "addr:state": "NY", "air_conditioning": "yes", "amenity": "cinema", "ele": "20", "gnis:county_name": "New York", "gnis:feature_id": "2044304", "gnis:import_uuid": "57871b70-0100-4405-bb30-88b2e001a944", "gnis:reviewed": "no", "level": "-1", "name": "Elinor Bunin Munroe Film Center", "operator": "Film at Lincoln Center", "source": "Local Knowledge", "website": "https://www.filmlinc.org/visit-us/elinor-bunin-munroe-film-center/", "wikidata": "Q45109947"}}, {"type": "node", "id": 368053169, "lat": 40.6287574, "lon": -73.9661106}, {"type": "node", "id": 663103163, "lat": 40.7524154, "lon": -73.9944494, "tags": {"addr:city": "New York", "addr:country": "US", "addr:housenumber": "312", "addr:postcode": "10001", "addr:state": "NY", "addr:street": "West 34th Street", "amenity": "cinema", "brand": "AMC", "brand:wikidata": "Q294721", "brand:wikipedia": "en:AMC Theatres", "name": "AMC 34th Street 14", "note": "14 screens 14 theaters", "old_name": "AMC Loews 34th Street 14", "website": "https://www.amctheatres.com/movie-theatres/amc-loews-34th-street-14", "wikidata": "Q45101419"}}, {"type": "node", "id": 680190504, "lat": 40.7086118, "lon": -74.0548416}, {"type": "node", "id": 761560987, "lat": 40.7385891, "lon": -73.9896994, "tags": {"amenity": "cinema", "brand": "AMC", "brand:wikidata": "Q294721", "brand:wikipedia": "en:AMC Theatres", "name": "AMC Loews 19th St. East 6", "website": "https://www.amctheatres.com/movie-theatres/new-york-city/amc-loews-19th-st-east-6", "wikidata": "Q45102000"}}, {"type": "node", "id": 889115578, "lat": 40.714742, "lon": -74.015169, "tags": {"addr:city": "New York", "addr:housenumber": "102", "addr:postcode": "10282", "addr:state": "NY", "addr:street": "North End Avenue", "amenity": "cinema", "brand": "Regal Cinemas", "brand:wikidata": "Q835638", "brand:wikipedia": "en:Regal Cinemas", "name": "Regal Battery Park", "opening_hours": "11:00-23:30", "operator": "Regal Cinemas", "phone": "+1 844 462 7342", "short_name": "Regal", "website": "https://www.regmovies.com/Theatres/Theatre-Folder/Regal-Battery-Park-Stadium-11-6582", "wheelchair": "yes", "wikidata": "Q45101404"}}, {"type": "node", "id": 1293173329, "lat": 40.7429085, "lon": -73.9767783, "tags": {"addr:housenumber": "570", "addr:postcode": "10016", "addr:street": "2nd Avenue", "amenity": "cinema", "brand": "AMC", "brand:wikidata": "Q294721", "brand:wikipedia": "en:AMC Theatres", "name": "AMC Kips Bay 15", "website": "https://www.amctheatres.com/movie-theatres/new-york-city/amc-kips-bay-15", "wikidata": "Q45102014"}}, {"type": "node", "id": 1578232374, "lat": 40.7245802, "lon": -73.972552, "tags": {"amenity": "cinema", "fixme": "check this node", "source": "survey"}}, {"type": "node", "id": 1756637127, "lat": 40.6676429, "lon": -74.1060606}, {"type": "node", "id": 1756637133, "lat": 40.6680591, "lon": -74.1066155}, {"type": "node", "id": 1792363913, "lat": 40.6589727, "lon": -74.1677477}, {"type": "node", "id": 1792363916, "lat": 40.6590121, "lon": -74.1679698}, {"type": "node", "id": 1792363920, "lat": 40.6590491, "lon": -74.167941}, {"type": "node", "id": 1792363922, "lat": 40.6590636, "lon": -74.1676106}, {"type": "node", "id": 1792363924, "lat": 40.6590866, "lon": -74.1676644}, {"type": "node", "id": 1792363928, "lat": 40.6591289, "lon": -74.1683566}, {"type": "node", "id": 1792363930, "lat": 40.6591182, "lon": -74.1684151}, {"type": "node", "id": 1792363931, "lat": 40.6591439, "lon": -74.168397}, {"type": "node", "id": 1792363932, "lat": 40.6591581, "lon": -74.1683383}, {"type": "node", "id": 1792363937, "lat": 40.6592046, "lon": -74.1686262}, {"type": "node", "id": 1792363939, "lat": 40.6592279, "lon": -74.1686087}, {"type": "node", "id": 1792363940, "lat": 40.6592445, "lon": -74.1686501}, {"type": "node", "id": 1792363943, "lat": 40.6592739, "lon": -74.168629}, {"type": "node", "id": 1792363947, "lat": 40.6593681, "lon": -74.1674027}, {"type": "node", "id": 1792363949, "lat": 40.6593904, "lon": -74.1674556}, {"type": "node", "id": 1792363965, "lat": 40.6594195, "lon": -74.1690169}, {"type": "node", "id": 1792363968, "lat": 40.6594656, "lon": -74.1689857}, {"type": "node", "id": 1792363972, "lat": 40.6595106, "lon": -74.1673652}, {"type": "node", "id": 1792363977, "lat": 40.6595377, "lon": -74.1691699}, {"type": "node", "id": 1792363979, "lat": 40.659598, "lon": -74.1677749}, {"type": "node", "id": 1792363981, "lat": 40.6596294, "lon": -74.1678513}, {"type": "node", "id": 1792363985, "lat": 40.6596516, "lon": -74.1690913}, {"type": "node", "id": 1792363989, "lat": 40.659656, "lon": -74.1677389}, {"type": "node", "id": 1792363990, "lat": 40.6596736, "lon": -74.1691488}, {"type": "node", "id": 1792363993, "lat": 40.659673, "lon": -74.1678198}, {"type": "node", "id": 1792363995, "lat": 40.6598483, "lon": -74.1684014}, {"type": "node", "id": 1792363997, "lat": 40.659878, "lon": -74.1684759}, {"type": "node", "id": 1792363998, "lat": 40.6598927, "lon": -74.1683691}, {"type": "node", "id": 1792364000, "lat": 40.6599339, "lon": -74.1684339}, {"type": "node", "id": 1792364012, "lat": 40.6599643, "lon": -74.1688788}, {"type": "node", "id": 1792364017, "lat": 40.6599861, "lon": -74.1689321}, {"type": "node", "id": 1792364020, "lat": 40.6600851, "lon": -74.1688039}, {"type": "node", "id": 1927319778, "lat": 40.7247547, "lon": -73.9902601, "tags": {"addr:housenumber": "32", "addr:street": "2nd Avenue", "amenity": "cinema", "fax": "+1-212-477-2714", "name": "Anthology Film Archives", "opening_hours": "\"Temporarily closed\"", "phone": "+1-212-505-5181", "toilets": "yes", "toilets:access": "permissive", "toilets:number": "2", "toilets:position": "urinal;seated", "toilets:unisex": "yes", "toilets:wheelchair": "yes", "website": "http://www.anthologyfilmarchives.org/", "wikidata": "Q572548", "wikipedia": "en:Anthology Film Archives"}}, {"type": "node", "id": 2067062269, "lat": 40.75503, "lon": -73.92381, "tags": {"addr:city": "Astoria", "addr:housenumber": "35-30", "addr:street": "38th Avenue", "amenity": "cinema", "name": "Kaufman Astoria Stadium 14", "toilets:wheelchair": "yes", "wheelchair": "yes", "wikidata": "Q45019000"}}, {"type": "node", "id": 2187909797, "lat": 40.714151, "lon": -73.9598336, "tags": {"addr:city": "Brooklyn", "addr:country": "US", "addr:housenumber": "217", "addr:state": "NY", "addr:street": "Grand Street", "amenity": "cinema", "check_date": "2022-05-30", "name": "Williamsburg Cinemas", "wikidata": "Q20880928"}}, {"type": "node", "id": 2326030976, "lat": 40.7340532, "lon": -73.9907254, "tags": {"addr:housenumber": "1320", "addr:street": "Broadway", "amenity": "cinema", "atm": "yes", "brand": "Regal Cinemas", "brand:wikidata": "Q835638", "brand:wikipedia": "en:Regal Cinemas", "check_date": "2022-07-03", "name": "Regal Union Square Stadium 14", "operator": "Regal Entertainment Group", "screen": "14", "short_name": "Regal", "toilets": "yes", "toilets:access": "customers", "toilets:unisex": "no", "toilets:wheelchair": "yes", "website": "https://www.regmovies.com/theatres/regal-union-square-screenx-4dx/1320", "wikidata": "Q45102242"}}, {"type": "node", "id": 2477142397, "lat": 40.7031813, "lon": -73.7997246, "tags": {"addr:city": "Jamaica", "addr:country": "US", "addr:housenumber": "159-02", "addr:postcode": "11432", "addr:state": "NY", "addr:street": "Jamaica Avenue", "amenity": "cinema", "name": "Jamaica Multiplex", "phone": "+1-800-315-4000", "wikidata": "Q45019949"}}, {"type": "node", "id": 2494041836, "lat": 40.6263805, "lon": -74.1728036}, {"type": "node", "id": 2494042804, "lat": 40.6257431, "lon": -74.1722633}, {"type": "node", "id": 2494042809, "lat": 40.6257656, "lon": -74.1725018}, {"type": "node", "id": 2494042814, "lat": 40.6257903, "lon": -74.1724988}, {"type": "node", "id": 2494042816, "lat": 40.6258348, "lon": -74.1732627}, {"type": "node", "id": 2494042820, "lat": 40.6258556, "lon": -74.1735026}, {"type": "node", "id": 2494042821, "lat": 40.6258563, "lon": -74.1732595}, {"type": "node", "id": 2494042857, "lat": 40.625946, "lon": -74.1722039}, {"type": "node", "id": 2494042858, "lat": 40.6259485, "lon": -74.1722327}, {"type": "node", "id": 2494042905, "lat": 40.6260573, "lon": -74.1734727}, {"type": "node", "id": 2494042907, "lat": 40.6260597, "lon": -74.1734998}, {"type": "node", "id": 2494042999, "lat": 40.6263136, "lon": -74.172149}, {"type": "node", "id": 2494043002, "lat": 40.6263245, "lon": -74.1724179}, {"type": "node", "id": 2494043003, "lat": 40.6263279, "lon": -74.1725595}, {"type": "node", "id": 2494043005, "lat": 40.6263296, "lon": -74.1724759}, {"type": "node", "id": 2494043007, "lat": 40.6263336, "lon": -74.1724711}, {"type": "node", "id": 2494043008, "lat": 40.6263368, "lon": -74.1724161}, {"type": "node", "id": 2494043014, "lat": 40.6263584, "lon": -74.1725377}, {"type": "node", "id": 2494043024, "lat": 40.6263703, "lon": -74.1730448}, {"type": "node", "id": 2494043035, "lat": 40.626386, "lon": -74.1731221}, {"type": "node", "id": 2494043038, "lat": 40.6263909, "lon": -74.1731779}, {"type": "node", "id": 2494043044, "lat": 40.6263977, "lon": -74.1731203}, {"type": "node", "id": 2494043048, "lat": 40.6264037, "lon": -74.173176}, {"type": "node", "id": 2494043051, "lat": 40.6264044, "lon": -74.1730505}, {"type": "node", "id": 2494043058, "lat": 40.626427, "lon": -74.1734449}, {"type": "node", "id": 2494243496, "lat": 40.6847341, "lon": -73.9942826}, {"type": "node", "id": 2494244435, "lat": 40.6847308, "lon": -73.9942848}, {"type": "node", "id": 2494244441, "lat": 40.6847369, "lon": -73.9943005}, {"type": "node", "id": 2494244442, "lat": 40.6847392, "lon": -73.9943061}, {"type": "node", "id": 2494244459, "lat": 40.6848399, "lon": -73.9945617}, {"type": "node", "id": 2494244460, "lat": 40.6848562, "lon": -73.9941994}, {"type": "node", "id": 2494244461, "lat": 40.6848623, "lon": -73.9941953}, {"type": "node", "id": 2494244469, "lat": 40.6849778, "lon": -73.9944949}, {"type": "node", "id": 2494244470, "lat": 40.68498, "lon": -73.9944938}, {"type": "node", "id": 2501879029, "lat": 40.7459975, "lon": -73.9996248}, {"type": "node", "id": 2543456668, "lat": 40.6693154, "lon": -73.8615923}, {"type": "node", "id": 2543458147, "lat": 40.6687357, "lon": -73.8620435}, {"type": "node", "id": 2543458149, "lat": 40.6687556, "lon": -73.8622264}, {"type": "node", "id": 2543458152, "lat": 40.6687577, "lon": -73.8623754}, {"type": "node", "id": 2543458157, "lat": 40.668766, "lon": -73.8618343}, {"type": "node", "id": 2543458160, "lat": 40.6687785, "lon": -73.8622321}, {"type": "node", "id": 2543458168, "lat": 40.6687805, "lon": -73.8620546}, {"type": "node", "id": 2543458170, "lat": 40.6687818, "lon": -73.8617407}, {"type": "node", "id": 2543458172, "lat": 40.6687824, "lon": -73.86177}, {"type": "node", "id": 2543458174, "lat": 40.6687836, "lon": -73.8617115}, {"type": "node", "id": 2543458176, "lat": 40.6687854, "lon": -73.8616971}, {"type": "node", "id": 2543458178, "lat": 40.6687854, "lon": -73.861799}, {"type": "node", "id": 2543458182, "lat": 40.6687907, "lon": -73.8616687}, {"type": "node", "id": 2543458184, "lat": 40.6687907, "lon": -73.8618274}, {"type": "node", "id": 2543458185, "lat": 40.6687942, "lon": -73.8616548}, {"type": "node", "id": 2543458187, "lat": 40.6687942, "lon": -73.8618413}, {"type": "node", "id": 2543458190, "lat": 40.668803, "lon": -73.8616278}, {"type": "node", "id": 2543458193, "lat": 40.6688057, "lon": -73.8615601}, {"type": "node", "id": 2543458197, "lat": 40.6688138, "lon": -73.8616023}, {"type": "node", "id": 2543458199, "lat": 40.66882, "lon": -73.8615901}, {"type": "node", "id": 2543458202, "lat": 40.6688216, "lon": -73.8624595}, {"type": "node", "id": 2543458209, "lat": 40.6688311, "lon": -73.8623938}, {"type": "node", "id": 2543458214, "lat": 40.6688339, "lon": -73.8615672}, {"type": "node", "id": 2543458226, "lat": 40.6688363, "lon": -73.8613491}, {"type": "node", "id": 2543458234, "lat": 40.6688615, "lon": -73.8613554}, {"type": "node", "id": 2543458243, "lat": 40.6688801, "lon": -73.86136}, {"type": "node", "id": 2543458246, "lat": 40.6689048, "lon": -73.8611894}, {"type": "node", "id": 2543458255, "lat": 40.6689284, "lon": -73.8611953}, {"type": "node", "id": 2543458263, "lat": 40.6689498, "lon": -73.8610473}, {"type": "node", "id": 2543458275, "lat": 40.6689784, "lon": -73.8625281}, {"type": "node", "id": 2543458278, "lat": 40.6689825, "lon": -73.8624997}, {"type": "node", "id": 2543458288, "lat": 40.6690125, "lon": -73.8625367}, {"type": "node", "id": 2543458290, "lat": 40.6690215, "lon": -73.8610652}, {"type": "node", "id": 2543458299, "lat": 40.6690263, "lon": -73.8624414}, {"type": "node", "id": 2543458302, "lat": 40.6690306, "lon": -73.8610023}, {"type": "node", "id": 2543458357, "lat": 40.6691866, "lon": -73.8624815}, {"type": "node", "id": 2543458360, "lat": 40.6691904, "lon": -73.8610422}, {"type": "node", "id": 2543458363, "lat": 40.6691956, "lon": -73.8610064}, {"type": "node", "id": 2543458366, "lat": 40.6692072, "lon": -73.862339}, {"type": "node", "id": 2543458374, "lat": 40.6692185, "lon": -73.8611159}, {"type": "node", "id": 2543458377, "lat": 40.6692308, "lon": -73.8623449}, {"type": "node", "id": 2543458380, "lat": 40.669233, "lon": -73.8610158}, {"type": "node", "id": 2543458383, "lat": 40.6692498, "lon": -73.8620453}, {"type": "node", "id": 2543458385, "lat": 40.6692733, "lon": -73.8620511}, {"type": "node", "id": 2543458394, "lat": 40.6693382, "lon": -73.861598}, {"type": "node", "id": 2543458413, "lat": 40.6693577, "lon": -73.8613008}, {"type": "node", "id": 2543458416, "lat": 40.6693787, "lon": -73.8611559}, {"type": "node", "id": 2543458419, "lat": 40.6693805, "lon": -73.8613064}, {"type": "node", "id": 2547137215, "lat": 40.7307629, "lon": -73.986301}, {"type": "node", "id": 2547137323, "lat": 40.7308225, "lon": -73.9864425}, {"type": "node", "id": 2547137407, "lat": 40.7309005, "lon": -73.9866276}, {"type": "node", "id": 2547137423, "lat": 40.7309143, "lon": -73.9866175}, {"type": "node", "id": 2547137460, "lat": 40.7309306, "lon": -73.9866563}, {"type": "node", "id": 2547137544, "lat": 40.7309831, "lon": -73.9866181}, {"type": "node", "id": 2547137557, "lat": 40.7309875, "lon": -73.9865787}, {"type": "node", "id": 2547137576, "lat": 40.7309992, "lon": -73.9866064}, {"type": "node", "id": 2547137585, "lat": 40.731009, "lon": -73.9861217}, {"type": "node", "id": 2547137624, "lat": 40.7310469, "lon": -73.9865354}, {"type": "node", "id": 2547137646, "lat": 40.7310593, "lon": -73.9865647}, {"type": "node", "id": 2547137655, "lat": 40.7310796, "lon": -73.9865499}, {"type": "node", "id": 2547137737, "lat": 40.7311637, "lon": -73.9864887}, {"type": "node", "id": 2552814004, "lat": 40.7333689, "lon": -73.7941407}, {"type": "node", "id": 2552814013, "lat": 40.7333816, "lon": -73.7941679}, {"type": "node", "id": 2552814020, "lat": 40.7333859, "lon": -73.7941451}, {"type": "node", "id": 2552914564, "lat": 40.7408897, "lon": -73.7839956}, {"type": "node", "id": 2552914577, "lat": 40.7409237, "lon": -73.7837578}, {"type": "node", "id": 2552914582, "lat": 40.7409429, "lon": -73.7836851}, {"type": "node", "id": 2552914588, "lat": 40.7409494, "lon": -73.7837695}, {"type": "node", "id": 2552914596, "lat": 40.7409756, "lon": -73.7837039}, {"type": "node", "id": 2552914607, "lat": 40.7410313, "lon": -73.7842536}, {"type": "node", "id": 2552914611, "lat": 40.7410492, "lon": -73.7840684}, {"type": "node", "id": 2552914617, "lat": 40.7410587, "lon": -73.783389}, {"type": "node", "id": 2552914639, "lat": 40.7411211, "lon": -73.7834175}, {"type": "node", "id": 2552914650, "lat": 40.7411659, "lon": -73.784165}, {"type": "node", "id": 2552914654, "lat": 40.7411707, "lon": -73.7833215}, {"type": "node", "id": 2552914659, "lat": 40.741178, "lon": -73.7842708}, {"type": "node", "id": 2552914664, "lat": 40.7411856, "lon": -73.7842332}, {"type": "node", "id": 2552914665, "lat": 40.7411877, "lon": -73.7842341}, {"type": "node", "id": 2552914666, "lat": 40.7411898, "lon": -73.7839906}, {"type": "node", "id": 2552914672, "lat": 40.7412086, "lon": -73.7840034}, {"type": "node", "id": 2552914673, "lat": 40.7412123, "lon": -73.7839054}, {"type": "node", "id": 2552914676, "lat": 40.7412344, "lon": -73.7838121}, {"type": "node", "id": 2552914679, "lat": 40.7412519, "lon": -73.7839115}, {"type": "node", "id": 2552914685, "lat": 40.7412693, "lon": -73.7833666}, {"type": "node", "id": 2552914687, "lat": 40.7412734, "lon": -73.7838299}, {"type": "node", "id": 2552914699, "lat": 40.7413198, "lon": -73.78351}, {"type": "node", "id": 2553165410, "lat": 40.6336374, "lon": -74.0207606, "tags": {"addr:housenumber": "6817", "addr:postcode": "11220", "addr:street": "5th Avenue", "alt_name": "Alpine Theater", "amenity": "cinema", "name": "Alpine Cinema", "nycdoitt:bin": "3145314", "phone": "+1-718-748-4200", "screen": "8", "website": "https://www.alpinecinemas.com", "wikidata": "Q45032002"}}, {"type": "node", "id": 2553614685, "lat": 40.7720061, "lon": -73.8353875, "tags": {"addr:city": "Flushing", "addr:housenumber": "28-55", "addr:postcode": "11354", "addr:state": "NY", "addr:street": "Ulmer Street", "amenity": "cinema", "name": "College Point Multiplex Cinemas", "phone": "800-315-4000", "website": "https://www.showcasecinemas.com/theatre/5983/college-point-multiplex-cinemas/whitestone/ny?tab=showtimes", "wikidata": "Q45019479"}}, {"type": "node", "id": 2555442826, "lat": 40.7099155, "lon": -73.8469575}, {"type": "node", "id": 2555442827, "lat": 40.7099159, "lon": -73.8466484}, {"type": "node", "id": 2555442836, "lat": 40.7099311, "lon": -73.8470562}, {"type": "node", "id": 2555442857, "lat": 40.7099627, "lon": -73.8469446}, {"type": "node", "id": 2555442872, "lat": 40.7099783, "lon": -73.8470433}, {"type": "node", "id": 2555442880, "lat": 40.7099855, "lon": -73.847089}, {"type": "node", "id": 2555442912, "lat": 40.7100143, "lon": -73.8465829}, {"type": "node", "id": 2555442933, "lat": 40.7100287, "lon": -73.8465254}, {"type": "node", "id": 2555442984, "lat": 40.7100796, "lon": -73.846494}, {"type": "node", "id": 2555443008, "lat": 40.7100961, "lon": -73.8464838}, {"type": "node", "id": 2555443031, "lat": 40.7101197, "lon": -73.8465624}, {"type": "node", "id": 2555443094, "lat": 40.7101773, "lon": -73.8465467}, {"type": "node", "id": 2555443103, "lat": 40.7101824, "lon": -73.846615}, {"type": "node", "id": 2555443107, "lat": 40.7101879, "lon": -73.8466135}, {"type": "node", "id": 2555443148, "lat": 40.7102191, "lon": -73.8468472}, {"type": "node", "id": 2555443158, "lat": 40.7102233, "lon": -73.8468461}, {"type": "node", "id": 2555443177, "lat": 40.7102363, "lon": -73.8469283}, {"type": "node", "id": 2562438625, "lat": 40.8097044, "lon": -73.9518063, "tags": {"addr:city": "New York", "addr:country": "US", "addr:housenumber": "2309", "addr:postcode": "10027", "addr:state": "NY", "addr:street": "Frederick Douglass Boulevard", "amenity": "cinema", "brand": "AMC", "brand:wikidata": "Q294721", "brand:wikipedia": "en:AMC Theatres", "name": "AMC Magic Johnson Harlem 9", "operator": "AMC", "wikidata": "Q45102389"}}, {"type": "node", "id": 2562454733, "lat": 40.7311138, "lon": -74.0015926}, {"type": "node", "id": 2562454757, "lat": 40.7312046, "lon": -74.0018097}, {"type": "node", "id": 2562454759, "lat": 40.7312119, "lon": -74.0018271}, {"type": "node", "id": 2562454762, "lat": 40.7312367, "lon": -74.0015037}, {"type": "node", "id": 2562454771, "lat": 40.7313176, "lon": -74.0016971}, {"type": "node", "id": 2562454772, "lat": 40.7313348, "lon": -74.0017383}, {"type": "node", "id": 2563417637, "lat": 40.6287233, "lon": -73.9664255}, {"type": "node", "id": 2563417785, "lat": 40.6290244, "lon": -73.9664817}, {"type": "node", "id": 2563417804, "lat": 40.6290585, "lon": -73.9661668}, {"type": "node", "id": 2622901047, "lat": 40.7079132, "lon": -73.8679145, "tags": {"addr:housenumber": "80-28", "addr:street": "Cooper Avenue", "amenity": "cinema", "brand": "Regal Cinemas", "brand:wikidata": "Q835638", "brand:wikipedia": "en:Regal Cinemas", "level": "1", "name": "Regal Atlas Park Stadium 8", "phone": "+1-718-416-1349", "short_name": "Regal", "toilets": "yes", "toilets:access": "customers", "toilets:unisex": "no", "toilets:wheelchair": "yes", "website": "https://www.regmovies.com/theaters/regal-atlas-park-stadium-8/C00886889702", "wheelchair": "yes", "wikidata": "Q45019782"}}, {"type": "node", "id": 2703092815, "lat": 40.7443362, "lon": -73.998051}, {"type": "node", "id": 2703092831, "lat": 40.7443946, "lon": -73.9980084}, {"type": "node", "id": 2703092872, "lat": 40.744467, "lon": -73.9983615}, {"type": "node", "id": 2703092877, "lat": 40.7444813, "lon": -73.9979453}, {"type": "node", "id": 2703092928, "lat": 40.7445703, "lon": -73.9978805}, {"type": "node", "id": 2703092945, "lat": 40.7446041, "lon": -73.9979607}, {"type": "node", "id": 2703092971, "lat": 40.744651, "lon": -73.9979266}, {"type": "node", "id": 2703092998, "lat": 40.7447011, "lon": -73.998191}, {"type": "node", "id": 2703092999, "lat": 40.7447055, "lon": -73.9981878}, {"type": "node", "id": 2703093012, "lat": 40.7447544, "lon": -73.9983039}, {"type": "node", "id": 2703093043, "lat": 40.744833, "lon": -73.9981766}, {"type": "node", "id": 2703093048, "lat": 40.7448412, "lon": -73.997788}, {"type": "node", "id": 2703093054, "lat": 40.7448556, "lon": -73.9982302}, {"type": "node", "id": 2703093086, "lat": 40.7449645, "lon": -73.9980808}, {"type": "node", "id": 2703115801, "lat": 40.7459146, "lon": -73.9997026}, {"type": "node", "id": 2703115811, "lat": 40.7459501, "lon": -73.9997857}, {"type": "node", "id": 2703115823, "lat": 40.7459964, "lon": -73.9997635}, {"type": "node", "id": 2703115826, "lat": 40.7460043, "lon": -73.9996407}, {"type": "node", "id": 2703115828, "lat": 40.7460081, "lon": -73.999629}, {"type": "node", "id": 2703115829, "lat": 40.746011, "lon": -73.9996357}, {"type": "node", "id": 2703115831, "lat": 40.7460141, "lon": -73.9998048}, {"type": "node", "id": 2703115835, "lat": 40.7460185, "lon": -73.9996213}, {"type": "node", "id": 2703115837, "lat": 40.7460197, "lon": -73.9998006}, {"type": "node", "id": 2703115839, "lat": 40.7460232, "lon": -73.9996322}, {"type": "node", "id": 2703115858, "lat": 40.7461109, "lon": -73.9995675}, {"type": "node", "id": 2703115867, "lat": 40.7461689, "lon": -74.00015}, {"type": "node", "id": 2703115873, "lat": 40.7463138, "lon": -74.0000431}, {"type": "node", "id": 2708083633, "lat": 40.7635718, "lon": -73.9742899}, {"type": "node", "id": 2708083634, "lat": 40.7635747, "lon": -73.9742877}, {"type": "node", "id": 2708083637, "lat": 40.7636263, "lon": -73.9744177}, {"type": "node", "id": 2708083639, "lat": 40.7636717, "lon": -73.9745244}, {"type": "node", "id": 2708083641, "lat": 40.763721, "lon": -73.97418}, {"type": "node", "id": 2708083643, "lat": 40.7638061, "lon": -73.97439}, {"type": "node", "id": 2708083644, "lat": 40.7638113, "lon": -73.9741135}, {"type": "node", "id": 2708083645, "lat": 40.7638175, "lon": -73.9744169}, {"type": "node", "id": 2708083649, "lat": 40.7638997, "lon": -73.974321}, {"type": "node", "id": 2708133516, "lat": 40.7630368, "lon": -73.9798333, "tags": {"addr:city": "New York", "addr:housenumber": "141", "addr:postcode": "10019", "addr:street": "West 54th Street", "amenity": "cinema", "name": "Ziegfeld Ballroom", "wheelchair": "yes", "wikidata": "Q19361347", "wikipedia": "en:Ziegfeld Theatre (1969)"}}, {"type": "node", "id": 2716231205, "lat": 40.7595017, "lon": -73.9914437, "tags": {"addr:housenumber": "358", "addr:postcode": "10036", "addr:street": "West 44th Street", "amenity": "cinema", "name": "Producers Club Theaters and Bar", "website": "http://www.producersclub.com/", "wikidata": "Q45101703"}}, {"type": "node", "id": 2716231259, "lat": 40.7570477, "lon": -73.9889365, "tags": {"addr:city": "New York", "addr:housenumber": "247", "addr:postcode": "10036", "addr:state": "NY", "addr:street": "West 42nd Street", "amenity": "cinema", "brand": "Regal Cinemas", "brand:wikidata": "Q835638", "brand:wikipedia": "en:Regal Cinemas", "name": "Regal E-Walk Stadium 13 & RPX", "short_name": "Regal", "website": "https://www.regmovies.com/theatres/regal-e-walk-4dx-rpx/1929", "wikidata": "Q45104377"}}, {"type": "node", "id": 2717223541, "lat": 40.7565368, "lon": -73.9892031}, {"type": "node", "id": 2717223543, "lat": 40.7566429, "lon": -73.989459}, {"type": "node", "id": 2717223549, "lat": 40.7567274, "lon": -73.9890758}, {"type": "node", "id": 2717223551, "lat": 40.7568337, "lon": -73.9893234}, {"type": "node", "id": 2717902203, "lat": 40.7616577, "lon": -73.9658672}, {"type": "node", "id": 2717902206, "lat": 40.7616656, "lon": -73.965886}, {"type": "node", "id": 2717902222, "lat": 40.761796, "lon": -73.9661972}, {"type": "node", "id": 2717902232, "lat": 40.7618409, "lon": -73.9657345}, {"type": "node", "id": 2717902234, "lat": 40.7618636, "lon": -73.9657886}, {"type": "node", "id": 2717902252, "lat": 40.7618932, "lon": -73.9658595}, {"type": "node", "id": 2717902262, "lat": 40.7619791, "lon": -73.9660645}, {"type": "node", "id": 2758640929, "lat": 40.7867861, "lon": -73.9774328, "tags": {"addr:city": "New York", "addr:country": "US", "addr:housenumber": "2310", "addr:postcode": "10024", "addr:state": "NY", "addr:street": "Broadway", "amenity": "cinema", "brand": "AMC", "brand:wikidata": "Q294721", "brand:wikipedia": "en:AMC Theatres", "drive_in": "no", "name": "AMC Loews 84th Street 6", "operator": "AMC", "wheelchair": "yes", "wikidata": "Q45109828"}}, {"type": "node", "id": 2768881126, "lat": 40.720819, "lon": -73.8433724, "tags": {"addr:city": "Forest Hills", "addr:housenumber": "108-22", "addr:postcode": "11375", "addr:street": "Queens Boulevard", "amenity": "cinema", "name": "UA Midway Stadium 9", "phone": "+1-844-462-7342  620", "website": "https://www.regmovies.com/theaters/ua-midway-stadium-9/C00103418862", "wikidata": "Q45019649"}}, {"type": "node", "id": 2825590353, "lat": 40.7853458, "lon": -74.0472967}, {"type": "node", "id": 2825590354, "lat": 40.7848571, "lon": -74.0464215}, {"type": "node", "id": 2825590355, "lat": 40.7848775, "lon": -74.0464018}, {"type": "node", "id": 2825590356, "lat": 40.7848262, "lon": -74.0463087}, {"type": "node", "id": 2825590357, "lat": 40.7849164, "lon": -74.0462221}, {"type": "node", "id": 2825590358, "lat": 40.7848982, "lon": -74.0461837}, {"type": "node", "id": 2825590359, "lat": 40.7850903, "lon": -74.0460021}, {"type": "node", "id": 2825590360, "lat": 40.7851056, "lon": -74.0460274}, {"type": "node", "id": 2825590361, "lat": 40.7851841, "lon": -74.0459525}, {"type": "node", "id": 2825590362, "lat": 40.7852864, "lon": -74.0461392}, {"type": "node", "id": 2825590363, "lat": 40.7852639, "lon": -74.0461607}, {"type": "node", "id": 2825590364, "lat": 40.7854107, "lon": -74.0464279}, {"type": "node", "id": 2825590365, "lat": 40.7853869, "lon": -74.0464508}, {"type": "node", "id": 2825590366, "lat": 40.7854068, "lon": -74.04651}, {"type": "node", "id": 2825590367, "lat": 40.785425, "lon": -74.0465616, "tags": {"entrance": "yes"}}, {"type": "node", "id": 2825590368, "lat": 40.785458, "lon": -74.0466086}, {"type": "node", "id": 2825590369, "lat": 40.7855063, "lon": -74.0466455}, {"type": "node", "id": 2825590370, "lat": 40.7855239, "lon": -74.0466283}, {"type": "node", "id": 2825590371, "lat": 40.7856618, "lon": -74.0468724}, {"type": "node", "id": 2825590372, "lat": 40.7856816, "lon": -74.0468529}, {"type": "node", "id": 2825590373, "lat": 40.7857784, "lon": -74.0470245}, {"type": "node", "id": 2825590374, "lat": 40.7856966, "lon": -74.047105}, {"type": "node", "id": 2825590375, "lat": 40.7857153, "lon": -74.0471382}, {"type": "node", "id": 2825590376, "lat": 40.7855264, "lon": -74.0473236}, {"type": "node", "id": 2825590377, "lat": 40.7855065, "lon": -74.0472883}, {"type": "node", "id": 2825590378, "lat": 40.7854258, "lon": -74.0473673}, {"type": "node", "id": 2825590379, "lat": 40.7853719, "lon": -74.0472712}, {"type": "node", "id": 2838596374, "lat": 40.7049878, "lon": -73.933081, "tags": {"addr:city": "Brooklyn", "addr:housenumber": "40", "addr:postcode": "11206", "addr:state": "NY", "addr:street": "Bogart Street", "amenity": "cinema", "amenity_1": "bar", "amenity_2": "restaurant", "contact:facebook": "https://www.facebook.com/syndicatedbk", "contact:instagram": "http://instagram.com/syndicatedbk/", "contact:twitter": "http://twitter.com/syndicatedbk", "name": "Syndicated Bar Theater Kitchen", "opening_hours": "Su 15:00-24:00; Mo-We 17:00-24:00; Th 17:00-27:00; Fr 17:00-26:00; Sa 15:00-26:00", "phone": "+1-718-386-3399", "website": "https://syndicatedbk.com/", "wikidata": "Q45032934"}}, {"type": "node", "id": 2839686842, "lat": 40.7160932, "lon": -73.9624714, "tags": {"addr:city": "Brooklyn", "addr:country": "US", "addr:housenumber": "136", "addr:postcode": "11249", "addr:state": "NY", "addr:street": "Metropolitan Avenue", "alt_name": "Nitehawk", "amenity": "cinema", "branch": "Williamsburg", "name": "Nitehawk Cinema", "website": "https://nitehawkcinema.com/williamsburg/", "wikidata": "Q45034279"}}, {"type": "node", "id": 2861113982, "lat": 40.8670408, "lon": -73.8251735, "tags": {"addr:housenumber": "2210", "addr:postcode": "10475", "addr:street": "Bartow Avenue", "amenity": "cinema", "brand": "AMC", "brand:wikidata": "Q294721", "brand:wikipedia": "en:AMC Theatres", "name": "AMC Bay Plaza Cinema 13", "screen": "13", "website": "https://www.amctheatres.com/movie-theatres/new-york-city/amc-bay-plaza-cinema-13", "wikidata": "Q45036128"}}, {"type": "node", "id": 2870867710, "lat": 40.7091388, "lon": -73.8297989, "tags": {"addr:city": "Kew Gardens", "addr:country": "US", "addr:housenumber": "81-05", "addr:postcode": "11415", "addr:state": "NY", "addr:street": "Lefferts Boulevard", "amenity": "cinema", "name": "Kew Gardens Cinemas", "note": "Great for independent and foreign movies!", "phone": "718 441 9835", "website": "http://www.kewgardenstheatre.com/", "wikidata": "Q45020083"}}, {"type": "node", "id": 2870984533, "lat": 40.7249737, "lon": -73.8211967, "tags": {"addr:city": "Flushing", "addr:housenumber": "72-66", "addr:postcode": "11367", "addr:street": "Main Street", "amenity": "cinema", "name": "Main Street Cinemas", "phone": "(718) 263-4825", "screen": "6", "wikidata": "Q45019531"}}, {"type": "node", "id": 2888166416, "lat": 40.5856841, "lon": -73.9297154}, {"type": "node", "id": 2888166418, "lat": 40.5857236, "lon": -73.9293612}, {"type": "node", "id": 2888166419, "lat": 40.5857298, "lon": -73.9299791}, {"type": "node", "id": 2888166420, "lat": 40.5857365, "lon": -73.9300014}, {"type": "node", "id": 2888166421, "lat": 40.5857576, "lon": -73.9297295}, {"type": "node", "id": 2888166423, "lat": 40.5858342, "lon": -73.9302852}, {"type": "node", "id": 2888166424, "lat": 40.5858632, "lon": -73.9300257}, {"type": "node", "id": 2888166425, "lat": 40.5859357, "lon": -73.9306424}, {"type": "node", "id": 2888166426, "lat": 40.5859726, "lon": -73.9303118}, {"type": "node", "id": 2888166429, "lat": 40.5860334, "lon": -73.929452}, {"type": "node", "id": 2888166430, "lat": 40.5860368, "lon": -73.9294213}, {"type": "node", "id": 2888166432, "lat": 40.586057, "lon": -73.9294565}, {"type": "node", "id": 2888166436, "lat": 40.5862067, "lon": -73.9306944}, {"type": "node", "id": 2888166443, "lat": 40.5862649, "lon": -73.9294964}, {"type": "node", "id": 2888166444, "lat": 40.5862682, "lon": -73.9294666}, {"type": "node", "id": 2888166452, "lat": 40.586342, "lon": -73.9294808}, {"type": "node", "id": 3179634981, "lat": 40.7617163, "lon": -73.9660075}, {"type": "node", "id": 3179634986, "lat": 40.7617491, "lon": -73.9660851}, {"type": "node", "id": 3179634987, "lat": 40.7617606, "lon": -73.9661126}, {"type": "node", "id": 3179634988, "lat": 40.7617776, "lon": -73.9661533}, {"type": "node", "id": 3242102016, "lat": 40.7320502, "lon": -74.0641819}, {"type": "node", "id": 3242102017, "lat": 40.7321703, "lon": -74.064668}, {"type": "node", "id": 3242102018, "lat": 40.7321739, "lon": -74.0640784}, {"type": "node", "id": 3242102019, "lat": 40.7321797, "lon": -74.0647041}, {"type": "node", "id": 3242102020, "lat": 40.7321962, "lon": -74.0647344}, {"type": "node", "id": 3242102021, "lat": 40.7322142, "lon": -74.0647601}, {"type": "node", "id": 3242102022, "lat": 40.7322344, "lon": -74.0647838}, {"type": "node", "id": 3242102023, "lat": 40.7322955, "lon": -74.064274}, {"type": "node", "id": 3242102024, "lat": 40.7325344, "lon": -74.0645588}, {"type": "node", "id": 3242102025, "lat": 40.7325394, "lon": -74.064987}, {"type": "node", "id": 3242102027, "lat": 40.732584, "lon": -74.0646623}, {"type": "node", "id": 3242102028, "lat": 40.7326049, "lon": -74.0646262}, {"type": "node", "id": 3242102029, "lat": 40.7326408, "lon": -74.0647183}, {"type": "node", "id": 3242102030, "lat": 40.732643, "lon": -74.0647382}, {"type": "node", "id": 3705050850, "lat": 40.7756308, "lon": -74.0369888}, {"type": "node", "id": 3705050861, "lat": 40.7749241, "lon": -74.0368202}, {"type": "node", "id": 3705050863, "lat": 40.7751678, "lon": -74.037364}, {"type": "node", "id": 3705050867, "lat": 40.7753855, "lon": -74.036453}, {"type": "node", "id": 3705050870, "lat": 40.7755537, "lon": -74.0368215}, {"type": "node", "id": 4033627709, "lat": 40.7540323, "lon": -74.0317504}, {"type": "node", "id": 4033627711, "lat": 40.75407, "lon": -74.0319603}, {"type": "node", "id": 4033627712, "lat": 40.75411, "lon": -74.0321831}, {"type": "node", "id": 4033627714, "lat": 40.7541484, "lon": -74.032397}, {"type": "node", "id": 4033627715, "lat": 40.7541532, "lon": -74.0324237}, {"type": "node", "id": 4033627716, "lat": 40.7541611, "lon": -74.0316879}, {"type": "node", "id": 4033627718, "lat": 40.7542859, "lon": -74.0323821}, {"type": "node", "id": 4071907604, "lat": 40.7315215, "lon": -73.9887471, "tags": {"addr:city": "New York", "addr:housenumber": "66", "addr:postcode": "10003", "addr:street": "3rd Avenue", "amenity": "cinema", "brand": "AMC", "brand:wikidata": "Q294721", "brand:wikipedia": "en:AMC Theatres", "name": "AMC Loews Village 7", "opening_hours": "Mo-Su 11:00-23:00", "screen": "7", "website": "https://www.amctheatres.com/movie-theatres/new-york-city/amc-village-7", "wikidata": "Q78942478"}}, {"type": "node", "id": 4425707490, "lat": 40.7230437, "lon": -74.0112781, "tags": {"addr:housenumber": "92", "addr:street": "Laight Street", "amenity": "cinema"}}, {"type": "node", "id": 4620805945, "lat": 40.6906381, "lon": -73.983202, "tags": {"addr:city": "Brooklyn", "addr:housenumber": "445", "addr:postcode": "11201", "addr:state": "NY", "addr:street": "Albee Square", "amenity": "cinema", "brand": "Alamo Drafthouse Cinema", "brand:wikidata": "Q4705954", "brand:wikipedia": "en:Alamo Drafthouse Cinema", "ele": "5", "name": "Alamo Drafthouse Cinema - Brooklyn", "phone": "+1 (718) 513-2547", "website": "https://drafthouse.com/nyc", "wikidata": "Q42298362"}}, {"type": "node", "id": 5040718557, "lat": 40.7616338, "lon": -73.9778136, "tags": {"amenity": "cinema", "name": "Museum of Modern Art (MoMA) films", "tourism": "yes"}}, {"type": "node", "id": 5116117400, "lat": 40.7794376, "lon": -73.954081, "tags": {"addr:city": "New York", "addr:housenumber": "1538", "addr:postcode": "10028", "addr:state": "NY", "addr:street": "3rd Avenue", "amenity": "cinema", "brand": "AMC", "brand:wikidata": "Q294721", "brand:wikipedia": "en:AMC Theatres", "name": "AMC Loews Orpheum 7", "website": "https://www.amctheatres.com/movie-theatres/new-york-city/amc-loews-orpheum-7", "wheelchair": "yes", "wikidata": "Q45109229"}}, {"type": "node", "id": 5243571202, "lat": 40.7359607, "lon": -73.9959654, "tags": {"addr:housenumber": "34", "addr:street": "West 13th Street", "amenity": "cinema", "name": "Quad Cinema", "website": "https://quadcinema.com", "wikidata": "Q7268258"}}, {"type": "node", "id": 5330468401, "lat": 40.8526542, "lon": -73.968939}, {"type": "node", "id": 5330468402, "lat": 40.8516608, "lon": -73.9691024}, {"type": "node", "id": 5330468403, "lat": 40.8525652, "lon": -73.9685317}, {"type": "node", "id": 5330468413, "lat": 40.8517381, "lon": -73.9694753}, {"type": "node", "id": 5356834735, "lat": 40.7283888, "lon": -74.0043864, "tags": {"addr:housenumber": "209", "addr:street": "West Houston Street", "amenity": "cinema", "name": "Film Forum", "wikidata": "Q5448940"}}, {"type": "node", "id": 5360034111, "lat": 40.7266521, "lon": -74.0381087, "tags": {"amenity": "cinema", "brand": "AMC", "brand:wikidata": "Q294721", "brand:wikipedia": "en:AMC Theatres", "level": "2", "name": "AMC Newport 11", "wikidata": "Q43019094"}}, {"type": "node", "id": 5438364705, "lat": 40.5863327, "lon": -73.9295644}, {"type": "node", "id": 5438364707, "lat": 40.5861105, "lon": -73.9294668}, {"type": "node", "id": 5483950744, "lat": 40.7125158, "lon": -73.9629051, "tags": {"addr:city": "Brooklyn", "addr:housenumber": "124", "addr:postcode": "11249", "addr:state": "NY", "addr:street": "South 3rd Street", "amenity": "cinema", "name": "Spectacle Theater", "opening_hours:covid19": "closed", "payment:cash": "yes", "website": "https://www.spectacletheater.com/", "wikidata": "Q85802550", "wikipedia": "en:Spectacle Theater"}}, {"type": "node", "id": 5651033387, "lat": 40.7565538, "lon": -73.9892439}, {"type": "node", "id": 5651033388, "lat": 40.7568307, "lon": -73.9891698, "tags": {"entrance": "main"}}, {"type": "node", "id": 5651033389, "lat": 40.7568111, "lon": -73.989122}, {"type": "node", "id": 5651033392, "lat": 40.7568508, "lon": -73.9892186}, {"type": "node", "id": 5651033393, "lat": 40.7567832, "lon": -73.9890593}, {"type": "node", "id": 5651033394, "lat": 40.7568748, "lon": -73.9892722}, {"type": "node", "id": 5651033395, "lat": 40.7567354, "lon": -73.9890951}, {"type": "node", "id": 5651033396, "lat": 40.7568271, "lon": -73.989308}, {"type": "node", "id": 5803010146, "lat": 40.7898103, "lon": -73.7300951}, {"type": "node", "id": 5803010147, "lat": 40.7898381, "lon": -73.7298757}, {"type": "node", "id": 5803010148, "lat": 40.7897917, "lon": -73.7298661}, {"type": "node", "id": 5803010149, "lat": 40.7898074, "lon": -73.729734}, {"type": "node", "id": 5803010150, "lat": 40.7896698, "lon": -73.7296963}, {"type": "node", "id": 5803010151, "lat": 40.7896394, "lon": -73.7299643}, {"type": "node", "id": 5857666600, "lat": 40.7311404, "lon": -74.0015733}, {"type": "node", "id": 5857666603, "lat": 40.7312082, "lon": -74.0015243}, {"type": "node", "id": 5891876458, "lat": 40.6803238, "lon": -73.9692441, "tags": {"alt_name": "Renewal Film Series", "amenity": "cinema", "contact:facebook": "https://www.facebook.com/renewalfilmseries/", "name": "Soapbox Gallery", "phone": "+1-917-595-8755", "tourism": "gallery", "website": "https://soapboxgallery.org"}}, {"type": "node", "id": 6125745176, "lat": 40.7088032, "lon": -74.0547644}, {"type": "node", "id": 6125745178, "lat": 40.7088072, "lon": -74.0545692}, {"type": "node", "id": 6125745179, "lat": 40.708823, "lon": -74.0546923}, {"type": "node", "id": 6125745180, "lat": 40.7088157, "lon": -74.05473}, {"type": "node", "id": 6125745182, "lat": 40.7088185, "lon": -74.0546055}, {"type": "node", "id": 6125745486, "lat": 40.7087916, "lon": -74.054538}, {"type": "node", "id": 6125745489, "lat": 40.7087475, "lon": -74.0544891}, {"type": "node", "id": 6125745492, "lat": 40.7087704, "lon": -74.0545098}, {"type": "node", "id": 6125745496, "lat": 40.7088245, "lon": -74.05465}, {"type": "node", "id": 6125745497, "lat": 40.7086418, "lon": -74.0548551}, {"type": "node", "id": 6125745498, "lat": 40.7087852, "lon": -74.0547961}, {"type": "node", "id": 6125745501, "lat": 40.7087036, "lon": -74.0548563}, {"type": "node", "id": 6125745503, "lat": 40.7086717, "lon": -74.0548599}, {"type": "node", "id": 6125745505, "lat": 40.7087611, "lon": -74.0548239}, {"type": "node", "id": 6125745507, "lat": 40.7087335, "lon": -74.0548442}, {"type": "node", "id": 6169307705, "lat": 40.5809634, "lon": -74.1676059}, {"type": "node", "id": 6169307706, "lat": 40.580889, "lon": -74.1671728}, {"type": "node", "id": 6219023476, "lat": 40.5813187, "lon": -74.167466}, {"type": "node", "id": 6219023477, "lat": 40.5813163, "lon": -74.1674555}, {"type": "node", "id": 6219025492, "lat": 40.5808708, "lon": -74.1671984}, {"type": "node", "id": 6219025493, "lat": 40.5807387, "lon": -74.1669878}, {"type": "node", "id": 6219025494, "lat": 40.5807251, "lon": -74.1669277}, {"type": "node", "id": 6219025495, "lat": 40.5807148, "lon": -74.1668908}, {"type": "node", "id": 6257330986, "lat": 40.5596802, "lon": -74.1638436, "tags": {"addr:city": "Staten Island", "addr:housenumber": "680", "addr:postcode": "10308", "addr:state": "NY", "addr:street": "Arthur Kill Road", "amenity": "cinema", "name": "Atrium Cinema", "wikidata": "Q43038853"}}, {"type": "node", "id": 6638970068, "lat": 40.7203858, "lon": -74.0029385, "tags": {"addr:housenumber": "327", "addr:street": "Canal Street", "amenity": "cinema", "contact:facebook": "https://www.facebook.com/noevileye/", "contact:instagram": "https://www.instagram.com/noevileyecinema", "name": "No Evil Eye"}}, {"type": "node", "id": 6680394964, "lat": 40.8101219, "lon": -73.9515922, "tags": {"amenity": "cinema", "brand": "AMC", "brand:wikidata": "Q294721", "brand:wikipedia": "en:AMC Theatres", "name": "AMC"}}, {"type": "node", "id": 6710581345, "lat": 40.5808267, "lon": -74.1670959, "tags": {"entrance": "yes", "level": "0"}}, {"type": "node", "id": 6896758627, "lat": 40.8251462, "lon": -73.9212919, "tags": {"amenity": "cinema", "name": "Concourse Plaza Multiplex", "screen": "10", "wikidata": "Q45036123"}}, {"type": "node", "id": 6906995947, "lat": 40.5310467, "lon": -74.2302647}, {"type": "node", "id": 6906995949, "lat": 40.5302742, "lon": -74.2298315}, {"type": "node", "id": 6906995950, "lat": 40.5310086, "lon": -74.2296897}, {"type": "node", "id": 6906995951, "lat": 40.5303023, "lon": -74.2302545}, {"type": "node", "id": 6906995955, "lat": 40.5308684, "lon": -74.2297634}, {"type": "node", "id": 6906995956, "lat": 40.5308646, "lon": -74.2297062}, {"type": "node", "id": 6912090035, "lat": 40.7182171, "lon": -73.9879129, "tags": {"addr:city": "New York", "addr:housenumber": "129", "addr:postcode": "10002", "addr:state": "NY", "addr:street": "Delancey Street", "alt_name": "Essex 14", "amenity": "cinema", "brand": "Regal Cinemas", "brand:wikidata": "Q835638", "brand:wikipedia": "en:Regal Cinemas", "name": "Regal Essex 14 & RPX", "phone": "+1-212-475-5768", "screen": "14", "short_name": "Regal", "wikidata": "Q78915206"}}, {"type": "node", "id": 6932774599, "lat": 40.7790352, "lon": -73.7787434, "tags": {"amenity": "cinema", "name": "AMC Bay Terrace 6", "screen": "6", "website": "https://www.amctheatres.com/movie-theatres/new-york-city/amc-bay-terrace-6", "wikidata": "Q45019062"}}, {"type": "node", "id": 6935388093, "lat": 40.7066783, "lon": -74.0030665, "tags": {"addr:housenumber": "11", "addr:street": "Fulton Street", "amenity": "cinema", "name": "iPic Theaters", "screen": "8", "wikidata": "Q45105315"}}, {"type": "node", "id": 6974779972, "lat": 40.7568121, "lon": -73.714883, "tags": {"addr:city": "Douglaston", "addr:housenumber": "27240", "addr:postcode": "11005", "addr:state": "NY", "addr:street": "Grand Central Parkway", "amenity": "cinema", "name": "North Shore Towers Cinema", "screen": "1", "website": "http://www.northshoretowers.com/amenities/movie-theater/", "wikidata": "Q45019343"}}, {"type": "node", "id": 7105939411, "lat": 40.7461686, "lon": -74.0001493, "tags": {"camera:type": "dome", "man_made": "surveillance", "surveillance:type": "camera"}}, {"type": "node", "id": 7120019253, "lat": 40.7540286, "lon": -74.0317294}, {"type": "node", "id": 7123673080, "lat": 40.7330766, "lon": -73.7943814}, {"type": "node", "id": 7123673081, "lat": 40.7331082, "lon": -73.7942183}, {"type": "node", "id": 7123673082, "lat": 40.7333553, "lon": -73.7942956}, {"type": "node", "id": 7123673083, "lat": 40.733019, "lon": -73.7943632}, {"type": "node", "id": 7123673084, "lat": 40.7330551, "lon": -73.7941586}, {"type": "node", "id": 7123729885, "lat": 40.7330798, "lon": -73.7940173}, {"type": "node", "id": 7123729886, "lat": 40.7333342, "lon": -73.7941006}, {"type": "node", "id": 7123729887, "lat": 40.7333619, "lon": -73.7941385}, {"type": "node", "id": 7310807558, "lat": 40.7273136, "lon": -73.951608, "tags": {"addr:city": "Brooklyn", "addr:housenumber": "122", "addr:street": "Meserole Avenue", "amenity": "cinema", "name": "Film Noir Cinema", "website": "https://www.filmnoircinema.com/", "wikidata": "Q88024870"}}, {"type": "node", "id": 7313847136, "lat": 40.7083166, "lon": -74.0549811}, {"type": "node", "id": 7313847137, "lat": 40.7081583, "lon": -74.0549011}, {"type": "node", "id": 7313847138, "lat": 40.7082462, "lon": -74.0545982}, {"type": "node", "id": 7313847139, "lat": 40.7084045, "lon": -74.0546782}, {"type": "node", "id": 7313847140, "lat": 40.7085234, "lon": -74.0546818}, {"type": "node", "id": 7313847141, "lat": 40.7085761, "lon": -74.0545156}, {"type": "node", "id": 7313847142, "lat": 40.7086148, "lon": -74.0544809}, {"type": "node", "id": 7313847143, "lat": 40.7086476, "lon": -74.0544676}, {"type": "node", "id": 7313847144, "lat": 40.7086819, "lon": -74.0544646}, {"type": "node", "id": 7313847145, "lat": 40.7087157, "lon": -74.0544718}, {"type": "node", "id": 7313847146, "lat": 40.7085825, "lon": -74.0548179}, {"type": "node", "id": 7313847147, "lat": 40.7085397, "lon": -74.0547478}, {"type": "node", "id": 7313847148, "lat": 40.7085285, "lon": -74.054705}, {"type": "node", "id": 7313847149, "lat": 40.708558, "lon": -74.0547861}, {"type": "node", "id": 7313847150, "lat": 40.7085134, "lon": -74.0546736}, {"type": "node", "id": 7313847151, "lat": 40.7085624, "lon": -74.054508}, {"type": "node", "id": 7313847152, "lat": 40.7085886, "lon": -74.054502}, {"type": "node", "id": 7816410041, "lat": 40.7470662, "lon": -73.8503747, "tags": {"amenity": "cinema", "drive_in": "only", "name": "Queens Drive-In", "opening_hours:url": "https://www.queensdrivein.com/", "screen": "1", "website": "https://www.queensdrivein.com/"}}, {"type": "node", "id": 7821236139, "lat": 40.5303086, "lon": -74.2303495}, {"type": "node", "id": 7967026986, "lat": 40.5738806, "lon": -73.9767319}, {"type": "node", "id": 7967026987, "lat": 40.5738294, "lon": -73.9765132}, {"type": "node", "id": 7967026988, "lat": 40.5738579, "lon": -73.9764572}, {"type": "node", "id": 7967026989, "lat": 40.5739018, "lon": -73.9764958}, {"type": "node", "id": 7967026990, "lat": 40.5739561, "lon": -73.9763888}, {"type": "node", "id": 7967026991, "lat": 40.5740242, "lon": -73.9764488}, {"type": "node", "id": 8285689833, "lat": 40.5310155, "lon": -74.229794}, {"type": "node", "id": 8316952443, "lat": 40.5808799, "lon": -74.1672386}, {"type": "node", "id": 8316952737, "lat": 40.5812256, "lon": -74.1675026}, {"type": "node", "id": 8397272582, "lat": 40.5807129, "lon": -74.1668841}, {"type": "node", "id": 8397272583, "lat": 40.5807904, "lon": -74.1668556}, {"type": "node", "id": 8397272584, "lat": 40.5807902, "lon": -74.166853}, {"type": "node", "id": 8397272590, "lat": 40.5808121, "lon": -74.1668444}, {"type": "node", "id": 8397272591, "lat": 40.5810005, "lon": -74.1667717}, {"type": "node", "id": 8397272592, "lat": 40.5810114, "lon": -74.1668209}, {"type": "node", "id": 8397272594, "lat": 40.5810975, "lon": -74.1667874}, {"type": "node", "id": 8397272597, "lat": 40.5811938, "lon": -74.1667515}, {"type": "node", "id": 8397272601, "lat": 40.5812437, "lon": -74.1667328}, {"type": "node", "id": 8397272603, "lat": 40.5814373, "lon": -74.1666587}, {"type": "node", "id": 8397272617, "lat": 40.5815406, "lon": -74.1666201}, {"type": "node", "id": 8397272618, "lat": 40.5815495, "lon": -74.1666166}, {"type": "node", "id": 8397272631, "lat": 40.5816249, "lon": -74.1667343}, {"type": "node", "id": 8397272632, "lat": 40.5815783, "lon": -74.1667525}, {"type": "node", "id": 8397272633, "lat": 40.5815613, "lon": -74.1666721}, {"type": "node", "id": 8397272638, "lat": 40.5816272, "lon": -74.1667452}, {"type": "node", "id": 8397272640, "lat": 40.5816402, "lon": -74.1668066}, {"type": "node", "id": 8397272641, "lat": 40.5816533, "lon": -74.1668664}, {"type": "node", "id": 8397272645, "lat": 40.5818021, "lon": -74.1669799}, {"type": "node", "id": 8397272646, "lat": 40.5816867, "lon": -74.1670235}, {"type": "node", "id": 8397614601, "lat": 40.5813646, "lon": -74.1667539}, {"type": "node", "id": 8397614606, "lat": 40.5814401, "lon": -74.1667903}, {"type": "node", "id": 8397614609, "lat": 40.5814132, "lon": -74.167417}, {"type": "node", "id": 8397614610, "lat": 40.5815957, "lon": -74.1673428}, {"type": "node", "id": 8397614613, "lat": 40.5813457, "lon": -74.1667606}, {"type": "node", "id": 8397614614, "lat": 40.5814275, "lon": -74.1667318}, {"type": "node", "id": 8397614615, "lat": 40.5814494, "lon": -74.1668332}, {"type": "node", "id": 8397614616, "lat": 40.5812923, "lon": -74.1668885}, {"type": "node", "id": 8397632417, "lat": 40.5810333, "lon": -74.1668816}, {"type": "node", "id": 8397632418, "lat": 40.5813239, "lon": -74.1666617}, {"type": "node", "id": 8397632419, "lat": 40.5810098, "lon": -74.1667763}, {"type": "node", "id": 8397632469, "lat": 40.5808054, "lon": -74.1670696}, {"type": "node", "id": 8397632476, "lat": 40.580982, "lon": -74.16695}, {"type": "node", "id": 8397632477, "lat": 40.5810143, "lon": -74.1669911}, {"type": "node", "id": 8397632478, "lat": 40.5810896, "lon": -74.1669643}, {"type": "node", "id": 8397632479, "lat": 40.5812145, "lon": -74.167507}, {"type": "node", "id": 8397632480, "lat": 40.5809253, "lon": -74.1674383}, {"type": "node", "id": 8397632487, "lat": 40.580848, "lon": -74.1671222}, {"type": "node", "id": 8405775893, "lat": 40.5818598, "lon": -74.1672379}, {"type": "node", "id": 8665252898, "lat": 40.6681394, "lon": -74.1066818}, {"type": "node", "id": 8665252899, "lat": 40.6677077, "lon": -74.1061414}, {"type": "node", "id": 8665254944, "lat": 40.6681441, "lon": -74.1060195}, {"type": "node", "id": 8665254957, "lat": 40.6681458, "lon": -74.1060717}, {"type": "node", "id": 8665254958, "lat": 40.6678779, "lon": -74.1064331}, {"type": "node", "id": 8665254973, "lat": 40.6680719, "lon": -74.1065976}, {"type": "node", "id": 8665254974, "lat": 40.6676687, "lon": -74.1061957}, {"type": "node", "id": 8665255016, "lat": 40.6683441, "lon": -74.1063963}, {"type": "node", "id": 8665255031, "lat": 40.6681648, "lon": -74.1060452}, {"type": "node", "id": 8665255032, "lat": 40.6679806, "lon": -74.1057762}, {"type": "node", "id": 8665255045, "lat": 40.6683627, "lon": -74.1063422}, {"type": "node", "id": 8665255046, "lat": 40.6677844, "lon": -74.10634}, {"type": "node", "id": 8665255062, "lat": 40.6678944, "lon": -74.1064101}, {"type": "node", "id": 8665255093, "lat": 40.6683335, "lon": -74.1063831}, {"type": "node", "id": 8665255106, "lat": 40.6679419, "lon": -74.10583}, {"type": "node", "id": 8665255107, "lat": 40.6681589, "lon": -74.1059989}, {"type": "node", "id": 8665255121, "lat": 40.6678715, "lon": -74.1057422}, {"type": "node", "id": 8665255122, "lat": 40.6677933, "lon": -74.1063276}, {"type": "node", "id": 9109985699, "lat": 40.6600338, "lon": -74.1688309}, {"type": "node", "id": 9109985700, "lat": 40.6600366, "lon": -74.1688388}, {"type": "node", "id": 9109985701, "lat": 40.6600594, "lon": -74.1687318}, {"type": "node", "id": 9109985702, "lat": 40.6600508, "lon": -74.1687371}, {"type": "node", "id": 9109985703, "lat": 40.6599839, "lon": -74.1688656}, {"type": "node", "id": 9109985707, "lat": 40.6600136, "lon": -74.1686404}, {"type": "node", "id": 9109985708, "lat": 40.659902, "lon": -74.1684562}, {"type": "node", "id": 9109985709, "lat": 40.6599031, "lon": -74.1684592}, {"type": "node", "id": 9109985710, "lat": 40.6599497, "lon": -74.1684681}, {"type": "node", "id": 9109985711, "lat": 40.6599501, "lon": -74.1684793}, {"type": "node", "id": 9109985712, "lat": 40.6599412, "lon": -74.1684452}, {"type": "node", "id": 9109985713, "lat": 40.6599392, "lon": -74.1684463}, {"type": "node", "id": 9109985714, "lat": 40.6596228, "lon": -74.1677584}, {"type": "node", "id": 9109985715, "lat": 40.659624, "lon": -74.1677618}, {"type": "node", "id": 9109985716, "lat": 40.6594635, "lon": -74.1673989}, {"type": "node", "id": 9109985717, "lat": 40.6594653, "lon": -74.1674035}, {"type": "node", "id": 9109985718, "lat": 40.6595385, "lon": -74.1674365}, {"type": "node", "id": 9109985719, "lat": 40.6595343, "lon": -74.1674396}, {"type": "node", "id": 9109985720, "lat": 40.6590316, "lon": -74.168021}, {"type": "node", "id": 9109985721, "lat": 40.659399, "lon": -74.1689471}, {"type": "node", "id": 9109985722, "lat": 40.6593936, "lon": -74.1689514}, {"type": "node", "id": 9109985725, "lat": 40.6599082, "lon": -74.1684519}, {"type": "node", "id": 9109985726, "lat": 40.6598846, "lon": -74.1684715}, {"type": "node", "id": 9109985727, "lat": 40.659998, "lon": -74.1686007}, {"type": "node", "id": 9109985731, "lat": 40.6599274, "lon": -74.1684385}, {"type": "node", "id": 9109985732, "lat": 40.6598817, "lon": -74.1683415}, {"type": "node", "id": 9109985749, "lat": 40.659815, "lon": -74.1681749}, {"type": "node", "id": 9109985752, "lat": 40.659608, "lon": -74.1677683}, {"type": "node", "id": 9109985753, "lat": 40.6596316, "lon": -74.1677568}, {"type": "node", "id": 9109985755, "lat": 40.6596411, "lon": -74.1677499}, {"type": "node", "id": 9109985760, "lat": 40.65959, "lon": -74.1675794}, {"type": "node", "id": 9109985761, "lat": 40.6596374, "lon": -74.1676985}, {"type": "node", "id": 9109985762, "lat": 40.6596398, "lon": -74.1676967}, {"type": "node", "id": 9109985763, "lat": 40.6595733, "lon": -74.1675374}, {"type": "node", "id": 9109985764, "lat": 40.6594132, "lon": -74.1674409}, {"type": "node", "id": 9109985770, "lat": 40.6592794, "lon": -74.167464}, {"type": "node", "id": 9109985771, "lat": 40.6591802, "lon": -74.1675333}, {"type": "node", "id": 9109985774, "lat": 40.6592634, "lon": -74.1674746}, {"type": "node", "id": 9109985776, "lat": 40.65915, "lon": -74.1675525}, {"type": "node", "id": 9109985778, "lat": 40.6590706, "lon": -74.1676761}, {"type": "node", "id": 9109985781, "lat": 40.6589903, "lon": -74.1677346}, {"type": "node", "id": 9109985838, "lat": 40.6595606, "lon": -74.1691545}, {"type": "node", "id": 9109985839, "lat": 40.6596418, "lon": -74.1690985}, {"type": "node", "id": 9384326219, "lat": 40.5738742, "lon": -73.9765526}, {"type": "node", "id": 9384326220, "lat": 40.5738133, "lon": -73.9766727}, {"type": "node", "id": 9478443144, "lat": 40.7275059, "lon": -73.960961, "tags": {"amenity": "cinema", "drive_in": "yes", "name": "Skyline Drive In NYC", "website": "https://skylinedriveinnyc.com"}}, {"type": "node", "id": 9569739936, "lat": 40.745998, "lon": -73.9996259}, {"type": "node", "id": 9569739940, "lat": 40.7459591, "lon": -73.9996608}, {"type": "node", "id": 9649218717, "lat": 40.7603521, "lon": -73.8335782, "tags": {"addr:city": "Flushing", "addr:housenumber": "133-36", "addr:postcode": "11354", "addr:state": "NY", "addr:street": "37th Avenue", "amenity": "cinema", "brand": "Regal Cinemas", "brand:wikidata": "Q835638", "brand:wikipedia": "en:Regal Cinemas", "name": "Regal Tangram 4DX", "short_name": "Regal"}}, {"type": "node", "id": 9842564521, "lat": 40.6866978, "lon": -73.9775096, "tags": {"amenity": "cinema", "name": "BAM Rose Cinemas", "operator": "Brooklyn Academy of Music", "phone": "+1-718-636-4100", "website": "https://www.bam.org/visit#BAM-Rose-Cinemas"}}, {"type": "node", "id": 9928184000, "lat": 40.6263812, "lon": -74.1729248}, {"type": "node", "id": 9928184001, "lat": 40.6263591, "lon": -74.172678}, {"type": "node", "id": 9928184441, "lat": 40.6257513, "lon": -74.1722619}, {"type": "node", "id": 9928184466, "lat": 40.6257642, "lon": -74.17226}, {"type": "node", "id": 10077762874, "lat": 40.7192924, "lon": -74.0048228, "tags": {"addr:city": "New York", "addr:housenumber": "2", "addr:postcode": "10013", "addr:state": "NY", "addr:street": "6th Avenue", "addr:unit": "Lower Level", "amenity": "cinema", "description": "Roxy Cinema is an Art Deco-inspired arthouse cinema located in downtown Manhattan specializing in first-run independent films, rare archival prints and 35mm cult classics.", "email": "info@roxycinemanyc.com", "name": "Roxy Cinema New York", "opening_hours": "We-Su 17:00-23:00", "payment:cash": "yes", "payment:credit_cards": "yes", "screen": "1", "website": "https://www.roxycinemanewyork.com/"}}, {"type": "node", "id": 10241163202, "lat": 40.5809133, "lon": -74.1673854, "tags": {"amenity": "loading_dock"}}, {"type": "node", "id": 10241163203, "lat": 40.5808966, "lon": -74.167312, "tags": {"amenity": "loading_dock"}}, {"type": "way", "id": 167898265, "nodes": [1792364020, 9109985701, 9109985702, 9109985707, 9109985727, 9109985711, 9109985710, 9109985712, 9109985713, 1792364000, 9109985731, 9109985725, 9109985708, 9109985709, 9109985726, 1792363997, 1792363995, 1792363998, 9109985732, 9109985749, 1792363993, 1792363981, 1792363979, 9109985752, 9109985714, 9109985715, 9109985753, 9109985755, 1792363989, 9109985762, 9109985761, 9109985760, 9109985763, 9109985719, 9109985718, 1792363972, 9109985716, 9109985717, 9109985764, 1792363949, 1792363947, 9109985770, 9109985774, 9109985771, 9109985776, 1792363922, 1792363924, 9109985778, 9109985781, 1792363913, 1792363920, 1792363916, 9109985720, 1792363932, 1792363928, 1792363931, 1792363930, 1792363937, 1792363939, 1792363940, 1792363943, 9109985721, 9109985722, 1792363965, 1792363968, 1792363977, 9109985838, 9109985839, 1792363985, 1792363990, 1792364017, 1792364012, 9109985703, 9109985699, 9109985700, 1792364020], "tags": {"addr:city": "Elizabeth", "addr:housenumber": "640", "addr:postcode": "07201", "addr:state": "NJ", "addr:street": "Kapkowski Road", "amenity": "cinema", "brand": "AMC", "brand:wikidata": "Q294721", "brand:wikipedia": "en:AMC Theatres", "building": "yes", "building:use": "shop", "name": "AMC Jersey Gardens 20", "roof:shape": "flat", "screen": "20", "website": "https://www.amctheatres.com/movie-theatres/elizabeth/amc-loews-jersey-gardens-20", "wikidata": "Q43017712"}}, {"type": "way", "id": 241819049, "nodes": [2494043035, 2494043044, 2494043051, 2494043024, 9928184000, 2494041836, 9928184001, 2494043003, 2494043014, 2494043007, 2494043005, 2494043002, 2494043008, 2494042999, 2494042857, 2494042858, 9928184466, 9928184441, 2494042804, 2494042809, 2494042814, 2494042821, 2494042816, 2494042820, 2494042905, 2494042907, 2494043058, 2494043048, 2494043038, 2494043035], "tags": {"addr:housenumber": "2474", "addr:postcode": "10303", "addr:street": "Forest Avenue", "amenity": "cinema", "brand": "Regal Cinemas", "brand:wikidata": "Q835638", "brand:wikipedia": "en:Regal Cinemas", "building": "yes", "height": "10.3", "name": "Regal UA Staten Island & RPX", "nycdoitt:bin": "5154385", "short_name": "Regal", "website": "https://regmovies.com/theatres/regal-ua-staten-island-rpx/1331", "wikidata": "Q43041177"}}, {"type": "way", "id": 241844596, "nodes": [2494244435, 2494244441, 2494244442, 2494244459, 2494244469, 2494244470, 2494244461, 2494244460, 2494243496, 2494244435], "tags": {"addr:city": "Brooklyn", "addr:country": "US", "addr:housenumber": "265", "addr:postcode": "11231", "addr:state": "NY", "addr:street": "Court Street", "amenity": "cinema", "building": "yes", "ele": "12", "gnis:county_name": "Kings", "gnis:feature_id": "2507692", "gnis:import_uuid": "57871b70-0100-4405-bb30-88b2e001a944", "gnis:reviewed": "no", "height": "12.7", "name": "Cobble Hill Cinemas", "nycdoitt:bin": "3006487", "source": "USGS Geonames", "website": "http://www.cobblehilltheatre.com/", "wikidata": "Q45033050"}}, {"type": "way", "id": 247463420, "nodes": [2543458226, 2543458193, 2543458214, 2543458199, 2543458197, 2543458190, 2543458185, 2543458182, 2543458176, 2543458174, 2543458170, 2543458172, 2543458178, 2543458184, 2543458187, 2543458157, 2543458147, 2543458168, 2543458149, 2543458160, 2543458152, 2543458209, 2543458202, 2543458278, 2543458275, 2543458288, 2543458299, 2543458357, 2543458366, 2543458377, 2543458385, 2543458383, 2543456668, 2543458394, 2543458419, 2543458413, 2543458416, 2543458374, 2543458380, 2543458363, 2543458360, 2543458302, 2543458290, 2543458263, 2543458255, 2543458246, 2543458243, 2543458234, 2543458226], "tags": {"addr:housenumber": "2784", "addr:postcode": "11208", "addr:street": "Linden Boulevard", "amenity": "cinema", "building": "yes", "height": "12.2", "name": "Multiplex Cinemas", "nycdoitt:bin": "3098764", "wikidata": "Q45033391"}}, {"type": "way", "id": 247852538, "nodes": [2547137407, 2547137423, 2547137460, 2547137544, 2547137576, 2547137557, 2547137624, 2547137646, 2547137655, 2547137737, 2547137585, 2547137215, 2547137323, 2547137407], "tags": {"addr:city": "New York", "addr:housenumber": "181-189", "addr:postcode": "10003", "addr:state": "NY", "addr:street": "2nd Avenue", "amenity": "cinema", "building": "yes", "ele": "10", "gnis:feature_id": "2072042", "height": "23.9", "name": "Village East Cinema", "nycdoitt:bin": "1006836", "old_name": "Louis N. Jaffe Art Theatre", "start_date": "1926", "wheelchair": "no", "wikidata": "Q29097592", "wikipedia": "en:Village East Cinema"}}, {"type": "way", "id": 248518963, "nodes": [2552914654, 2552914639, 2552914617, 2552914596, 2552914582, 2552914577, 2552914588, 2552914564, 2552914611, 2552914607, 2552914659, 2552914665, 2552914664, 2552914650, 2552914672, 2552914666, 2552914673, 2552914679, 2552914687, 2552914676, 2552914699, 2552914685, 2552914654], "tags": {"addr:housenumber": "190-02", "addr:postcode": "11365", "addr:street": "Horace Harding Expressway Sr S", "amenity": "cinema", "brand": "AMC", "brand:wikidata": "Q294721", "brand:wikipedia": "en:AMC Theatres", "building": "yes", "height": "16.7", "name": "AMC Fresh Meadows", "nycdoitt:bin": "4444053", "wikidata": "Q45019680"}}, {"type": "way", "id": 248809771, "nodes": [2555442933, 2555442912, 2555442827, 2555442857, 2555442826, 2555442836, 2555442872, 2555442880, 2555443177, 2555443158, 2555443148, 2555443103, 2555443107, 2555443094, 2555443031, 2555443008, 2555442984, 2555442933], "tags": {"addr:city": "Forest Hills", "addr:housenumber": "106-05", "addr:postcode": "11375", "addr:state": "NY", "addr:street": "Metropolitan Avenue", "amenity": "cinema", "building": "yes", "height": "13.5", "name": "Cinemart Theatres", "nycdoitt:bin": "4078076", "screen": "5", "website": "https://www.cinemartcinemas.com/", "wikidata": "Q45019610"}}, {"type": "way", "id": 249665303, "nodes": [2562454762, 5857666603, 5857666600, 2562454733, 2562454757, 2562454759, 2562454772, 2562454771, 2562454762], "tags": {"addr:housenumber": "323", "addr:postcode": "10014", "addr:street": "6th Avenue", "amenity": "cinema", "building": "yes", "email": "info@ifccenter.com", "height": "15.2", "name": "IFC Center", "nycdoitt:bin": "1010072", "payment:cash": "yes", "payment:credit_cards": "yes", "phone": "+1-212-924-7771", "toilets": "yes", "toilets:access": "customers", "toilets:unisex": "no", "website": "https://www.ifccenter.com/", "wikidata": "Q5970652", "wikipedia": "en:IFC Center"}}, {"type": "way", "id": 249785292, "nodes": [2563417804, 368053169, 2563417637, 2563417785, 2563417804], "tags": {"addr:city": "Brooklyn", "addr:housenumber": "1170", "addr:postcode": "11230", "addr:state": "NY", "addr:street": "Coney Island Avenue", "amenity": "cinema", "building": "yes", "ele": "12", "gnis:county_name": "Kings", "gnis:feature_id": "2499548", "gnis:import_uuid": "57871b70-0100-4405-bb30-88b2e001a944", "gnis:reviewed": "no", "height": "10.1", "name": "Kent Theater", "nycdoitt:bin": "3170579", "source": "USGS Geonames", "website": "https://www.kenttheater.com/", "wikidata": "Q45033838"}}, {"type": "way", "id": 264650628, "nodes": [2703092945, 2703092928, 2703092877, 2703092831, 2703092815, 2703092872, 2703092998, 2703092999, 2703093012, 2703093054, 2703093043, 2703093086, 2703093048, 2703092971, 2703092945], "tags": {"addr:city": "New York", "addr:country": "US", "addr:housenumber": "260", "addr:postcode": "10011", "addr:state": "NY", "addr:street": "West 23rd Street", "alt_name": "Clearview", "amenity": "cinema", "brand": "Cinepolis", "brand:wikidata": "Q5686673", "building": "yes", "height": "29.3", "name": "Cin\u00e9polis Chelsea", "nycdoitt:bin": "1080525", "website": "https://www.cinepolisusa.com/our-locations/x0qt2-cinepolis-chelsea", "wikidata": "Q45101444"}}, {"type": "way", "id": 264651626, "nodes": [2703115828, 2703115829, 2703115826, 9569739936, 2501879029, 9569739940, 2703115801, 2703115811, 2703115823, 2703115831, 2703115837, 7105939411, 2703115867, 2703115873, 2703115858, 2703115839, 2703115835, 2703115828], "tags": {"addr:city": "New York", "addr:housenumber": "333", "addr:postcode": "10011", "addr:state": "NY", "addr:street": "West 23rd Street", "amenity": "cinema", "building": "college", "height": "10.8", "name": "SVA Theater", "nycdoitt:bin": "1078542", "screen": "2", "source": "Local Knowledge;local_knowledge", "website": "https://www.svatheatre.com/", "wikidata": "Q45101554"}}, {"type": "way", "id": 265147960, "nodes": [2708083633, 2708083637, 2708083639, 2708083645, 2708083643, 2708083649, 2708083644, 2708083641, 2708083634, 2708083633], "tags": {"addr:housenumber": "4", "addr:postcode": "10019", "addr:street": "West 58th Street", "amenity": "cinema", "brand": "Netflix", "building": "yes", "capacity": "581", "height": "57.6", "name": "Paris Theatre", "nycdoitt:bin": "1035074", "operator": "Netflix", "phone": "+1 212-823-8945", "screen": "1", "start_date": "1948", "website": "https://www.paristheaternyc.com/", "wikidata": "Q7756121", "wikipedia": "en:The Paris Theater (Manhattan)"}}, {"type": "way", "id": 266143298, "nodes": [2717223541, 5651033387, 2717223543, 2717223551, 5651033396, 5651033394, 5651033392, 5651033388, 5651033389, 5651033393, 5651033395, 2717223549, 2717223541], "tags": {"addr:city": "New York", "addr:housenumber": "234", "addr:postcode": "10036", "addr:street": "West 42nd Street", "amenity": "cinema", "brand": "AMC", "brand:wikidata": "Q294721", "brand:wikipedia": "en:AMC Theatres", "building": "yes", "height": "35", "name": "AMC Empire 25", "nycdoitt:bin": "1024669", "phone": "+12123982597", "website": "https://www.amctheatres.com/movie-theatres/amc-empire-25", "wikidata": "Q15032136", "wikipedia": "en:Empire Theatre (42nd Street)"}}, {"type": "way", "id": 266217091, "nodes": [2717902232, 2717902203, 2717902206, 3179634981, 3179634986, 3179634987, 3179634988, 2717902222, 2717902262, 2717902252, 2717902234, 2717902232], "tags": {"addr:city": "New York", "addr:housenumber": "1001", "addr:postcode": "10022", "addr:state": "NY", "addr:street": "3rd Avenue", "amenity": "cinema", "brand": "Angelika Film Center", "brand:wikidata": "Q4762705", "brand:wikipedia": "en: Angelika Film Center", "building": "cinema", "contact:email": "cinemas123@readingrdi.com", "contact:facebook": "cinema123byangelika", "contact:instagram": "cinema123byangelika", "contact:phone": "+1 212-753-6022", "contact:website": "https://www.angelikafilmcenter.com/cinemas123", "height": "13.8", "name": "Cinema 123 by Angelika", "nycdoitt:bin": "1043357", "wikidata": "Q45109296"}}, {"type": "way", "id": 278135379, "nodes": [2825590353, 2825590354, 2825590355, 2825590356, 2825590357, 2825590358, 2825590359, 2825590360, 2825590361, 2825590362, 2825590363, 2825590364, 2825590365, 2825590366, 2825590367, 2825590368, 2825590369, 2825590370, 2825590371, 2825590372, 2825590373, 2825590374, 2825590375, 2825590376, 2825590377, 2825590378, 2825590379, 2825590353], "tags": {"addr:city": "Secaucus", "addr:housenumber": "650", "addr:postcode": "07094", "addr:state": "NJ", "addr:street": "Plaza Drive", "amenity": "cinema", "building": "yes", "name": "ShowPlace Theatres", "phone": "+1 (201) 210-5364", "website": "https://www.showplaceicon.com/browsing/cinemas/details/8875", "wikidata": "Q43022428"}}, {"type": "way", "id": 285139431, "nodes": [2888166429, 2888166430, 2888166418, 2888166416, 2888166421, 2888166419, 2888166420, 2888166424, 2888166423, 2888166426, 2888166425, 2888166436, 5438364705, 2888166452, 2888166444, 2888166443, 5438364707, 2888166432, 2888166429], "tags": {"addr:city": "Brooklyn", "addr:housenumber": "3907", "addr:postcode": "11235", "addr:state": "NY", "addr:street": "Shore Parkway", "air_conditioning": "yes", "amenity": "cinema", "building": "yes", "check_date": "2023-02-24", "height": "10.9", "name": "UA Sheepshead Bay Stadium 14 IMAX & RPX", "nycdoitt:bin": "3248657", "payment:cash": "yes", "payment:contactless": "yes", "payment:credit_cards": "yes", "payment:debit_cards": "yes", "phone": "+1-844-462-7342", "website": "https://www.regmovies.com/theaters/ua-sheepshead-bay-stadium-14-imax-rpx/C00163723016", "wheelchair": "yes", "wikidata": "Q45034159"}}, {"type": "way", "id": 317884696, "nodes": [3242102025, 3242102030, 3242102029, 3242102027, 3242102028, 3242102024, 3242102023, 3242102018, 3242102016, 3242102017, 3242102019, 3242102020, 3242102021, 3242102022, 3242102025], "tags": {"addr:city": "Jersey City", "addr:country": "US", "addr:housenumber": "54", "addr:postcode": "07306", "addr:state": "NJ", "addr:street": "Journal Square Plaza", "amenity": "cinema", "building": "yes", "contact:phone": "+1 201 798 6055", "contact:website": "http://www.loewsjersey.org/", "name": "Loew's Jersey Theatre", "wikidata": "Q6666598", "wikipedia": "en:Loew's Jersey Theatre"}}, {"type": "way", "id": 366521781, "nodes": [3705050850, 3705050870, 3705050867, 3705050861, 3705050863, 3705050850], "tags": {"amenity": "cinema", "building": "yes", "name": "Columbia Park Theaters", "screen": "12", "website": "http://www.columbiaparkcinemas.com/", "wikidata": "Q43020898"}}, {"type": "way", "id": 400862092, "nodes": [4033627709, 4033627711, 4033627712, 4033627714, 4033627715, 4033627718, 4033627716, 7120019253, 4033627709], "tags": {"addr:city": "Hoboken", "addr:housenumber": "409-415", "addr:postcode": "07030", "addr:state": "NJ", "addr:street": "14th Street", "amenity": "cinema", "building": "yes", "name": "Bow Tie Cinemas", "wikidata": "Q43018658"}}, {"type": "way", "id": 473375177, "nodes": [8665255045, 8665255093, 8665255016, 8665252898, 8665254973, 1756637133, 8665255062, 8665254958, 8665255122, 8665255046, 8665254974, 8665252899, 1756637127, 8665255121, 8665255106, 8665255032, 8665255107, 8665254944, 8665255031, 8665254957, 8665255045], "tags": {"amenity": "cinema", "building": "yes", "name": "Frank Theatres"}}, {"type": "way", "id": 552035034, "nodes": [5330468401, 5330468413, 5330468402, 5330468403, 5330468401], "tags": {"addr:city": "Fort Lee", "addr:housenumber": "2023", "addr:postcode": "07024", "addr:state": "NJ", "addr:street": "Hudson Street", "amenity": "cinema", "building": "yes", "name": "IPIC Fort Lee", "phone": "(201) 582-7100", "screen": "8", "website": "https://www.ipic.com/", "wikidata": "Q43018054"}}, {"type": "way", "id": 613239364, "nodes": [5803010146, 5803010147, 5803010148, 5803010149, 5803010150, 5803010151, 5803010146], "tags": {"amenity": "cinema", "building": "yes", "name": "Great Neck Cinemas at the Squire", "screen": "7", "website": "https://www.greatneckmovies.com/", "wikidata": "Q43038699"}}, {"type": "way", "id": 737700996, "nodes": [6906995947, 7821236139, 6906995951, 6906995949, 6906995955, 6906995956, 6906995950, 8285689833, 6906995947], "tags": {"addr:housenumber": "165", "addr:street": "Bricktown Way", "amenity": "cinema", "brand": "Regal Cinemas", "brand:wikidata": "Q835638", "brand:wikipedia": "en:Regal Cinemas", "building": "yes", "name": "Regal Bricktown Charleston", "screen": "10", "short_name": "Regal", "website": "https://www.regmovies.com/theatres/regal-bricktown-charleston/1419", "wikidata": "Q78168970"}}, {"type": "way", "id": 760267016, "nodes": [8405775893, 8397614610, 8397614609, 6219023477, 6219023476, 8316952737, 8397632479, 6169307705, 8397632480, 10241163202, 10241163203, 8316952443, 6219025492, 6169307706, 8397632487, 6710581345, 8397632469, 6219025493, 6219025494, 6219025495, 8397272582, 8397272583, 8397272584, 8397272590, 8397272591, 8397272592, 8397272594, 8397272597, 8397272601, 8397272603, 8397272617, 8397272618, 8397272633, 8397272632, 8397272631, 8397272638, 8397272640, 8397272641, 8397272646, 8397272645, 8405775893], "tags": {"amenity": "cinema", "brand": "AMC", "brand:wikidata": "Q294721", "brand:wikipedia": "en:AMC Theatres", "indoor": "room", "level": "1", "name": "AMC DINE-IN Staten Island 11", "screen": "11", "wikidata": "Q78916040"}}, {"type": "way", "id": 762405629, "nodes": [7123673082, 7123673081, 7123673080, 7123673083, 7123673084, 7123729885, 7123729886, 7123729887, 2552814004, 2552814020, 2552814013, 7123673082], "tags": {"addr:city": "Fresh Meadows", "addr:housenumber": "6825", "addr:postcode": "11365", "addr:state": "NY", "addr:street": "Fresh Meadow Lane", "amenity": "cinema", "building": "yes", "name": "Bombay Theatre", "wikidata": "Q45019716"}}, {"type": "way", "id": 783170196, "nodes": [7313847136, 7313847137, 7313847138, 7313847139, 7313847136], "tags": {"amenity": "cinema", "indoor": "room", "level": "0", "name": "Joseph D. Williams Science Theater", "screen": "1", "wikidata": "Q88106863"}}, {"type": "way", "id": 783170197, "nodes": [7313847140, 7313847150, 7313847151, 7313847141, 7313847152, 7313847142, 7313847143, 7313847144, 7313847145, 6125745489, 6125745492, 6125745486, 6125745178, 6125745182, 6125745496, 6125745179, 6125745180, 6125745176, 6125745498, 6125745505, 6125745507, 6125745501, 6125745503, 6125745497, 680190504, 7313847146, 7313847149, 7313847147, 7313847148, 7313847140], "tags": {"amenity": "cinema", "indoor": "room", "level": "0", "name": "IMAX Dome Theater", "wikidata": "Q43019191"}}, {"type": "way", "id": 854305050, "nodes": [7967026986, 9384326220, 9384326219, 7967026987, 7967026988, 7967026989, 7967026990, 7967026991, 7967026986], "tags": {"amenity": "cinema", "building": "yes", "name": "4D Theater"}}, {"type": "way", "id": 904206115, "nodes": [8397632419, 8397632417, 8397632476, 8397632477, 8397632478, 8397614616, 8397614615, 8397614606, 8397614614, 8397614601, 8397614613, 8397632418, 8397632419], "tags": {"amenity": "cinema", "brand": "AMC", "brand:wikidata": "Q294721", "brand:wikipedia": "en:AMC Theatres", "indoor": "room", "level": "0", "level:ref": "1F", "name": "AMC DINE-IN Staten Island 11"}}]}