{"version": 0.6, "generator": "Overpass API 0.7.60 f4c14d41", "osm3s": {"timestamp_osm_base": "2023-05-02T21:14:21Z", "copyright": "The data included in this document is from www.openstreetmap.org. The data is made available under ODbL."}, "elements": [{"type": "node", "id": 2363452817, "lat": 41.0567016, "lon": 28.9149366, "tags": {"amenity": "bank", "atm": "yes", "brand": "\u015eekerbank", "brand:wikidata": "Q6088369", "brand:wikipedia": "en:\u015eekerbank", "name": "\u015eekerbank"}}, {"type": "node", "id": 3724775267, "lat": 41.0988703, "lon": 28.9002902}, {"type": "node", "id": 3724775272, "lat": 41.0988802, "lon": 28.9001154}, {"type": "node", "id": 3724775292, "lat": 41.0989735, "lon": 28.9003004}, {"type": "node", "id": 3724775294, "lat": 41.0989834, "lon": 28.9001257}, {"type": "node", "id": 3724775713, "lat": 41.0999364, "lon": 28.8990515}, {"type": "node", "id": 3724775756, "lat": 41.1000388, "lon": 28.8990155}, {"type": "node", "id": 3724775763, "lat": 41.1000576, "lon": 28.8991096}, {"type": "node", "id": 3726047283, "lat": 41.099957, "lon": 28.899152, "tags": {"amenity": "bank", "atm": "yes", "brand": "Garanti Bankas\u0131", "brand:wikidata": "Q322962", "brand:wikipedia": "en:Garanti BBVA", "name": "Garanti Bankas\u0131", "opening_hours": "08:30-12:30,15:30-20:00"}}, {"type": "node", "id": 3726047292, "lat": 41.0983724, "lon": 28.9006453, "tags": {"amenity": "bank", "atm": "yes", "brand": "T\u00fcrkiye \u0130\u015f Bankas\u0131", "brand:wikidata": "Q909613", "brand:wikipedia": "en:\u0130\u015fbank", "name": "T\u00fcrkiye \u0130\u015f Bankas\u0131"}}, {"type": "node", "id": 3872913780, "lat": 41.0658013, "lon": 28.8312444, "tags": {"addr:city": "\u0130stanbul", "amenity": "bank", "atm": "yes", "name": "Bank Asya"}}, {"type": "node", "id": 3996193221, "lat": 41.0621453, "lon": 28.6875973, "tags": {"amenity": "bank", "brand": "T\u00fcrkiye \u0130\u015f Bankas\u0131", "brand:wikidata": "Q909613", "brand:wikipedia": "en:\u0130\u015fbank", "name": "T\u00fcrkiye \u0130\u015f Bankas\u0131"}}, {"type": "node", "id": 4554307580, "lat": 41.0589127, "lon": 28.9130158}, {"type": "node", "id": 4554307581, "lat": 41.0589498, "lon": 28.9132469}, {"type": "node", "id": 4554307583, "lat": 41.0588666, "lon": 28.9132437, "tags": {"amenity": "bank", "brand": "Akbank", "brand:wikidata": "Q416624", "brand:wikipedia": "tr:Akbank", "name": "Akbank"}}, {"type": "node", "id": 4562247223, "lat": 41.0722905, "lon": 28.8883512, "tags": {"amenity": "bank", "brand": "Ziraat Bankas\u0131", "brand:wikidata": "Q696003", "brand:wikipedia": "en:Ziraat Bank", "name": "Ziraat Bankas\u0131"}}, {"type": "node", "id": 4562247253, "lat": 41.0730697, "lon": 28.887179, "tags": {"amenity": "bank", "brand": "T\u00fcrkiye \u0130\u015f Bankas\u0131", "brand:wikidata": "Q909613", "brand:wikipedia": "en:\u0130\u015fbank", "name": "T\u00fcrkiye \u0130\u015f Bankas\u0131"}}, {"type": "node", "id": 4567458498, "lat": 41.0715382, "lon": 28.8892636, "tags": {"amenity": "bank", "name": "Albaraka T\u00fcrk"}}, {"type": "node", "id": 4569276774, "lat": 41.0583703, "lon": 28.9140552, "tags": {"amenity": "bank", "name": "A bank"}}, {"type": "node", "id": 4578102590, "lat": 41.05716, "lon": 28.911934}, {"type": "node", "id": 4578102591, "lat": 41.0571199, "lon": 28.9119045}, {"type": "node", "id": 4578102592, "lat": 41.0570032, "lon": 28.9120826}, {"type": "node", "id": 4578102593, "lat": 41.0570581, "lon": 28.9121353}, {"type": "node", "id": 4584319431, "lat": 41.0573158, "lon": 28.9116704, "tags": {"amenity": "bank", "brand": "Yap\u0131 Kredi", "brand:wikidata": "Q8049138", "brand:wikipedia": "en:Yap\u0131 Kredi", "name": "Yap\u0131 Kredi"}}, {"type": "node", "id": 4895723397, "lat": 41.0550085, "lon": 28.7911532, "tags": {"amenity": "bank", "atm": "yes", "brand": "T\u00fcrkiye \u0130\u015f Bankas\u0131", "brand:wikidata": "Q909613", "brand:wikipedia": "en:\u0130\u015fbank", "name": "T\u00fcrkiye \u0130\u015f Bankas\u0131"}}, {"type": "node", "id": 5274052761, "lat": 41.067606, "lon": 28.8971152, "tags": {"amenity": "bank", "brand": "Akbank", "brand:wikidata": "Q416624", "brand:wikipedia": "tr:Akbank", "name": "Akbank"}}, {"type": "node", "id": 5284636264, "lat": 41.0595479, "lon": 28.9136098, "tags": {"amenity": "bank", "atm": "yes", "brand": "T\u00fcrkiye \u0130\u015f Bankas\u0131", "brand:wikidata": "Q909613", "brand:wikipedia": "en:\u0130\u015fbank", "name": "T\u00fcrkiye \u0130\u015f Bankas\u0131"}}, {"type": "node", "id": 5285759001, "lat": 41.1073365, "lon": 28.8603507, "tags": {"amenity": "bank", "atm": "yes", "brand": "Akbank", "brand:wikidata": "Q416624", "brand:wikipedia": "tr:Akbank", "name": "Akbank"}}, {"type": "node", "id": 5285759002, "lat": 41.1072004, "lon": 28.8604265, "tags": {"amenity": "bank", "brand": "Vak\u0131f Kat\u0131l\u0131m", "brand:wikidata": "Q31188912", "brand:wikipedia": "tr:Vak\u0131f Kat\u0131l\u0131m Bankas\u0131", "name": "Vak\u0131f Kat\u0131l\u0131m"}}, {"type": "node", "id": 5285760856, "lat": 41.1047722, "lon": 28.8610481, "tags": {"amenity": "bank", "atm": "yes", "brand": "Kuveyt T\u00fcrk", "brand:wikidata": "Q6036058", "brand:wikipedia": "tr:Kuveyt T\u00fcrk", "name": "Kuveyt T\u00fcrk", "opening_hours": "Mo-Fr 09:00-17:00"}}, {"type": "node", "id": 5291873138, "lat": 41.1028028, "lon": 28.8624919, "tags": {"amenity": "bank", "brand": "QNB Finansbank", "brand:wikidata": "Q1416237", "brand:wikipedia": "en:QNB Finansbank", "name": "QNB Finansbank"}}, {"type": "node", "id": 5291873170, "lat": 41.0954571, "lon": 28.8637378, "tags": {"amenity": "bank", "atm": "yes", "brand": "Ziraat Bankas\u0131", "brand:wikidata": "Q696003", "brand:wikipedia": "en:Ziraat Bank", "name": "Ziraat Bankas\u0131", "opening_hours": "Mo-Fr 09:00-18:00"}}, {"type": "node", "id": 5291873171, "lat": 41.0953859, "lon": 28.863743, "tags": {"amenity": "bank", "atm": "yes", "brand": "Akbank", "brand:wikidata": "Q416624", "brand:wikipedia": "tr:Akbank", "name": "Akbank", "opening_hours": "Mo-Fr 09:00-18:00"}}, {"type": "node", "id": 5291873172, "lat": 41.0952953, "lon": 28.8637611, "tags": {"amenity": "bank", "atm": "yes", "brand": "Vak\u0131fbank", "brand:wikidata": "Q1148521", "brand:wikipedia": "en:Vak\u0131fBank", "name": "Vak\u0131fbank", "opening_hours": "Mo-Fr 09:00-17:00"}}, {"type": "node", "id": 5291873177, "lat": 41.0939776, "lon": 28.8640015, "tags": {"amenity": "bank", "atm": "yes", "branch": "Sultan\u00e7iftli\u011fi \u015eubesi", "brand": "Halkbank", "brand:wikidata": "Q3593818", "brand:wikipedia": "en:Halkbank a.d.", "name": "Halkbank", "opening_hours": "Mo-Fr 09:00-18:00"}}, {"type": "node", "id": 5291873189, "lat": 41.0913386, "lon": 28.8645264, "tags": {"amenity": "bank", "brand": "\u015eekerbank", "brand:wikidata": "Q6088369", "brand:wikipedia": "en:\u015eekerbank", "name": "\u015eekerbank"}}, {"type": "node", "id": 5291873330, "lat": 41.0590907, "lon": 28.9131924, "tags": {"amenity": "bank", "brand": "Garanti Bankas\u0131", "brand:wikidata": "Q322962", "brand:wikipedia": "en:Garanti BBVA", "name": "Garanti Bankas\u0131"}}, {"type": "node", "id": 5291970769, "lat": 41.0998281, "lon": 28.8628372, "tags": {"amenity": "bank", "atm": "yes", "brand": "Yap\u0131 Kredi", "brand:wikidata": "Q8049138", "brand:wikipedia": "en:Yap\u0131 ve Kredi Bankas\u0131", "name": "Yap\u0131 Kredi"}}, {"type": "node", "id": 5291970770, "lat": 41.099888, "lon": 28.8628068, "tags": {"amenity": "bank", "brand": "Garanti Bankas\u0131", "brand:wikidata": "Q322962", "brand:wikipedia": "en:Garanti Bank", "name": "Garanti Bankas\u0131"}}, {"type": "node", "id": 5291970775, "lat": 41.1024101, "lon": 28.8621869, "tags": {"amenity": "bank", "brand": "T\u00fcrkiye \u0130\u015f Bankas\u0131", "brand:wikidata": "Q909613", "brand:wikipedia": "en:\u0130\u015fbank", "name": "T\u00fcrkiye \u0130\u015f Bankas\u0131"}}, {"type": "node", "id": 5295117689, "lat": 41.1096894, "lon": 28.8587498, "tags": {"amenity": "bank", "atm": "yes", "brand": "Denizbank", "brand:wikidata": "Q1115064", "brand:wikipedia": "en:DenizBank", "name": "Denizbank"}}, {"type": "node", "id": 5295857853, "lat": 41.1081817, "lon": 28.8599786, "tags": {"amenity": "bank", "name": "T\u00fcrkiye Finans"}}, {"type": "node", "id": 5295857859, "lat": 41.1094302, "lon": 28.8594056, "tags": {"amenity": "bank", "brand": "ING", "brand:wikidata": "Q645708", "brand:wikipedia": "en:ING Group", "name": "ING"}}, {"type": "node", "id": 5295857871, "lat": 41.111177, "lon": 28.8585469, "tags": {"amenity": "bank", "brand": "T\u00fcrkiye \u0130\u015f Bankas\u0131", "brand:wikidata": "Q909613", "brand:wikipedia": "en:\u0130\u015fbank", "name": "T\u00fcrkiye \u0130\u015f Bankas\u0131"}}, {"type": "node", "id": 5295857873, "lat": 41.1123781, "lon": 28.8579545, "tags": {"amenity": "bank", "atm": "yes", "brand": "TEB", "brand:wikidata": "Q7862447", "brand:wikipedia": "en:T\u00fcrk Ekonomi Bankas\u0131", "name": "TEB"}}, {"type": "node", "id": 5295857874, "lat": 41.1124291, "lon": 28.8578774, "tags": {"amenity": "bank", "atm": "yes", "brand": "Vak\u0131fbank", "brand:wikidata": "Q1148521", "brand:wikipedia": "en:Vak\u0131fBank", "name": "Vak\u0131fbank"}}, {"type": "node", "id": 5295857875, "lat": 41.1125359, "lon": 28.8578466, "tags": {"amenity": "bank", "brand": "Ziraat Bankas\u0131", "brand:wikidata": "Q696003", "brand:wikipedia": "en:Ziraat Bank", "name": "Ziraat Bankas\u0131"}}, {"type": "node", "id": 5295861928, "lat": 41.1307534, "lon": 28.8367047, "tags": {"amenity": "bank", "brand": "Ziraat Bankas\u0131", "brand:wikidata": "Q696003", "brand:wikipedia": "en:Ziraat Bankas\u0131", "name": "Ziraat Bankas\u0131"}}, {"type": "node", "id": 5667670116, "lat": 41.0684868, "lon": 28.8250285, "tags": {"addr:city": "Istanbul", "addr:district": "Ba\u011fc\u0131lar", "addr:street": "3.Yol sokak", "amenity": "bank", "brand": "Vak\u0131fbank", "brand:wikidata": "Q1148521", "brand:wikipedia": "en:Vak\u0131fBank", "name": "Vak\u0131fbank", "name:ar": "\u0628\u0646\u0643 \u0648\u0642\u0641"}}, {"type": "node", "id": 5667671353, "lat": 41.0661747, "lon": 28.8283677, "tags": {"addr:city": "Istanbul", "addr:district": "Ba\u011fc\u0131lar", "addr:street": "3.Yol sokak", "amenity": "bank", "brand": "Vak\u0131fbank", "brand:wikidata": "Q1148521", "brand:wikipedia": "en:Vak\u0131fBank", "name": "Vak\u0131fbank", "name:ar": "\u0648\u0642\u0641 \u0643\u0627\u062a\u0644\u0645"}}, {"type": "node", "id": 5667671354, "lat": 41.0659618, "lon": 28.828642, "tags": {"addr:city": "Istanbul", "addr:district": "Ba\u011fc\u0131lar", "addr:street": "3.Yol sokak", "amenity": "bank", "name": "Albaraka T\u00fcrk", "name:ar": "\u0627\u0644\u0628\u0631\u0643\u0629"}}, {"type": "node", "id": 5667671363, "lat": 41.0651049, "lon": 28.8296458, "tags": {"addr:city": "Istanbul", "addr:district": "Ba\u011fc\u0131lar", "addr:street": "4.Yol sokak", "amenity": "bank", "brand": "QNB Finansbank", "brand:wikidata": "Q1416237", "brand:wikipedia": "en:QNB Finansbank", "name": "QNB Finansbank", "name:ar": "\u0643\u064a\u0648 \u0627\u0646 \u0628\u064a"}}, {"type": "node", "id": 5667673438, "lat": 41.0613102, "lon": 28.8547898, "tags": {"addr:city": "Istanbul", "addr:district": "Ba\u011fc\u0131lar", "addr:street": "Barbaros caddesi", "amenity": "bank", "brand": "Kuveyt T\u00fcrk", "brand:wikidata": "Q6036058", "brand:wikipedia": "tr:Kuveyt T\u00fcrk", "name": "Kuveyt T\u00fcrk", "name:ar": "\u0628\u0646\u0643 \u0643\u0648\u064a\u062a \u062a\u0631\u0643"}}, {"type": "node", "id": 5667673458, "lat": 41.0618709, "lon": 28.8548564, "tags": {"addr:city": "Istanbul", "addr:district": "Ba\u011fc\u0131lar", "addr:street": "Barbaros caddesi", "amenity": "bank", "brand": "QNB Finansbank", "brand:wikidata": "Q1416237", "name": "QNB Finansbank", "name:ar": "\u0628\u0646\u0643 \u0641\u064a\u0646\u0627\u0646\u0633 QNB"}}, {"type": "node", "id": 5667673555, "lat": 41.0621303, "lon": 28.8548564, "tags": {"addr:city": "Istanbul", "addr:district": "Ba\u011fc\u0131lar", "addr:street": "Barbaros caddesi", "amenity": "bank", "brand": "Ziraat Bankas\u0131", "brand:wikidata": "Q696003", "brand:wikipedia": "en:Ziraat Bankas\u0131", "name": "Ziraat Bankas\u0131", "name:ar": "\u0628\u0646\u0643 \u0632\u0631\u0627\u0639\u0627\u062a"}}, {"type": "node", "id": 5667675015, "lat": 41.0541463, "lon": 28.8377252, "tags": {"addr:city": "Istanbul", "addr:district": "Ba\u011fc\u0131lar", "addr:street": "Maslak caddesi", "amenity": "bank", "brand": "Kuveyt T\u00fcrk", "brand:wikidata": "Q6036058", "brand:wikipedia": "tr:Kuveyt T\u00fcrk", "name": "Kuveyt T\u00fcrk", "name:ar": "\u0628\u0646\u0643 \u0643\u0648\u064a\u062a \u062a\u0631\u0643"}}, {"type": "node", "id": 6176127321, "lat": 41.0735149, "lon": 28.9039855, "tags": {"amenity": "bank", "name": "Albaraka Turk"}}, {"type": "node", "id": 6359991085, "lat": 41.0767003, "lon": 28.7984562, "tags": {"amenity": "bank", "brand": "Kuveyt T\u00fcrk", "brand:wikidata": "Q6036058", "brand:wikipedia": "tr:Kuveyt T\u00fcrk", "name": "Kuveyt T\u00fcrk", "name:ar": "\u0627\u0644\u0643\u0648\u064a\u062a\u064a \u0627\u0644\u062a\u0631\u0643\u064a", "name:en": "Kwitturky", "opening_hours": "Mo-Th 08:30-12:30"}}, {"type": "node", "id": 6567288706, "lat": 41.0724923, "lon": 28.8109606, "tags": {"amenity": "bank", "atm": "yes", "branch": "\u0130kitelli \u015eubesi", "brand": "Alternatif Bank", "brand:wikidata": "Q4736403", "brand:wikipedia": "en:Alternatif Bank", "name": "Alternatif Bank", "operator": "Alternatif Bank", "phone": "02126714643"}}, {"type": "node", "id": 6788940104, "lat": 41.2651304, "lon": 28.7362631, "tags": {"amenity": "bank", "level": "1", "name": "Exchange office"}}, {"type": "node", "id": 6874291253, "lat": 41.1096178, "lon": 28.7885841, "tags": {"amenity": "bank", "brand": "T\u00fcrkiye \u0130\u015f Bankas\u0131", "brand:wikidata": "Q909613", "brand:wikipedia": "en:T\u00fcrkiye \u0130\u015f Bankas\u0131", "name": "T\u00fcrkiye \u0130\u015f Bankas\u0131"}}, {"type": "node", "id": 6874291254, "lat": 41.1095592, "lon": 28.7887148, "tags": {"amenity": "bank", "brand": "Halkbank", "brand:wikidata": "Q3593818", "brand:wikipedia": "en:Halkbank a.d.", "name": "Halkbank"}}, {"type": "node", "id": 6874291255, "lat": 41.1095319, "lon": 28.7886286, "tags": {"amenity": "bank", "brand": "Akbank", "brand:wikidata": "Q416624", "brand:wikipedia": "tr:Akbank", "name": "Akbank"}}, {"type": "node", "id": 6874291256, "lat": 41.1093831, "lon": 28.7889206, "tags": {"amenity": "bank", "brand": "QNB Finansbank", "brand:wikidata": "Q1416237", "brand:wikipedia": "en:Finansbank", "name": "QNB Finansbank"}}, {"type": "node", "id": 6874511168, "lat": 41.1037292, "lon": 28.7916299, "tags": {"amenity": "bank", "brand": "Ziraat Bankas\u0131", "brand:wikidata": "Q696003", "brand:wikipedia": "en:Ziraat Bankas\u0131", "name": "Ziraat Bankas\u0131"}}, {"type": "node", "id": 6942461212, "lat": 41.1085281, "lon": 28.7574422, "tags": {"amenity": "bank", "brand": "Kuveyt T\u00fcrk", "brand:wikidata": "Q6036058", "brand:wikipedia": "tr:Kuveyt T\u00fcrk", "name": "Kuveyt T\u00fcrk"}}, {"type": "node", "id": 6942461213, "lat": 41.1085362, "lon": 28.7576997, "tags": {"amenity": "bank", "brand": "\u0130\u015f Bankas\u0131", "brand:wikidata": "Q909613", "brand:wikipedia": "en:T\u00fcrkiye \u0130\u015f Bankas\u0131", "name": "\u0130\u015f Bankas\u0131"}}, {"type": "node", "id": 6965465550, "lat": 41.1071754, "lon": 28.8032053, "tags": {"amenity": "bank", "atm": "yes", "brand": "Kuveyt T\u00fcrk", "brand:wikidata": "Q6036058", "brand:wikipedia": "tr:Kuveyt T\u00fcrk", "name": "Kuveyt T\u00fcrk"}}, {"type": "node", "id": 7580370824, "lat": 41.0637685, "lon": 28.6875904, "tags": {"amenity": "bank", "brand": "Akbank", "brand:wikidata": "Q416624", "brand:wikipedia": "tr:Akbank", "name": "Akbank"}}, {"type": "node", "id": 7580394241, "lat": 41.0620669, "lon": 28.6876745, "tags": {"amenity": "bank", "brand": "Halkbank", "brand:wikidata": "Q3593818", "brand:wikipedia": "en:Halkbank a.d.", "name": "Halkbank", "operator": "halkbank"}}, {"type": "node", "id": 7580394242, "lat": 41.0624448, "lon": 28.6869855, "tags": {"amenity": "bank", "brand": "Yap\u0131 Kredi", "brand:wikidata": "Q8049138", "brand:wikipedia": "en:Yap\u0131 Kredi", "name": "Yap\u0131 Kredi", "operator": "yap\u0131 kredi"}}, {"type": "node", "id": 7580394243, "lat": 41.0624696, "lon": 28.6868107, "tags": {"amenity": "bank", "brand": "TEB", "brand:wikidata": "Q7862447", "brand:wikipedia": "en:T\u00fcrk Ekonomi Bankas\u0131", "name": "TEB", "operator": "TEB"}}, {"type": "node", "id": 7580394249, "lat": 41.0621847, "lon": 28.686472, "tags": {"amenity": "bank", "atm": "yes", "brand": "Vak\u0131fbank", "brand:wikidata": "Q1148521", "brand:wikipedia": "en:Vak\u0131fBank", "name": "Vak\u0131fbank", "operator": "vak\u0131fbank"}}, {"type": "node", "id": 7580394251, "lat": 41.0620146, "lon": 28.6868454, "tags": {"amenity": "bank", "atm": "yes", "brand": "Kuveyt T\u00fcrk", "brand:wikidata": "Q6036058", "brand:wikipedia": "tr:Kuveyt T\u00fcrk", "name": "Kuveyt T\u00fcrk", "operator": "kuveyt t\u00fcrk"}}, {"type": "node", "id": 7580394252, "lat": 41.0619541, "lon": 28.6870036, "tags": {"amenity": "bank", "brand": "Denizbank", "brand:wikidata": "Q1115064", "brand:wikipedia": "en:DenizBank", "name": "Denizbank", "operator": "Denizbank"}}, {"type": "node", "id": 7580423493, "lat": 41.0640347, "lon": 28.687144, "tags": {"amenity": "bank", "atm": "yes", "brand": "HSBC", "brand:wikidata": "Q190464", "brand:wikipedia": "en:HSBC", "name": "HSBC", "operator": "HSBC"}}, {"type": "node", "id": 7580423501, "lat": 41.0622597, "lon": 28.687161, "tags": {"amenity": "bank", "brand": "Denizbank", "brand:wikidata": "Q1115064", "brand:wikipedia": "en:DenizBank", "name": "Denizbank"}}, {"type": "node", "id": 7580520853, "lat": 41.0621693, "lon": 28.6873019, "tags": {"amenity": "bank", "brand": "Garanti Bankas\u0131", "brand:wikidata": "Q322962", "brand:wikipedia": "en:Garanti BBVA", "name": "Garanti Bankas\u0131"}}, {"type": "node", "id": 8306930592, "lat": 41.0974081, "lon": 28.8055004, "tags": {"amenity": "bank", "atm": "yes", "brand": "Kuveyt T\u00fcrk", "brand:wikidata": "Q6036058", "brand:wikipedia": "tr:Kuveyt T\u00fcrk", "drive_through": "no", "name": "Kuveyt T\u00fcrk"}}, {"type": "node", "id": 8322015986, "lat": 41.0659768, "lon": 28.8242269, "tags": {"amenity": "bank", "brand": "Vak\u0131fbank", "brand:wikidata": "Q1148521", "brand:wikipedia": "en:Vak\u0131fBank", "name": "Vak\u0131fbank"}}, {"type": "node", "id": 8322015988, "lat": 41.0647816, "lon": 28.8277272, "tags": {"amenity": "bank", "brand": "Yap\u0131 Kredi", "brand:wikidata": "Q8049138", "brand:wikipedia": "en:Yap\u0131 ve Kredi Bankas\u0131", "name": "Yap\u0131 Kredi"}}, {"type": "node", "id": 8322015989, "lat": 41.0648039, "lon": 28.8279981, "tags": {"amenity": "bank", "brand": "T\u00fcrkiye \u0130\u015f Bankas\u0131", "brand:wikidata": "Q909613", "brand:wikipedia": "en:T\u00fcrkiye \u0130\u015f Bankas\u0131", "name": "T\u00fcrkiye \u0130\u015f Bankas\u0131"}}, {"type": "node", "id": 8418643202, "lat": 41.099957, "lon": 28.899152}, {"type": "node", "id": 9253019319, "lat": 41.0638652, "lon": 28.6873367, "tags": {"amenity": "bank", "atm": "yes", "brand": "ING", "brand:wikidata": "Q645708", "brand:wikipedia": "en:ING Group", "name": "ING"}}, {"type": "node", "id": 9256546736, "lat": 41.1820684, "lon": 28.7435599, "tags": {"amenity": "bank", "name": "QNB Finansbank"}}, {"type": "node", "id": 9267519118, "lat": 41.0638726, "lon": 28.6878411, "tags": {"amenity": "bank", "name": "T\u00fcrkiye finas"}}, {"type": "node", "id": 9311065252, "lat": 41.0582255, "lon": 28.9169605, "tags": {"addr:city": "\u0130stanbul", "addr:district": "Gaziosmanpa\u015fa", "addr:neighbourhood": "Sar\u0131g\u00f6l Mahallesi", "addr:street": "\u00c7ukur\u00e7e\u015fme Caddesi", "amenity": "bank", "atm": "yes", "brand": "T\u00fcrkiye \u0130\u015f Bankas\u0131", "brand:wikidata": "Q909613", "brand:wikipedia": "en:\u0130\u015fbank", "name": "T\u00fcrkiye \u0130\u015f Bankas\u0131", "opening_hours": "Mo-Fr 08:00-17:00"}}, {"type": "node", "id": 9376485217, "lat": 41.0767296, "lon": 28.8096071, "tags": {"amenity": "bank", "name": "\u0628\u0646\u0643 \u0627\u0644\u0628\u0631\u0643\u0629"}}, {"type": "node", "id": 9520640598, "lat": 41.0576277, "lon": 28.9128847, "tags": {"addr:city": "\u0130stanbul", "addr:district": "Gaziosmanpa\u015fa", "addr:housenumber": "27/B", "addr:neighbourhood": "Merkez", "addr:postcode": "34245", "addr:street": "Cumhuriyet Meydan\u0131", "amenity": "bank", "atm": "yes", "branch": "Gaziosmanpa\u015fa 3", "brand": "ING", "brand:wikidata": "Q645708", "brand:wikipedia": "en:ING Group", "name": "ING"}}, {"type": "node", "id": 9520640599, "lat": 41.0575679, "lon": 28.9129833, "tags": {"addr:city": "\u0130stanbul", "addr:district": "Gaziosmanpa\u015fa", "addr:housenumber": "27/A", "addr:neighbourhood": "Merkez", "addr:postcode": "34245", "addr:street": "Cumhuriyet Meydan\u0131", "amenity": "bank", "atm": "yes", "branch": "Gaziosmanpa\u015fa \u00c7ar\u015f\u0131", "brand": "QNB Finansbank", "brand:wikidata": "Q1416237", "brand:wikipedia": "en:QNB Finansbank", "fax": "+90 212 417 0025", "name": "QNB Finansbank", "phone": "+90 212 417 1000"}}, {"type": "node", "id": 9520653518, "lat": 41.0574228, "lon": 28.9131971, "tags": {"addr:city": "\u0130stanbul", "addr:district": "Gaziosmanpa\u015fa", "addr:housenumber": "25/A", "addr:neighbourhood": "Merkez", "addr:postcode": "34245", "addr:street": "Cumhuriyet Meydan\u0131", "amenity": "bank", "atm": "yes", "branch": "Gaziosmanpa\u015fa", "brand": "Vak\u0131fbank", "brand:wikidata": "Q1148521", "brand:wikipedia": "en:Vak\u0131fBank", "fax": "+90 212 418 4603", "name": "Vak\u0131fbank", "phone": "+90 212 418 4600"}}, {"type": "node", "id": 9520653519, "lat": 41.0590198, "lon": 28.9129855}, {"type": "node", "id": 9520653520, "lat": 41.0590569, "lon": 28.9132166}, {"type": "node", "id": 9520653521, "lat": 41.0574978, "lon": 28.913101, "tags": {"addr:city": "\u0130stanbul", "addr:district": "Gaziosmanpa\u015fa", "addr:housenumber": "26/A", "addr:neighbourhood": "Merkez", "addr:postcode": "34245", "addr:street": "Cumhuriyet Meydan\u0131", "amenity": "bank", "atm": "yes", "branch": "Gaziosmanpa\u015fa", "brand": "Ziraat Kat\u0131l\u0131m", "brand:wikidata": "Q20476458", "brand:wikipedia": "en:Ziraat Kat\u0131l\u0131m", "fax": "+90 212 355 0741", "name": "Ziraat Kat\u0131l\u0131m", "phone": "+90 212 497 1258"}}, {"type": "node", "id": 9520653528, "lat": 41.057002, "lon": 28.9118243, "tags": {"addr:city": "\u0130stanbul", "addr:district": "Gaziosmanpa\u015fa", "addr:housenumber": "1/A", "addr:neighbourhood": "Merkez", "addr:postcode": "34245", "addr:street": "Salihpa\u015fa Caddesi", "amenity": "bank", "atm": "yes", "brand": "Vak\u0131f Kat\u0131l\u0131m", "brand:wikidata": "Q31188912", "brand:wikipedia": "tr:Vak\u0131f Kat\u0131l\u0131m Bankas\u0131", "email": "gaziosmanpasasube@vakifkatilim.com.tr", "fax": "+90 212 952 8193", "name": "Vak\u0131f Kat\u0131l\u0131m", "phone": "+90 850 582 6060"}}, {"type": "node", "id": 9520653529, "lat": 41.057096, "lon": 28.9118645, "tags": {"addr:city": "\u0130stanbul", "addr:district": "Gaziosmanpa\u015fa", "addr:housenumber": "54/A", "addr:neighbourhood": "Merkez", "addr:postcode": "34245", "addr:street": "Salihpa\u015fa Caddesi", "amenity": "bank", "atm": "yes", "branch": "Gaziosmanpa\u015fa", "brand": "Kuveyt T\u00fcrk", "brand:wikidata": "Q6036058", "brand:wikipedia": "tr:Kuveyt T\u00fcrk", "fax": "+90 212 615 5202", "name": "Kuveyt T\u00fcrk", "phone": "+90 212 615 5135"}}, {"type": "node", "id": 9901946629, "lat": 41.0872005, "lon": 28.9022524, "tags": {"amenity": "bank", "brand": "Denizbank", "brand:wikidata": "Q1115064", "name": "Denizbank", "opening_hours": "Mo-Fr 09:00-18:00"}}, {"type": "node", "id": 10098162909, "lat": 41.0888738, "lon": 28.8674939, "tags": {"amenity": "bank", "brand": "Kuveyt T\u00fcrk", "brand:wikidata": "Q6036058", "name": "Kuveyt T\u00fcrk", "operator": "Kuveytt\u00fcrk 50. Y\u0131l \u015eubesi"}}, {"type": "node", "id": 10104661329, "lat": 41.0817427, "lon": 28.9162061, "tags": {"amenity": "bank", "atm": "yes", "brand": "Garanti Bankas\u0131", "brand:wikidata": "Q322962", "name": "Garanti Bankas\u0131"}}, {"type": "node", "id": 10104661346, "lat": 41.0819911, "lon": 28.9157467, "tags": {"amenity": "bank", "atm": "yes", "brand": "Kuveyt T\u00fcrk", "brand:wikidata": "Q6036058", "name": "Kuveyt T\u00fcrk"}}, {"type": "node", "id": 10104661393, "lat": 41.0824819, "lon": 28.9141019, "tags": {"amenity": "bank", "atm": "yes", "brand": "T\u00fcrkiye \u0130\u015f Bankas\u0131", "brand:wikidata": "Q909613", "name": "T\u00fcrkiye \u0130\u015f Bankas\u0131"}}, {"type": "node", "id": 10104720033, "lat": 41.0819037, "lon": 28.9168806, "tags": {"amenity": "bank", "atm": "yes", "brand": "T\u00fcrkiye Finans", "name": "T\u00fcrkiye Finans Ye\u015filp\u0131nar"}}, {"type": "node", "id": 10104720034, "lat": 41.0819057, "lon": 28.9167707, "tags": {"amenity": "bank", "atm": "yes", "brand": "Yap\u0131 Kredi", "brand:wikidata": "Q8049138", "name": "Yap\u0131 Kredi"}}, {"type": "node", "id": 10110158176, "lat": 41.0762627, "lon": 28.9382458, "tags": {"amenity": "bank", "atm": "yes", "brand": "Yap\u0131 Kredi", "brand:wikidata": "Q8049138", "name": "Yap\u0131 Kredi", "natural": "tree"}}, {"type": "way", "id": 368626345, "nodes": [3724775294, 3724775292, 3724775267, 3724775272, 3724775294], "tags": {"amenity": "bank", "brand": "Vak\u0131fbank", "brand:wikidata": "Q1148521", "brand:wikipedia": "en:Vak\u0131fBank", "building": "yes", "name": "Vak\u0131fbank", "opening_hours": "08:30-12:30,13:30-17:00"}}, {"type": "way", "id": 368626373, "nodes": [3724775756, 3724775763, 8418643202, 3724775713, 3724775756], "tags": {"amenity": "bank", "brand": "Garanti Bankas\u0131", "brand:wikidata": "Q322962", "brand:wikipedia": "en:Garanti BBVA", "building": "yes", "name": "Garanti Bankas\u0131", "opening_hours": "08:30-12:30,15:30-17:00"}}, {"type": "way", "id": 462410889, "nodes": [4578102590, 4578102591, 4578102592, 4578102593, 4578102590], "tags": {"addr:city": "\u0130stanbul", "addr:district": "Gaziosmanpa\u015fa", "addr:housenumber": "56/A", "addr:neighbourhood": "Merkez", "addr:postcode": "34245", "addr:street": "Salihpa\u015fa Caddesi", "amenity": "bank", "atm": "yes", "branch": "Gaziosmanpa\u015fa", "brand": "Halkbank", "brand:wikidata": "Q3593818", "brand:wikipedia": "en:Halkbank a.d.", "building": "yes", "building:levels": "2", "fax": "+90 212 578 3088", "name": "Halkbank", "phone": "+90 212 453 4200"}}, {"type": "way", "id": 1033354885, "nodes": [9520653519, 9520653520, 4554307581, 4554307580, 9520653519], "tags": {"addr:city": "\u0130stanbul", "addr:district": "Gaziosmanpa\u015fa", "addr:housenumber": "11", "addr:neighbourhood": "Merkez", "addr:postcode": "34245", "addr:street": "K\u00fc\u00e7\u00fckk\u00f6y Caddesi", "amenity": "bank", "atm": "yes", "branch": "Gaziosmanpa\u015fa Meydan", "brand": "Ziraat Bankas\u0131", "brand:wikidata": "Q696003", "brand:wikipedia": "en:Ziraat Bank", "building": "yes", "building:levels": "1", "fax": "+90 212 418 6509", "name": "Ziraat Bankas\u0131", "phone": "+90 212 418 0303"}}]}