{"version": 0.6, "generator": "Overpass API 0.7.60 f4c14d41", "osm3s": {"timestamp_osm_base": "2023-05-02T21:17:24Z", "copyright": "The data included in this document is from www.openstreetmap.org. The data is made available under ODbL."}, "elements": [{"type": "node", "id": 448610128, "lat": -33.8971544, "lon": 150.9000823, "tags": {"addr:housenumber": "254", "addr:postcode": "2170", "addr:state": "NSW", "addr:street": "Humphries Road", "addr:suburb": "Mount Pritchard", "amenity": "bar", "name": "Mounties", "toilets:wheelchair": "yes", "wheelchair": "yes"}}, {"type": "node", "id": 448610264, "lat": -33.8959254, "lon": 150.8987178, "tags": {"amenity": "bar"}}, {"type": "node", "id": 448630969, "lat": -33.8730242, "lon": 150.9576525, "tags": {"amenity": "bar"}}, {"type": "node", "id": 520737712, "lat": -33.9552924, "lon": 150.9570911, "tags": {"amenity": "bar", "name": "Moorebank Sports Club"}}, {"type": "node", "id": 4544520590, "lat": -33.9305258, "lon": 150.8877878, "tags": {"amenity": "bar", "name": "Coffee to go", "name:en": "Coffee to go"}}, {"type": "node", "id": 4544561398, "lat": -33.9193127, "lon": 150.9240619, "tags": {"amenity": "bar", "name": "Top Juice", "name:en": "Top Juice"}}, {"type": "node", "id": 4544562693, "lat": -33.9196315, "lon": 150.9242929, "tags": {"amenity": "bar", "name": "Vine & Grind", "name:en": "Vine & Grind"}}, {"type": "node", "id": 4544607495, "lat": -33.9192482, "lon": 150.924088, "tags": {"amenity": "bar", "name": "Kremabar", "name:en": "Kremabar"}}, {"type": "node", "id": 4544607496, "lat": -33.9192435, "lon": 150.9239971, "tags": {"amenity": "bar", "name": "Gong Cha", "name:en": "Gong Cha"}}, {"type": "node", "id": 4544612297, "lat": -33.9189727, "lon": 150.9246529, "tags": {"amenity": "bar", "name": "Boost", "name:en": "Boost"}}, {"type": "node", "id": 4544639390, "lat": -33.9190945, "lon": 150.924222, "tags": {"amenity": "bar", "name": "Tropical Sensation", "name:en": "Tropical Sensation"}}, {"type": "node", "id": 4546319591, "lat": -33.9216878, "lon": 150.9236811, "tags": {"amenity": "bar", "name": "Casanova", "name:en": "Casanova"}}, {"type": "node", "id": 4547808291, "lat": -33.9184251, "lon": 150.9238175, "tags": {"amenity": "bar", "name": "New Zealand Natural", "name:en": "New Zealand Natural"}}, {"type": "node", "id": 4547810597, "lat": -33.8644833, "lon": 150.8801879, "tags": {"amenity": "bar"}}, {"type": "node", "id": 4547813500, "lat": -33.864877, "lon": 150.8801434, "tags": {"amenity": "bar"}}, {"type": "node", "id": 5015823921, "lat": -33.928819, "lon": 150.8747766, "tags": {"amenity": "bar", "name": "Liverpool Catholic Club", "wheelchair": "yes"}}, {"type": "node", "id": 6403334285, "lat": -34.0544634, "lon": 150.6965083, "tags": {"amenity": "bar", "name": "Upstairs Freds"}}, {"type": "node", "id": 7005762986, "lat": -34.0395852, "lon": 150.7371648, "tags": {"amenity": "bar", "name": "The Village", "wheelchair": "yes"}}, {"type": "node", "id": 8070109285, "lat": -34.0549768, "lon": 150.6952032, "tags": {"amenity": "bar", "name": "Barenz Bar and Restaurant"}}, {"type": "node", "id": 8157325917, "lat": -34.0728071, "lon": 150.7976884, "tags": {"amenity": "bar", "name": "The Bavarian"}}, {"type": "node", "id": 8456133529, "lat": -34.0506869, "lon": 150.8282392, "tags": {"amenity": "bar", "name": "Beershed Brewery"}}, {"type": "node", "id": 8584616217, "lat": -34.0555839, "lon": 150.6938511, "tags": {"amenity": "bar", "name": "Dirty Bird Camden"}}, {"type": "node", "id": 9170548975, "lat": -33.8835842, "lon": 150.9248241, "tags": {"addr:housenumber": "235", "addr:street": "Canley Vale Road", "amenity": "bar", "name": "Blackcow Cocktail Bar"}}, {"type": "node", "id": 9173759539, "lat": -33.8864159, "lon": 150.9405639, "tags": {"amenity": "bar", "name": "Bar 53"}}, {"type": "node", "id": 9365266976, "lat": -33.7677799, "lon": 150.7740484, "tags": {"amenity": "bar", "name": "Kulture Bar"}}]}