{"version": 0.6, "generator": "Overpass API 0.7.60 f4c14d41", "osm3s": {"timestamp_osm_base": "2023-05-02T21:16:21Z", "copyright": "The data included in this document is from www.openstreetmap.org. The data is made available under ODbL."}, "elements": [{"type": "node", "id": 414982463, "lat": 41.0537075, "lon": 28.9335372, "tags": {"amenity": "cafe", "cuisine": "coffee_shop", "name": "Pierre Loti Kahvehanesi", "name:de": "Pierre-Loti-Caf\u00e9", "source": "GPS"}}, {"type": "node", "id": 1303790856, "lat": 41.0657829, "lon": 28.9603898, "tags": {"amenity": "cafe", "cuisine": "turkish", "internet_access": "wlan", "name": "Keyf-i Sadabat Cafe", "name:ar": "\u0645\u0642\u0647\u0649 \u0643\u064a\u0641\u064a \u0633\u0627\u062f\u0627\u0628\u0627\u062a"}}, {"type": "node", "id": 2084393630, "lat": 41.0625786, "lon": 28.6854147, "tags": {"amenity": "cafe", "brand": "Kahve D\u00fcnyas\u0131", "brand:wikidata": "Q28008050", "cuisine": "coffee_shop", "name": "Kahve D\u00fcnyas\u0131", "takeaway": "yes"}}, {"type": "node", "id": 2363440350, "lat": 41.0567006, "lon": 28.9155319, "tags": {"amenity": "cafe", "name": "GOPARK Kafe"}}, {"type": "node", "id": 2382887181, "lat": 41.0960228, "lon": 28.8996222, "tags": {"amenity": "cafe"}}, {"type": "node", "id": 2585173494, "lat": 41.1554648, "lon": 28.674623}, {"type": "node", "id": 2585173495, "lat": 41.1554769, "lon": 28.6747303}, {"type": "node", "id": 2585173496, "lat": 41.1553342, "lon": 28.674756}, {"type": "node", "id": 2585173497, "lat": 41.1553169, "lon": 28.6746648}, {"type": "node", "id": 2585174052, "lat": 41.1557263, "lon": 28.6742393, "tags": {"amenity": "cafe", "name": "K\u00f6y kahvesi - \u00c7ayoca\u011f\u0131"}}, {"type": "node", "id": 2585174053, "lat": 41.1557576, "lon": 28.6747035, "tags": {"amenity": "cafe", "name": "K\u00f6y kahvesi - \u00c7ayoca\u011f\u0131"}}, {"type": "node", "id": 2585538007, "lat": 41.2039469, "lon": 28.6362945}, {"type": "node", "id": 2585538008, "lat": 41.2039953, "lon": 28.6363857}, {"type": "node", "id": 2585538009, "lat": 41.2039307, "lon": 28.6364769}, {"type": "node", "id": 2585538010, "lat": 41.2038581, "lon": 28.636375}, {"type": "node", "id": 2600613660, "lat": 41.2624274, "lon": 28.6276878, "tags": {"amenity": "cafe", "name": "Boyal\u0131k K\u00f6y Kahvesi"}}, {"type": "node", "id": 2612809619, "lat": 41.1556728, "lon": 28.7124866}, {"type": "node", "id": 2612809620, "lat": 41.1556405, "lon": 28.7125912}, {"type": "node", "id": 2612810225, "lat": 41.1555802, "lon": 28.7125532}, {"type": "node", "id": 2612810228, "lat": 41.1555984, "lon": 28.7124427}, {"type": "node", "id": 2800893196, "lat": 41.1105462, "lon": 28.8066319}, {"type": "node", "id": 2800893197, "lat": 41.1102833, "lon": 28.8066421}, {"type": "node", "id": 2800893198, "lat": 41.1102875, "lon": 28.8068285}, {"type": "node", "id": 2800893199, "lat": 41.1105276, "lon": 28.8068191}, {"type": "node", "id": 2960355980, "lat": 41.0752727, "lon": 28.6824314}, {"type": "node", "id": 2960355982, "lat": 41.0753377, "lon": 28.6827884}, {"type": "node", "id": 2960355987, "lat": 41.0755164, "lon": 28.6823534}, {"type": "node", "id": 2960355990, "lat": 41.0755813, "lon": 28.6827104}, {"type": "node", "id": 3245348477, "lat": 41.0731282, "lon": 28.9061613, "tags": {"amenity": "cafe", "cuisine": "burger", "internet_access": "wlan", "name": "Validesuyu Cafe", "opening_hours": "09:00-23:00", "smoking": "separated"}}, {"type": "node", "id": 3724775456, "lat": 41.0992832, "lon": 28.8999148}, {"type": "node", "id": 3724775492, "lat": 41.099508, "lon": 28.8999407}, {"type": "node", "id": 3724775494, "lat": 41.0995184, "lon": 28.8997419}, {"type": "node", "id": 3724775729, "lat": 41.099962, "lon": 28.8998104}, {"type": "node", "id": 3724775732, "lat": 41.0999722, "lon": 28.8996423}, {"type": "node", "id": 3724775770, "lat": 41.1000795, "lon": 28.899823}, {"type": "node", "id": 3724775773, "lat": 41.1000897, "lon": 28.8996549}, {"type": "node", "id": 4254745515, "lat": 41.0785671, "lon": 28.9296896, "tags": {"addr:street": "Kalender Sokak", "amenity": "cafe", "internet_access": "wlan", "name": "Ekin \u0130nternet Cafe"}}, {"type": "node", "id": 4255703891, "lat": 41.0784397, "lon": 28.9300247, "tags": {"addr:street": "Veysel Karani Caddesi", "amenity": "cafe", "name": "Meng\u00fclo\u011flu Pastanesi"}}, {"type": "node", "id": 4444500591, "lat": 41.0629217, "lon": 28.6862047, "tags": {"amenity": "cafe", "brand": "Starbucks", "brand:wikidata": "Q37158", "brand:wikipedia": "en:Starbucks", "cuisine": "coffee_shop", "name": "Starbucks", "name:en": "Starbucks", "name:tr": "Starbucks", "official_name": "Starbucks Coffee", "takeaway": "yes"}}, {"type": "node", "id": 4444577697, "lat": 41.0628789, "lon": 28.6857795, "tags": {"amenity": "cafe", "brand": "Mado", "brand:wikidata": "Q17116336", "brand:wikipedia": "en:Mado (food company)", "cuisine": "coffee_shop", "name": "Mado", "name:en": "Mado", "name:tr": "Mado", "opening_hours": "Mo-Su 10:00-23:00", "takeaway": "yes"}}, {"type": "node", "id": 4545352695, "lat": 41.0743262, "lon": 28.8879239, "tags": {"amenity": "cafe"}}, {"type": "node", "id": 4576781444, "lat": 41.0632773, "lon": 28.8085459, "tags": {"amenity": "cafe", "name": "\u00d6zs\u00fct"}}, {"type": "node", "id": 4668657489, "lat": 41.0750182, "lon": 28.9471648, "tags": {"amenity": "cafe", "name": "Osmanl\u0131 Saray Kaday\u0131f\u0131", "name:ar": "Osmanl\u0131 Saray Kaday\u0131f\u0131 \u0643\u0646\u0627\u0641\u0629"}}, {"type": "node", "id": 4678516793, "lat": 41.0639766, "lon": 28.7136008, "tags": {"amenity": "cafe", "name:ar": "\u0645\u0642\u0647\u0649 Guneli Firin"}}, {"type": "node", "id": 4678542394, "lat": 41.1077774, "lon": 28.803151, "tags": {"amenity": "cafe", "name": "G\u00fcneli", "name:en": "Guneli Firin"}}, {"type": "node", "id": 4678563089, "lat": 41.1199831, "lon": 28.8072826, "tags": {"amenity": "cafe", "name:ar": "Guneli Firin \u0662\u0645\u0642\u0647\u0649"}}, {"type": "node", "id": 4678565489, "lat": 41.1146304, "lon": 28.8105094, "tags": {"amenity": "cafe", "name:en": "Guneli Firin"}}, {"type": "node", "id": 4828932822, "lat": 41.0792522, "lon": 28.9319284, "tags": {"amenity": "cafe", "name": "Kahve Deposu", "name:tr": "Kahve Deposu"}}, {"type": "node", "id": 4828934022, "lat": 41.0804507, "lon": 28.9328922, "tags": {"amenity": "cafe", "name": "Paradise cafe"}}, {"type": "node", "id": 4890130515, "lat": 41.0539459, "lon": 28.7906431, "tags": {"amenity": "cafe", "brand": "Starbucks", "brand:wikidata": "Q37158", "brand:wikipedia": "en:Starbucks", "cuisine": "coffee_shop", "name": "Starbucks", "official_name": "Starbucks Coffee", "takeaway": "yes"}}, {"type": "node", "id": 4890130518, "lat": 41.0542296, "lon": 28.790486, "tags": {"amenity": "cafe", "name": "Benzin"}}, {"type": "node", "id": 4890150630, "lat": 41.0557361, "lon": 28.7862134, "tags": {"amenity": "cafe", "name": "Big Mamma's"}}, {"type": "node", "id": 4901385764, "lat": 41.0550092, "lon": 28.8639128}, {"type": "node", "id": 4901385765, "lat": 41.0548557, "lon": 28.8638308}, {"type": "node", "id": 4901385767, "lat": 41.0548467, "lon": 28.8638525}, {"type": "node", "id": 4901385850, "lat": 41.0550401, "lon": 28.8639229}, {"type": "node", "id": 4901385851, "lat": 41.0550252, "lon": 28.8640792}, {"type": "node", "id": 4901386005, "lat": 41.0549883, "lon": 28.8638545}, {"type": "node", "id": 4901386006, "lat": 41.0548261, "lon": 28.8640443}, {"type": "node", "id": 5085220821, "lat": 41.0635856, "lon": 28.8069614, "tags": {"amenity": "cafe", "brand": "Starbucks", "brand:wikidata": "Q37158", "brand:wikipedia": "en:Starbucks", "cuisine": "coffee_shop", "internet_access": "wlan", "internet_access:fee": "customers", "name": "Starbucks", "official_name": "Starbucks Coffee", "opening_hours": "Mo-Su 09:00-21:00", "opening_hours:covid19": "same", "outdoor_seating": "yes", "takeaway": "yes"}}, {"type": "node", "id": 5136091221, "lat": 41.0808992, "lon": 28.8781949, "tags": {"amenity": "cafe", "name": "G\u00f6n\u00fcl kahvesi", "opening_hours": "Mo-Su 09:00-23:00"}}, {"type": "node", "id": 5273428798, "lat": 41.0686617, "lon": 28.8957644, "tags": {"amenity": "cafe", "internet_access": "yes", "name": "Ye\u015fil\u00e7am Kahve Evi", "smoking": "yes"}}, {"type": "node", "id": 5273428799, "lat": 41.0685363, "lon": 28.8959369, "tags": {"amenity": "cafe", "name": "Simit Saray\u0131"}}, {"type": "node", "id": 5273428800, "lat": 41.068369, "lon": 28.8953392, "tags": {"amenity": "cafe", "name": "Girne"}}, {"type": "node", "id": 5274052771, "lat": 41.0800907, "lon": 28.8778987, "tags": {"amenity": "cafe", "brand": "Mado", "brand:wikidata": "Q17116336", "brand:wikipedia": "en:Mado (food company)", "cuisine": "coffee_shop", "name": "Mado", "outdoor_seating": "yes", "smoking": "separated", "takeaway": "yes"}}, {"type": "node", "id": 5274052773, "lat": 41.0802694, "lon": 28.878017, "tags": {"amenity": "cafe", "name": "Simit Saray\u0131", "outdoor_seating": "yes", "smoking": "separated"}}, {"type": "node", "id": 5274052776, "lat": 41.0807968, "lon": 28.8780696, "tags": {"amenity": "cafe", "cuisine": "coffee_shop", "name": "Cafe De Marjin", "outdoor_seating": "yes", "smoking": "separated"}}, {"type": "node", "id": 5274052778, "lat": 41.0706678, "lon": 28.8861475, "tags": {"amenity": "cafe", "cuisine": "coffee_shop", "internet_access": "yes", "name": "Best Coffee House", "smoking": "separated"}}, {"type": "node", "id": 5274052785, "lat": 41.0666333, "lon": 28.8948709, "tags": {"amenity": "cafe", "name": "Girne"}}, {"type": "node", "id": 5284636275, "lat": 41.0599322, "lon": 28.9136688, "tags": {"amenity": "cafe", "cuisine": "coffee_shop", "name": "Lungo Coffee", "outdoor_seating": "yes", "smoking": "outside"}}, {"type": "node", "id": 5284636305, "lat": 41.0604104, "lon": 28.9124506, "tags": {"amenity": "cafe", "name": "Janti Cafe"}}, {"type": "node", "id": 5285759012, "lat": 41.1074757, "lon": 28.8613979, "tags": {"amenity": "cafe", "name": "Tatl\u0131 Park"}}, {"type": "node", "id": 5285760915, "lat": 41.1058448, "lon": 28.8660516, "tags": {"amenity": "cafe", "name": "Ye\u015fil\u00e7am Kahve Evi", "outdoor_seating": "yes", "smoking": "yes"}}, {"type": "node", "id": 5285760916, "lat": 41.1060587, "lon": 28.8667615, "tags": {"amenity": "cafe", "name": "Sehpa", "smoking": "yes"}}, {"type": "node", "id": 5285760917, "lat": 41.106028, "lon": 28.8666381, "tags": {"amenity": "cafe", "name": "Mola Vitrin Cafe", "smoking": "outside"}}, {"type": "node", "id": 5289936082, "lat": 41.1054104, "lon": 28.8643635, "tags": {"amenity": "cafe", "name": "Blue Box", "outdoor_seating": "yes"}}, {"type": "node", "id": 5289936627, "lat": 41.1103984, "lon": 28.8608673, "tags": {"amenity": "cafe", "name": "Piramit Pastane Cafe"}}, {"type": "node", "id": 5289936630, "lat": 41.1075666, "lon": 28.8622734, "tags": {"amenity": "cafe", "name": "Tatl\u0131 Park"}}, {"type": "node", "id": 5291873139, "lat": 41.1026878, "lon": 28.8625671, "tags": {"amenity": "cafe", "name": "Simit Salonu"}}, {"type": "node", "id": 5291873181, "lat": 41.0930365, "lon": 28.8643018, "tags": {"amenity": "cafe", "name": "Simit Saray\u0131"}}, {"type": "node", "id": 5291873183, "lat": 41.0923457, "lon": 28.8643171, "tags": {"amenity": "cafe", "name": "Oska Lounge Cafe & Nargile", "smoking": "yes"}}, {"type": "node", "id": 5291873212, "lat": 41.1067798, "lon": 28.860552, "tags": {"amenity": "cafe", "name": "Pocitta"}}, {"type": "node", "id": 5291873213, "lat": 41.106756, "lon": 28.8605672, "tags": {"amenity": "cafe", "name": "Anteplio\u011flu"}}, {"type": "node", "id": 5291873324, "lat": 41.0589806, "lon": 28.9141785, "tags": {"amenity": "cafe", "name": "Sad\u0131ko\u011flu"}}, {"type": "node", "id": 5291873331, "lat": 41.0593742, "lon": 28.9129922, "tags": {"amenity": "cafe", "name": "Anteplio\u011flu"}}, {"type": "node", "id": 5291970781, "lat": 41.1036106, "lon": 28.8616478, "tags": {"amenity": "cafe", "name": "Los Cafe Elite"}}, {"type": "node", "id": 5295117687, "lat": 41.109093, "lon": 28.8589791, "tags": {"amenity": "cafe", "name": "Rocca \u0130stanbul"}}, {"type": "node", "id": 5295117710, "lat": 41.1136394, "lon": 28.8566906, "tags": {"amenity": "cafe", "name": "\u0130lkbalo\u011flu"}}, {"type": "node", "id": 5295118525, "lat": 41.1320818, "lon": 28.8347198, "tags": {"amenity": "cafe", "name": "Raguba Cafe"}}, {"type": "node", "id": 5295118540, "lat": 41.1330338, "lon": 28.8321866, "tags": {"amenity": "cafe", "name": "Ki\u015fmir"}}, {"type": "node", "id": 5295118554, "lat": 41.1311951, "lon": 28.8362253, "tags": {"amenity": "cafe", "name": "Antepli"}}, {"type": "node", "id": 5295857868, "lat": 41.1103224, "lon": 28.8589453, "tags": {"amenity": "cafe", "name": "\u00c7ak\u0131r kahvalt\u0131"}}, {"type": "node", "id": 5297278071, "lat": 41.106916, "lon": 28.8606943}, {"type": "node", "id": 5297278072, "lat": 41.1069515, "lon": 28.8608127}, {"type": "node", "id": 5297278073, "lat": 41.1068514, "lon": 28.8608723}, {"type": "node", "id": 5297278074, "lat": 41.1068108, "lon": 28.860754}, {"type": "node", "id": 5331357956, "lat": 41.0978458, "lon": 28.8628292}, {"type": "node", "id": 5331357957, "lat": 41.0977867, "lon": 28.8628464}, {"type": "node", "id": 5331357958, "lat": 41.0978127, "lon": 28.8629824}, {"type": "node", "id": 5667669923, "lat": 41.0526834, "lon": 28.8298777, "tags": {"addr:city": "Istanbul", "addr:district": "Ba\u011fc\u0131lar", "addr:street": "\u0130n\u00f6n\u00fc Caddesi", "amenity": "cafe", "name": "Naml\u0131 Sar\u0131yer B\u00f6rek\u00e7isi", "name:ar": "\u0646\u0627\u0645\u0644\u064a \u0628\u0648\u0631\u064a\u0643"}}, {"type": "node", "id": 5667669947, "lat": 41.0548789, "lon": 28.8205125, "tags": {"addr:city": "Istanbul", "addr:district": "Ba\u011fc\u0131lar", "addr:street": "Gazi Mustafa Kemal Caddesi", "amenity": "cafe", "name": "Mahmutbey Merkez K\u0131raathanes", "name:ar": "\u0645\u0642\u0647\u0649"}}, {"type": "node", "id": 5667672652, "lat": 41.0536557, "lon": 28.84649, "tags": {"addr:city": "Istanbul", "addr:district": "Ba\u011fc\u0131lar", "amenity": "cafe", "name": "Davuto\u011flu b\u00f6rek ve cafe"}}, {"type": "node", "id": 5667673557, "lat": 41.0565062, "lon": 28.850395, "tags": {"addr:city": "Istanbul", "addr:district": "Ba\u011fc\u0131lar", "addr:street": "Matbaacilar caddesi", "amenity": "cafe", "name": "Seyido\u011flu", "name:ar": "\u0633\u064a\u062f \u0627\u0648\u063a\u0644\u0648"}}, {"type": "node", "id": 5667673571, "lat": 41.0613453, "lon": 28.8527571, "tags": {"addr:city": "Istanbul", "addr:district": "Ba\u011fc\u0131lar", "addr:street": "K\u0131\u015fla caddesi", "amenity": "cafe", "name": "Ek\u015fio\u011flu", "name:ar": "\u0627\u0643\u0634\u064a \u0627\u0648\u063a\u0644\u0648"}}, {"type": "node", "id": 5667673928, "lat": 41.0697918, "lon": 28.8555284, "tags": {"addr:city": "Istanbul", "addr:district": "Ba\u011fc\u0131lar", "addr:street": "Mustafa Kemal Caddesi", "amenity": "cafe", "name": "Dolunay", "name:ar": "\u062f\u0648\u0644\u0648\u0646 \u0627\u064a"}}, {"type": "node", "id": 5667674485, "lat": 41.0537161, "lon": 28.8495178, "tags": {"addr:city": "Istanbul", "addr:district": "Zeytinburnu", "amenity": "cafe", "name": "Karde\u015fler", "name:ar": "\u0643\u0627\u0631\u062f\u064a\u0634\u0644\u0627\u0631"}}, {"type": "node", "id": 5667674967, "lat": 41.0534134, "lon": 28.8325188, "tags": {"addr:city": "Istanbul", "addr:district": "Ba\u011fc\u0131lar", "addr:street": "Maslak caddesi", "amenity": "cafe", "name:ar": "\u0643\u0627\u0641\u0649"}}, {"type": "node", "id": 5753975421, "lat": 41.0759609, "lon": 28.8093058, "tags": {"addr:street": "Atat\u00fcrk Cd.", "amenity": "cafe", "name": "konyamevlana.con", "phone": "02126717142", "website": "http://konyamevlana.com"}}, {"type": "node", "id": 6151656824, "lat": 41.339353, "lon": 28.6799951}, {"type": "node", "id": 6151656825, "lat": 41.3394497, "lon": 28.6800595}, {"type": "node", "id": 6151656826, "lat": 41.3393913, "lon": 28.6802124}, {"type": "node", "id": 6151656827, "lat": 41.3393148, "lon": 28.6801587}, {"type": "node", "id": 6151656828, "lat": 41.3393389, "lon": 28.680081}, {"type": "node", "id": 6151656829, "lat": 41.3393228, "lon": 28.6800675}, {"type": "node", "id": 6151656834, "lat": 41.3398951, "lon": 28.6798865, "tags": {"amenity": "cafe", "name": "\u00c7\u0131nar B\u00f6rek / Kafe"}}, {"type": "node", "id": 6196891291, "lat": 41.1747299, "lon": 28.8884918}, {"type": "node", "id": 6196891292, "lat": 41.1746038, "lon": 28.888483}, {"type": "node", "id": 6196891293, "lat": 41.1745983, "lon": 28.888621}, {"type": "node", "id": 6196891294, "lat": 41.1747245, "lon": 28.8886298}, {"type": "node", "id": 6199406625, "lat": 41.0584441, "lon": 28.6686146}, {"type": "node", "id": 6199406626, "lat": 41.058295, "lon": 28.6685401}, {"type": "node", "id": 6199406627, "lat": 41.0581912, "lon": 28.6687923}, {"type": "node", "id": 6199406628, "lat": 41.0583382, "lon": 28.6688826}, {"type": "node", "id": 6215709252, "lat": 41.071198, "lon": 28.8097335, "tags": {"amenity": "cafe", "name": "Osmanl\u0131 Tulumbac\u0131s\u0131"}}, {"type": "node", "id": 6252569556, "lat": 41.1814032, "lon": 28.8842809}, {"type": "node", "id": 6252569557, "lat": 41.1815155, "lon": 28.8844037}, {"type": "node", "id": 6252569558, "lat": 41.1815822, "lon": 28.8842959}, {"type": "node", "id": 6252569559, "lat": 41.1816719, "lon": 28.884394}, {"type": "node", "id": 6252569560, "lat": 41.1816781, "lon": 28.8843839}, {"type": "node", "id": 6252569561, "lat": 41.1817291, "lon": 28.8844396}, {"type": "node", "id": 6252569562, "lat": 41.181794, "lon": 28.8843348}, {"type": "node", "id": 6252569563, "lat": 41.1817755, "lon": 28.8843146}, {"type": "node", "id": 6252569564, "lat": 41.1817938, "lon": 28.8842851}, {"type": "node", "id": 6252569565, "lat": 41.1816677, "lon": 28.8841473}, {"type": "node", "id": 6252569566, "lat": 41.1816762, "lon": 28.8841337}, {"type": "node", "id": 6252569567, "lat": 41.1815678, "lon": 28.8840151}, {"type": "node", "id": 6372765827, "lat": 41.0847222, "lon": 28.872623, "tags": {"amenity": "cafe"}}, {"type": "node", "id": 6396908285, "lat": 41.2603483, "lon": 28.7430949, "tags": {"amenity": "cafe", "name": "MVNCH"}}, {"type": "node", "id": 6421656872, "lat": 41.0669482, "lon": 28.9457312}, {"type": "node", "id": 6421656875, "lat": 41.0668854, "lon": 28.9457329}, {"type": "node", "id": 6421656876, "lat": 41.0668868, "lon": 28.9456481}, {"type": "node", "id": 6421656877, "lat": 41.0669486, "lon": 28.9456458}, {"type": "node", "id": 6452642559, "lat": 41.0681922, "lon": 28.9446951}, {"type": "node", "id": 6452642560, "lat": 41.068053, "lon": 28.9446817}, {"type": "node", "id": 6452642561, "lat": 41.0680451, "lon": 28.9447576}, {"type": "node", "id": 6452642562, "lat": 41.0681854, "lon": 28.9447696}, {"type": "node", "id": 6452642564, "lat": 41.0681461, "lon": 28.9446907}, {"type": "node", "id": 6458211990, "lat": 41.0544373, "lon": 28.9339768, "tags": {"addr:city": "Merkez Mahallesi", "addr:district": "Ey\u00fcp Sultan", "addr:housenumber": "1", "addr:neighbourhood": "Merkez Mh.", "addr:postcode": "34050", "addr:street": "\u0130dris K\u00f6\u015fk\u00fc Caddesi", "amenity": "cafe", "cuisine": "pizza;regional;burger;coffee_shop;kebab", "email": "info@pierrelotitepesi.com", "internet_access": "wlan", "internet_access:fee": "no", "name": "Tarihi Kahve", "opening_hours": "Mo-Su 07:00-24:00", "opening_hours:covid19": "open", "outdoor_seating": "yes", "phone": "02124971313", "website": "http://www.pierrelotitepesi.com"}}, {"type": "node", "id": 6587285748, "lat": 41.110577, "lon": 28.8067762}, {"type": "node", "id": 6587285749, "lat": 41.1105471, "lon": 28.8066738}, {"type": "node", "id": 6760075185, "lat": 41.3124888, "lon": 28.6134615, "tags": {"amenity": "cafe", "name": "Balaban"}}, {"type": "node", "id": 6766376338, "lat": 41.0639307, "lon": 28.8070214, "tags": {"amenity": "cafe", "level": "2"}}, {"type": "node", "id": 6787456752, "lat": 41.2623429, "lon": 28.7467897, "tags": {"amenity": "cafe", "brand": "Starbucks", "brand:wikidata": "Q37158", "brand:wikipedia": "en:Starbucks", "cuisine": "coffee_shop", "level": "1", "name": "Starbucks", "official_name": "Starbucks Coffee", "takeaway": "yes", "wheelchair": "yes"}}, {"type": "node", "id": 6787479717, "lat": 41.2622009, "lon": 28.7385003, "tags": {"amenity": "cafe", "brand": "Starbucks", "brand:wikidata": "Q37158", "brand:wikipedia": "en:Starbucks", "cuisine": "coffee_shop", "level": "1", "name": "Starbucks", "official_name": "Starbucks Coffee", "takeaway": "yes"}}, {"type": "node", "id": 6794082502, "lat": 41.2621845, "lon": 28.7462712}, {"type": "node", "id": 6794082503, "lat": 41.2621944, "lon": 28.7463882}, {"type": "node", "id": 6794082504, "lat": 41.2621774, "lon": 28.7464146}, {"type": "node", "id": 6794082505, "lat": 41.2621462, "lon": 28.7464128}, {"type": "node", "id": 6794082506, "lat": 41.2621164, "lon": 28.7463486}, {"type": "node", "id": 6794082507, "lat": 41.2620951, "lon": 28.7462524}, {"type": "node", "id": 6794082508, "lat": 41.262105, "lon": 28.7461769}, {"type": "node", "id": 6794082509, "lat": 41.2621362, "lon": 28.7461694}, {"type": "node", "id": 6900852766, "lat": 41.2585264, "lon": 28.7483197, "tags": {"amenity": "cafe", "brand": "Gloria Jean's", "brand:wikidata": "Q2666365", "brand:wikipedia": "en:Gloria Jean's Coffees", "cuisine": "coffee_shop", "name": "Gloria Jean's", "official_name": "Gloria Jean's Coffees", "takeaway": "yes"}}, {"type": "node", "id": 6960271858, "lat": 41.1105747, "lon": 28.8066727}, {"type": "node", "id": 6960271859, "lat": 41.1105366, "lon": 28.8067778}, {"type": "node", "id": 6974429085, "lat": 41.0686127, "lon": 28.9442085, "tags": {"amenity": "cafe", "brand": "Starbucks", "brand:wikidata": "Q37158", "brand:wikipedia": "en:Starbucks", "cuisine": "coffee_shop", "name": "Starbucks", "official_name": "Starbucks Coffee", "takeaway": "yes"}}, {"type": "node", "id": 7049605286, "lat": 41.0679528, "lon": 28.9431377, "tags": {"amenity": "cafe", "name": "Manca"}}, {"type": "node", "id": 7068105746, "lat": 41.2621761, "lon": 28.7393352, "tags": {"amenity": "cafe", "level": "1", "name": "Caf\u00e9 Illy", "source": "survey"}}, {"type": "node", "id": 7077593961, "lat": 41.061738, "lon": 28.8878991, "tags": {"amenity": "cafe", "name": "Ab'u Bahreyn Cafe"}}, {"type": "node", "id": 7221496001, "lat": 41.054775, "lon": 28.7983109, "tags": {"amenity": "cafe", "name": "Kaanlar K\u0131raathanesi"}}, {"type": "node", "id": 7221496004, "lat": 41.0546385, "lon": 28.7988608, "tags": {"amenity": "cafe", "name": "B\u00f6rek\u00e7iii B\u00f6rek & Cafe", "outdoor_seating": "yes"}}, {"type": "node", "id": 7580601341, "lat": 41.0674293, "lon": 28.6915499, "tags": {"amenity": "cafe", "cuisine": "tea;coffee;dessert", "internet_access": "yes", "name": "The Lacus Cafe"}}, {"type": "node", "id": 7581378236, "lat": 41.0702079, "lon": 28.6860481, "tags": {"amenity": "cafe", "cuisine": "coffee;sandwich;dessert;chocolate", "name": "Lavazza"}}, {"type": "node", "id": 7905341143, "lat": 41.0536217, "lon": 28.9102201, "tags": {"addr:city": "\u0130stanbul", "addr:district": "Bayrampa\u015fa", "addr:housenumber": "1", "addr:neighbourhood": "Muratpa\u015fa", "addr:postcode": "34040", "addr:street": "Eski Edirne Asfalt\u0131", "amenity": "cafe", "branch": "Pashador Cadde", "brand": "Kahve D\u00fcnyas\u0131", "brand:wikidata": "Q28008050", "cuisine": "coffee_shop", "name": "Kahve D\u00fcnyas\u0131", "opening_hours": "Mo-Su 07:00-23:00", "outdoor_seating": "yes", "phone": "+90 212 703 3505", "takeaway": "yes"}}, {"type": "node", "id": 7905341144, "lat": 41.053545, "lon": 28.9102526, "tags": {"amenity": "cafe", "name": "Hatay Ekol K\u00fcnefe Cafe"}}, {"type": "node", "id": 7905341145, "lat": 41.0534622, "lon": 28.910277, "tags": {"amenity": "cafe", "name": "Simit Saray\u0131 Pashador"}}, {"type": "node", "id": 7905341148, "lat": 41.0528948, "lon": 28.9102117, "tags": {"addr:city": "\u0130stanbul", "addr:district": "Bayrampa\u015fa", "addr:housenumber": "1/4", "addr:neighbourhood": "Muratpa\u015fa", "addr:postcode": "34040", "addr:street": "Eski Edirne Asfalt\u0131", "amenity": "cafe", "branch": "Pashador Bayrampa\u015fa", "brand": "Starbucks", "brand:wikidata": "Q37158", "brand:wikipedia": "en:Starbucks", "cuisine": "coffee_shop", "internet_access": "wlan", "name": "Starbucks", "official_name": "Starbucks Coffee", "opening_hours": "Mo-Su 08:00-23:00", "outdoor_seating": "no", "takeaway": "yes"}}, {"type": "node", "id": 8175966562, "lat": 41.0753052, "lon": 28.6826153}, {"type": "node", "id": 8175966563, "lat": 41.0754595, "lon": 28.6827494}, {"type": "node", "id": 8254461220, "lat": 41.0949901, "lon": 28.7727115}, {"type": "node", "id": 8254461221, "lat": 41.0948706, "lon": 28.7727859}, {"type": "node", "id": 8254461222, "lat": 41.0949074, "lon": 28.77289}, {"type": "node", "id": 8254461223, "lat": 41.0950269, "lon": 28.7728155}, {"type": "node", "id": 8294783401, "lat": 41.1047386, "lon": 28.8046286, "tags": {"amenity": "cafe", "cuisine": "pizza;chicken;coffee_shop;burger;kebab", "internet_access": "yes", "name": "S\u00fctl\u00fc Kafe", "opening_hours": "Mo-Su 10:00-22:00", "opening_hours:covid19": "off", "outdoor_seating": "yes"}}, {"type": "node", "id": 8294783402, "lat": 41.1048908, "lon": 28.8046843, "tags": {"amenity": "cafe", "cuisine": "pizza;burger;sandwich;chicken;ice_cream", "name": "Kom\u015fu Kap\u0131c\u0131k", "opening_hours": "Mo-Su 10:00-22:00", "opening_hours:covid19": "off", "outdoor_seating": "yes"}}, {"type": "node", "id": 8294783404, "lat": 41.1050552, "lon": 28.8043744, "tags": {"amenity": "cafe", "brand": "Mado", "brand:wikidata": "Q17116336", "brand:wikipedia": "en:Mado (food company)", "cuisine": "coffee_shop", "name": "Mado", "opening_hours": "Mo-Su 10:00-22:00", "opening_hours:covid19": "off", "outdoor_seating": "no", "takeaway": "yes"}}, {"type": "node", "id": 8294783466, "lat": 41.0704005, "lon": 28.8100132, "tags": {"amenity": "cafe", "brand": "Starbucks", "brand:wikidata": "Q37158", "brand:wikipedia": "en:Starbucks", "cuisine": "coffee_shop", "name": "Starbucks", "official_name": "Starbucks Coffee", "opening_hours": "Mo-Su 09:00-21:00", "opening_hours:covid19": "restricted", "outdoor_seating": "yes", "takeaway": "yes"}}, {"type": "node", "id": 8299990372, "lat": 41.0931016, "lon": 28.8057962, "tags": {"amenity": "cafe", "name": "HACIOLAB\u0130"}}, {"type": "node", "id": 8303523591, "lat": 41.0959741, "lon": 28.8085781}, {"type": "node", "id": 8303523592, "lat": 41.0961029, "lon": 28.808646}, {"type": "node", "id": 8303523593, "lat": 41.096088, "lon": 28.8086961}, {"type": "node", "id": 8303523594, "lat": 41.0961093, "lon": 28.8087073}, {"type": "node", "id": 8303523595, "lat": 41.0960675, "lon": 28.8088471}, {"type": "node", "id": 8303523596, "lat": 41.0960305, "lon": 28.8088276}, {"type": "node", "id": 8303523597, "lat": 41.096023, "lon": 28.8088526}, {"type": "node", "id": 8303523598, "lat": 41.0959517, "lon": 28.8088151}, {"type": "node", "id": 8303523599, "lat": 41.0959635, "lon": 28.8087756}, {"type": "node", "id": 8303523600, "lat": 41.0959216, "lon": 28.8087535}, {"type": "node", "id": 8306930553, "lat": 41.1018228, "lon": 28.8059927}, {"type": "node", "id": 8306930554, "lat": 41.101901, "lon": 28.8059941}, {"type": "node", "id": 8306930555, "lat": 41.1019006, "lon": 28.8060384}, {"type": "node", "id": 8306930556, "lat": 41.1019293, "lon": 28.8060389}, {"type": "node", "id": 8306930557, "lat": 41.1019282, "lon": 28.8061509}, {"type": "node", "id": 8306930558, "lat": 41.1018933, "lon": 28.8061503}, {"type": "node", "id": 8306930559, "lat": 41.101893, "lon": 28.8061814}, {"type": "node", "id": 8306930560, "lat": 41.1018193, "lon": 28.8061801}, {"type": "node", "id": 8306930561, "lat": 41.1018196, "lon": 28.8061437}, {"type": "node", "id": 8306930562, "lat": 41.1017918, "lon": 28.8061432}, {"type": "node", "id": 8306930563, "lat": 41.1017928, "lon": 28.8060383}, {"type": "node", "id": 8306930564, "lat": 41.1018223, "lon": 28.8060388}, {"type": "node", "id": 8308563978, "lat": 41.1210892, "lon": 28.772329}, {"type": "node", "id": 8308563979, "lat": 41.1210546, "lon": 28.772394}, {"type": "node", "id": 8308563980, "lat": 41.1209524, "lon": 28.7722983}, {"type": "node", "id": 8308563981, "lat": 41.120987, "lon": 28.7722333}, {"type": "node", "id": 8316237709, "lat": 41.0941527, "lon": 28.773848, "tags": {"amenity": "cafe", "name": "antepli \u015fam baklava"}}, {"type": "node", "id": 8316237710, "lat": 41.0940454, "lon": 28.7749131, "tags": {"amenity": "cafe", "name": "gaziantep se\u00e7 baklava"}}, {"type": "node", "id": 8316248100, "lat": 41.0937913, "lon": 28.773373, "tags": {"amenity": "cafe", "name": "waffles"}}, {"type": "node", "id": 8316248102, "lat": 41.0933176, "lon": 28.7753079, "tags": {"amenity": "cafe", "name": "dilek"}}, {"type": "node", "id": 8316248103, "lat": 41.093183, "lon": 28.7753788, "tags": {"amenity": "cafe", "name": "gagaline"}}, {"type": "node", "id": 8316284018, "lat": 41.0949922, "lon": 28.7743887, "tags": {"amenity": "cafe", "name": "mahmut efendi"}}, {"type": "node", "id": 8319639864, "lat": 41.1018161, "lon": 28.8110302, "tags": {"amenity": "cafe", "name": "safa tatl\u0131c\u0131"}}, {"type": "node", "id": 8560108293, "lat": 41.1049656, "lon": 28.8036132, "tags": {"addr:city": "\u0130stanbul", "addr:district": "Ba\u015fak\u015fehir", "addr:housenumber": "3/1N", "addr:neighbourhood": "Ba\u015fak Mahallesi", "addr:street": "Ye\u015fil Vadi Caddesi", "amenity": "cafe", "cuisine": "coffee_shop", "internet_access": "yes", "internet_access:fee": "no", "name": "Rawley Coffee", "opening_hours": "Mo-Su 09:00-22:00", "opening_hours:covid19": "open", "outdoor_seating": "yes", "phone": "+905519450435"}}, {"type": "node", "id": 8646468635, "lat": 41.1003285, "lon": 28.8738793}, {"type": "node", "id": 8646468636, "lat": 41.0998865, "lon": 28.8740742}, {"type": "node", "id": 8646468637, "lat": 41.0999553, "lon": 28.8743227}, {"type": "node", "id": 8646468638, "lat": 41.1003932, "lon": 28.8741064}, {"type": "node", "id": 8658662660, "lat": 41.0786786, "lon": 28.6648675, "tags": {"addr:city": "istanbul", "addr:district": "Ba\u015fak\u015fehir", "addr:housenumber": "23", "addr:neighbourhood": "bah\u00e7e\u015fehir 2. K\u0131s\u0131m Mah.", "addr:postcode": "34488", "addr:street": "Turgut \u00d6zal Bulvar\u0131", "amenity": "cafe", "cuisine": "pizza;burger;coffee_shop;ice_cream;turkish;bread;breakfast;tea;bakery;cafe;cafetaria;sourdough_bread;cookies", "description": "Do\u011fal Katk\u0131s\u0131z Unlar ve Ek\u015fi Mayalar\u0131m\u0131zla Zaman\u0131n Eskitemedi\u011fi As\u0131rl\u0131k Ekmek Lezzetlerini Sizlere Sunuyoruz...\nDo\u011fal Y\u00f6resel K\u00f6y Ekmeklerimizin Yan\u0131nda Cevizli Ekmek, Zeytinli Ekmek, Tam Bu\u011fday Ekme\u011fi, Mor Ekmek Sar\u0131 Bu\u011fday Ekme\u011fi Gibi E\u015fsiz Lezzetler \u00dcr", "internet_access": "yes", "internet_access:fee": "no", "internet_access:ssid": "Town Bakery", "name": "Town Bakery & Cafe", "opening_hours": "Mo-Su 09:00-21:00", "opening_hours:covid19": "open", "outdoor_seating": "yes", "phone": "00905445437556", "website": "https://www.townbakeries.com"}}, {"type": "node", "id": 8733501201, "lat": 41.058831, "lon": 28.908817, "tags": {"amenity": "cafe", "name": "Me\u015fhur Sar\u0131yer B\u00f6rek\u00e7isi"}}, {"type": "node", "id": 8733555266, "lat": 41.0562535, "lon": 28.9113363, "tags": {"addr:city": "\u0130stanbul", "addr:district": "Gaziosmanpa\u015fa", "addr:housenumber": "38/A", "addr:neighbourhood": "Merkez", "addr:postcode": "34245", "addr:street": "Salihpa\u015fa Caddesi", "amenity": "cafe", "cuisine": "pizza;coffee_shop;burger;italian;sandwich;chicken;kebab;ice_cream;turkish;salad;cake;pasta;chocolate;dessert", "image": "https://lh3.googleusercontent.com/p/AF1QipOKk1tG449N20tB1_t5jqlj4ZohVy_PObug-1AG=s1600-w400", "internet_access": "wlan", "internet_access:fee": "no", "internet_access:ssid": "PlevneKahvesi 2", "name": "Plevne Kahvesi", "opening_hours": "09:30-00:30", "outdoor_seating": "no", "phone": "+90 212 418 2529", "smoking": "isolated", "website": "http://www.plevnekahvesi.com/", "wheelchair": "no"}}, {"type": "node", "id": 8740482212, "lat": 41.051606, "lon": 28.9175003, "tags": {"addr:city": "\u0130stanbul", "addr:district": "Ey\u00fcpsultan", "addr:housenumber": "80/A", "addr:neighbourhood": "Rami Yenimahalle", "addr:postcode": "34055", "addr:street": "Re\u015fadiye Caddesi", "amenity": "cafe", "name": "Evim Bo\u015fnak B\u00f6re\u011fi"}}, {"type": "node", "id": 8740482216, "lat": 41.0517389, "lon": 28.9178651, "tags": {"addr:city": "\u0130stanbul", "addr:district": "Ey\u00fcpsultan", "addr:housenumber": "7/A", "addr:neighbourhood": "Rami Yenimahalle", "addr:postcode": "34055", "addr:street": "Mazharbey Caddesi", "amenity": "cafe", "name": "Karde\u015fler B\u00f6rek & G\u00fcve\u00e7 Salonu"}}, {"type": "node", "id": 8783015047, "lat": 41.0592469, "lon": 28.9067751, "tags": {"amenity": "cafe", "name": "Populus Lounge"}}, {"type": "node", "id": 8808697852, "lat": 41.0566709, "lon": 28.9139727, "tags": {"amenity": "cafe", "name": "Ye\u015fil\u00e7am Soka\u011f\u0131 Gaziosmanpa\u015fa"}}, {"type": "node", "id": 8809423846, "lat": 41.057576, "lon": 28.9125178, "tags": {"amenity": "cafe", "name": "Hilalo\u011flu Baklava & Pasta Cafe"}}, {"type": "node", "id": 8863816437, "lat": 41.0638732, "lon": 28.6849584, "tags": {"addr:city": "\u0130stanbul", "addr:district": "Ba\u015fak\u015fehir", "addr:housenumber": "no:19", "addr:neighbourhood": "bah\u00e7e\u015fehir 2.k\u0131s\u0131m mah. s\u00fczer bulvar\u0131", "addr:postcode": "34488", "addr:street": "KC F blok", "amenity": "cafe", "cuisine": "donut", "email": "donutime.tr@gmail.com", "internet_access": "yes", "internet_access:fee": "no", "name": "Donutime", "opening_hours": "Mo-Su 10:00-22:00", "outdoor_seating": "yes", "phone": "05385298900"}}, {"type": "node", "id": 8895870814, "lat": 41.1066911, "lon": 28.8636918, "tags": {"amenity": "cafe", "name": "Balkan Kafe"}}, {"type": "node", "id": 9045219428, "lat": 41.052992, "lon": 28.9101494, "tags": {"addr:city": "Muratpa\u015fa Mahallesi", "addr:district": "Bayrampa\u015fa", "addr:housenumber": "1", "addr:neighbourhood": "Muratpa\u015fa", "addr:postcode": "34040", "addr:street": "Eski Edirne Asfalt\u0131", "amenity": "cafe", "brand": "Faruk G\u00fcll\u00fco\u011flu", "cuisine": "pizza;burger;chicken;kebab;ice_cream;baklava;pasta;s\u00fctl\u00fc_tatl\u0131", "delivery": "yes", "email": "topcularbayrampasa.fgf@gmail.com", "internet_access": "yes", "internet_access:fee": "no", "internet_access:ssid": "farukgulluoglu", "name": "Bayrampa\u015fa Pashador Faruk G\u00fcll\u00fco\u011flu", "opening_hours": "Mo-Su 07:00-23:00", "outdoor_seating": "yes", "payment:kredi": "yes", "payment:multinet": "yes", "payment:nakit": "yes", "payment:setcart": "yes", "payment:sodexo": "yes", "payment:ticket": "yes", "phone": "+90 212 5440038", "takeaway": "yes", "website": "https://www.farukgulluoglu.com.tr/"}}, {"type": "node", "id": 9054453147, "lat": 41.0940789, "lon": 28.8680945, "tags": {"amenity": "cafe", "name": "Aksa Cami K\u0131raathanesi"}}, {"type": "node", "id": 9117098196, "lat": 41.0588618, "lon": 28.9278484, "tags": {"amenity": "cafe", "name": "\u00d6zen Pasta & Cafe"}}, {"type": "node", "id": 9216829707, "lat": 41.0603158, "lon": 28.677135}, {"type": "node", "id": 9216829708, "lat": 41.0602085, "lon": 28.6772855}, {"type": "node", "id": 9216829709, "lat": 41.0601426, "lon": 28.677196}, {"type": "node", "id": 9216829710, "lat": 41.0602583, "lon": 28.6770212}, {"type": "node", "id": 9229654091, "lat": 41.063817, "lon": 28.6715841}, {"type": "node", "id": 9229654092, "lat": 41.0638194, "lon": 28.6716413}, {"type": "node", "id": 9229654093, "lat": 41.0637189, "lon": 28.6716487}, {"type": "node", "id": 9229654094, "lat": 41.0637165, "lon": 28.6715915}, {"type": "node", "id": 9256534640, "lat": 41.1819924, "lon": 28.7436546, "tags": {"amenity": "cafe", "name": "Me\u015fhur Sar\u0131yer B\u00f6rek & Cafe"}}, {"type": "node", "id": 9311088545, "lat": 41.1552579, "lon": 28.6740038, "tags": {"amenity": "cafe", "name": "K\u00f6y kahvesi - \u00c7ayoca\u011f\u0131"}}, {"type": "node", "id": 9394859046, "lat": 41.1084209, "lon": 28.6725711}, {"type": "node", "id": 9394859047, "lat": 41.1084892, "lon": 28.6727821}, {"type": "node", "id": 9394859048, "lat": 41.1084248, "lon": 28.6728188}, {"type": "node", "id": 9394859049, "lat": 41.1083565, "lon": 28.6726079}, {"type": "node", "id": 9500858791, "lat": 41.0763042, "lon": 28.9461553, "tags": {"amenity": "cafe", "name": "S\u00fct\u00e7\u00fco\u011fullar\u0131 Muhallebicisi", "opening_hours": "09:30-01:00", "website": "http://www.sutcuogullari.com.tr/"}}, {"type": "node", "id": 9544816397, "lat": 41.0532646, "lon": 28.9215776}, {"type": "node", "id": 9544816398, "lat": 41.0532371, "lon": 28.9218703}, {"type": "node", "id": 9544816399, "lat": 41.0533123, "lon": 28.921601}, {"type": "node", "id": 9544816400, "lat": 41.0531894, "lon": 28.9218469}, {"type": "node", "id": 9585845892, "lat": 41.0828384, "lon": 28.9242824, "tags": {"amenity": "cafe", "name": "Cio cafe"}}, {"type": "node", "id": 9682631000, "lat": 41.0800939, "lon": 28.9264846, "tags": {"amenity": "cafe", "name": "Hac\u0131 Sayit"}}, {"type": "node", "id": 9682631001, "lat": 41.0800032, "lon": 28.9266748, "tags": {"amenity": "cafe", "name": "Ye\u015fil\u00e7am Kahve Evi"}}, {"type": "node", "id": 9682631002, "lat": 41.0798961, "lon": 28.9277485, "tags": {"amenity": "cafe", "name": "VOLT Cafe"}}, {"type": "node", "id": 9682631003, "lat": 41.0798913, "lon": 28.9275871, "tags": {"amenity": "cafe", "name": "Maqsad Shisha Lounge"}}, {"type": "node", "id": 9882889910, "lat": 41.0960666, "lon": 28.8995836}, {"type": "node", "id": 9882889911, "lat": 41.0960319, "lon": 28.8995517}, {"type": "node", "id": 9882889912, "lat": 41.0959679, "lon": 28.8995553}, {"type": "node", "id": 9882889913, "lat": 41.0959012, "lon": 28.8996013}, {"type": "node", "id": 9882889914, "lat": 41.0958212, "lon": 28.8996101}, {"type": "node", "id": 9882889915, "lat": 41.0957785, "lon": 28.899642}, {"type": "node", "id": 9882889916, "lat": 41.0957692, "lon": 28.8996915}, {"type": "node", "id": 9882889917, "lat": 41.0957812, "lon": 28.8997128}, {"type": "node", "id": 9882889918, "lat": 41.0958172, "lon": 28.8997393}, {"type": "node", "id": 9882889919, "lat": 41.0958799, "lon": 28.8997747}, {"type": "node", "id": 9882889920, "lat": 41.0959199, "lon": 28.8997464}, {"type": "node", "id": 9882889921, "lat": 41.0960346, "lon": 28.8997092}, {"type": "node", "id": 9882889922, "lat": 41.0960706, "lon": 28.8996703}, {"type": "node", "id": 9882889923, "lat": 41.0958358, "lon": 28.8997705}, {"type": "node", "id": 9897661412, "lat": 41.1011394, "lon": 28.863845, "tags": {"amenity": "cafe", "name": "BlackDem Kafe ve Restorant"}}, {"type": "node", "id": 9897727900, "lat": 41.0978669, "lon": 28.8629711}, {"type": "node", "id": 9915302822, "lat": 41.0937604, "lon": 28.8640856, "tags": {"amenity": "cafe", "name": "Ne\u015fve Cafe ve Restaurant"}}, {"type": "node", "id": 9915302831, "lat": 41.098334, "lon": 28.8633523, "tags": {"amenity": "cafe", "name": "Coffemania"}}, {"type": "node", "id": 9916885909, "lat": 41.1053839, "lon": 28.8632914, "tags": {"amenity": "cafe", "name": "Can Cafe"}}, {"type": "node", "id": 9917474262, "lat": 41.1023017, "lon": 28.8692473, "tags": {"amenity": "cafe", "name": "Hidayeto\u011flu Pasta Cafe"}}, {"type": "node", "id": 10031594236, "lat": 41.0538794, "lon": 28.8341541, "tags": {"amenity": "cafe", "name": "Cafe Halfenus"}}, {"type": "node", "id": 10046986929, "lat": 41.1035446, "lon": 28.8664379, "tags": {"amenity": "cafe", "cuisine": "coffee_shop;tea;water", "name": "Karadeniz Birlik K\u0131raathanesi"}}, {"type": "node", "id": 10052165616, "lat": 41.0616343, "lon": 28.8878257}, {"type": "node", "id": 10052186017, "lat": 41.0616434, "lon": 28.887788}, {"type": "node", "id": 10052186018, "lat": 41.061661, "lon": 28.8877559}, {"type": "node", "id": 10052186019, "lat": 41.0618446, "lon": 28.8878223}, {"type": "node", "id": 10052186020, "lat": 41.0618423, "lon": 28.8878974}, {"type": "node", "id": 10052186021, "lat": 41.0618027, "lon": 28.8879759}, {"type": "node", "id": 10052186022, "lat": 41.0616853, "lon": 28.8877329}, {"type": "node", "id": 10052186023, "lat": 41.0617138, "lon": 28.8877211}, {"type": "node", "id": 10052186024, "lat": 41.0617437, "lon": 28.8877219}, {"type": "node", "id": 10052186025, "lat": 41.0617719, "lon": 28.8877351}, {"type": "node", "id": 10052186026, "lat": 41.0617955, "lon": 28.8877594}, {"type": "node", "id": 10052186027, "lat": 41.0618122, "lon": 28.8877923}, {"type": "node", "id": 10052186028, "lat": 41.0618202, "lon": 28.8878305}, {"type": "node", "id": 10052186029, "lat": 41.0618179, "lon": 28.8880166}, {"type": "node", "id": 10052186030, "lat": 41.0617642, "lon": 28.8880606}, {"type": "node", "id": 10052186031, "lat": 41.0617459, "lon": 28.88803}, {"type": "node", "id": 10052186032, "lat": 41.0617077, "lon": 28.8880319}, {"type": "node", "id": 10052186033, "lat": 41.0616463, "lon": 28.8879077}, {"type": "node", "id": 10052186034, "lat": 41.0616349, "lon": 28.8878681}, {"type": "node", "id": 10052186035, "lat": 41.0616959, "lon": 28.8880082}, {"type": "node", "id": 10052186036, "lat": 41.0616554, "lon": 28.887926}, {"type": "node", "id": 10052186037, "lat": 41.0616403, "lon": 28.8879637}, {"type": "node", "id": 10052186038, "lat": 41.0616433, "lon": 28.8880052}, {"type": "node", "id": 10052186167, "lat": 41.0590697, "lon": 28.8878971}, {"type": "node", "id": 10052186168, "lat": 41.0589637, "lon": 28.8879341}, {"type": "node", "id": 10052186169, "lat": 41.0589912, "lon": 28.888073}, {"type": "node", "id": 10052186170, "lat": 41.0589739, "lon": 28.8880915}, {"type": "node", "id": 10052186171, "lat": 41.0590129, "lon": 28.888288}, {"type": "node", "id": 10052186172, "lat": 41.0591621, "lon": 28.888236}, {"type": "node", "id": 10052186173, "lat": 41.0591192, "lon": 28.8880199}, {"type": "node", "id": 10052186174, "lat": 41.0590957, "lon": 28.8880281}, {"type": "node", "id": 10061005942, "lat": 41.0549345, "lon": 28.9379647}, {"type": "node", "id": 10061005943, "lat": 41.0549787, "lon": 28.9380083}, {"type": "node", "id": 10104661405, "lat": 41.0828701, "lon": 28.913318, "tags": {"amenity": "cafe", "name": "Huzur K\u0131raathanesi"}}, {"type": "node", "id": 10104720030, "lat": 41.0820022, "lon": 28.9170811, "tags": {"amenity": "cafe", "name": "Happy Days"}}, {"type": "node", "id": 10110158131, "lat": 41.0750627, "lon": 28.9394843, "tags": {"amenity": "cafe", "name": "\u015eehito\u011flu P Star Cafe"}}, {"type": "node", "id": 10110158369, "lat": 41.0761176, "lon": 28.9256126, "tags": {"amenity": "cafe", "name": "Sar\u0131yer B\u00f6rek\u00e7isi"}}, {"type": "node", "id": 10133758478, "lat": 41.0803422, "lon": 28.8773355, "tags": {"addr:city": "\u0130stanbul", "addr:district": "Gaziosmanpa\u015fa", "addr:housenumber": "408/H", "addr:neighbourhood": "Karadeniz", "addr:postcode": "34250", "addr:street": "Eski Edirne Asfalt\u0131", "amenity": "cafe", "branch": "Viaport Venezia", "brand": "Mado", "brand:wikidata": "Q17116336", "cuisine": "coffee_shop", "name": "Mado", "phone": "+90 212 803 1356", "takeaway": "yes"}}, {"type": "node", "id": 10159083722, "lat": 41.080262, "lon": 28.9440916, "tags": {"amenity": "cafe", "name": "Durak B\u00f6rek Salonu", "shop": "bakery"}}, {"type": "node", "id": 10159083727, "lat": 41.0800062, "lon": 28.9442646, "tags": {"amenity": "cafe", "name": "G\u00fcntay K\u0131raathanesi"}}, {"type": "node", "id": 10159083732, "lat": 41.0791702, "lon": 28.9444765, "tags": {"amenity": "cafe", "name": "\u015eelale \u00c7ay Bah\u00e7esi", "outdoor_seating": "yes"}}, {"type": "node", "id": 10159083787, "lat": 41.0801038, "lon": 28.94059, "tags": {"amenity": "cafe", "name": "Paydu\u015fka"}}, {"type": "node", "id": 10159083802, "lat": 41.0801356, "lon": 28.9391403, "tags": {"amenity": "cafe", "name": "Yavru Cafe & B\u00f6rek"}}, {"type": "node", "id": 10159083809, "lat": 41.0803449, "lon": 28.93851, "tags": {"amenity": "cafe", "name": "Filika Cafe & Restaurant"}}, {"type": "node", "id": 10238960300, "lat": 41.0550119, "lon": 28.9379492}, {"type": "node", "id": 10238960301, "lat": 41.0550648, "lon": 28.9380014}, {"type": "node", "id": 10238960302, "lat": 41.0549274, "lon": 28.9379566}, {"type": "node", "id": 10238960303, "lat": 41.0548202, "lon": 28.9381343}, {"type": "node", "id": 10238960304, "lat": 41.0549891, "lon": 28.9383153}, {"type": "node", "id": 10238960305, "lat": 41.0551696, "lon": 28.9380169}, {"type": "node", "id": 10238960306, "lat": 41.0550944, "lon": 28.9379485}, {"type": "node", "id": 10559298685, "lat": 41.06036, "lon": 28.913463, "tags": {"amenity": "cafe", "name": "Has\u0131r Cafe"}}, {"type": "node", "id": 10651664503, "lat": 41.0640883, "lon": 28.9145203, "tags": {"amenity": "cafe", "name": "Emniyet K\u0131raathanesi"}}, {"type": "node", "id": 10656382445, "lat": 41.0758585, "lon": 28.6562154, "tags": {"amenity": "cafe", "brand": "Starbucks", "brand:wikidata": "Q37158", "cuisine": "coffee_shop", "name": "Starbucks", "official_name": "Starbucks Coffee", "takeaway": "yes"}}, {"type": "node", "id": 10686710899, "lat": 41.1770465, "lon": 28.8871208, "tags": {"amenity": "cafe", "brand": "Starbucks", "brand:wikidata": "Q37158", "cuisine": "coffee_shop", "internet_access": "wlan", "name": "Starbucks", "official_name": "Starbucks Coffee", "outdoor_seating": "yes", "takeaway": "yes"}}, {"type": "way", "id": 252472979, "nodes": [2585173494, 2585173495, 2585173496, 2585173497, 2585173494], "tags": {"amenity": "cafe", "building": "yes", "name": "K\u00f6y kahvesi - \u00c7ayoca\u011f\u0131"}}, {"type": "way", "id": 252524365, "nodes": [2585538007, 2585538008, 2585538009, 2585538010, 2585538007], "tags": {"amenity": "cafe", "building": "yes", "name": "Dursunk\u00f6y \u00e7ayoca\u011f\u0131"}}, {"type": "way", "id": 255603438, "nodes": [2612809619, 2612809620, 2612810225, 2612810228, 2612809619], "tags": {"amenity": "cafe", "building": "yes", "name": "Hac\u0131ma\u015fl\u0131 k\u00f6y kahvesi"}}, {"type": "way", "id": 275467716, "nodes": [2800893196, 2800893197, 2800893198, 2800893199, 6960271859, 6587285748, 6960271858, 6587285749, 2800893196], "tags": {"amenity": "cafe", "building": "yes", "cuisine": "coffee_shop", "internet_access": "yes", "name": "Vadi Kafe", "smoking": "yes"}}, {"type": "way", "id": 292486885, "nodes": [2960355987, 2960355980, 8175966562, 2960355982, 8175966563, 2960355990, 2960355987], "tags": {"addr:city": "Bah\u00e7e\u015fehir 2. K\u0131s\u0131m Mahallesi", "addr:district": "Ba\u015fak\u015fehir", "addr:housenumber": "C2 - C3", "addr:neighbourhood": "Spradon Kuleler", "addr:postcode": "34538", "addr:street": "Ata Soka\u011f\u0131", "amenity": "cafe", "building": "apartments", "cuisine": "burger;chicken;coffee_shop;sandwich;ice_cream;kebab", "internet_access": "wlan", "internet_access:fee": "customers", "internet_access:ssid": "kulekafe", "name": "Kule Market & Cafe", "opening_hours": "06:00-03:00", "outdoor_seating": "yes", "supermarket": "hypermarket"}}, {"type": "way", "id": 368626339, "nodes": [3724775494, 3724775492, 3724775456, 3724775494], "tags": {"amenity": "cafe", "building": "yes", "name": "Merdiven Cafe"}}, {"type": "way", "id": 368626439, "nodes": [3724775773, 3724775770, 3724775729, 3724775732, 3724775773], "tags": {"amenity": "cafe", "building": "yes", "name": "K\u00f6zde Kahve"}}, {"type": "way", "id": 498796847, "nodes": [4901386006, 4901385767, 4901385765, 4901386005, 4901385764, 4901385850, 4901385851, 4901386006], "tags": {"amenity": "cafe", "building": "yes", "name": "Shark B\u00f6rek", "source": "bing"}}, {"type": "way", "id": 548323907, "nodes": [5297278071, 5297278072, 5297278073, 5297278074, 5297278071], "tags": {"amenity": "cafe", "building": "yes", "name": "\u00c7ay Bah\u00e7esi"}}, {"type": "way", "id": 552154259, "nodes": [5331357956, 5331357957, 5331357958, 9897727900, 5331357956], "tags": {"amenity": "cafe", "building": "yes", "cuisine": "burger", "name": "Durak B\u00fcfe"}}, {"type": "way", "id": 656735804, "nodes": [6151656824, 6151656825, 6151656826, 6151656827, 6151656828, 6151656829, 6151656824], "tags": {"amenity": "cafe", "building": "yes"}}, {"type": "way", "id": 661907996, "nodes": [6196891291, 6196891292, 6196891293, 6196891294, 6196891291], "tags": {"amenity": "cafe", "building": "yes"}}, {"type": "way", "id": 662187040, "nodes": [6199406625, 6199406626, 6199406627, 6199406628, 6199406625], "tags": {"amenity": "cafe", "building": "yes", "name": "bigchef cafe"}}, {"type": "way", "id": 667771350, "nodes": [6252569556, 6252569557, 6252569558, 6252569559, 6252569560, 6252569561, 6252569562, 6252569563, 6252569564, 6252569565, 6252569566, 6252569567, 6252569556], "tags": {"amenity": "cafe", "building": "yes"}}, {"type": "way", "id": 685291103, "nodes": [6421656872, 6421656875, 6421656876, 6421656877, 6421656872], "tags": {"amenity": "cafe", "building": "yes", "name": "Espresso Lab"}}, {"type": "way", "id": 688202323, "nodes": [6452642559, 6452642564, 6452642560, 6452642561, 6452642562, 6452642559], "tags": {"amenity": "cafe", "brand": "Caff\u00e8 Nero", "brand:wikidata": "Q675808", "brand:wikipedia": "en:Caff\u00e8 Nero", "building": "yes", "cuisine": "coffee_shop", "name": "Caff\u00e8 Nero", "takeaway": "yes"}}, {"type": "way", "id": 724450211, "nodes": [6794082502, 6794082503, 6794082504, 6794082505, 6794082506, 6794082507, 6794082508, 6794082509, 6794082502], "tags": {"amenity": "cafe", "brand": "Gloria Jean's", "brand:wikidata": "Q2666365", "brand:wikipedia": "en:Gloria Jean's Coffees", "cuisine": "coffee_shop", "indoor": "room", "level": "2", "name": "Gloria Jean's", "official_name": "Gloria Jean's Coffees", "room": "shop", "takeaway": "yes"}}, {"type": "way", "id": 887819117, "nodes": [8254461220, 8254461221, 8254461222, 8254461223, 8254461220], "tags": {"amenity": "cafe", "building": "yes", "name": "\u00c7ay oca\u011f\u0131"}}, {"type": "way", "id": 893401822, "nodes": [8303523591, 8303523592, 8303523593, 8303523594, 8303523595, 8303523596, 8303523597, 8303523598, 8303523599, 8303523600, 8303523591], "tags": {"addr:city": "\u0130stanbul", "addr:district": "Ba\u015fak\u015fehir", "addr:neighbourhood": "Ba\u015fak Mahallesi", "addr:street": "Ertu\u011frul Gazi Caddesi", "amenity": "cafe", "brand": "Mado", "brand:wikidata": "Q17116336", "brand:wikipedia": "en:Mado (food company)", "building": "yes", "cuisine": "coffee_shop", "internet_access": "yes", "internet_access:fee": "customers", "name": "Mado", "opening_hours": "Mo-Su 08:00-20:00", "outdoor_seating": "yes", "takeaway": "yes"}}, {"type": "way", "id": 893763365, "nodes": [8306930553, 8306930554, 8306930555, 8306930556, 8306930557, 8306930558, 8306930559, 8306930560, 8306930561, 8306930562, 8306930563, 8306930564, 8306930553], "tags": {"amenity": "cafe", "building": "yes", "cuisine": "burger;pizza;chicken;kebab", "name": "\u015eapqa Concept"}}, {"type": "way", "id": 893932122, "nodes": [8308563979, 8308563980, 8308563981, 8308563978, 8308563979], "tags": {"amenity": "cafe", "building": "yes"}}, {"type": "way", "id": 932772861, "nodes": [8646468635, 8646468636, 8646468637, 8646468638, 8646468635], "tags": {"amenity": "cafe", "building": "yes", "name": "Cafe Maksat Muhabbet"}}, {"type": "way", "id": 998214441, "nodes": [9216829707, 9216829708, 9216829709, 9216829710, 9216829707], "tags": {"addr:city": "\u0130stanbul", "addr:district": "Esenyurt", "addr:neighbourhood": "Esenkent Mahallesi", "addr:postcode": "34538", "addr:street": "S\u00fcleyman Demirel Caddesi", "amenity": "cafe", "building": "yes"}}, {"type": "way", "id": 999854488, "nodes": [9229654091, 9229654092, 9229654093, 9229654094, 9229654091], "tags": {"amenity": "cafe", "building": "yes"}}, {"type": "way", "id": 1018570312, "nodes": [9394859046, 9394859047, 9394859048, 9394859049, 9394859046], "tags": {"amenity": "cafe", "building": "yes"}}, {"type": "way", "id": 1035971733, "nodes": [9544816397, 9544816400, 9544816398, 9544816399, 9544816397], "tags": {"addr:city": "\u0130stanbul", "addr:district": "Ey\u00fcpsultan", "addr:housenumber": "111", "addr:neighbourhood": "Rami Yenimahalle", "addr:postcode": "34055", "addr:street": "\u0130slambey Caddesi", "amenity": "cafe", "building": "yes", "building:levels": "1", "name": "\u0130slambey Aile \u00c7ay Bah\u00e7esi"}}, {"type": "way", "id": 1077924851, "nodes": [9882889910, 9882889911, 9882889912, 9882889913, 9882889914, 9882889915, 9882889916, 9882889917, 9882889918, 9882889923, 9882889919, 9882889920, 9882889921, 9882889922, 9882889910], "tags": {"amenity": "cafe", "building": "yes"}}, {"type": "way", "id": 1097805427, "nodes": [10052186029, 10052186030, 10052186031, 10052186032, 10052186035, 10052186038, 10052186037, 10052186036, 10052186033, 10052186034, 10052165616, 10052186017, 10052186018, 10052186022, 10052186023, 10052186024, 10052186025, 10052186026, 10052186027, 10052186028, 10052186019, 10052186020, 10052186021, 10052186029], "tags": {"amenity": "cafe", "building": "yes"}}, {"type": "way", "id": 1097805444, "nodes": [10052186167, 10052186168, 10052186169, 10052186170, 10052186171, 10052186172, 10052186173, 10052186174, 10052186167], "tags": {"amenity": "cafe", "building": "yes"}}, {"type": "way", "id": 1119458692, "nodes": [10061005942, 10238960302, 10238960303, 10238960304, 10238960305, 10238960306, 10238960301, 10238960300, 10061005943, 10061005942], "tags": {"addr:city": "\u0130stanbul", "addr:district": "Ey\u00fcpsultan", "addr:housenumber": "10/1", "addr:neighbourhood": "Merkez", "addr:postcode": "34050", "addr:street": "Silahtara\u011fa Caddesi", "alt_name": "Saffron Garden", "amenity": "cafe", "building": "yes", "building:levels": "1", "name": "Saffron Life Cafe & Restaurant", "old_name": "Mayak Cafe & Restaurant", "opening_hours": "08:00-00:00", "outdoor_seating": "yes", "phone": "+90 212 418 1088"}}]}