{"version": 0.6, "generator": "Overpass API 0.7.60 f4c14d41", "osm3s": {"timestamp_osm_base": "2023-05-02T21:20:24Z", "copyright": "The data included in this document is from www.openstreetmap.org. The data is made available under ODbL."}, "elements": [{"type": "node", "id": 248522829, "lat": 41.9475457, "lon": 12.5381443, "tags": {"created_by": "Potlatch 0.7b", "description": "Compravendita dell'usato", "name": "Il Barattolino", "shop": "convenience"}}, {"type": "node", "id": 259868275, "lat": 41.8560301, "lon": 12.4850141, "tags": {"addr:city": "Roma", "addr:country": "IT", "addr:housenumber": "181", "addr:street": "Via Giustiniano Imperatore", "name": "Depa Phonecenter", "operator": "Miah Siddique", "phone": "+39 347 7775497", "ref:vatin": "IT06347681006", "shop": "convenience"}}, {"type": "node", "id": 518605697, "lat": 41.8320234, "lon": 12.6566289}, {"type": "node", "id": 518605698, "lat": 41.8315101, "lon": 12.6563074}, {"type": "node", "id": 518605699, "lat": 41.8314208, "lon": 12.6565641}, {"type": "node", "id": 518605700, "lat": 41.8319341, "lon": 12.6568856}, {"type": "node", "id": 591902491, "lat": 41.7336695, "lon": 12.2897514, "tags": {"name": "Todis", "shop": "convenience"}}, {"type": "node", "id": 740890088, "lat": 41.9333341, "lon": 12.4193573, "tags": {"name": "CRAI", "shop": "convenience"}}, {"type": "node", "id": 745968429, "lat": 41.909653, "lon": 12.4577792, "tags": {"addr:city": "Roma", "addr:country": "IT", "addr:housenumber": "9/A", "addr:street": "Via Barletta", "name": "Raina Minimarket", "operator": "Deloer Mondol & C.", "shop": "convenience"}}, {"type": "node", "id": 768302864, "lat": 41.8158572, "lon": 12.6072504, "tags": {"name": "Antiche tradizioni", "shop": "convenience"}}, {"type": "node", "id": 768418622, "lat": 41.8152625, "lon": 12.6004044, "tags": {"addr:city": "Roma", "addr:housenumber": "149", "addr:postcode": "00118", "addr:street": "Via del Casale Agostinelli", "name": "Pasta all'uovo", "shop": "convenience"}}, {"type": "node", "id": 907588181, "lat": 41.7117381, "lon": 12.6238598, "tags": {"shop": "convenience"}}, {"type": "node", "id": 916551472, "lat": 41.9670466, "lon": 12.4466382, "tags": {"shop": "convenience"}}, {"type": "node", "id": 929565396, "lat": 41.9733162, "lon": 12.4293551, "tags": {"name": "DICO", "shop": "convenience"}}, {"type": "node", "id": 932316293, "lat": 41.9040297, "lon": 12.4630154, "tags": {"brand": "Carrefour Express", "brand:wikidata": "Q2940190", "brand:wikipedia": "fr:Carrefour Express", "name": "Carrefour Express", "name:en": "Carrefour Express\u5bb6\u4e50\u798f", "shop": "convenience", "wheelchair": "no"}}, {"type": "node", "id": 932316308, "lat": 41.8984445, "lon": 12.4700606, "tags": {"addr:city": "Roma", "addr:country": "IT", "addr:housenumber": "119", "addr:postcode": "00186", "addr:street": "Via del Governo Vecchio", "brand": "Carrefour Express", "brand:wikidata": "Q2940190", "brand:wikipedia": "fr:Carrefour Express", "name": "Carrefour Express", "opening_hours": "Mo-Su 08:00-21:30", "shop": "convenience", "wheelchair": "yes"}}, {"type": "node", "id": 957695756, "lat": 41.9421086, "lon": 12.576921, "tags": {"addr:city": "Roma", "addr:country": "IT", "addr:housenumber": "10", "addr:postcode": "00156", "addr:street": "Via Casal Tidei", "name": "Minimarket", "shop": "convenience", "wheelchair": "no"}}, {"type": "node", "id": 1059615391, "lat": 41.9342722, "lon": 12.5289658, "tags": {"name": "Sacoph", "opening_hours": "Mo-Sa 08:00-21:00; Su 08:00-20:30", "shop": "convenience"}}, {"type": "node", "id": 1061839208, "lat": 41.9318638, "lon": 12.5274088, "tags": {"shop": "convenience"}}, {"type": "node", "id": 1061839241, "lat": 41.9327178, "lon": 12.5261965, "tags": {"shop": "convenience"}}, {"type": "node", "id": 1140161968, "lat": 41.9105333, "lon": 12.4468061, "tags": {"addr:city": "Roma", "addr:country": "IT", "addr:housenumber": "40E", "addr:street": "Viale delle Medaglie d'Oro", "name": "Minimarket", "opening_hours": "Mo-Su 08:00-00:30", "operator": "Hossain Kamal", "shop": "convenience"}}, {"type": "node", "id": 1140161971, "lat": 41.9102659, "lon": 12.4467232, "tags": {"addr:city": "Roma", "addr:country": "IT", "addr:housenumber": "35", "addr:street": "Viale delle Medaglie d'Oro", "name": "Minimarket SAS", "operator": "Amin Farzana & Co.", "shop": "convenience"}}, {"type": "node", "id": 1217660865, "lat": 41.9080207, "lon": 12.4470086, "tags": {"addr:city": "Roma", "addr:country": "IT", "addr:housenumber": "42", "addr:street": "Via Giulio Venticinque", "name": "Mini market", "operator": "Karim Sohel", "phone": "+39 06 39720341", "shop": "convenience"}}, {"type": "node", "id": 1237574511, "lat": 41.8989216, "lon": 12.4670919, "tags": {"addr:city": "Roma", "addr:country": "IT", "addr:housenumber": "286;288;290", "addr:postcode": "00186", "addr:street": "Corso Vittorio Emanuele II", "brand": "Carrefour Express", "brand:wikidata": "Q2940190", "brand:wikipedia": "fr:Carrefour Express", "name": "Carrefour Express", "operator": "diperdi srl a s.u.", "phone": "+39 06 6833039", "shop": "convenience", "wheelchair": "yes"}}, {"type": "node", "id": 1269962100, "lat": 41.8756329, "lon": 12.5212216, "tags": {"addr:city": "Roma", "addr:country": "IT", "addr:housenumber": "7", "addr:street": "Via Gino Capponi", "fair_trade": "only", "name": "Altromercato", "shop": "convenience"}}, {"type": "node", "id": 1309353794, "lat": 41.8754316, "lon": 12.5236446, "tags": {"addr:city": "Roma", "addr:country": "IT", "addr:housenumber": "41", "addr:postcode": "00181", "addr:street": "Viale Furio Camillo", "name": "FiorDiLatte", "phone": "+39 06 86925294", "shop": "convenience"}}, {"type": "node", "id": 1419433076, "lat": 41.9124138, "lon": 12.4438178, "tags": {"addr:city": "Roma", "addr:country": "IT", "addr:housenumber": "108E", "addr:street": "Viale delle Medaglie d'Oro", "name": "Kabayan Store", "operator": "kabayan import s.r.l.", "phone": "+39 06 39745261", "shop": "convenience"}}, {"type": "node", "id": 1419899894, "lat": 41.9092616, "lon": 12.4553689, "tags": {"addr:city": "Roma", "addr:country": "IT", "addr:housenumber": "105", "addr:street": "Via Leone IV", "name": "Minimarket", "operator": "B.G. snc", "shop": "convenience"}}, {"type": "node", "id": 1433531405, "lat": 41.9130421, "lon": 12.4400778, "tags": {"brand": "Carrefour Express", "brand:wikidata": "Q2940190", "name": "Carrefour Express", "opening_hours": "Mo-Sa 08:30-20:00; Su 08:30-13:15", "shop": "convenience"}}, {"type": "node", "id": 1447439054, "lat": 41.9229089, "lon": 12.4385541, "tags": {"shop": "convenience"}}, {"type": "node", "id": 1448352578, "lat": 41.8602806, "lon": 12.4938903, "tags": {"addr:city": "Roma", "addr:country": "IT", "addr:housenumber": "2", "addr:postcode": "00145", "addr:street": "Piazza Oderico da Pordenone", "amenity": "cafe", "cuisine": "regional", "name": "La Bottega di Merlino", "operator": "La Bottega di Merlino Srl.", "outdoor_seating": "yes", "phone": "+39 06 5138200", "ref:vatin": "IT12119751001", "shop": "convenience", "wheelchair": "yes"}}, {"type": "node", "id": 1548469107, "lat": 41.8176253, "lon": 12.343907, "tags": {"addr:housenumber": "1438", "addr:street": "Via Portuense", "name": "Spesa Ponte Galeria", "phone": "+39 3339105010", "shop": "convenience"}}, {"type": "node", "id": 1558119299, "lat": 41.8955946, "lon": 12.502241, "tags": {"name": "Casalinghi", "shop": "convenience"}}, {"type": "node", "id": 1591545111, "lat": 41.8558133, "lon": 12.4514375, "tags": {"shop": "convenience"}}, {"type": "node", "id": 1616594374, "lat": 41.9952108, "lon": 12.6656027, "tags": {"name": "Eurospin", "shop": "convenience"}}, {"type": "node", "id": 1628892299, "lat": 41.8918672, "lon": 12.5344189, "tags": {"addr:city": "Roma", "addr:housenumber": "15", "addr:postcode": "00176", "addr:street": "Via Alberto da Giussano", "shop": "convenience"}}, {"type": "node", "id": 1628902105, "lat": 41.9105646, "lon": 12.4570499, "tags": {"addr:city": "Roma", "addr:country": "IT", "addr:housenumber": "41", "addr:street": "Via Otranto", "name": "Sari-Sari Store", "operator": "Perez Gemma Atienza", "shop": "convenience"}}, {"type": "node", "id": 1634712826, "lat": 41.942137, "lon": 12.5768652, "tags": {"addr:city": "Roma", "addr:country": "IT", "addr:housenumber": "8", "addr:postcode": "00156", "addr:street": "Via Casal Tidei", "name": "Minimarket", "shop": "convenience", "wheelchair": "no"}}, {"type": "node", "id": 1655865841, "lat": 41.9075591, "lon": 12.6136297, "tags": {"name": "Alimentari", "shop": "convenience"}}, {"type": "node", "id": 1661012988, "lat": 41.9418185, "lon": 12.5794654, "tags": {"addr:city": "Roma", "addr:country": "IT", "addr:housenumber": "130", "addr:postcode": "00156", "addr:street": "Via Fossombrone", "name": "Super mille idee", "shop": "convenience"}}, {"type": "node", "id": 1661012994, "lat": 41.9417856, "lon": 12.5794416, "tags": {"addr:city": "Roma", "addr:country": "IT", "addr:housenumber": "132", "addr:postcode": "00156", "addr:street": "Via Fossombrone", "name": "Super mille idee", "shop": "convenience"}}, {"type": "node", "id": 1694653434, "lat": 41.7938097, "lon": 12.5176004, "tags": {"shop": "convenience"}}, {"type": "node", "id": 1694657454, "lat": 41.7950655, "lon": 12.5346593, "tags": {"shop": "convenience"}}, {"type": "node", "id": 1701605170, "lat": 41.8901081, "lon": 12.5061241, "tags": {"addr:city": "Roma", "addr:housenumber": "15-17", "addr:street": "Viale Manzoni", "name": "Alimentari Placidi", "phone": "+39 06 70475768", "shop": "convenience"}}, {"type": "node", "id": 1702468818, "lat": 41.8494437, "lon": 12.52351, "tags": {"addr:city": "Roma", "addr:country": "IT", "addr:housenumber": "210", "addr:street": "Via Appia Antica", "shop": "convenience"}}, {"type": "node", "id": 1719355686, "lat": 41.9350639, "lon": 12.4396459, "tags": {"shop": "convenience"}}, {"type": "node", "id": 1720353016, "lat": 41.936911, "lon": 12.4379781, "tags": {"shop": "convenience"}}, {"type": "node", "id": 1738555954, "lat": 41.8070211, "lon": 12.6763384}, {"type": "node", "id": 1738555955, "lat": 41.8070451, "lon": 12.6760976}, {"type": "node", "id": 1738555956, "lat": 41.8072319, "lon": 12.6763763}, {"type": "node", "id": 1738555957, "lat": 41.807256, "lon": 12.6761356}, {"type": "node", "id": 1752747416, "lat": 41.831456, "lon": 12.6565861, "tags": {"entrance": "yes"}}, {"type": "node", "id": 1752747426, "lat": 41.8318487, "lon": 12.6568321, "tags": {"entrance": "yes"}}, {"type": "node", "id": 1822775303, "lat": 41.9219197, "lon": 12.4420002, "tags": {"shop": "convenience"}}, {"type": "node", "id": 1836213403, "lat": 41.7812112, "lon": 12.4377734, "tags": {"shop": "convenience"}}, {"type": "node", "id": 1924067959, "lat": 41.938133, "lon": 12.5304296, "tags": {"shop": "convenience"}}, {"type": "node", "id": 1936513169, "lat": 41.8746401, "lon": 12.4726526, "tags": {"name": "SpazioBio", "shop": "convenience"}}, {"type": "node", "id": 1949638080, "lat": 41.8793254, "lon": 12.5389486, "tags": {"addr:city": "Roma", "addr:country": "IT", "addr:housenumber": "158", "addr:street": "Via Galeazzo Alessi", "name": "International Alimentari", "operator": "Mohammed Shamin", "phone": "+39 327 3505541", "ref:vatin": "IT11669261007", "shop": "convenience"}}, {"type": "node", "id": 1949638178, "lat": 41.8793236, "lon": 12.5388507, "tags": {"shop": "convenience"}}, {"type": "node", "id": 1985503412, "lat": 41.8992382, "lon": 12.535407, "tags": {"addr:city": "Roma", "addr:housenumber": "38", "addr:postcode": "00159", "addr:street": "Via Cesare Ricotti", "name": "Centro Alimentari l'alimentarista", "phone": "0643530243", "shop": "convenience"}}, {"type": "node", "id": 2021707063, "lat": 41.9133854, "lon": 12.4510259, "tags": {"name": "Carrefour express", "opening_hours": "Mo-Sa 08:00-20:30; Su 08:30-13:30", "shop": "convenience"}}, {"type": "node", "id": 2079044034, "lat": 41.7628996, "lon": 12.3010505, "tags": {"addr:postcode": "00119", "addr:street": "Via delle Saline", "name": "CRAI", "shop": "convenience"}}, {"type": "node", "id": 2102896380, "lat": 41.9950423, "lon": 12.6648687, "tags": {"name": "Acqua & Sapone", "shop": "convenience", "source": "Local knowledge"}}, {"type": "node", "id": 2102919002, "lat": 41.9948031, "lon": 12.6646782, "tags": {"name": "IperCarni", "shop": "convenience"}}, {"type": "node", "id": 2104225976, "lat": 41.8685445, "lon": 12.4933162, "tags": {"shop": "convenience"}}, {"type": "node", "id": 2105798489, "lat": 42.021791, "lon": 12.469733, "tags": {"addr:city": "Roma", "addr:housenumber": "403", "addr:postcode": "00188", "addr:street": "Via di Valle Muricana", "name": "Alimentari Forcina", "operator": "Gabriella Gramigni", "shop": "convenience"}}, {"type": "node", "id": 2127968140, "lat": 41.8895566, "lon": 12.494335, "tags": {"addr:city": "Roma", "addr:country": "IT", "addr:postcode": "00184", "addr:street": "Via dei Santi Quattro", "brand": "Carrefour Express", "brand:wikidata": "Q2940190", "brand:wikipedia": "fr:Carrefour Express", "name": "Carrefour Express", "shop": "convenience"}}, {"type": "node", "id": 2136162069, "lat": 41.8759494, "lon": 12.5059341, "tags": {"shop": "convenience"}}, {"type": "node", "id": 2273048289, "lat": 41.8678398, "lon": 12.4941207, "tags": {"shop": "convenience"}}, {"type": "node", "id": 2349316392, "lat": 41.9103891, "lon": 12.4398309, "tags": {"addr:city": "Roma", "addr:country": "IT", "addr:housenumber": "30", "addr:street": "Via Livio Andronico", "operator": "Howlader Firog", "shop": "convenience"}}, {"type": "node", "id": 2428599814, "lat": 41.8878114, "lon": 12.5215207, "tags": {"name": "Alimentari Frutteria", "shop": "convenience"}}, {"type": "node", "id": 2428599815, "lat": 41.889194, "lon": 12.5257674, "tags": {"name": "Bangladesh Alimentari", "shop": "convenience"}}, {"type": "node", "id": 2440488196, "lat": 41.828794, "lon": 12.6788298, "tags": {"shop": "convenience"}}, {"type": "node", "id": 2443479603, "lat": 41.8087836, "lon": 12.6821538, "tags": {"name": "Drogheria", "salt": "yes", "shop": "convenience", "stamps": "yes", "tobacco": "yes"}}, {"type": "node", "id": 2732946323, "lat": 41.9088876, "lon": 12.4495462, "tags": {"name": "Casalinghi", "shop": "convenience"}}, {"type": "node", "id": 2739452878, "lat": 41.789871, "lon": 12.660705}, {"type": "node", "id": 2739452879, "lat": 41.7897685, "lon": 12.6607815}, {"type": "node", "id": 2739452880, "lat": 41.7898742, "lon": 12.661036}, {"type": "node", "id": 2739452881, "lat": 41.7899766, "lon": 12.6609595}, {"type": "node", "id": 2857763039, "lat": 41.7378588, "lon": 12.2859795, "tags": {"addr:city": "Roma", "addr:housenumber": "101", "addr:postcode": "00122", "addr:street": "Via Alessandro Piola Caselli", "brand": "Carrefour Express", "brand:wikidata": "Q2940190", "name": "Carrefour Express", "operator": "Carrefour", "phone": "+39 06 56368444", "shop": "convenience", "wheelchair": "yes"}}, {"type": "node", "id": 2859557446, "lat": 41.9189912, "lon": 12.409404, "tags": {"name": "Micros", "shop": "convenience"}}, {"type": "node", "id": 2883175849, "lat": 41.8833491, "lon": 12.5423947, "tags": {"addr:city": "Roma", "addr:housenumber": "106", "addr:postcode": "00176", "addr:street": "Via della Marranella", "contact:mobile": "+39 327 8697247", "name": "Gram Bangla", "operator": "Gram Bangla S.r.l. di Anwar Egbal", "ref:vatin": "IT12726541001", "shop": "convenience"}}, {"type": "node", "id": 2889411908, "lat": 41.8629373, "lon": 12.558641, "tags": {"addr:city": "Roma", "addr:housenumber": "58", "addr:postcode": "00175", "addr:street": "Via Claudio Asello", "email": "verdemilonga@equocomes.org", "fair_trade": "only", "name": "La Verde Milonga", "opening_hours": "Tu-Sa 9:00-13:00, 16:00-20:00; Mo16:00-20:00", "shop": "convenience", "website": "www.equocomes.org"}}, {"type": "node", "id": 3115702938, "lat": 41.8757722, "lon": 12.5164611, "tags": {"addr:city": "Roma", "addr:housenumber": "10", "addr:postcode": "00179", "addr:street": "Via Alfredo Baccarini", "shop": "convenience"}}, {"type": "node", "id": 3211457019, "lat": 41.8634556, "lon": 12.5961684, "tags": {"addr:city": "Roma", "addr:housenumber": "43/a", "addr:postcode": "00169", "addr:street": "Via dell'Aquila Reale", "name": "Fresco Mini Market", "shop": "convenience"}}, {"type": "node", "id": 3222367153, "lat": 41.8658556, "lon": 12.5976635, "tags": {"shop": "convenience"}}, {"type": "node", "id": 3222454410, "lat": 41.863761, "lon": 12.5941608, "tags": {"name": "Casalinghi Alimentari", "shop": "convenience"}}, {"type": "node", "id": 3223688115, "lat": 41.8656881, "lon": 12.5928377, "tags": {"addr:city": "Roma", "addr:housenumber": "36/c", "addr:postcode": "00169", "addr:street": "Via delle Rondini", "name": "Minimarket", "shop": "convenience"}}, {"type": "node", "id": 3246615712, "lat": 41.7647922, "lon": 12.5579862, "tags": {"shop": "convenience"}}, {"type": "node", "id": 3254273506, "lat": 41.9456312, "lon": 12.4245117, "tags": {"name": "Tigre", "shop": "convenience"}}, {"type": "node", "id": 3398050933, "lat": 41.9069101, "lon": 12.458358, "tags": {"addr:city": "Roma", "addr:country": "IT", "addr:housenumber": "13", "addr:postcode": "00192", "addr:street": "Via dei Gracchi", "name": "MiniMarket", "shop": "convenience", "wheelchair": "no"}}, {"type": "node", "id": 3455766613, "lat": 41.7391172, "lon": 12.2784114, "tags": {"addr:city": "Roma", "addr:housenumber": "10", "addr:postcode": "00121", "addr:street": "Via Polinesia", "fair_trade": "only", "name": "La Tenda dei Popoli", "phone": "+39 06 5685482", "shop": "convenience", "website": "http://www.latendadeipopoli.it/"}}, {"type": "node", "id": 3497097845, "lat": 41.8746658, "lon": 12.4456817, "tags": {"addr:city": "Roma", "addr:housenumber": "6/C", "addr:street": "Via Edoardo Jenner", "name": "Pasta All'Uovo", "shop": "convenience"}}, {"type": "node", "id": 3512007456, "lat": 41.8488679, "lon": 12.487626, "tags": {"addr:housenumber": "38", "addr:street": "Via Mario Musco", "changing_table": "no", "name": "Alimentari", "operator": "Jony Hossain", "phone": "+39 328 736 3252", "ref:vatin": "IT12638311006", "shop": "convenience"}}, {"type": "node", "id": 3583028373, "lat": 41.9462096, "lon": 12.5474655, "tags": {"addr:city": "Roma", "addr:housenumber": "70", "addr:street": "Via Luigi Capuana", "name": "Alimentari e frutta", "shop": "convenience"}}, {"type": "node", "id": 3644383222, "lat": 41.90742, "lon": 12.4683576, "tags": {"fixme": "specify position", "shop": "convenience"}}, {"type": "node", "id": 3661045995, "lat": 41.9297266, "lon": 12.5231659, "tags": {"name": "Mozzarella di bufala", "shop": "convenience"}}, {"type": "node", "id": 3683838553, "lat": 41.861063, "lon": 12.373771}, {"type": "node", "id": 3683838556, "lat": 41.8611072, "lon": 12.3739506}, {"type": "node", "id": 3683838566, "lat": 41.8613116, "lon": 12.3738599}, {"type": "node", "id": 3683838567, "lat": 41.8613202, "lon": 12.3738948}, {"type": "node", "id": 3683838570, "lat": 41.8614008, "lon": 12.3736211}, {"type": "node", "id": 3683838573, "lat": 41.8614535, "lon": 12.3738356}, {"type": "node", "id": 3739985085, "lat": 41.8996035, "lon": 12.4564991, "tags": {"shop": "convenience"}}, {"type": "node", "id": 3753966633, "lat": 41.8542723, "lon": 12.479121, "tags": {"addr:housenumber": "78/80", "addr:street": "Via Gabriello Chiabrera", "brand": "Negozio Leggero", "name": "Negozio Leggero", "operator": "Eco.Inmente s.n.c.", "organic": "yes", "phone": "+39 06 98183226", "ref:vatin": "IT11846951009", "shop": "convenience", "website": "http://www.negozioleggero.it"}}, {"type": "node", "id": 3797833681, "lat": 41.8550131, "lon": 12.4788409, "tags": {"addr:housenumber": "11", "addr:postcode": "00145", "addr:street": "Via Pietro Giordani", "name": "Eba Alimentari", "operator": "EBA ALIMENTARI SAS DI ISLAM MD ASHRAFUL", "ref:vatin": "IT08933551007", "shop": "convenience"}}, {"type": "node", "id": 3804637419, "lat": 41.8869658, "lon": 12.5383953, "tags": {"addr:city": "Roma", "addr:housenumber": "190", "addr:postcode": "00176", "addr:street": "Via Renzo Da Ceri", "fixme": "position estimated, can be one building left or right", "operator": "Mased SNC di Fratini Sergio & C.", "phone": "+39 06 2757852", "ref:vatin": "IT07029241002", "sells:bread": "yes", "shop": "convenience"}}, {"type": "node", "id": 3878100138, "lat": 41.8974518, "lon": 12.4969832, "tags": {"name": "Minimarket", "shop": "convenience"}}, {"type": "node", "id": 3895881031, "lat": 42.0896323, "lon": 12.2715683}, {"type": "node", "id": 3896896781, "lat": 41.8974604, "lon": 12.4971311, "tags": {"addr:housenumber": "143/C", "addr:postcode": "00184", "addr:street": "Via di Santa Maria Maggiore", "name": "non solo Alimentari", "shop": "convenience"}}, {"type": "node", "id": 4005382871, "lat": 42.0008649, "lon": 12.5646448, "tags": {"name": "Azienda Fortunato", "note": "vendita carne, salumi, formaggi ecc.", "operator": "agricoltura biologica", "shop": "convenience"}}, {"type": "node", "id": 4075384199, "lat": 41.8953832, "lon": 12.5047476, "tags": {"addr:housenumber": "34", "addr:postcode": "00185", "addr:street": "Piazza Vittorio Emanuele II", "ethnicity": "chinese", "name": "Alimentari Cinese", "operator": "Xin Ye Gruppo Srl.", "phone": "+39 06 44341096", "ref:vatin": "IT05860661007", "shop": "convenience"}}, {"type": "node", "id": 4077021608, "lat": 41.8971942, "lon": 12.4516223, "tags": {"brand": "Carrefour Express", "brand:wikidata": "Q2940190", "name": "Carrefour Express", "shop": "convenience"}}, {"type": "node", "id": 4097983301, "lat": 41.8801018, "lon": 12.5126833, "tags": {"addr:city": "Roma", "addr:housenumber": "9", "addr:street": "Via Ceneda", "shop": "convenience"}}, {"type": "node", "id": 4177030790, "lat": 41.8167008, "lon": 12.4712499, "tags": {"addr:city": "Roma", "addr:housenumber": "284", "addr:postcode": "00144", "addr:street": "Viale Cesare Pavese", "brand": "Carrefour Express", "brand:wikidata": "Q2940190", "brand:wikipedia": "fr:Carrefour Express", "name": "Carrefour Express", "opening_hours": "Mo-Sa 08:00-21:00; Su 10:00-22:00", "shop": "convenience"}}, {"type": "node", "id": 4193138933, "lat": 41.9085001, "lon": 12.4621615, "tags": {"addr:housenumber": "35", "addr:street": "Via Fabio Massimo", "name": "Simply", "opening_hours": "Mo-Su 08:30-13:00, 16:00-21:30", "shop": "convenience", "wheelchair": "yes"}}, {"type": "node", "id": 4215423859, "lat": 41.9249592, "lon": 12.5732357, "tags": {"shop": "convenience"}}, {"type": "node", "id": 4215519938, "lat": 41.8807614, "lon": 12.5045887, "tags": {"addr:city": "Roma", "addr:housenumber": "142", "addr:postcode": "00183", "addr:street": "Via Gallia", "name": "Fantasie Alimentari", "operator": "Fantasie Alimentari Srl", "phone": "+39 06 70454809", "shop": "convenience"}}, {"type": "node", "id": 4234003695, "lat": 41.8994688, "lon": 12.491817, "tags": {"addr:city": "Roma", "addr:housenumber": "9", "addr:postcode": "00184", "addr:street": "Via Genova", "name": "Akram Mini Market", "opening_hours": "Mo-Su 08:00-00:00", "shop": "convenience"}}, {"type": "node", "id": 4239352106, "lat": 41.8856393, "lon": 12.4718283, "tags": {"brand": "Carrefour Express", "brand:wikidata": "Q2940190", "brand:wikipedia": "fr:Carrefour Express", "name": "Carrefour Express", "opening_hours": "Mo-Sa 08:00-21:00; Su 08:30-20:00", "shop": "convenience"}}, {"type": "node", "id": 4244609014, "lat": 41.8870672, "lon": 12.4717847, "tags": {"addr:housenumber": "133", "addr:street": "Via di San Francesco a Ripa", "amenity": "fast_food", "cuisine": "regional", "fixme": "position in map is estimated", "name": "Bottega Organica", "note": "2 licenses: alimentari (greengrocer) and food to eat, ready to eat organic food", "operator": "Rumi Bottega Organica Srls.", "organic": "only", "phone": "+39 06 5814988", "ref:vatin": "IT12605421002", "shop": "convenience"}}, {"type": "node", "id": 4250779601, "lat": 41.774591, "lon": 12.6971723, "tags": {"addr:city": "Rocca di Papa", "addr:housenumber": "270", "addr:postcode": "00040", "addr:street": "Via di Frascati", "name": "La Familiare", "phone": "+39 06 9497789", "shop": "convenience"}}, {"type": "node", "id": 4273889801, "lat": 41.8316465, "lon": 12.6563928}, {"type": "node", "id": 4273889808, "lat": 41.8318723, "lon": 12.6565342}, {"type": "node", "id": 4273889813, "lat": 41.8319923, "lon": 12.656718}, {"type": "node", "id": 4273889814, "lat": 41.8320138, "lon": 12.6566569}, {"type": "node", "id": 4277762320, "lat": 41.7752546, "lon": 12.6898434}, {"type": "node", "id": 4277762325, "lat": 41.7752851, "lon": 12.6898732}, {"type": "node", "id": 4277762326, "lat": 41.775296, "lon": 12.6897674}, {"type": "node", "id": 4277762333, "lat": 41.7753266, "lon": 12.6897976}, {"type": "node", "id": 4278391953, "lat": 41.807075, "lon": 12.6761032}, {"type": "node", "id": 4278391955, "lat": 41.8072255, "lon": 12.6761299}, {"type": "node", "id": 4291761132, "lat": 41.8881802, "lon": 12.5076381, "tags": {"shop": "convenience"}}, {"type": "node", "id": 4310753263, "lat": 41.7058553, "lon": 12.3405234}, {"type": "node", "id": 4310753273, "lat": 41.7059354, "lon": 12.3403553}, {"type": "node", "id": 4310753279, "lat": 41.7059971, "lon": 12.3404081}, {"type": "node", "id": 4310753280, "lat": 41.7060134, "lon": 12.3404527}, {"type": "node", "id": 4310753281, "lat": 41.7060185, "lon": 12.3403632}, {"type": "node", "id": 4310753282, "lat": 41.7060452, "lon": 12.340386}, {"type": "node", "id": 4310753283, "lat": 41.7060453, "lon": 12.3406858}, {"type": "node", "id": 4310753285, "lat": 41.7060573, "lon": 12.3405658}, {"type": "node", "id": 4310753287, "lat": 41.7060828, "lon": 12.3405121}, {"type": "node", "id": 4310753288, "lat": 41.7060894, "lon": 12.3405932}, {"type": "node", "id": 4321357685, "lat": 41.9604607, "lon": 12.4813373}, {"type": "node", "id": 4321357686, "lat": 41.9604649, "lon": 12.4812195}, {"type": "node", "id": 4321358698, "lat": 41.96056, "lon": 12.4813437}, {"type": "node", "id": 4321358700, "lat": 41.9605642, "lon": 12.4812259}, {"type": "node", "id": 4351386398, "lat": 41.9039618, "lon": 12.4946582, "tags": {"addr:city": "Roma", "addr:housenumber": "93", "addr:postcode": "00185", "addr:street": "Via Vittorio Emanuele Orlando", "brand": "Carrefour Express", "brand:wikidata": "Q2940190", "brand:wikipedia": "fr:Carrefour Express", "name": "Carrefour Express", "opening_hours": "Mo-Su 07:30-09:00, 14:00-16:00, 20:00-21:00", "shop": "convenience"}}, {"type": "node", "id": 4388752089, "lat": 41.9143487, "lon": 12.5206881, "tags": {"name": "Casa&Co.", "name:it": "Casa&Co.", "opening_hours": "Mo-Sa 08:30-20:00", "shop": "convenience"}}, {"type": "node", "id": 4406880672, "lat": 41.8070106, "lon": 12.6822902, "tags": {"shop": "convenience"}}, {"type": "node", "id": 4406930781, "lat": 41.8083365, "lon": 12.6830099, "tags": {"shop": "convenience"}}, {"type": "node", "id": 4406944427, "lat": 41.8088868, "lon": 12.6809854, "tags": {"addr:housenumber": "28", "addr:street": "Via Cairoli", "name": "Sfizio", "shop": "convenience"}}, {"type": "node", "id": 4406944433, "lat": 41.8095159, "lon": 12.6799858, "tags": {"shop": "convenience"}}, {"type": "node", "id": 4406959017, "lat": 41.8085114, "lon": 12.6814258, "tags": {"shop": "convenience"}}, {"type": "node", "id": 4407000354, "lat": 41.8088443, "lon": 12.6812454, "tags": {"name": "Muratori", "shop": "convenience"}}, {"type": "node", "id": 4408108882, "lat": 41.8079602, "lon": 12.6755233, "tags": {"shop": "convenience"}}, {"type": "node", "id": 4408108886, "lat": 41.8081717, "lon": 12.6756828, "tags": {"shop": "convenience"}}, {"type": "node", "id": 4411034316, "lat": 41.8183382, "lon": 12.6855377, "tags": {"shop": "convenience"}}, {"type": "node", "id": 4414032552, "lat": 41.8627773, "lon": 12.5539125, "tags": {"name": "Bepary Samia alimentari", "shop": "convenience"}}, {"type": "node", "id": 4423524357, "lat": 41.8917953, "lon": 12.5005323, "tags": {"addr:housenumber": "40", "addr:street": "Via Angelo Poliziano", "name": "Alimentari Romoli", "operator": "Pietro Romoli", "phone": "+39 06 4872782", "ref:vatin": "IT06284381008", "shop": "convenience", "shop:type:it": "alimentari;panetteria;frutta"}}, {"type": "node", "id": 4438710189, "lat": 41.8935874, "lon": 12.4816286, "tags": {"addr:housenumber": "2", "addr:street": "Via del Teatro di Marcello", "brand": "Carrefour Express", "brand:wikidata": "Q2940190", "brand:wikipedia": "fr:Carrefour Express", "name": "Carrefour Express", "operator": "C.D.K. Srl.", "phone": "+39 06 69921791", "ref:vatin": "IT01322130590", "shop": "convenience"}}, {"type": "node", "id": 4445427924, "lat": 41.8609955, "lon": 12.486461, "tags": {"addr:city": "Roma", "addr:housenumber": "20", "addr:postcode": "00154", "addr:street": "Largo delle Sette Chiese", "name": "Piccoli Piaceri di Pane", "operator": "Piccoli Piaceri di Pane Srl.", "phone": "+39 06 97885055", "ref:vatin": "IT10484261002", "shop": "convenience"}}, {"type": "node", "id": 4452887889, "lat": 41.8478891, "lon": 12.4873855, "tags": {"addr:housenumber": "143", "addr:postcode": "00142", "addr:street": "Via di Grotta Perfetta", "brand": "Carrefour Express", "brand:wikidata": "Q2940190", "brand:wikipedia": "fr:Carrefour Express", "name": "Carrefour Express", "name:it": "Carrefour Express", "opening_hours": "Mo-Sa 08:00-20:00; Su 08:00-13:00", "phone": "+39 065940780", "shop": "convenience", "website": "https://www.carrefour.it/"}}, {"type": "node", "id": 4455036162, "lat": 41.8952935, "lon": 12.4931697, "tags": {"addr:housenumber": "83", "addr:street": "Via Urbana", "shop": "convenience"}}, {"type": "node", "id": 4455036176, "lat": 41.8970824, "lon": 12.4975866, "tags": {"name": "Polska Sklep", "shop": "convenience"}}, {"type": "node", "id": 4464465295, "lat": 41.9005174, "lon": 12.469841, "tags": {"addr:postcode": "00186", "addr:street": "Via dei Coronari", "brand": "Carrefour Express", "brand:wikidata": "Q2940190", "brand:wikipedia": "fr:Carrefour Express", "name": "Carrefour Express", "name:it": "Carrefour Express", "shop": "convenience"}}, {"type": "node", "id": 4476620302, "lat": 41.7796363, "lon": 12.532994, "tags": {"name": "Agricoltura Nuova", "shop": "convenience"}}, {"type": "node", "id": 4492554992, "lat": 41.9116222, "lon": 12.4127268, "tags": {"name": "Minimarket", "shop": "convenience"}}, {"type": "node", "id": 4492886690, "lat": 41.9135154, "lon": 12.4138649, "tags": {"name": "Alimentari", "shop": "convenience"}}, {"type": "node", "id": 4573901189, "lat": 41.888817, "lon": 12.4832248, "tags": {"addr:housenumber": "74", "addr:postcode": "00186", "addr:street": "Via di San Teodoro", "name": "Mercato di Campagna Amica Circo Massimo", "opening_hours": "Sa-Su 08:00-15:00", "shop": "convenience"}}, {"type": "node", "id": 4599979846, "lat": 41.863295, "lon": 12.4869045, "tags": {"name": "Superalimentari Vapoforno", "shop": "convenience"}}, {"type": "node", "id": 4624982173, "lat": 41.8605399, "lon": 12.5576402, "tags": {"addr:city": "Roma", "addr:country": "IT", "addr:housenumber": "27", "addr:postcode": "00175", "addr:street": "Via Ponzio Cominio", "name": "Prodotti Alimentari Cinesi", "shop": "convenience"}}, {"type": "node", "id": 4630769100, "lat": 41.8599054, "lon": 12.558935, "tags": {"addr:city": "Roma", "addr:country": "IT", "addr:housenumber": "34", "addr:street": "Via Livio Salinatore", "shop": "convenience"}}, {"type": "node", "id": 4638622119, "lat": 41.8624654, "lon": 12.5510282, "tags": {"addr:city": "Roma", "addr:country": "IT", "addr:housenumber": "9", "addr:street": "Via degli Opimiani", "name": "Raha Alimentari", "shop": "convenience"}}, {"type": "node", "id": 4664316083, "lat": 41.8955819, "lon": 12.502792, "tags": {"addr:city": "Roma", "addr:housenumber": "34", "addr:postcode": "00185", "addr:street": "Via Carlo Alberto", "name": "34", "shop": "convenience", "source": "mapillary"}}, {"type": "node", "id": 4683334690, "lat": 41.7789763, "lon": 12.3419116, "tags": {"addr:housenumber": "61", "addr:street": "Via Francesco Donati", "shop": "convenience"}}, {"type": "node", "id": 4686068118, "lat": 41.8639688, "lon": 12.5562692, "tags": {"addr:city": "Roma", "addr:country": "IT", "addr:housenumber": "145", "addr:street": "Via Vestricio Spurinna", "name": "Supe Alimentari", "shop": "convenience"}}, {"type": "node", "id": 4701435408, "lat": 41.8202275, "lon": 12.4041591, "tags": {"addr:full": "Autostrada Roma-Fiumicino Km 5.657;Stazione di Servizio Q8 Magliana Nord;00148 Roma", "amenity": "fuel", "brand": "Q8", "fuel:LH2": "yes", "fuel:cng": "yes", "fuel:lpg": "yes", "name": "Q8", "operator": "Ri.Ge.Soc. Srl.", "phone": "+39 06 6552680", "ref:mise": "3729", "ref:vatin": "IT03831371004", "shop": "convenience"}}, {"type": "node", "id": 4732339376, "lat": 41.8548961, "lon": 12.4966621, "tags": {"addr:housenumber": "19", "addr:street": "Via dei Lincei", "name": "Ma Frutta & Alimentari", "shop": "convenience"}}, {"type": "node", "id": 4747297339, "lat": 41.9077557, "lon": 12.3929844, "tags": {"addr:postcode": "00166", "addr:street": "Via di Montespaccato", "name": "Negozio di alimentari", "shop": "convenience"}}, {"type": "node", "id": 4791567235, "lat": 41.9205246, "lon": 12.3646928, "tags": {"name": "Crai", "shop": "convenience", "wheelchair": "yes"}}, {"type": "node", "id": 4791567333, "lat": 41.9160385, "lon": 12.3743532, "tags": {"addr:city": "Roma", "addr:housenumber": "57", "addr:postcode": "00166", "addr:street": "Via di Casalotti", "name": "Crai", "operator": "Remo Salvatori", "shop": "convenience", "wheelchair": "yes"}}, {"type": "node", "id": 4802149269, "lat": 41.8968776, "lon": 12.4758269, "tags": {"addr:housenumber": "8", "addr:street": "Via Monterone", "brand": "Carrefour Express", "brand:wikidata": "Q2940190", "brand:wikipedia": "fr:Carrefour Express", "name": "Carrefour Express", "name:en": "Carrefour Express", "name:it": "Carrefour Express", "opening_hours": "Mo-Su 07:00-22:00", "shop": "convenience"}}, {"type": "node", "id": 4813538901, "lat": 41.9079131, "lon": 12.4550444, "tags": {"addr:city": "Roma", "addr:country": "IT", "addr:housenumber": "10/a", "addr:street": "Via Sebastiano Veniero", "brand": "Carrefour Express", "brand:wikidata": "Q2940190", "brand:wikipedia": "fr:Carrefour Express", "check_date:opening_hours": "2022-08-07", "name": "Carrefour Express", "opening_hours": "Mo-Sa 08:00-22:00; Su 09:00-21:00", "shop": "convenience", "website": "https://www.carrefour.it/punti-Vendetta/supermercato-carrefour-Express-roma-Sebastian-genierlichen-10a", "wheelchair": "yes"}}, {"type": "node", "id": 4842619488, "lat": 41.8317201, "lon": 12.6567559}, {"type": "node", "id": 4842619489, "lat": 41.8318182, "lon": 12.6565001}, {"type": "node", "id": 4842619490, "lat": 41.8317205, "lon": 12.6564392}, {"type": "node", "id": 4842619491, "lat": 41.8316267, "lon": 12.6566963}, {"type": "node", "id": 4847978577, "lat": 41.887963, "lon": 12.4709657, "tags": {"shop": "convenience"}}, {"type": "node", "id": 4863814021, "lat": 41.8942961, "lon": 12.4912764, "tags": {"name": "Mini Market", "shop": "convenience"}}, {"type": "node", "id": 4867897076, "lat": 41.9147617, "lon": 12.5470218, "tags": {"addr:city": "Roma", "addr:housenumber": "174", "addr:street": "Via Filippo Meda", "name": "Dar Golosone", "shop": "convenience"}}, {"type": "node", "id": 4884459073, "lat": 41.9068134, "lon": 12.4689808, "tags": {"addr:city": "Roma", "addr:country": "IT", "addr:housenumber": "33", "addr:street": "Via Cicerone", "shop": "convenience"}}, {"type": "node", "id": 4888579505, "lat": 41.8633013, "lon": 12.5479502, "tags": {"addr:city": "Roma", "addr:country": "IT", "addr:housenumber": "27", "addr:street": "Via dei Fulvi", "shop": "convenience"}}, {"type": "node", "id": 4907618684, "lat": 41.859336, "lon": 12.4808989, "tags": {"brand": "Conad Margherita", "shop": "convenience"}}, {"type": "node", "id": 4943533180, "lat": 41.9685472, "lon": 12.4416229, "tags": {"addr:city": "Roma", "addr:housenumber": "19", "addr:postcode": "00189", "addr:street": "Via al Sesto Miglio", "name": "L'Isola Celiaca Roma Cassia", "opening_hours": "Mo 16:00-20:00; Tu-Sa 09:30-13:00, 16:00-20:00", "shop": "convenience"}}, {"type": "node", "id": 4995542923, "lat": 41.9029094, "lon": 12.4746856, "tags": {"brand": "Carrefour Express", "brand:wikidata": "Q2940190", "brand:wikipedia": "fr:Carrefour Express", "fixme": "posizione", "name": "Carrefour Express", "shop": "convenience"}}, {"type": "node", "id": 5019511121, "lat": 41.8902206, "lon": 12.5280246, "tags": {"addr:city": "Roma", "addr:housenumber": "39", "addr:postcode": "00176", "addr:street": "Circonvallazione Casilina", "name": "Alimentari Conte", "shop": "convenience"}}, {"type": "node", "id": 5019630522, "lat": 41.9029777, "lon": 12.4833549, "tags": {"addr:housenumber": "20", "addr:street": "Largo del Nazareno", "brand": "Carrefour", "name": "Carrefour express", "shop": "convenience"}}, {"type": "node", "id": 5031659323, "lat": 41.9158406, "lon": 12.4683142, "tags": {"addr:city": "Roma", "addr:housenumber": "13/27", "addr:postcode": "00195", "addr:street": "Via Giovanni Nicotera", "brand": "Carrefour Express", "brand:wikidata": "Q2940190", "brand:wikipedia": "fr:Carrefour Express", "delivery": "yes", "name": "Carrefour Express", "opening_hours": "Mo-Sa 08:00-21:30; Su 09:00-14:00, 16:00-21:00", "operator": "Carrefour", "payment:cash": "yes", "payment:credit_cards": "yes", "phone": "+39 06 36003771", "shop": "convenience", "website": "https://www.carrefour.it/punti-vendita/carrefour-express-roma-via-giovanni-nicotera-1327-0248.html"}}, {"type": "node", "id": 5039823726, "lat": 41.9293667, "lon": 12.5701776, "tags": {"addr:housenumber": "81", "addr:postcode": "00156", "addr:street": "Via Francesco Selmi", "name": "Casalinghi", "name:it": "Casalinghi", "shop": "convenience"}}, {"type": "node", "id": 5074040325, "lat": 41.906938, "lon": 12.4795822, "tags": {"addr:city": "Roma", "addr:housenumber": "22/A", "addr:postcode": "00187", "addr:street": "Via Vittoria", "brand": "Carrefour Express", "brand:wikidata": "Q2940190", "brand:wikipedia": "fr:Carrefour Express", "name": "Carrefour Express", "opening_hours": "24/7", "operator": "Carrefour", "shop": "convenience"}}, {"type": "node", "id": 5189646979, "lat": 41.8923865, "lon": 12.7584127, "tags": {"shop": "convenience"}}, {"type": "node", "id": 5212779227, "lat": 41.7712259, "lon": 12.7083236, "tags": {"name": "Mini Market Gatta Piero", "shop": "convenience"}}, {"type": "node", "id": 5288226124, "lat": 41.8955829, "lon": 12.472555, "tags": {"addr:housenumber": "43", "addr:street": "Campo de' Fiori", "name": "Norcineria Viola", "opening_hours": "Mo-Th 08:00-14:00,16:00-20:00; Fr-Sa 08:00-20:00", "shop": "convenience"}}, {"type": "node", "id": 5340455427, "lat": 41.984522, "lon": 12.5139765, "tags": {"shop": "convenience"}}, {"type": "node", "id": 5344514634, "lat": 41.8749529, "lon": 12.4660887, "tags": {"addr:city": "Roma", "addr:housenumber": "277", "addr:postcode": "00153", "addr:street": "Viale di Trastevere", "name": "Fantasie del buongustaio", "shop": "convenience"}}, {"type": "node", "id": 5382084521, "lat": 41.8998652, "lon": 12.500292, "tags": {"addr:city": "Roma", "addr:housenumber": "14", "addr:postcode": "00185", "addr:street": "Via Daniele Manin", "name": "Multi Market", "shop": "convenience"}}, {"type": "node", "id": 5384442599, "lat": 41.887999, "lon": 12.5670174, "tags": {"addr:city": "Roma", "addr:housenumber": "18C", "addr:postcode": "00171", "addr:street": "Piazza delle Iris", "description": "Distribuzione e vendita al dettaglio di Canapa sativa legale, ad uso tecnico e da collezione", "name": "Shop & Go", "operator": "Smell Italia", "shop": "convenience"}}, {"type": "node", "id": 5406904922, "lat": 41.8496396, "lon": 12.5915592, "tags": {"addr:city": "Roma", "addr:housenumber": "86", "addr:postcode": "00173", "addr:street": "Viale Antonio Ciamarra", "name": "La Bottega di noi", "opening_hours:covid19": "open", "operator": "Carni Star srl", "phone": "+39 06 72907958", "shop": "convenience"}}, {"type": "node", "id": 5418193895, "lat": 41.8878723, "lon": 12.5662019, "tags": {"addr:city": "Roma", "addr:housenumber": "41A", "addr:postcode": "00171", "addr:street": "Via delle Acacie", "name": "Antichi sapori", "shop": "convenience"}}, {"type": "node", "id": 5418809721, "lat": 41.8413698, "lon": 12.5853993, "tags": {"addr:city": "Roma", "addr:housenumber": "1820", "addr:postcode": "00173", "addr:street": "Via Tuscolana", "name": "Alimentari Rocchetti", "phone": "+39 06 7222088", "shop": "convenience"}}, {"type": "node", "id": 5418846319, "lat": 41.8418245, "lon": 12.5847331, "tags": {"addr:city": "Roma", "addr:housenumber": "1810/e", "addr:postcode": "00173", "addr:street": "Via Tuscolana", "name": "Etno Market", "phone": "+39 06 76906660", "shop": "convenience"}}, {"type": "node", "id": 5456041815, "lat": 41.8946732, "lon": 12.4915678, "tags": {"addr:housenumber": "76", "addr:street": "Via Leonina", "name": "Amici Market", "operator": "Hossain MD Amir & C. SaS", "phone": "+39 351 1793847", "ref:vatin": "IT13434621002", "shop": "convenience"}}, {"type": "node", "id": 5457684464, "lat": 41.8742728, "lon": 12.4661263, "tags": {"name": "Ria", "shop": "convenience"}}, {"type": "node", "id": 5457684465, "lat": 41.8743847, "lon": 12.4661223, "tags": {"addr:housenumber": "313", "addr:street": "Viale di Trastevere", "name": "Mini Market", "shop": "convenience"}}, {"type": "node", "id": 5466267302, "lat": 41.9428476, "lon": 12.4213188, "tags": {"addr:city": "Roma", "addr:housenumber": "38", "addr:postcode": "00135", "addr:street": "Piazza Pietro Thouar", "name": "drogheria Alesse", "shop": "convenience"}}, {"type": "node", "id": 5478951421, "lat": 41.9112901, "lon": 12.4987138, "tags": {"addr:postcode": "00198", "addr:street": "Piazza Fiume", "name": "La Via del Te Roma", "name:en": "La Via del Te tea market", "name:ru": "\u0427\u0430\u0439\u043d\u044b\u0439 \u043c\u0430\u0433\u0430\u0437\u0438\u043d", "phone": "+39068841231", "shop": "convenience"}}, {"type": "node", "id": 5589301534, "lat": 41.8629345, "lon": 12.4994589, "tags": {"level": "0", "shop": "convenience"}}, {"type": "node", "id": 5597065521, "lat": 41.8784907, "lon": 12.4783535, "tags": {"shop": "convenience"}}, {"type": "node", "id": 5613251750, "lat": 41.8606358, "lon": 12.4996992, "tags": {"addr:city": "Roma", "addr:housenumber": "18", "addr:postcode": "00147", "addr:street": "Piazza dei Navigatori", "name": "Dina Frutta Alimentari", "shop": "convenience"}}, {"type": "node", "id": 5615949448, "lat": 41.8890126, "lon": 12.4976657, "tags": {"check_date": "2023-04-09", "shop": "convenience", "source": "survey"}}, {"type": "node", "id": 5640181059, "lat": 41.919466, "lon": 12.4368849, "tags": {"addr:housenumber": "7c", "addr:postcode": "00136", "addr:street": "Largo Damiano Chiesa", "fixme": "position estimated", "name": "Minimarket e frutteria", "shop": "convenience"}}, {"type": "node", "id": 5760580387, "lat": 41.9084977, "lon": 12.4555366, "tags": {"shop": "convenience"}}, {"type": "node", "id": 5812080053, "lat": 41.9086547, "lon": 12.477755, "tags": {"name": "Alimentari", "name:en": "Mini market", "shop": "convenience"}}, {"type": "node", "id": 5814241033, "lat": 41.9115143, "lon": 12.5041537, "tags": {"addr:city": "Roma", "addr:housenumber": "109", "addr:postcode": "00198", "addr:street": "Via Nomentana", "name": "Alimentari", "shop": "convenience"}}, {"type": "node", "id": 5817468854, "lat": 41.8653939, "lon": 12.484587, "tags": {"shop": "convenience"}}, {"type": "node", "id": 5825324754, "lat": 41.9073979, "lon": 12.4568515, "tags": {"shop": "convenience", "wheelchair": "yes"}}, {"type": "node", "id": 5831921692, "lat": 41.9150013, "lon": 12.4145923, "tags": {"shop": "convenience"}}, {"type": "node", "id": 5837108973, "lat": 41.8835238, "lon": 12.5140922, "tags": {"addr:city": "Roma", "addr:housenumber": "9", "addr:postcode": "00182", "addr:street": "Via Fidenza", "brand": "Carrefour Express", "brand:wikidata": "Q2940190", "brand:wikipedia": "fr:Carrefour Express", "name": "Carrefour Express", "operator": "Carrefour", "shop": "convenience"}}, {"type": "node", "id": 5853362485, "lat": 41.8938451, "lon": 12.489598, "tags": {"addr:city": "Roma", "addr:postcode": "00184", "addr:street": "Via Cavour", "name": "La voglia", "shop": "convenience"}}, {"type": "node", "id": 5890476912, "lat": 41.8772484, "lon": 12.5066993, "tags": {"name": "Mini Market Isba Uno", "shop": "convenience"}}, {"type": "node", "id": 5913325293, "lat": 41.9000514, "lon": 12.4810166, "tags": {"addr:housenumber": "26", "addr:street": "Via delle Muratte", "name": "pyloned", "shop": "convenience"}}, {"type": "node", "id": 5927496986, "lat": 41.9414179, "lon": 12.4218792, "tags": {"name": "Tabaccheria", "shop": "convenience"}}, {"type": "node", "id": 5927635885, "lat": 41.912222, "lon": 12.4762939, "tags": {"shop": "convenience"}}, {"type": "node", "id": 5933524185, "lat": 41.8872703, "lon": 12.508564, "tags": {"name": "Pam local", "shop": "convenience"}}, {"type": "node", "id": 5961053491, "lat": 42.0002953, "lon": 12.4924009, "tags": {"addr:city": "Roma", "addr:housenumber": "11", "addr:postcode": "00188", "addr:street": "Via della Stazione di Prima Porta", "name": "Market Romanesc", "shop": "convenience"}}, {"type": "node", "id": 5979463785, "lat": 41.916334, "lon": 12.4978571, "tags": {"addr:housenumber": "84", "addr:street": "Via Po", "name": "Sapord\u2019Olio", "opening_hours": "Mo-Sa 09:30-20:00", "phone": "+39 06 89270911", "shop": "convenience", "website": "http://sapordolio.com"}}, {"type": "node", "id": 5983789699, "lat": 41.8981452, "lon": 12.4769107, "tags": {"addr:housenumber": "26", "addr:street": "Via della Palombella", "name": "Namas Tey", "opening_hours": "Mo 11:00-19:30; Tu-Sa 10:30-19:30; Su 15:00-19:30", "opening_hours:signed": "no", "phone": "+39 06 68135660", "shop": "convenience", "website": "http://namastey.it"}}, {"type": "node", "id": 5993607609, "lat": 41.8940892, "lon": 12.4739571, "tags": {"name": "Mini Market", "shop": "convenience"}}, {"type": "node", "id": 6004560660, "lat": 41.9114188, "lon": 12.5008458, "tags": {"name": "In's", "shop": "convenience"}}, {"type": "node", "id": 6030090304, "lat": 41.8567625, "lon": 12.559871, "tags": {"addr:city": "Roma", "addr:country": "IT", "addr:housenumber": "95", "addr:street": "Via Marco Valerio Corvo", "name": "Specialit\u00e0 Alimentari Salvatori", "shop": "convenience"}}, {"type": "node", "id": 6054626718, "lat": 41.9062245, "lon": 12.5000451, "tags": {"addr:city": "Roma", "addr:housenumber": "5", "addr:postcode": "00185", "addr:street": "Via Goito", "name": "Alimentari casalinghi", "opening_hours": "Mo-Sa 09:00-23:00", "shop": "convenience"}}, {"type": "node", "id": 6084525985, "lat": 41.7387593, "lon": 12.6477987, "tags": {"name": "Alimentari", "name:en": "Minimarket", "shop": "convenience"}}, {"type": "node", "id": 6119640311, "lat": 41.8260907, "lon": 12.3244379, "tags": {"addr:city": "Roma", "addr:housenumber": "165", "addr:postcode": "00148", "addr:street": "Via della Muratella", "name": "Ariete Fattoria Latte Sano", "operator": "Ariete Fattoria Latte Sano SpA", "phone": "+39 06 65006373", "ref:vatin": "IT00809660152", "shop": "convenience", "short_name": "Latte Sano"}}, {"type": "node", "id": 6160798088, "lat": 41.9076027, "lon": 12.4468691, "tags": {"name": "La Tradizione", "opening_hours:signed": "no", "shop": "convenience"}}, {"type": "node", "id": 6160809985, "lat": 41.9081155, "lon": 12.4524196, "tags": {"name": "OVS", "shop": "convenience"}}, {"type": "node", "id": 6166281491, "lat": 41.8865776, "lon": 12.4717341, "tags": {"name": "OVS", "shop": "convenience", "wheelchair": "limited"}}, {"type": "node", "id": 6167972388, "lat": 41.882652, "lon": 12.5141553, "tags": {"name": "Casa bufala", "shop": "convenience"}}, {"type": "node", "id": 6170664395, "lat": 41.7469375, "lon": 12.6493648, "tags": {"name": "La Bottega", "shop": "convenience"}}, {"type": "node", "id": 6259773343, "lat": 41.8699796, "lon": 12.5324269, "tags": {"addr:city": "Roma", "addr:housenumber": "42", "addr:postcode": "00179", "addr:street": "Via Albano", "name": "Surgelati", "shop": "convenience"}}, {"type": "node", "id": 6267873451, "lat": 41.9328195, "lon": 12.4666314, "tags": {"addr:city": "Roma", "addr:housenumber": "30", "addr:postcode": "00196", "addr:street": "Viale Pinturicchio", "name": "Alimentari", "shop": "convenience"}}, {"type": "node", "id": 6300640055, "lat": 41.8987524, "lon": 12.4268466, "tags": {"name": "Mini Market", "shop": "convenience"}}, {"type": "node", "id": 6300640066, "lat": 41.8986807, "lon": 12.4258304, "tags": {"addr:city": "Roma", "addr:housenumber": "456/b", "addr:postcode": "00165", "addr:street": "Via Aurelia", "name": "Mini Market", "shop": "convenience"}}, {"type": "node", "id": 6324223085, "lat": 41.8982931, "lon": 12.4900628, "tags": {"name:en": "Mini Market", "shop": "convenience"}}, {"type": "node", "id": 6330777585, "lat": 41.8787204, "lon": 12.4779772, "tags": {"addr:housenumber": "20", "addr:postcode": "00153", "addr:street": "Via Luca della Robbia", "name": "Emporio delle Spezie", "opening_hours": "Mo-Sa 09:00-13:30, 16:00-20:00", "phone": "+39 0621119383", "shop": "convenience", "website": "https://www.emporiodellezpezie.it"}}, {"type": "node", "id": 6335577223, "lat": 41.9047494, "lon": 12.4992228, "tags": {"addr:city": "Roma", "addr:housenumber": "15", "addr:postcode": "00185", "addr:street": "Via Volturno", "name": "Gregory's", "operator": "G. Fal SAS", "phone": "+39 06 4881410", "shop": "convenience"}}, {"type": "node", "id": 6341754377, "lat": 41.9225686, "lon": 12.5150957, "tags": {"name": "Super Casalinghi", "shop": "convenience"}}, {"type": "node", "id": 6361286541, "lat": 41.8605475, "lon": 12.4865037, "tags": {"addr:housenumber": "133", "opening_hours": "Mo-Su 08:00-14:00, 16:00-23:00", "shop": "convenience"}}, {"type": "node", "id": 6384863685, "lat": 41.9026466, "lon": 12.4824223, "tags": {"addr:housenumber": "119", "addr:street": "Via del Pozzetto", "name": "Coop", "opening_hours": "Mo-Su 08:00-21:00", "shop": "convenience"}}, {"type": "node", "id": 6403066939, "lat": 41.9290847, "lon": 12.4271044, "tags": {"name": "Mini Market CASALINGHI - CARTOLERIA", "shop": "convenience"}}, {"type": "node", "id": 6439718193, "lat": 41.7301711, "lon": 12.2850238, "tags": {"addr:city": "Roma", "addr:housenumber": "28", "addr:postcode": "00122", "addr:street": "Via Pietro Rosa", "name": "Alimentari", "shop": "convenience", "survey:date": "2019-04-30", "wheelchair": "limited"}}, {"type": "node", "id": 6483542285, "lat": 41.9431705, "lon": 12.5204481, "tags": {"name:ru": "\u0420\u044b\u043d\u043e\u043a", "shop": "convenience"}}, {"type": "node", "id": 6498074188, "lat": 41.8984189, "lon": 12.4564713, "tags": {"addr:housenumber": "41a", "addr:street": "Via delle Fornaci", "name": "Supermarket San Pietro", "shop": "convenience"}}, {"type": "node", "id": 6498130185, "lat": 41.8974443, "lon": 12.4569043, "tags": {"name": "Minimarket Casallo", "shop": "convenience"}}, {"type": "node", "id": 6514918900, "lat": 41.8994654, "lon": 12.5663653, "tags": {"name": "Mister Risparmio", "shop": "convenience"}}, {"type": "node", "id": 6654939689, "lat": 41.9522623, "lon": 12.4581934, "tags": {"name": "Supermercato", "shop": "convenience"}}, {"type": "node", "id": 6744749870, "lat": 41.8463673, "lon": 12.6262923, "tags": {"addr:city": "Roma", "addr:housenumber": "341", "addr:postcode": "00133", "addr:street": "Via di Passo Lombardo", "air_conditioning": "yes", "internet_access": "wlan", "level": "0", "name": "XMarket", "shop": "convenience"}}, {"type": "node", "id": 6816885529, "lat": 41.9580983, "lon": 12.5234911, "tags": {"addr:city": "Roma", "addr:housenumber": "8", "addr:postcode": "00139", "addr:street": "Piazza Ottaviano Vimercati", "name": "Alimentari Campisano", "shop": "convenience"}}, {"type": "node", "id": 6853308784, "lat": 42.0005088, "lon": 12.4801411, "tags": {"addr:city": "Roma", "addr:housenumber": "66/a", "addr:postcode": "00188", "addr:street": "Via Dalmine", "name": "Alimentari", "shop": "convenience"}}, {"type": "node", "id": 6918316898, "lat": 41.8585647, "lon": 12.4820578, "tags": {"name:signed": "no", "shop": "convenience"}}, {"type": "node", "id": 6918956808, "lat": 41.916461, "lon": 12.4575592, "tags": {"shop": "convenience"}}, {"type": "node", "id": 6920468824, "lat": 41.9172196, "lon": 12.4561464, "tags": {"name": "Casalinghi", "shop": "convenience", "wheelchair": "no"}}, {"type": "node", "id": 6959242568, "lat": 41.8033275, "lon": 12.5987919, "tags": {"addr:city": "Ciampino", "addr:housenumber": "23", "addr:postcode": "00043", "addr:street": "Via San Francesco d'Assisi", "image": "https://www.mapillary.com/map/im/sUtr86YMZaqx_r9fEST1aw", "mapillary": "766052424102187", "name": "Minimarket", "shop": "convenience"}}, {"type": "node", "id": 6959246585, "lat": 41.8029486, "lon": 12.598238, "tags": {"addr:city": "Ciampino", "addr:housenumber": "41", "addr:postcode": "00043", "addr:street": "Via San Francesco d'Assisi", "image": "https://www.mapillary.com/map/im/1z6gr2TKjBB5SMNnWzqZww", "mapillary": "2970106396569029", "name": "Cose di casa", "shop": "convenience"}}, {"type": "node", "id": 6979839571, "lat": 41.8943008, "lon": 12.5631234, "tags": {"addr:city": "Roma", "addr:housenumber": "10", "addr:postcode": "00171", "addr:street": "Via Girolamo Cocconi", "brand": "Carrefour Express", "brand:wikidata": "Q2940190", "brand:wikipedia": "fr:Carrefour Express", "name": "Carrefour Express", "shop": "convenience"}}, {"type": "node", "id": 7078195778, "lat": 41.8797492, "lon": 12.5211652, "tags": {"addr:city": "Roma", "addr:housenumber": "188", "addr:postcode": "00182", "addr:street": "Via Tuscolana", "shop": "convenience"}}, {"type": "node", "id": 7082525610, "lat": 41.8878187, "lon": 12.4951054, "tags": {"name": "Tuodi Market", "shop": "convenience"}}, {"type": "node", "id": 7088068671, "lat": 41.8532262, "lon": 12.4782917, "tags": {"addr:housenumber": "155", "addr:street": "Via Gaspare Gozzi", "shop": "convenience"}}, {"type": "node", "id": 7088414463, "lat": 41.9102518, "lon": 12.5193875, "tags": {"addr:housenumber": "61", "addr:street": "Via Cremona", "name": "DJ mini stop", "shop": "convenience"}}, {"type": "node", "id": 7088414471, "lat": 41.9106105, "lon": 12.5195608, "tags": {"addr:housenumber": "35", "addr:street": "Via Cremona", "shop": "convenience"}}, {"type": "node", "id": 7088520764, "lat": 41.9097956, "lon": 12.5202933, "tags": {"addr:city": "Roma", "addr:housenumber": "93", "addr:postcode": "00161", "addr:street": "Via Catania", "name": "Le mille cose di Kabir", "shop": "convenience"}}, {"type": "node", "id": 7089278169, "lat": 41.9087497, "lon": 12.5348633, "tags": {"shop": "convenience"}}, {"type": "node", "id": 7090368589, "lat": 41.8669885, "lon": 12.4853056, "tags": {"addr:housenumber": "102", "addr:street": "Circonvallazione Ostiense", "name": "Alimentari Maritato", "shop": "convenience"}}, {"type": "node", "id": 7093018114, "lat": 41.910574, "lon": 12.5193215, "tags": {"name": "Da Zakino", "shop": "convenience"}}, {"type": "node", "id": 7101491246, "lat": 41.8476351, "lon": 12.4855886, "tags": {"addr:housenumber": "81", "addr:street": "Via Fonte Buono", "shop": "convenience"}}, {"type": "node", "id": 7106502899, "lat": 41.8549316, "lon": 12.5667508, "tags": {"addr:city": "Roma", "addr:housenumber": "18", "addr:postcode": "00175", "addr:street": "Via Statilio Ottato", "shop": "convenience"}}, {"type": "node", "id": 7120087937, "lat": 41.8785959, "lon": 12.5086808, "tags": {"addr:housenumber": "53", "addr:street": "Via Britannia", "brand": "Carrefour Express", "brand:wikidata": "Q2940190", "brand:wikipedia": "fr:Carrefour Express", "name": "Carrefour Express", "shop": "convenience"}}, {"type": "node", "id": 7140867505, "lat": 41.9469285, "lon": 12.5266987, "tags": {"addr:city": "Roma", "addr:housenumber": "46", "addr:postcode": "00139", "addr:street": "Via Gorgona", "name": "La fraschetta", "shop": "convenience"}}, {"type": "node", "id": 7179639785, "lat": 41.8752274, "lon": 12.5166099, "tags": {"addr:housenumber": "22", "addr:street": "Via Alfredo Baccarini", "name": "Pam Local Via Baccarini", "opening_hours": "Mo-Su 08:00-21:00", "operator": "Pam Panorama", "payment:cash": "yes", "payment:credit_cards": "yes", "shop": "convenience"}}, {"type": "node", "id": 7179639885, "lat": 41.8741184, "lon": 12.5168651, "tags": {"shop": "convenience"}}, {"type": "node", "id": 7180902786, "lat": 41.875358, "lon": 12.5165826, "tags": {"shop": "convenience"}}, {"type": "node", "id": 7182441375, "lat": 41.7835349, "lon": 12.3364935, "tags": {"addr:city": "Roma", "addr:housenumber": "195", "addr:postcode": "00126", "addr:street": "Via Carlo Casini", "name": "Pizza, pane e... da Marco e Sonia", "operator": "Marco e Sonia", "payment:cash": "yes", "payment:credit_cards": "yes", "shop": "convenience"}}, {"type": "node", "id": 7197919827, "lat": 41.9595456, "lon": 12.5238569, "tags": {"addr:city": "Roma", "addr:housenumber": "32", "addr:postcode": "00139", "addr:street": "Piazza dell'Ateneo Salesiano", "name": "Celiachia Store", "shop": "convenience"}}, {"type": "node", "id": 7216127162, "lat": 41.9060253, "lon": 12.4681732, "tags": {"addr:city": "Roma", "addr:housenumber": "90/A", "addr:street": "Via Tacito", "name": "Coop", "opening_hours": "Mo-Sa 08:00-20:00; Su 08:30-13:00", "operator": "Unicoop Tirreno", "phone": "+39 06 3217071", "shop": "convenience", "website": "https://unicooptirreno.it/punto-vendita/roma-tacito-90a"}}, {"type": "node", "id": 7276489286, "lat": 41.8948044, "lon": 12.5016178, "tags": {"shop": "convenience"}}, {"type": "node", "id": 7296400031, "lat": 41.9731454, "lon": 12.5148339, "tags": {"addr:city": "Roma", "addr:housenumber": "202", "addr:postcode": "00138", "addr:street": "Via Radicofani", "name": "Alimentari", "shop": "convenience"}}, {"type": "node", "id": 7325084223, "lat": 41.9745334, "lon": 12.5137754, "tags": {"addr:city": "Roma", "addr:housenumber": "181", "addr:postcode": "00138", "addr:street": "Via Radicofani", "name": "Minimarket", "shop": "convenience"}}, {"type": "node", "id": 7474702237, "lat": 41.9667884, "lon": 12.5494584, "tags": {"addr:city": "La Cinquina", "addr:housenumber": "761", "addr:street": "Via della Bufalotta", "name": "Tradizioni Di Campagna", "shop": "convenience"}}, {"type": "node", "id": 7537004004, "lat": 42.0378572, "lon": 12.3114924, "tags": {"addr:city": "Osteria Nuova", "addr:housenumber": "25", "addr:postcode": "00123", "addr:street": "Via Sovramonte", "name": "La casa del pulito", "shop": "convenience"}}, {"type": "node", "id": 7592315610, "lat": 41.7366839, "lon": 12.2905326, "tags": {"check_date:opening_hours": "2023-02-23", "name:signed": "no", "opening_hours:signed": "no", "shop": "convenience"}}, {"type": "node", "id": 7617483066, "lat": 41.8432467, "lon": 12.4372345, "tags": {"addr:city": "Roma", "addr:housenumber": "7", "addr:postcode": "00148", "addr:street": "Via Campagnatico", "name": "Alimentari Rossi", "opening_hours": "Mo-Fr 07:30-13:30, 17:00-19:30; Sa 07:00-14:00", "payment:cash": "yes", "shop": "convenience"}}, {"type": "node", "id": 7757251292, "lat": 41.8555046, "lon": 12.4975823, "tags": {"name": "Dina frutta", "shop": "convenience"}}, {"type": "node", "id": 7809629085, "lat": 41.8388419, "lon": 12.6008549, "tags": {"addr:city": "Roma", "addr:housenumber": "261", "addr:postcode": "00173", "addr:street": "Via Francesco di Benedetto", "name": "La bottega del gusto", "shop": "convenience"}}, {"type": "node", "id": 7842955349, "lat": 41.892866, "lon": 12.4778071, "tags": {"addr:housenumber": "11", "addr:street": "Via del Portico d'Ottavia", "name": "Kosher Delight", "phone": "+39 0668135002", "shop": "convenience", "website": "https://kosherdelight.it/"}}, {"type": "node", "id": 7858432085, "lat": 41.888011, "lon": 12.4713479, "tags": {"addr:postcode": "00153", "name": "Alimentari F.lli Longhi", "opening_hours": "Mo-Sa 07:30-14:00, 16:30-21:00", "phone": "+39065812920", "shop": "convenience"}}, {"type": "node", "id": 7962489726, "lat": 41.827533, "lon": 12.4812465, "tags": {"addr:city": "Roma", "addr:housenumber": "19", "addr:postcode": "00143", "addr:street": "Via di Vigna Murata", "name": "Friend's Alimentari", "shop": "convenience"}}, {"type": "node", "id": 8000839650, "lat": 41.8567588, "lon": 12.5670931, "tags": {"addr:city": "Roma", "addr:housenumber": "58", "addr:postcode": "00175", "addr:street": "Viale dei Salesiani", "name": "Alimentari, frutta e verdura", "shop": "convenience"}}, {"type": "node", "id": 8039033204, "lat": 41.8570543, "lon": 12.4811185, "tags": {"addr:housenumber": "1", "addr:street": "Largo Leonardo da Vinci", "name": "Roma West", "opening_hours": "Mo-Sa 07:30-23:00", "shop": "convenience"}}, {"type": "node", "id": 8075522930, "lat": 41.8452615, "lon": 12.4358235, "tags": {"name": "Mini Market", "shop": "convenience"}}, {"type": "node", "id": 8084582735, "lat": 41.8893925, "lon": 12.5315195, "tags": {"shop": "convenience"}}, {"type": "node", "id": 8084582746, "lat": 41.8913924, "lon": 12.5312896, "tags": {"shop": "convenience"}}, {"type": "node", "id": 8090859746, "lat": 41.8526144, "lon": 12.4369316, "tags": {"addr:housenumber": "14", "addr:street": "Via San Pantaleo Campano", "shop": "convenience"}}, {"type": "node", "id": 8096934095, "lat": 41.9436891, "lon": 12.4231341, "tags": {"addr:housenumber": "13", "addr:street": "Via Giovanni Gherardini", "entrance": "yes", "shop": "convenience"}}, {"type": "node", "id": 8166604301, "lat": 41.899538, "lon": 12.4774553, "tags": {"brand": "Coop Pronto", "brand:wikidata": "Q1129777", "brand:wikipedia": "de:Coop Mineraloel", "name": "Coop Pronto", "opening_hours": "Mo-Su 08:30-22:00", "shop": "convenience"}}, {"type": "node", "id": 8186479918, "lat": 41.9259601, "lon": 12.4815832, "tags": {"brand": "Carrefour Express", "brand:wikidata": "Q2940190", "brand:wikipedia": "fr:Carrefour Express", "name": "Carrefour Express", "shop": "convenience"}}, {"type": "node", "id": 8201983216, "lat": 41.9398881, "lon": 12.4248437, "tags": {"name": "Shrilanka Shop", "opening_hours": "Mo-Sa 09:30-21:00", "shop": "convenience"}}, {"type": "node", "id": 8208852571, "lat": 41.679995, "lon": 12.5017367, "tags": {"addr:housenumber": "9", "addr:street": "Largo Urbino", "name": "Mercatino Pomezia", "opening_hours": "Mo-Su 09:30-19:30", "phone": "+39 0631054327", "shop": "convenience", "website": "https://pomezia.mercatinousato.com/"}}, {"type": "node", "id": 8225872572, "lat": 41.9444701, "lon": 12.4250927, "tags": {"shop": "convenience"}}, {"type": "node", "id": 8321330612, "lat": 41.7329317, "lon": 12.2899418, "tags": {"name": "alimentari multietnico", "shop": "convenience"}}, {"type": "node", "id": 8321330613, "lat": 41.7337782, "lon": 12.2904307, "tags": {"name": "alimentari multietnico", "shop": "convenience"}}, {"type": "node", "id": 8390863237, "lat": 41.8570721, "lon": 12.5698409, "tags": {"addr:city": "Roma", "addr:housenumber": "122", "addr:postcode": "00175", "addr:street": "Via Statilio Ottato", "name": "La Bottega di Noi", "shop": "convenience"}}, {"type": "node", "id": 8412065707, "lat": 41.8630954, "lon": 12.4713167, "tags": {"addr:city": "Roma", "addr:housenumber": "23/b", "addr:postcode": "00146", "addr:street": "Via Antonino Lo Surdo", "name": "Alimentari Santececca", "shop": "convenience"}}, {"type": "node", "id": 8437277712, "lat": 41.8805114, "lon": 12.5153762, "tags": {"addr:city": "Roma", "addr:housenumber": "224", "addr:postcode": "00183", "addr:street": "Via Appia Nuova", "name": "Pani & ripieni", "shop": "convenience"}}, {"type": "node", "id": 8445942605, "lat": 41.9322803, "lon": 12.4661471, "tags": {"addr:city": "Roma", "addr:housenumber": "54", "addr:postcode": "00196", "addr:street": "Viale Pinturicchio", "name": "L'isola celiaca", "phone": "+39 06 94429775", "shop": "convenience"}}, {"type": "node", "id": 8479474899, "lat": 42.0896448, "lon": 12.2716822, "tags": {"addr:city": "Anguillara Sabazia", "addr:housenumber": "2", "addr:postcode": "00061", "addr:street": "Via Vincenzo Bellini"}}, {"type": "node", "id": 8488724362, "lat": 41.7328056, "lon": 12.2754634, "tags": {"name": "Ostia Mini Shop", "shop": "convenience"}}, {"type": "node", "id": 8506281453, "lat": 41.782803, "lon": 12.3660377, "tags": {"name": "Tuodi Market", "shop": "convenience"}}, {"type": "node", "id": 8520084636, "lat": 41.756733, "lon": 12.355734, "tags": {"addr:city": "Roma", "addr:postcode": "00124", "shop": "convenience"}}, {"type": "node", "id": 8527957882, "lat": 41.8752556, "lon": 12.4803537, "tags": {"addr:housenumber": "8a", "addr:street": "Via Ostiense", "shop": "convenience"}}, {"type": "node", "id": 8562827536, "lat": 41.9044196, "lon": 12.4629114, "tags": {"addr:city": "Roma", "addr:housenumber": "2", "addr:postcode": "00193", "addr:street": "Via Giovanni Vitelleschi", "brand": "Pam Local", "brand:wikidata": "Q105614389", "brand:wikipedia": "it:Gruppo PAM", "name": "Pam Local", "opening_hours": "Mo-Sa 08:00-22:00, Su 09:00-22:00", "operator": "Pam S.p.A.", "payment:bancomat": "yes", "payment:cash": "yes", "payment:credit_cards": "yes", "shop": "convenience", "start_date": "2021-03-25", "website": "https://www.pampanorama.it/punti-vendita/roma-vitelleschi"}}, {"type": "node", "id": 8568812577, "lat": 41.8753917, "lon": 12.4682079, "tags": {"addr:city": "Roma", "addr:housenumber": "6;8", "addr:postcode": "00153", "addr:street": "Via Bernardino Passeri", "description": "Prodotti locali", "name": "Campagna Amica", "opening_hours": "Tu, We 08:00-20:00; Fr, Sa 08:00-20:00; Su 08:00-14:00", "phone": "3395214733", "shop": "convenience", "website": "https://www.campagnamica.it/"}}, {"type": "node", "id": 8615141117, "lat": 41.8418502, "lon": 12.5117906, "tags": {"name": "Frutteria Alimentari", "shop": "convenience"}}, {"type": "node", "id": 8621542835, "lat": 41.882821, "lon": 12.4585126, "tags": {"addr:city": "Roma", "addr:housenumber": "78/a", "addr:postcode": "00152", "addr:street": "Viale dei Quattro Venti", "name": "Salsamenteria", "phone": "+39 06 5812942", "shop": "convenience"}}, {"type": "node", "id": 8651677510, "lat": 41.8610402, "lon": 12.4845944, "tags": {"addr:housenumber": "24", "addr:postcode": "00145", "addr:street": "Via Giovannipoli", "name": "Mini Market", "opening_hours": "Mo-Su 08:30-21:00", "operator": "La Fruttiera SNC di Ahmed Dilipe e Hussain Nazmul", "ref:vatin": "IT12224571005", "shop": "convenience"}}, {"type": "node", "id": 8662395312, "lat": 41.8545533, "lon": 12.5599239, "tags": {"name": "Gran Risparmio", "shop": "convenience"}}, {"type": "node", "id": 8668773340, "lat": 41.8592697, "lon": 12.6028301, "tags": {"addr:city": "Roma", "addr:housenumber": "137", "addr:postcode": "00133", "addr:street": "Via di Giardinetti", "brand": "Carrefour Express", "brand:wikidata": "Q2940190", "brand:wikipedia": "fr:Carrefour Express", "name": "Carrefour Express", "phone": "+39 06 2024004", "shop": "convenience"}}, {"type": "node", "id": 8675962343, "lat": 41.8611695, "lon": 12.6212873, "tags": {"addr:city": "Roma", "addr:postcode": "00133", "addr:street": "Via di Tor Vergata", "name": "Alimentari Ma.Di.Cla.", "phone": "+39 06 2026613", "shop": "convenience"}}, {"type": "node", "id": 8718639356, "lat": 41.8868224, "lon": 12.5670481, "tags": {"addr:city": "Roma", "addr:housenumber": "54/c", "addr:postcode": "00171", "addr:street": "Via degli Olivi", "name": "Rossetti", "phone": "+39 06 2311855", "shop": "convenience"}}, {"type": "node", "id": 8791640717, "lat": 41.895662, "lon": 12.4731099, "tags": {"brand": "Carrefour Express", "brand:wikidata": "Q2940190", "brand:wikipedia": "fr:Carrefour Express", "name": "Carrefour Express", "shop": "convenience"}}, {"type": "node", "id": 8795210023, "lat": 42.0896703, "lon": 12.2715724}, {"type": "node", "id": 8795210024, "lat": 42.0896636, "lon": 12.2716841}, {"type": "node", "id": 8795210025, "lat": 42.0896246, "lon": 12.2716799}, {"type": "node", "id": 8795210026, "lat": 42.0896678, "lon": 12.2716147, "tags": {"addr:city": "Anguillara Sabazia", "addr:housenumber": "1", "addr:postcode": "00061", "addr:street": "Via Vincenzo Bellini"}}, {"type": "node", "id": 8882791500, "lat": 41.8909054, "lon": 12.5387092, "tags": {"name": "J&T Mini Market", "shop": "convenience"}}, {"type": "node", "id": 8911194441, "lat": 41.8926798, "lon": 12.5370659, "tags": {"name": "Tabacchi", "shop": "convenience"}}, {"type": "node", "id": 8998837220, "lat": 42.0895837, "lon": 12.2763005, "tags": {"addr:city": "Anguillara Sabazia", "addr:housenumber": "12", "addr:postcode": "00061", "addr:street": "Via Anguillarese", "name": "Il Prezzaccio", "opening_hours": "Mo-Sa 08:30-20:00", "phone": "+393664235790", "shop": "convenience"}}, {"type": "node", "id": 9009958372, "lat": 41.8908107, "lon": 12.5412782, "tags": {"name": "Pane & Vini Prodotti Sardi", "shop": "convenience"}}, {"type": "node", "id": 9083779927, "lat": 41.825044, "lon": 12.4752173, "tags": {"addr:city": "Roma", "addr:housenumber": "88", "addr:postcode": "00144", "addr:street": "Via delle Montagne Rocciose", "name": "Alimentari Tintoni", "phone": "+39 06 5925965", "shop": "convenience"}}, {"type": "node", "id": 9137387089, "lat": 41.8809116, "lon": 12.5414874, "tags": {"name": "Mazzocco", "shop": "convenience"}}, {"type": "node", "id": 9214300537, "lat": 41.8686978, "lon": 12.5702836, "tags": {"shop": "convenience"}}, {"type": "node", "id": 9227349972, "lat": 41.8632295, "lon": 12.4842994, "tags": {"shop": "convenience"}}, {"type": "node", "id": 9497858613, "lat": 41.8883952, "lon": 12.4965676, "tags": {"addr:housenumber": "20a-b", "addr:street": "Via Celimontana", "description": "Wine Shop", "name": "Enoteca Colosseo", "phone": "06 64821534", "shop": "convenience"}}, {"type": "node", "id": 9547069081, "lat": 41.8547762, "lon": 12.4718428, "tags": {"shop": "convenience"}}, {"type": "node", "id": 9662296150, "lat": 41.9013138, "lon": 12.5042309, "tags": {"addr:city": "Roma", "addr:housenumber": "96", "addr:postcode": "00185", "addr:street": "Via Marsala", "name": "Mini Market & Money Transfer", "shop": "convenience"}}, {"type": "node", "id": 9692174464, "lat": 41.9231626, "lon": 12.6716896, "tags": {"shop": "convenience"}}, {"type": "node", "id": 9735933996, "lat": 41.7335524, "lon": 12.2766545, "tags": {"brand": "Shop & Go", "name": "Casalinghi cinese", "shop": "convenience"}}, {"type": "node", "id": 9735933999, "lat": 41.7338126, "lon": 12.2765498, "tags": {"brand": "Food Mart", "name": "alimentari multietnico", "shop": "convenience"}}, {"type": "node", "id": 9736837185, "lat": 41.8637557, "lon": 12.6771386}, {"type": "node", "id": 9736837186, "lat": 41.8637438, "lon": 12.6771961}, {"type": "node", "id": 9736837187, "lat": 41.8636377, "lon": 12.6771566}, {"type": "node", "id": 9736837188, "lat": 41.8636496, "lon": 12.6770991}, {"type": "node", "id": 9738044351, "lat": 42.0121112, "lon": 12.377807, "tags": {"name": "Tuo D\u00ec", "shop": "convenience"}}, {"type": "node", "id": 9738049226, "lat": 41.9461832, "lon": 12.4264933, "tags": {"shop": "convenience"}}, {"type": "node", "id": 9759121948, "lat": 41.8572193, "lon": 12.4843106, "tags": {"shop": "convenience"}}, {"type": "node", "id": 9785801935, "lat": 41.8666227, "lon": 12.489897, "tags": {"addr:housenumber": "8", "addr:street": "Piazza Eugenio Biffi", "cuisine": "oriental", "name": "Global Communication", "shop": "convenience"}}, {"type": "node", "id": 9806283115, "lat": 41.7313714, "lon": 12.3047544, "tags": {"name": "Minimarket Mar Rosso", "shop": "convenience"}}, {"type": "node", "id": 9846596723, "lat": 41.7739729, "lon": 12.6964791, "tags": {"name": "Il Capriccio", "shop": "convenience"}}, {"type": "node", "id": 9862669157, "lat": 41.912361, "lon": 12.4749658, "tags": {"addr:city": "Roma", "addr:housenumber": "28/31", "addr:postcode": "00196", "addr:street": "Via Francesco Carrara", "brand": "Carrefour Express", "brand:wikidata": "Q2940190", "name": "Carrefour Express", "operator": "Alba s.r.l.", "shop": "convenience"}}, {"type": "node", "id": 9866132254, "lat": 41.8930101, "lon": 12.4712864, "tags": {"name": "Mini Market", "shop": "convenience"}}, {"type": "node", "id": 9866157165, "lat": 41.8894118, "lon": 12.4752088, "tags": {"name": "Mini Market", "shop": "convenience"}}, {"type": "node", "id": 9866174414, "lat": 41.8914934, "lon": 12.4697726, "tags": {"name": "Mini Market", "shop": "convenience"}}, {"type": "node", "id": 9876778519, "lat": 41.9091446, "lon": 12.4527948, "tags": {"addr:housenumber": "78 (BOX 241)", "addr:street": "Via Tunisi", "contact:facebook": "profile.php", "contact:instagram": "galadiveg", "email": "galadiveg@libero.it", "name": "Gal\u00e0 di Veg", "opening_hours": "Th-Sa 08:00-14:30", "phone": "+393249041344", "shop": "convenience"}}, {"type": "node", "id": 9961065825, "lat": 41.9042189, "lon": 12.4998836, "tags": {"addr:city": "Roma", "addr:housenumber": "57", "addr:postcode": "00185", "addr:street": "Via Volturno", "name": "Italia Mini Market", "shop": "convenience"}}, {"type": "node", "id": 9961065839, "lat": 41.9046257, "lon": 12.499377, "tags": {"addr:city": "Roma", "addr:housenumber": "25", "addr:postcode": "00185", "addr:street": "Via Volturno", "name": "Euro Mini Market", "shop": "convenience"}}, {"type": "node", "id": 9974286860, "lat": 41.738693, "lon": 12.2877285, "tags": {"addr:housenumber": "88", "addr:street": "Viale dei Promontori", "shop": "convenience"}}, {"type": "node", "id": 9998903939, "lat": 41.8720065, "lon": 12.5266402, "tags": {"addr:city": "Roma", "addr:housenumber": "513", "addr:postcode": "00181", "addr:street": "Via Appia Nuova", "name": "Tigre Amico", "opening_hours": "Mo-Sa 09:00-21:00, Su 09:00-20:00", "payment:bancomat": "yes", "payment:cash": "yes", "payment:credit_cards": "yes", "phone": "+39 06 78348039", "shop": "convenience", "source": "https://www.gdonews.it/2022/09/01/apre-un-nuovo-tigre-amico-a-roma-2/", "start_date": "2022-09-01"}}, {"type": "node", "id": 9999191330, "lat": 41.8971562, "lon": 12.5062184, "tags": {"name": "coop", "operator": "coop", "shop": "convenience"}}, {"type": "node", "id": 9999264606, "lat": 41.9059067, "lon": 12.5007564, "tags": {"addr:city": "Roma", "addr:housenumber": "78", "addr:postcode": "00185", "addr:street": "Via Montebello", "name": "Fratelli Ghezzi", "shop": "convenience"}}, {"type": "node", "id": 10000899354, "lat": 41.906031, "lon": 12.5009318, "tags": {"addr:city": "Roma", "addr:housenumber": "86", "addr:postcode": "00185", "addr:street": "Via Montebello", "name": "Corno d'Africa", "shop": "convenience"}}, {"type": "node", "id": 10033442002, "lat": 41.938909, "lon": 12.5280128, "tags": {"addr:city": "Roma", "addr:housenumber": "40", "addr:postcode": "00141", "addr:street": "Piazza Conca d'Oro", "name": "Alimentari orientale", "phone": "+39 347 5595131", "shop": "convenience"}}, {"type": "node", "id": 10038518353, "lat": 41.9402262, "lon": 12.5294061, "tags": {"addr:city": "Roma", "addr:housenumber": "152", "addr:postcode": "00141", "addr:street": "Viale Tirreno", "name": "Oriental Mini Market", "shop": "convenience"}}, {"type": "node", "id": 10116244374, "lat": 41.9063156, "lon": 12.5010513, "tags": {"addr:city": "Roma", "addr:housenumber": "39", "addr:postcode": "00185", "addr:street": "Via Castelfidardo", "name": "Mini market", "shop": "convenience"}}, {"type": "node", "id": 10117169992, "lat": 41.9078428, "lon": 12.4979009, "tags": {"shop": "convenience"}}, {"type": "node", "id": 10117169997, "lat": 41.9065374, "lon": 12.4962298, "tags": {"name": "Primizie", "shop": "convenience"}}, {"type": "node", "id": 10117170005, "lat": 41.9078887, "lon": 12.4886566, "tags": {"shop": "convenience"}}, {"type": "node", "id": 10128362580, "lat": 41.8809553, "lon": 12.5679083, "tags": {"addr:city": "Roma", "addr:housenumber": "102/b", "addr:postcode": "00172", "addr:street": "Via dei Platani", "name": "Chilelli", "shop": "convenience"}}, {"type": "node", "id": 10151686065, "lat": 41.9069832, "lon": 12.5018978, "tags": {"addr:city": "Roma", "addr:housenumber": "20", "addr:postcode": "00185", "addr:street": "Via Palestro", "name": "Mini market", "shop": "convenience"}}, {"type": "node", "id": 10556872097, "lat": 41.918832, "lon": 12.3770579, "tags": {"addr:city": "Roma", "addr:housenumber": "2", "addr:postcode": "00166", "addr:street": "Via di Casalotti", "shop": "convenience"}}, {"type": "node", "id": 10556921808, "lat": 41.91849, "lon": 12.3771625, "tags": {"addr:city": "Roma", "addr:housenumber": "5", "addr:postcode": "00166", "addr:street": "Via di Casalotti", "name": "A. Rahman Minimarket Frutta E Verdura", "shop": "convenience"}}, {"type": "node", "id": 10574675642, "lat": 41.9127168, "lon": 12.4756815, "tags": {"name": "Castroni", "shop": "convenience"}}, {"type": "node", "id": 10612064108, "lat": 41.8902074, "lon": 12.5054382, "tags": {"addr:city": "Roma", "addr:housenumber": "26", "addr:postcode": "00185", "addr:street": "Viale Manzoni", "brand": "Carrefour Express", "brand:wikidata": "Q2940190", "name": "Carrefour Express", "opening_hours": "Mo-Sa 07:00-22:00; Su 09:00-22:00", "operator": "Axra servizi GDO S.R.L.", "phone": "+39 06 79784887", "ref:vatin": "IT15067601003", "shop": "convenience", "website": "https://www.carrefour.it/punti-vendita/carrefour-express-roma-viale-manzoni-26-4464.html"}}, {"type": "node", "id": 10675838199, "lat": 41.9070287, "lon": 12.5365654, "tags": {"addr:city": "Roma", "addr:housenumber": "40/a", "addr:postcode": "00159", "addr:street": "Via Carlo Caneva", "name": "Celiachiamo", "shop": "convenience"}}, {"type": "node", "id": 10743162007, "lat": 41.9000313, "lon": 12.4952081, "tags": {"addr:city": "Roma", "addr:housenumber": "35", "addr:postcode": "00184", "addr:street": "Via del Viminale", "brand": "Carrefour Express", "brand:wikidata": "Q2940190", "name": "Carrefour Express", "shop": "convenience"}}, {"type": "node", "id": 10794729805, "lat": 41.8657689, "lon": 12.4852573, "tags": {"addr:housenumber": "72", "addr:postcode": "00154", "addr:street": "Via Giovanni Andrea Badoero", "contact:facebook": "100063587561877", "contact:instagram": "vegustibus_garbatella", "email": "100veg@libero.it", "name": "Vegustibus", "opening_hours": "Tu-Sa 08:00-20:00; Su 08:00-14:00; Mo 13:00-20:00", "phone": "+39375 674 3783", "shop": "convenience"}}, {"type": "node", "id": 10826822025, "lat": 41.8950253, "lon": 12.5064724, "tags": {"addr:city": "Roma", "addr:country": "IT", "addr:housenumber": "285", "addr:postcode": "00185", "addr:street": "Via Principe Amedeo", "name": "Mollah alimentari", "shop": "convenience"}}, {"type": "node", "id": 10826822031, "lat": 41.894972, "lon": 12.5065617, "tags": {"addr:city": "Roma", "addr:country": "IT", "addr:housenumber": "289", "addr:postcode": "00185", "addr:street": "Via Principe Amedeo", "name": "Gombo", "shop": "convenience"}}, {"type": "node", "id": 10857746510, "lat": 41.8963316, "lon": 12.478715, "tags": {"brand": "Carrefour Express", "brand:wikidata": "Q2940190", "name": "Carrefour Express", "shop": "convenience"}}, {"type": "node", "id": 10858975116, "lat": 41.8924085, "lon": 12.6322549, "tags": {"addr:city": "Roma", "addr:country": "IT", "addr:housenumber": "4", "addr:postcode": "00132", "addr:street": "Via Montemarano", "name": "I sapori de n\u00e0 vorta 2", "shop": "convenience"}}, {"type": "node", "id": 10858975130, "lat": 41.8927819, "lon": 12.6316489, "tags": {"addr:city": "Roma", "addr:country": "IT", "addr:housenumber": "1227/b", "addr:postcode": "00132", "addr:street": "Via Prenestina", "name": "Alimentari", "shop": "convenience"}}, {"type": "node", "id": 10861627645, "lat": 41.8917435, "lon": 12.6336118, "tags": {"addr:city": "Roma", "addr:country": "IT", "addr:housenumber": "29", "addr:postcode": "00132", "addr:street": "Via Paternopoli", "name": "Gabriella", "shop": "convenience"}}, {"type": "way", "id": 41900766, "nodes": [518605697, 4273889808, 4842619489, 4842619490, 4273889801, 518605698, 518605699, 1752747416, 4842619491, 4842619488, 1752747426, 518605700, 4273889813, 4273889814, 518605697], "tags": {"addr:postcode": "00044", "addr:street": "Diramazione Roma Sud", "amenity": "restaurant", "building": "yes", "building:levels": "2", "layer": "1", "name": "Autogrill Frascati", "name:en": "Chef Express", "name:it": "Chef Express", "operator": "Autogrill S.p.A.", "ref": "Frascati 0024", "ref:vatin": "IT01630730032", "shop": "convenience"}}, {"type": "way", "id": 161905378, "nodes": [1738555955, 4278391953, 4278391955, 1738555957, 1738555956, 1738555954, 1738555955], "tags": {"building": "yes", "shop": "convenience"}}, {"type": "way", "id": 268612368, "nodes": [2739452878, 2739452879, 2739452880, 2739452881, 2739452878], "tags": {"building": "yes", "name": "Agricoltura Capodarco", "shop": "convenience"}}, {"type": "way", "id": 364346079, "nodes": [3683838570, 3683838573, 3683838567, 3683838566, 3683838556, 3683838553, 3683838570], "tags": {"addr:housenumber": "km 65,500", "addr:street": "Grande Raccordo Anulare", "amenity": "cafe", "building": "yes", "building:levels": "1", "cuisine": "coffee_shop;donut;breakfast", "name": "Punto bar", "operator": "Dan OIL srl", "phone": "+39 06 65771422"}}, {"type": "way", "id": 428691679, "nodes": [4277762333, 4277762326, 4277762320, 4277762325, 4277762333], "tags": {"building": "yes", "shop": "convenience"}}, {"type": "way", "id": 431852008, "nodes": [4310753288, 4310753285, 4310753287, 4310753280, 4310753282, 4310753281, 4310753279, 4310753273, 4310753263, 4310753283, 4310753288], "tags": {"amenity": "restaurant", "building": "yes", "name": "Camping Internazionale Castelfusano", "shop": "convenience"}}, {"type": "way", "id": 433302264, "nodes": [4321358700, 4321357686, 4321357685, 4321358698, 4321358700], "tags": {"building": "yes", "name": "Camping Supermarket", "shop": "convenience"}}, {"type": "way", "id": 950051798, "nodes": [3895881031, 8795210023, 8795210026, 8795210024, 8479474899, 8795210025]}, {"type": "way", "id": 950051799, "nodes": [3895881031, 8795210025]}, {"type": "way", "id": 1059773644, "nodes": [9736837185, 9736837186, 9736837187, 9736837188, 9736837185], "tags": {"addr:city": "Roma", "addr:postcode": "00132", "addr:street": "Via Casilina", "building": "yes", "name": "Etno Market", "phone": "+39 06 76906660", "shop": "convenience"}}, {"type": "relation", "id": 5417134, "members": [{"type": "way", "ref": 364346079, "role": "outer"}], "tags": {"amenity": "bar", "name": "Area di Servizio Pisana Esterna", "operator": "Dan Oil Srl.", "phone": "+39 06 65771422", "ref:vatin": "IT12845611008", "shop": "convenience", "type": "multipolygon"}}, {"type": "relation", "id": 12802813, "members": [{"type": "way", "ref": 950051799, "role": "outer"}, {"type": "way", "ref": 950051798, "role": "outer"}], "tags": {"building": "yes", "height": "1", "opening_hours:covid19": "Mo-Sa 07:30-13:30", "shop": "convenience", "type": "multipolygon"}}]}