{"version": 0.6, "generator": "Overpass API 0.7.60 f4c14d41", "osm3s": {"timestamp_osm_base": "2023-05-02T21:17:24Z", "copyright": "The data included in this document is from www.openstreetmap.org. The data is made available under ODbL."}, "elements": [{"type": "node", "id": 20973534, "lat": -33.7168496, "lon": 150.3108974, "tags": {"amenity": "cafe", "diet:vegetarian": "no", "gluten_free": "yes", "name": "The Hatters Cafe", "opening_hours:signed": "no", "wheelchair": "yes"}}, {"type": "node", "id": 20973744, "lat": -33.7277868, "lon": 150.3106861, "tags": {"addr:housenumber": "176", "addr:street": "Lurline Street", "amenity": "cafe", "name": "Blue Mountains Chocolate Company", "phone": "+61 2 4782 7071", "shop": "chocolate", "website": "http://www.bluemountainschocolate.com.au/"}}, {"type": "node", "id": 20973794, "lat": -33.7309631, "lon": 150.3116965, "tags": {"amenity": "cafe", "name": "Milkbar at the Lookout", "website": "https://www.thelookoutechopoint.com.au"}}, {"type": "node", "id": 20973797, "lat": -33.7290664, "lon": 150.3011912, "tags": {"amenity": "cafe", "name": "Scenic World Cafe"}}, {"type": "node", "id": 20973805, "lat": -33.7266028, "lon": 150.3040036, "tags": {"amenity": "cafe", "name": "Katoomba Falls Kiosk"}}, {"type": "node", "id": 20976834, "lat": -33.7136181, "lon": 150.332539, "tags": {"addr:housenumber": "19", "addr:street": "Grose Street", "amenity": "cafe", "cuisine": "coffee_shop;breakfast;lunch", "email": "info@lilyspad.com.au", "name": "Lily's Pad Cafe", "opening_hours": "Mo-Sa 08:00-17:00; Su 08:00-16:00", "phone": "+61 2 4784 1033", "website": "https://lilyspad.com.au/"}}, {"type": "node", "id": 20976835, "lat": -33.7142008, "lon": 150.3331543, "tags": {"addr:street": "Cnr Grose & Megalong Streets", "amenity": "cafe", "description": "Antiques / Tea Room / self-contained holiday cottages", "name": "Bygone Beautys", "phone": "+61 2 4784 3117", "tourism": "hotel", "website": "https://www.bygonebeautys.com.au/"}}, {"type": "node", "id": 20977141, "lat": -33.7128325, "lon": 150.3313286, "tags": {"addr:housenumber": "134", "addr:street": "The Mall", "amenity": "cafe", "name": "The Red Door Cafe", "phone": "+61 2 4784 1328"}}, {"type": "node", "id": 20977175, "lat": -33.7137886, "lon": 150.3311348, "tags": {"amenity": "cafe", "name": "The Wayzgoose Cafe"}}, {"type": "node", "id": 20978285, "lat": -33.7101086, "lon": 150.3757786, "tags": {"amenity": "cafe", "name": "Blue Mist Cafe"}}, {"type": "node", "id": 20978293, "lat": -33.7097586, "lon": 150.375758, "tags": {"amenity": "cafe", "cuisine": "coffee", "gluten_free": "yes", "name": "LoveBites Coffee Co - The Village", "outdoor_seating": "yes"}}, {"type": "node", "id": 426899448, "lat": -33.7445676, "lon": 150.6101534, "tags": {"amenity": "cafe", "name": "Mountain First Cafe"}}, {"type": "node", "id": 426899455, "lat": -33.7438133, "lon": 150.6091383, "tags": {"amenity": "cafe", "name": "Dan's Coffee House", "source": "survey"}}, {"type": "node", "id": 698657393, "lat": -33.7022535, "lon": 150.5770322, "tags": {"amenity": "cafe", "name": "Mountain Blue Cafe", "source": "local_knowledge"}}, {"type": "node", "id": 802666966, "lat": -33.7128344, "lon": 150.3119826, "tags": {"amenity": "cafe", "diet:vegetarian": "yes", "name": "Savoy Cafe", "opening_hours:signed": "no", "wheelchair": "no"}}, {"type": "node", "id": 852012497, "lat": -33.6804666, "lon": 150.5616292, "tags": {"amenity": "cafe", "fixme": "location", "name": "Norman Lindsay Cafe"}}, {"type": "node", "id": 1269982383, "lat": -33.716794, "lon": 150.3109085, "tags": {"addr:housenumber": "195a", "addr:street": "Katoomba Street", "addr:suburb": "Katoomba", "amenity": "cafe", "cuisine": "coffee;breakfast;brunch", "name": "Frankly My Dear Coffee", "opening_hours": "Mo-Fr 07:00-16:00; Sa-Su 08:00-16:00", "outdoor_seating": "yes"}}, {"type": "node", "id": 2610663602, "lat": -33.5140632, "lon": 150.5753501, "tags": {"amenity": "cafe", "name": "Tutti Fruitti", "note": "burnt down in 2019, rebuilt in 2020", "website": "https://tuttifruitti.com.au/"}}, {"type": "node", "id": 3051702171, "lat": -33.7141167, "lon": 150.3322032, "tags": {"addr:city": "Leura", "addr:housenumber": "156", "addr:postcode": "2780", "addr:street": "Megalong Street", "amenity": "cafe", "cuisine": "international", "internet_access": "no", "name": "Freudian Sip", "opening_hours": "Mo-Sa 06:30-15:30", "outdoor_seating": "yes", "source": "survey", "wheelchair": "no"}}, {"type": "node", "id": 3525171098, "lat": -33.717377, "lon": 150.3110799, "tags": {"amenity": "cafe", "diet:vegetarian": "yes", "name": "The Yellow Deli", "opening_hours:signed": "no", "source": "survey", "source:geometry": "extrapolation", "wheelchair": "limited"}}, {"type": "node", "id": 3709962813, "lat": -33.7348724, "lon": 150.478912, "tags": {"addr:housenumber": "68", "addr:street": "Great Western Highway", "amenity": "cafe", "name": "20 Mile Hollow", "outdoor_seating": "yes", "phone": "+61 2 4758 8058", "website": "https://20milehollow.com.au"}}, {"type": "node", "id": 3709962814, "lat": -33.6991494, "lon": 150.5667176, "tags": {"addr:housenumber": "150", "addr:postcode": "2777", "addr:state": "NSW", "addr:street": "Macquarie Road", "addr:suburb": "Springwood", "addr:unit": "1", "amenity": "cafe", "name": "Butternut Cafe", "phone": "+61 2 4751 1665"}}, {"type": "node", "id": 4230081878, "lat": -33.723546, "lon": 150.4536051, "tags": {"addr:housenumber": "36", "addr:postcode": "2779", "addr:state": "NSW", "addr:street": "Railway Parade", "addr:suburb": "Hazelbrook", "amenity": "cafe", "contact:facebook": "https://www.facebook.com/theparadefoodemporium/?rf=1545171209082631", "name": "The Parade Cafe"}}, {"type": "node", "id": 5197171921, "lat": -33.7202174, "lon": 150.4289752, "tags": {"amenity": "cafe", "name": "Rust and Timber Chocolate Bar", "phone": "+61 2 4759 2470", "website": "http://rustandtimberchocolatebar.com.au/"}}, {"type": "node", "id": 5237464916, "lat": -33.7122012, "lon": 150.3117599, "tags": {"amenity": "cafe", "name": "Xpresso", "opening_hours:signed": "no"}}, {"type": "node", "id": 5237464921, "lat": -33.7180259, "lon": 150.3125944, "tags": {"amenity": "cafe"}}, {"type": "node", "id": 5338334621, "lat": -33.7163804, "lon": 150.3109912, "tags": {"amenity": "cafe", "diet:vegan": "yes", "diet:vegetarian": "yes", "name": "Clean Slate Cafe", "opening_hours:signed": "no", "wheelchair": "limited"}}, {"type": "node", "id": 5614981144, "lat": -33.7203823, "lon": 150.4289332, "tags": {"amenity": "cafe", "name": "Cortado"}}, {"type": "node", "id": 5614981259, "lat": -33.7200485, "lon": 150.4304602, "tags": {"amenity": "cafe", "name": "Ben Roberts Caf\u00e9"}}, {"type": "node", "id": 6340856985, "lat": -33.7130285, "lon": 150.3119518, "tags": {"amenity": "cafe", "name": "Made with Love Cafe", "outdoor_seating": "yes", "wheelchair": "limited"}}, {"type": "node", "id": 6417269322, "lat": -33.7135106, "lon": 150.3115381, "tags": {"addr:housenumber": "49", "addr:street": "Katoomba Street", "amenity": "cafe", "contact:facebook": "https://m.facebook.com/Pomegranatekatoomba/", "cuisine": "international;cafe", "name": "Pomegranate Cafe", "opening_hours": "We-Su 07:30-16:00", "outdoor_seating": "yes", "payment:cash": "yes", "payment:credit_cards": "no", "payment:debit_cards": "no", "phone": "+61 452 199 708", "takeaway": "yes"}}, {"type": "node", "id": 6449128906, "lat": -33.7125255, "lon": 150.3314709, "tags": {"amenity": "cafe", "name": "Sparrows Cafe", "outdoor_seating": "yes"}}, {"type": "node", "id": 6449308998, "lat": -33.7130659, "lon": 150.33086, "tags": {"addr:housenumber": "159", "addr:postcode": "2780", "addr:state": "NSW", "addr:street": "Leura Mall", "addr:suburb": "Leura", "amenity": "cafe", "diet:vegetarian": "yes", "indoor_seating": "yes", "name": "Leura Gourmet Cafe & Deli", "outdoor_seating": "no", "payment:credit_cards": "yes", "payment:debit_cards": "yes"}}, {"type": "node", "id": 6453455958, "lat": -33.7118575, "lon": 150.3478818, "tags": {"addr:housenumber": "8", "addr:postcode": "2780", "addr:state": "NSW", "addr:street": "Herbert Street", "addr:suburb": "Leura", "amenity": "cafe", "contact:facebook": "https://www.facebook.com/sorensensglasshouse/", "email": "contact@sorensensglasshouse.com.au", "highchair": "yes", "indoor_seating": "yes", "name": "Sorensen's Glasshouse & Gardens", "name:etymology": "Paul Sorensen", "name:etymology:wikidata": "Q21537030", "name:etymology:wikipedia": "en:Paul Sorensen (landscape gardener)", "opening_hours": "Th-Su 10:00-15:00", "outdoor_seating": "yes", "phone": "+61 4 0427 0089", "reservation": "yes", "website": "https://www.sorensensglasshouse.com.au/", "wheelchair": "yes", "wikimedia_commons": "File:Sorensen%27s_Glasshouse,_Herbert_Street,_Leura,_NSW.jpg"}}, {"type": "node", "id": 6460201221, "lat": -33.7215735, "lon": 150.4531242, "tags": {"addr:housenumber": "192", "addr:postcode": "2779", "addr:state": "NSW", "addr:street": "Great Western Highway", "addr:suburb": "Hazelbrook", "addr:unit": "21", "amenity": "cafe", "contact:facebook": "https://www.facebook.com/thehastytiger/", "cuisine": "breakfast;coffee;vietnamese", "name": "Sweet Hazel Cafe", "note": "Hasty Tiger permanently closed. Sweet Hazel Cafe is the new additon", "opening_hours": "Mo-Fr 06:30-14:30, Sa-Su 07:30-14:00", "outdoor_seating": "no"}}, {"type": "node", "id": 6467386666, "lat": -33.7203311, "lon": 150.4287641, "tags": {"amenity": "cafe", "name": "Stacks Cafe"}}, {"type": "node", "id": 6690336853, "lat": -33.6990794, "lon": 150.5682131, "tags": {"amenity": "cafe", "name": "Finn & Co. Cafe"}}, {"type": "node", "id": 6690853074, "lat": -33.699504, "lon": 150.5674336, "tags": {"amenity": "cafe", "name": "Aroma Cafe"}}, {"type": "node", "id": 6690853148, "lat": -33.6990413, "lon": 150.565894, "tags": {"amenity": "cafe", "brand": "Michel's Patisserie", "brand:wikidata": "Q6836235", "brand:wikipedia": "en:Michel's Patisserie", "cuisine": "coffee_shop", "name": "Michel's Patisserie", "takeaway": "yes"}}, {"type": "node", "id": 6690853151, "lat": -33.6990273, "lon": 150.5658256, "tags": {"amenity": "cafe", "name": "2 Blondes Cafe", "opening_hours": "Mo-Fr 08:00-15:00; Sa 08:00-13:00; Su off"}}, {"type": "node", "id": 6694608506, "lat": -33.6989583, "lon": 150.5644352, "tags": {"amenity": "cafe", "name": "DHL Ristretto", "opening_hours": "Mo-Fr 06:00-13:00; Sa,Su 06:30-13:00"}}, {"type": "node", "id": 6694608551, "lat": -33.6994919, "lon": 150.5637177, "tags": {"amenity": "cafe", "name": "The Baker's Wife - Juicery & Salad Bar"}}, {"type": "node", "id": 6784997336, "lat": -33.6708423, "lon": 150.6087606, "tags": {"addr:housenumber": "14-28", "addr:street": "White Cross Road", "addr:unit": "5/6", "amenity": "cafe", "name": "La Montagna Cafe & Deli"}}, {"type": "node", "id": 6938593142, "lat": -33.7152822, "lon": 150.3112167, "tags": {"amenity": "cafe", "diet:vegetarian": "yes", "name": "True to the Bean", "opening_hours": "Tu-Fr 07:00-17:00; Sa,Su 07:00-18:00", "wheelchair": "limited"}}, {"type": "node", "id": 6938593144, "lat": -33.7153596, "lon": 150.3112016, "tags": {"amenity": "cafe", "diet:vegetarian": "yes", "name": "Can Blue", "opening_hours": "Mo-Su 10:30-17:00", "wheelchair": "yes"}}, {"type": "node", "id": 6938593151, "lat": -33.7155084, "lon": 150.3111706, "tags": {"amenity": "cafe", "name": "8 Things"}}, {"type": "node", "id": 6938593166, "lat": -33.7159253, "lon": 150.3110823, "tags": {"amenity": "cafe", "name": "The Elephant Bean"}}, {"type": "node", "id": 6938593170, "lat": -33.7163092, "lon": 150.3110074, "tags": {"addr:housenumber": "177", "addr:street": "Katoomba Street", "amenity": "cafe", "cuisine": "korean", "name": "Sanwiye Korean Cafe", "opening_hours": "Tu-Su 11:30-20:30", "phone": "+61 405 402 130"}}, {"type": "node", "id": 6938593171, "lat": -33.7162693, "lon": 150.3110134, "tags": {"amenity": "cafe", "name": "Graze on Main"}}, {"type": "node", "id": 6938593172, "lat": -33.7162116, "lon": 150.3110221, "tags": {"amenity": "cafe", "name": "Katoomba Street Cafe"}}, {"type": "node", "id": 6938921616, "lat": -33.7194002, "lon": 150.3119196, "tags": {"addr:housenumber": "79", "addr:street": "Lurline Street", "addr:suburb": "Katoomba", "amenity": "cafe", "name": "Cassiopeia Specialty Coffee", "opening_hours": "Mo-Fr 06:00-14:00; Sa,Su 06:00-13:00", "website": "https://cassiopeia.com.au"}}, {"type": "node", "id": 7012045885, "lat": -33.7165676, "lon": 150.3109682, "tags": {"amenity": "cafe", "cuisine": "coffee_shop", "name": "Mountain Ama Cafe"}}, {"type": "node", "id": 7035504925, "lat": -33.7574851, "lon": 150.6128284, "tags": {"amenity": "cafe", "name": "Two Sugars Cafe"}}, {"type": "node", "id": 7788575535, "lat": -33.7140538, "lon": 150.3311553, "tags": {"addr:housenumber": "180", "addr:street": "Leura Mall", "amenity": "cafe", "cuisine": "breakfast;lunch", "name": "Cafe Leura", "old_name": "Loaves and Dishes", "opening_hours:covid19": "Mo-Su 08:00-15:00", "phone": "+61247843600", "website": "https://www.cafeleura.com.au/menu"}}, {"type": "node", "id": 8175995312, "lat": -33.7116721, "lon": 150.3122003, "tags": {"addr:housenumber": "1", "addr:street": "Goldsmith Place", "addr:suburb": "Katoomba", "amenity": "cafe", "cuisine": "coffee_shop;sandwich;ice_cream", "name": "On The Soul Side", "opening_hours": "Mo-Fr 06:30-14:00; Sa off; Su 10:00-17:00", "outdoor_seating": "yes", "phone": "0448 477 197", "website": "https://on-the-soul-side.business.site/"}}, {"type": "node", "id": 8326535937, "lat": -33.7140921, "lon": 150.3106276, "tags": {"addr:unit": "Shop 1", "amenity": "cafe", "level": "0", "name": "Deli Xpresso"}}, {"type": "node", "id": 8326535946, "lat": -33.713729, "lon": 150.310436, "tags": {"amenity": "cafe", "level": "1"}}, {"type": "node", "id": 8326632850, "lat": -33.7140249, "lon": 150.3311013, "tags": {"addr:housenumber": "178", "addr:postcode": "2780", "addr:state": "NSW", "addr:street": "Leura Mall", "addr:suburb": "Leura", "addr:unit": "1", "amenity": "cafe", "name": "Landseer's of Leura", "phone": "+61 2 4784 1992"}}, {"type": "node", "id": 8530468281, "lat": -33.7090695, "lon": 150.3753332, "tags": {"addr:housenumber": "28-30", "addr:postcode": "2872", "addr:state": "NSW", "addr:street": "Plantation Street", "addr:suburb": "Wentworth Falls", "addr:unit": "13", "amenity": "cafe", "cuisine": "coffee_shop;dessert;cake", "name": "Weatherboard", "outdoor_seating": "yes"}}, {"type": "node", "id": 8791558114, "lat": -33.7122385, "lon": 150.3106462, "tags": {"amenity": "cafe", "name": "Cafe Del Ra"}}, {"type": "node", "id": 9222666517, "lat": -33.7160925, "lon": 150.3110399, "tags": {"addr:housenumber": "169", "addr:street": "Katoomba Street", "addr:suburb": "Katoomba", "amenity": "cafe", "cuisine": "malaysian;bakery;coffee", "name": "Unique Patisserie", "opening_hours": "Mo-Su 09:00-17:00", "outdoor_seating": "no"}}, {"type": "node", "id": 9344972640, "lat": -33.6943089, "lon": 150.3172579, "tags": {"addr:housenumber": "2-6", "addr:street": "Minni Ha Ha Road", "addr:unit": "Shop 1", "amenity": "cafe", "cuisine": "coffee_shop;sandwich", "name": "Little Village Co.", "outdoor_seating": "yes"}}, {"type": "node", "id": 9391373242, "lat": -33.6712058, "lon": 150.6084485, "tags": {"addr:housenumber": "14-28", "addr:street": "White Cross Road", "addr:unit": "14", "amenity": "cafe", "brand": "Michel's Patisserie", "brand:wikidata": "Q6836235", "brand:wikipedia": "en:Michel's Patisserie", "cuisine": "coffee_shop", "name": "Michel's Patisserie", "takeaway": "yes"}}, {"type": "node", "id": 9413746790, "lat": -33.7144396, "lon": 150.3110908, "tags": {"addr:housenumber": "81-83", "addr:street": "Katoomba Street", "addr:suburb": "Katoomba", "addr:unit": "4", "amenity": "cafe", "name": "Little Paris Cafe"}}, {"type": "node", "id": 9584302786, "lat": -33.7127362, "lon": 150.3119994, "tags": {"addr:housenumber": "16", "addr:street": "Katoomba Street", "amenity": "cafe", "contact:facebook": "https://www.facebook.com/sipsipdrinkbar", "cuisine": "bubble_tea;coffee_shop;asian", "name": "Sip Sip Drink Bar", "phone": "+61 493 227 242", "website": "https://sipcafe.com.au"}}, {"type": "node", "id": 9863711990, "lat": -33.672995, "lon": 150.2809928, "tags": {"addr:housenumber": "1", "addr:street": "Railway Parade", "amenity": "cafe", "cuisine": "breakfast;coffee;sandwich", "name": "Potbelly @ Medlow", "opening_hours": "Mo-Su 07:00-15:30", "outdoor_seating": "yes"}}, {"type": "node", "id": 10090068123, "lat": -33.7134134, "lon": 150.3302986, "tags": {"amenity": "cafe", "cuisine": "cake;coffee_shop;sandwich", "name:en": "Ikara Cafe"}}, {"type": "node", "id": 10627513481, "lat": -33.713131, "lon": 150.3315501, "tags": {"amenity": "cafe", "cuisine": "coffee_shop;sandwich", "name": "The Laneway", "opening_hours": "Mo-Fr 06:30-14:00", "outdoor_seating": "yes"}}]}