{"version": 0.6, "generator": "Overpass API 0.7.60.2 e4cf9f7a", "osm3s": {"timestamp_osm_base": "2023-05-02T19:59:26Z", "copyright": "The data included in this document is from www.openstreetmap.org. The data is made available under ODbL."}, "elements": [{"type": "node", "id": 293281362, "lat": 13.7416699, "lon": 100.5531357}, {"type": "node", "id": 293281366, "lat": 13.7410801, "lon": 100.5534856}, {"type": "node", "id": 293281407, "lat": 13.7412153, "lon": 100.5531516}, {"type": "node", "id": 293282225, "lat": 13.7414453, "lon": 100.5535259}, {"type": "node", "id": 573453708, "lat": 13.738672, "lon": 100.563958, "tags": {"amenity": "nightclub", "created_by": "iLOE 1.6", "name": "Glow"}}, {"type": "node", "id": 776746043, "lat": 13.7406686, "lon": 100.55304, "tags": {"amenity": "nightclub", "name": "Hillary's", "name:it": "Hillary 2 Red"}}, {"type": "node", "id": 776746840, "lat": 13.7412467, "lon": 100.5534153}, {"type": "node", "id": 1658905409, "lat": 13.7359702, "lon": 100.5981196, "tags": {"amenity": "nightclub"}}, {"type": "node", "id": 2113561736, "lat": 13.7047784, "lon": 100.5030733, "tags": {"amenity": "nightclub", "music_live": "yes", "name": "\u0e25\u0e32\u0e19\u0e40\u0e1a\u0e35\u0e22\u0e23\u0e4c\u0e0a\u0e49\u0e32\u0e07", "payment:coins": "yes", "payment:diners_club": "no", "payment:visa": "no", "wifi": "no"}}, {"type": "node", "id": 2404886746, "lat": 13.7500749, "lon": 100.5765435, "tags": {"amenity": "nightclub", "name": "Mello Yello"}}, {"type": "node", "id": 2404894294, "lat": 13.7485066, "lon": 100.5782119, "tags": {"amenity": "nightclub", "name": "Sanook"}}, {"type": "node", "id": 2404894757, "lat": 13.7497591, "lon": 100.5767892, "tags": {"amenity": "nightclub", "name": "Taksura"}}, {"type": "node", "id": 2405819499, "lat": 13.7592367, "lon": 100.4967955, "tags": {"amenity": "nightclub", "name": "The Club"}}, {"type": "node", "id": 2428799938, "lat": 13.7587356, "lon": 100.4982549, "tags": {"amenity": "nightclub", "name": "The Clif", "wheelchair": "no"}}, {"type": "node", "id": 2496571506, "lat": 13.7519447, "lon": 100.5749015}, {"type": "node", "id": 2496571507, "lat": 13.7520225, "lon": 100.5750261}, {"type": "node", "id": 2496571516, "lat": 13.7523065, "lon": 100.5746719}, {"type": "node", "id": 2496571518, "lat": 13.7523814, "lon": 100.574789}, {"type": "node", "id": 2496571526, "lat": 13.7609841, "lon": 100.5675925}, {"type": "node", "id": 2496571527, "lat": 13.7610081, "lon": 100.5677319}, {"type": "node", "id": 2496571529, "lat": 13.7610679, "lon": 100.5680704}, {"type": "node", "id": 2496571530, "lat": 13.761333, "lon": 100.5678982}, {"type": "node", "id": 2496571531, "lat": 13.7611969, "lon": 100.5676667}, {"type": "node", "id": 2496571532, "lat": 13.7613854, "lon": 100.567737}, {"type": "node", "id": 2496571534, "lat": 13.7612218, "lon": 100.5680457}, {"type": "node", "id": 2496571535, "lat": 13.7612326, "lon": 100.5683543}, {"type": "node", "id": 2496571537, "lat": 13.7612544, "lon": 100.5681374}, {"type": "node", "id": 2496571538, "lat": 13.761437, "lon": 100.5675872}, {"type": "node", "id": 2496571539, "lat": 13.761506, "lon": 100.568402}, {"type": "node", "id": 2496571541, "lat": 13.7615202, "lon": 100.568184}, {"type": "node", "id": 2496571542, "lat": 13.7615393, "lon": 100.5682285}, {"type": "node", "id": 2496571543, "lat": 13.7615673, "lon": 100.5672111}, {"type": "node", "id": 2496571545, "lat": 13.7616526, "lon": 100.5676961}, {"type": "node", "id": 2496571548, "lat": 13.7618197, "lon": 100.5673232}, {"type": "node", "id": 2900166434, "lat": 13.7448744, "lon": 100.534921, "tags": {"amenity": "nightclub", "name": "Concept CM2"}}, {"type": "node", "id": 2900166435, "lat": 13.7448127, "lon": 100.5414803, "tags": {"amenity": "nightclub", "name": "Thailand Club Mixx Bangkok"}}, {"type": "node", "id": 2900166436, "lat": 13.7471404, "lon": 100.5268854, "tags": {"amenity": "nightclub", "name": "Party House One"}}, {"type": "node", "id": 3083236042, "lat": 13.7293495, "lon": 100.5353512, "tags": {"amenity": "nightclub", "description": "No slippers allowed.", "min_age": "18", "name": "DJ Station", "smoking": "no", "wheelchair": "no"}}, {"type": "node", "id": 3083236044, "lat": 13.7290339, "lon": 100.5347195, "tags": {"amenity": "nightclub", "name": "G.O.D. Club"}}, {"type": "node", "id": 3245009582, "lat": 13.7324379, "lon": 100.5853259}, {"type": "node", "id": 3245009586, "lat": 13.7325624, "lon": 100.5850652}, {"type": "node", "id": 3245009587, "lat": 13.7325734, "lon": 100.585391}, {"type": "node", "id": 3245009590, "lat": 13.7328533, "lon": 100.5852186}, {"type": "node", "id": 3246091646, "lat": 13.7260943, "lon": 100.5849865}, {"type": "node", "id": 3246091647, "lat": 13.7261645, "lon": 100.5846537}, {"type": "node", "id": 3246091648, "lat": 13.726316, "lon": 100.5850333}, {"type": "node", "id": 3246091649, "lat": 13.7265148, "lon": 100.5847205}, {"type": "node", "id": 3246091650, "lat": 13.7263798, "lon": 100.5846959}, {"type": "node", "id": 3246091651, "lat": 13.7264598, "lon": 100.5845143}, {"type": "node", "id": 3246091652, "lat": 13.7266534, "lon": 100.5848963}, {"type": "node", "id": 3246091653, "lat": 13.7267069, "lon": 100.5845554}, {"type": "node", "id": 3253432761, "lat": 13.7314432, "lon": 100.5865494}, {"type": "node", "id": 3253432762, "lat": 13.7315083, "lon": 100.5863541}, {"type": "node", "id": 3253432763, "lat": 13.7315859, "lon": 100.5866025}, {"type": "node", "id": 3253432765, "lat": 13.7316539, "lon": 100.5864054}, {"type": "node", "id": 3253432768, "lat": 13.7316939, "lon": 100.5862813}, {"type": "node", "id": 3253432771, "lat": 13.7318688, "lon": 100.5864861}, {"type": "node", "id": 3253432772, "lat": 13.7319144, "lon": 100.5863645}, {"type": "node", "id": 3256771994, "lat": 13.7276792, "lon": 100.5853825}, {"type": "node", "id": 3256771995, "lat": 13.7277061, "lon": 100.58529}, {"type": "node", "id": 3256771996, "lat": 13.7277567, "lon": 100.5851941}, {"type": "node", "id": 3256771997, "lat": 13.7277724, "lon": 100.5853073}, {"type": "node", "id": 3256771998, "lat": 13.7277746, "lon": 100.5851351}, {"type": "node", "id": 3256771999, "lat": 13.7277982, "lon": 100.5852056}, {"type": "node", "id": 3256772000, "lat": 13.7278353, "lon": 100.5853247}, {"type": "node", "id": 3256772001, "lat": 13.7278577, "lon": 100.5852322}, {"type": "node", "id": 3256772002, "lat": 13.727879, "lon": 100.5854345}, {"type": "node", "id": 3256772003, "lat": 13.7278948, "lon": 100.5852449}, {"type": "node", "id": 3256772004, "lat": 13.7279049, "lon": 100.5853455}, {"type": "node", "id": 3256772005, "lat": 13.7279127, "lon": 100.5851767}, {"type": "node", "id": 3257317043, "lat": 13.733675, "lon": 100.5797067}, {"type": "node", "id": 3257317044, "lat": 13.733713, "lon": 100.5795486}, {"type": "node", "id": 3257317045, "lat": 13.7337728, "lon": 100.5796242}, {"type": "node", "id": 3257317046, "lat": 13.7337864, "lon": 100.5795682}, {"type": "node", "id": 3257317047, "lat": 13.7339929, "lon": 100.5797906}, {"type": "node", "id": 3257317048, "lat": 13.7340174, "lon": 100.5796843}, {"type": "node", "id": 3280296142, "lat": 13.7318374, "lon": 100.5861424}, {"type": "node", "id": 3280296144, "lat": 13.7318927, "lon": 100.5859884}, {"type": "node", "id": 3280296147, "lat": 13.7320083, "lon": 100.5862132}, {"type": "node", "id": 3280296149, "lat": 13.7320648, "lon": 100.5860605}, {"type": "node", "id": 3282919067, "lat": 13.7223656, "lon": 100.7658109}, {"type": "node", "id": 3282919069, "lat": 13.7221493, "lon": 100.7658109}, {"type": "node", "id": 3282919070, "lat": 13.7223656, "lon": 100.7660228}, {"type": "node", "id": 3282919072, "lat": 13.7221493, "lon": 100.7660228}, {"type": "node", "id": 3298306574, "lat": 13.7316531, "lon": 100.5864047}, {"type": "node", "id": 3308150610, "lat": 13.7327384, "lon": 100.5854703}, {"type": "node", "id": 3326607311, "lat": 13.7297711, "lon": 100.5807472}, {"type": "node", "id": 3326607313, "lat": 13.7298442, "lon": 100.5805027}, {"type": "node", "id": 3326607315, "lat": 13.7299388, "lon": 100.5808004}, {"type": "node", "id": 3326607318, "lat": 13.7300119, "lon": 100.5805558}, {"type": "node", "id": 3337068606, "lat": 13.7612498, "lon": 100.5688821}, {"type": "node", "id": 3337068607, "lat": 13.7612799, "lon": 100.5687181}, {"type": "node", "id": 3337068609, "lat": 13.7612963, "lon": 100.5679951}, {"type": "node", "id": 3337068614, "lat": 13.7614597, "lon": 100.5687466}, {"type": "node", "id": 3337068616, "lat": 13.761511, "lon": 100.5684772}, {"type": "node", "id": 3337068618, "lat": 13.7615712, "lon": 100.5689446}, {"type": "node", "id": 3337068620, "lat": 13.7616013, "lon": 100.5687806}, {"type": "node", "id": 3337068621, "lat": 13.7616034, "lon": 100.5687755}, {"type": "node", "id": 3337068623, "lat": 13.7616546, "lon": 100.5685062}, {"type": "node", "id": 3368643113, "lat": 13.7486811, "lon": 100.5777816}, {"type": "node", "id": 3368643116, "lat": 13.7487927, "lon": 100.5778755}, {"type": "node", "id": 3368643118, "lat": 13.7489375, "lon": 100.5774587}, {"type": "node", "id": 3368643120, "lat": 13.7490491, "lon": 100.5775526}, {"type": "node", "id": 3368643140, "lat": 13.7503049, "lon": 100.5761035}, {"type": "node", "id": 3368643143, "lat": 13.7503976, "lon": 100.5762281}, {"type": "node", "id": 3368643145, "lat": 13.7505484, "lon": 100.5759114}, {"type": "node", "id": 3368643148, "lat": 13.7506397, "lon": 100.5760341}, {"type": "node", "id": 3368643149, "lat": 13.7506411, "lon": 100.576036}, {"type": "node", "id": 3368643150, "lat": 13.7507609, "lon": 100.5757439}, {"type": "node", "id": 3368643151, "lat": 13.7508522, "lon": 100.5758666}, {"type": "node", "id": 3368643152, "lat": 13.7509669, "lon": 100.5755814}, {"type": "node", "id": 3368643153, "lat": 13.7510582, "lon": 100.5757041}, {"type": "node", "id": 3368643154, "lat": 13.7511937, "lon": 100.5754545}, {"type": "node", "id": 3368643155, "lat": 13.7512649, "lon": 100.5755574}, {"type": "node", "id": 3368643156, "lat": 13.7514395, "lon": 100.5752743}, {"type": "node", "id": 3368643157, "lat": 13.7515107, "lon": 100.5753773}, {"type": "node", "id": 3368643160, "lat": 13.7516585, "lon": 100.5754777}, {"type": "node", "id": 3368643162, "lat": 13.7516656, "lon": 100.5750862}, {"type": "node", "id": 3368643163, "lat": 13.7517104, "lon": 100.5755469}, {"type": "node", "id": 3368643165, "lat": 13.7517434, "lon": 100.5752108}, {"type": "node", "id": 3368643166, "lat": 13.7517912, "lon": 100.5753721}, {"type": "node", "id": 3368643167, "lat": 13.7518431, "lon": 100.5754413}, {"type": "node", "id": 3372045789, "lat": 13.7443925, "lon": 100.5559609, "tags": {"amenity": "nightclub", "name": "Levels", "name:en": "levels club,lounge&terrace"}}, {"type": "node", "id": 3388965549, "lat": 13.7810155, "lon": 100.5747275}, {"type": "node", "id": 3388965551, "lat": 13.7810475, "lon": 100.5740693}, {"type": "node", "id": 3388965557, "lat": 13.7817334, "lon": 100.5747645}, {"type": "node", "id": 3388965558, "lat": 13.7817654, "lon": 100.5741063}, {"type": "node", "id": 3390660087, "lat": 13.7372128, "lon": 100.5647947}, {"type": "node", "id": 3390660089, "lat": 13.7372259, "lon": 100.5647059}, {"type": "node", "id": 3390660090, "lat": 13.7372578, "lon": 100.5649402}, {"type": "node", "id": 3390660093, "lat": 13.7371988, "lon": 100.5649072}, {"type": "node", "id": 3390660097, "lat": 13.7373913, "lon": 100.5649744}, {"type": "node", "id": 3390660098, "lat": 13.7373381, "lon": 100.5647249}, {"type": "node", "id": 3390660099, "lat": 13.7373624, "lon": 100.564538}, {"type": "node", "id": 3390660102, "lat": 13.7376116, "lon": 100.5649968}, {"type": "node", "id": 3390660103, "lat": 13.7376324, "lon": 100.564823}, {"type": "node", "id": 3390660109, "lat": 13.7379127, "lon": 100.5648592}, {"type": "node", "id": 3390660111, "lat": 13.7379442, "lon": 100.5646047}, {"type": "node", "id": 3454380076, "lat": 13.7335619, "lon": 100.5672545, "tags": {"amenity": "nightclub", "name": "Monet Club"}}, {"type": "node", "id": 3473124029, "lat": 13.7213553, "lon": 100.7393662}, {"type": "node", "id": 3473124030, "lat": 13.7210814, "lon": 100.739413}, {"type": "node", "id": 3473124031, "lat": 13.7211442, "lon": 100.7398021}, {"type": "node", "id": 3473124032, "lat": 13.721418, "lon": 100.7397552}, {"type": "node", "id": 3476210534, "lat": 13.7099005, "lon": 100.4005885, "tags": {"amenity": "nightclub", "name": "\u0e40\u0e1e\u0e0a\u0e23\u0e40\u0e01\u0e29\u0e21\u0e1e\u0e25\u0e32\u0e0b\u0e48\u0e32"}}, {"type": "node", "id": 3600379622, "lat": 13.759069, "lon": 100.4957861, "tags": {"addr:city": "Bangkok", "addr:housename": "Superflow City Beach Club", "addr:housenumber": "9 Khao San", "addr:postcode": "10200", "addr:street": "Khao San Road", "amenity": "nightclub", "designation": "Night Club/ Restaurant", "name": "Superflow Beach Club", "website": "www.superflowbeachclub.com", "wifi": "no"}}, {"type": "node", "id": 3778156484, "lat": 13.7379967, "lon": 100.5656188, "tags": {"alt_name": "Narz Club", "amenity": "nightclub", "name": "Narcissus"}}, {"type": "node", "id": 3948143103, "lat": 13.740926, "lon": 100.5527331, "tags": {"amenity": "nightclub", "name": "Quality Nightclub", "name:it": "EQ Late Night Club"}}, {"type": "node", "id": 3964250108, "lat": 13.7429151, "lon": 100.5564473, "tags": {"amenity": "nightclub", "name": "Sugar Club"}}, {"type": "node", "id": 4083017275, "lat": 13.7814456, "lon": 100.5740898, "tags": {"entrance": "main"}}, {"type": "node", "id": 4142852844, "lat": 13.7767644, "lon": 100.5728346, "tags": {"addr:city": "Bangkok", "addr:housenumber": "55", "addr:postcode": "10320", "addr:street": "Ratchadapisek Rd.", "amenity": "nightclub", "name": "Emmanuelle", "website": "http://www.emmanuelle-entertainment.com/"}}, {"type": "node", "id": 4223288389, "lat": 13.7317908, "lon": 100.5652653, "tags": {"amenity": "nightclub", "name": "bit style"}}, {"type": "node", "id": 4249934009, "lat": 13.736747, "lon": 100.5627124, "tags": {"amenity": "nightclub", "name": "Crazy House"}}, {"type": "node", "id": 4257984189, "lat": 13.7596326, "lon": 100.4957593, "tags": {"addr:street": "\u0e16\u0e19\u0e19\u0e02\u0e49\u0e32\u0e27\u0e2a\u0e32\u0e23", "amenity": "nightclub", "name": "Khao San Road"}}, {"type": "node", "id": 4307341002, "lat": 13.7332076, "lon": 100.5634762, "tags": {"amenity": "nightclub", "name": "Scratch dog"}}, {"type": "node", "id": 4449866990, "lat": 13.6981663, "lon": 100.403242, "tags": {"addr:street": "\u0e0b\u0e2d\u0e22\u0e2b\u0e21\u0e39\u0e48\u0e1a\u0e49\u0e32\u0e19\u0e2a\u0e38\u0e02\u0e2a\u0e31\u0e19\u0e15\u0e4c 6", "amenity": "nightclub", "internet_access": "wlan", "name": "\u0e1a\u0e49\u0e32\u0e19\u0e01\u0e1a", "name:en": "Kob's home", "name:th": "\u0e1a\u0e49\u0e32\u0e19\u0e01\u0e1a", "opening_hours": "24/7", "operator": "\u0e01\u0e1a \u0e40\u0e2d\u0e07\u0e08\u0e30\u0e43\u0e04\u0e23\u0e2b\u0e25\u0e30"}}, {"type": "node", "id": 4473542779, "lat": 13.737953, "lon": 100.5666137, "tags": {"amenity": "nightclub", "name": "Mirai Club Karaoke"}}, {"type": "node", "id": 4494909590, "lat": 13.7380432, "lon": 100.5652361, "tags": {"amenity": "nightclub", "name:pl": "klub Narz"}}, {"type": "node", "id": 4561371298, "lat": 13.7263038, "lon": 100.5764776, "tags": {"addr:postcode": "10110", "addr:street": "\u0e2a\u0e38\u0e02\u0e38\u0e21\u0e27\u0e34\u0e17 51", "amenity": "nightclub", "name:en": "Studio Lam", "phone": "022616661"}}, {"type": "node", "id": 4663404300, "lat": 13.7368893, "lon": 100.5626936, "tags": {"amenity": "nightclub", "name:en": "Kazi Kozi"}}, {"type": "node", "id": 4782438624, "lat": 13.7171049, "lon": 100.5203613, "tags": {"amenity": "nightclub", "name:en": "JAM"}}, {"type": "node", "id": 4820022829, "lat": 13.7370138, "lon": 100.5620847, "tags": {"amenity": "nightclub", "name": "Cactus", "name:de": "Cactus"}}, {"type": "node", "id": 4830014821, "lat": 13.7467699, "lon": 100.5814873, "tags": {"amenity": "nightclub", "name:en": "Live RCA"}}, {"type": "node", "id": 4858945988, "lat": 13.725608, "lon": 100.5698925, "tags": {"amenity": "nightclub", "name": "Kush", "name:en": "Kush- The Lion\u00ae Nightclub", "phone": "0883444400"}}, {"type": "node", "id": 5204513323, "lat": 13.7450234, "lon": 100.5566245, "tags": {"addr:housenumber": "32/2", "addr:postcode": "10110", "addr:street": "\u0e16\u0e19\u0e19\u0e2a\u0e38\u0e02\u0e38\u0e21\u0e27\u0e34\u0e17 \u0e0b\u0e2d\u0e2211", "amenity": "nightclub", "name:en": "Insanity nightclub", "phone": "+66 082 731 8885", "website": "https://www.clubinsanitybangkok.com/"}}, {"type": "node", "id": 5208957825, "lat": 13.722315, "lon": 100.5298684, "tags": {"amenity": "nightclub", "name:en": "c la vi"}}, {"type": "node", "id": 5214639541, "lat": 13.7413693, "lon": 100.5531462}, {"type": "node", "id": 5214639542, "lat": 13.7415289, "lon": 100.5531406}, {"type": "node", "id": 5214639543, "lat": 13.7413871, "lon": 100.5534282}, {"type": "node", "id": 5243634724, "lat": 13.7426763, "lon": 100.5856944, "tags": {"addr:housenumber": "1/F", "addr:street": "\u0e0b\u0e2d\u0e22\u0e2a\u0e38\u0e02\u0e38\u0e21\u0e27\u0e34\u0e17 55", "amenity": "nightclub", "name:en": "De Commune", "opening_hours": "We-Su 15:00-02:00", "phone": "061-717-4365"}}, {"type": "node", "id": 5303217521, "lat": 13.7292852, "lon": 100.5860858, "tags": {"amenity": "nightclub", "name": "Dark bar"}}, {"type": "node", "id": 5474162421, "lat": 13.7566457, "lon": 100.5028629, "tags": {"amenity": "nightclub", "name:en": "Mixx nightclub"}}, {"type": "node", "id": 5501779650, "lat": 13.6930568, "lon": 100.6456188, "tags": {"amenity": "nightclub"}}, {"type": "node", "id": 5601365197, "lat": 13.7264914, "lon": 100.5848694}, {"type": "node", "id": 5601365198, "lat": 13.7264296, "lon": 100.5847063}, {"type": "node", "id": 6038250685, "lat": 13.7312774, "lon": 100.5877065, "tags": {"addr:housenumber": "124/7", "addr:postcode": "10110", "addr:street": "\u0e40\u0e2d\u0e01\u0e21\u0e31\u0e22 \u0e0b\u0e2d\u0e22 14", "amenity": "nightclub", "name:en": "Illionaire"}}, {"type": "node", "id": 6127791211, "lat": 13.7320064, "lon": 100.5862097}, {"type": "node", "id": 6127791212, "lat": 13.7319499, "lon": 100.5863624}, {"type": "node", "id": 6127791213, "lat": 13.731779, "lon": 100.5862916}, {"type": "node", "id": 6127791214, "lat": 13.7318343, "lon": 100.5861376}, {"type": "node", "id": 6131000286, "lat": 13.7620589, "lon": 100.5665129, "tags": {"amenity": "nightclub", "name:en": "Hi Class Massage"}}, {"type": "node", "id": 6131025690, "lat": 13.7495188, "lon": 100.5657342}, {"type": "node", "id": 6131025691, "lat": 13.7546035, "lon": 100.5666748, "tags": {"amenity": "nightclub", "name:en": "Utopia Massage"}}, {"type": "node", "id": 6131035285, "lat": 13.777499, "lon": 100.5729616, "tags": {"amenity": "nightclub", "name:en": "Hi Class Massage"}}, {"type": "node", "id": 6442630285, "lat": 13.7346596, "lon": 100.5832281, "tags": {"addr:postcode": "10110", "addr:street": "\u0e0b\u0e2d\u0e22\u0e2a\u0e38\u0e02\u0e38\u0e21\u0e27\u0e34\u0e17 55", "amenity": "nightclub", "name:en": "Beam"}}, {"type": "node", "id": 6909643686, "lat": 13.7222485, "lon": 100.529507, "tags": {"amenity": "nightclub", "name:en": "The Club at Koi"}}, {"type": "node", "id": 7068181705, "lat": 13.7600255, "lon": 100.4982761, "tags": {"amenity": "nightclub", "name": "Dowan lobby"}}, {"type": "node", "id": 7229602262, "lat": 13.7470983, "lon": 100.5795711, "tags": {"addr:city": "bangkok", "addr:housenumber": "31/10", "addr:postcode": "10310", "addr:street": "Royal City Avenue", "amenity": "nightclub", "min_age": "20", "name": "Space Plus Bangkok", "opening_hours": "Mo-Su 22:00-02:00"}}, {"type": "node", "id": 7320976247, "lat": 13.7493767, "lon": 100.5664462}, {"type": "node", "id": 7320976248, "lat": 13.7491597, "lon": 100.5664003}, {"type": "node", "id": 7320976249, "lat": 13.7492536, "lon": 100.5659299}, {"type": "node", "id": 7320976250, "lat": 13.7492796, "lon": 100.5659354}, {"type": "node", "id": 7320976251, "lat": 13.7493279, "lon": 100.5656938}, {"type": "node", "id": 8941384786, "lat": 13.7339531, "lon": 100.5796685}, {"type": "node", "id": 9470187017, "lat": 13.816474, "lon": 100.6221612, "tags": {"addr:street": "\u0e16\u0e19\u0e19\u0e1b\u0e23\u0e30\u0e14\u0e34\u0e29\u0e10\u0e4c\u0e21\u0e19\u0e39\u0e18\u0e23\u0e23\u0e21", "amenity": "nightclub", "name:en": "Karaoke City", "opening_hours": "Mo-Su 16:00-00:00", "phone": "+66 92 481 3727", "website": "https://karaokecity.business.site/"}}, {"type": "node", "id": 10093297117, "lat": 13.7993216, "lon": 100.5490394, "tags": {"amenity": "nightclub"}}, {"type": "node", "id": 10296502409, "lat": 13.7286464, "lon": 100.5328599, "tags": {"amenity": "nightclub"}}, {"type": "node", "id": 10303754710, "lat": 13.7586989, "lon": 100.5036321, "tags": {"amenity": "nightclub", "name:en": "Decommune"}}, {"type": "way", "id": 26739660, "nodes": [293281362, 293282225, 293281366, 293281407, 5214639541, 776746840, 5214639543, 5214639542, 293281362], "tags": {"alt_name": "NEP", "amenity": "nightclub", "building": "yes", "name": "Nana Entertainment Plaza", "name:ar": "\u0646\u0627\u0646\u0627 \u0628\u0644\u0627\u0632\u0627"}}, {"type": "way", "id": 242107357, "nodes": [2496571537, 2496571541, 2496571542, 2496571539, 2496571535, 2496571537], "tags": {"amenity": "nightclub", "building": "yes", "name": "Pure", "name:en": "Hollywood"}}, {"type": "way", "id": 242107359, "nodes": [2496571548, 2496571545, 2496571538, 2496571543, 2496571548], "tags": {"amenity": "nightclub", "building": "yes", "name": "Snop"}}, {"type": "way", "id": 242107360, "nodes": [2496571526, 2496571531, 2496571532, 2496571530, 3337068609, 2496571534, 2496571529, 2496571527, 2496571526], "tags": {"amenity": "nightclub", "building": "yes", "name": "Sote"}}, {"type": "way", "id": 242107365, "nodes": [2496571516, 2496571518, 2496571507, 2496571506, 2496571516], "tags": {"amenity": "nightclub", "building": "yes", "name": "Slim"}}, {"type": "way", "id": 318127934, "nodes": [3245009590, 3245009586, 3245009582, 3245009587, 3308150610, 3245009590], "tags": {"amenity": "nightclub", "building": "yes", "name": "Yello"}}, {"type": "way", "id": 318213844, "nodes": [3246091650, 3246091647, 3246091646, 3246091648, 3246091650], "tags": {"amenity": "nightclub", "building": "yes", "name": "Cezch Trendy Club"}}, {"type": "way", "id": 318213848, "nodes": [3246091651, 5601365198, 3246091649, 5601365197, 3246091652, 3246091653, 3246091651], "tags": {"amenity": "nightclub", "building": "yes", "name": "Piano Forte"}}, {"type": "way", "id": 318942531, "nodes": [3298306574, 3253432768, 3253432772, 3253432771, 3298306574], "tags": {"amenity": "nightclub", "building": "yes", "name": "Escobar"}}, {"type": "way", "id": 319266520, "nodes": [3256772002, 3256771994, 3256771995, 3256771997, 3256771999, 3256771996, 3256771998, 3256772005, 3256772003, 3256772001, 3256772000, 3256772004, 3256772002], "tags": {"amenity": "nightclub", "building": "yes", "name": "Sherbet"}}, {"type": "way", "id": 319318734, "nodes": [3257317048, 3257317047, 3257317043, 3257317044, 3257317046, 3257317045, 8941384786, 3257317048], "tags": {"amenity": "nightclub", "building": "yes", "name": "Bijo Japanese Club"}}, {"type": "way", "id": 321285252, "nodes": [3280296149, 3280296147, 3280296142, 3280296144, 3280296149], "tags": {"amenity": "nightclub", "building": "yes", "name": "Do Not Disturb"}}, {"type": "way", "id": 321532237, "nodes": [3282919067, 3282919069, 3282919072, 3282919070, 3282919067], "tags": {"amenity": "nightclub", "building": "yes", "name": "Hoffman House", "source": "local_knowledge"}}, {"type": "way", "id": 323032738, "nodes": [3253432765, 3253432763, 3253432761, 3253432762, 3253432765], "tags": {"amenity": "nightclub", "building": "yes", "name": "Nunglen"}}, {"type": "way", "id": 326043376, "nodes": [3326607318, 3326607315, 3326607311, 3326607313, 3326607318], "tags": {"amenity": "nightclub", "building": "yes", "name": "Exotica Exclusive Club"}}, {"type": "way", "id": 326997888, "nodes": [3337068623, 3337068621, 3337068614, 3337068616, 3337068623], "tags": {"amenity": "nightclub", "building": "yes", "name": "Baku"}}, {"type": "way", "id": 326997891, "nodes": [3337068620, 3337068618, 3337068606, 3337068607, 3337068620], "tags": {"amenity": "nightclub", "building": "yes", "name": "Zaleng"}}, {"type": "way", "id": 329917322, "nodes": [3368643145, 3368643149, 3368643143, 3368643140, 3368643145], "tags": {"amenity": "nightclub", "building": "yes", "name": "Castro"}}, {"type": "way", "id": 329917324, "nodes": [2496571507, 3368643165, 3368643162, 2496571506, 2496571507], "tags": {"amenity": "nightclub", "building": "yes", "name": "Flix"}}, {"type": "way", "id": 329917326, "nodes": [3368643152, 3368643153, 3368643151, 3368643150, 3368643152], "tags": {"amenity": "nightclub", "building": "yes", "name": "Hobb"}}, {"type": "way", "id": 329917328, "nodes": [3368643151, 3368643148, 3368643145, 3368643150, 3368643151], "tags": {"amenity": "nightclub", "building": "yes", "name": "Led"}}, {"type": "way", "id": 329917333, "nodes": [3368643156, 3368643157, 3368643155, 3368643154, 3368643156], "tags": {"alt_name": "Route66 Club (RCA)", "alt_name:en": "Route 66", "alt_name_1:en": "Route 66 Club", "amenity": "nightclub", "building": "yes", "name": "Route66 Club", "name:th": "Route66", "website": "https://www.route66club.com/"}}, {"type": "way", "id": 329917335, "nodes": [3368643166, 3368643167, 3368643163, 3368643160, 3368643166], "tags": {"amenity": "nightclub", "building": "yes", "name": "Woody"}}, {"type": "way", "id": 329917338, "nodes": [3368643118, 3368643120, 3368643116, 3368643113, 3368643118], "tags": {"amenity": "nightclub", "building": "yes", "name": "Zeta"}}, {"type": "way", "id": 331795173, "nodes": [3388965551, 4083017275, 3388965558, 3388965557, 3388965549, 3388965551], "tags": {"amenity": "nightclub", "building": "yes", "name": "Mansion 7 Night Alive"}}, {"type": "way", "id": 331962323, "nodes": [3390660099, 3390660111, 3390660109, 3390660103, 3390660102, 3390660097, 3390660090, 3390660093, 3390660087, 3390660089, 3390660098, 3390660099], "tags": {"amenity": "nightclub", "building": "yes", "name": "Pegasus"}}, {"type": "way", "id": 340108295, "nodes": [3473124029, 3473124030, 3473124031, 3473124032, 3473124029], "tags": {"amenity": "nightclub", "building": "yes", "name": "\u0e1a\u0e49\u0e32\u0e19\u0e2a\u0e27\u0e19 \u0e41\u0e2a\u0e07\u0e08\u0e31\u0e19\u0e17\u0e23\u0e4c", "name:en": "Ban Suan Sangjan Nightclub", "name:th": "\u0e1a\u0e49\u0e32\u0e19\u0e2a\u0e27\u0e19 \u0e41\u0e2a\u0e07\u0e08\u0e31\u0e19\u0e17\u0e23\u0e4c"}}, {"type": "way", "id": 653892458, "nodes": [6127791211, 6127791212, 6127791213, 6127791214, 6127791211], "tags": {"amenity": "nightclub", "building": "yes"}}, {"type": "way", "id": 783792713, "nodes": [6131025690, 7320976247, 7320976248, 7320976249, 7320976250, 7320976251, 6131025690], "tags": {"amenity": "nightclub", "building": "yes", "name": "La Belle", "name:en": "La Belle Entertainment Comples"}}]}