{"version": 0.6, "generator": "Overpass API 0.7.60 f4c14d41", "osm3s": {"timestamp_osm_base": "2023-05-02T21:18:20Z", "copyright": "The data included in this document is from www.openstreetmap.org. The data is made available under ODbL."}, "elements": [{"type": "node", "id": 419360637, "lat": 40.7309926, "lon": -73.9894064, "tags": {"addr:housenumber": "95", "addr:postcode": "10003", "addr:street": "East 10th Street", "amenity": "ice_cream", "name": "Sundaes and Cones", "opening_hours": "Mo-Su 12:00-22:00", "outdoor_seating": "bench"}}, {"type": "node", "id": 419364720, "lat": 40.6867041, "lon": -73.9901468, "tags": {"addr:city": "Brooklyn", "addr:housenumber": "81", "addr:postcode": "11201", "addr:state": "NY", "addr:street": "Bergen Street", "amenity": "ice_cream", "branch": "Boerum Hill", "diet:vegan": "yes", "drink:espresso": "yes", "drink:tea": "yes", "name": "Van Leeuwen", "opening_hours": "Mo-Su 11:00-24:00", "phone": "+1-347-763-2979", "website": "https://vanleeuwenicecream.com/location/boerum-hill/"}}, {"type": "node", "id": 475485737, "lat": 40.7032082, "lon": -73.9947519, "tags": {"addr:city": "Brooklyn", "addr:housenumber": "1", "addr:postcode": "11201", "addr:state": "NY", "addr:street": "Water Street", "amenity": "ice_cream", "brand:wikidata": "Q105291109", "brand:wikipedia": "en:Ample Hills", "cuisine": "ice_cream", "drive_through": "no", "name": "Ample Hills Creamery", "opening_hours": "Mo-Th 12:00-22:00; Fr-Su 12:00-23:00", "outdoor_seating": "yes", "phone": "+1-718-852-0301", "takeaway": "only", "website": "https://amplehills.com/location/fireboat-house"}}, {"type": "node", "id": 1109836197, "lat": 40.7269048, "lon": -73.9853207, "tags": {"addr:city": "New York", "addr:housenumber": "93", "addr:postcode": "10009", "addr:state": "NY", "addr:street": "East 7th Street", "amenity": "ice_cream", "branch": "East Village", "cuisine": "asian", "name": "Baonanas", "opening_hours": "Mo off; Tu off; We off; Th,Fr 16:00-00:00; Sa 12:00-00:00; Su 12:00-22:00", "website": "https://www.baonanas.com/"}}, {"type": "node", "id": 1270769388, "lat": 40.7222645, "lon": -73.9870761, "tags": {"addr:city": "New York", "addr:housenumber": "188", "addr:postcode": "10002", "addr:state": "NY", "addr:street": "Ludlow Street", "amenity": "ice_cream", "email": "icecreamlab@hotmail.com", "name": "il laboratorio del gelato", "opening_hours": "Mo-Su 10:30-22:00", "outdoor_seating": "no", "phone": "+1-212-343-9922", "website": "https://www.laboratoriodelgelato.com/"}}, {"type": "node", "id": 1297658045, "lat": 40.751113, "lon": -73.9971455, "tags": {"amenity": "ice_cream", "brand": "Baskin-Robbins", "brand:wikidata": "Q584601", "brand:wikipedia": "en:Baskin-Robbins", "cuisine": "ice_cream", "name": "Baskin-Robbins"}}, {"type": "node", "id": 1383929011, "lat": 40.7678147, "lon": -73.9836951, "tags": {"amenity": "ice_cream", "brand": "Pinkberry", "brand:wikidata": "Q2904053", "brand:wikipedia": "en:Pinkberry", "cuisine": "frozen_yogurt", "name": "Pinkberry", "takeaway": "yes"}}, {"type": "node", "id": 1426334951, "lat": 40.7663392, "lon": -73.7836628, "tags": {"addr:housenumber": "203-20", "addr:street": "35th Avenue", "amenity": "ice_cream", "cuisine": "ice_cream", "name": "Pesso's Italian Ices", "phone": "+1-718-224-9130", "website": "https://www.pessosices.com/"}}, {"type": "node", "id": 2070046022, "lat": 40.763714, "lon": -73.915354, "tags": {"addr:street": "Steinway Street", "amenity": "ice_cream", "brand": "Baskin-Robbins", "brand:wikidata": "Q584601", "brand:wikipedia": "en:Baskin-Robbins", "cuisine": "ice_cream", "name": "Baskin-Robbins", "outdoor_seating": "no", "smoking": "no", "takeaway": "yes"}}, {"type": "node", "id": 2279017959, "lat": 40.8053319, "lon": -73.9662449, "tags": {"addr:city": "New York", "addr:country": "US", "addr:housenumber": "2873", "addr:postcode": "10025", "addr:state": "NY", "addr:street": "Broadway", "amenity": "ice_cream", "brand": "Pinkberry", "brand:wikidata": "Q2904053", "brand:wikipedia": "en:Pinkberry", "cuisine": "frozen_yogurt", "name": "Pinkberry", "takeaway": "yes"}}, {"type": "node", "id": 2385856408, "lat": 40.573422, "lon": -73.9788277}, {"type": "node", "id": 2385856434, "lat": 40.5735224, "lon": -73.9789462}, {"type": "node", "id": 2407891430, "lat": 40.7456668, "lon": -73.9984565, "tags": {"addr:city": "New York", "addr:housenumber": "269", "addr:postcode": "10001", "addr:street": "8th Avenue", "amenity": "ice_cream", "brand": "Baskin-Robbins", "brand:wikidata": "Q584601", "brand:wikipedia": "en:Baskin-Robbins", "cuisine": "ice_cream", "name": "Baskin-Robbins", "website": "baskinrobbins.com"}}, {"type": "node", "id": 2409398830, "lat": 40.7857796, "lon": -73.9729598, "tags": {"addr:city": "New York", "addr:country": "US", "addr:housenumber": "516", "addr:postcode": "10024", "addr:state": "NY", "addr:street": "Columbus Avenue", "amenity": "ice_cream", "diet:lactose_free": "yes", "drive_through": "no", "level": "0", "name": "Big Gay Ice Cream", "opening_hours": "Su-We 12:00-21:00; Th-Sa 12:00-22:00", "outdoor_seating": "yes", "website": "https://biggayicecream.com"}}, {"type": "node", "id": 2409398840, "lat": 40.7806573, "lon": -73.9798764, "tags": {"addr:city": "New York", "addr:country": "US", "addr:housenumber": "325", "addr:postcode": "10024", "addr:state": "NY", "addr:street": "Amsterdam Avenue", "amenity": "ice_cream", "cuisine": "frozen_yogurt", "name": "16 Handles"}}, {"type": "node", "id": 2443892137, "lat": 40.7776613, "lon": -73.982681, "tags": {"addr:city": "New York", "addr:country": "US", "addr:housenumber": "2041", "addr:postcode": "10023", "addr:state": "NY", "addr:street": "Broadway", "amenity": "ice_cream", "brand": "Pinkberry", "brand:wikidata": "Q2904053", "brand:wikipedia": "en:Pinkberry", "cuisine": "frozen_yogurt", "diet:dairy_free": "yes", "level": "0", "name": "Pinkberry", "opening_hours": "12:00-22:00", "outdoor_seating": "no", "phone": "+1 212-580-3410", "takeaway": "yes", "website": "https://www.pinkberry.com/stores/15038", "wheelchair": "limited"}}, {"type": "node", "id": 2443892138, "lat": 40.7928405, "lon": -73.9727466, "tags": {"amenity": "ice_cream", "brand": "Pinkberry", "brand:wikidata": "Q2904053", "brand:wikipedia": "en:Pinkberry", "cuisine": "frozen_yogurt", "name": "Pinkberry", "opening_hours": "Mo-Th 08:00-23:00; Fr 08:30-00:30; Sa-Su 11:30-00:30", "takeaway": "yes"}}, {"type": "node", "id": 2494064642, "lat": 40.7276967, "lon": -73.9877131, "tags": {"amenity": "ice_cream", "diet:vegan": "yes", "drink:coffee": "yes", "drink:espresso": "yes", "name": "Van Leeuwen Ice Cream", "opening_hours": "Mo-Th 12:00-23:00; Fr-Sa 12:00-24:00; Su 12:00-23:00", "toilets": "no"}}, {"type": "node", "id": 2494172051, "lat": 40.684138, "lon": -73.9997608, "tags": {"addr:housenumber": "204", "addr:postcode": "11231", "addr:street": "Sackett Street", "amenity": "ice_cream", "drink:coffee": "yes", "name": "Dulce Brooklyn", "outdoor_seating": "only", "shop": "pastry"}}, {"type": "node", "id": 2494187914, "lat": 40.6700617, "lon": -73.9791358, "tags": {"addr:housenumber": "232", "addr:postcode": "11215", "addr:street": "7th Avenue", "alt_name": "Uncle Louie G", "amenity": "ice_cream", "name": "Goodiez", "opening_hours": "Mo-Th 12:00-22:00; Fr-Sa 12:00-23:00; Su 12:00-21:00"}}, {"type": "node", "id": 2494238091, "lat": 40.5512648, "lon": -74.2124653, "tags": {"addr:housenumber": "990", "addr:postcode": "10309", "addr:street": "Rossville Avenue", "amenity": "ice_cream", "brand": "Carvel", "brand:wikidata": "Q5047520", "cuisine": "ice_cream", "name": "Carvel", "takeaway": "yes"}}, {"type": "node", "id": 2494245490, "lat": 40.7296131, "lon": -73.9871866, "tags": {"addr:housenumber": "153", "addr:postcode": "10003", "addr:street": "2nd Avenue", "amenity": "ice_cream", "delivery": "yes", "diet:vegan": "yes", "name": "16 Handles", "opening_hours": "Mo-We 12:00-22:00; Th-Sa 12:00-23:00; Su 12:00-22:00", "outdoor_seating": "sidewalk", "phone": "+1-212-260-4414", "takeaway": "yes", "website": "https://locations.16handles.com/16-handles-42b222d5bda0"}}, {"type": "node", "id": 2518042362, "lat": 40.7322022, "lon": -73.8499416, "tags": {"addr:city": "Forest Hills", "addr:housenumber": "105-43", "addr:postcode": "11375", "addr:street": "64th Road", "amenity": "ice_cream", "name": "berrylicious", "phone": "+1 718 830-4505"}}, {"type": "node", "id": 2533032672, "lat": 40.5775335, "lon": -74.1652328}, {"type": "node", "id": 2533032730, "lat": 40.5776401, "lon": -74.1651254}, {"type": "node", "id": 2541393274, "lat": 40.6303904, "lon": -74.1395517, "tags": {"addr:housenumber": "501", "addr:postcode": "10302", "addr:street": "Port Richmond Avenue", "amenity": "ice_cream", "brand": "Ralph's Italian Ices", "brand:wikidata": "Q62576909", "cuisine": "ice_cream", "name": "Ralph's Italian Ices", "official_name": "Ralph's Famous Italian Ices"}}, {"type": "node", "id": 2543615525, "lat": 40.6086933, "lon": -74.1218039, "tags": {"addr:housenumber": "762", "addr:postcode": "10314", "addr:street": "Manor Road", "amenity": "ice_cream", "brand": "Carvel", "brand:wikidata": "Q5047520", "cuisine": "ice_cream", "name": "Carvel", "takeaway": "yes"}}, {"type": "node", "id": 2545709310, "lat": 40.7491605, "lon": -73.7082266}, {"type": "node", "id": 2545709336, "lat": 40.7491851, "lon": -73.708265}, {"type": "node", "id": 2545709341, "lat": 40.749199, "lon": -73.7082495}, {"type": "node", "id": 2545709374, "lat": 40.7492199, "lon": -73.7082822}, {"type": "node", "id": 2545709376, "lat": 40.7492201, "lon": -73.7081251}, {"type": "node", "id": 2545709427, "lat": 40.7492789, "lon": -73.7082168}, {"type": "node", "id": 2547207669, "lat": 40.7130066, "lon": -73.7830759, "tags": {"addr:city": "Jamaica", "addr:housenumber": "179-39A", "addr:postcode": "11432", "addr:state": "NY", "addr:street": "Hillside Avenue", "amenity": "ice_cream", "name": "Cold Crush", "opening_hours": "Mo-Fr 10:00-20:00; Sa,Su 11:00-21:00", "outdoor_seating": "no", "phone": "(718) 684-9990"}}, {"type": "node", "id": 2547241610, "lat": 40.7234424, "lon": -73.9964704, "tags": {"addr:housenumber": "267", "addr:postcode": "10012", "addr:street": "Lafayette Street", "amenity": "ice_cream", "name": "Sant Ambroeus Gelateria", "outdoor_seating": "sidewalk", "phone": "+1-212-203-8176", "website": "https://www.santambroeus.com"}}, {"type": "node", "id": 2547243346, "lat": 40.7219749, "lon": -73.9960928, "tags": {"addr:housenumber": "45", "addr:postcode": "10012", "addr:street": "Spring Street", "alt_name": "Van Leeuwen Ice Cream", "amenity": "ice_cream", "contact:phone": "+1-917-639-3147", "contact:website": "https://vanleeuwenicecream.com/location/nolita/", "name": "Van Leeuwen"}}, {"type": "node", "id": 2549908154, "lat": 40.6555641, "lon": -73.9596562, "tags": {"addr:housenumber": "715", "addr:postcode": "11226", "addr:street": "Flatbush Avenue", "amenity": "ice_cream", "name": "Cinnabon/Carvel", "opening_hours": "Mo-Th 11:00-23:00; Sa-Su 11:00-24:00", "shop": "pastry"}}, {"type": "node", "id": 2549930015, "lat": 40.7274216, "lon": -73.9827315, "tags": {"addr:housenumber": "145", "addr:postcode": "10009", "addr:street": "Avenue A", "amenity": "ice_cream", "name": "Ralph's Famous", "opening_hours": "\"Temporarily closed\""}}, {"type": "node", "id": 2550054027, "lat": 40.6810681, "lon": -73.975689, "tags": {"addr:housenumber": "459", "addr:postcode": "11217", "addr:street": "Bergen Street", "amenity": "ice_cream", "diet:vegan": "yes", "drink:tea": "yes", "name": "Bklyn Cream", "opening_hours": "Mo-Th 12:00-21:00; Fr-Sa 12:00-22:00; Su 12:00-21:00", "wheelchair": "limited", "wheelchair:description": "wheelchairs can enter via Blyln Crepe at 212 Flatbush"}}, {"type": "node", "id": 2550057146, "lat": 40.6771965, "lon": -73.9801045, "tags": {"amenity": "ice_cream", "drink:coffee": "yes", "drink:tea": "yes", "name": "Think Ice Cream"}}, {"type": "node", "id": 2550523475, "lat": 40.7385705, "lon": -73.7033006}, {"type": "node", "id": 2550523509, "lat": 40.738625, "lon": -73.7033357}, {"type": "node", "id": 2550523511, "lat": 40.738628, "lon": -73.7033195}, {"type": "node", "id": 2550523519, "lat": 40.7386512, "lon": -73.703228}, {"type": "node", "id": 2550523520, "lat": 40.7386544, "lon": -73.7032109}, {"type": "node", "id": 2550523527, "lat": 40.7386597, "lon": -73.7033471}, {"type": "node", "id": 2550523539, "lat": 40.7386838, "lon": -73.7032206}, {"type": "node", "id": 2550646220, "lat": 40.5699625, "lon": -74.1095016, "tags": {"addr:housenumber": "2508", "addr:postcode": "10306", "addr:street": "Hylan Boulevard", "amenity": "ice_cream", "brand": "Cold Stone Creamery", "brand:wikidata": "Q1094923", "cuisine": "ice_cream", "name": "Cold Stone Creamery"}}, {"type": "node", "id": 2551039912, "lat": 40.72071, "lon": -73.806217, "tags": {"addr:city": "Fresh Meadows", "addr:housenumber": "161-02", "addr:postcode": "11366", "addr:state": "NY", "addr:street": "Union Turnpike", "amenity": "ice_cream", "brand": "Carvel", "brand:wikidata": "Q5047520", "brand:wikipedia": "en:Carvel (franchise)", "cuisine": "ice_cream", "name": "Carvel", "outdoor_seating": "no", "takeaway": "yes"}}, {"type": "node", "id": 2552604130, "lat": 40.6226636, "lon": -74.0315603, "tags": {"addr:housenumber": "8702", "addr:postcode": "11209", "addr:street": "3rd Avenue", "amenity": "ice_cream", "cuisine": "ice_cream;soup", "drink:coffee": "yes", "name": "Uncle Louie G", "payment:cash": "only"}}, {"type": "node", "id": 2552762270, "lat": 40.5733774, "lon": -73.9788316}, {"type": "node", "id": 2552762271, "lat": 40.5733832, "lon": -73.9789583}, {"type": "node", "id": 2552762280, "lat": 40.573493, "lon": -73.9788216}, {"type": "node", "id": 2555539510, "lat": 40.589541, "lon": -73.9608508}, {"type": "node", "id": 2555539518, "lat": 40.589548, "lon": -73.960715}, {"type": "node", "id": 2555539707, "lat": 40.5896247, "lon": -73.9608584}, {"type": "node", "id": 2555539723, "lat": 40.5896317, "lon": -73.9607225}, {"type": "node", "id": 2555640554, "lat": 40.5903565, "lon": -73.9731084, "tags": {"addr:city": "Brooklyn", "addr:housenumber": "265", "addr:postcode": "11223", "addr:state": "NY", "addr:street": "Avenue X", "amenity": "ice_cream", "name": "Tryker's"}}, {"type": "node", "id": 2556452409, "lat": 40.6115853, "lon": -73.9835271, "tags": {"addr:city": "Brooklyn", "addr:housenumber": "6805", "addr:postcode": "11204", "addr:state": "NY", "addr:street": "Bay Parkway", "amenity": "ice_cream", "branch": "Bensonhurst", "contact:facebook": "https://www.facebook.com/StuffedIceCreamNYC/", "contact:instagram": "https://www.instagram.com/stuffedicecreamnyc/", "drive_through": "no", "name": "Stuffed Ice Cream", "outdoor_seating": "no", "phone": "+1-917-985-6166", "start_date": "2022-05", "website": "https://stuffedicecreamnyc.com/"}}, {"type": "node", "id": 2561579230, "lat": 40.6423525, "lon": -74.0129766, "tags": {"amenity": "ice_cream", "name": "Nieves Tia Mimi", "opening_hours": "Mo-Su 10:00-22:00", "phone": "+1-718-576-3205", "website": "https://www.nievestiamimi.com"}}, {"type": "node", "id": 2561698435, "lat": 40.6460615, "lon": -74.0091064, "tags": {"addr:housenumber": "4801", "addr:postcode": "11220", "addr:street": "5th Avenue", "amenity": "ice_cream", "cuisine": "crepe", "name": "J-Petal", "opening_hours": "Mo-Fr 12:00-21:00; Sa-Su 12:00-21:30"}}, {"type": "node", "id": 2561979788, "lat": 40.6434675, "lon": -73.9782225, "tags": {"addr:housenumber": "203", "addr:postcode": "11218", "addr:street": "Church Avenue", "amenity": "ice_cream", "brand": "Carvel", "brand:wikidata": "Q5047520", "brand:wikipedia": "en:Carvel (franchise)", "cuisine": "ice_cream", "name": "Carvel", "takeaway": "yes"}}, {"type": "node", "id": 2562001519, "lat": 40.6547229, "lon": -73.9736186, "tags": {"addr:housenumber": "157", "addr:postcode": "11218", "addr:street": "Prospect Park Southwest", "amenity": "ice_cream", "name": "Uncle Louie G", "outdoor_seating": "only"}}, {"type": "node", "id": 2562136788, "lat": 40.6614269, "lon": -73.9797156, "tags": {"amenity": "ice_cream", "name": "Ample Hilsl Creamery", "opening_hours": "Mo-Th 13:00-22:00; Fr-Sa 12:00-23:00; Su 12:00-22:00", "phone": "+1-631-504-4462", "website": "https://www.amplehills.com/location/prospect-park-west"}}, {"type": "node", "id": 2562454136, "lat": 40.7305852, "lon": -74.0020186, "tags": {"addr:housenumber": "5", "addr:postcode": "10014", "addr:street": "Carmine Street", "amenity": "ice_cream", "name": "Popbar", "opening_hours": "Mo-Su 12:00-23:00", "phone": "2122554874", "website": "https://www.pop-bar.com/"}}, {"type": "node", "id": 2567553184, "lat": 40.7181562, "lon": -73.9912086, "tags": {"addr:city": "New York", "addr:housenumber": "85B", "addr:postcode": "10002", "addr:state": "NY", "addr:street": "Allen Street", "amenity": "ice_cream", "name": "Soft Swerve", "opening_hours": "Su-Tu 12:00-22:00; We-Sa 12:00-23:00", "outdoor_seating": "pedestrian_zone", "phone": "+1-646-655-2541", "website": "https://www.softswervenyc.com/"}}, {"type": "node", "id": 2567557187, "lat": 40.7184412, "lon": -73.990178, "tags": {"addr:city": "New York", "addr:housenumber": "95", "addr:postcode": "10002", "addr:state": "NY", "addr:street": "Orchard Street", "amenity": "ice_cream", "name": "Whipped - Urban Dessert Lab", "opening_hours": "Fr 16:00-23:00; Sa 13:00-23:00; Su 13:00-22:00", "website": "https://urbandessertlab.com"}}, {"type": "node", "id": 2567558475, "lat": 40.7176986, "lon": -73.992723, "tags": {"addr:city": "New York", "addr:housenumber": "279", "addr:postcode": "10002", "addr:state": "NY", "addr:street": "Grand Street", "amenity": "ice_cream", "name": "Smoove Ice Cream & Kulu Desserts"}}, {"type": "node", "id": 2568798055, "lat": 40.6723571, "lon": -73.9774771}, {"type": "node", "id": 2568798112, "lat": 40.6724069, "lon": -73.9775808}, {"type": "node", "id": 2568798114, "lat": 40.6724086, "lon": -73.977434}, {"type": "node", "id": 2568798180, "lat": 40.6724523, "lon": -73.9775429}, {"type": "node", "id": 2568798187, "lat": 40.6724585, "lon": -73.9775377}, {"type": "node", "id": 2573098455, "lat": 40.6786161, "lon": -73.9683104, "tags": {"addr:housenumber": "623", "addr:postcode": "11238", "addr:street": "Vanderbilt Avenue", "amenity": "ice_cream", "name": "Ample Hills Creamery", "opening_hours": "Mo-Th 12:00-22:00; Fr-Sa 12:00-23:00; Su 12:00-22:00", "outdoor_seating": "yes", "website": "https://www.amplehills.com/"}}, {"type": "node", "id": 2622901051, "lat": 40.7081603, "lon": -73.8679869, "tags": {"addr:housenumber": "80-28", "addr:postcode": "11385", "addr:street": "Cooper Avenue", "amenity": "ice_cream", "brand": "Cold Stone Creamery", "brand:wikidata": "Q1094923", "brand:wikipedia": "en:Cold Stone Creamery", "cuisine": "ice_cream", "level": "1", "name": "Cold Stone Creamery", "website": "https://www.coldstonecreamery.com/"}}, {"type": "node", "id": 2701655552, "lat": 40.6749966, "lon": -73.9668999, "tags": {"addr:city": "Brooklyn", "addr:housenumber": "186", "addr:postcode": "11238", "addr:street": "Underhill Avenue", "amenity": "ice_cream", "cuisine": "ice_cream;coffee_shop;breakfast", "drink:coffee": "yes", "drink:espresso": "yes", "drink:iced_tea": "yes", "drink:tea": "yes", "name": "Blue Marble Ice Cream", "opening_hours": "Mo-Th 08:00-21:00; Fr-Su 09:00-21:00", "outdoor_seating": "garden;sidewalk;street", "phone": "+1-718-399-6926", "takeaway": "yes", "website": "https://www.bluemarbleicecream.com"}}, {"type": "node", "id": 2704088849, "lat": 40.7367643, "lon": -73.9814655, "tags": {"addr:housenumber": "370", "addr:postcode": "10010", "addr:street": "2nd Avenue", "amenity": "ice_cream", "brand": "Ralph's Italian Ices", "brand:wikidata": "Q62576909", "cuisine": "ice_cream", "name": "Ralph's Italian Ices", "official_name": "Ralph's Famous Italian Ices", "takeaway": "only"}}, {"type": "node", "id": 2710842170, "lat": 40.7463289, "lon": -73.9779179, "tags": {"addr:housenumber": "522", "addr:postcode": "10016", "addr:street": "3rd Avenue", "amenity": "ice_cream", "cuisine": "ice_cream;donut", "diet:kosher": "yes", "name": "Holey Cream"}}, {"type": "node", "id": 2716126858, "lat": 40.759429, "lon": -73.9884241, "tags": {"addr:housenumber": "721", "addr:postcode": "10036", "addr:state": "NY", "addr:street": "8th Avenue", "amenity": "ice_cream", "branch": "ice cream shop", "brand": "Amorino", "brand:wikidata": "Q2843884", "brand:wikipedia": "fr:Amorino", "name": "Amorino", "toilets": "yes", "wheelchair": "yes"}}, {"type": "node", "id": 2716231114, "lat": 40.7569181, "lon": -73.9886311, "tags": {"addr:housenumber": "253", "addr:postcode": "10036", "addr:street": "West 42nd Street", "amenity": "ice_cream", "brand": "Cold Stone Creamery", "brand:wikidata": "Q1094923", "brand:wikipedia": "en:Cold Stone Creamery", "cuisine": "ice_cream", "name": "Cold Stone Creamery", "website": "https://www.coldstonecreamery.com/"}}, {"type": "node", "id": 2723749687, "lat": 40.7658471, "lon": -73.9576536, "tags": {"addr:housenumber": "1275", "addr:postcode": "10065", "addr:street": "1st Avenue", "amenity": "ice_cream", "brand": "Yogurtland", "brand:wikidata": "Q8054428", "brand:wikipedia": "en:Yogurtland", "cuisine": "frozen_yogurt", "name": "Yogurtland", "name:en": "Yogurtland", "takeaway": "yes"}}, {"type": "node", "id": 2745359376, "lat": 40.7787256, "lon": -73.981325, "tags": {"addr:housenumber": "263", "addr:postcode": "10023", "addr:street": "Amsterdam Avenue", "amenity": "ice_cream", "brand": "H\u00e4agen-Dazs", "brand:wikidata": "Q1143333", "brand:wikipedia": "en:H\u00e4agen-Dazs", "name": "H\u00e4agen-Dazs"}}, {"type": "node", "id": 2782000317, "lat": 40.7574361, "lon": -73.9865499, "tags": {"amenity": "ice_cream", "brand": "Ben & Jerry's", "brand:wikidata": "Q816412", "brand:wikipedia": "en:Ben & Jerry's", "cuisine": "ice_cream", "name": "Ben & Jerry's", "source": "survey"}}, {"type": "node", "id": 2797527516, "lat": 40.8506538, "lon": -73.9378488, "tags": {"addr:housenumber": "756", "addr:postcode": "10033", "addr:street": "West 181st Street", "amenity": "ice_cream", "name": "YoSweets", "phone": "+1-212-543-0888"}}, {"type": "node", "id": 2826754276, "lat": 40.7179686, "lon": -73.9855204, "tags": {"addr:city": "New York", "addr:housenumber": "166", "addr:postcode": "10002", "addr:state": "NY", "addr:street": "Delancey Street", "amenity": "ice_cream", "branch": "166 Delancey", "delivery": "yes", "diet:vegan": "yes", "name": "Lucky Star", "opening_hours": "Mo-Th, Su 12:00-22:00; Fr, Sa 12:00-23:00", "website": "https://www.luckystaricecream.net"}}, {"type": "node", "id": 2845825762, "lat": 40.7429817, "lon": -73.85521}, {"type": "node", "id": 2845825776, "lat": 40.7429963, "lon": -73.8551816}, {"type": "node", "id": 2845825793, "lat": 40.7430079, "lon": -73.855192}, {"type": "node", "id": 2845825886, "lat": 40.7430864, "lon": -73.8553032}, {"type": "node", "id": 2845825909, "lat": 40.7431051, "lon": -73.8550033}, {"type": "node", "id": 2845826004, "lat": 40.7431982, "lon": -73.8550862}, {"type": "node", "id": 2847009734, "lat": 40.7714905, "lon": -73.9228992, "tags": {"addr:housenumber": "23-39", "addr:postcode": "11102", "addr:street": "Astoria Boulevard", "amenity": "ice_cream", "brand": "Andy's Frozen Custard", "brand:wikidata": "Q4760327", "brand:wikipedia": "en:Andy's Frozen Custard", "name": "Andy's Frozen Custard", "short_name": "Andy's"}}, {"type": "node", "id": 2853184673, "lat": 40.7742489, "lon": -73.9175868, "tags": {"addr:housenumber": "23-92", "addr:postcode": "11105", "addr:street": "27th Street", "amenity": "ice_cream", "name": "Rosemaria Gelateria", "phone": "+1-718-721-3200"}}, {"type": "node", "id": 2869522962, "lat": 40.6792614, "lon": -73.7610836, "tags": {"addr:housenumber": "131-12", "addr:postcode": "11434", "addr:street": "Merrick Boulevard", "amenity": "ice_cream", "brand": "Carvel", "brand:wikidata": "Q5047520", "brand:wikipedia": "en:Carvel (franchise)", "cuisine": "ice_cream", "name": "Carvel", "takeaway": "yes"}}, {"type": "node", "id": 2887579259, "lat": 40.5794065, "lon": -73.8371906, "tags": {"addr:housenumber": "185", "addr:postcode": "11694", "addr:street": "Beach 116th Street", "amenity": "ice_cream", "brand": "Carvel", "brand:wikidata": "Q5047520", "brand:wikipedia": "en:Carvel (franchise)", "cuisine": "ice_cream", "name": "Carvel", "takeaway": "yes"}}, {"type": "node", "id": 2887579283, "lat": 40.5811011, "lon": -73.8303822, "tags": {"addr:housenumber": "196", "addr:postcode": "11694", "addr:street": "Beach 109th Street", "amenity": "ice_cream"}}, {"type": "node", "id": 2888162778, "lat": 40.5867282, "lon": -73.9293204, "tags": {"addr:city": "Brooklyn", "addr:housenumber": "2777", "addr:postcode": "11235", "addr:state": "NY", "addr:street": "Plumb 2nd Street", "amenity": "ice_cream", "brand": "Cold Stone Creamery", "brand:wikidata": "Q1094923", "brand:wikipedia": "en:Cold Stone Creamery", "cuisine": "ice_cream", "name": "Cold Stone Creamery"}}, {"type": "node", "id": 3144069324, "lat": 40.7751907, "lon": -73.9539525, "tags": {"addr:housenumber": "1577", "addr:street": "2nd Avenue", "amenity": "ice_cream", "brand": "Pinkberry", "brand:wikidata": "Q2904053", "brand:wikipedia": "en:Pinkberry", "cuisine": "frozen_yogurt", "name": "Pinkberry", "takeaway": "yes", "website": "https://www.pinkberry.com"}}, {"type": "node", "id": 3743284650, "lat": 40.6789306, "lon": -73.9873375, "tags": {"addr:city": "Brooklyn", "addr:housenumber": "305", "addr:postcode": "11215", "addr:state": "NY", "addr:street": "Nevins Street", "amenity": "ice_cream", "name": "Ample Hills Creamery", "opening_hours": "Mo-Th 13:00-22:00; Fr-Sa 13:00-23:00; Su 13:00-21:00", "outdoor_seating": "roof;sidewalk", "phone": "+1-347-725-4061", "shop": "ice_cream", "takeaway": "yes", "website": "https://www.amplehills.com/location/gowanus", "wheelchair": "yes"}}, {"type": "node", "id": 4080312807, "lat": 40.5753982, "lon": -73.9804421}, {"type": "node", "id": 4080312808, "lat": 40.5752378, "lon": -73.980435}, {"type": "node", "id": 4080312809, "lat": 40.5752378, "lon": -73.9803609}, {"type": "node", "id": 4080312810, "lat": 40.5753951, "lon": -73.9803595}, {"type": "node", "id": 4227132595, "lat": 40.6736688, "lon": -73.9758306, "tags": {"addr:city": "Brooklyn", "addr:housenumber": "109", "addr:postcode": "11215", "addr:state": "NY", "addr:street": "7th Avenue", "amenity": "ice_cream", "drink:coffee": "yes", "name": "H\u00e4agen-Dasz"}}, {"type": "node", "id": 4277059516, "lat": 40.7595734, "lon": -73.9883244, "tags": {"amenity": "ice_cream", "brand": "Amorino", "brand:wikidata": "Q2843884", "brand:wikipedia": "fr:Amorino", "name": "Amorino", "opening_hours": "Mo-Su 12:00-22:00"}}, {"type": "node", "id": 4278875400, "lat": 40.7737606, "lon": -73.9514304, "tags": {"addr:housenumber": "1564", "addr:postcode": "10028", "addr:street": "1st Avenue", "amenity": "ice_cream", "branch": "Upper East Side", "delivery": "yes", "level": "0", "name": "Emack & Bolio's", "opening_hours": "12:00-22:00", "phone": "+1 212-734-0105", "takeaway": "yes", "website": "https://emackandbolios.com"}}, {"type": "node", "id": 4305351598, "lat": 40.8469419, "lon": -73.7865924, "tags": {"amenity": "ice_cream", "name": "Lickety Split"}}, {"type": "node", "id": 4422266665, "lat": 40.7672906, "lon": -73.9814579, "tags": {"addr:city": "New York", "addr:housenumber": "1796", "addr:postcode": "10019", "addr:state": "NY", "addr:street": "Broadway", "amenity": "ice_cream", "brand": "Venchi", "cuisine": "italian", "dish": "gelato", "name": "Venchi", "website": "https://us.venchi.com", "wheelchair": "yes"}}, {"type": "node", "id": 4775571736, "lat": 40.78375, "lon": -73.9781176, "tags": {"addr:postcode": "10024", "addr:state": "NY", "amenity": "ice_cream", "branch": "ice cream shop", "brand": "Amorino", "brand:wikidata": "Q2843884", "brand:wikipedia": "fr:Amorino", "name": "Amorino"}}, {"type": "node", "id": 4775571738, "lat": 40.7154164, "lon": -73.9981579, "tags": {"addr:city": "New York", "addr:housenumber": "65", "addr:postcode": "10013", "addr:state": "NY", "addr:street": "Bayard Street", "amenity": "ice_cream", "branch": "Chinatown", "name": "Chinatown Ice Cream Factory", "name:zh": "\u8001\u6b63\uff08\u56db\uff09\u5ddd", "opening_hours": "Mo-Su 10:30-00:00; Mo-Su 11:00-22:00", "phone": "+1 212-608-4170", "website": "http://www.chinatownicecreamfactory.com/"}}, {"type": "node", "id": 4775572070, "lat": 40.732889, "lon": -73.9938684, "tags": {"addr:housenumber": "60", "addr:postcode": "10003", "addr:state": "NY", "addr:street": "University Place", "amenity": "ice_cream", "branch": "ice cream shop", "brand": "Amorino", "brand:wikidata": "Q2843884", "brand:wikipedia": "fr:Amorino", "name": "Amorino", "opening_hours": "Su-Th 12:00-21:30; Fr,Sa 12:00-22:30"}}, {"type": "node", "id": 4813739921, "lat": 40.5907476, "lon": -73.7971905, "tags": {"addr:postcode": "12692", "amenity": "ice_cream", "brand": "Baskin-Robbins", "brand:wikidata": "Q584601", "brand:wikipedia": "en:Baskin-Robbins", "cuisine": "ice_cream", "name": "Baskin-Robbins", "opening_hours": "Mo-Su 05:00-22:00", "phone": "+13472304213"}}, {"type": "node", "id": 4875425585, "lat": 40.7332248, "lon": -74.00328, "tags": {"addr:city": "New York", "addr:housenumber": "61", "addr:postcode": "10014", "addr:state": "NY", "addr:street": "Grove Street", "amenity": "ice_cream", "name": "Big Gay Ice Cream", "phone": "+1 212 414 0222", "source": "official website"}}, {"type": "node", "id": 5082828799, "lat": 40.7452371, "lon": -73.9058537, "tags": {"addr:housenumber": "58-26", "addr:street": "Roosevelt Avenue", "amenity": "ice_cream", "name": "Carvel's"}}, {"type": "node", "id": 5147380184, "lat": 40.7898994, "lon": -73.8119996, "tags": {"addr:housenumber": "12-48B", "addr:street": "Clintonville Street", "amenity": "ice_cream", "brand": "Ralph's Italian Ices", "brand:wikidata": "Q62576909", "cuisine": "ice_cream", "name": "Ralph's Italian Ices", "official_name": "Ralph's Famous Italian Ices"}}, {"type": "node", "id": 5155171167, "lat": 40.7644539, "lon": -73.7712622, "tags": {"addr:housenumber": "39-33", "addr:street": "Bell Boulevard", "amenity": "ice_cream", "name": "Maggie Moo's"}}, {"type": "node", "id": 5155651003, "lat": 40.6519346, "lon": -73.8383967, "tags": {"addr:housenumber": "163-16", "addr:street": "Cross Bay Boulevard", "amenity": "ice_cream", "name": "Carvel"}}, {"type": "node", "id": 5182465253, "lat": 40.7666655, "lon": -73.9206293, "tags": {"addr:housenumber": "31-19", "addr:street": "30th Avenue", "amenity": "ice_cream", "name": "Fresk'o", "toilets:wheelchair": "no", "wheelchair": "yes"}}, {"type": "node", "id": 5208106822, "lat": 40.7180667, "lon": -73.9639036, "tags": {"amenity": "ice_cream", "name": "OddFellows Ice Cream Co"}}, {"type": "node", "id": 5222069433, "lat": 40.7404433, "lon": -73.9808148, "tags": {"addr:city": "New York", "addr:housenumber": "217", "addr:postcode": "10010", "addr:state": "NY", "addr:street": "East 26th Street", "amenity": "ice_cream", "delivery": "yes", "description": "liquor-infused ice cream", "min_age": "21", "name": "Tipsy Scoop Barlour", "opening_hours": "Mo-Th 12:00-22:00; Fr-Sa 12:00-24:00; Su 12:00-23:00", "outdoor_seating": "no", "phone": "+1-917-388-2862", "takeaway": "yes"}}, {"type": "node", "id": 5223969080, "lat": 40.7184007, "lon": -73.9618309, "tags": {"addr:city": "Brooklyn", "addr:country": "US", "addr:housenumber": "204", "addr:postcode": "11249", "addr:state": "NY", "addr:street": "Wythe Avenue", "amenity": "ice_cream", "branch": "Williamsburg", "diet:vegan": "yes", "drink:coffee": "yes", "drink:tea": "yes", "name": "Van Leeuwen", "opening_hours": "Tu-Sa 11:00-01:00; Su-Mo 11:00-24:00", "phone": "+1-929-337-6907", "takeaway": "yes", "website": "https://vanleeuwenicecream.com/location/williamsburg/"}}, {"type": "node", "id": 5240158818, "lat": 40.7215736, "lon": -73.9930301, "tags": {"addr:housenumber": "2", "addr:street": "Rivington Street", "amenity": "ice_cream", "name": "Morgenstern's Finest Ice Cream"}}, {"type": "node", "id": 5266906021, "lat": 40.8040727, "lon": -73.9478588, "tags": {"addr:housenumber": "184", "addr:street": "Malcolm X Boulevard", "amenity": "ice_cream", "name": "Sugar Hill Creamery", "toilets": "yes"}}, {"type": "node", "id": 5285133324, "lat": 40.8063698, "lon": -73.9875766, "tags": {"addr:city": "Edgewater", "addr:housenumber": "47", "addr:postcode": "07020", "addr:state": "NJ", "addr:street": "The Promenade", "amenity": "ice_cream", "brand": "H\u00e4agen-Dazs", "brand:wikidata": "Q1143333", "brand:wikipedia": "en:H\u00e4agen-Dazs", "name": "H\u00e4agen-Dazs", "outdoor_seating": "yes"}}, {"type": "node", "id": 5311472612, "lat": 40.6609239, "lon": -73.8406133, "tags": {"amenity": "ice_cream", "name": "Uncle Louie G"}}, {"type": "node", "id": 5360014575, "lat": 40.7495484, "lon": -74.0241019, "tags": {"amenity": "ice_cream", "name": "16 Handles"}}, {"type": "node", "id": 5383263132, "lat": 40.7589142, "lon": -74.0445251, "tags": {"addr:city": "Union City", "addr:housenumber": "704", "addr:postcode": "07087", "addr:state": "NJ", "addr:street": "John F. Kennedy Boulevard", "amenity": "ice_cream", "brand": "Baskin-Robbins", "brand:wikidata": "Q584601", "brand:wikipedia": "en:Baskin-Robbins", "cuisine": "ice_cream", "delivery": "no", "diet:vegan": "no", "diet:vegetarian": "yes", "drive_through": "no", "name": "Baskin-Robbins", "opening_hours": "24/7", "outdoor_seating": "yes", "phone": "+1 (201) 866-8648", "smoking": "no", "takeaway": "yes", "wheelchair": "yes"}}, {"type": "node", "id": 5496902766, "lat": 40.713744, "lon": -73.9013843, "tags": {"addr:housenumber": "61-22", "addr:street": "Fresh Pond Road", "amenity": "ice_cream", "brand": "Baskin-Robbins", "brand:wikidata": "Q584601", "brand:wikipedia": "en:Baskin-Robbins", "cuisine": "ice_cream", "name": "Baskin-Robbins", "opening_hours": "24/7", "payment:cash": "yes", "payment:credit_cards": "yes", "payment:debit_cards": "yes", "phone": "+1-718-418-2393", "website": "https://www.baskinrobbins.com/", "wheelchair": "yes"}}, {"type": "node", "id": 5503044569, "lat": 40.708884, "lon": -73.8985748, "tags": {"addr:housenumber": "66-02", "addr:street": "Fresh Pond Road", "amenity": "ice_cream", "name": "Twist It Top It", "opening_hours": "Mo-Th, Su 11:00-23:00; Fr, Sa 11:00-12:00", "payment:cash": "yes", "payment:credit_cards": "yes", "phone": "+1-347-721-3327", "website": "http://www.twistittopit.com/", "wheelchair": "yes"}}, {"type": "node", "id": 5517079872, "lat": 40.672143, "lon": -73.977012, "tags": {"addr:housenumber": "161", "addr:postcode": "11215", "addr:street": "7th Avenue", "amenity": "ice_cream", "brand": "Pinkberry", "brand:wikidata": "Q2904053", "brand:wikipedia": "en:Pinkberry", "cuisine": "frozen_yogurt", "name": "Pinkberry", "opening_hours": "Mo-Th 12:00-21:00; Fr-Sa 12:00-22:00; Su 12:00-21:00", "phone": "+1-718-788-0615", "takeaway": "yes", "website": "https://www.pinkberry.com/stores/yogurt-brooklyn/15152"}}, {"type": "node", "id": 5525750139, "lat": 40.6896931, "lon": -74.0464627}, {"type": "node", "id": 5525750140, "lat": 40.6896621, "lon": -74.0464368}, {"type": "node", "id": 5525750141, "lat": 40.6896892, "lon": -74.0463806}, {"type": "node", "id": 5525750142, "lat": 40.6897201, "lon": -74.0464065}, {"type": "node", "id": 5557455819, "lat": 40.7003771, "lon": -73.9005349, "tags": {"addr:city": "Ridgewood", "addr:housenumber": "58-24", "addr:postcode": "11385", "addr:state": "NY", "addr:street": "Myrtle Avenue", "amenity": "ice_cream", "brand": "Carvel", "brand:wikidata": "Q5047520", "brand:wikipedia": "en:Carvel (franchise)", "cuisine": "ice_cream", "email": "Jing2912@hotmail.com", "name": "Carvel", "opening_hours": "Mo-Su 11:00-22:00", "payment:cash": "yes", "payment:credit_cards": "yes", "payment:debit_cards": "yes", "phone": "+1-718-386-2258", "takeaway": "yes", "website": "https://locations.carvel.com/ny/ridgewood/3112-ice-cream", "wheelchair": "yes"}}, {"type": "node", "id": 5559395445, "lat": 40.7005987, "lon": -73.9017398, "tags": {"addr:housenumber": "57-51", "addr:street": "Myrtle Avenue", "amenity": "ice_cream", "name": "Fruitti Yummi", "opening_hours": "Mo-Th, Su 11:00-23:00; Fr, Sa 11:00-23:30", "payment:cash": "yes", "payment:credit_cards": "yes", "phone": "+1-347-799-1344", "website": "http://fruittiyummi.com/", "wheelchair": "yes"}}, {"type": "node", "id": 5600175898, "lat": 40.7276897, "lon": -73.8953304, "tags": {"addr:housenumber": "55-01", "addr:street": "69th Street", "amenity": "ice_cream", "name": "Isabella's Italian Ice & Ice Cream"}}, {"type": "node", "id": 5601095909, "lat": 40.7601806, "lon": -73.8918344, "tags": {"addr:city": "East Elmhurst", "addr:housenumber": "75-65", "addr:postcode": "11370", "addr:state": "NY", "addr:street": "31st Avenue", "amenity": "ice_cream", "brand": "Carvel", "brand:wikidata": "Q5047520", "brand:wikipedia": "en:Carvel (franchise)", "cuisine": "ice_cream", "delivery": "yes", "name": "Carvel", "opening_hours": "Mo-Su 11:00-22:00", "takeaway": "yes"}}, {"type": "node", "id": 5620014244, "lat": 40.7004965, "lon": -73.8966542, "tags": {"addr:housenumber": "60-40", "addr:street": "Myrtle Avenue", "amenity": "ice_cream", "brand": "Baskin-Robbins", "brand:wikidata": "Q584601", "brand:wikipedia": "en:Baskin-Robbins", "cuisine": "ice_cream", "name": "Baskin-Robbins", "opening_hours": "Mo-Su 06:00-23:00", "payment:cash": "yes", "payment:credit_cards": "yes", "payment:debit_cards": "yes", "phone": "+1-718-386-4633", "website": "https://www.baskinrobbins.com/", "wheelchair": "yes"}}, {"type": "node", "id": 5621023479, "lat": 40.6411581, "lon": -73.9829391, "tags": {"addr:city": "Brooklyn", "addr:housenumber": "2", "addr:postcode": "11218", "addr:state": "NY", "addr:street": "Church Avenue", "amenity": "ice_cream", "name": "Ice Cream House", "opening_hours": "Mo-Su 08:00-24:00, Fr 08:00-14:00", "phone": "+1-718-972-0222", "website": "https://theicecreamhouse.com/"}}, {"type": "node", "id": 5633395355, "lat": 40.6735505, "lon": -73.982844, "tags": {"addr:city": "Brooklyn", "addr:housenumber": "304", "addr:postcode": "11215", "addr:state": "NY", "addr:street": "5th Avenue", "amenity": "ice_cream", "diet:vegan": "yes", "name": "Van Leeuwen", "opening_hours": "Su-Th 11:00-24:00; Fr-Sa 11:00-01:00"}}, {"type": "node", "id": 5642329785, "lat": 40.7213081, "lon": -73.9039784, "tags": {"addr:housenumber": "61-03", "addr:street": "Flushing Avenue", "amenity": "ice_cream", "brand": "Baskin-Robbins", "brand:wikidata": "Q584601", "brand:wikipedia": "en:Baskin-Robbins", "cuisine": "ice_cream", "drive_through": "yes", "name": "Baskin-Robbins", "opening_hours": "24/7", "payment:cash": "yes", "payment:debit_cards": "yes", "phone": "+1-718-417-0918", "website": "https://baskinrobbins.com/", "wheelchair": "yes"}}, {"type": "node", "id": 5678446334, "lat": 40.744819, "lon": -74.050033, "tags": {"amenity": "ice_cream", "delivery": "no", "name": "Dahlia's Ice Cream Spot", "opening_hours": "Mo-Fr 12:00-21:00; Sa-Su 11:00-21:00", "outdoor_seating": "no", "takeaway": "no"}}, {"type": "node", "id": 5691689932, "lat": 40.6150709, "lon": -73.9939191, "tags": {"addr:housenumber": "7121", "addr:postcode": "11204", "addr:street": "18th Avenue", "amenity": "ice_cream", "brand": "Baskin-Robbins", "brand:wikidata": "Q584601", "brand:wikipedia": "en:Baskin-Robbins", "cuisine": "ice_cream", "name": "Baskin-Robbins", "opening_hours": "Mo-Su 05:00-22:00"}}, {"type": "node", "id": 5691689935, "lat": 40.6153562, "lon": -73.9937969, "tags": {"addr:city": "Brooklyn", "addr:housenumber": "7111", "addr:postcode": "11204", "addr:state": "NY", "addr:street": "18th Avenue", "amenity": "ice_cream", "brand": "Carvel", "brand:wikidata": "Q5047520", "brand:wikipedia": "en:Carvel (franchise)", "cuisine": "ice_cream", "delivery": "no", "name": "Carvel", "opening_hours": "Mo-Su 11:00-23:00", "outdoor_seating": "no", "phone": "+1-347-312-4690", "takeaway": "yes", "website": "https://www.carvel.com/"}}, {"type": "node", "id": 5700091018, "lat": 40.7634927, "lon": -74.0352903, "tags": {"amenity": "ice_cream", "delivery": "no", "name": "Luis", "outdoor_seating": "no", "takeaway": "only"}}, {"type": "node", "id": 5759240381, "lat": 40.7304669, "lon": -74.0024371, "tags": {"addr:housenumber": "233", "addr:postcode": "10014", "addr:street": "Bleecker Street", "amenity": "ice_cream", "branch": "Bleecker", "brand": "Grom", "cuisine": "italian", "dish": "gelato", "name": "Grom", "opening_hours": "Mo-Sa 10:00-21:00; Su 11:00-19:00", "phone": "+1 212-206-1738", "website": "http://www.grom.it/en/gelateria-newyork.html"}}, {"type": "node", "id": 5759370692, "lat": 40.7128063, "lon": -73.9064805, "tags": {"addr:housenumber": "56-12", "addr:street": "Metropolitan Avenue", "amenity": "ice_cream", "brand": "Carvel", "brand:wikidata": "Q5047520", "brand:wikipedia": "en:Carvel (franchise)", "cuisine": "ice_cream", "name": "Carvel", "takeaway": "yes"}}, {"type": "node", "id": 5771336670, "lat": 40.6705715, "lon": -73.9853407, "tags": {"addr:housenumber": "402", "addr:postcode": "11215", "addr:street": "5th Avenue", "amenity": "ice_cream", "name": "Uncle Louie G", "takeaway": "only"}}, {"type": "node", "id": 5802772468, "lat": 40.7605749, "lon": -73.8298258, "tags": {"addr:city": "Flushing", "addr:housenumber": "136-17", "addr:postcode": "11354", "addr:state": "NY", "addr:street": "39th Avenue", "amenity": "ice_cream", "description": "Snug, sleek parlor for Thai-style ice cream rolls mixed with flavors & toppings while you watch.", "name": "10Below Ice Cream", "opening_hours": "Mo-Su 13:00-22:00", "phone": "(646) 861-2040"}}, {"type": "node", "id": 5891689519, "lat": 40.7749031, "lon": -73.9138699, "tags": {"addr:housenumber": "29-02", "addr:street": "23rd Avenue", "amenity": "ice_cream", "name": "Gelato & Co"}}, {"type": "node", "id": 5908861469, "lat": 40.6634948, "lon": -73.9846239, "tags": {"amenity": "ice_cream", "description": "candy, snacks, ice cream", "name": "Fferins of Brooklyn", "opening_hours": "Tu 14:00-20:00; We-Su 12:00-20:00", "phone": "+1-718-788-5788", "shop": "confectionery"}}, {"type": "node", "id": 5925288473, "lat": 40.7414771, "lon": -74.029477, "tags": {"amenity": "ice_cream", "brand": "Ben & Jerry's", "brand:wikidata": "Q816412", "brand:wikipedia": "en:Ben & Jerry's", "cuisine": "ice_cream", "name": "Ben & Jerry's"}}, {"type": "node", "id": 6031841422, "lat": 40.7385883, "lon": -73.7032073}, {"type": "node", "id": 6070627385, "lat": 40.7652186, "lon": -73.9879189, "tags": {"addr:city": "New York", "addr:housenumber": "791", "addr:postcode": "10019", "addr:state": "NY", "addr:street": "9th Avenue", "amenity": "ice_cream", "name": "Holey Cream", "opening_hours": "Su-Th 12:00-00:30; Fr-Sa 12:00-01:30", "phone": "+1-212-247-8400", "website": "https://holeycreamnewyorkny.com/"}}, {"type": "node", "id": 6110907588, "lat": 40.729128, "lon": -73.9885719, "tags": {"addr:housenumber": "23", "addr:street": "Saint Mark's Place", "amenity": "ice_cream", "name": "Mango Mango", "name:en": "Mango Mango Dessert", "opening_hours": "Su-We 11:30-20:30; Th-Sa 11:30-22:00", "phone": "9172615353", "website": "http://mangomangosessert.com"}}, {"type": "node", "id": 6140954574, "lat": 40.7381269, "lon": -74.0308877, "tags": {"amenity": "ice_cream", "brand": "Cold Stone Creamery", "brand:wikidata": "Q1094923", "brand:wikipedia": "en:Cold Stone Creamery", "cuisine": "ice_cream", "name": "Cold Stone Creamery", "opening_hours": "Mo-Su 11:00-01:00"}}, {"type": "node", "id": 6140954575, "lat": 40.7381113, "lon": -74.0304991, "tags": {"amenity": "ice_cream", "brand": "Rita's Italian Ice", "brand:wikidata": "Q7336456", "brand:wikipedia": "en:Rita's Italian Ice", "cuisine": "ice_cream", "name": "Rita's Italian Ice"}}, {"type": "node", "id": 6166731986, "lat": 40.7179367, "lon": -73.9989552, "tags": {"addr:housenumber": "119", "addr:street": "Baxter Street", "amenity": "ice_cream", "name": "Taiyaki NYC", "opening_hours": "Mo-Su 12:00-22:00", "website": "https://taiyakinyc.com/"}}, {"type": "node", "id": 6260877965, "lat": 40.7136358, "lon": -73.9935335, "tags": {"addr:city": "New York", "addr:housenumber": "95", "addr:postcode": "10002", "addr:state": "NY", "addr:street": "East Broadway", "amenity": "ice_cream", "name": "Let's Go Thai Ice Cream", "opening_hours": "Mo-Su 11:00-23:00"}}, {"type": "node", "id": 6281547422, "lat": 40.7795539, "lon": -73.9507514, "tags": {"addr:housenumber": "1707", "addr:street": "2nd Avenue", "amenity": "ice_cream", "cocktails": "yes", "contact:instagram": "https://www.instagram.com/theuesnyc", "delivery": "Tu-Su 15:00-21:00", "email": "enjoy@theuesnyc.com", "name": "UES", "opening_hours": "12:00-22:00", "phone": "+1 646-559-5889", "takeaway": "yes", "website": "https://www.theuesnyc.com"}}, {"type": "node", "id": 6309767512, "lat": 40.6827082, "lon": -73.9933362, "tags": {"addr:city": "Brooklyn", "addr:housenumber": "268", "addr:postcode": "11231", "addr:state": "NY", "addr:street": "Smith Street", "amenity": "ice_cream", "contact:facebook": "https://www.facebook.com/pg/malaiicecream/", "description": "Malai's ice cream draws inspiration from globally-sourced whole ingredients, underutilized spices, and unexpected twists on old classics.", "email": "info@malai.co", "name": "Malai Ice Cream", "opening_hours": "Mo-Fr 17:30-21:30; Sa-Su 12:00-22:00", "start_date": "March 2nd 2019", "website": "https://www.malai.co"}}, {"type": "node", "id": 6362867799, "lat": 40.7429032, "lon": -73.9804781, "tags": {"addr:housenumber": "416", "addr:postcode": "10016", "addr:street": "3rd Avenue", "amenity": "ice_cream", "name": "Tasti D-Lite"}}, {"type": "node", "id": 6363741211, "lat": 40.7252261, "lon": -73.8105297, "tags": {"amenity": "ice_cream", "brand": "Red Mango", "brand:wikidata": "Q7304565", "brand:wikipedia": "en:Red Mango", "name": "Red Mango"}}, {"type": "node", "id": 6371366887, "lat": 40.7028634, "lon": -73.993753, "tags": {"amenity": "ice_cream", "name": "H\u00e4agen-Dazs/Cinnabon", "opening_hours": "Mo-Fr 11:30-22:00; Sa-Su 11:30-23:00", "outdoor_seating": "yes", "shop": "pastry"}}, {"type": "node", "id": 6378519207, "lat": 40.5936626, "lon": -73.9403732, "tags": {"amenity": "ice_cream", "brand": "Baskin-Robbins", "brand:wikidata": "Q584601", "brand:wikipedia": "en:Baskin-Robbins", "cuisine": "ice_cream", "name": "Baskin-Robbins", "opening_hours": "Mo-Sa 05:00-21:00; Su 06:00-21:00"}}, {"type": "node", "id": 6379955374, "lat": 40.6501119, "lon": -73.7924691, "tags": {"amenity": "ice_cream", "brand": "Baskin-Robbins", "brand:wikidata": "Q584601", "brand:wikipedia": "en:Baskin-Robbins", "cuisine": "ice_cream", "name": "Baskin-Robbins"}}, {"type": "node", "id": 6418623097, "lat": 40.7626267, "lon": -73.9600778, "tags": {"addr:city": "New York", "addr:housenumber": "1161", "addr:postcode": "10065", "addr:state": "NY", "addr:street": "1st Avenue", "amenity": "ice_cream", "branch": "Upper East Side", "cuisine": "frozen_yogurt;ice_cream;dessert", "delivery": "yes", "name": "16 Handles", "opening_hours": "14:00-21:00", "phone": "+1 646-707-3424", "takeaway": "yes", "website": "https://locations.16handles.com/16-handles-5a62569194a9"}}, {"type": "node", "id": 6419585786, "lat": 40.7428362, "lon": -74.0067413, "tags": {"amenity": "ice_cream", "name": "L'Arte del Gelato"}}, {"type": "node", "id": 6424144998, "lat": 40.7475298, "lon": -73.9861172, "tags": {"addr:city": "New York", "addr:housenumber": "7", "addr:street": "West 32nd Street", "amenity": "ice_cream", "brand": "Pinkberry", "brand:wikidata": "Q2904053", "brand:wikipedia": "en:Pinkberry", "contact:facebook": "Pinkberry7W32ndStNewYork", "cuisine": "frozen_yogurt", "delivery": "yes", "diet:vegetarian": "yes", "level": "0", "name": "Pinkberry", "opening_hours": "Su-Th 12:00-23:00; Fr, Sa 12:00-00:00", "payment:american_express": "yes", "payment:cash": "yes", "payment:discover_card": "yes", "payment:mastercard": "yes", "payment:visa": "yes", "phone": "+1 212-695-9631", "takeaway": "yes", "toilets": "yes", "website": "https://www.pinkberry.com/stores/15005"}}, {"type": "node", "id": 6426844841, "lat": 40.6803931, "lon": -73.9681304, "tags": {"amenity": "ice_cream", "branch": "Prospect Heights", "diet:vegan": "yes", "drink:coffee": "yes", "drink:tea": "yes", "name": "Van Leeuwen", "opening_hours": "Mo-Su 11:00-24:00", "phone": "+1-347-240-7453", "website": "https://vanleeuwenicecream.com"}}, {"type": "node", "id": 6479472844, "lat": 40.7215404, "lon": -73.9874688, "tags": {"addr:city": "New York", "addr:housenumber": "172", "addr:postcode": "10002", "addr:state": "NY", "addr:street": "Ludlow Street", "amenity": "ice_cream", "contact:email": "hello@vanleeuwenicecream.com", "contact:instagram": "https://www.instagram.com/vanleeuwenicecream", "contact:phone": "+1-646-869-2746", "contact:twitter": "https://twitter.com/VLAIC", "contact:website": "https://vanleeuwenicecream.com/location/lower-east-side/", "cuisine": "pastry", "diet:vegan": "yes", "drink:coffee": "yes", "name": "Van Leeuwen Ice Cream", "opening_hours": "Mo-Su 13:00-24:00", "outdoor_seating": "yes", "payment:cash": "no", "payment:contactless": "yes", "payment:debit_cards": "yes", "payment:visa": "yes", "toilets": "no"}}, {"type": "node", "id": 6495270313, "lat": 40.7414782, "lon": -73.980987, "tags": {"addr:city": "New York", "addr:housenumber": "379", "addr:postcode": "10016", "addr:state": "NY", "addr:street": "3rd Avenue", "amenity": "ice_cream", "name": "Soft Swerve", "opening_hours": "+1-332- 900-5234"}}, {"type": "node", "id": 6592416485, "lat": 40.7031879, "lon": -73.9922568, "tags": {"addr:housenumber": "44", "addr:postcode": "11201", "addr:street": "Water Street", "amenity": "ice_cream", "drink:beer": "yes", "drink:coffee": "yes", "drink:wine": "yes", "name": "Oddfellows", "phone": "+1-718-683-5755"}}, {"type": "node", "id": 6672990200, "lat": 40.5451897, "lon": -74.1597373, "tags": {"addr:housenumber": "4332", "addr:postcode": "10312", "addr:street": "Amboy Road", "amenity": "ice_cream", "brand": "Carvel", "brand:wikidata": "Q5047520", "brand:wikipedia": "en:Carvel (franchise)", "cuisine": "ice_cream", "name": "Carvel", "takeaway": "yes"}}, {"type": "node", "id": 6680718941, "lat": 40.6749597, "lon": -74.0154554, "tags": {"addr:housenumber": "141", "addr:street": "Beard Street", "amenity": "ice_cream", "diet:kosher": "yes", "name": "Ample Hill Creamery", "opening_hours": "Tu-Th 14:00-20:00; Fr-Sa 13:00-21:00; Su 14:00-20:00"}}, {"type": "node", "id": 6691104535, "lat": 40.77171, "lon": -73.9528893, "tags": {"addr:housenumber": "1498", "addr:street": "1st Avenue", "amenity": "ice_cream", "name": "Sedutto", "opening_hours": "Mo-Su 12:00-22:30", "website": "http://kosheradvantage.com/sedutto/"}}, {"type": "node", "id": 6691766754, "lat": 40.7433741, "lon": -73.980076, "tags": {"addr:housenumber": "432", "addr:postcode": "10016", "addr:street": "3rd Avenue", "amenity": "ice_cream", "name": "Van Leeuwen", "opening_hours": "Mo-We 12:00-24:00; Th-Sa 12:00-01:00; Su 12:00-24:00", "website": "https://vanleeuwenicecream.com/location/murray-hill/"}}, {"type": "node", "id": 6703513810, "lat": 40.5325645, "lon": -74.1922624, "tags": {"amenity": "ice_cream", "brand": "Ralph's Italian Ices", "brand:wikidata": "Q62576909", "cuisine": "ice_cream", "name": "Ralph's Italian Ices", "official_name": "Ralph's Famous Italian Ices"}}, {"type": "node", "id": 6708239349, "lat": 40.5816868, "lon": -74.16661}, {"type": "node", "id": 6711404156, "lat": 40.58149, "lon": -74.1645062}, {"type": "node", "id": 6760913190, "lat": 40.7924782, "lon": -73.8073686, "tags": {"amenity": "ice_cream", "brand": "Baskin-Robbins", "brand:wikidata": "Q584601", "brand:wikipedia": "en:Baskin-Robbins", "cuisine": "ice_cream", "name": "Baskin-Robbins"}}, {"type": "node", "id": 6775260765, "lat": 40.5595826, "lon": -74.1641869, "tags": {"addr:city": "Staten Island", "addr:housenumber": "682", "addr:postcode": "10308", "addr:state": "NY", "addr:street": "Arthur Kill Road", "amenity": "ice_cream", "name": "Yogurt City", "outdoor_seating": "no"}}, {"type": "node", "id": 6775487640, "lat": 40.5595818, "lon": -74.1692895, "tags": {"amenity": "ice_cream", "brand": "Ralph's Italian Ices", "brand:wikidata": "Q62576909", "cuisine": "ice_cream", "name": "Ralph's Italian Ices", "official_name": "Ralph's Famous Italian Ices", "outdoor_seating": "no"}}, {"type": "node", "id": 6778205754, "lat": 40.7417635, "lon": -74.0297834, "tags": {"amenity": "ice_cream", "name": "Jun's Macaron & Gelato", "outdoor_seating": "yes"}}, {"type": "node", "id": 6789145076, "lat": 40.7375665, "lon": -74.0319978, "tags": {"amenity": "ice_cream", "name": "Bucket & Bay Craft Gelato Co", "outdoor_seating": "no"}}, {"type": "node", "id": 6848831283, "lat": 40.6866432, "lon": -73.9749044, "tags": {"amenity": "ice_cream", "name": "Emack Bolio's Ice Cream", "opening_hours": "Mo-Th 12:00-22:00; Fr-Sa 12:00-23:00; Su 12:00-22:00", "website": "https://emackandbolios.com"}}, {"type": "node", "id": 6916295670, "lat": 40.7257038, "lon": -73.7913428, "tags": {"amenity": "ice_cream", "brand": "Cold Stone Creamery", "brand:wikidata": "Q1094923", "brand:wikipedia": "en:Cold Stone Creamery", "cuisine": "ice_cream", "name": "Cold Stone Creamery"}}, {"type": "node", "id": 6935867763, "lat": 40.7235816, "lon": -73.9505407, "tags": {"addr:housenumber": "620", "addr:street": "Manhattan Avenue", "amenity": "ice_cream", "name": "Van Leeuwen"}}, {"type": "node", "id": 6950122979, "lat": 40.6136867, "lon": -73.9818612, "tags": {"addr:city": "Brooklyn", "addr:postcode": "11204", "addr:state": "NY", "addr:street": "Bay Parkway", "amenity": "ice_cream", "brand": "Carvel", "brand:wikidata": "Q5047520", "brand:wikipedia": "en:Carvel (franchise)", "cuisine": "ice_cream", "name": "Carvel", "phone": "+1-718-331-9383", "takeaway": "yes"}}, {"type": "node", "id": 6955273589, "lat": 40.7076286, "lon": -74.0022405, "tags": {"addr:city": "New York", "addr:housenumber": "224", "addr:postcode": "10038", "addr:street": "Front Street", "alt_name": "Van Leeuwen Ice Cream", "amenity": "ice_cream", "contact:instagram": "https://instagram.com/vanleeuwenicecream/", "contact:phone": "+1-917-261-6376", "contact:twitter": "https://twitter.com/VLAIC", "contact:website": "https://vanleeuwenicecream.com/location/seaport/", "name": "Van Leeuwen Ice Cream", "opening_hours": "Mo-Su 13:00-23:00"}}, {"type": "node", "id": 6955273592, "lat": 40.7235714, "lon": -73.9505511, "tags": {"addr:city": "Brooklyn", "addr:housenumber": "620", "addr:postcode": "11222", "addr:street": "Manhattan Avenue", "alt_name": "Van Leeuwen Ice Cream", "amenity": "ice_cream", "contact:instagram": "https://instagram.com/vanleeuwenicecream/", "contact:phone": "+1-347-987-4774", "contact:twitter": "https://twitter.com/VLAIC", "contact:website": "https://vanleeuwenicecream.com/location/greenpoint/", "name": "Van Leeuwen Ice Cream", "opening_hours": "Mo-Th 09:00-23:00; Fr-Sa 09:00-24:00; Su 09:00-23:00"}}, {"type": "node", "id": 6955273885, "lat": 40.7183816, "lon": -73.9618451, "tags": {"addr:city": "Brooklyn", "addr:housenumber": "204", "addr:postcode": "11249", "addr:street": "Wythe Avenue", "alt_name": "Van Leeuwen Ice Cream", "amenity": "ice_cream", "contact:instagram": "https://instagram.com/vanleeuwenicecream/", "contact:phone": "+1-929-337-6907", "contact:twitter": "https://twitter.com/VLAIC", "contact:website": "https://vanleeuwenicecream.com/location/williamsburg/", "name": "Van Leeuwen Ice Cream", "opening_hours": "Mo-Su 12:00-24:00"}}, {"type": "node", "id": 6955273889, "lat": 40.7298338, "lon": -74.0004187, "tags": {"addr:city": "New York", "addr:housenumber": "120", "addr:postcode": "10012", "addr:street": "MacDougal Street", "alt_name": "Van Leeuwen Ice Cream", "amenity": "ice_cream", "contact:instagram": "https://instagram.com/vanleeuwenicecream/", "contact:phone": "+1-917-675-6580", "contact:twitter": "https://twitter.com/VLAIC", "contact:website": "https://vanleeuwenicecream.com/location/greenwich-village/", "name": "Van Leeuwen Ice Cream", "opening_hours": "Mo-Su 14:00-00:00"}}, {"type": "node", "id": 6980049842, "lat": 40.7586778, "lon": -73.8309508, "tags": {"addr:city": "Flushing", "addr:housenumber": "135-15", "addr:state": "NY", "addr:street": "40th Road", "amenity": "ice_cream", "name": "Flushing Ice Cream Factory"}}, {"type": "node", "id": 7004443655, "lat": 40.8064129, "lon": -73.9653914, "tags": {"addr:city": "New York", "addr:housenumber": "2905", "addr:postcode": "10025", "addr:state": "NY", "addr:street": "Broadway", "amenity": "ice_cream", "brand": "H\u00e4agen-Dazs", "brand:wikidata": "Q1143333", "brand:wikipedia": "en:H\u00e4agen-Dazs", "name": "H\u00e4agen-Dazs", "opening_hours": "Mo-Su 11:00-23:00", "outdoor_seating": "no"}}, {"type": "node", "id": 7126531923, "lat": 40.6996882, "lon": -73.9087354, "tags": {"addr:housenumber": "54-56", "addr:street": "Myrtle Avenue", "amenity": "ice_cream", "name": "Yo Fresh", "opening_hours": "Mo-Su 11:00-22:30", "payment:contactless": "yes", "phone": "+1-877-580-1040", "website": "http://yofreshny.com/", "wheelchair": "yes"}}, {"type": "node", "id": 7194157441, "lat": 40.5825832, "lon": -73.8366719, "tags": {"amenity": "ice_cream", "brand": "Baskin-Robbins", "brand:wikidata": "Q584601", "brand:wikipedia": "en:Baskin-Robbins", "cuisine": "ice_cream", "name": "Baskin-Robbins"}}, {"type": "node", "id": 7238100090, "lat": 40.7105993, "lon": -74.0088168, "tags": {"addr:city": "New York", "addr:housenumber": "200", "addr:postcode": "10038", "addr:state": "NY", "addr:street": "Broadway", "amenity": "ice_cream", "brand": "H\u00e4agen-Dazs", "brand:wikidata": "Q1143333", "brand:wikipedia": "en:H\u00e4agen-Dazs", "name": "H\u00e4agen-Dazs", "opening_hours": "Mo-Fr 09:00-20:00; Sa-Su 10:00-20:00", "outdoor_seating": "no"}}, {"type": "node", "id": 7242540532, "lat": 40.7371248, "lon": -73.7099646, "tags": {"addr:housenumber": "258-01", "addr:street": "Hillside Avenue", "amenity": "ice_cream", "name": "Kwality Ice Cream"}}, {"type": "node", "id": 7261678976, "lat": 40.6091499, "lon": -74.0060849, "tags": {"amenity": "ice_cream", "brand": "Carvel", "brand:wikidata": "Q5047520", "brand:wikipedia": "en:Carvel (franchise)", "cuisine": "ice_cream", "name": "Carvel", "takeaway": "yes", "wheelchair": "yes"}}, {"type": "node", "id": 7293695454, "lat": 40.737445, "lon": -74.0372182, "tags": {"amenity": "ice_cream", "name": "NK Frozen Yogurt Cafe"}}, {"type": "node", "id": 7367435627, "lat": 40.7372064, "lon": -73.9971718, "tags": {"amenity": "ice_cream", "brand": "Pinkberry", "brand:wikidata": "Q2904053", "brand:wikipedia": "en:Pinkberry", "cuisine": "frozen_yogurt", "name": "Pinkberry", "opening_hours:signed": "no", "takeaway": "yes"}}, {"type": "node", "id": 7418093311, "lat": 40.7848847, "lon": -73.9773035, "tags": {"addr:city": "New York", "addr:housenumber": "448", "addr:postcode": "10024", "addr:state": "NY", "addr:street": "Amsterdam Avenue", "amenity": "ice_cream", "diet:regular": "yes", "diet:vegan": "yes", "name": "Van Leeuwen Ice Cream", "opening_hours": "Su-Th 11:00-00:00; Fr-Sa 11:00-01:00", "phone": "+1 646-952-0311", "website": "https://vanleeuwenicecream.com/location/upper-west-side/"}}, {"type": "node", "id": 7613283053, "lat": 40.7728688, "lon": -73.8718053, "tags": {"amenity": "ice_cream", "name": "The Scoop"}}, {"type": "node", "id": 7692711166, "lat": 40.7643588, "lon": -73.9329806, "tags": {"amenity": "ice_cream", "brand": "Baskin-Robbins", "brand:wikidata": "Q584601", "brand:wikipedia": "en:Baskin-Robbins", "cuisine": "ice_cream", "name": "Baskin-Robbins"}}, {"type": "node", "id": 7777154693, "lat": 40.516773, "lon": -74.2331223, "tags": {"amenity": "ice_cream", "name": "Uncle Louie G's"}}, {"type": "node", "id": 7779637977, "lat": 40.5177411, "lon": -74.2360213, "tags": {"amenity": "ice_cream", "brand": "Carvel", "brand:wikidata": "Q5047520", "brand:wikipedia": "en:Carvel (franchise)", "cuisine": "ice_cream", "name": "Carvel", "takeaway": "yes"}}, {"type": "node", "id": 7799768762, "lat": 40.5239143, "lon": -74.2149816, "tags": {"amenity": "ice_cream", "brand": "Ralph's Italian Ices", "brand:wikidata": "Q62576909", "cuisine": "ice_cream", "name": "Ralph's Italian Ices", "official_name": "Ralph's Famous Italian Ices"}}, {"type": "node", "id": 8262422500, "lat": 40.5908446, "lon": -74.1646201, "tags": {"amenity": "ice_cream", "brand": "Cold Stone Creamery", "brand:wikidata": "Q1094923", "brand:wikipedia": "en:Cold Stone Creamery", "cuisine": "ice_cream", "name": "Cold Stone Creamery"}}, {"type": "node", "id": 8265230598, "lat": 40.587986, "lon": -74.1653282, "tags": {"amenity": "ice_cream", "brand": "Baskin-Robbins", "brand:wikidata": "Q584601", "brand:wikipedia": "en:Baskin-Robbins", "cuisine": "ice_cream", "name": "Baskin-Robbins"}}, {"type": "node", "id": 8265230611, "lat": 40.5886598, "lon": -74.1666942, "tags": {"amenity": "ice_cream", "name": "Uncle Louie G"}}, {"type": "node", "id": 8333736476, "lat": 40.7155654, "lon": -73.9993712, "tags": {"amenity": "ice_cream", "name": "Eggloo"}}, {"type": "node", "id": 8333740836, "lat": 40.7168005, "lon": -73.99823, "tags": {"amenity": "ice_cream", "name": "Penguin Ice Cream"}}, {"type": "node", "id": 8333740851, "lat": 40.7098174, "lon": -74.0067165, "tags": {"addr:city": "New York", "addr:postcode": "10038", "addr:state": "NY", "addr:street": "Fulton Street", "amenity": "ice_cream", "brand": "Red Mango", "brand:wikidata": "Q7304565", "name": "Red Mango"}}, {"type": "node", "id": 8333828572, "lat": 40.8283269, "lon": -73.9485866, "tags": {"amenity": "ice_cream", "brand": "Baskin-Robbins", "brand:wikidata": "Q584601", "brand:wikipedia": "en:Baskin-Robbins", "cuisine": "ice_cream", "name": "Baskin-Robbins"}}, {"type": "node", "id": 8397254367, "lat": 40.5814927, "lon": -74.1645704}, {"type": "node", "id": 8397254368, "lat": 40.5814823, "lon": -74.164523}, {"type": "node", "id": 8397254370, "lat": 40.5815795, "lon": -74.1644727}, {"type": "node", "id": 8397254371, "lat": 40.5815912, "lon": -74.1645327}, {"type": "node", "id": 8397614602, "lat": 40.5814973, "lon": -74.166679}, {"type": "node", "id": 8397614603, "lat": 40.581463, "lon": -74.1667188}, {"type": "node", "id": 8397614604, "lat": 40.581457, "lon": -74.1666937}, {"type": "node", "id": 8397614606, "lat": 40.5814401, "lon": -74.1667903}, {"type": "node", "id": 8397614607, "lat": 40.5817057, "lon": -74.1666947}, {"type": "node", "id": 8397614614, "lat": 40.5814275, "lon": -74.1667318}, {"type": "node", "id": 8397632500, "lat": 40.5776058, "lon": -74.1650664}, {"type": "node", "id": 8397632501, "lat": 40.5774993, "lon": -74.1651739}, {"type": "node", "id": 8530362498, "lat": 40.8162088, "lon": -73.9797447, "tags": {"amenity": "ice_cream", "name": "Matcha Love"}}, {"type": "node", "id": 8533468085, "lat": 40.7854932, "lon": -74.0457691, "tags": {"amenity": "ice_cream", "name": "Cups Frozen Yogurt", "opening_hours": "Mo-Th 13:00-21:00; Fr,Sa 12:00-21:30; Su 12:00-21:00"}}, {"type": "node", "id": 8548766064, "lat": 40.7671812, "lon": -73.9224364, "tags": {"addr:housenumber": "30-02", "addr:street": "30th Street", "amenity": "ice_cream", "brand": "Ralph's Italian Ices", "brand:wikidata": "Q62576909", "cuisine": "ice_cream", "name": "Ralph's Italian Ices", "official_name": "Ralph's Famous Italian Ices", "payment:american_express": "yes", "payment:cash": "no", "payment:coins": "no", "payment:credit_cards": "yes", "payment:debit_cards": "yes", "payment:maestro": "yes", "payment:mastercard": "yes", "payment:notes": "no", "payment:visa": "yes"}}, {"type": "node", "id": 8614943064, "lat": 40.7461914, "lon": -73.9938632, "tags": {"amenity": "ice_cream", "brand": "Baskin-Robbins", "brand:wikidata": "Q584601", "brand:wikipedia": "en:Baskin-Robbins", "cuisine": "ice_cream", "name": "Baskin-Robbins"}}, {"type": "node", "id": 8739643843, "lat": 40.7214776, "lon": -73.8450805, "tags": {"addr:street": "Queens Boulevard", "amenity": "ice_cream", "brand": "Red Mango", "brand:wikidata": "Q7304565", "name": "Red Mango", "outdoor_seating": "yes"}}, {"type": "node", "id": 8878711809, "lat": 40.6815775, "lon": -73.9200935, "tags": {"addr:housenumber": "365", "addr:postcode": "11233", "addr:street": "Chauncey Street", "amenity": "ice_cream", "name": "Lady Moo Moo Ice Cream"}}, {"type": "node", "id": 8958124459, "lat": 40.7420355, "lon": -73.9776382, "tags": {"amenity": "ice_cream", "name": "Surreal Creamery", "opening_hours": "Mo-Th 12:00-23:00; Fr-Su 12:00-24:00", "phone": "+1-646-590-3575", "website": "https://www.surrealcreamery.com"}}, {"type": "node", "id": 9005846416, "lat": 40.6246976, "lon": -74.1482442, "tags": {"addr:city": "Staten Island", "addr:housenumber": "1780", "addr:postcode": "10303", "addr:state": "NJ", "addr:street": "Forest Avenue", "amenity": "ice_cream", "brand": "Carvel", "brand:wikidata": "Q5047520", "brand:wikipedia": "en:Carvel (franchise)", "cuisine": "ice_cream", "name": "Carvel", "takeaway": "yes"}}, {"type": "node", "id": 9015093118, "lat": 40.7023823, "lon": -73.813577, "tags": {"addr:housenumber": "138-50", "addr:street": "Jamaica Avenue", "amenity": "ice_cream", "brand": "Baskin-Robbins", "brand:wikidata": "Q584601", "brand:wikipedia": "en:Baskin-Robbins", "check_date": "2023-01-30", "cuisine": "ice_cream", "name": "Baskin-Robbins", "wheelchair": "yes"}}, {"type": "node", "id": 9039944447, "lat": 40.6046979, "lon": -73.9987552, "tags": {"addr:city": "Brooklyn", "addr:housenumber": "1976", "addr:postcode": "11214", "addr:state": "NY", "addr:street": "86th Street", "amenity": "ice_cream", "description": "Ice cream, bubble tea, macaroon shop", "name": "Something Sweet", "opening_hours": "Mo-Su 11:30-22:30", "opening_hours:covid19": "Mo-Su 12:00-21:00", "phone": "+1-347-566-3151", "website": "https://somethingsweethomemade.com/"}}, {"type": "node", "id": 9064712517, "lat": 40.7370027, "lon": -73.9867505, "tags": {"amenity": "ice_cream", "cafe": "yes", "drink:beer": "yes", "drink:espresso": "yes", "drink:liquor": "yes", "drink:wine": "yes", "indoor_seating": "no", "name": "Caff\u00e8 Panna", "opening_hours": "We-Su 13:30-21:30", "outdoor_seating": "sidewalk", "phone": "+1-917-475-1162", "website": "https://www.caffepanna.com"}}, {"type": "node", "id": 9082940589, "lat": 40.7087066, "lon": -73.8682883, "tags": {"amenity": "ice_cream"}}, {"type": "node", "id": 9133494538, "lat": 40.6734378, "lon": -73.9631091, "tags": {"amenity": "ice_cream", "drink:coffee": "yes", "drink:espresso": "yes", "name": "The Social", "opening_hours": "Mo-Th 11:00-22:00; Fr-Sa 11:00-23:00; Su 11:00-22:00", "outdoor_seating": "sidewalk"}}, {"type": "node", "id": 9146399218, "lat": 40.5755479, "lon": -73.9770848, "tags": {"addr:city": "Brooklyn", "addr:housenumber": "825", "addr:postcode": "11224", "addr:state": "NY", "addr:street": "Surf Avenue", "amenity": "ice_cream", "check_date": "2022-12-12", "diet:kosher": "yes", "diet:vegan": "yes", "drive_through": "no", "name": "Coney Waffle", "opening_hours": "Mo-We off; Th-Fr 13:30-20:30; Sa-Su 13:00-21:00", "outdoor_seating": "yes", "payment:cash": "yes", "payment:contactless": "yes", "payment:credit_cards": "yes", "payment:debit_cards": "yes", "source": "survey;local knowledge", "takeaway": "yes", "wheelchair": "yes"}}, {"type": "node", "id": 9173311253, "lat": 40.7769348, "lon": -73.9526531, "tags": {"addr:housenumber": "1625", "addr:postcode": "10028", "addr:street": "2nd Avenue", "amenity": "ice_cream", "branch": "Upper East Side", "brand": "Van Leeuwen", "delivery": "yes", "diet:vegan": "yes", "name": "Van Leeuwen", "opening_hours": "Mo-Th, Su 11:00-24:00; Fr-Su 11:00-01:00", "phone": "+1 917-472-7531", "takeaway": "yes", "website": "https://vanleeuwenicecream.com/scoop-shops/#newyork"}}, {"type": "node", "id": 9251450871, "lat": 40.7050005, "lon": -73.9060803, "tags": {"addr:city": "Ridgewood", "addr:housenumber": "682", "addr:postcode": "11385", "addr:state": "NY", "addr:street": "Woodward Avenue", "amenity": "ice_cream", "delivery": "no", "diet:lactose_free": "limited", "name": "Ice Cream Window", "opening_hours": "Sa-Su 12:00-20:00", "outdoor_seating": "no", "payment:card": "yes", "website": "http://icecreamwindow.com/"}}, {"type": "node", "id": 9287045386, "lat": 40.8904167, "lon": -73.8485698, "tags": {"addr:city": "Bronx", "addr:housenumber": "1006", "addr:postcode": "10466", "addr:state": "NY", "addr:street": "East 233rd Street", "amenity": "ice_cream", "brand": "Carvel", "brand:wikidata": "Q5047520", "brand:wikipedia": "en:Carvel (franchise)", "cuisine": "ice_cream", "name": "Carvel", "takeaway": "yes"}}, {"type": "node", "id": 9316747165, "lat": 40.5839637, "lon": -73.9465668, "tags": {"addr:city": "Brooklyn", "addr:housenumber": "2027", "addr:postcode": "11235", "addr:state": "NY", "addr:street": "Emmons Avenue", "amenity": "ice_cream", "level": "-1", "name": "Yogurt City", "opening_hours": "13:00-01:00", "outdoor_seating": "no", "phone": "+1-347-922-7656"}}, {"type": "node", "id": 9330613467, "lat": 40.6947524, "lon": -73.9946547, "tags": {"addr:city": "Brooklyn", "addr:postcode": "11201", "addr:state": "NY", "addr:street": "Montague Street", "amenity": "ice_cream", "brand": "H\u00e4agen-Dazs", "brand:wikidata": "Q1143333", "brand:wikipedia": "en:H\u00e4agen-Dazs", "name": "H\u00e4agen-Dazs", "outdoor_seating": "sidewalk"}}, {"type": "node", "id": 9344811869, "lat": 40.7128375, "lon": -73.8791884, "tags": {"amenity": "ice_cream", "brand": "Ralph's Italian Ices", "brand:wikidata": "Q62576909", "cuisine": "ice_cream", "name": "Ralph's Italian Ices", "official_name": "Ralph's Famous Italian Ices"}}, {"type": "node", "id": 9354070919, "lat": 40.7264, "lon": -73.89479, "tags": {"amenity": "ice_cream", "brand": "Carvel", "brand:wikidata": "Q5047520", "brand:wikipedia": "en:Carvel (franchise)", "cuisine": "ice_cream", "name": "Carvel", "takeaway": "yes"}}, {"type": "node", "id": 9374707283, "lat": 40.7178493, "lon": -73.9883422, "tags": {"amenity": "ice_cream", "name": "Lower East Side Ice Cream Factory"}}, {"type": "node", "id": 9393413599, "lat": 40.5753577, "lon": -73.9803598, "tags": {"advertising": "billboard", "support": "wall_mounted"}}, {"type": "node", "id": 9431923790, "lat": 40.64269, "lon": -74.0161907, "tags": {"amenity": "ice_cream", "drink:coffee": "yes", "drink:espresso": "yes", "name": "Breeze Cafe Helados Tropicales"}}, {"type": "node", "id": 9526028885, "lat": 40.6082008, "lon": -74.1628586, "tags": {"amenity": "ice_cream", "brand": "Baskin-Robbins", "brand:wikidata": "Q584601", "brand:wikipedia": "en:Baskin-Robbins", "cuisine": "ice_cream", "name": "Baskin-Robbins"}}, {"type": "node", "id": 9641923314, "lat": 40.7997721, "lon": -73.9678804, "tags": {"addr:city": "New York", "addr:housenumber": "2722", "addr:postcode": "10025", "addr:state": "NY", "addr:street": "Broadway", "amenity": "ice_cream", "brand": "Ben & Jerry's", "brand:wikidata": "Q816412", "brand:wikipedia": "en:Ben & Jerry's", "cuisine": "ice_cream", "diet:dairy_free": "yes", "diet:lactose_free": "yes", "diet:vegan": "yes", "diet:vegetarian": "yes", "drive_through": "no", "name": "Ben & Jerry's", "opening_hours": "Mo-Su 11:00-23:20", "outdoor_seating": "no", "phone": "+1-212-866-6237", "website": "https://www.benjerry.com/104th-broadway"}}, {"type": "node", "id": 9690326825, "lat": 40.7748384, "lon": -73.9542112, "tags": {"addr:housenumber": "1561", "addr:postcode": "10028", "addr:street": "2nd Avenue", "amenity": "ice_cream", "contact:instagram": "anita_gelato_usa", "delivery": "yes", "level": "0", "name": "Anita La Mamma del Gelato", "opening_hours": "08:00-23:00", "phone": "+1 646-861-1957", "short_name": "Anita Gelato", "takeaway": "yes", "website": "https://www.anita-gelato.com"}}, {"type": "node", "id": 9690356178, "lat": 40.7750254, "lon": -73.9540388, "tags": {"addr:housenumber": "1569", "addr:postcode": "10028", "addr:street": "2nd Avenue", "amenity": "ice_cream", "branch": "Upper East Side 2nd Avenue", "brand": "16 Handles", "delivery": "yes", "level": "0", "name": "16 Handles", "opening_hours": "Su-Th 12:00-23:00; Fr, Sa 12:00-24:00", "phone": "+1 646-863-2522", "takeaway": "yes", "website": "https://locations.16handles.com/16-handles-60232c8dd24c"}}, {"type": "node", "id": 9690757654, "lat": 40.7746079, "lon": -73.9507863, "tags": {"addr:housenumber": "1588", "addr:postcode": "10028", "addr:street": "1st Avenue", "amenity": "ice_cream", "brand": "Ralph's Italian Ices", "brand:wikidata": "Q62576909", "cuisine": "ice_cream", "delivery": "yes", "level": "0", "name": "Ralph's Italian Ices", "official_name": "Ralph's Famous Italian Ices", "phone": "+1 646-850-0820", "takeaway": "yes", "website": "https://www.ralphsices.com"}}, {"type": "node", "id": 9719499618, "lat": 40.7883617, "lon": -73.9486386, "tags": {"addr:housenumber": "177", "addr:street": "East 100th Street", "amenity": "ice_cream", "contact:facebook": "mojodesserts", "contact:instagram": "mojodesserts", "email": "info@mojodesserts.com", "name": "Mojo Desserts", "opening_hours": "We-Su 11:00-20:00", "payment:american_express": "yes", "payment:apple_pay": "yes", "payment:cash": "yes", "payment:diners_club": "yes", "payment:discover_card": "yes", "payment:google_pay": "yes", "payment:mastercard": "yes", "payment:paypal": "yes", "payment:venmo": "yes", "payment:visa": "yes", "phone": "+1 917-331-3278", "website": "http://www.mojodesserts.com", "wheelchair": "yes"}}, {"type": "node", "id": 9741561064, "lat": 40.7696714, "lon": -73.8342947, "tags": {"amenity": "ice_cream", "brand": "Baskin-Robbins", "brand:wikidata": "Q584601", "brand:wikipedia": "en:Baskin-Robbins", "cuisine": "ice_cream", "name": "Baskin-Robbins"}}, {"type": "node", "id": 9812156822, "lat": 40.702637, "lon": -73.9945607, "tags": {"amenity": "ice_cream", "name": "Brooklyn Ice Cream Factory", "outdoor_seating": "yes", "phone": "+1 718 522 5211", "website": "https://www.brooklynicecreamfactory.com"}}, {"type": "node", "id": 9879092109, "lat": 40.5863542, "lon": -73.8159878, "tags": {"amenity": "ice_cream"}}, {"type": "node", "id": 9898593817, "lat": 40.7768904, "lon": -73.9789465, "tags": {"addr:housenumber": "253", "addr:street": "Columbus Avenue", "amenity": "ice_cream", "name": "Van Leeuwen", "opening_hours": "Su-Th 11:00-00:00; Fr-Sa 11:00-01:00"}}, {"type": "node", "id": 9957843798, "lat": 40.7158973, "lon": -73.9914899, "tags": {"addr:housenumber": "37", "addr:postcode": "10002", "addr:street": "Orchard Street", "addr:unit": "B", "amenity": "ice_cream", "contact:facebook": "friedicecreamnyc", "contact:instagram": "samsfriedicecream", "contact:twitter": "FriedIceCreamNY", "level": "0", "name": "Sam's Fried Ice Cream", "opening_hours": "We, Th, Su 15:00-21:00; Fr, Sa 14:00-23:00", "phone": "+1 212-224-0003", "website": "https://www.samsfriedicecream.com"}}, {"type": "node", "id": 9982070139, "lat": 40.6927733, "lon": -73.9368495, "tags": {"amenity": "ice_cream", "name": "Rolling Cream", "opening_hours": "We-Sa 14:00-22:30; Su 14:00-21:00"}}, {"type": "node", "id": 10029896987, "lat": 40.7421635, "lon": -73.8540574, "tags": {"amenity": "ice_cream", "brand": "Baskin-Robbins", "brand:wikidata": "Q584601", "cuisine": "ice_cream", "name": "Baskin-Robbins"}}, {"type": "node", "id": 10062565750, "lat": 40.5641337, "lon": -74.1330297, "tags": {"amenity": "ice_cream", "brand": "Carvel", "brand:wikidata": "Q5047520", "cuisine": "ice_cream", "name": "Carvel", "takeaway": "yes"}}, {"type": "node", "id": 10067923417, "lat": 40.7207273, "lon": -73.9966344, "tags": {"amenity": "ice_cream", "contact:facebook": "Figo-Il-Gelato-Italiano-101918989115408", "contact:instagram": "figoilgelato", "name": "Figo", "website": "https://figoilgelato.com/"}}, {"type": "node", "id": 10083217917, "lat": 40.7217566, "lon": -73.9971291, "tags": {"amenity": "ice_cream", "contact:instagram": "bambinabluegelato", "name": "Bambina Blue Gelato", "opening_hours": "Su-Tu 10:00-22:00; We-Th 10:00-23:00; Fr-Sa 10:00-00:00", "website": "https://bambinablue.com/"}}, {"type": "node", "id": 10089662136, "lat": 40.8593387, "lon": -73.8984069, "tags": {"amenity": "ice_cream"}}, {"type": "node", "id": 10093620517, "lat": 40.7873134, "lon": -73.9755379, "tags": {"addr:housenumber": "526", "addr:postcode": "10024", "addr:street": "Amsterdam Avenue", "amenity": "ice_cream", "name": "Ample Hills Creamery", "opening_hours": "Su-Th 13:00-22:00; Fr-Sa 13:00-23:00"}}, {"type": "node", "id": 10096688666, "lat": 40.8562581, "lon": -73.9010503, "tags": {"amenity": "ice_cream", "brand": "Carvel", "brand:wikidata": "Q5047520", "cuisine": "ice_cream", "name": "Carvel", "takeaway": "yes"}}, {"type": "node", "id": 10109662193, "lat": 40.6924244, "lon": -73.9883429, "tags": {"amenity": "ice_cream", "name": "Bindi"}}, {"type": "node", "id": 10160595957, "lat": 40.623261, "lon": -74.030881, "tags": {"amenity": "ice_cream", "name": "Gelato"}}, {"type": "node", "id": 10218239712, "lat": 40.6226899, "lon": -74.0255826, "tags": {"addr:city": "Brooklyn", "addr:housenumber": "8410", "addr:postcode": "11209", "addr:state": "NY", "addr:street": "5th Avenue", "amenity": "ice_cream", "check_date": "2022-11-25", "delivery": "yes", "drive_through": "no", "name": "Yo Sweets", "outdoor_seating": "yes", "payment:cash": "yes", "payment:contactless": "yes", "payment:credit_cards": "yes", "payment:debit_cards": "yes", "phone": "+1 718-333-5800", "takeaway": "yes", "website": "https://yosweets.com", "wheelchair": "yes"}}, {"type": "node", "id": 10245592465, "lat": 40.6404303, "lon": -74.0149789, "tags": {"addr:housenumber": "5803", "addr:postcode": "11220", "addr:street": "5th Avenue", "amenity": "ice_cream", "name": "Carvel", "opening_hours": "Mo-Su 11:00-22:30", "phone": "+1-347-422-0343", "website": "https://locations.carvel.com/ny/brooklyn/5803-5th-ave"}}, {"type": "node", "id": 10270502719, "lat": 40.7280101, "lon": -73.9852273, "tags": {"amenity": "ice_cream", "name": "Stuffed Ice Cream", "opening_hours": "Mo-Fr 16:00-22:00; Sa-Su 12:00-22:00", "phone": "+1-917-985-6166", "website": "https://stuffedicecreamnyc.com"}}, {"type": "node", "id": 10309850406, "lat": 40.5535736, "lon": -74.1931395, "tags": {"amenity": "ice_cream", "brand": "Carvel", "brand:wikidata": "Q5047520", "cuisine": "ice_cream", "name": "Carvel", "takeaway": "yes"}}, {"type": "node", "id": 10312413178, "lat": 40.7068869, "lon": -74.0080638, "tags": {"amenity": "ice_cream", "check_date": "2023-01-06", "name": "Scoops", "payment:credit_cards": "yes", "payment:debit_cards": "yes"}}, {"type": "node", "id": 10677541966, "lat": 40.5663061, "lon": -74.110815, "tags": {"amenity": "ice_cream", "brand": "Menchie's", "brand:wikidata": "Q6816528", "cuisine": "frozen_yogurt", "level": "0", "name": "Menchie's"}}, {"type": "node", "id": 10695005857, "lat": 40.722969, "lon": -73.9941679, "tags": {"addr:housenumber": "229", "addr:postcode": "10012", "addr:street": "Elizabeth Street", "amenity": "ice_cream", "name": "Gelateria Gentile", "phone": "+1-917-409-5978", "website": "https://www.gelateriagentile.com/en/"}}, {"type": "node", "id": 10712959075, "lat": 40.6397555, "lon": -74.0160778, "tags": {"amenity": "ice_cream", "name": "Sweet Dynasty", "opening_hours": "Mo-Fr 14:00-19:00; Sa 12:00-19:30; Su 12:00-19:00", "payment:cash": "only", "phone": "+1-718-765-1668"}}, {"type": "node", "id": 10724776808, "lat": 40.7279562, "lon": -74.0439121, "tags": {"addr:city": "Jersey City", "addr:housenumber": "19", "addr:postcode": "07302", "addr:state": "NJ", "addr:street": "McWilliams Place", "amenity": "ice_cream", "name": "Milk Sugar Love Creamery & Bakeshop", "opening_hours": "Mo-Su 11:00-22:00", "phone": "+1-551-277-8252", "website": "https://www.milksugarlove.com/"}}, {"type": "node", "id": 10733191688, "lat": 40.7568378, "lon": -73.8353434, "tags": {"amenity": "ice_cream", "brand": "H\u00e4agen-Dazs", "brand:wikidata": "Q1143333", "name": "H\u00e4agen-Dazs"}}, {"type": "node", "id": 10756703060, "lat": 40.7189289, "lon": -73.9948154, "tags": {"amenity": "ice_cream", "drink:tea": "yes", "name": "Matcha Cafe Maiko", "website": "https://www.matchacafe-maiko.com"}}, {"type": "node", "id": 10759352798, "lat": 40.6286858, "lon": -74.0740191, "tags": {"amenity": "ice_cream", "name": "Egger's Homemade Ice Cream"}}, {"type": "node", "id": 10822653425, "lat": 40.6281698, "lon": -74.0233499, "tags": {"addr:housenumber": "7626", "addr:postcode": "11209", "addr:street": "5th Avenue", "alt_name": "Uncle Louie G", "amenity": "ice_cream", "atm": "yes", "cuisine": "breakfast;sandwich", "drink:beer": "yes", "drink:coffee": "yes", "name": "Lucky 7's Deli", "outdoor_seating": "sidewalk", "phone": "+1-718-333-5323", "shop": "convenience"}}, {"type": "node", "id": 10825166989, "lat": 40.7102848, "lon": -73.8490549, "tags": {"amenity": "ice_cream", "brand": "Carvel", "brand:wikidata": "Q5047520", "cuisine": "ice_cream", "name": "Carvel", "takeaway": "yes"}}, {"type": "node", "id": 10838687465, "lat": 40.7143242, "lon": -73.9615534, "tags": {"addr:city": "Brooklyn", "addr:housenumber": "294", "addr:postcode": "11249", "addr:state": "NY", "addr:street": "Bedford Avenue", "amenity": "ice_cream", "name": "Taiyaki NYC", "website": "https://taiyakinyc.com"}}, {"type": "way", "id": 247707236, "nodes": [2545709310, 2545709336, 2545709341, 2545709374, 2545709427, 2545709376, 2545709310], "tags": {"addr:housenumber": "264-21", "addr:postcode": "11040", "addr:street": "Union Turnpike", "amenity": "ice_cream", "brand": "Ralph's Italian Ices", "brand:wikidata": "Q62576909", "building": "yes", "cuisine": "ice_cream", "height": "5.8", "name": "Ralph's Italian Ices", "nycdoitt:bin": "4174076", "official_name": "Ralph's Famous Italian Ices"}}, {"type": "way", "id": 248230411, "nodes": [6031841422, 2550523475, 2550523511, 2550523509, 2550523527, 2550523539, 2550523520, 2550523519, 6031841422], "tags": {"addr:city": "Glen Oaks", "addr:housenumber": "265-15", "addr:postcode": "11004", "addr:state": "NY", "addr:street": "Hillside Avenue;Hillside Ave", "amenity": "ice_cream", "brand": "Carvel", "brand:wikidata": "Q5047520", "brand:wikipedia": "en:Carvel (franchise)", "building": "yes", "cuisine": "ice_cream", "height": "3.2", "name": "Carvel", "nycdoitt:bin": "4179545", "phone": "+1 718-343-0392", "takeaway": "yes", "website": "http://www.hillsidecarvel.com"}}, {"type": "way", "id": 248496458, "nodes": [2552762271, 2385856434, 2552762280, 2385856408, 2552762270, 2552762271], "tags": {"addr:city": "Brooklyn", "addr:housenumber": "1023", "addr:postcode": "11224", "addr:state": "NY", "addr:street": "Riegelmann Boardwalk", "amenity": "ice_cream", "building": "yes", "check_date": "2022-05-19", "drive_through": "no", "height": "7.4", "name": "Coney's Cones", "outdoor_seating": "no", "payment:cash": "yes", "payment:credit_cards": "yes", "phone": "+1-718-373-5862", "source": "survey;local knowledge", "takeaway": "yes", "website": "http://coneyscones.com/", "wheelchair": "yes"}}, {"type": "way", "id": 248822596, "nodes": [2555539510, 2555539707, 2555539723, 2555539518, 2555539510], "tags": {"addr:city": "Brooklyn", "addr:housenumber": "2744", "addr:postcode": "11235", "addr:state": "NY", "addr:street": "Coney Island Avenue", "amenity": "ice_cream", "branch": "Coney Island Avenue", "brand": "Carvel", "brand:wikidata": "Q5047520", "brand:wikipedia": "en:Carvel (franchise)", "building": "yes", "check_date": "2022-12-17", "check_date:opening_hours": "2022-12-17", "cuisine": "ice_cream", "delivery": "yes", "drive_through": "yes", "height": "4.7", "name": "Carvel", "nycdoitt:bin": "3195592", "opening_hours": "Mo-Su 10:00-24:00", "outdoor_seating": "yes", "payment:cash": "yes", "payment:contactless": "yes", "payment:credit_cards": "yes", "payment:debit_cards": "yes", "phone": "+1 718-934-8173", "takeaway": "yes", "website": "https://locations.carvel.com/ny/brooklyn/2744-coney-island-ave", "wheelchair": "yes"}}, {"type": "way", "id": 250437508, "nodes": [2568798055, 2568798112, 2568798180, 2568798187, 2568798114, 2568798055], "tags": {"addr:housenumber": "194", "addr:postcode": "11215", "addr:street": "Garfield Place", "amenity": "ice_cream", "building": "yes", "contact:facebook": "https://www.facebook.com/teosicecream", "height": "4.4", "name": "Teo's Ice Cream Shop", "nycdoitt:bin": "3339425", "opening_hours": "We-Su 12:00-20:00", "outdoor_seating": "sidewalk", "phone": "+1-929-397-0277"}}, {"type": "way", "id": 280470545, "nodes": [2845825762, 2845825886, 2845826004, 2845825909, 2845825793, 2845825776, 2845825762], "tags": {"amenity": "ice_cream", "building": "yes", "height": "6.8", "name": "Lemon Ice King of Corona", "nycdoitt:bin": "4047812"}}, {"type": "way", "id": 405892188, "nodes": [4080312807, 4080312808, 4080312809, 9393413599, 4080312810, 4080312807], "tags": {"addr:city": "Brooklyn", "addr:housenumber": "1224", "addr:postcode": "11224", "addr:state": "NY", "addr:street": "Surf Avenue", "amenity": "ice_cream", "building": "yes", "name": "Lunatics Ice Cream"}}, {"type": "way", "id": 576014904, "nodes": [5525750139, 5525750140, 5525750141, 5525750142, 5525750139], "tags": {"amenity": "ice_cream", "building": "yes"}}, {"type": "way", "id": 904169911, "nodes": [8397254371, 8397254370, 6711404156, 8397254368, 8397254367, 8397254371], "tags": {"amenity": "ice_cream", "indoor": "room", "level": "1", "level:ref": "2F", "name": "Red Mango", "outdoor_seating": "no"}}, {"type": "way", "id": 904206111, "nodes": [8397614607, 6708239349, 8397614602, 8397614604, 8397614603, 8397614614, 8397614606, 8397614607], "tags": {"amenity": "ice_cream", "cuisine": "ice_cream", "indoor": "room", "level": "0", "level:ref": "1F", "name": "Sweet Ice Creamery"}}, {"type": "way", "id": 904206135, "nodes": [2533032730, 8397632500, 8397632501, 2533032672, 2533032730], "tags": {"amenity": "ice_cream", "brand": "Carvel", "brand:wikidata": "Q5047520", "brand:wikipedia": "en:Carvel (franchise)", "cuisine": "ice_cream", "indoor": "room", "level": "0", "name": "Carvel", "takeaway": "yes"}}]}