{"version": 0.6, "generator": "Overpass API 0.7.60 f4c14d41", "osm3s": {"timestamp_osm_base": "2023-05-02T21:17:24Z", "copyright": "The data included in this document is from www.openstreetmap.org. The data is made available under ODbL."}, "elements": [{"type": "node", "id": 60788155, "lat": -33.6765027, "lon": 151.0983316, "tags": {"amenity": "cafe"}}, {"type": "node", "id": 206213233, "lat": -33.6660591, "lon": 151.3029936, "tags": {"amenity": "cafe", "name": "Flying Fox Cafe", "outdoor_seating": "yes"}}, {"type": "node", "id": 243653098, "lat": -33.6595454, "lon": 151.1588575, "tags": {"amenity": "cafe", "name": "Bobbin Head Inn"}}, {"type": "node", "id": 256535971, "lat": -33.6956844, "lon": 151.1159379}, {"type": "node", "id": 256535972, "lat": -33.6957416, "lon": 151.116101}, {"type": "node", "id": 256535973, "lat": -33.6956617, "lon": 151.1161189}, {"type": "node", "id": 309022934, "lat": -33.5371146, "lon": 151.2410536, "tags": {"amenity": "cafe", "created_by": "Potlatch 0.10f", "name": "Dangar Island Cafe", "shop": "convenience"}}, {"type": "node", "id": 313660140, "lat": -33.7448124, "lon": 151.0380618, "tags": {"amenity": "cafe", "name": "Cafe Saligna"}}, {"type": "node", "id": 313691900, "lat": -33.5873386, "lon": 151.3241611, "tags": {"amenity": "cafe", "cuisine": "local;international;cafe", "email": "info@theboathousegroup.com.au", "layer": "1", "name": "The Boathouse Palm Beach", "opening_hours": "Mo-Su 07:00-16:00", "operator": "The Boathouse group", "outdoor_seating": "yes", "phone": "+61 2 9974 5440", "self_service": "yes", "smoking": "no", "takeaway": "yes", "website": "https://www.theboathousepalmbeach.com.au/", "wheelchair": "limited"}}, {"type": "node", "id": 600571196, "lat": -33.6791342, "lon": 151.311702, "tags": {"amenity": "cafe", "facebook": "https://www.facebook.com/ArmchairCollective", "name": "Armchair Collective", "opening_hours": "Mo-Su 07:00-16:00", "phone": "+61 2 9999 2871", "website": "https://www.thearmchair.com.au/"}}, {"type": "node", "id": 612853620, "lat": -33.7735639, "lon": 151.2924923, "tags": {"amenity": "cafe"}}, {"type": "node", "id": 752353815, "lat": -33.7621442, "lon": 151.2148813, "tags": {"amenity": "cafe"}}, {"type": "node", "id": 752353859, "lat": -33.7620271, "lon": 151.2152186, "tags": {"amenity": "cafe"}}, {"type": "node", "id": 762745694, "lat": -33.7552955, "lon": 151.2960786, "tags": {"amenity": "cafe"}}, {"type": "node", "id": 762745941, "lat": -33.7547785, "lon": 151.2961896, "tags": {"addr:housenumber": "7-8", "addr:street": "The Strand", "amenity": "cafe", "name": "Girdlers", "opening_hours": "Mo-Sa 06:30-17:00;Su 07:00-17:00", "operator": "Girdlers", "outdoor_seating": "yes", "takeaway": "yes", "website": "http://www.girdlers.com.au/"}}, {"type": "node", "id": 762746178, "lat": -33.7546285, "lon": 151.296203, "tags": {"amenity": "cafe"}}, {"type": "node", "id": 1068597678, "lat": -33.6427105, "lon": 151.0433176, "tags": {"amenity": "cafe"}}, {"type": "node", "id": 1342153653, "lat": -33.6895251, "lon": 151.2240515, "tags": {"addr:housenumber": "287", "addr:postcode": "2084", "addr:street": "Mona Vale Road", "amenity": "cafe", "cuisine": "coffee_shop", "name": "Tastebuds @ Hills Cafe", "website": "https://www.tastebudsathills.com.au/", "wheelchair": "yes"}}, {"type": "node", "id": 1629636868, "lat": -33.7124809, "lon": 151.2974057, "tags": {"amenity": "cafe", "operator": "Gloria Jeans"}}, {"type": "node", "id": 1798158419, "lat": -33.7218781, "lon": 151.0852414, "tags": {"addr:housenumber": "7", "addr:postcode": "2120", "addr:street": "Sefton Road", "amenity": "cafe", "name": "Ciccio's Caf\u00e9", "source": "GPS survey"}}, {"type": "node", "id": 1798202332, "lat": -33.6710565, "lon": 151.0963979, "tags": {"addr:housenumber": "2", "addr:postcode": "2077", "addr:street": "Somerville Road", "amenity": "cafe", "name": "Corner Cafe", "source": "survey"}}, {"type": "node", "id": 1815377157, "lat": -33.7605564, "lon": 151.2774569, "tags": {"addr:street": "Pittwater Road", "amenity": "cafe", "cuisine": "coffee_shop", "internet_access": "wlan", "name": "Crystal Car Wash Cafe", "operator": "Crystal Car Wash Cafe", "takeaway": "yes"}}, {"type": "node", "id": 1861715829, "lat": -33.6235018, "lon": 151.1512634}, {"type": "node", "id": 1861715831, "lat": -33.6235004, "lon": 151.1513056}, {"type": "node", "id": 1861715851, "lat": -33.623513, "lon": 151.1512644}, {"type": "node", "id": 1861715867, "lat": -33.6236773, "lon": 151.1512738}, {"type": "node", "id": 1861715884, "lat": -33.6236747, "lon": 151.1513348}, {"type": "node", "id": 1865838679, "lat": -33.6620386, "lon": 151.1621407}, {"type": "node", "id": 1865838686, "lat": -33.6620841, "lon": 151.1620914}, {"type": "node", "id": 1865838689, "lat": -33.6620954, "lon": 151.1622157}, {"type": "node", "id": 1865838692, "lat": -33.6621407, "lon": 151.1621661}, {"type": "node", "id": 1980678437, "lat": -33.7385101, "lon": 151.0714625, "tags": {"addr:housenumber": "106", "addr:postcode": "2120", "addr:street": "Yarrara Road", "amenity": "cafe", "name": "Java Lava Cafe", "source": "survey", "website": "http://www.javalavacafe.com.au"}}, {"type": "node", "id": 2053849946, "lat": -33.7037978, "lon": 151.1009462, "tags": {"amenity": "cafe", "cuisine": "coffee_shop", "level": "2", "name": "Three Beans Hornsby"}}, {"type": "node", "id": 2060895639, "lat": -33.760991, "lon": 151.1287097, "tags": {"amenity": "cafe", "wheelchair": "yes"}}, {"type": "node", "id": 2075767201, "lat": -33.7606187, "lon": 151.128447, "tags": {"amenity": "cafe", "wheelchair": "limited"}}, {"type": "node", "id": 2105168541, "lat": -33.7442833, "lon": 151.2017875, "tags": {"amenity": "cafe"}}, {"type": "node", "id": 2108393850, "lat": -33.7128701, "lon": 151.298047, "tags": {"addr:housenumber": "59", "addr:street": "Waterloo Street", "addr:suburb": "Narrabeen", "amenity": "cafe", "contact:facebook": "https://www.facebook.com/Deli-On-Waterloo-163174073696418/", "cuisine": "coffee_shop;italian", "name": "Deli on Waterloo", "phone": "+61 2 9913 1021"}}, {"type": "node", "id": 2293274191, "lat": -33.7157764, "lon": 151.1165057, "tags": {"addr:housenumber": "64", "addr:street": "Coonanbarra Road", "amenity": "cafe", "name": "Cafe Patina", "phone": "+61 2 9489 0980", "website": "https://cafepatina.com.au/"}}, {"type": "node", "id": 2347206173, "lat": -33.7294192, "lon": 151.1624489, "tags": {"amenity": "cafe"}}, {"type": "node", "id": 2803273002, "lat": -33.5987041, "lon": 151.3246569, "tags": {"amenity": "cafe", "source": "survey", "source:location": "gps"}}, {"type": "node", "id": 2865680122, "lat": -33.7022063, "lon": 151.0975725}, {"type": "node", "id": 2865680124, "lat": -33.7021991, "lon": 151.0975045}, {"type": "node", "id": 2865680126, "lat": -33.702193, "lon": 151.0974563}, {"type": "node", "id": 2865680127, "lat": -33.7024194, "lon": 151.0974176}, {"type": "node", "id": 2865680128, "lat": -33.7021779, "lon": 151.0973623}, {"type": "node", "id": 2865680129, "lat": -33.7024255, "lon": 151.0973152}, {"type": "node", "id": 2865680133, "lat": -33.7022886, "lon": 151.0972208}, {"type": "node", "id": 2865680144, "lat": -33.7022433, "lon": 151.0971146}, {"type": "node", "id": 2865680145, "lat": -33.7022994, "lon": 151.0971209}, {"type": "node", "id": 2865694184, "lat": -33.7022546, "lon": 151.0972279}, {"type": "node", "id": 2949066013, "lat": -33.7713195, "lon": 151.082543}, {"type": "node", "id": 2949066015, "lat": -33.7713849, "lon": 151.0827711}, {"type": "node", "id": 2949066020, "lat": -33.7714564, "lon": 151.0824874}, {"type": "node", "id": 2949066023, "lat": -33.7715207, "lon": 151.0827142}, {"type": "node", "id": 3114400935, "lat": -33.7170309, "lon": 151.2959571, "tags": {"amenity": "cafe", "level": "1", "name": "The Boatshed Cafe & Bar", "source": "survey", "source:location": "gps"}}, {"type": "node", "id": 3159172026, "lat": -33.7027734, "lon": 151.100652, "tags": {"addr:postcode": "2077", "addr:street": "Hunter Street", "amenity": "cafe", "name": "Inn House Bistro"}}, {"type": "node", "id": 3178217144, "lat": -33.6987756, "lon": 151.10112, "tags": {"addr:housenumber": "103", "addr:street": "Hunter Street", "addr:unit": "5", "amenity": "cafe", "contact:email": "torquelanecafe@gmail.com", "cuisine": "burger;coffee;international", "name": "Torque Lane Cafe", "opening_hours": "Mo-Fr 06:00-16:00"}}, {"type": "node", "id": 3301423382, "lat": -33.75857, "lon": 151.0932494, "tags": {"amenity": "cafe", "name": "Marco's Hot Bread Cafe", "source": "survey"}}, {"type": "node", "id": 3546092223, "lat": -33.755612, "lon": 151.1524008, "tags": {"amenity": "cafe", "cuisine": "coffee_shop", "level": "1", "name": "Little Gem", "outdoor_seating": "yes", "takeaway": "yes", "wheelchair": "limited"}}, {"type": "node", "id": 3707311664, "lat": -33.7549941, "lon": 151.2975404}, {"type": "node", "id": 3707311665, "lat": -33.7549369, "lon": 151.2976292}, {"type": "node", "id": 3707311666, "lat": -33.7549956, "lon": 151.2976839}, {"type": "node", "id": 3707311667, "lat": -33.7550528, "lon": 151.2975951}, {"type": "node", "id": 3777500959, "lat": -33.7184279, "lon": 151.1168852, "tags": {"amenity": "cafe", "name": "Off the Rails", "opening_hours": "Mo-Tu 06:00-14:00; We-Fr 06:00-15:00; Sa 06:30-15:00; Su 07:30-14:00", "phone": "+61 2 9489 0454", "website": "https://www.offtherailscafe.com.au/"}}, {"type": "node", "id": 3803151146, "lat": -33.6448683, "lon": 151.2356048, "tags": {"amenity": "cafe", "name": "Driftwood Cafe", "source": "past customer, not certain of name but checks with web searches. website not up."}}, {"type": "node", "id": 3935313271, "lat": -33.7060408, "lon": 151.3037369, "tags": {"addr:city": "Narrabeen", "addr:housenumber": "203", "addr:postcode": "2101", "addr:street": "Ocean Street", "amenity": "cafe", "name": "Zubi Bar", "opening_hours": "Mo-Fr 06:00-14:00; Sa, Su 06:30-14:30", "phone": "+61 2 9913 1343"}}, {"type": "node", "id": 4012255082, "lat": -33.7343408, "lon": 151.2645066, "tags": {"addr:city": "Cromer", "addr:housenumber": "31", "addr:postcode": "2099", "addr:street": "Truman Avenue", "amenity": "cafe", "name": "Odd Mug Cafe"}}, {"type": "node", "id": 4233547794, "lat": -33.7134891, "lon": 151.2990294, "tags": {"amenity": "cafe", "cuisine": "italian;pizza", "name": "Dalmatino", "opening_hours": "Tu-Sa 17:00-21:30; Su 17:00-21:00", "operator": "by Rimini", "phone": "+61 9913 3026", "website": "www.cafedalmatino"}}, {"type": "node", "id": 4262074108, "lat": -33.7678424, "lon": 151.2623958, "tags": {"amenity": "cafe", "cuisine": "coffee_shop", "name": "Wood Fired Coffee"}}, {"type": "node", "id": 4333271928, "lat": -33.7108587, "lon": 151.104864}, {"type": "node", "id": 4333271932, "lat": -33.7108719, "lon": 151.1048898}, {"type": "node", "id": 4333271934, "lat": -33.710921, "lon": 151.1048185}, {"type": "node", "id": 4333271939, "lat": -33.7109364, "lon": 151.1048215}, {"type": "node", "id": 4333271940, "lat": -33.7109443, "lon": 151.1048361}, {"type": "node", "id": 4353406495, "lat": -33.7040434, "lon": 151.101592, "tags": {"amenity": "cafe", "name": "Thyme Square Cafe", "opening_hours": "Mo-We 07:00-16:00; Th,Fr 07:00-21:00; Sa 07:30-21:00; Su 07:30-16:00"}}, {"type": "node", "id": 4373866342, "lat": -33.6235446, "lon": 151.1513284}, {"type": "node", "id": 4373866343, "lat": -33.6235448, "lon": 151.1513076}, {"type": "node", "id": 4643202266, "lat": -33.6764684, "lon": 151.3041131, "tags": {"addr:city": "Mona Vale", "addr:housenumber": "1", "addr:postcode": "2103", "addr:street": "Park Street", "amenity": "cafe", "cuisine": "regional", "internet_access": "no", "name": "Cafe Racer Co", "opening_hours": "Mo-Su 06:00-15:30", "outdoor_seating": "yes", "phone": "+61 2 9999 4483", "smoking": "no", "website": "https://www.facebook.com/caferacerMonavale/"}}, {"type": "node", "id": 4757038921, "lat": -33.7720527, "lon": 151.1166298, "tags": {"addr:housenumber": "5", "addr:postcode": "2109", "addr:street": "Management Drive", "amenity": "cafe", "name": "Mortarboard Cafe"}}, {"type": "node", "id": 4921525795, "lat": -33.7314736, "lon": 151.0777221, "tags": {"amenity": "cafe", "name": "Monday Morning", "source": "survey"}}, {"type": "node", "id": 4921525797, "lat": -33.7317602, "lon": 151.0787675, "tags": {"amenity": "cafe", "name": "Curl and Wisker Cafe", "phone": "+61 2 9484 3869", "source": "survey"}}, {"type": "node", "id": 4957988021, "lat": -33.6599182, "lon": 151.3093432, "tags": {"amenity": "cafe", "name": "GF cafe", "name:en": "GF cafe"}}, {"type": "node", "id": 5108739170, "lat": -33.652678, "lon": 151.1553955, "tags": {"amenity": "cafe", "opening_hours": "Sa-Su;PH"}}, {"type": "node", "id": 5180917421, "lat": -33.6875347, "lon": 151.1084311, "tags": {"amenity": "cafe", "name": "The Corner5 Cafe"}}, {"type": "node", "id": 5182816293, "lat": -33.5480654, "lon": 151.2254441, "tags": {"amenity": "cafe", "cuisine": "breakfast;cake;sandwich;coffee_shop;tea", "name": "Homer's Kitchen", "name:en": "Homer\u2019s Kitchen"}}, {"type": "node", "id": 5274677866, "lat": -33.7219152, "lon": 151.0255323, "tags": {"amenity": "cafe", "cuisine": "coffee_shop", "name": "Taylor's Patisserie"}}, {"type": "node", "id": 5274677870, "lat": -33.7218594, "lon": 151.0255832, "tags": {"alt_name": "Mexi's", "amenity": "cafe", "cuisine": "coffee_shop", "name": "Mexi's Takeaway", "source": "Survey", "wifi": "no"}}, {"type": "node", "id": 5278928887, "lat": -33.7268008, "lon": 150.9972449, "tags": {"amenity": "cafe", "cuisine": "fish_and_chips", "name": "The Countryard Cafe Castle Hill", "source": "Survey"}}, {"type": "node", "id": 5426386868, "lat": -33.7665763, "lon": 151.1610839, "tags": {"amenity": "cafe", "name": "Marian Street Cafe"}}, {"type": "node", "id": 5497673346, "lat": -33.6980307, "lon": 151.0014099, "tags": {"amenity": "cafe", "delivery": "no", "name": "The Tuckshop", "outdoor_seating": "yes", "smoking": "no", "takeaway": "yes"}}, {"type": "node", "id": 5504662606, "lat": -33.6528559, "lon": 151.0473193}, {"type": "node", "id": 5504662607, "lat": -33.6529108, "lon": 151.047332}, {"type": "node", "id": 5504662608, "lat": -33.6529027, "lon": 151.0473826}, {"type": "node", "id": 5504662609, "lat": -33.6530202, "lon": 151.0474098}, {"type": "node", "id": 5504662610, "lat": -33.653002, "lon": 151.0475235}, {"type": "node", "id": 5504662611, "lat": -33.6528296, "lon": 151.0474836}, {"type": "node", "id": 5526420480, "lat": -33.5994345, "lon": 151.1206862, "tags": {"amenity": "cafe", "name": "Berowra Waters Fish Cafe"}}, {"type": "node", "id": 5555609127, "lat": -33.5897022, "lon": 151.1708122, "tags": {"amenity": "cafe", "name": "The Great North Cafe"}}, {"type": "node", "id": 5571133051, "lat": -33.7557182, "lon": 151.1544899, "tags": {"amenity": "cafe", "cuisine": "coffee_shop", "internet_access": "no", "internet_access:fee": "no", "name": "Buds & Beans", "opening_hours": "Mo-Fr 06:00-18:00", "outdoor_seating": "no"}}, {"type": "node", "id": 5583351293, "lat": -33.7560581, "lon": 151.1537949}, {"type": "node", "id": 5583421536, "lat": -33.7561266, "lon": 151.1539565}, {"type": "node", "id": 5680626556, "lat": -33.7491766, "lon": 151.0658085, "tags": {"amenity": "cafe", "level": "0", "name": "Longshot Cafe", "opening_hours": "Mo-Fr 07:00-17:00; Sa-Su 07:00-15:00; PH open", "outdoor_seating": "yes", "takeaway": "yes"}}, {"type": "node", "id": 5762529763, "lat": -33.7181007, "lon": 151.1163259, "tags": {"amenity": "cafe", "name": "Cedarwood Cafe"}}, {"type": "node", "id": 5788437753, "lat": -33.5987111, "lon": 151.3246629, "tags": {"amenity": "cafe", "name": "2108 Expresso"}}, {"type": "node", "id": 5901232308, "lat": -33.7320831, "lon": 151.004439, "tags": {"amenity": "cafe", "brand": "Chatime", "brand:en": "Chatime", "brand:wikidata": "Q16829306", "brand:wikipedia": "en:Chatime", "brand:zh": "\u65e5\u51fa\u8336\u592a", "cuisine": "bubble_tea", "internet_access": "wlan", "internet_access:fee": "no", "name": "ChaTime Castle Towers Piazza", "old_name": "ChaTime Castle Hill", "takeaway": "yes"}}, {"type": "node", "id": 5938259891, "lat": -33.6895287, "lon": 151.2238254, "tags": {"addr:housenumber": "287", "addr:postcode": "2084", "addr:street": "Mona Vale Road", "addr:suburb": "Terry Hills", "amenity": "cafe", "name": "Piemonte Cafe Restaurant"}}, {"type": "node", "id": 6176022788, "lat": -33.7087284, "lon": 151.1058752, "tags": {"addr:postcode": "2077", "addr:street": "Waitara Avenue", "amenity": "cafe", "check_date:opening_hours": "2022-11-06", "cuisine": "coffee_shop", "internet_access": "wlan", "name": "PCYC NSW Blue Star Cafe", "name:en": "PCYC NSW Blue Star Cafe", "opening_hours": "Mo-Th 07:00-16:00; Fr 09:00-16:00; Su 09:00-15:00; Sa 08:00-16:00", "opening_hours:signed": "no", "outdoor_seating": "yes", "website": "https://www.pcycnsw.org.au/hornsby-ku-ring-gai/blue-star-cafe"}}, {"type": "node", "id": 6177699185, "lat": -33.7040403, "lon": 151.0996712, "tags": {"addr:housenumber": "Shop 2034/236", "addr:postcode": "2077", "addr:street": "Pacific Highway", "amenity": "cafe", "cuisine": "crepe;coffee_shop;cake;ice_cream", "internet_access": "wlan", "name": "Oliver Brown", "opening_hours": "Mo-Su 08:00-23:00", "phone": "+61 2 9482 9819", "website": "http://www.oliverbrown.com.au"}}, {"type": "node", "id": 6190615600, "lat": -33.7542688, "lon": 151.248885, "tags": {"addr:city": "Frenchs Forest", "addr:housenumber": "20", "addr:postcode": "2086", "addr:street": "Rodborough Road", "amenity": "cafe", "layer": "1", "level": "2", "name": "Batch 20", "opening_hours": "Mo-Fr 06:30-16:00", "phone": "+61 2 9975 1877", "takeaway": "yes", "website": "www.batch20.com.au", "wheelchair": "yes"}}, {"type": "node", "id": 6190629222, "lat": -33.7537133, "lon": 151.2963879, "tags": {"amenity": "cafe", "name": "Sea Bar Cafe"}}, {"type": "node", "id": 6190630517, "lat": -33.7537533, "lon": 151.2963896, "tags": {"amenity": "cafe", "name": "ChillBAR"}}, {"type": "node", "id": 6202532538, "lat": -33.7026006, "lon": 151.1107373, "tags": {"amenity": "cafe", "name": "Team Coffee", "outdoor_seating": "yes"}}, {"type": "node", "id": 6209285732, "lat": -33.7525004, "lon": 151.2547004, "tags": {"addr:street": "Warringah Road", "amenity": "cafe", "cuisine": "coffee_shop", "name": "Ecospray Car Wash Cafe", "operator": "Ecospray Car Wash Cafe"}}, {"type": "node", "id": 6217181257, "lat": -33.7538697, "lon": 151.2486058, "tags": {"addr:housenumber": "18", "addr:street": "Rodborough Road", "amenity": "cafe", "name": "Equinox Cafe", "opening_hours": "Mo-Th 07:00-15:00; Fr 07:00-14:30"}}, {"type": "node", "id": 6296999619, "lat": -33.7321434, "lon": 151.0042797, "tags": {"alt_name": "Tella Balls Desert Bar", "amenity": "cafe", "name": "Tella Balls"}}, {"type": "node", "id": 6310669286, "lat": -33.691583, "lon": 151.3071368, "tags": {"addr:city": "Warriewood", "addr:housenumber": "122A", "addr:postcode": "2102", "addr:state": "NSW", "addr:street": "Narrabeen Park Parade", "amenity": "cafe", "name": "Sunrise Cafe", "outdoor_seating": "yes", "phone": "+61 2 9997 2515", "takeaway": "yes", "wheelchair": "limited"}}, {"type": "node", "id": 6310674487, "lat": -33.6367461, "lon": 151.3297126, "tags": {"amenity": "cafe", "name": "Nourished Cafe and Lounge", "opening_hours": "Mo-Su 06:00-17:00", "outdoor_seating": "yes", "website": "www.nourishedwhlefoodcafe.com.au", "wheelchair": "yes"}}, {"type": "node", "id": 6325242057, "lat": -33.656027, "lon": 151.3189338, "tags": {"addr:city": "Newport", "addr:housenumber": "323c", "addr:postcode": "2106", "addr:state": "NSW", "addr:street": "Barrenjoey Road", "amenity": "cafe", "contact:facebook": "https://www.facebook.com/pages/Zubi/159456254079644", "name": "Zubi Bar", "opening_hours": "Mo-Sa 06:00-14:00; Su 07:00-14:00", "outdoor_seating": "yes", "phone": "+61 2 9999 1519", "takeaway": "yes", "website": "http://zubibar.cafeleader.com/"}}, {"type": "node", "id": 6325242058, "lat": -33.6538931, "lon": 151.3215677, "tags": {"addr:city": "Newport", "addr:housenumber": "383", "addr:postcode": "2106", "addr:street": "Barrenjoey Road", "amenity": "cafe", "bakery": "yes", "check_date:opening_hours": "2021-01-30", "name": "Newport Bowan Bakery-Cafe", "opening_hours": "Mo-Su 07:00-15:00", "operator": "Bowan Island", "phone": "+61 2 8924 2261", "takeaway": "yes", "website": "https://www.bowanisland.com.au/cafes"}}, {"type": "node", "id": 6329781717, "lat": -33.7147658, "lon": 151.2971218, "tags": {"addr:housenumber": "1395A", "addr:street": "Pittwater Road", "amenity": "cafe", "diet:vegetarian": "yes", "name": "The Tramshed", "opening_hours": "Mo-Fr 07:30-16:00; Sa,Su 07:30-17:00", "phone": "+61 2 9970 7486", "website": "https://thetramshed.com.au/"}}, {"type": "node", "id": 6332480477, "lat": -33.7082119, "lon": 151.2962243, "tags": {"addr:housenumber": "1483", "addr:street": "Pittwater Road", "amenity": "cafe", "cuisine": "ice_cream;coffee_shop", "email": "orders@pnsdailyscoop.com.au", "name": "P & N's Daily Scoop", "opening_hours": "Mo 06:00-12:00; Tu-Fr 06:00-17:00; PH,Sa,Su 08:00-17:00", "outdoor_seating": "no", "phone": "+61 407 930 321", "website": "https://www.pnsdailyscoop.com/"}}, {"type": "node", "id": 6335009633, "lat": -33.7315387, "lon": 151.0050115, "tags": {"alt_name": "Bellaccino Espresso Bar", "amenity": "cafe", "cuisine": "coffee_shop", "name": "Bellaccino"}}, {"type": "node", "id": 6335024789, "lat": -33.7313889, "lon": 151.0054156, "tags": {"amenity": "cafe", "brand": "Gloria Jean's", "brand:wikidata": "Q2666365", "brand:wikipedia": "en:Gloria Jean's Coffees", "cuisine": "coffee_shop", "name": "Gloria Jean's", "official_name": "Gloria Jean's Coffees", "takeaway": "yes"}}, {"type": "node", "id": 6354037672, "lat": -33.7678162, "lon": 151.2653754, "tags": {"addr:street": "Condamine Street & Old Pittwater Road", "amenity": "cafe", "level": "0", "name": "Flower Child Cafe Warringah Mall", "website": "http://flowerchildcafe.com.au/"}}, {"type": "node", "id": 6356031541, "lat": -33.7688286, "lon": 151.0278984, "tags": {"amenity": "cafe", "name": "Caffe Cherry Beans"}}, {"type": "node", "id": 6433533005, "lat": -33.7021526, "lon": 151.3020575, "tags": {"amenity": "cafe", "name": "The Melting Room", "phone": "+61 2 9970 6310"}}, {"type": "node", "id": 6471255163, "lat": -33.7629821, "lon": 151.2718568, "tags": {"amenity": "cafe", "name": "Fuel espresso"}}, {"type": "node", "id": 6471255897, "lat": -33.7135148, "lon": 151.2974989, "tags": {"amenity": "cafe", "name": "Lakehouse Cafe"}}, {"type": "node", "id": 6475055838, "lat": -33.7316985, "lon": 151.0062662, "tags": {"amenity": "cafe", "cuisine": "coffee_shop", "name": "The Baron Cafe"}}, {"type": "node", "id": 6515091180, "lat": -33.7672108, "lon": 151.2665206, "tags": {"amenity": "cafe", "bakery": "yes", "name": "The Best Chocolate Cake in the world"}}, {"type": "node", "id": 6657481946, "lat": -33.7389582, "lon": 151.3029586, "tags": {"addr:city": "Collaroy", "addr:housenumber": "996e", "addr:postcode": "2097", "addr:street": "Pittwater Road", "addr:unit": "Shop 996e", "amenity": "cafe", "contact:facebook": "http://www.facebook.com/#!/pages/Outpost-Espresso-Collaroy/139848609397230?sk=info", "cuisine": "coffee_shop", "indoor_seating": "yes", "name": "Outpost Espresso", "opening_hours": "Mo-Sa 06:00-14:00; Su 07:00-14:00", "outdoor_seating": "yes", "takeaway": "yes", "wheelchair": "no"}}, {"type": "node", "id": 6679925422, "lat": -33.7132567, "lon": 151.2984935, "tags": {"addr:housenumber": "16", "addr:street": "Waterloo Street", "amenity": "cafe", "cuisine": "healthy", "diet:vegetarian": "yes", "name": "The Whole Leaf", "outdoor_seating": "no", "takeaway": "yes", "website": "https://www.thewholeleaf.com.au/"}}, {"type": "node", "id": 6679962355, "lat": -33.712991, "lon": 151.298359, "tags": {"addr:street": "Waterloo Street", "addr:suburb": "Narrabeen", "amenity": "cafe", "contact:facebook": "https://m.facebook.com/Maletta.Bar2101/", "cuisine": "coffee_shop", "name": "BAR 2101", "opening_hours": "Mo-Fr 06:00-14:00; Sa 07:00-13:00; Su,PH closed"}}, {"type": "node", "id": 6735227302, "lat": -33.6952892, "lon": 151.2803569, "tags": {"addr:housenumber": "69", "addr:postcode": "2101", "addr:street": "Kalang Road", "addr:suburb": "Elanora Heights", "addr:unit": "2", "amenity": "cafe", "contact:facebook": "https://www.facebook.com/The-Nook-Wholefoods-612602752216424/", "cuisine": "coffee_shop", "level": "0", "name": "The Nook Wholefoods", "opening_hours": "Mo-Fr 07:00-15:00, Sa-Su 08:00-14:30", "phone": "+61 2 9913 1013", "takeaway": "yes"}}, {"type": "node", "id": 6743930705, "lat": -33.6592897, "lon": 151.2978108, "tags": {"amenity": "cafe", "name": "Stowaway Cafe", "outdoor_seating": "yes"}}, {"type": "node", "id": 6744048020, "lat": -33.7135883, "lon": 151.297124, "tags": {"addr:city": "Narrabeen", "addr:housenumber": "1417", "addr:postcode": "2101", "addr:street": "Pittwater Road", "amenity": "cafe", "diet:vegetarian": "yes", "name": "The Grumpy Cup", "opening_hours": "Mo-Fr 05:30-13:00; Sa 06:30-13:00; Su 07:30-13:00"}}, {"type": "node", "id": 6760931486, "lat": -33.7562447, "lon": 151.1535378, "tags": {"amenity": "cafe", "name": "Chalkboard"}}, {"type": "node", "id": 6761433954, "lat": -33.7546789, "lon": 151.2853123, "tags": {"addr:street": "Pacific Parade", "amenity": "cafe", "name": "Changas Priest"}}, {"type": "node", "id": 6763990790, "lat": -33.6784999, "lon": 151.3136113, "tags": {"addr:housenumber": "1", "addr:street": "Surfview Road", "amenity": "cafe", "name": "Bronze Kiosk", "opening_hours": "Mo-Su 06:30-16:00", "outdoor_seating": "yes", "phone": "+61 2 8411 1224", "takeaway": "yes", "website": "http://www.bronzekiosk.com.au/", "wheelchair": "yes"}}, {"type": "node", "id": 6779975532, "lat": -33.7187787, "lon": 151.2985018, "tags": {"addr:housenumber": "18", "addr:street": "Ocean Street", "addr:unit": "Shop 4", "amenity": "cafe", "diet:vegetarian": "yes", "name": "Driftwood Cafe", "opening_hours": "Mo-Fr 06:30-16:30; Sa, Su 06:30-21:30", "phone": "+61 2 9970 8911"}}, {"type": "node", "id": 6779980289, "lat": -33.7188974, "lon": 151.2985062, "tags": {"addr:housenumber": "18", "addr:street": "Ocean Street", "addr:unit": "Shop 3", "amenity": "cafe", "name": "Vespacific Cafe"}}, {"type": "node", "id": 6814709986, "lat": -33.7316122, "lon": 151.3007695, "tags": {"addr:street": "Pittwater Road", "amenity": "cafe", "name": "The Pottery Cafe", "website": "https://www.thepotterycafe.com.au/"}}, {"type": "node", "id": 6872584985, "lat": -33.7186347, "lon": 151.2976107, "tags": {"addr:street": "Pittwater Road", "amenity": "cafe", "diet:vegetarian": "yes", "name": "Illie home + gift Cafe", "opening_hours": "Mo-Fr 06:30-16:30; Sa 07:00-16:00; Su 08:00-15:00"}}, {"type": "node", "id": 6938634721, "lat": -33.738787, "lon": 151.3069653, "tags": {"amenity": "cafe", "cuisine": "australian", "indoor_seating": "yes", "name": "White Rock Cafe", "operator": "Long Reef Golf Club", "outdoor_seating": "yes"}}, {"type": "node", "id": 6952963040, "lat": -33.7552473, "lon": 151.2755702, "tags": {"amenity": "cafe", "name": "The Roasted Empire"}}, {"type": "node", "id": 6960960693, "lat": -33.7326179, "lon": 151.3009788, "tags": {"addr:street": "Alexander Street", "amenity": "cafe"}}, {"type": "node", "id": 6984243482, "lat": -33.6375818, "lon": 151.3288533, "tags": {"amenity": "cafe"}}, {"type": "node", "id": 7041659551, "lat": -33.7530569, "lon": 151.2872836, "tags": {"amenity": "cafe", "name": "three beans"}}, {"type": "node", "id": 7041659995, "lat": -33.7526435, "lon": 151.2886252, "tags": {"addr:street": "Howard Avenue", "amenity": "cafe", "name": "Gloria Jean's"}}, {"type": "node", "id": 7056232755, "lat": -33.7040913, "lon": 151.1000749, "tags": {"amenity": "cafe", "brand": "Sharetea", "brand:wikidata": "Q64827032", "cuisine": "bubble_tea", "name": "Sharetea", "name:en": "Sharetea", "name:zh": "\u6b47\u8173\u4ead", "takeaway": "yes"}}, {"type": "node", "id": 7076592023, "lat": -33.7314969, "lon": 151.0057777, "tags": {"amenity": "cafe", "name": "Three Beans Cafe"}}, {"type": "node", "id": 7076592030, "lat": -33.7328657, "lon": 151.0055623, "tags": {"amenity": "cafe"}}, {"type": "node", "id": 7078404467, "lat": -33.758781, "lon": 151.0934649, "tags": {"addr:housenumber": "288", "addr:street": "Malton Road", "amenity": "cafe", "name": "Cafe Si:Zac", "phone": "+61298761231"}}, {"type": "node", "id": 7086151826, "lat": -33.7678375, "lon": 151.2653874, "tags": {"amenity": "cafe", "level": "2", "name": "Girdlers", "outdoor_seating": "yes", "takeaway": "yes"}}, {"type": "node", "id": 7123485508, "lat": -33.7048937, "lon": 151.304855, "tags": {"amenity": "cafe", "name": "North Narrabeen HIT Cafe", "opening_hours": "Mo-Su 06:30-14:30"}}, {"type": "node", "id": 7125146391, "lat": -33.6843345, "lon": 151.2631381, "tags": {"addr:street": "Powderworks Road", "amenity": "cafe", "fixme": "website", "name": "Solace Cafe", "website": "www.solacafe.com.au"}}, {"type": "node", "id": 7138950403, "lat": -33.7185653, "lon": 151.1173017, "tags": {"addr:housenumber": "9", "addr:street": "Redleaf Avenue", "amenity": "cafe", "cuisine": "cafe;vietnamese", "name": "Redleaf Piccolo", "opening_hours": "Mo-Fr 06:00-17:00; Sa, Su 07:00-17:00", "phone": "+61 2 9489 7243", "website": "https://www.redleafpiccolo.com.au/"}}, {"type": "node", "id": 7159571290, "lat": -33.4363945, "lon": 151.0597171}, {"type": "node", "id": 7159571291, "lat": -33.4364284, "lon": 151.0598545}, {"type": "node", "id": 7159571292, "lat": -33.4365706, "lon": 151.0598043}, {"type": "node", "id": 7159571293, "lat": -33.4365368, "lon": 151.0596668}, {"type": "node", "id": 7176552786, "lat": -33.738925, "lon": 151.2104054, "tags": {"amenity": "cafe", "brand": "Michel's Patisserie", "brand:wikidata": "Q6836235", "brand:wikipedia": "en:Michel's Patisserie", "cuisine": "coffee_shop", "name": "Michel's Patisserie", "takeaway": "yes"}}, {"type": "node", "id": 7176589685, "lat": -33.739248, "lon": 151.209607, "tags": {"amenity": "cafe", "name": "Three  Beans"}}, {"type": "node", "id": 7176650137, "lat": -33.7391385, "lon": 151.2104701, "tags": {"amenity": "cafe", "cuisine": "vietnamese", "outdoor_seating": "yes"}}, {"type": "node", "id": 7189198587, "lat": -33.745209, "lon": 151.2198165, "tags": {"amenity": "cafe", "cuisine": "cake;coffee_shop;sandwich", "name": "Mrs Jones The Baker", "operator": "Mrs Jones The Baker", "outdoor_seating": "yes", "takeaway": "yes", "wheelchair": "limited"}}, {"type": "node", "id": 7196618286, "lat": -33.7662355, "lon": 151.2650239, "tags": {"amenity": "cafe", "brand": "Chatime", "brand:en": "Chatime", "brand:wikidata": "Q16829306", "brand:wikipedia": "en:Chatime", "brand:zh": "\u65e5\u51fa\u8336\u592a", "cuisine": "bubble_tea", "name": "Chatime", "name:en": "Chatime", "name:zh": "\u65e5\u51fa\u8336\u592a", "takeaway": "yes"}}, {"type": "node", "id": 7244353413, "lat": -33.6956109, "lon": 151.2797575, "tags": {"addr:housenumber": "50", "addr:street": "Kalang Road", "amenity": "cafe", "diet:vegetarian": "yes", "level": "0", "name": "Top Shot Espresso", "opening_hours": "Mo-Fr 06:00-14:00; Sa,Su 07:00-12:00; PH 07:00-12:00"}}, {"type": "node", "id": 7265242193, "lat": -33.7401412, "lon": 151.2761588}, {"type": "node", "id": 7265242194, "lat": -33.7401502, "lon": 151.2762212}, {"type": "node", "id": 7265242195, "lat": -33.7403002, "lon": 151.276191}, {"type": "node", "id": 7265242196, "lat": -33.7402851, "lon": 151.2761287}, {"type": "node", "id": 7265242197, "lat": -33.750708, "lon": 151.2746944}, {"type": "node", "id": 7265242198, "lat": -33.7507429, "lon": 151.2748835}, {"type": "node", "id": 7265242199, "lat": -33.7508566, "lon": 151.2748531}, {"type": "node", "id": 7265242200, "lat": -33.7508216, "lon": 151.274664}, {"type": "node", "id": 7276083231, "lat": -33.7308728, "lon": 151.292472, "tags": {"amenity": "cafe"}}, {"type": "node", "id": 7673085924, "lat": -33.7321932, "lon": 151.0054983, "tags": {"amenity": "cafe", "name": "Hey Juice"}}, {"type": "node", "id": 7702186765, "lat": -33.702598, "lon": 151.2956211, "tags": {"addr:housenumber": "54", "addr:street": "Garden Street", "amenity": "cafe", "diet:vegetarian": "yes", "name": "Fuel Espresso", "opening_hours": "Mo-Fr 05:00-14:00; Sa,Su 06:00-14:00", "outdoor_seating": "yes", "takeaway": "yes"}}, {"type": "node", "id": 7702211493, "lat": -33.70258, "lon": 151.2953878, "tags": {"addr:street": "Powderworks Road", "amenity": "cafe", "check_date:opening_hours": "2021-10-07", "name": "21 grams Narrabeen", "opening_hours": "Mo-Fr 06:00-14:00; Sa 07:00-13:00; Su 08:00-12:00"}}, {"type": "node", "id": 7702296681, "lat": -33.6713676, "lon": 151.3061611, "tags": {"addr:city": "Mona Vale", "addr:housenumber": "81", "addr:postcode": "2103", "addr:street": "Bassett Street", "amenity": "cafe", "cuisine": "french", "delivery": "yes", "fixme": "POI location to be confirmed", "name": "French Basket", "operator": "French Basket", "takeaway": "yes", "website": "https://frenchbasket.com.au"}}, {"type": "node", "id": 7702309071, "lat": -33.7545779, "lon": 151.2962162, "tags": {"addr:city": "Dee Why", "addr:housenumber": "15", "addr:postcode": "2099", "addr:street": "The Strand", "amenity": "cafe", "cuisine": "french", "delivery": "yes", "fixme": "POI location to be confirmed", "name": "French Basket", "operator": "French Basket", "takeaway": "yes", "website": "https://frenchbasket.com.au"}}, {"type": "node", "id": 7775189481, "lat": -33.6778679, "lon": 151.3029333, "tags": {"amenity": "cafe", "name": "The Drawing Board Cafe"}}, {"type": "node", "id": 7775248349, "lat": -33.6765701, "lon": 151.302406, "tags": {"amenity": "cafe", "description": "cafe & roasters", "name": "Soul B"}}, {"type": "node", "id": 7775262280, "lat": -33.6761296, "lon": 151.3027764, "tags": {"addr:city": "Mona Vale", "addr:housenumber": "7", "addr:postcode": "2103", "addr:street": "Bungan Street", "amenity": "cafe", "name": "blend", "outdoor_seating": "yes", "takeaway": "yes"}}, {"type": "node", "id": 7775273289, "lat": -33.6779233, "lon": 151.3017023, "tags": {"amenity": "cafe", "name": "BECO", "takeaway": "yes"}}, {"type": "node", "id": 7837085978, "lat": -33.6758492, "lon": 151.3032516, "tags": {"amenity": "cafe", "outdoor_seating": "yes", "takeaway": "yes"}}, {"type": "node", "id": 7855468122, "lat": -33.675647, "lon": 151.3042259, "tags": {"amenity": "cafe", "name": "Cafe Racer Co", "outdoor_seating": "yes", "takeaway": "yes"}}, {"type": "node", "id": 7899161885, "lat": -33.762376, "lon": 151.2158438, "tags": {"amenity": "cafe", "name": "Tilt Cafe"}}, {"type": "node", "id": 7922093360, "lat": -33.745184, "lon": 151.2198294}, {"type": "node", "id": 7922093361, "lat": -33.7452372, "lon": 151.2198171}, {"type": "node", "id": 7922093362, "lat": -33.7451837, "lon": 151.2194821}, {"type": "node", "id": 7922093363, "lat": -33.7451305, "lon": 151.2194944}, {"type": "node", "id": 7975247932, "lat": -33.6793016, "lon": 151.3119939, "tags": {"alcohol": "yes", "amenity": "cafe", "name": "Ruby's at the beach", "opening_hours": "Mo-Su 07:00-16:00"}}, {"type": "node", "id": 8104198841, "lat": -33.7535002, "lon": 151.1760436, "tags": {"addr:housenumber": "50", "addr:postcode": "2071", "addr:street": "Koola Avenue", "addr:suburb": "East Killara", "addr:unit": "8", "amenity": "cafe", "cuisine": "coffee_shop;breakfast", "diet:vegetarian": "yes", "name": "Killa Brew", "opening_hours": "Mo-Fr 06:00-15:30; Sa 07:00-14:30; Su off", "opening_hours:kitchen": "Mo-Sa 07:00-14:30", "outdoor_seating": "yes", "survey:date": "2022-01-31", "takeaway": "yes"}}, {"type": "node", "id": 8119989180, "lat": -33.6918165, "lon": 151.3072445, "tags": {"amenity": "cafe", "name": "See Sea Cafe"}}, {"type": "node", "id": 8242141793, "lat": -33.7623211, "lon": 151.2142196, "tags": {"addr:street": "Darley Street", "amenity": "cafe", "indoor_seating": "yes", "name": "Darley St Cafe", "outdoor_seating": "yes"}}, {"type": "node", "id": 8326278872, "lat": -33.675255, "lon": 151.3067396, "tags": {"addr:street": "Darley Street", "amenity": "cafe", "name": "Coffee Brothers", "opening_hours": "Mo-Fr 06:00-14:30; Sa 06:30-13:30; Su 07:00-13:30", "takeaway": "yes"}}, {"type": "node", "id": 8350170272, "lat": -33.7020306, "lon": 151.2830497, "tags": {"amenity": "cafe", "diet:vegetarian": "yes", "name": "Ambrosia Food Creation", "opening_hours": "Mo-Fr 07:00-14:00; Sa, Su 08:00-14:00"}}, {"type": "node", "id": 8350195775, "lat": -33.6761978, "lon": 151.3033374, "tags": {"amenity": "cafe", "cuisine": "cafe", "name": "2kf", "outdoor_seating": "yes"}}, {"type": "node", "id": 8377222014, "lat": -33.6555815, "lon": 151.3191372, "tags": {"amenity": "cafe", "name": "Caffeine Villains"}}, {"type": "node", "id": 8377228395, "lat": -33.6548674, "lon": 151.321057, "tags": {"amenity": "cafe", "name": "cocoa bar"}}, {"type": "node", "id": 8377228396, "lat": -33.6560892, "lon": 151.3194249, "tags": {"amenity": "cafe", "name": "Shotlab Espresso", "opening_hours": "Mo-Fr 05:00-14:00; Sa 05:30-14:00; Su 06:00-13:00", "phone": "+61 406 537 784"}}, {"type": "node", "id": 8377234945, "lat": -33.7655506, "lon": 151.2502356, "tags": {"amenity": "cafe", "name": "Caf\u00e9 Girasoli"}}, {"type": "node", "id": 8392810965, "lat": -33.6734509, "lon": 151.0323211}, {"type": "node", "id": 8392810966, "lat": -33.6733866, "lon": 151.0323519}, {"type": "node", "id": 8392810967, "lat": -33.6734167, "lon": 151.0324428}, {"type": "node", "id": 8392810968, "lat": -33.6734401, "lon": 151.0324317}, {"type": "node", "id": 8392810969, "lat": -33.6734653, "lon": 151.0325077}, {"type": "node", "id": 8392810970, "lat": -33.6735063, "lon": 151.0324881}, {"type": "node", "id": 8392811113, "lat": -33.6734707, "lon": 151.0323808}, {"type": "node", "id": 8392811114, "lat": -33.6734599, "lon": 151.0323481}, {"type": "node", "id": 8439568521, "lat": -33.6511205, "lon": 151.2893601, "tags": {"addr:housenumber": "1856", "addr:street": "Pittwater Road", "amenity": "cafe", "diet:vegetarian": "yes", "name": "The Marina Cafe", "opening_hours": "Mo-Su 08:00-15:00; Fr-Su 18:00-21:00", "phone": "+61 2 9997 3847", "website": "https://www.themarinacafe.com.au/"}}, {"type": "node", "id": 8441986031, "lat": -33.6762775, "lon": 151.3021443, "tags": {"amenity": "cafe", "cuisine": "cafe", "name": "Pod Bar Cafe"}}, {"type": "node", "id": 8442034823, "lat": -33.6445254, "lon": 151.2841082, "tags": {"amenity": "cafe", "name": "The Waterfront Store Cafe"}}, {"type": "node", "id": 8464918539, "lat": -33.7014025, "lon": 151.3060397, "tags": {"addr:housenumber": "1", "addr:street": "Narrabeen Park Parade", "amenity": "cafe", "cuisine": "cafe", "name": "nourished Cafe & Lounge", "opening_hours": "Mo, Tu 06:30-16:30; We, Th 06:30-21:00; Fr, Sa 06:30-00:00; Su 06:30-20:00", "phone": "+61 2 9446 4113", "website": "https://nourishedcafeandlounge.com.au/narrabeen/"}}, {"type": "node", "id": 8513135256, "lat": -33.7505604, "lon": 151.224785, "tags": {"amenity": "cafe", "name": "Cappuccino King"}}, {"type": "node", "id": 8536466063, "lat": -33.6884018, "lon": 151.109336}, {"type": "node", "id": 8989121711, "lat": -33.7311491, "lon": 151.294617, "tags": {"amenity": "cafe", "name": "arikaya", "phone": "+61 407 352 070", "website": "https://www.facebook.com/arikayahomewares/"}}, {"type": "node", "id": 9015797770, "lat": -33.7135471, "lon": 151.1473109, "tags": {"amenity": "cafe", "name": "TWENTY74", "phone": "+61 2 9440 5181"}}, {"type": "node", "id": 9015817727, "lat": -33.7135749, "lon": 151.1475064, "tags": {"amenity": "cafe", "name": "Cafe Trilogy"}}, {"type": "node", "id": 9022292926, "lat": -33.7276765, "lon": 151.1416336}, {"type": "node", "id": 9022292927, "lat": -33.7278364, "lon": 151.1416029}, {"type": "node", "id": 9022292928, "lat": -33.7276848, "lon": 151.1416941}, {"type": "node", "id": 9022292929, "lat": -33.7278449, "lon": 151.1416618}, {"type": "node", "id": 9022292930, "lat": -33.7277059, "lon": 151.1416898}, {"type": "node", "id": 9028584955, "lat": -33.7324442, "lon": 151.0055799}, {"type": "node", "id": 9028584956, "lat": -33.732526, "lon": 151.0057143}, {"type": "node", "id": 9028584957, "lat": -33.7324083, "lon": 151.0056409}, {"type": "node", "id": 9028584960, "lat": -33.7324769, "lon": 151.0057556}, {"type": "node", "id": 9036569340, "lat": -33.728382, "lon": 150.984665, "tags": {"addr:housenumber": "7", "addr:postcode": "2154", "addr:state": "NSW", "addr:street": "Carrington Road", "addr:suburb": "Castle Hill", "addr:unit": "32", "amenity": "cafe", "cuisine": "sandwich;burger;coffee_shop;asian;fish_and_chips", "email": "admin@kopinteh.com.au", "name": "Kopi N Teh", "opening_hours": "Mo-Fr 06:00-16:00, Sa 08:00-14:00", "opening_hours:covid19": "same", "outdoor_seating": "yes", "phone": "+61431792773", "takeaway": "yes", "website": "http://kopinteh.com.au/"}}, {"type": "node", "id": 9036820091, "lat": -33.7323838, "lon": 151.0056194}, {"type": "node", "id": 9036820092, "lat": -33.732419, "lon": 151.0055584}, {"type": "node", "id": 9062338468, "lat": -33.6754177, "lon": 151.3070196, "tags": {"addr:housenumber": "50", "addr:street": "Darley Street", "amenity": "cafe", "name": "The Bite"}}, {"type": "node", "id": 9074996246, "lat": -33.6740243, "lon": 151.3042352, "tags": {"addr:housenumber": "101", "addr:street": "Darley Street", "amenity": "cafe", "name": "mama HAN's", "opening_hours": "Tu, We 08:00-19:00; Th, Fr 08:00-20:30; Sa 09:00-19:30; Su 08:00-19:00", "phone": "+61 2 7228 9280", "website": "www.mamahanskitchen.com"}}, {"type": "node", "id": 9198352516, "lat": -33.713638, "lon": 151.1468851, "tags": {"amenity": "cafe", "name": "Camper Tamper Cafe"}}, {"type": "node", "id": 9231714099, "lat": -33.7378404, "lon": 151.3027387, "tags": {"addr:housenumber": "1010", "addr:street": "Pittwater Road", "amenity": "cafe", "indoor_seating": "yes", "name": "Imperfect Nutritionist", "opening_hours": "Mo-Su 10:00-14:00", "outdoor_seating": "no"}}, {"type": "node", "id": 9251757977, "lat": -33.6884419, "lon": 151.1094154}, {"type": "node", "id": 9251757980, "lat": -33.68843, "lon": 151.1093303}, {"type": "node", "id": 9251757981, "lat": -33.688355, "lon": 151.1093455}, {"type": "node", "id": 9251757982, "lat": -33.6883669, "lon": 151.1094305}, {"type": "node", "id": 9390985496, "lat": -33.7335189, "lon": 151.3016149, "tags": {"addr:street": "Pittwater Road", "amenity": "cafe", "name": "Stay Grounded"}}, {"type": "node", "id": 9391010975, "lat": -33.7333016, "lon": 151.3015226, "tags": {"addr:housenumber": "1085-1087", "addr:street": "Pittwater Road", "amenity": "cafe", "name": "Taste Espresso"}}, {"type": "node", "id": 9391032578, "lat": -33.7175159, "lon": 151.1735894, "tags": {"amenity": "cafe", "description": "kitchen and cafe", "name": "Sana", "outdoor_seating": "yes", "takeaway": "yes"}}, {"type": "node", "id": 9464793131, "lat": -33.7013751, "lon": 151.3060679, "tags": {"amenity": "cafe", "name": "Nourished"}}, {"type": "node", "id": 9506799523, "lat": -33.5479221, "lon": 151.2262752, "tags": {"addr:housenumber": "1", "addr:postcode": "2083", "addr:state": "NSW", "addr:street": "Bridge Street", "addr:suburb": "Brooklyn", "addr:unit": "1", "amenity": "cafe", "cuisine": "coffee_shop", "name": "Brooklyn Corner", "opening_hours": "Day Time", "outdoor_seating": "yes"}}, {"type": "node", "id": 9513219501, "lat": -33.7558035, "lon": 151.1550051}, {"type": "node", "id": 9513219502, "lat": -33.7557392, "lon": 151.155221}, {"type": "node", "id": 9513219503, "lat": -33.7558066, "lon": 151.1552558}, {"type": "node", "id": 9513219504, "lat": -33.7558376, "lon": 151.1551603}, {"type": "node", "id": 9513219505, "lat": -33.7558557, "lon": 151.1551687}, {"type": "node", "id": 9513219508, "lat": -33.755796, "lon": 151.1550002}, {"type": "node", "id": 9513219509, "lat": -33.7558164, "lon": 151.1549657}, {"type": "node", "id": 9513219510, "lat": -33.755907, "lon": 151.1550331}, {"type": "node", "id": 9513219511, "lat": -33.7559209, "lon": 151.1550827}, {"type": "node", "id": 9513219512, "lat": -33.7559028, "lon": 151.155141}, {"type": "node", "id": 9513219513, "lat": -33.7558682, "lon": 151.1551271}, {"type": "node", "id": 9518240624, "lat": -33.6768853, "lon": 151.3033619, "tags": {"amenity": "cafe", "name": "Bare Wholefoods"}}, {"type": "node", "id": 9518303485, "lat": -33.6775428, "lon": 151.3036408, "tags": {"addr:street": "Pittwater Road", "amenity": "cafe", "name": "Golly Gosh!"}}, {"type": "node", "id": 9710457403, "lat": -33.7314458, "lon": 151.0071294}, {"type": "node", "id": 9710457404, "lat": -33.731474, "lon": 151.0071578}, {"type": "node", "id": 9710457405, "lat": -33.7315191, "lon": 151.0070932}, {"type": "node", "id": 9710457406, "lat": -33.7314909, "lon": 151.0070647}, {"type": "node", "id": 9710585004, "lat": -33.7364289, "lon": 151.031895}, {"type": "node", "id": 9710585005, "lat": -33.736472, "lon": 151.0319626}, {"type": "node", "id": 9710585006, "lat": -33.7365018, "lon": 151.0319351}, {"type": "node", "id": 9710585007, "lat": -33.7364588, "lon": 151.0318675}, {"type": "node", "id": 9750882734, "lat": -33.7024031, "lon": 151.0974667}, {"type": "node", "id": 9750882735, "lat": -33.7024119, "lon": 151.0975333}, {"type": "node", "id": 9750882736, "lat": -33.7024372, "lon": 151.0974146}, {"type": "node", "id": 9750882745, "lat": -33.7023665, "lon": 151.0973229}, {"type": "node", "id": 9765985477, "lat": -33.7026967, "lon": 151.0985896, "tags": {"amenity": "cafe", "level": "-1"}}, {"type": "node", "id": 9864952814, "lat": -33.7620453, "lon": 151.2146447, "tags": {"amenity": "cafe", "indoor_seating": "yes", "name": "Forrest Brunch Bar", "outdoor_seating": "yes"}}, {"type": "node", "id": 9864981784, "lat": -33.676338, "lon": 151.3051751, "tags": {"addr:street": "Park Street", "amenity": "cafe", "name": "The old civic"}}, {"type": "node", "id": 9864997562, "lat": -33.6762201, "lon": 151.304959, "tags": {"addr:street": "Park Street", "amenity": "cafe", "description": "Desert Bar", "name": "Tella balls"}}, {"type": "node", "id": 9894435563, "lat": -33.7037027, "lon": 151.1124447, "tags": {"amenity": "cafe", "check_date": "2022-07-18", "level": "0", "name": "fresh+"}}, {"type": "node", "id": 9894492581, "lat": -33.6765281, "lon": 151.1120891, "tags": {"amenity": "cafe", "check_date": "2022-07-18", "level": "0", "name": "Wooden Mills"}}, {"type": "node", "id": 9947155506, "lat": -33.6828264, "lon": 151.2279325, "tags": {"addr:housenumber": "1", "addr:postcode": "2084", "addr:state": "NSW", "addr:street": "Booralie Road", "addr:suburb": "Terrey Hills", "addr:unit": "6", "amenity": "cafe", "cuisine": "coffee_shop;sandwich;burger", "internet_access": "wlan", "internet_access:fee": "no", "name": "Expresso Sandwich Cafe", "opening_hours": "Mon-Fri 6AM-3PM Sat 7AM-3PM", "outdoor_seating": "yes", "phone": "+61 2 9450 0016", "website": "https://www.expressosandwichcafe.com.au/"}}, {"type": "node", "id": 9951573655, "lat": -33.7033618, "lon": 151.213235, "tags": {"amenity": "cafe", "level:ref": "2"}}, {"type": "node", "id": 9951573656, "lat": -33.7035621, "lon": 151.2133095, "tags": {"amenity": "cafe"}}, {"type": "node", "id": 9982864325, "lat": -33.7618682, "lon": 151.2144417, "tags": {"amenity": "cafe"}}, {"type": "node", "id": 9987228801, "lat": -33.7525737, "lon": 151.2848172, "tags": {"addr:housenumber": "30", "addr:street": "Fisher Road", "amenity": "cafe", "name": "Hideout"}}, {"type": "node", "id": 10014412176, "lat": -33.7366896, "lon": 151.1003484, "tags": {"addr:housenumber": "2-178", "addr:street": "Fox Valley Road", "amenity": "cafe", "name": "The Fox Cafe"}}, {"type": "node", "id": 10014412177, "lat": -33.7367607, "lon": 151.1003233, "tags": {"addr:housenumber": "178", "addr:street": "Fox Valley Road", "amenity": "cafe", "name": "Karoo & Co"}}, {"type": "node", "id": 10050601348, "lat": -33.7563952, "lon": 151.1537059, "tags": {"entrance": "main"}}, {"type": "node", "id": 10050601349, "lat": -33.7563733, "lon": 151.1537773, "tags": {"entrance": "main"}}, {"type": "node", "id": 10050601350, "lat": -33.7563506, "lon": 151.1538514, "tags": {"entrance": "main"}}, {"type": "node", "id": 10050601351, "lat": -33.7565863, "lon": 151.1537628}, {"type": "node", "id": 10050601352, "lat": -33.7564027, "lon": 151.1536813}, {"type": "node", "id": 10050601353, "lat": -33.7565662, "lon": 151.1538286}, {"type": "node", "id": 10050601354, "lat": -33.7563825, "lon": 151.1537472}, {"type": "node", "id": 10050601355, "lat": -33.7563643, "lon": 151.1538066}, {"type": "node", "id": 10050601356, "lat": -33.756548, "lon": 151.153888}, {"type": "node", "id": 10050601357, "lat": -33.7565283, "lon": 151.1539521}, {"type": "node", "id": 10050601358, "lat": -33.7563447, "lon": 151.1538707}, {"type": "node", "id": 10050601359, "lat": -33.7560298, "lon": 151.1538838}, {"type": "node", "id": 10050601360, "lat": -33.7561595, "lon": 151.1538465}, {"type": "node", "id": 10268709193, "lat": -33.7678725, "lon": 151.2735547, "tags": {"amenity": "cafe", "cuisine": "fast_food,cafe", "name": "Boomerang Caf\u00e9", "opening_hours": "Mo-Fr 05:00-15:00; Sa 06:00-14:00", "outdoor_seating": "yes", "takeaway": "yes"}}, {"type": "node", "id": 10268709647, "lat": -33.7675751, "lon": 151.2738829, "tags": {"amenity": "cafe", "name": "Roasted Empire"}}, {"type": "node", "id": 10290501658, "lat": -33.7674204, "lon": 151.1877401, "tags": {"addr:unit": "13-15", "amenity": "cafe", "old_name": "Deli in the Park"}}, {"type": "node", "id": 10547800293, "lat": -33.7329907, "lon": 151.3014299, "tags": {"amenity": "cafe", "indoor_seating": "yes", "name": "Chillax & Alimento", "outdoor_seating": "yes"}}, {"type": "node", "id": 10590375876, "lat": -33.7445839, "lon": 151.2939626, "tags": {"addr:street": "South Creek Road", "amenity": "cafe", "name": "21 grams"}}, {"type": "node", "id": 10713244403, "lat": -33.7321887, "lon": 151.3009457, "tags": {"amenity": "cafe", "name": "Collaroy Bakehouse"}}, {"type": "node", "id": 10713244942, "lat": -33.7319032, "lon": 151.3013603, "tags": {"amenity": "cafe", "name": "Sloppy Tee's"}}, {"type": "node", "id": 10824241141, "lat": -33.7563045, "lon": 151.1532664, "tags": {"amenity": "cafe", "cuisine": "bubble_tea"}}, {"type": "way", "id": 23690747, "nodes": [256535971, 256535972, 256535973, 256535971], "tags": {"addr:housenumber": "26", "addr:postcode": "2077", "addr:state": "NSW", "addr:street": "Leighton Place", "addr:suburb": "Hornsby", "addr:unit": "7", "alt_name": "Leighton Place Cafe", "amenity": "cafe", "building": "yes", "cuisine": "sandwich;asian;burger", "name": "Leighton Place Caf\u00e9", "old_name": "Spice Place Cafe and Eatery", "outdoor_seating": "yes", "phone": "+61 2 8407 9992"}}, {"type": "way", "id": 175607321, "nodes": [1861715867, 1861715884, 4373866342, 4373866343, 1861715831, 1861715829, 1861715851, 1861715867], "tags": {"addr:housenumber": "4", "addr:postcode": "2081", "addr:state": "NSW", "addr:street": "Berowra Waters Road", "addr:suburb": "Berowra", "amenity": "cafe", "building": "retail", "cuisine": "coffee_shop", "name": "Wise Monkey Cafe", "old_name": "Wellspring Expresso", "website": "https://bopple.app/wise-monkey-cafe-berowra"}}, {"type": "way", "id": 176022418, "nodes": [1865838679, 1865838686, 1865838692, 1865838689, 1865838679], "tags": {"amenity": "cafe", "building": "commercial", "name": "Galley Foods Eatery"}}, {"type": "way", "id": 282626330, "nodes": [2865680122, 2865680124, 9750882734, 9750882735, 2865680122], "tags": {"addr:city": "Hornsby", "addr:housenumber": "14", "addr:postcode": "2077", "addr:street": "Corination", "amenity": "cafe", "building": "retail", "building:levels": "2", "name": "Bee's Knees Cafe"}}, {"type": "way", "id": 282626332, "nodes": [2865680126, 2865680128, 9750882745, 2865680129, 9750882736, 2865680127, 2865680126], "tags": {"addr:city": "Hornsby", "addr:housenumber": "10", "addr:postcode": "2077", "addr:street": "Corination", "amenity": "cafe", "building": "retail", "building:levels": "2", "cuisine": "coffee_shop", "internet_access": "no", "name": "Refinery Espresso", "opening_hours": "Mo-Fr 05:30-16:00; Sa 06:00-14:00", "smoking": "outside", "website": "https://refineryespresso.wordpress.com/"}}, {"type": "way", "id": 282627512, "nodes": [2865694184, 2865680144, 2865680145, 2865680133, 2865694184], "tags": {"addr:city": "Hornsby", "addr:housenumber": "286A", "addr:postcode": "2077", "addr:street": "Pacific Highway", "amenity": "cafe", "building": "retail", "building:levels": "2", "name": "Brewhaha Cafe", "website": "https://www.brewhaha.com.au/"}}, {"type": "way", "id": 291435047, "nodes": [2949066023, 2949066015, 2949066013, 2949066020, 2949066023], "tags": {"amenity": "cafe", "building": "yes", "name": "Zappis Pizzia Cafe'", "source": "bing + survey", "wheelchair": "limited"}}, {"type": "way", "id": 366747841, "nodes": [3707311664, 3707311665, 3707311666, 3707311667, 3707311664], "tags": {"addr:city": "Dee Why", "addr:postcode": "2099", "addr:street": "Monash Parade", "amenity": "cafe", "building": "yes", "name": "The Beach Shed Cafe", "opening_hours": "Mo-Sa 06:30-17:00; Su 07:00-17:00", "phone": "+61 2 9972 1790"}}, {"type": "way", "id": 435411289, "nodes": [4333271928, 4333271932, 4333271940, 4333271939, 4333271934, 4333271928], "tags": {"amenity": "cafe", "name": "Waitara Cafe"}}, {"type": "way", "id": 573020977, "nodes": [5504662606, 5504662607, 5504662608, 5504662609, 5504662610, 5504662611, 5504662606], "tags": {"amenity": "cafe", "building": "yes", "cuisine": "burger", "name": "Sugar Salt", "outdoor_seating": "yes"}}, {"type": "way", "id": 766572628, "nodes": [7159571290, 7159571291, 7159571292, 7159571293, 7159571290], "tags": {"addr:housenumber": "6135", "addr:street": "Wisemans Ferry Road", "amenity": "cafe", "bar": "yes", "building": "yes", "contact:facebook": "https://www.facebook.com/pg/wombatcafensw/", "cuisine": "pizza;bakery;burger", "name": "Wombat Cafe"}}, {"type": "way", "id": 778435580, "nodes": [7265242193, 7265242194, 7265242195, 7265242196, 7265242193], "tags": {"amenity": "cafe", "building": "yes", "name": "Coffee Lane"}}, {"type": "way", "id": 778435581, "nodes": [7265242197, 7265242198, 7265242199, 7265242200, 7265242197], "tags": {"amenity": "cafe", "building": "yes", "name": "Bella Dolce Cafe"}}, {"type": "way", "id": 849100865, "nodes": [7922093360, 7922093361, 7922093362, 7922093363, 7922093360], "tags": {"amenity": "cafe", "building": "yes"}}, {"type": "way", "id": 903656112, "nodes": [8392810965, 8392810966, 8392810967, 8392810968, 8392810969, 8392810970, 8392811113, 8392811114, 8392810965], "tags": {"amenity": "cafe", "building": "yes", "name": "Cafe Botanica"}}, {"type": "way", "id": 974935038, "nodes": [9022292926, 9022292928, 9022292930, 9022292929, 9022292927, 9022292926], "tags": {"addr:housenumber": "12", "addr:postcode": "2074", "addr:state": "NSW", "addr:street": "Princes Street", "addr:suburb": "Turramurra", "amenity": "cafe", "building": "yes", "cuisine": "deli", "name": "Champ & Chief"}}, {"type": "way", "id": 975640635, "nodes": [9028584955, 9028584956, 9028584960, 9028584957, 9036820091, 9036820092, 9028584955], "tags": {"amenity": "cafe", "brand": "Gong Cha", "brand:wikidata": "Q5581670", "brand:wikipedia": "en:Gong Cha", "brand:zh": "\u8ca2\u8336", "building": "yes", "cuisine": "bubble_tea", "int_name": "Gong Cha", "name": "Gong Cha", "name:zh": "\u8ca2\u8336", "takeaway": "yes"}}, {"type": "way", "id": 1002455536, "nodes": [9251757980, 8536466063, 9251757981, 9251757982, 9251757977, 9251757980], "tags": {"addr:housenumber": "3", "addr:street": "Haldane Street", "addr:unit": "1", "amenity": "cafe", "building": "yes", "name": "Cafe Un_named"}}, {"type": "way", "id": 1032501298, "nodes": [9513219503, 9513219502, 9513219501, 9513219508, 9513219509, 9513219510, 9513219511, 9513219512, 9513219513, 9513219505, 9513219504, 9513219503], "tags": {"addr:housenumber": "77", "addr:postcode": "2072", "addr:state": "NSW", "addr:street": "Werona Avenue", "addr:suburb": "Gordon", "air_conditioning": "yes", "amenity": "cafe", "building": "retail", "building:levels": "1", "indoor_seating": "yes", "layer": "1", "name": "The Wyatt", "opening_hours": "Mo-Fr 06:00-15:00; Sa,Su 07:30-15:00", "outdoor_seating": "yes", "phone": "+61 02 9489 8020", "website": "https://www.thewyatt.com.au/"}}, {"type": "way", "id": 1056783358, "nodes": [9710457403, 9710457404, 9710457405, 9710457406, 9710457403], "tags": {"amenity": "cafe", "area": "yes", "building": "yes", "cuisine": "coffee_shop", "name": "Baked Barista"}}, {"type": "way", "id": 1056794121, "nodes": [9710585004, 9710585005, 9710585006, 9710585007, 9710585004], "tags": {"amenity": "cafe", "area": "yes", "building": "yes", "layer": "1"}}, {"type": "way", "id": 1097657550, "nodes": [10050601354, 10050601348, 10050601352, 10050601351, 10050601353, 10050601354], "tags": {"air_conditioning": "yes", "amenity": "cafe", "building": "retail", "building:levels": "1", "charge:american_express": "2.5%", "charge:conditional": "10% @ (Su); 15% @ (PH)", "charge:credit_cards": "1%", "cuisine": "korean", "drink:coffee": "yes", "indoor_seating": "yes", "name": "Missing Spoon", "opening_hours": "We-Fr 11:00-20:30; Sa 08:00-20:30; Su 08:00-16:00; Mo,Tu off", "outdoor_seating": "yes", "payment:american_express": "yes", "wheelchair": "yes"}}, {"type": "way", "id": 1097657551, "nodes": [10050601354, 10050601353, 10050601356, 10050601355, 10050601349, 10050601354], "tags": {"amenity": "cafe", "building": "retail", "cuisine": "frozen_yogurt", "name": "Praus Yogurt & Dessert Cafe", "opening_hours": "Mo-Fr 12:00-21:00; Sa,Su 11:00-21:00"}}, {"type": "way", "id": 1097657552, "nodes": [10050601358, 10050601357, 10050601356, 10050601355, 10050601350, 10050601358], "tags": {"addr:housenumber": "4", "addr:street": "St Johns Avenue", "amenity": "cafe", "building": "retail", "check_date": "2023-03-28", "cuisine": "thai;vietnamese", "drink:coffee": "yes", "indoor_seating": "yes", "name": "Pottery Green Bakers", "opening_hours": "06:00 - 16:00", "opening_hours:kitchen": "-15:00", "payment:mastercard": "yes", "payment:visa": "yes", "phone": "+61 2 9499 8799", "website": "https://potterygreenbakers.com/", "wheelchair": "yes"}}, {"type": "way", "id": 1097657553, "nodes": [10050601360, 5583351293, 10050601359, 5583421536, 10050601360], "tags": {"amenity": "cafe", "check_date": "2023-03-28", "level": "0", "name": "Pure Brew", "payment:mastercard": "yes", "payment:visa": "yes", "wheelchair": "yes"}}]}