{"version": 0.6, "generator": "Overpass API 0.7.60 f4c14d41", "osm3s": {"timestamp_osm_base": "2023-05-02T21:17:24Z", "copyright": "The data included in this document is from www.openstreetmap.org. The data is made available under ODbL."}, "elements": [{"type": "node", "id": 447802436, "lat": -34.0539764, "lon": 150.6978983, "tags": {"amenity": "restaurant", "cuisine": "thai", "name": "Fan Thai", "source": "survey"}}, {"type": "node", "id": 448631299, "lat": -33.872789, "lon": 150.9577126, "tags": {"amenity": "restaurant"}}, {"type": "node", "id": 520716156, "lat": -33.9485087, "lon": 150.9547187, "tags": {"amenity": "restaurant", "name": "Kam Ying Chinese Restaurant"}}, {"type": "node", "id": 600744652, "lat": -33.7666975, "lon": 150.6216533, "tags": {"amenity": "restaurant", "name": "Star of India"}}, {"type": "node", "id": 600745433, "lat": -33.7674177, "lon": 150.6215574, "tags": {"addr:city": "Glenbrook", "addr:housenumber": "19", "addr:postcode": "2773", "addr:street": "Ross Street", "amenity": "restaurant", "name": "2773 Caf\u00e9", "website": "http://www.2773glenbrook.com.au"}}, {"type": "node", "id": 716524165, "lat": -33.7847382, "lon": 150.8997164, "tags": {"amenity": "restaurant", "brand": "Pizza Hut", "brand:wikidata": "Q191615", "brand:wikipedia": "en:Pizza Hut", "cuisine": "pizza", "name": "Pizza Hut"}}, {"type": "node", "id": 1304841544, "lat": -33.7847918, "lon": 150.8997071, "tags": {"addr:housenumber": "90", "addr:postcode": "2148", "addr:street": "Reservoir Road", "amenity": "restaurant", "cuisine": "indian;thai", "name": "flavours Indian Cuisine", "opening_hours": "Mo-Su 11:00-22:00", "phone": "+61 2 8632 0414"}}, {"type": "node", "id": 1304841546, "lat": -33.7845465, "lon": 150.8997313, "tags": {"amenity": "restaurant", "cuisine": "chinese", "name": "New Wan Wah"}}, {"type": "node", "id": 1481002934, "lat": -33.7692708, "lon": 150.7692892, "tags": {"amenity": "restaurant", "brand": "Hog's Breath Cafe", "brand:wikidata": "Q5876920", "brand:wikipedia": "en:Hog's Breath Cafe", "cuisine": "steak_house", "name": "Hog's Breath Cafe"}}, {"type": "node", "id": 1615466097, "lat": -34.0495915, "lon": 150.8256327, "tags": {"addr:housenumber": "3", "addr:street": "Harbord Road", "amenity": "restaurant", "brand": "Sizzler", "brand:wikidata": "Q1848822", "brand:wikipedia": "en:Sizzler", "cuisine": "steak_house", "name": "Sizzler"}}, {"type": "node", "id": 1615467193, "lat": -34.0504171, "lon": 150.8285603, "tags": {"amenity": "restaurant", "brand": "Outback Steakhouse", "brand:wikidata": "Q1064893", "brand:wikipedia": "en:Outback Steakhouse", "cuisine": "american;steak", "name": "Outback Steakhouse"}}, {"type": "node", "id": 1616363482, "lat": -34.0480306, "lon": 150.8274028, "tags": {"amenity": "restaurant", "indoor_seating": "yes", "name": "Lone Star Ribhouse and Brews", "outdoor_seating": "yes", "smoking": "no"}}, {"type": "node", "id": 1639772733, "lat": -33.8160545, "lon": 150.9705604}, {"type": "node", "id": 1639772735, "lat": -33.8163575, "lon": 150.9704374}, {"type": "node", "id": 1639772752, "lat": -33.8164055, "lon": 150.9706593}, {"type": "node", "id": 1639772758, "lat": -33.8161057, "lon": 150.9707973}, {"type": "node", "id": 1711173640, "lat": -33.9484836, "lon": 150.9536297, "tags": {"amenity": "restaurant", "cuisine": "regional", "name": "Skewers Lebanese Restaurant", "restaurant": "yes"}}, {"type": "node", "id": 1716251751, "lat": -33.8071733, "lon": 150.9697656, "tags": {"amenity": "restaurant", "name": "Top Thai"}}, {"type": "node", "id": 1716257958, "lat": -33.8125014, "lon": 150.9629903, "tags": {"addr:housename": "Wenty Leagues Club", "addr:street": "Smith Street", "amenity": "restaurant", "cuisine": "chinese", "name": "Wenty Leagues Club"}}, {"type": "node", "id": 1716302594, "lat": -33.817979, "lon": 150.9331372, "tags": {"amenity": "restaurant", "cuisine": "italian", "name": "Vulcano"}}, {"type": "node", "id": 1716341367, "lat": -33.8125206, "lon": 150.9626634, "tags": {"amenity": "restaurant", "cuisine": "italian", "name": "Wenty Leagues Club"}}, {"type": "node", "id": 1841109643, "lat": -33.9901297, "lon": 150.8831711, "tags": {"amenity": "restaurant", "cuisine": "pizza", "name": "The Pizza Box", "source": "survey"}}, {"type": "node", "id": 1861427822, "lat": -33.7692246, "lon": 150.6754, "tags": {"amenity": "restaurant", "brand": "Hooters", "brand:wikidata": "Q1025921", "brand:wikipedia": "en:Hooters", "cuisine": "burger", "name": "Hooters"}}, {"type": "node", "id": 1878737061, "lat": -33.7692288, "lon": 150.7734388, "tags": {"addr:city": "St Marys", "addr:housenumber": "235", "addr:postcode": "2760", "addr:street": "Queen Street", "amenity": "restaurant", "cuisine": "chinese", "name": "Silver Palace Restaurant"}}, {"type": "node", "id": 2131829709, "lat": -33.8957195, "lon": 150.9359925, "tags": {"addr:housenumber": "227", "addr:postcode": "2166", "addr:street": "Cabramatta Road West", "amenity": "restaurant", "branch": "Cabramatta", "brand": "Loving Hut", "brand:wikidata": "Q3491655", "contact:phone": "+61 2 9755 4410", "contact:website": "http://www.lovinghutcabramatta.com.au/", "cuisine": "international", "diet:vegan": "only", "name": "Loving Hut"}}, {"type": "node", "id": 2131829717, "lat": -33.8982219, "lon": 150.9496181, "tags": {"amenity": "restaurant", "cuisine": "american", "name": "Diner"}}, {"type": "node", "id": 2131829731, "lat": -33.8934575, "lon": 150.9374409, "tags": {"amenity": "restaurant", "wheelchair": "no"}}, {"type": "node", "id": 2138678427, "lat": -33.7789416, "lon": 150.9139809, "tags": {"amenity": "restaurant", "cuisine": "indian", "note": "done from memory", "source": "local_knowledge"}}, {"type": "node", "id": 2364046768, "lat": -33.8696895, "lon": 150.970409, "tags": {"addr:street": "Fairfield Street", "amenity": "restaurant", "cuisine": "regional", "name": "Australia Restaurant"}}, {"type": "node", "id": 2472085437, "lat": -33.7694279, "lon": 150.6770533, "tags": {"amenity": "restaurant", "cuisine": "pizza", "name": "Rashay's Pizza \u2022 Pasta \u2022 Grill", "source": "survey"}}, {"type": "node", "id": 2532048906, "lat": -33.8948664, "lon": 150.9338888}, {"type": "node", "id": 2532048907, "lat": -33.8948483, "lon": 150.9337662}, {"type": "node", "id": 2532048908, "lat": -33.8948664, "lon": 150.9337326}, {"type": "node", "id": 2532048910, "lat": -33.8951782, "lon": 150.9336654}, {"type": "node", "id": 2532048911, "lat": -33.8951995, "lon": 150.9338216}, {"type": "node", "id": 2532048913, "lat": -33.8951125, "lon": 150.9338394}, {"type": "node", "id": 2532053145, "lat": -33.8951357, "lon": 150.9340054}, {"type": "node", "id": 2532053147, "lat": -33.8948886, "lon": 150.9340558}, {"type": "node", "id": 2532059155, "lat": -33.8951546, "lon": 150.9341494}, {"type": "node", "id": 2532059157, "lat": -33.8949085, "lon": 150.9341998}, {"type": "node", "id": 2532069060, "lat": -33.8952077, "lon": 150.9343281}, {"type": "node", "id": 2532069063, "lat": -33.8949347, "lon": 150.9343833}, {"type": "node", "id": 2532072890, "lat": -33.8952545, "lon": 150.934657}, {"type": "node", "id": 2532072891, "lat": -33.8951948, "lon": 150.9346678}, {"type": "node", "id": 2532072892, "lat": -33.8949795, "lon": 150.9347098}, {"type": "node", "id": 2533474665, "lat": -33.8954755, "lon": 150.9362787}, {"type": "node", "id": 2533474667, "lat": -33.8952075, "lon": 150.9363351}, {"type": "node", "id": 2533475404, "lat": -33.8954834, "lon": 150.9363399}, {"type": "node", "id": 2533475405, "lat": -33.8952174, "lon": 150.9363963}, {"type": "node", "id": 2533476090, "lat": -33.8954291, "lon": 150.9363514}, {"type": "node", "id": 2534826380, "lat": -33.8943015, "lon": 150.933851}, {"type": "node", "id": 2534826381, "lat": -33.8943674, "lon": 150.9338366}, {"type": "node", "id": 2534826382, "lat": -33.8943975, "lon": 150.9340395}, {"type": "node", "id": 2534826383, "lat": -33.8943309, "lon": 150.934054}, {"type": "node", "id": 2534828043, "lat": -33.8944322, "lon": 150.9338227}, {"type": "node", "id": 2534828046, "lat": -33.8944624, "lon": 150.9340255}, {"type": "node", "id": 2537720933, "lat": -33.8954462, "lon": 150.9394211}, {"type": "node", "id": 2537720934, "lat": -33.8956118, "lon": 150.9393933}, {"type": "node", "id": 2537720935, "lat": -33.8956166, "lon": 150.939445}, {"type": "node", "id": 2537720936, "lat": -33.8954396, "lon": 150.9394751}, {"type": "node", "id": 2541243603, "lat": -33.893822, "lon": 150.9381798}, {"type": "node", "id": 2541243605, "lat": -33.8941116, "lon": 150.9381211}, {"type": "node", "id": 2550408932, "lat": -33.8937941, "lon": 150.9379804}, {"type": "node", "id": 2550408933, "lat": -33.8938918, "lon": 150.9379606}, {"type": "node", "id": 2550408934, "lat": -33.8938872, "lon": 150.9379277}, {"type": "node", "id": 2550408935, "lat": -33.8939764, "lon": 150.9379097}, {"type": "node", "id": 2550408936, "lat": -33.893981, "lon": 150.9379428}, {"type": "node", "id": 2550408937, "lat": -33.8940838, "lon": 150.937922}, {"type": "node", "id": 2550410209, "lat": -33.8942071, "lon": 150.9377661}, {"type": "node", "id": 2550410210, "lat": -33.8944593, "lon": 150.9377126}, {"type": "node", "id": 2550410211, "lat": -33.8944613, "lon": 150.9377834}, {"type": "node", "id": 2550410212, "lat": -33.8942172, "lon": 150.9378352}, {"type": "node", "id": 2787157430, "lat": -33.9146244, "lon": 150.8897673, "tags": {"amenity": "restaurant", "cuisine": "pizza", "name": "Nada's Pizzeria"}}, {"type": "node", "id": 2814671737, "lat": -33.8459057, "lon": 150.9004918, "tags": {"addr:street": "Victoria Street", "amenity": "restaurant", "name": "Desideria Pizzeria", "source": "survey"}}, {"type": "node", "id": 3136514872, "lat": -33.9402509, "lon": 150.9119811, "tags": {"amenity": "restaurant", "cuisine": "pizza", "name": "Little Caesars", "wheelchair": "yes"}}, {"type": "node", "id": 3136514874, "lat": -33.9350055, "lon": 150.9152177, "tags": {"amenity": "restaurant", "cuisine": "pizza", "name": "Domino's Pizza", "website": "https://www.dominos.com.au/"}}, {"type": "node", "id": 3722532084, "lat": -33.8227617, "lon": 150.9278621, "tags": {"amenity": "restaurant", "cuisine": "italian", "name": "Granata's Pemulwuy", "opening_hours": "Mo 07:00-15:00; Tu-Fr 07:00+; Sa-Su 08:00+", "phone": "+61 2 9688 2278", "website": "https://www.granatas.com.au/"}}, {"type": "node", "id": 3912399275, "lat": -34.0078332, "lon": 150.8694251}, {"type": "node", "id": 3912399276, "lat": -34.0077843, "lon": 150.8688202}, {"type": "node", "id": 3912399278, "lat": -34.0074508, "lon": 150.8692561}, {"type": "node", "id": 3912399283, "lat": -34.0075664, "lon": 150.8692856}, {"type": "node", "id": 3912399286, "lat": -34.0074564, "lon": 150.8692199}, {"type": "node", "id": 3912399289, "lat": -34.0080889, "lon": 150.8689445}, {"type": "node", "id": 3912399292, "lat": -34.0081644, "lon": 150.8693188}, {"type": "node", "id": 3912399293, "lat": -34.0080289, "lon": 150.8694733}, {"type": "node", "id": 3912399294, "lat": -34.0074841, "lon": 150.8690603}, {"type": "node", "id": 3912399295, "lat": -34.0081477, "lon": 150.8689981}, {"type": "node", "id": 3912399298, "lat": -34.0082179, "lon": 150.8690321}, {"type": "node", "id": 3912399301, "lat": -34.0077298, "lon": 150.8694676}, {"type": "node", "id": 3912399302, "lat": -34.0075809, "lon": 150.8690375}, {"type": "node", "id": 3912399306, "lat": -34.0077476, "lon": 150.8693835}, {"type": "node", "id": 3912399312, "lat": -34.0078177, "lon": 150.8694975}, {"type": "node", "id": 3912399313, "lat": -34.0074108, "lon": 150.8692024}, {"type": "node", "id": 3912399314, "lat": -34.0074941, "lon": 150.8690147}, {"type": "node", "id": 3912399318, "lat": -34.0077687, "lon": 150.868898}, {"type": "node", "id": 3912399324, "lat": -34.0077265, "lon": 150.8688926}, {"type": "node", "id": 3912399325, "lat": -34.0081045, "lon": 150.8689879}, {"type": "node", "id": 3912399331, "lat": -34.007433, "lon": 150.8690509}, {"type": "node", "id": 3912399332, "lat": -34.0075586, "lon": 150.8693415}, {"type": "node", "id": 3912399334, "lat": -34.0080989, "lon": 150.8689061}, {"type": "node", "id": 3912399337, "lat": -34.0076053, "lon": 150.8689114}, {"type": "node", "id": 3912399343, "lat": -34.0077209, "lon": 150.8689396}, {"type": "node", "id": 3912399346, "lat": -34.0081123, "lon": 150.8689526}, {"type": "node", "id": 4092059795, "lat": -34.0198719, "lon": 150.7424422, "tags": {"amenity": "restaurant", "cuisine": "bar and grill", "name": "Harrington's Bar and Grill"}}, {"type": "node", "id": 4163304993, "lat": -33.9552389, "lon": 150.9445016}, {"type": "node", "id": 4163304994, "lat": -33.9552098, "lon": 150.9444771}, {"type": "node", "id": 4163304995, "lat": -33.9552573, "lon": 150.9444105}, {"type": "node", "id": 4163304996, "lat": -33.9552834, "lon": 150.9444315}, {"type": "node", "id": 4166703099, "lat": -33.9227934, "lon": 150.8486531, "tags": {"amenity": "restaurant", "brand": "Pizza Hut", "brand:wikidata": "Q191615", "brand:wikipedia": "en:Pizza Hut", "cuisine": "pizza", "name": "Pizza Hut", "website": "https://www.pizzahut.com.au/"}}, {"type": "node", "id": 4242358913, "lat": -33.7708938, "lon": 150.9085569, "tags": {"amenity": "restaurant", "name": "El Jannah"}}, {"type": "node", "id": 4305459191, "lat": -34.0393938, "lon": 150.7424301}, {"type": "node", "id": 4305459192, "lat": -34.0394612, "lon": 150.7427147}, {"type": "node", "id": 4305459193, "lat": -34.0396195, "lon": 150.7423387}, {"type": "node", "id": 4305459194, "lat": -34.0394024, "lon": 150.7424664}, {"type": "node", "id": 4305459198, "lat": -34.0396919, "lon": 150.7426293}, {"type": "node", "id": 4398456024, "lat": -33.8895135, "lon": 150.967405}, {"type": "node", "id": 4398456025, "lat": -33.8891647, "lon": 150.9674729}, {"type": "node", "id": 4398456029, "lat": -33.8893088, "lon": 150.967664}, {"type": "node", "id": 4398456030, "lat": -33.8893487, "lon": 150.9672372}, {"type": "node", "id": 4420287029, "lat": -33.8504298, "lon": 150.8988049}, {"type": "node", "id": 4420287036, "lat": -33.8504465, "lon": 150.8989454}, {"type": "node", "id": 4420287043, "lat": -33.8506315, "lon": 150.8989136}, {"type": "node", "id": 4420287051, "lat": -33.8506148, "lon": 150.898773}, {"type": "node", "id": 4465678608, "lat": -33.9911402, "lon": 150.8838609, "tags": {"addr:city": "Macquarie Fields", "addr:housenumber": "71", "addr:postcode": "2564", "addr:street": "Saywell Road", "amenity": "restaurant", "cuisine": "thai", "name": "Betong", "smoking": "no", "takeaway": "yes"}}, {"type": "node", "id": 4465678613, "lat": -33.9912197, "lon": 150.8839536, "tags": {"amenity": "restaurant", "cuisine": "indian"}}, {"type": "node", "id": 4465678616, "lat": -33.9908725, "lon": 150.8834507, "tags": {"amenity": "restaurant", "cuisine": "pizza", "delivery": "yes", "takeaway": "yes"}}, {"type": "node", "id": 4546100990, "lat": -33.9268932, "lon": 150.8969651, "tags": {"amenity": "restaurant", "brand": "Pizza Hut", "brand:wikidata": "Q191615", "brand:wikipedia": "en:Pizza Hut", "cuisine": "pizza", "name": "Pizza Hut", "name:en": "Pizza Hut", "website": "https://www.pizzahut.com.au/"}}, {"type": "node", "id": 4546122489, "lat": -33.9260572, "lon": 150.9207346, "tags": {"amenity": "restaurant", "name": "Thai Me", "name:en": "Thai Me"}}, {"type": "node", "id": 4546260406, "lat": -33.9203722, "lon": 150.9243573, "tags": {"amenity": "restaurant", "name": "Mizuki Sushi", "name:en": "Mizuki Sushi"}}, {"type": "node", "id": 4546260407, "lat": -33.9204386, "lon": 150.924894, "tags": {"amenity": "restaurant", "name": "EnThaicement", "name:en": "EnThaicement"}}, {"type": "node", "id": 4546290995, "lat": -33.919978, "lon": 150.9237772, "tags": {"amenity": "restaurant", "brand": "Nando's", "brand:wikidata": "Q3472954", "brand:wikipedia": "en:Nando's", "cuisine": "chicken;portuguese", "name": "Nando's", "name:en": "Nando's"}}, {"type": "node", "id": 4546297501, "lat": -33.9032635, "lon": 150.9429365, "tags": {"amenity": "restaurant", "name": "The Warwick", "name:en": "The Warwick"}}, {"type": "node", "id": 4546297504, "lat": -33.9199766, "lon": 150.9239585, "tags": {"amenity": "restaurant", "name": "Sushi Bay", "name:en": "Sushi Bay"}}, {"type": "node", "id": 4546297505, "lat": -33.9198646, "lon": 150.9240816, "tags": {"amenity": "restaurant", "name": "Burgers on Broadway", "name:en": "Burgers on Broadway"}}, {"type": "node", "id": 4546297508, "lat": -33.9204084, "lon": 150.9246368, "tags": {"amenity": "restaurant", "name": "Sri Annapoorna", "name:en": "Sri Annapoorna"}}, {"type": "node", "id": 4546297594, "lat": -33.9082101, "lon": 150.9396512, "tags": {"amenity": "restaurant", "name": "Madera", "name:en": "Madera"}}, {"type": "node", "id": 4546297602, "lat": -33.9216629, "lon": 150.9239577, "tags": {"amenity": "restaurant", "name": "Carpe Diem", "name:en": "Carpe Diem"}}, {"type": "node", "id": 4546298890, "lat": -33.9092118, "lon": 150.9400421, "tags": {"amenity": "restaurant", "name": "Lone Star", "name:en": "Lone Star"}}, {"type": "node", "id": 4546298899, "lat": -33.921792, "lon": 150.9236621, "tags": {"amenity": "restaurant", "cuisine": "vietnamese", "name": "Huong Xua", "name:en": "Huong Xua"}}, {"type": "node", "id": 4547796911, "lat": -33.8649758, "lon": 150.8803491, "tags": {"amenity": "restaurant", "name": "Crystal Jade", "name:en": "Crystal Jade"}}, {"type": "node", "id": 4547808290, "lat": -33.9273779, "lon": 150.9088484, "tags": {"amenity": "restaurant", "name": "Aquacotta", "name:en": "Aquacotta"}}, {"type": "node", "id": 4547815498, "lat": -33.8646059, "lon": 150.8801692, "tags": {"amenity": "restaurant", "name": "The Piazza", "name:en": "The Piazza"}}, {"type": "node", "id": 4547815500, "lat": -33.8648643, "lon": 150.8795893, "tags": {"amenity": "restaurant", "name": "Star Buffet", "name:en": "Star Buffet"}}, {"type": "node", "id": 4547827598, "lat": -33.8648234, "lon": 150.8797179, "tags": {"amenity": "restaurant", "name": "Cucina Galileo", "name:en": "Cucina Galileo"}}, {"type": "node", "id": 4630770865, "lat": -33.8399862, "lon": 150.6495951, "tags": {"amenity": "restaurant", "cuisine": "thai", "name": "Asia"}}, {"type": "node", "id": 4750628255, "lat": -34.0077369, "lon": 150.8694338}, {"type": "node", "id": 4998842923, "lat": -33.8946113, "lon": 150.939525, "tags": {"amenity": "restaurant"}}, {"type": "node", "id": 5184992456, "lat": -33.7999558, "lon": 150.9447812, "tags": {"amenity": "restaurant", "name": "Canteen"}}, {"type": "node", "id": 5292864699, "lat": -33.8839625, "lon": 150.9273384, "tags": {"addr:housenumber": "209", "addr:street": "Canley Vale Road", "amenity": "restaurant", "cuisine": "seafood", "name": "Kickin'Inn"}}, {"type": "node", "id": 5292864700, "lat": -33.8837938, "lon": 150.9267077, "tags": {"addr:city": "Canley Heights", "addr:housenumber": "233A", "addr:postcode": "2166", "addr:province": "NSW", "addr:street": "Canley Vale Road", "amenity": "restaurant", "name": "Crystal Palace Function Centre"}}, {"type": "node", "id": 5298897294, "lat": -33.8836158, "lon": 150.9250327, "tags": {"addr:housenumber": "233a", "addr:street": "Canley Vale Road", "amenity": "restaurant", "cuisine": "thai;laos", "name": "Holy Basil", "phone": "+61 2 9727 7585", "website": "http://www.holybasil.com.au/"}}, {"type": "node", "id": 5416281057, "lat": -33.794752, "lon": 150.9342219, "tags": {"amenity": "restaurant", "name": "Claudia Road Cafe"}}, {"type": "node", "id": 5416281059, "lat": -33.7947772, "lon": 150.9343094, "tags": {"addr:street": "Claudia Road", "amenity": "restaurant", "name": "The Pizza Pasta Kitchen"}}, {"type": "node", "id": 5423580838, "lat": -33.8570806, "lon": 150.9003191, "tags": {"amenity": "restaurant"}}, {"type": "node", "id": 5539767996, "lat": -33.8955831, "lon": 150.9543496}, {"type": "node", "id": 5539767997, "lat": -33.8957667, "lon": 150.9542743}, {"type": "node", "id": 5539767998, "lat": -33.8958383, "lon": 150.9545275}, {"type": "node", "id": 5539767999, "lat": -33.8957227, "lon": 150.9545749}, {"type": "node", "id": 5539768000, "lat": -33.8957003, "lon": 150.954496}, {"type": "node", "id": 5539768001, "lat": -33.8956636, "lon": 150.9544718}, {"type": "node", "id": 5539768002, "lat": -33.8956224, "lon": 150.9544887}, {"type": "node", "id": 5541416308, "lat": -33.8957315, "lon": 150.9545713}, {"type": "node", "id": 5541416309, "lat": -33.8956144, "lon": 150.9544605}, {"type": "node", "id": 5547828539, "lat": -33.894645, "lon": 150.9559293, "tags": {"amenity": "restaurant", "cuisine": "italian", "name": "Milano"}}, {"type": "node", "id": 5769287682, "lat": -33.8849732, "lon": 150.960942}, {"type": "node", "id": 5769287686, "lat": -33.8849324, "lon": 150.9609926}, {"type": "node", "id": 5769287687, "lat": -33.8850519, "lon": 150.9610345}, {"type": "node", "id": 5769287688, "lat": -33.8850662, "lon": 150.960978}, {"type": "node", "id": 5769287694, "lat": -33.8850633, "lon": 150.9609897}, {"type": "node", "id": 5794573801, "lat": -33.889342, "lon": 150.9674553, "tags": {"addr:housenumber": "559", "addr:postcode": "2163", "addr:state": "NSW", "addr:street": "Hume Highway", "addr:suburb": "Carramar", "amenity": "restaurant", "name": "Rashays", "opening_hours": "7 Days", "website": "https://www.rashays.com/find-us/restaurants/carramar/"}}, {"type": "node", "id": 5811239116, "lat": -33.7714862, "lon": 150.9107477, "tags": {"amenity": "restaurant", "name": "Palace Heights Indina Restaurant"}}, {"type": "node", "id": 5811957657, "lat": -33.7699961, "lon": 150.9086344, "tags": {"amenity": "restaurant", "name": "Ronnie's Pizza House"}}, {"type": "node", "id": 5875641841, "lat": -33.9988021, "lon": 150.866757, "tags": {"amenity": "restaurant", "cuisine": "vietnamese"}}, {"type": "node", "id": 5875641842, "lat": -33.9988788, "lon": 150.866842, "tags": {"amenity": "restaurant", "cuisine": "thai"}}, {"type": "node", "id": 5875641853, "lat": -33.9983093, "lon": 150.8667484, "tags": {"amenity": "restaurant", "cuisine": "indian"}}, {"type": "node", "id": 5875641855, "lat": -33.9984817, "lon": 150.8669428, "tags": {"amenity": "restaurant", "cuisine": "thai"}}, {"type": "node", "id": 5875641856, "lat": -33.9985449, "lon": 150.8668708, "tags": {"amenity": "restaurant", "cuisine": "chinese"}}, {"type": "node", "id": 5875641862, "lat": -33.9980418, "lon": 150.8646489, "tags": {"amenity": "restaurant"}}, {"type": "node", "id": 5875641868, "lat": -33.9978602, "lon": 150.865428, "tags": {"amenity": "restaurant", "cuisine": "thai"}}, {"type": "node", "id": 5875641881, "lat": -33.9965064, "lon": 150.8666992, "tags": {"amenity": "restaurant", "cuisine": "sushi;japanese"}}, {"type": "node", "id": 5973408612, "lat": -33.7787371, "lon": 150.9199735, "tags": {"amenity": "restaurant", "name": "lone star rib house"}}, {"type": "node", "id": 6043311286, "lat": -33.8869008, "lon": 150.9413424, "tags": {"addr:street": "Canley Vale Road", "amenity": "restaurant", "cuisine": "vietnamese", "name": "Hai Au Lang Nuong", "phone": "+61297249156"}}, {"type": "node", "id": 6044064785, "lat": -34.0397378, "lon": 150.7367218, "tags": {"addr:housenumber": "326", "addr:postcode": "2567", "addr:street": "Camden Valley Way", "amenity": "restaurant", "name": "Hurricane\u2019s Grill Narellan", "wheelchair": "yes"}}, {"type": "node", "id": 6116331885, "lat": -34.0703183, "lon": 150.766722, "tags": {"amenity": "restaurant", "name": "Melaleuca House", "opening_hours:covid19": "closed"}}, {"type": "node", "id": 6466177285, "lat": -34.0564304, "lon": 150.6938116, "tags": {"amenity": "restaurant", "cuisine": "noodle", "drive_through": "no", "name": "Asian takeaway"}}, {"type": "node", "id": 6519615292, "lat": -34.0556213, "lon": 150.6941796, "tags": {"air_conditioning": "yes", "amenity": "restaurant", "cuisine": "chinese", "outdoor_seating": "yes"}}, {"type": "node", "id": 6569286395, "lat": -33.9287369, "lon": 150.9483597, "tags": {"addr:housenumber": "271-273", "addr:postcode": "2170", "addr:state": "NSW", "addr:street": "Newbridge Road", "addr:suburb": "Moorebank", "amenity": "restaurant", "cuisine": "pizza;italian", "delivery": "yes", "name": "Pizza Hut Moorebank", "opening_hours": "Su-Th 11:00-23:00; Fr,Sa 11:00-24:00", "phone": "+61 02 9834 7892", "takeaway": "yes"}}, {"type": "node", "id": 6604188715, "lat": -33.9995164, "lon": 150.7400991, "tags": {"amenity": "restaurant", "name": "XThailence"}}, {"type": "node", "id": 6695041812, "lat": -33.8849528, "lon": 150.9609673}, {"type": "node", "id": 6866215450, "lat": -33.8073349, "lon": 150.970109, "tags": {"amenity": "restaurant", "cuisine": "indian", "diet:vegetarian": "yes", "name": "Chowpat"}}, {"type": "node", "id": 6866225995, "lat": -33.8075238, "lon": 150.9710467, "tags": {"amenity": "restaurant", "cuisine": "indian", "name": "Gokul Indian Restaurant"}}, {"type": "node", "id": 6866226005, "lat": -33.8075644, "lon": 150.9712881, "tags": {"amenity": "restaurant", "cuisine": "indian", "name": "Abhiruchi"}}, {"type": "node", "id": 6866226009, "lat": -33.8075867, "lon": 150.9713512, "tags": {"amenity": "restaurant", "cuisine": "indian", "name": "Chachu Kitchen"}}, {"type": "node", "id": 6866226048, "lat": -33.8075856, "lon": 150.9720747, "tags": {"amenity": "restaurant", "cuisine": "indian;sri_lankan", "name": "Sun Catering"}}, {"type": "node", "id": 6869127185, "lat": -33.8946373, "lon": 150.9371918, "tags": {"addr:housenumber": "44", "addr:street": "Arthur Street", "amenity": "restaurant", "name": "Dat Cang"}}, {"type": "node", "id": 6919370985, "lat": -34.0402328, "lon": 150.7351016, "tags": {"amenity": "restaurant", "name": "Bohemian Euro restaurant & bar"}}, {"type": "node", "id": 7041236989, "lat": -33.9549695, "lon": 150.8937894, "tags": {"addr:housenumber": "613", "addr:postcode": "2170", "addr:state": "NSW", "addr:street": "Hume Highway", "addr:suburb": "Casula", "amenity": "restaurant", "contact:phone": "+61 2 9822 2239", "contact:website": "http://www.lamono.com.au/", "cuisine": "chicken; lebanese", "description": "They provide fresh authentic Lebanese food", "name": "La Mono Charcoal Chicken & Lebanese Cuisine"}}, {"type": "node", "id": 7171664265, "lat": -33.7647938, "lon": 150.6624698, "tags": {"amenity": "restaurant", "name": "Lone Star Rib House & Brews Penrith"}}, {"type": "node", "id": 7171664266, "lat": -33.7645807, "lon": 150.6627839, "tags": {"amenity": "restaurant", "name": "Goji Modern Asian Cuisine"}}, {"type": "node", "id": 7171664267, "lat": -33.7646093, "lon": 150.662735, "tags": {"amenity": "restaurant", "name": "Onshore Fresh Seafood", "opening_hours": "Mo-Su 11:00-20:00"}}, {"type": "node", "id": 7171664268, "lat": -33.764705, "lon": 150.6626317, "tags": {"amenity": "restaurant", "name": "The Riverbank Wine Bar & Tapas"}}, {"type": "node", "id": 7229088185, "lat": -34.0536863, "lon": 150.6974322, "tags": {"amenity": "restaurant", "name": "Thai Restaurant"}}, {"type": "node", "id": 7416177487, "lat": -33.9185769, "lon": 150.8537622, "tags": {"amenity": "restaurant", "brand": "Guzman y Gomez", "brand:wikidata": "Q23019759", "brand:wikipedia": "en:Guzman y Gomez", "cuisine": "mexican", "name": "Guzman y Gomez"}}, {"type": "node", "id": 7996281351, "lat": -33.7684849, "lon": 150.6876068, "tags": {"amenity": "restaurant", "name": "Cafe Latitude"}}, {"type": "node", "id": 8211493210, "lat": -33.76917, "lon": 150.7691615}, {"type": "node", "id": 8211493211, "lat": -33.7691747, "lon": 150.7695046}, {"type": "node", "id": 8211493212, "lat": -33.7694071, "lon": 150.7695}, {"type": "node", "id": 8211493213, "lat": -33.7694024, "lon": 150.7691569}, {"type": "node", "id": 8614570818, "lat": -34.0559956, "lon": 150.6935427, "tags": {"amenity": "restaurant", "name": "Chola Indian Restaurant"}}, {"type": "node", "id": 8745555517, "lat": -33.8946492, "lon": 150.9341499, "tags": {"amenity": "restaurant", "name": "Vietnamese Pho"}}, {"type": "node", "id": 8784031722, "lat": -34.0845787, "lon": 150.8133905, "tags": {"addr:housenumber": "1000", "addr:postcode": "2560", "addr:state": "NSW", "addr:street": "The Parkway", "addr:suburb": "Bradbury", "addr:unit": "17a", "amenity": "restaurant", "cuisine": "chinese", "diet:lacto-ovo_vegetarian": "yes", "diet:meat": "yes", "diet:vegetarian": "yes", "name": "Lau's Chinese Takeaway", "note": "No EFTPOS, cash only. ATM is nearby.", "outdoor_seating": "no", "payment:cash": "only", "phone": "+61 2 4628 3679", "reservation": "yes", "takeaway": "yes", "wheelchair": "yes"}}, {"type": "node", "id": 8887329703, "lat": -33.9196432, "lon": 150.9537784, "tags": {"addr:housenumber": "94", "addr:street": "Childs Road", "addr:unit": "9", "amenity": "restaurant", "cuisine": "pizza", "email": "info@sydneymanoosh.com.au", "facebook": "https://www.facebook.com/sydneymanoosh/", "name": "Sydney Manoosh", "opening_hours": "Mo-Su 06:00-22:00", "phone": "+61 2 9723 0536", "website": "https://www.sydneymanoosh.com.au/"}}, {"type": "node", "id": 8931873120, "lat": -33.8037013, "lon": 150.9794265, "tags": {"addr:housenumber": "29-33", "addr:postcode": "2145", "addr:state": "NSW", "addr:street": "Darcy Road", "addr:suburb": "Westmead", "addr:unit": "7", "amenity": "restaurant", "cuisine": "indian", "name": "Curry Lovers", "opening_hours": "Mo-Su 11:00-22:00", "phone": "+612 8628 7627", "website": "https://curryloverswestmead.com.au/"}}, {"type": "node", "id": 8957248526, "lat": -33.7687302, "lon": 150.734742, "tags": {"addr:housenumber": "82A", "addr:street": "O'Connell Street", "addr:unit": "1", "amenity": "restaurant", "contact:instagram": "https://www.instagram.com/poppitino/", "cuisine": "italian", "email": "info@poppitino.com.au", "facebook": "https://www.facebook.com/poppitino", "name": "Poppi Tino", "phone": "+61 2 8824 9111", "website": "https://www.poppitino.com.au/"}}, {"type": "node", "id": 8963058175, "lat": -33.8556005, "lon": 150.9369801}, {"type": "node", "id": 8963058176, "lat": -33.8553517, "lon": 150.9370335}, {"type": "node", "id": 8963058224, "lat": -33.8555877, "lon": 150.9368931}, {"type": "node", "id": 8963058225, "lat": -33.8557305, "lon": 150.9368624}, {"type": "node", "id": 8963058226, "lat": -33.8557451, "lon": 150.9369608}, {"type": "node", "id": 8963058227, "lat": -33.8558634, "lon": 150.9369354}, {"type": "node", "id": 8963058228, "lat": -33.8558287, "lon": 150.936701}, {"type": "node", "id": 8963058229, "lat": -33.8559514, "lon": 150.9366746}, {"type": "node", "id": 8963058230, "lat": -33.8559585, "lon": 150.9366812}, {"type": "node", "id": 8963058231, "lat": -33.8559628, "lon": 150.9367173}, {"type": "node", "id": 8963058232, "lat": -33.8560463, "lon": 150.9367834}, {"type": "node", "id": 8963058233, "lat": -33.8560779, "lon": 150.9369925}, {"type": "node", "id": 8963058234, "lat": -33.8560978, "lon": 150.9369881}, {"type": "node", "id": 8963058235, "lat": -33.8560586, "lon": 150.936728}, {"type": "node", "id": 8963058236, "lat": -33.8560709, "lon": 150.936708}, {"type": "node", "id": 8963058237, "lat": -33.8562628, "lon": 150.93688}, {"type": "node", "id": 8963058238, "lat": -33.8562327, "lon": 150.9369286}, {"type": "node", "id": 8963058239, "lat": -33.8562262, "lon": 150.9369228}, {"type": "node", "id": 8963058240, "lat": -33.8561932, "lon": 150.9369761}, {"type": "node", "id": 8963058241, "lat": -33.8561989, "lon": 150.9369812}, {"type": "node", "id": 8963058242, "lat": -33.8561421, "lon": 150.937073}, {"type": "node", "id": 8963058243, "lat": -33.8560923, "lon": 150.9370846}, {"type": "node", "id": 8963058244, "lat": -33.8561012, "lon": 150.9371401}, {"type": "node", "id": 8963058245, "lat": -33.856048, "lon": 150.9372316}, {"type": "node", "id": 8963058246, "lat": -33.8560501, "lon": 150.9372474}, {"type": "node", "id": 8963058247, "lat": -33.8559931, "lon": 150.9373312}, {"type": "node", "id": 8963058248, "lat": -33.8559557, "lon": 150.9373389}, {"type": "node", "id": 8963058249, "lat": -33.8559611, "lon": 150.9373769}, {"type": "node", "id": 8963058250, "lat": -33.8559311, "lon": 150.9374196}, {"type": "node", "id": 8963058251, "lat": -33.8559079, "lon": 150.9374237}, {"type": "node", "id": 8963058252, "lat": -33.8558969, "lon": 150.9374415}, {"type": "node", "id": 8963058253, "lat": -33.8558767, "lon": 150.9374461}, {"type": "node", "id": 8963058254, "lat": -33.8558399, "lon": 150.9374999}, {"type": "node", "id": 8963058255, "lat": -33.8558429, "lon": 150.9375213}, {"type": "node", "id": 8963058256, "lat": -33.8558302, "lon": 150.9375431}, {"type": "node", "id": 8963058257, "lat": -33.8558328, "lon": 150.9375624}, {"type": "node", "id": 8963058258, "lat": -33.8557551, "lon": 150.9376783}, {"type": "node", "id": 8963058259, "lat": -33.8557239, "lon": 150.9376854}, {"type": "node", "id": 8963058260, "lat": -33.8555006, "lon": 150.9380239}, {"type": "node", "id": 8963058261, "lat": -33.855485, "lon": 150.9380264}, {"type": "node", "id": 8963058262, "lat": -33.8554361, "lon": 150.9379837}, {"type": "node", "id": 8963058263, "lat": -33.8554076, "lon": 150.9377894}, {"type": "node", "id": 8963058264, "lat": -33.8553443, "lon": 150.9378029}, {"type": "node", "id": 8963058265, "lat": -33.8552768, "lon": 150.9373426}, {"type": "node", "id": 8963058266, "lat": -33.8553369, "lon": 150.9373298}, {"type": "node", "id": 8963058267, "lat": -33.8553273, "lon": 150.9372642}, {"type": "node", "id": 8963058268, "lat": -33.8552976, "lon": 150.9372705}, {"type": "node", "id": 8963058269, "lat": -33.8552844, "lon": 150.9371807}, {"type": "node", "id": 8963058270, "lat": -33.8553141, "lon": 150.9371743}, {"type": "node", "id": 8963058271, "lat": -33.8553131, "lon": 150.9371672}, {"type": "node", "id": 8963058272, "lat": -33.8553697, "lon": 150.937155}, {"type": "node", "id": 8984461398, "lat": -33.7796994, "lon": 150.8130634, "tags": {"addr:housenumber": "11", "addr:postcode": "2770", "addr:state": "NSW", "addr:street": "John Hines Avenue", "addr:suburb": "Minchinbury", "addr:unit": "16", "amenity": "restaurant", "cuisine": "thai;asian", "name": "Thai Hanuman", "opening_hours:covid19": "open, Takeaway Only", "phone": "+61 414539552", "website": "www.thaihanuman.com.au"}}, {"type": "node", "id": 9162046112, "lat": -33.8421459, "lon": 150.8534839, "tags": {"addr:housenumber": "1766", "addr:postcode": "2175", "addr:state": "NSW", "addr:street": "The Horsley Drive", "addr:suburb": "Horsley Park", "air_conditioning": "yes", "amenity": "restaurant", "cuisine": "italian;italian_pizza", "level": "1", "name": "Il Piatto Restaurant", "website": "https://www.ilpiatto.com.au/"}}, {"type": "node", "id": 9170548970, "lat": -33.8835399, "lon": 150.924459, "tags": {"amenity": "restaurant", "cuisine": "vietnamese", "name": "Broken Rice"}}, {"type": "node", "id": 9170548972, "lat": -33.8835337, "lon": 150.9244094, "tags": {"amenity": "restaurant", "cuisine": "japanese", "name": "RYOMA Japanese BBQ"}}, {"type": "node", "id": 9170548973, "lat": -33.8832931, "lon": 150.9241327, "tags": {"amenity": "restaurant", "name": "V Lounge"}}, {"type": "node", "id": 9170548974, "lat": -33.8835619, "lon": 150.9246603, "tags": {"addr:housenumber": "237", "addr:street": "Canley Vale Road", "amenity": "restaurant", "cuisine": "korean", "name": "La Grilla"}}, {"type": "node", "id": 9170548985, "lat": -33.8838005, "lon": 150.9261323, "tags": {"addr:housenumber": "223a", "addr:street": "Canley Vale Road", "amenity": "restaurant", "cuisine": "vietnamese", "name": "Yung Lee Cafe & Restaurant"}}, {"type": "node", "id": 9170548988, "lat": -33.883859, "lon": 150.9265978, "tags": {"amenity": "restaurant", "cuisine": "vietnamese", "name": "Huong Xua Canley Heights"}}, {"type": "node", "id": 9170978988, "lat": -33.8842299, "lon": 150.9252351, "tags": {"addr:housenumber": "264", "addr:street": "Canley Vale Road", "addr:unit": "3", "amenity": "restaurant", "cuisine": "european", "name": "Fabrika by Madera"}}, {"type": "node", "id": 9170979010, "lat": -33.8839969, "lon": 150.9255237, "tags": {"amenity": "restaurant", "cuisine": "vietnamese", "name": "Minh Tam"}}, {"type": "node", "id": 9171005017, "lat": -33.884045, "lon": 150.9257392, "tags": {"amenity": "restaurant", "diet:vegetarian": "yes", "name": "Simple Asian Vegetarian Cuisine"}}, {"type": "node", "id": 9171005027, "lat": -33.8840631, "lon": 150.925973, "tags": {"addr:housenumber": "246", "addr:street": "Canley Vale Road", "amenity": "restaurant", "name": "Canley Heights BBQ Shop"}}, {"type": "node", "id": 9171005061, "lat": -33.8841655, "lon": 150.9266294, "tags": {"addr:housenumber": "236a", "addr:street": "Canley Vale Road", "amenity": "restaurant", "cuisine": "vietnamese", "name": "Pho Hien Restaurant"}}, {"type": "node", "id": 9171005062, "lat": -33.8841723, "lon": 150.9267017, "tags": {"addr:housenumber": "230", "addr:street": "Canley Vale Road", "amenity": "restaurant", "cuisine": "vietnamese", "name": "Bun Bo Hue Gia Hoi"}}, {"type": "node", "id": 9171005080, "lat": -33.8842305, "lon": 150.9270565, "tags": {"addr:housenumber": "214", "addr:street": "Canley Vale Road", "amenity": "restaurant", "cuisine": "steak_house", "name": "Steak On The Rocks"}}, {"type": "node", "id": 9171005083, "lat": -33.8842421, "lon": 150.9272007, "tags": {"amenity": "restaurant", "cuisine": "vietnamese", "name": "Pho Lam"}}, {"type": "node", "id": 9171005104, "lat": -33.884394, "lon": 150.9283586, "tags": {"addr:housenumber": "192", "addr:unit": "1", "amenity": "restaurant", "name": "Zen Gardens Vegetarian"}}, {"type": "node", "id": 9173759540, "lat": -33.8863302, "lon": 150.9405856, "tags": {"amenity": "restaurant", "name": "Kitchen X at Bar 53"}}, {"type": "node", "id": 9173759541, "lat": -33.8865428, "lon": 150.9410887, "tags": {"amenity": "restaurant", "name": "TK Something BBQ Restaurant"}}, {"type": "node", "id": 9173759542, "lat": -33.8865218, "lon": 150.940981, "tags": {"amenity": "restaurant", "name": "Skara Rama 5"}}, {"type": "node", "id": 9173759543, "lat": -33.8866825, "lon": 150.9418108, "tags": {"amenity": "restaurant", "cuisine": "vietnamese", "name": "Richard's On The Park"}}, {"type": "node", "id": 9173759546, "lat": -33.88695, "lon": 150.9426369, "tags": {"amenity": "restaurant", "cuisine": "vietnamese", "name": "Thanh Xuan"}}, {"type": "node", "id": 9173759547, "lat": -33.8869612, "lon": 150.9426912, "tags": {"amenity": "restaurant", "name": "Henry Steam Buns"}}, {"type": "node", "id": 9173759548, "lat": -33.8870326, "lon": 150.9429573, "tags": {"amenity": "restaurant", "cuisine": "seafood", "name": "Dragon Bowl Seafood Restaurant"}}, {"type": "node", "id": 9173759549, "lat": -33.8870983, "lon": 150.9431091, "tags": {"amenity": "restaurant", "name": "Veggie House Vegan & Vegetarian Restaurant"}}, {"type": "node", "id": 9173759560, "lat": -33.8866405, "lon": 150.9403451, "tags": {"amenity": "restaurant", "cuisine": "seafood;vietnamese", "name": "MUI NE Seafood Restautant"}}, {"type": "node", "id": 9173759740, "lat": -33.8872559, "lon": 150.9427796, "tags": {"amenity": "restaurant", "cuisine": "thai", "name": "Tuk Tuk Lao and Thai"}}, {"type": "node", "id": 9173759745, "lat": -33.8870761, "lon": 150.942136, "tags": {"amenity": "restaurant", "name": "Master Hot Pot Canley Vale \u9ebb\u8fa3\u5927\u5723"}}, {"type": "node", "id": 9173759748, "lat": -33.886935, "lon": 150.9415009, "tags": {"amenity": "restaurant", "cuisine": "vietnamese", "name": "Bach Dang"}}, {"type": "node", "id": 9219972644, "lat": -33.9032889, "lon": 150.8966288, "tags": {"amenity": "restaurant", "cuisine": "asian;vietnamese", "name": "2 Foodies"}}, {"type": "node", "id": 9219972657, "lat": -33.9032863, "lon": 150.8960556}, {"type": "node", "id": 9219972658, "lat": -33.9032473, "lon": 150.8961422}, {"type": "node", "id": 9219972659, "lat": -33.9031832, "lon": 150.896191}, {"type": "node", "id": 9219972660, "lat": -33.9031309, "lon": 150.8960911}, {"type": "node", "id": 9219972661, "lat": -33.9031949, "lon": 150.8960424}, {"type": "node", "id": 9219972662, "lat": -33.9031888, "lon": 150.8961174, "tags": {"amenity": "restaurant", "name": "Seher Indian Cuisine"}}, {"type": "node", "id": 9219972663, "lat": -33.9032247, "lon": 150.8960991}, {"type": "node", "id": 9219972664, "lat": -33.9031787, "lon": 150.8958477}, {"type": "node", "id": 9219972665, "lat": -33.9031168, "lon": 150.8958942}, {"type": "node", "id": 9219972666, "lat": -33.9032016, "lon": 150.8959748, "tags": {"addr:housenumber": "169", "addr:postcode": "2170", "addr:state": "NSW", "addr:street": "Meadows Road", "addr:suburb": "Mount Pritchard", "addr:unit": "1", "amenity": "restaurant", "cuisine": "pizza", "name": "Manoosh House"}}, {"type": "node", "id": 9219972669, "lat": -33.902798, "lon": 150.8957267}, {"type": "node", "id": 9219972670, "lat": -33.9028708, "lon": 150.8958631}, {"type": "node", "id": 9219972671, "lat": -33.9029081, "lon": 150.8958305}, {"type": "node", "id": 9219972672, "lat": -33.9028379, "lon": 150.8956963}, {"type": "node", "id": 9219972673, "lat": -33.9028523, "lon": 150.8957792, "tags": {"addr:housenumber": "360", "addr:postcode": "2170", "addr:state": "NSW", "addr:street": "Elizabeth Drive", "addr:suburb": "Mount Pritchard", "amenity": "restaurant", "name": "Vaz's Kitchen", "phone": "+61296070311", "website": "https://www.pritchardshotel.com.au/dining"}}, {"type": "node", "id": 9219972674, "lat": -33.9017239, "lon": 150.89718}, {"type": "node", "id": 9219972675, "lat": -33.9017988, "lon": 150.8973163}, {"type": "node", "id": 9219972676, "lat": -33.901875, "lon": 150.8972561}, {"type": "node", "id": 9219972677, "lat": -33.9017996, "lon": 150.8971189}, {"type": "node", "id": 9219972678, "lat": -33.9018998, "lon": 150.8972621}, {"type": "node", "id": 9219972679, "lat": -33.9018899, "lon": 150.8972442}, {"type": "node", "id": 9219972680, "lat": -33.9018951, "lon": 150.8970427}, {"type": "node", "id": 9219972681, "lat": -33.9019693, "lon": 150.8971776}, {"type": "node", "id": 9219972682, "lat": -33.9019477, "lon": 150.8971948}, {"type": "node", "id": 9219972683, "lat": -33.9019588, "lon": 150.897215}, {"type": "node", "id": 9219972684, "lat": -33.9018877, "lon": 150.8971553, "tags": {"addr:housenumber": "163", "addr:postcode": "2170", "addr:state": "NSW", "addr:street": "Meadows Road", "addr:suburb": "Mount Pritchard", "addr:unit": "4", "amenity": "restaurant", "cuisine": "chicken", "name": "The Boyz Charcoal Chicken"}}, {"type": "node", "id": 9220095526, "lat": -33.9523298, "lon": 150.8547907, "tags": {"addr:housenumber": "1975", "addr:postcode": "2170", "addr:state": "NSW", "addr:street": "Camden Valley Way", "addr:suburb": "Prestons", "addr:unit": "3", "amenity": "restaurant", "cuisine": "thai", "name": "Thaidition"}}, {"type": "node", "id": 9220095529, "lat": -33.9524617, "lon": 150.8547576, "tags": {"addr:housenumber": "1975", "addr:postcode": "2170", "addr:state": "NSW", "addr:street": "Camden Valley Way", "addr:suburb": "Prestons", "addr:unit": "1", "amenity": "restaurant", "name": "Classic Manoosh and Pizza Prestons"}}, {"type": "node", "id": 9220095537, "lat": -33.94761, "lon": 150.9002822, "tags": {"amenity": "restaurant", "name": "Enzo's Cucina"}}, {"type": "node", "id": 9220095538, "lat": -33.9474683, "lon": 150.9001687, "tags": {"amenity": "restaurant", "cuisine": "sushi", "name": "Sushi Hub"}}, {"type": "node", "id": 9220247145, "lat": -33.950568, "lon": 150.8572642, "tags": {"addr:housenumber": "7", "addr:postcode": "2170", "addr:state": "NSW", "addr:street": "Kingsdale Road", "addr:suburb": "Prestons", "amenity": "restaurant", "description": "Not a store. Order and pick up only.\nPop Up Locations:\nKirribilli Markets\nBirkenhead Point Shopping Centre  \nEast Village Zetland\nNarellan Town Centre", "diet:gluten_free": "yes", "name": "Luna Cakes", "opening_hours": "Mo-Fr 09:00-17:30, Sa-Su 09:00-16:00", "phone": "+61416187237", "website": "http://www.lunacakes.com.au/"}}, {"type": "node", "id": 9221214958, "lat": -33.9018475, "lon": 150.8971858, "tags": {"addr:housenumber": "130-140", "addr:postcode": "2170", "addr:state": "NSW", "addr:street": "Meadows Road", "addr:suburb": "Mount Pritchard", "amenity": "restaurant", "cuisine": "vietnamese;asian", "name": "QU\u00c1N THANH LONG", "phone": "+61424884568"}}, {"type": "node", "id": 9221214975, "lat": -33.8969493, "lon": 150.8998711, "tags": {"amenity": "restaurant", "cuisine": "asian;chinese;yum_cha", "name": "Jumbo Seafood"}}, {"type": "node", "id": 9221214976, "lat": -33.8970261, "lon": 150.8997455, "tags": {"amenity": "restaurant", "cuisine": "asian;vietnamese", "name": "Bau Truong"}}, {"type": "node", "id": 9222660682, "lat": -33.9563398, "lon": 150.8649807, "tags": {"amenity": "restaurant", "cuisine": "chicken", "name": "Frango Charcoal Chicken"}}, {"type": "node", "id": 9222660688, "lat": -33.9561068, "lon": 150.8649559, "tags": {"amenity": "restaurant", "cuisine": "american", "name": "Philliez"}}, {"type": "node", "id": 9226989620, "lat": -33.9500985, "lon": 150.8640469, "tags": {"amenity": "restaurant", "cuisine": "chinese", "name": "The One Cafe and Restaurant", "takeaway": "yes"}}, {"type": "node", "id": 9226989626, "lat": -33.9497461, "lon": 150.8636717, "tags": {"amenity": "restaurant", "cuisine": "pizza", "name": "Minelli's Pizzeria"}}, {"type": "node", "id": 9364658407, "lat": -33.7693876, "lon": 150.7734087, "tags": {"amenity": "restaurant", "cuisine": "pizza", "name": "Big G's Pizzeria"}}, {"type": "node", "id": 9364661936, "lat": -33.7671965, "lon": 150.7735444, "tags": {"amenity": "restaurant", "cuisine": "pizza", "name": "Certified Pizza Bar"}}, {"type": "node", "id": 9364661955, "lat": -33.7666585, "lon": 150.7738617, "tags": {"amenity": "restaurant", "cuisine": "indian", "name": "Anand Indian Restaurant"}}, {"type": "node", "id": 9365266985, "lat": -33.7682817, "lon": 150.7739655, "tags": {"amenity": "restaurant", "cuisine": "pizza", "name": "Monty's Pizza"}}, {"type": "node", "id": 9365266991, "lat": -33.7687509, "lon": 150.7738545, "tags": {"amenity": "restaurant", "cuisine": "thai", "name": "Petit Thai Cuisine"}}, {"type": "node", "id": 9365266994, "lat": -33.7693031, "lon": 150.7737803, "tags": {"amenity": "restaurant", "cuisine": "thai", "name": "Gourmet Thai Noodle Restaurant"}}, {"type": "node", "id": 9369045763, "lat": -34.0746333, "lon": 150.8050683, "tags": {"amenity": "restaurant", "cuisine": "indian", "name": "Spice of Life"}}, {"type": "node", "id": 9369045764, "lat": -34.0745768, "lon": 150.8051365, "tags": {"amenity": "restaurant", "cuisine": "italian", "name": "The Taste Italian Grill"}}, {"type": "node", "id": 9369045767, "lat": -34.074375, "lon": 150.8052262, "tags": {"amenity": "restaurant", "cuisine": "thai", "name": "Thai Centric"}}, {"type": "node", "id": 9369046081, "lat": -34.0677413, "lon": 150.8125609, "tags": {"amenity": "restaurant", "cuisine": "thai", "name": "Saam Thai Restaurant"}}, {"type": "node", "id": 9369120573, "lat": -34.0690674, "lon": 150.8126297, "tags": {"amenity": "restaurant", "cuisine": "chinese", "name": "Flowerdrum Palace"}}, {"type": "node", "id": 9369120600, "lat": -34.0686213, "lon": 150.8133801, "tags": {"amenity": "restaurant", "cuisine": "chinese", "name": "Golden Town Chinese Restaurant"}}, {"type": "node", "id": 9369120616, "lat": -34.0685929, "lon": 150.8127548, "tags": {"amenity": "restaurant", "cuisine": "vietnamese", "name": "Anna's Eatery"}}, {"type": "node", "id": 9369125006, "lat": -34.0672708, "lon": 150.8142276, "tags": {"amenity": "restaurant", "name": "AL Amar Lebanese Restaurant"}}, {"type": "node", "id": 9369125057, "lat": -34.0666797, "lon": 150.8145026, "tags": {"amenity": "restaurant", "brand": "Pizza Hut", "brand:wikidata": "Q191615", "brand:wikipedia": "en:Pizza Hut", "cuisine": "pizza", "name": "Pizza Hut"}}, {"type": "node", "id": 9369263550, "lat": -34.0641945, "lon": 150.8166963, "tags": {"amenity": "restaurant", "cuisine": "indian", "name": "Aalishaan Indian Cuisine"}}, {"type": "node", "id": 9369263574, "lat": -34.0646468, "lon": 150.8164404, "tags": {"amenity": "restaurant", "cuisine": "indian", "name": "Mahfil Tandoori Indian Restaurant"}}, {"type": "node", "id": 9369263680, "lat": -34.0655976, "lon": 150.8150201, "tags": {"amenity": "restaurant", "cuisine": "sushi", "name": "Koshigaya Kitchen"}}, {"type": "node", "id": 9369263693, "lat": -34.0659766, "lon": 150.8147014, "tags": {"amenity": "restaurant", "cuisine": "noodle", "name": "Noodle Paradise"}}, {"type": "node", "id": 9369263748, "lat": -34.0669725, "lon": 150.8138073, "tags": {"amenity": "restaurant", "cuisine": "sushi", "name": "Sushi Bar Sapporo"}}, {"type": "node", "id": 9385055879, "lat": -33.7682151, "lon": 150.6857205, "tags": {"amenity": "restaurant", "cuisine": "asian", "name": "P'Nut Street Noodles"}}, {"type": "node", "id": 9385055881, "lat": -33.7684269, "lon": 150.6856841, "tags": {"amenity": "restaurant", "cuisine": "lebanese", "name": "Al Aseel"}}, {"type": "node", "id": 9389590839, "lat": -33.8794552, "lon": 150.7895873}, {"type": "node", "id": 9389590840, "lat": -33.8796446, "lon": 150.7895538}, {"type": "node", "id": 9389590842, "lat": -33.8794611, "lon": 150.7896327}, {"type": "node", "id": 9389590843, "lat": -33.8796489, "lon": 150.7895987}, {"type": "node", "id": 9427165098, "lat": -33.779584, "lon": 150.8130935, "tags": {"amenity": "restaurant", "brand": "Zambrero", "brand:wikidata": "Q18636431", "brand:wikipedia": "en:Zambrero", "cuisine": "mexican", "name": "Zambrero"}}, {"type": "node", "id": 9427165099, "lat": -33.7794588, "lon": 150.8131261, "tags": {"amenity": "restaurant", "cuisine": "american", "name": "Philliez"}}, {"type": "node", "id": 9462727917, "lat": -33.7951919, "lon": 150.7897772, "tags": {"amenity": "restaurant", "cuisine": "chinese", "name": "Crystal Jade Chinese Restaurant", "source": "survey", "source:date": "2022-01"}}, {"type": "node", "id": 9465970346, "lat": -33.7952333, "lon": 150.7886325, "tags": {"amenity": "restaurant", "cuisine": "thai", "name": "Thai Riffic", "source": "survey", "source:date": "2022-02"}}, {"type": "node", "id": 9480165353, "lat": -34.0216989, "lon": 150.7633798, "tags": {"amenity": "restaurant", "contact:facebook": "https://www.facebook.com/elpatrongregoryhills/", "name": "El Patron", "opening_hours": "Th 18:00-00:30, Fr 16:00-01:00, Sa 16:00-00:30, Su 14:00-22:00", "phone": "+61 2 4606 3858", "website": "https://elpatron.com.au/"}}, {"type": "node", "id": 9596787093, "lat": -33.7926346, "lon": 150.7804838, "tags": {"amenity": "restaurant", "cuisine": "chinese", "name": "Macau Chinese Restaurant", "phone": "+61 2 9670 4988"}}, {"type": "node", "id": 9671732212, "lat": -33.9319446, "lon": 150.9233692, "tags": {"amenity": "restaurant", "name": "Charcoal Joe\u2019s Lebanese Charcoal Chicken"}}, {"type": "node", "id": 9671732213, "lat": -33.9320073, "lon": 150.9235002, "tags": {"amenity": "restaurant", "name": "Georgie\u2019s Pizzeria & Bar"}}, {"type": "node", "id": 9671732214, "lat": -33.9320157, "lon": 150.9233309, "tags": {"amenity": "restaurant", "name": "Firepit Meat & Seafood"}}, {"type": "node", "id": 9673034457, "lat": -33.9249764, "lon": 150.9226633, "tags": {"amenity": "restaurant", "name": "SS Restaurant Lounge"}}, {"type": "node", "id": 9673034480, "lat": -33.9255424, "lon": 150.9218503, "tags": {"amenity": "restaurant", "name": "Hammoud 1 Restaurant"}}, {"type": "node", "id": 9673089716, "lat": -33.9255322, "lon": 150.9228581, "tags": {"amenity": "restaurant", "cuisine": "mediterranean", "name": "The Spot"}}, {"type": "node", "id": 9675837966, "lat": -33.9250643, "lon": 150.9257857, "tags": {"amenity": "restaurant", "cuisine": "indian", "name": "Fiji Curry Hut"}}, {"type": "node", "id": 9675838040, "lat": -33.9243034, "lon": 150.9249308, "tags": {"amenity": "restaurant", "cuisine": "thai", "name": "Authentic Thai Delight"}}, {"type": "node", "id": 9675838041, "lat": -33.9242945, "lon": 150.924843, "tags": {"amenity": "restaurant", "cuisine": "noodle", "name": "VN Noodle House"}}, {"type": "node", "id": 9675838050, "lat": -33.9243672, "lon": 150.9252783, "tags": {"amenity": "restaurant", "cuisine": "indian", "name": "Fiji Style Desi Dhaba"}}, {"type": "node", "id": 9676154358, "lat": -33.9220741, "lon": 150.9252188, "tags": {"amenity": "restaurant", "cuisine": "italian", "name": "Blackrose"}}, {"type": "node", "id": 9676154489, "lat": -33.9225324, "lon": 150.9247678, "tags": {"amenity": "restaurant", "cuisine": "chinese", "name": "Kool Kitchens"}}, {"type": "node", "id": 9676422242, "lat": -33.9221343, "lon": 150.9216538, "tags": {"amenity": "restaurant", "cuisine": "italian", "name": "Cucina 105"}}, {"type": "node", "id": 9677054360, "lat": -33.9229292, "lon": 150.9234023, "tags": {"amenity": "restaurant", "cuisine": "indian", "name": "The Kulcha House"}}, {"type": "node", "id": 9678522098, "lat": -33.9229392, "lon": 150.9238533, "tags": {"amenity": "restaurant", "cuisine": "turkish", "name": "Liverpool Sofra"}}, {"type": "node", "id": 9678537418, "lat": -33.9233769, "lon": 150.924573, "tags": {"amenity": "restaurant", "cuisine": "indian", "name": " Dosa Hut"}}, {"type": "node", "id": 9678537427, "lat": -33.9246112, "lon": 150.9243398, "tags": {"amenity": "restaurant", "cuisine": "indian", "name": "Hemani Mehmi Indian Restaurant"}}, {"type": "node", "id": 9763413573, "lat": -33.8285415, "lon": 150.9653419, "tags": {"addr:housenumber": "33", "addr:street": "Irrigation Road", "amenity": "restaurant", "cuisine": "pizza", "name": "Vincenzo's Pizzeria", "opening_hours": "Tu-Sa 12:00-21:30", "website": "https://vincenzospizzapasta.com.au/"}}, {"type": "node", "id": 9765791717, "lat": -33.8949378, "lon": 150.9339528, "tags": {"amenity": "restaurant", "name": "Korean barB Q"}}, {"type": "node", "id": 10081839434, "lat": -34.0396408, "lon": 150.7368489, "tags": {"amenity": "restaurant", "brand": "Nando's", "brand:wikidata": "Q3472954", "cuisine": "chicken;portuguese", "name": "Nando's"}}, {"type": "node", "id": 10081839604, "lat": -34.0396071, "lon": 150.7369261, "tags": {"amenity": "restaurant", "brand": "Guzman y Gomez", "brand:wikidata": "Q23019759", "cuisine": "mexican", "name": "Guzman y Gomez"}}, {"type": "node", "id": 10108117280, "lat": -34.0078245, "lon": 150.8694647}, {"type": "node", "id": 10139287489, "lat": -34.0483982, "lon": 150.8268398, "tags": {"amenity": "restaurant", "cuisine": "greek", "name": "Big Fat Greek"}}, {"type": "node", "id": 10141409517, "lat": -33.9857743, "lon": 150.8919281, "tags": {"amenity": "restaurant", "cuisine": "sushi", "name": "Sushi People"}}, {"type": "node", "id": 10141923626, "lat": -33.9708759, "lon": 150.8582549, "tags": {"amenity": "restaurant", "name": "Hungry Sherpa"}}, {"type": "node", "id": 10225058605, "lat": -34.0603573, "lon": 150.8213537}, {"type": "node", "id": 10225058606, "lat": -34.0603698, "lon": 150.8213309}, {"type": "node", "id": 10225058607, "lat": -34.0603119, "lon": 150.8212847}, {"type": "node", "id": 10225058608, "lat": -34.0603468, "lon": 150.8212209}, {"type": "node", "id": 10225058609, "lat": -34.060358, "lon": 150.8212299}, {"type": "node", "id": 10225058610, "lat": -34.0604051, "lon": 150.821144}, {"type": "node", "id": 10225058611, "lat": -34.0605327, "lon": 150.8212459}, {"type": "node", "id": 10225058612, "lat": -34.0605067, "lon": 150.8212934}, {"type": "node", "id": 10225058613, "lat": -34.0605125, "lon": 150.8212981}, {"type": "node", "id": 10225058614, "lat": -34.0604859, "lon": 150.8213468}, {"type": "node", "id": 10225058615, "lat": -34.0605328, "lon": 150.8213842}, {"type": "node", "id": 10225058616, "lat": -34.060491, "lon": 150.8214605}, {"type": "node", "id": 10250119568, "lat": -33.7691809, "lon": 150.6701592, "tags": {"amenity": "restaurant", "cuisine": "japanese", "indoor_seating": "yes", "name": "Asuka Japanese Kitchen", "outdoor_seating": "no", "wheelchair": "yes"}}, {"type": "node", "id": 10705570608, "lat": -33.7876684, "lon": 150.6692154, "tags": {"amenity": "restaurant", "cuisine": "italian", "name": "Enzo's Cucina"}}, {"type": "node", "id": 10705585905, "lat": -33.7876021, "lon": 150.6692115, "tags": {"amenity": "restaurant", "cuisine": "thai", "name": "Ros Niyom"}}, {"type": "node", "id": 10727088789, "lat": -33.7710637, "lon": 150.8437826, "tags": {"amenity": "restaurant", "cuisine": "vietnamese", "name": "Pho Ha Noi"}}, {"type": "node", "id": 10764842705, "lat": -33.7744121, "lon": 150.6962851, "tags": {"amenity": "restaurant", "cuisine": "thai", "name": "Red Spoon"}}, {"type": "node", "id": 10764865705, "lat": -33.774025, "lon": 150.6968282, "tags": {"amenity": "restaurant", "name": "Dino's Pizza"}}, {"type": "node", "id": 10789223905, "lat": -33.7877999, "lon": 150.7716676, "tags": {"amenity": "restaurant", "name": "Bluey's Bistro"}}, {"type": "node", "id": 10820737847, "lat": -33.8151063, "lon": 150.9719455, "tags": {"addr:housenumber": "336", "addr:postcode": "2145", "addr:state": "NSW", "addr:street": "Great Western Highway", "addr:suburb": "Wentworthville", "addr:unit": "16", "amenity": "restaurant", "cuisine": "indian", "name": "Sehaj", "opening_hours": "Mo-Su 09:30-22:00", "phone": "+6129636 3042", "website": "https://sehajindianfood.com.au/our-locations"}}, {"type": "node", "id": 10831742056, "lat": -33.816101, "lon": 150.9705459}, {"type": "node", "id": 10831742057, "lat": -33.8160953, "lon": 150.9705196}, {"type": "node", "id": 10831742058, "lat": -33.8163244, "lon": 150.9706847}, {"type": "node", "id": 10831742059, "lat": -33.8163333, "lon": 150.9707261}, {"type": "node", "id": 10838723491, "lat": -33.8084259, "lon": 150.9717858, "tags": {"addr:housenumber": "41", "addr:postcode": "2145", "addr:state": "NSW", "addr:street": "Station Street", "addr:suburb": "Wentworthville", "amenity": "restaurant", "brand": "Pizza Hut", "brand:wikidata": "Q191615", "cuisine": "pizza", "name": "Pizza Hut", "opening_hours": "Su-Th 11:00-23:00; Fr-Sa 11:00-23:59", "website": "https://www.pizzahut.com.au/stores/pizza-hut-wentworthville"}}, {"type": "node", "id": 10855531738, "lat": -33.8151119, "lon": 150.9721983, "tags": {"addr:housenumber": "326-336", "addr:postcode": "2145", "addr:state": "NSW", "addr:street": "Great Western Highway", "addr:suburb": "Wentworthville", "addr:unit": "17", "amenity": "restaurant", "cuisine": "indian", "name": "Sankalp", "opening_hours": "Sa-We 11:00-23:00; Th 11:00-17:00", "phone": "+6129688 3181", "website": "https://wentworthvilleshoppingplaza.com.au/store/sankalp-wentworthville"}}, {"type": "way", "id": 151153444, "nodes": [1639772733, 10831742056, 10831742057, 1639772735, 1639772752, 10831742058, 10831742059, 1639772758, 1639772733], "tags": {"addr:housenumber": "323", "addr:postcode": "2145", "addr:state": "NSW", "addr:street": "Great Western Highway", "addr:suburb": "Wentworthville", "amenity": "restaurant", "brand": "Outback Steakhouse", "brand:wikidata": "Q1064893", "brand:wikipedia": "en:Outback Steakhouse", "building": "yes", "cuisine": "american;steak", "layer": "1", "name": "Outback Steakhouse", "opening_hours": "Su-Th 12:00-21:00; Fr-Sa 12:00-22:00", "phone": "+6129896 0922", "website": "outbacksteakhouse.com.au"}}, {"type": "way", "id": 246126060, "nodes": [2532048906, 2532048907, 2532048908, 2532048910, 2532048911, 2532048913, 2532048906], "tags": {"addr:city": "Cabramatta", "addr:housenumber": "104", "addr:postcode": "2166", "addr:street": "John Street", "amenity": "restaurant", "building": "yes", "cuisine": "chinese", "name": "Phu Quoc", "phone": "+61 2 9724 2188"}}, {"type": "way", "id": 246126680, "nodes": [2532053147, 2532053145, 2532059155, 2532059157, 2532053147], "tags": {"addr:city": "Cabramatta", "addr:housenumber": "100b", "addr:postcode": "2166", "addr:street": "John Street", "amenity": "restaurant", "building": "yes", "cuisine": "vietnamese", "name": "Tan Viet Noodle House", "phone": "+61 2 9727 6853"}}, {"type": "way", "id": 246129479, "nodes": [2532069063, 2532069060, 2532072890, 2532072891, 2532072892, 2532069063], "tags": {"addr:city": "Cabramatta", "addr:housenumber": "98", "addr:postcode": "2166", "addr:street": "John Street", "amenity": "restaurant", "building": "yes", "cuisine": "chinese", "name": "Golden Star Palace Seafood Restaurant", "phone": "+61 02 9725 7282", "wheelchair": "no"}}, {"type": "way", "id": 246292382, "nodes": [2533474667, 2533474665, 2533475404, 2533476090, 2533475405, 2533474667], "tags": {"addr:city": "Cabramatta", "addr:housenumber": "52", "addr:postcode": "2166", "addr:street": "John Street", "amenity": "restaurant", "building": "yes", "building:levels": "1", "cuisine": "Vietnamese_&_Chinese", "name": "Thanh Binh Vietnamese & Chinese Restaurant", "phone": "+61 2 9727 9729", "wheelchair": "no"}}, {"type": "way", "id": 246437581, "nodes": [2534826380, 2534826381, 2534826382, 2534826383, 2534826380], "tags": {"addr:city": "Cabramatta", "addr:housenumber": "12/117", "addr:postcode": "2166", "addr:street": "John Street", "amenity": "restaurant", "building": "yes", "building:levels": "2", "cuisine": "vietnamese", "name": "Pho Tau Bay Vietnamese Restaurant", "phone": "+61 2 9726 4583", "wheelchair": "no"}}, {"type": "way", "id": 246437682, "nodes": [2534826381, 2534828043, 2534828046, 2534826382, 2534826381], "tags": {"addr:city": "Cabramatta", "addr:postcode": "2166", "addr:street": "John Street", "amenity": "restaurant", "building": "yes", "building:levels": "3", "cuisine": "chinese;vietnamese", "name": "Phu Quoc Chinese Vietnamese Restaurant", "phone": "+61 2 9724 2188", "wheelchair": "no"}}, {"type": "way", "id": 246772709, "nodes": [2537720933, 2537720934, 2537720935, 2537720936, 2537720933], "tags": {"addr:city": "Cabramatta", "addr:postcode": "2166", "addr:street": "Cabramatta Road East", "amenity": "restaurant", "building": "yes", "cuisine": "Lao_&_Thai", "name": "Phounguen Restaurant", "phone": "+61 2 9727 2563"}}, {"type": "way", "id": 248212447, "nodes": [2541243603, 2550408932, 2550408933, 2550408934, 2550408935, 2550408936, 2550408937, 2541243605, 2541243603], "tags": {"addr:city": "Cabramatta", "addr:housenumber": "4", "addr:postcode": "2166", "addr:street": "Hughes Street", "amenity": "restaurant", "building": "yes", "building:levels": "2", "cuisine": "vietnamese", "diet:vegetarian": "yes", "name": "Thien Truc Vegetarian House", "phone": "+61 2 9755 0988"}}, {"type": "way", "id": 248212589, "nodes": [2550410209, 2550410210, 2550410211, 2550410212, 2550410209], "tags": {"addr:city": "Cabramatta", "addr:housenumber": "4", "addr:postcode": "2166", "addr:street": "Arther Street", "amenity": "restaurant", "building": "yes", "building:levels": "2", "cuisine": "vietnamese", "name": "Ngoc An Vietnamese Restaurant", "phone": "+61 2 9724 9633"}}, {"type": "way", "id": 388021148, "nodes": [3912399298, 3912399292, 3912399293, 3912399275, 10108117280, 3912399312, 3912399301, 4750628255, 3912399306, 3912399332, 3912399283, 3912399278, 3912399286, 3912399313, 3912399331, 3912399294, 3912399314, 3912399302, 3912399337, 3912399343, 3912399324, 3912399318, 3912399276, 3912399334, 3912399289, 3912399346, 3912399325, 3912399295, 3912399298], "tags": {"amenity": "restaurant", "building": "yes", "name": "Ingleburn RSL", "website": "https://www.ingleburnrsl.com.au/"}}, {"type": "way", "id": 415290943, "nodes": [4163304993, 4163304994, 4163304995, 4163304996, 4163304993], "tags": {"amenity": "restaurant", "building": "yes", "cuisine": "kebab", "name": "Grillicious Kebabs and Grill", "takeaway": "yes"}}, {"type": "way", "id": 431339416, "nodes": [4305459191, 4305459194, 4305459192, 4305459198, 4305459193, 4305459191], "tags": {"amenity": "restaurant", "building": "yes", "cuisine": "steak_house", "name": "Rashay's"}}, {"type": "way", "id": 442150608, "nodes": [4398456025, 4398456030, 4398456024, 4398456029, 4398456025], "tags": {"addr:housenumber": "559", "addr:postcode": "2163", "addr:state": "NSW", "addr:street": "Hume Highway", "addr:suburb": "Carramar", "amenity": "restaurant", "building": "yes", "cuisine": "pizza;burger", "name": "Rashays", "phone": "+611300013000", "website": "https://www.rashays.com/find-us/restaurants/carramar/"}}, {"type": "way", "id": 444563116, "nodes": [4420287029, 4420287036, 4420287043, 4420287051, 4420287029], "tags": {"amenity": "restaurant", "brand": "Guzman y Gomez", "brand:wikidata": "Q23019759", "brand:wikipedia": "en:Guzman y Gomez", "building": "yes", "cuisine": "mexican", "name": "Guzman y Gomez"}}, {"type": "way", "id": 578025512, "nodes": [5539767996, 5539767997, 5539767998, 5541416308, 5539767999, 5539768000, 5539768001, 5539768002, 5541416309, 5539767996], "tags": {"addr:city": "Lansvale", "addr:housenumber": "183", "addr:postcode": "2166", "addr:province": "New South Wales", "addr:street": "Hume Highway", "amenity": "restaurant", "building": "yes", "name": "Crystal Fountain Chinese Seafood Restaurant"}}, {"type": "way", "id": 609057069, "nodes": [5769287682, 6695041812, 5769287686, 5769287687, 5769287694, 5769287688, 5769287682], "tags": {"amenity": "restaurant", "building": "yes", "building:levels": "2", "name": "Romana Pizza & Pasta"}}, {"type": "way", "id": 883006026, "nodes": [8211493210, 8211493211, 8211493212, 8211493213, 8211493210], "tags": {"amenity": "restaurant", "building": "yes"}}, {"type": "way", "id": 968784284, "nodes": [8963058176, 8963058175, 8963058224, 8963058225, 8963058226, 8963058227, 8963058228, 8963058229, 8963058230, 8963058231, 8963058232, 8963058233, 8963058234, 8963058235, 8963058236, 8963058237, 8963058238, 8963058239, 8963058240, 8963058241, 8963058242, 8963058243, 8963058244, 8963058245, 8963058246, 8963058247, 8963058248, 8963058249, 8963058250, 8963058251, 8963058252, 8963058253, 8963058254, 8963058255, 8963058256, 8963058257, 8963058258, 8963058259, 8963058260, 8963058261, 8963058262, 8963058263, 8963058264, 8963058265, 8963058266, 8963058267, 8963058268, 8963058269, 8963058270, 8963058271, 8963058272, 8963058176], "tags": {"amenity": "restaurant", "building": "yes", "club": "veterans", "facebook": "https://www.facebook.com/smithfieldrsl", "leisure": "adult_gaming_centre", "name": "Smithfield RSL Club", "phone": "+61 2 9604 4411", "website": "https://smithfieldrsl.com.au/"}}, {"type": "way", "id": 998591234, "nodes": [9219972658, 9219972659, 9219972660, 9219972661, 9219972663, 9219972658], "tags": {"amenity": "restaurant", "building": "yes", "cuisine": "indian", "name": "Seher Indian Cuisine"}}, {"type": "way", "id": 998591235, "nodes": [9219972663, 9219972657, 9219972664, 9219972665, 9219972661, 9219972663], "tags": {"addr:housenumber": "169", "addr:postcode": "2170", "addr:state": "NSW", "addr:street": "Meadows Road", "addr:suburb": "Mount Pritchard", "addr:unit": "1", "amenity": "restaurant", "building": "yes", "name": "Manoosh House"}}, {"type": "way", "id": 998591237, "nodes": [9219972669, 9219972670, 9219972671, 9219972672, 9219972669], "tags": {"addr:housenumber": "360", "addr:postcode": "2170", "addr:state": "NSW", "addr:street": "Elizabeth Drive", "addr:suburb": "Mount Pritchard", "amenity": "restaurant", "building": "yes"}}, {"type": "way", "id": 998591238, "nodes": [9219972674, 9219972675, 9219972676, 9219972677, 9219972674], "tags": {"addr:housenumber": "163", "addr:postcode": "2170", "addr:state": "NSW", "addr:street": "Meadows Road", "addr:suburb": "Mount Pritchard", "addr:unit": "2", "amenity": "restaurant", "building": "yes", "cuisine": "fast_food", "name": "Pritchard Seafood"}}, {"type": "way", "id": 998591239, "nodes": [9219972678, 9219972679, 9219972676, 9219972677, 9219972680, 9219972681, 9219972682, 9219972683, 9219972678], "tags": {"addr:housenumber": "163", "addr:postcode": "2170", "addr:state": "NSW", "addr:street": "Meadows Road", "addr:suburb": "Mount Pritchard", "addr:unit": "4", "amenity": "restaurant", "building": "yes", "name": "The Boyz Charcoal Chicken"}}, {"type": "way", "id": 1017982024, "nodes": [9389590839, 9389590842, 9389590843, 9389590840, 9389590839], "tags": {"addr:housenumber": "1459", "addr:postcode": "2178", "addr:state": "NSW", "addr:street": "Elizabeth Drive", "addr:suburb": "Kemps Creek", "amenity": "restaurant", "building": "yes", "cuisine": "pizza", "name": "Nonno Dom's Pizzeria", "phone": "+298 261335", "website": "nonnodoms.com.au"}}, {"type": "way", "id": 1117986718, "nodes": [10225058616, 10225058615, 10225058614, 10225058613, 10225058612, 10225058611, 10225058610, 10225058609, 10225058608, 10225058607, 10225058606, 10225058605, 10225058616], "tags": {"amenity": "restaurant", "building": "yes", "cuisine": "chinese", "name": "Gold Wheel", "opening_hours": "Tu-Th 12:00-14:30,17:00-20:30; Fr,Sa 12:00-14:30,17:00-21:30; Su 17:00-20:30", "operator": "Maclin Lodge", "phone": "+61-2-46280348", "takeaway": "yes", "website": "https://www.maclinlodgemotel.com.au/facilities/"}}]}