{"version": 0.6, "generator": "Overpass API 0.7.60 f4c14d41", "osm3s": {"timestamp_osm_base": "2023-05-02T21:14:21Z", "copyright": "The data included in this document is from www.openstreetmap.org. The data is made available under ODbL."}, "elements": [{"type": "node", "id": 1587701247, "lat": 41.107197, "lon": 29.0240619, "tags": {"amenity": "bank", "atm": "yes", "name": "Vak\u0131f Bankas\u0131", "name:ar": "\u0628\u0646\u0643 \u0648\u0642\u0641", "wheelchair": "yes"}}, {"type": "node", "id": 1688982070, "lat": 41.0680167, "lon": 29.0095956, "tags": {"amenity": "bank", "atm": "yes", "brand": "Citibank", "brand:wikidata": "Q857063", "brand:wikipedia": "en:Citibank", "name": "Citibank", "name:ar": "\u0628\u0646\u0643 \u062c\u064a\u062a\u064a", "short_name": "Citi"}}, {"type": "node", "id": 1727669554, "lat": 41.0678552, "lon": 29.0053091, "tags": {"amenity": "bank", "atm": "yes", "brand": "T\u00fcrkiye \u0130\u015f Bankas\u0131", "brand:wikidata": "Q909613", "brand:wikipedia": "en:\u0130\u015fbank", "name": "T\u00fcrkiye \u0130\u015f Bankas\u0131"}}, {"type": "node", "id": 1727669581, "lat": 41.0678835, "lon": 29.0054378, "tags": {"amenity": "bank", "atm": "yes", "brand": "Denizbank", "brand:wikidata": "Q1115064", "brand:wikipedia": "en:DenizBank", "name": "Denizbank"}}, {"type": "node", "id": 1727669595, "lat": 41.0676611, "lon": 29.0047405, "tags": {"amenity": "bank", "atm": "yes", "brand": "Garanti Bankas\u0131", "brand:wikidata": "Q322962", "brand:wikipedia": "en:Garanti BBVA", "name": "Garanti Bankas\u0131"}}, {"type": "node", "id": 1746348508, "lat": 41.1219566, "lon": 29.0701007, "tags": {"addr:housename": "Yap\u0131 Kredi Bankas\u0131", "addr:housenumber": "120", "addr:postcode": "34464", "addr:street": "K\u00f6yba\u015f\u0131 Caddesi", "amenity": "bank", "atm": "yes", "branch": "Yenik\u00f6y \u015eubesi", "brand": "Yap\u0131 Kredi", "brand:wikidata": "Q8049138", "designation": "Yap\u0131 Kredi Yenik\u00f6y \u015eubesi", "name": "Yap\u0131 Kredi"}}, {"type": "node", "id": 1746349262, "lat": 41.1223021, "lon": 29.0704172, "tags": {"addr:housename": "\u0130\u015f Bankas\u0131", "addr:housenumber": "72", "addr:postcode": "34464", "addr:street": "K\u00f6yba\u015f\u0131 Caddesi", "amenity": "bank", "atm": "yes", "branch": "Yenik\u00f6y \u015eubesi", "brand": "T\u00fcrkiye \u0130\u015f Bankas\u0131", "brand:wikidata": "Q909613", "name": "T\u00fcrkiye \u0130\u015f Bankas\u0131"}}, {"type": "node", "id": 1863221200, "lat": 41.0802458, "lon": 29.027008, "tags": {"amenity": "bank", "atm": "yes", "brand": "Akbank", "brand:wikidata": "Q416624", "brand:wikipedia": "tr:Akbank", "name": "Akbank"}}, {"type": "node", "id": 1863222290, "lat": 41.0786344, "lon": 29.0262882, "tags": {"amenity": "bank", "atm": "yes", "brand": "T\u00fcrkiye \u0130\u015f Bankas\u0131", "brand:wikidata": "Q909613", "brand:wikipedia": "en:\u0130\u015fbank", "name": "T\u00fcrkiye \u0130\u015f Bankas\u0131"}}, {"type": "node", "id": 1920318975, "lat": 41.0490493, "lon": 29.0762746, "tags": {"amenity": "bank", "atm": "yes", "brand": "ING", "brand:wikidata": "Q645708", "brand:wikipedia": "en:ING Group", "name": "ING"}}, {"type": "node", "id": 1920319050, "lat": 41.0483061, "lon": 29.0767017, "tags": {"amenity": "bank", "atm": "yes", "brand": "Akbank", "brand:wikidata": "Q416624", "brand:wikipedia": "tr:Akbank", "name": "Akbank"}}, {"type": "node", "id": 2245028850, "lat": 41.0838352, "lon": 29.050292, "tags": {"amenity": "bank", "brand": "Garanti Bankas\u0131", "brand:wikidata": "Q322962", "brand:wikipedia": "en:Garanti Bank", "name": "Garanti Bankas\u0131", "wheelchair": "yes"}}, {"type": "node", "id": 2260090092, "lat": 41.0669662, "lon": 29.0012026, "tags": {"amenity": "bank", "atm": "yes", "brand": "Garanti Bankas\u0131", "brand:wikidata": "Q322962", "brand:wikipedia": "en:Garanti Bank", "name": "Garanti BBVA"}}, {"type": "node", "id": 2274989159, "lat": 41.0670432, "lon": 29.0007362, "tags": {"amenity": "bank", "name": "Burgan Bank"}}, {"type": "node", "id": 2275024585, "lat": 41.0690612, "lon": 29.0002558, "tags": {"amenity": "bank", "brand": "Akbank", "brand:wikidata": "Q416624", "brand:wikipedia": "tr:Akbank", "name": "Akbank"}}, {"type": "node", "id": 2279958699, "lat": 41.0673527, "lon": 29.003963, "tags": {"amenity": "bank"}}, {"type": "node", "id": 2483577467, "lat": 41.1046553, "lon": 29.0208183, "tags": {"addr:housename": "75. Y\u0131l \u00d6\u011frenci Merkezi", "addr:housenumber": "Giri\u015f Kat\u0131", "addr:neighbourhood": "\u0130stanbul Technical University, Ayaza\u011fa", "addr:street": "Fak\u00fclteler Bulvar\u0131", "amenity": "bank", "atm": "yes", "branch": "\u0130T\u00dc Ba\u011fl\u0131 \u015eubesi", "brand": "Vak\u0131fbank", "brand:wikidata": "Q1148521", "brand:wikipedia": "en:Vak\u0131fBank", "name": "Vak\u0131fbank", "wheelchair": "yes"}}, {"type": "node", "id": 2543928917, "lat": 41.1688458, "lon": 29.055983, "tags": {"amenity": "bank", "atm": "yes", "branch": "Sar\u0131yer \u015eubesi", "brand": "T\u00fcrkiye \u0130\u015f Bankas\u0131", "brand:wikidata": "Q909613", "name": "T\u00fcrkiye \u0130\u015f Bankas\u0131"}}, {"type": "node", "id": 2789509611, "lat": 41.2087295, "lon": 29.02275}, {"type": "node", "id": 2789509612, "lat": 41.2086967, "lon": 29.02275}, {"type": "node", "id": 2789509613, "lat": 41.2086967, "lon": 29.0227082}, {"type": "node", "id": 2789509614, "lat": 41.2085543, "lon": 29.0227137}, {"type": "node", "id": 2789509615, "lat": 41.2085571, "lon": 29.022912}, {"type": "node", "id": 2789509616, "lat": 41.2086926, "lon": 29.0229065}, {"type": "node", "id": 2789509617, "lat": 41.2086953, "lon": 29.022881}, {"type": "node", "id": 2789509618, "lat": 41.208724, "lon": 29.0228738}, {"type": "node", "id": 2805687718, "lat": 41.2089115, "lon": 29.0222392, "tags": {"amenity": "bank", "atm": "yes", "name": "T\u00fcrkiye Ekonomi Bankas\u0131"}}, {"type": "node", "id": 3315431771, "lat": 41.0522284, "lon": 29.0100516}, {"type": "node", "id": 3315431772, "lat": 41.0521292, "lon": 29.0100324}, {"type": "node", "id": 3315431773, "lat": 41.0521172, "lon": 29.0101415}, {"type": "node", "id": 3315431774, "lat": 41.0522163, "lon": 29.0101607}, {"type": "node", "id": 3406889110, "lat": 41.0568584, "lon": 29.0123898, "tags": {"addr:city": "\u0130stanbul", "addr:housename": "Koza Plaza C Blok", "addr:street": "Morbasan Sok", "amenity": "bank", "designation": "Koza Plaza C Blok", "name": "\u0130lbak Holding"}}, {"type": "node", "id": 3600177343, "lat": 41.2075672, "lon": 29.0234209, "tags": {"amenity": "bank", "brand": "Akbank", "brand:wikidata": "Q416624", "brand:wikipedia": "tr:Akbank", "name": "Akbank"}}, {"type": "node", "id": 3600177344, "lat": 41.2074411, "lon": 29.0234679, "tags": {"amenity": "bank", "brand": "\u0130\u015f Bankas\u0131", "brand:wikidata": "Q909613", "brand:wikipedia": "en:T\u00fcrkiye \u0130\u015f Bankas\u0131", "name": "\u0130\u015f Bankas\u0131"}}, {"type": "node", "id": 3773156153, "lat": 41.2078202, "lon": 29.0234125, "tags": {"amenity": "bank", "atm": "yes", "brand": "Ziraat Bankas\u0131", "brand:wikidata": "Q696003", "brand:wikipedia": "en:Ziraat Bankas\u0131", "name": "Ziraat Bankas\u0131"}}, {"type": "node", "id": 3797883568, "lat": 41.0691745, "lon": 29.0126917, "tags": {"addr:city": "\u0130stanbul", "addr:housenumber": "128", "addr:postcode": "34394", "addr:street": "B\u00fcy\u00fckdere Caddesi", "amenity": "bank", "atm": "yes", "branch": "Genel M\u00fcd\u00fcrl\u00fc\u011f\u00fc", "brand": "HSBC", "brand:wikidata": "Q190464", "brand:wikipedia": "en:HSBC", "name": "HSBC", "opening_hours": "08:30-12:00,13:00-17:00", "phone": "+90 212 376 40 00"}}, {"type": "node", "id": 3818242613, "lat": 41.0937629, "lon": 29.0921187, "tags": {"amenity": "bank", "name": "Albaraka T\u00fcrk"}}, {"type": "node", "id": 3818242616, "lat": 41.0943461, "lon": 29.092889, "tags": {"amenity": "bank", "brand": "Halkbank", "brand:wikidata": "Q3593818", "brand:wikipedia": "en:Halkbank a.d.", "name": "Halkbank"}}, {"type": "node", "id": 4043703535, "lat": 41.0728474, "lon": 29.0286575, "tags": {"amenity": "bank", "brand": "Garanti Bankas\u0131", "brand:wikidata": "Q322962", "brand:wikipedia": "en:Garanti BBVA", "name": "Garanti Bankas\u0131"}}, {"type": "node", "id": 4043703536, "lat": 41.0725589, "lon": 29.0288145, "tags": {"amenity": "bank", "brand": "T\u00fcrkiye \u0130\u015f Bankas\u0131", "brand:wikidata": "Q909613", "brand:wikipedia": "en:\u0130\u015fbank", "name": "T\u00fcrkiye \u0130\u015f Bankas\u0131"}}, {"type": "node", "id": 4043705880, "lat": 41.0721952, "lon": 29.0285769, "tags": {"amenity": "bank", "brand": "TEB", "brand:wikidata": "Q7862447", "brand:wikipedia": "en:T\u00fcrk Ekonomi Bankas\u0131", "name": "TEB"}}, {"type": "node", "id": 4043705882, "lat": 41.0726961, "lon": 29.028752, "tags": {"amenity": "bank", "brand": "Yap\u0131 Kredi", "brand:wikidata": "Q8049138", "brand:wikipedia": "en:Yap\u0131 Kredi", "name": "Yap\u0131 Kredi"}}, {"type": "node", "id": 4043707845, "lat": 41.0732184, "lon": 29.0284628, "tags": {"amenity": "bank", "brand": "Akbank", "brand:wikidata": "Q416624", "brand:wikipedia": "tr:Akbank", "name": "Akbank"}}, {"type": "node", "id": 4043707846, "lat": 41.0730245, "lon": 29.0287621, "tags": {"amenity": "bank", "brand": "T\u00fcrkiye \u0130\u015f Bankas\u0131", "brand:wikidata": "Q909613", "brand:wikipedia": "en:\u0130\u015fbank", "name": "T\u00fcrkiye \u0130\u015f Bankas\u0131"}}, {"type": "node", "id": 4044310881, "lat": 41.0722335, "lon": 29.0289748, "tags": {"amenity": "bank", "brand": "QNB Finansbank", "brand:wikidata": "Q1416237", "brand:wikipedia": "en:QNB Finansbank", "name": "QNB Finansbank"}}, {"type": "node", "id": 4044310882, "lat": 41.0711704, "lon": 29.0279148, "tags": {"amenity": "bank", "brand": "HSBC", "brand:wikidata": "Q190464", "name": "HSBC"}}, {"type": "node", "id": 4044310886, "lat": 41.0732334, "lon": 29.0289674, "tags": {"amenity": "bank", "brand": "Ziraat Bankas\u0131", "brand:wikidata": "Q696003", "name": "Ziraat Bankas\u0131"}}, {"type": "node", "id": 4053651175, "lat": 41.0757162, "lon": 29.0200806, "tags": {"amenity": "bank", "atm": "yes", "brand": "Akbank", "brand:wikidata": "Q416624", "brand:wikipedia": "tr:Akbank", "name": "Akbank"}}, {"type": "node", "id": 4053651176, "lat": 41.0755666, "lon": 29.0198003, "tags": {"amenity": "bank", "atm": "yes", "brand": "Garanti Bankas\u0131", "brand:wikidata": "Q322962", "brand:wikipedia": "en:Garanti BBVA", "name": "Garanti Bankas\u0131"}}, {"type": "node", "id": 4053663974, "lat": 41.0764057, "lon": 29.021348, "tags": {"amenity": "bank", "atm": "yes", "brand": "Denizbank", "brand:wikidata": "Q1115064", "brand:wikipedia": "en:DenizBank", "name": "Denizbank"}}, {"type": "node", "id": 4053740062, "lat": 41.0758891, "lon": 29.0190895, "tags": {"amenity": "bank", "atm": "yes", "name": "T-Bank"}}, {"type": "node", "id": 4053741134, "lat": 41.0752138, "lon": 29.01768, "tags": {"amenity": "bank", "atm": "yes", "name": "Turkish Bank"}}, {"type": "node", "id": 4053760857, "lat": 41.0753614, "lon": 29.0172697, "tags": {"amenity": "bank", "atm": "yes", "brand": "Denizbank", "brand:wikidata": "Q1115064", "brand:wikipedia": "en:DenizBank", "name": "Denizbank"}}, {"type": "node", "id": 4053760858, "lat": 41.0754271, "lon": 29.0172241, "tags": {"amenity": "bank", "atm": "yes", "brand": "Fibabanka", "brand:wikidata": "Q5446343", "brand:wikipedia": "en:Fibabanka", "name": "Fibabanka"}}, {"type": "node", "id": 4053760859, "lat": 41.0752168, "lon": 29.0173112, "tags": {"amenity": "bank", "atm": "yes", "brand": "Garanti Bankas\u0131", "brand:wikidata": "Q322962", "brand:wikipedia": "en:Garanti BBVA", "name": "Garanti Bankas\u0131"}}, {"type": "node", "id": 4053760860, "lat": 41.0764533, "lon": 29.0170792, "tags": {"amenity": "bank", "atm": "yes", "brand": "Garanti Bankas\u0131", "brand:wikidata": "Q322962", "brand:wikipedia": "en:Garanti BBVA", "name": "Garanti Bankas\u0131"}}, {"type": "node", "id": 4053760861, "lat": 41.0766575, "lon": 29.0168083, "tags": {"amenity": "bank", "atm": "yes", "brand": "Halkbank", "brand:wikidata": "Q3593818", "brand:wikipedia": "en:Halkbank a.d.", "name": "Halkbank"}}, {"type": "node", "id": 4053760864, "lat": 41.0755646, "lon": 29.0174467, "tags": {"amenity": "bank", "atm": "yes", "brand": "T\u00fcrkiye \u0130\u015f Bankas\u0131", "brand:wikidata": "Q909613", "brand:wikipedia": "en:\u0130\u015fbank", "name": "T\u00fcrkiye \u0130\u015f Bankas\u0131"}}, {"type": "node", "id": 4053760865, "lat": 41.0758093, "lon": 29.0173863, "tags": {"amenity": "bank", "atm": "yes", "brand": "T\u00fcrkiye \u0130\u015f Bankas\u0131", "brand:wikidata": "Q909613", "brand:wikipedia": "en:\u0130\u015fbank", "name": "T\u00fcrkiye \u0130\u015f Bankas\u0131"}}, {"type": "node", "id": 4053760866, "lat": 41.0763168, "lon": 29.0171758, "tags": {"amenity": "bank", "atm": "yes", "brand": "Ziraat Bankas\u0131", "brand:wikidata": "Q696003", "brand:wikipedia": "en:Ziraat Bank", "name": "Ziraat Bankas\u0131"}}, {"type": "node", "id": 4053774738, "lat": 41.0760044, "lon": 29.0154954, "tags": {"amenity": "bank", "atm": "yes", "brand": "Akbank", "brand:wikidata": "Q416624", "brand:wikipedia": "tr:Akbank", "name": "Akbank"}}, {"type": "node", "id": 4053774741, "lat": 41.0760671, "lon": 29.015722, "tags": {"amenity": "bank", "atm": "yes", "brand": "Odeabank", "brand:wikidata": "Q6036742", "brand:wikipedia": "tr:Odeabank", "name": "Odeabank"}}, {"type": "node", "id": 4053774743, "lat": 41.0760418, "lon": 29.0161217, "tags": {"amenity": "bank", "atm": "yes", "brand": "TEB", "brand:wikidata": "Q7862447", "brand:wikipedia": "en:T\u00fcrk Ekonomi Bankas\u0131", "name": "TEB"}}, {"type": "node", "id": 4053774744, "lat": 41.0759084, "lon": 29.0157435, "tags": {"amenity": "bank", "atm": "yes", "brand": "Vak\u0131fbank", "brand:wikidata": "Q1148521", "brand:wikipedia": "en:Vak\u0131fBank", "name": "Vak\u0131fbank"}}, {"type": "node", "id": 4053774745, "lat": 41.075875, "lon": 29.0156429, "tags": {"amenity": "bank", "atm": "yes", "brand": "Yap\u0131 Kredi", "brand:wikidata": "Q8049138", "brand:wikipedia": "en:Yap\u0131 Kredi", "name": "Yap\u0131 Kredi"}}, {"type": "node", "id": 4053774746, "lat": 41.0761247, "lon": 29.0164341, "tags": {"amenity": "bank", "atm": "yes", "brand": "Ziraat Bankas\u0131", "brand:wikidata": "Q696003", "brand:wikipedia": "en:Ziraat Bank", "name": "Ziraat Bankas\u0131"}}, {"type": "node", "id": 4053785522, "lat": 41.0756688, "lon": 29.0167654, "tags": {"amenity": "bank", "atm": "yes", "brand": "QNB Finansbank", "brand:wikidata": "Q1416237", "brand:wikipedia": "en:QNB Finansbank", "name": "QNB Finansbank"}}, {"type": "node", "id": 4057360457, "lat": 41.0650213, "lon": 29.0304715, "tags": {"amenity": "bank", "atm": "yes", "brand": "Vak\u0131fbank", "brand:wikidata": "Q1148521", "brand:wikipedia": "en:Vak\u0131fBank", "name": "Vak\u0131fbank"}}, {"type": "node", "id": 4124658461, "lat": 41.066071, "lon": 29.008174, "tags": {"addr:city": "\u0130stanbul", "addr:housenumber": "15", "addr:street": "Y\u0131ld\u0131z Posta Caddesi", "amenity": "bank", "atm": "yes", "description": "Gayrettepe subesi", "name": "Ziraat"}}, {"type": "node", "id": 4161694290, "lat": 41.0497679, "lon": 29.0259329, "tags": {"amenity": "bank", "brand": "Ziraat Bankas\u0131", "brand:wikidata": "Q696003", "brand:wikipedia": "en:Ziraat Bankas\u0131", "name": "Ziraat Bankas\u0131", "wheelchair": "yes"}}, {"type": "node", "id": 4165094902, "lat": 41.0494837, "lon": 29.0257688, "tags": {"amenity": "bank", "name": "Turkiye bankasi", "wheelchair": "yes"}}, {"type": "node", "id": 4165094908, "lat": 41.0496635, "lon": 29.0256937, "tags": {"amenity": "bank", "name": "HSBL Bank", "wheelchair": "limited"}}, {"type": "node", "id": 4165094909, "lat": 41.0497105, "lon": 29.0256496, "tags": {"amenity": "bank", "brand": "Garanti Bankas\u0131", "brand:wikidata": "Q322962", "brand:wikipedia": "en:Garanti Bank", "name": "Garanti Bankas\u0131", "wheelchair": "limited"}}, {"type": "node", "id": 4176014390, "lat": 41.0589034, "lon": 28.9839961, "tags": {"addr:housenumber": "17", "amenity": "bank", "brand": "Garanti Bankas\u0131", "brand:wikidata": "Q322962", "name": "Garanti Bankas\u0131"}}, {"type": "node", "id": 4225526410, "lat": 41.0652268, "lon": 28.9790467, "tags": {"amenity": "bank", "branch": "Okmeydan\u0131 \u015eubesi", "brand": "Halkbank", "brand:wikidata": "Q3593818", "name": "Halkbank"}}, {"type": "node", "id": 4456383997, "lat": 41.0539969, "lon": 28.994418, "tags": {"amenity": "bank", "brand": "Ziraat Bankas\u0131", "brand:wikidata": "Q696003", "brand:wikipedia": "en:Ziraat Bankas\u0131", "name": "Ziraat Bankas\u0131", "name:tr": "Ziraat Bankas\u0131"}}, {"type": "node", "id": 4456385896, "lat": 41.053624, "lon": 28.993593, "tags": {"amenity": "bank", "brand": "Yap\u0131 Kredi", "brand:wikidata": "Q8049138", "brand:wikipedia": "en:Yap\u0131 ve Kredi Bankas\u0131", "name": "Yap\u0131 Kredi", "name:tr": "Yap\u0131 Kredi"}}, {"type": "node", "id": 4456479589, "lat": 41.0541122, "lon": 28.9945924, "tags": {"amenity": "bank", "brand": "Garanti Bankas\u0131", "brand:wikidata": "Q322962", "brand:wikipedia": "en:Garanti Bank", "name": "Garanti Bankas\u0131", "name:tr": "Garanti Bankas\u0131"}}, {"type": "node", "id": 4456480189, "lat": 41.0542524, "lon": 28.9947479, "tags": {"amenity": "bank", "brand": "\u015eekerbank", "brand:wikidata": "Q6088369", "name": "\u015eekerbank", "name:tr": "\u015eekerbank Os"}}, {"type": "node", "id": 4580099595, "lat": 41.0774227, "lon": 29.0112066, "tags": {"amenity": "bank", "brand": "T\u00fcrkiye \u0130\u015f Bankas\u0131", "brand:wikidata": "Q909613", "brand:wikipedia": "en:\u0130\u015fbank", "name": "T\u00fcrkiye \u0130\u015f Bankas\u0131"}}, {"type": "node", "id": 4581887988, "lat": 41.0930504, "lon": 29.0883899}, {"type": "node", "id": 4581887989, "lat": 41.0930405, "lon": 29.0884408}, {"type": "node", "id": 4581887990, "lat": 41.0932165, "lon": 29.0887543}, {"type": "node", "id": 4581887991, "lat": 41.0932295, "lon": 29.0887022}, {"type": "node", "id": 4582847428, "lat": 41.0930218, "lon": 29.0885258}, {"type": "node", "id": 4582847429, "lat": 41.0929955, "lon": 29.0886728}, {"type": "node", "id": 4582847430, "lat": 41.0930381, "lon": 29.0886879}, {"type": "node", "id": 4582847431, "lat": 41.093098, "lon": 29.0887128}, {"type": "node", "id": 4582847432, "lat": 41.0931392, "lon": 29.0887286}, {"type": "node", "id": 4582847433, "lat": 41.0931875, "lon": 29.0887474}, {"type": "node", "id": 4582847434, "lat": 41.0932425, "lon": 29.0886426}, {"type": "node", "id": 4582847435, "lat": 41.0932472, "lon": 29.0886073}, {"type": "node", "id": 4582847436, "lat": 41.0932547, "lon": 29.0885681}, {"type": "node", "id": 4582847437, "lat": 41.093223, "lon": 29.0884631}, {"type": "node", "id": 4582847438, "lat": 41.0931821, "lon": 29.0884232}, {"type": "node", "id": 4582847439, "lat": 41.0931419, "lon": 29.0884074}, {"type": "node", "id": 4582847440, "lat": 41.0930581, "lon": 29.0883755}, {"type": "node", "id": 4582847441, "lat": 41.0932437, "lon": 29.0885027}, {"type": "node", "id": 4582847442, "lat": 41.0930054, "lon": 29.0886042}, {"type": "node", "id": 4582847455, "lat": 41.0934822, "lon": 29.0901658, "tags": {"addr:housenumber": "24", "addr:street": "Fatih Sultan Mehmet Cd.", "amenity": "bank", "description": "geleneksel t\u00fcrk tatl\u0131lar\u0131", "name": "Garanti BBVA"}}, {"type": "node", "id": 4582847488, "lat": 41.0937193, "lon": 29.0917292, "tags": {"addr:housenumber": "36", "addr:street": "Fatih Sultan Mehmet Cd.", "amenity": "bank", "brand": "\u015eekerbank", "brand:wikidata": "Q6088369", "name": "\u015eekerbank"}}, {"type": "node", "id": 4583084728, "lat": 41.0949396, "lon": 29.0879771, "tags": {"amenity": "bank", "brand": "Denizbank", "brand:wikidata": "Q1115064", "brand:wikipedia": "en:DenizBank", "name": "Denizbank"}}, {"type": "node", "id": 4583106183, "lat": 41.094695, "lon": 29.0873202, "tags": {"amenity": "bank", "name": "baank asya"}}, {"type": "node", "id": 4583710424, "lat": 41.0944808, "lon": 29.0898833, "tags": {"amenity": "bank", "name": "albaraka t\u00fcrk"}}, {"type": "node", "id": 4583710425, "lat": 41.0944378, "lon": 29.0900774, "tags": {"amenity": "bank", "brand": "QNB Finansbank", "brand:wikidata": "Q1416237", "name": "QNB Finansbank"}}, {"type": "node", "id": 4583816405, "lat": 41.0948642, "lon": 29.0981684, "tags": {"addr:housenumber": "22A", "amenity": "bank", "brand": "Yap\u0131 Kredi", "brand:wikidata": "Q8049138", "brand:wikipedia": "en:Yap\u0131 ve Kredi Bankas\u0131", "name": "Yap\u0131 Kredi"}}, {"type": "node", "id": 4583816412, "lat": 41.0948146, "lon": 29.0991106, "tags": {"addr:housenumber": "22D", "amenity": "bank", "brand": "Akbank", "brand:wikidata": "Q416624", "brand:wikipedia": "tr:Akbank", "name": "Akbank"}}, {"type": "node", "id": 4583816413, "lat": 41.0947964, "lon": 29.0992192, "tags": {"addr:housenumber": "22D", "amenity": "bank", "brand": "Garanti Bankas\u0131", "brand:wikidata": "Q322962", "brand:wikipedia": "en:Garanti Bank", "name": "Garanti Bankas\u0131"}}, {"type": "node", "id": 4585388928, "lat": 41.0575708, "lon": 29.0010039, "tags": {"amenity": "bank", "brand": "Ziraat Bankas\u0131", "brand:wikidata": "Q696003", "brand:wikipedia": "en:Ziraat Bankas\u0131", "name": "Ziraat Bankas\u0131"}}, {"type": "node", "id": 4679475795, "lat": 41.08483, "lon": 29.01047, "tags": {"amenity": "bank", "atm": "yes", "brand": "Akbank", "brand:wikidata": "Q416624", "brand:wikipedia": "tr:Akbank", "name": "Akbank"}}, {"type": "node", "id": 4679475821, "lat": 41.07757, "lon": 29.04362, "tags": {"amenity": "bank", "atm": "yes", "branch": "TR Istanbul", "brand": "Akbank", "brand:wikidata": "Q416624", "name": "Akbank"}}, {"type": "node", "id": 4691931871, "lat": 41.0943982, "lon": 29.0910385}, {"type": "node", "id": 4691931872, "lat": 41.094283, "lon": 29.0909849}, {"type": "node", "id": 4691931873, "lat": 41.0942506, "lon": 29.0911673}, {"type": "node", "id": 4691931874, "lat": 41.0943578, "lon": 29.0912102}, {"type": "node", "id": 4691931880, "lat": 41.0943517, "lon": 29.0912854, "tags": {"amenity": "bank", "brand": "QNB Finansbank", "brand:wikidata": "Q1416237", "name": "QNB Finansbank"}}, {"type": "node", "id": 4767637037, "lat": 41.0525124, "lon": 28.9843099, "tags": {"amenity": "bank", "brand": "Akbank", "brand:wikidata": "Q416624", "brand:wikipedia": "tr:Akbank", "name": "Akbank"}}, {"type": "node", "id": 4767637039, "lat": 41.0518315, "lon": 28.9838257, "tags": {"amenity": "bank", "brand": "Garanti Bankas\u0131", "brand:wikidata": "Q322962", "brand:wikipedia": "en:Garanti Bank", "name": "Garanti Bankas\u0131"}}, {"type": "node", "id": 4833546623, "lat": 41.1124771, "lon": 29.0185988, "tags": {"addr:city": "\u0130stanbul", "addr:district": "Sar\u0131yer", "addr:housenumber": "No: 21", "addr:neighbourhood": "Maslak", "addr:street": "Ahi Evran Caddesi", "amenity": "bank", "atm": "yes", "brand": "Vak\u0131fbank", "brand:wikidata": "Q1148521", "brand:wikipedia": "en:Vak\u0131fBank", "name": "Vak\u0131fbank"}}, {"type": "node", "id": 4833546624, "lat": 41.1124307, "lon": 29.0186471, "tags": {"addr:city": "\u0130stanbul", "addr:district": "Sar\u0131yer", "addr:housenumber": "No: 21", "addr:neighbourhood": "Maslak", "addr:street": "Ahi Evran Caddesi", "amenity": "bank", "atm": "yes", "brand": "\u015eekerbank", "brand:wikidata": "Q6088369", "brand:wikipedia": "en:\u015eekerbank", "name": "\u015eekerbank"}}, {"type": "node", "id": 5083490053, "lat": 41.1081968, "lon": 29.0159882}, {"type": "node", "id": 5083490054, "lat": 41.1082194, "lon": 29.0162998}, {"type": "node", "id": 5083490055, "lat": 41.1079384, "lon": 29.0165964}, {"type": "node", "id": 5083490056, "lat": 41.1078323, "lon": 29.0160348}, {"type": "node", "id": 5095215657, "lat": 41.1086573, "lon": 29.0162}, {"type": "node", "id": 5095215658, "lat": 41.1090109, "lon": 29.0166694}, {"type": "node", "id": 5095215663, "lat": 41.1086966, "lon": 29.0178603, "tags": {"amenity": "bank", "atm": "yes", "branch": "Maslak Kurumsal \u015eube", "brand": "Garanti Bankas\u0131", "brand:wikidata": "Q322962", "brand:wikipedia": "en:Garanti BBVA", "name": "Garanti Bankas\u0131"}}, {"type": "node", "id": 5137236790, "lat": 41.1080511, "lon": 29.0177786}, {"type": "node", "id": 5137236791, "lat": 41.1084085, "lon": 29.0185087}, {"type": "node", "id": 5137236792, "lat": 41.1082388, "lon": 29.0187286}, {"type": "node", "id": 5302547957, "lat": 41.0590525, "lon": 28.9840606, "tags": {"amenity": "bank", "brand": "T\u00fcrkiye \u0130\u015f Bankas\u0131", "brand:wikidata": "Q909613", "brand:wikipedia": "en:T\u00fcrkiye \u0130\u015f Bankas\u0131", "name": "T\u00fcrkiye \u0130\u015f Bankas\u0131"}}, {"type": "node", "id": 5310768958, "lat": 41.0599643, "lon": 28.98431, "tags": {"amenity": "bank", "brand": "QNB Finansbank", "brand:wikidata": "Q1416237", "brand:wikipedia": "en:Finansbank", "name": "QNB Finansbank"}}, {"type": "node", "id": 5482874122, "lat": 41.0801095, "lon": 29.0110202, "tags": {"addr:street": "B\u00fcy\u00fckdere Cad", "amenity": "bank", "name": "VaikfBank", "opening_hours": "Mo-Su 09:00-12:30"}}, {"type": "node", "id": 5999839543, "lat": 41.1091034, "lon": 28.9875067, "tags": {"addr:neighbourhood": "Vadi \u0130stanbul", "amenity": "bank", "atm": "yes", "branch": "Vadi \u0130stanbul \u015eubesi", "brand": "Akbank", "brand:wikidata": "Q416624", "name": "Akbank", "operator": "Akbank"}}, {"type": "node", "id": 6145140954, "lat": 41.0787058, "lon": 29.0033695, "tags": {"addr:city": "Istanbul", "addr:district": "Ka\u011f\u0131thane", "addr:housenumber": "70", "addr:neighbourhood": "Ortabayir mah", "addr:postcode": "34413", "addr:street": "Talatpa\u015fa Caddesi", "amenity": "bank", "name": "T\u00fcrkiye Finans"}}, {"type": "node", "id": 6145140955, "lat": 41.0787143, "lon": 29.0034677, "tags": {"addr:city": "\u0130stanbul", "addr:district": "Ka\u011f\u0131thane", "addr:housenumber": "70", "addr:neighbourhood": "Ortabayir Mah.", "addr:postcode": "34413", "addr:street": "Talatpa\u015fa Caddesi", "amenity": "bank", "atm": "yes", "brand": "Kuveyt T\u00fcrk", "brand:wikidata": "Q6036058", "brand:wikipedia": "tr:Kuveyt T\u00fcrk", "drive_through": "no", "name": "Kuveyt T\u00fcrk"}}, {"type": "node", "id": 6206618086, "lat": 41.0675474, "lon": 29.0425838, "tags": {"amenity": "bank", "brand": "Ziraat Bankas\u0131", "brand:wikidata": "Q696003", "brand:wikipedia": "en:Ziraat Bank", "name": "Ziraat Bankas\u0131"}}, {"type": "node", "id": 6206634786, "lat": 41.0676336, "lon": 29.0430656, "tags": {"amenity": "bank", "brand": "Akbank", "brand:wikidata": "Q416624", "brand:wikipedia": "tr:Akbank", "name": "Akbank"}}, {"type": "node", "id": 6206635687, "lat": 41.0711441, "lon": 29.0294413, "tags": {"amenity": "bank", "brand": "Vak\u0131fbank", "brand:wikidata": "Q1148521", "name": "Vak\u0131fbank"}}, {"type": "node", "id": 6250988815, "lat": 41.1099184, "lon": 29.0198294, "tags": {"addr:city": "\u0130stanbul", "addr:district": "Sar\u0131yer", "addr:neighbourhood": "Maslak", "addr:street": "Bilim Sokak", "amenity": "bank", "atm": "yes", "brand": "QNB Finansbank", "brand:wikidata": "Q1416237", "brand:wikipedia": "en:QNB Finansbank", "drive_through": "no", "name": "QNB Finansbank", "operator": "Finansbank"}}, {"type": "node", "id": 6506526135, "lat": 41.1081476, "lon": 29.016309}, {"type": "node", "id": 6506526136, "lat": 41.1081663, "lon": 29.0165672}, {"type": "node", "id": 6506526137, "lat": 41.1078548, "lon": 29.016345}, {"type": "node", "id": 6506526138, "lat": 41.1079195, "lon": 29.0163367}, {"type": "node", "id": 6567256540, "lat": 41.080264, "lon": 29.0310292, "tags": {"amenity": "bank", "atm": "yes", "branch": "Etiler \u00d6zel Bankac\u0131l\u0131k \u015eubesi", "brand": "Alternatif Bank", "brand:wikidata": "Q4736403", "brand:wikipedia": "en:Alternatif Bank", "name": "Alternatif Bank", "operator": "Alternatif Bank", "phone": "02122578833"}}, {"type": "node", "id": 6567542638, "lat": 41.0898467, "lon": 29.005443, "tags": {"amenity": "bank", "atm": "yes", "branch": "Levent \u015eubesi", "brand": "Alternatif Bank", "brand:wikidata": "Q4736403", "brand:wikipedia": "en:Alternatif Bank", "name": "Alternatif Bank", "operator": "Alternatif Bank", "phone": "02122806210"}}, {"type": "node", "id": 6567563030, "lat": 41.1040071, "lon": 28.9858671, "tags": {"amenity": "bank", "atm": "yes", "branch": "\u0130stanbul Kurumsal \u015eubesi", "brand": "Alternatif Bank", "brand:wikidata": "Q4736403", "name": "Alternatif Bank", "operator": "Alternatif Bank", "phone": "02123156868"}}, {"type": "node", "id": 6567565090, "lat": 41.0579589, "lon": 28.9867756, "tags": {"amenity": "bank", "atm": "yes", "branch": "\u015ei\u015fli \u015eubesi", "brand": "Alternatif Bank", "brand:wikidata": "Q4736403", "name": "Alternatif Bank", "operator": "Alternatif Bank", "phone": "02122194151"}}, {"type": "node", "id": 6870767628, "lat": 41.1348361, "lon": 29.0909295}, {"type": "node", "id": 6870767631, "lat": 41.1349731, "lon": 29.0910274}, {"type": "node", "id": 6870767632, "lat": 41.1348309, "lon": 29.091011}, {"type": "node", "id": 6870767634, "lat": 41.1349773, "lon": 29.0909553}, {"type": "node", "id": 6870767635, "lat": 41.134969, "lon": 29.0911053}, {"type": "node", "id": 6870767636, "lat": 41.134829, "lon": 29.0910908}, {"type": "node", "id": 6870850792, "lat": 41.1349315, "lon": 29.0902822}, {"type": "node", "id": 6870850793, "lat": 41.1350314, "lon": 29.0903233}, {"type": "node", "id": 6870850799, "lat": 41.1350703, "lon": 29.0903363}, {"type": "node", "id": 6870850800, "lat": 41.1350138, "lon": 29.0903155}, {"type": "node", "id": 6870850801, "lat": 41.1350864, "lon": 29.0902641}, {"type": "node", "id": 6870850804, "lat": 41.1349475, "lon": 29.0902099}, {"type": "node", "id": 6870850805, "lat": 41.1350309, "lon": 29.0902424}, {"type": "node", "id": 6877532265, "lat": 41.0651265, "lon": 28.9940989, "tags": {"amenity": "bank", "brand": "T\u00fcrkiye \u0130\u015f Bankas\u0131", "brand:wikidata": "Q909613", "brand:wikipedia": "en:\u0130\u015fbank", "name": "T\u00fcrkiye \u0130\u015f Bankas\u0131", "wheelchair": "no"}}, {"type": "node", "id": 6877589471, "lat": 41.0650926, "lon": 28.9940318, "tags": {"amenity": "bank", "brand": "\u015eekerbank", "brand:wikidata": "Q6088369", "brand:wikipedia": "en:\u015eekerbank", "name": "\u015eekerbank", "wheelchair": "no"}}, {"type": "node", "id": 6877596415, "lat": 41.0653701, "lon": 28.994601, "tags": {"addr:block_number": "42-46A", "amenity": "bank", "brand": "Akbank", "brand:wikidata": "Q416624", "brand:wikipedia": "tr:Akbank", "name": "Akbank", "wheelchair": "no"}}, {"type": "node", "id": 6877596416, "lat": 41.0654058, "lon": 28.9946925, "tags": {"addr:block_number": "42-46A", "amenity": "bank", "brand": "Garanti Bankas\u0131", "brand:wikidata": "Q322962", "brand:wikipedia": "en:Garanti Bank", "name": "Garanti BBVA", "wheelchair": "limited"}}, {"type": "node", "id": 6903729778, "lat": 41.1351901, "lon": 29.0895854, "tags": {"amenity": "bank", "atm": "yes", "brand": "Akbank", "brand:wikidata": "Q416624", "contact:facebook": "https://tr-tr.facebook.com/Akbank", "contact:instagram": "https://www.instagram.com/akbank/", "contact:phone": "+904442525", "contact:twitter": "https://twitter.com/akbank", "contact:website": "https://www.akbank.com/tr-tr", "name": "Akbank", "operator": "Akbank"}}, {"type": "node", "id": 6929906107, "lat": 41.0696112, "lon": 29.0110652}, {"type": "node", "id": 6929906108, "lat": 41.0698613, "lon": 29.0105261}, {"type": "node", "id": 6929906109, "lat": 41.0693924, "lon": 29.0104591}, {"type": "node", "id": 6929906110, "lat": 41.0697697, "lon": 29.0108185}, {"type": "node", "id": 6929906111, "lat": 41.0698266, "lon": 29.0106817}, {"type": "node", "id": 6929906112, "lat": 41.0697024, "lon": 29.0109393}, {"type": "node", "id": 6929906113, "lat": 41.0696347, "lon": 29.010428}, {"type": "node", "id": 6929906114, "lat": 41.0697541, "lon": 29.0104637}, {"type": "node", "id": 6929906115, "lat": 41.0694929, "lon": 29.0104334}, {"type": "node", "id": 6929906116, "lat": 41.0694644, "lon": 29.0107917}, {"type": "node", "id": 6929906117, "lat": 41.0694208, "lon": 29.0106471}, {"type": "node", "id": 6929906118, "lat": 41.069533, "lon": 29.010953}, {"type": "node", "id": 7112413420, "lat": 41.0666168, "lon": 28.9877555, "tags": {"amenity": "bank", "brand": "Yap\u0131 Kredi", "brand:wikidata": "Q8049138", "brand:wikipedia": "en:Yap\u0131 Kredi", "name": "Yap\u0131 Kredi"}}, {"type": "node", "id": 7112413421, "lat": 41.0666978, "lon": 28.9870784, "tags": {"amenity": "bank", "brand": "T\u00fcrkiye \u0130\u015f Bankas\u0131", "brand:wikidata": "Q909613", "brand:wikipedia": "en:\u0130\u015fbank", "name": "T\u00fcrkiye \u0130\u015f Bankas\u0131"}}, {"type": "node", "id": 7138411627, "lat": 41.0524728, "lon": 28.9877007, "tags": {"amenity": "bank", "brand": "Akbank", "brand:wikidata": "Q416624", "brand:wikipedia": "tr:Akbank", "name": "Akbank"}}, {"type": "node", "id": 7138764886, "lat": 41.050303, "lon": 28.98985, "tags": {"amenity": "bank", "name:ar": "\u0627\u0644\u0628\u0646\u0643 \u0627\u0644\u0639\u0631\u0628\u064a \u0627\u0644\u062a\u0631\u0643\u064a"}}, {"type": "node", "id": 7445036139, "lat": 41.0635286, "lon": 29.0633786}, {"type": "node", "id": 7445036140, "lat": 41.063522, "lon": 29.0634097}, {"type": "node", "id": 7445036141, "lat": 41.0635339, "lon": 29.0634115}, {"type": "node", "id": 7445036142, "lat": 41.0635399, "lon": 29.0633808}, {"type": "node", "id": 7527231495, "lat": 41.1189514, "lon": 29.0675662, "tags": {"addr:city": "istanbul", "addr:district": "sar\u0131yer", "addr:housenumber": "No: 116/A", "addr:neighbourhood": "Yenik\u00f6y mahallesi", "addr:street": "K\u00f6yba\u015f\u0131 Caddesi", "air_conditioning": "yes", "amenity": "bank", "atm": "yes", "brand": "Garanti Bankas\u0131", "brand:wikidata": "Q322962", "brand:wikipedia": "en:Garanti Bank", "name": "Garanti Bankas\u0131", "opening_hours": "Mo-Su 09:00-17:00", "phone": "0212 363 21 00", "website": "garanti.com.tr"}}, {"type": "node", "id": 7552141746, "lat": 41.0777977, "lon": 29.0438746, "tags": {"addr:city": "\u0130stanbul", "addr:district": "Be\u015fikta\u015f", "addr:housenumber": "No:55", "addr:neighbourhood": "Bebek", "addr:street": "Cevdetpa\u015fa Caddesi", "amenity": "bank", "brand": "TEB", "brand:wikidata": "Q7862447", "brand:wikipedia": "en:T\u00fcrk Ekonomi Bankas\u0131", "name": "TEB", "opening_hours": "Mo-Fr 09:00-17:00", "opening_hours:covid19": "open", "website": "teb.com.tr"}}, {"type": "node", "id": 7552199948, "lat": 41.0774822, "lon": 29.0434963, "tags": {"addr:city": "\u0130stanbul", "addr:district": "Be\u015fikta\u015f", "addr:housenumber": "No:1", "addr:neighbourhood": "Bebek", "addr:street": "Ba\u011faras\u0131 Soka\u011f\u0131", "amenity": "bank", "brand": "Yap\u0131 Kredi", "brand:wikidata": "Q8049138", "brand:wikipedia": "en:Yap\u0131 ve Kredi Bankas\u0131", "name": "Yap\u0131 Kredi", "opening_hours": "Mo-Fr 09:00-17:00", "opening_hours:covid19": "open", "phone": "0212 257 77 24", "website": "https://www.yapikredi.com.tr/"}}, {"type": "node", "id": 7552206292, "lat": 41.0770234, "lon": 29.0429608, "tags": {"addr:city": "\u0130stanbul", "addr:district": "Be\u015fikta\u015f", "addr:housenumber": "No:1", "addr:neighbourhood": "Bebek", "addr:street": "Bebek Hamam\u0131 Soka\u011f\u0131", "air_conditioning": "yes", "amenity": "bank", "brand": "Ziraat Bankas\u0131", "brand:wikidata": "Q696003", "brand:wikipedia": "en:Ziraat Bankas\u0131", "name": "Ziraat Bankas\u0131", "opening_hours": "Mo-Fr 09:00-17:00", "opening_hours:covid19": "open", "phone": "0212 287 00 76", "website": "ziraatbank.com.tr"}}, {"type": "node", "id": 7552336711, "lat": 41.0761815, "lon": 29.0429425, "tags": {"addr:city": "\u0130stanbul", "addr:district": "Be\u015fikta\u015f", "addr:housenumber": "No:43", "addr:neighbourhood": "Bebek", "addr:postcode": "34342", "addr:street": "Cevdetpa\u015fa Caddesi", "air_conditioning": "yes", "amenity": "bank", "brand": "ING", "brand:wikidata": "Q645708", "brand:wikipedia": "en:ING Group", "name": "ING", "opening_hours": "Mo-Fr 09:00-17:00", "opening_hours:covid19": "open", "phone": "0212 287 73 77", "website": "https://www.ing.com.tr/"}}, {"type": "node", "id": 7552343652, "lat": 41.0759362, "lon": 29.0429498, "tags": {"addr:city": "\u0130stanbul", "addr:district": "Be\u015fikta\u015f", "addr:housenumber": "No:41/A", "addr:neighbourhood": "Bebek", "addr:street": "Cevdetpa\u015fa Caddesi", "air_conditioning": "yes", "amenity": "bank", "atm": "yes", "brand": "Vak\u0131fbank", "brand:wikidata": "Q1148521", "brand:wikipedia": "en:Vak\u0131fBank", "name": "Vak\u0131fbank", "opening_hours": "Mo-Fr 09:00-17:00", "opening_hours:covid19": "open", "phone": "0212 265 78 81", "website": "https://vakifbank-bebek.subesi.tc/"}}, {"type": "node", "id": 7557061083, "lat": 41.0670098, "lon": 29.0421066, "tags": {"addr:city": "\u0130stanbul", "addr:district": "Be\u015fikta\u015f", "addr:housenumber": "No:53", "addr:neighbourhood": "Arnavutk\u00f6y", "addr:postcode": "34345", "addr:street": "Bebek Arnavutk\u00f6y Caddesi", "air_conditioning": "yes", "amenity": "bank", "atm": "yes", "brand": "T\u00fcrkiye \u0130\u015f Bankas\u0131", "brand:wikidata": "Q909613", "brand:wikipedia": "en:T\u00fcrkiye \u0130\u015f Bankas\u0131", "description": "\u015eube kodu:1131 ", "fax": "0212 257 42 98", "name": "T\u00fcrkiye \u0130\u015f Bankas\u0131", "opening_hours": "24/7", "opening_hours:covid19": "open", "phone": "0212 265 34 40", "website": "https://www.isbank.com.tr"}}, {"type": "node", "id": 7569300067, "lat": 41.0500496, "lon": 28.9878833, "tags": {"addr:city": "\u0130stanbul", "addr:district": "\u015ei\u015fli", "addr:housenumber": "No:162/A", "addr:postcode": "34380", "addr:street": "Halaskargazi Caddesi", "amenity": "bank", "atm": "yes", "brand": "Garanti Bankas\u0131", "brand:wikidata": "Q322962", "brand:wikipedia": "en:Garanti Bank", "fax": "0212 373 36 80", "name": "Garanti Bankas\u0131", "opening_hours": "Mo-Fr 09:00-17:00", "opening_hours:covid19": "open", "phone": "0212 373 36 50", "website": "www.garanti.com.tr"}}, {"type": "node", "id": 7710500300, "lat": 41.0670145, "lon": 28.9970546, "tags": {"amenity": "bank", "atm": "yes", "brand": "Akbank", "brand:wikidata": "Q416624", "brand:wikipedia": "tr:Akbank", "name": "Akbank"}}, {"type": "node", "id": 7740135487, "lat": 41.0663438, "lon": 28.9965717, "tags": {"amenity": "bank", "brand": "Vak\u0131fbank", "brand:wikidata": "Q1148521", "brand:wikipedia": "en:Vak\u0131fBank", "name": "Vak\u0131fbank"}}, {"type": "node", "id": 7740136135, "lat": 41.0675387, "lon": 29.0043605, "tags": {"amenity": "bank", "brand": "Yap\u0131 Kredi", "brand:wikidata": "Q8049138", "brand:wikipedia": "en:Yap\u0131 Kredi", "name": "Yap\u0131 Kredi"}}, {"type": "node", "id": 7740136343, "lat": 41.0663045, "lon": 28.9964442, "tags": {"amenity": "bank", "brand": "Yap\u0131 Kredi", "brand:wikidata": "Q8049138", "brand:wikipedia": "en:Yap\u0131 Kredi", "name": "Yap\u0131 Kredi"}}, {"type": "node", "id": 7740142167, "lat": 41.0663042, "lon": 29.0016019, "tags": {"amenity": "bank", "name": "QNB Finansbank"}}, {"type": "node", "id": 7740143992, "lat": 41.0662729, "lon": 28.9962959, "tags": {"amenity": "bank", "brand": "TEB", "brand:wikidata": "Q7862447", "brand:wikipedia": "en:T\u00fcrk Ekonomi Bankas\u0131", "name": "TEB"}}, {"type": "node", "id": 7740535183, "lat": 41.0670572, "lon": 29.0032176, "tags": {"amenity": "bank", "brand": "Akbank", "brand:wikidata": "Q416624", "brand:wikipedia": "tr:Akbank", "name": "Akbank"}}, {"type": "node", "id": 7740542710, "lat": 41.0670014, "lon": 29.0026897, "tags": {"amenity": "bank", "brand": "Halkbank", "brand:wikidata": "Q3593818", "brand:wikipedia": "en:Halkbank a.d.", "name": "Halkbank"}}, {"type": "node", "id": 7745507970, "lat": 41.0828546, "lon": 29.011474}, {"type": "node", "id": 7745507972, "lat": 41.0829085, "lon": 29.0114323}, {"type": "node", "id": 7745507974, "lat": 41.0829618, "lon": 29.0113912}, {"type": "node", "id": 7745507976, "lat": 41.0830143, "lon": 29.0113489}, {"type": "node", "id": 7745507978, "lat": 41.0830686, "lon": 29.0113063}, {"type": "node", "id": 7745507980, "lat": 41.0831218, "lon": 29.0112643}, {"type": "node", "id": 7745524103, "lat": 41.0832356, "lon": 29.0115068}, {"type": "node", "id": 7745524105, "lat": 41.0831822, "lon": 29.0115513}, {"type": "node", "id": 7745524107, "lat": 41.0831296, "lon": 29.0115941}, {"type": "node", "id": 7745524109, "lat": 41.0830756, "lon": 29.0116357}, {"type": "node", "id": 7745524111, "lat": 41.0830231, "lon": 29.01168}, {"type": "node", "id": 7745524113, "lat": 41.0829702, "lon": 29.0117225}, {"type": "node", "id": 7745524134, "lat": 41.0828412, "lon": 29.0115363}, {"type": "node", "id": 7745524135, "lat": 41.0829152, "lon": 29.011708}, {"type": "node", "id": 7745524136, "lat": 41.0829839, "lon": 29.0116663}, {"type": "node", "id": 7745524137, "lat": 41.0830352, "lon": 29.0116212}, {"type": "node", "id": 7745524138, "lat": 41.0830892, "lon": 29.0115772}, {"type": "node", "id": 7745524139, "lat": 41.0831423, "lon": 29.0115329}, {"type": "node", "id": 7745524140, "lat": 41.083193, "lon": 29.0114907}, {"type": "node", "id": 7745524141, "lat": 41.0832455, "lon": 29.011452}, {"type": "node", "id": 7745524142, "lat": 41.0831673, "lon": 29.0112841}, {"type": "node", "id": 7745524143, "lat": 41.0831097, "lon": 29.011323}, {"type": "node", "id": 7745524144, "lat": 41.0830564, "lon": 29.0113653}, {"type": "node", "id": 7745524145, "lat": 41.0830017, "lon": 29.0114067}, {"type": "node", "id": 7745524146, "lat": 41.0829482, "lon": 29.0114493}, {"type": "node", "id": 7745524147, "lat": 41.0828985, "lon": 29.0114894}, {"type": "node", "id": 7745524148, "lat": 41.0831903, "lon": 29.0114755}, {"type": "node", "id": 7745524149, "lat": 41.0829784, "lon": 29.0116442}, {"type": "node", "id": 7745524150, "lat": 41.0829586, "lon": 29.0116419}, {"type": "node", "id": 7745524151, "lat": 41.0829035, "lon": 29.0115218}, {"type": "node", "id": 7745524152, "lat": 41.0829093, "lon": 29.011501}, {"type": "node", "id": 7745524153, "lat": 41.083127, "lon": 29.0113353}, {"type": "node", "id": 7745524154, "lat": 41.0831439, "lon": 29.0113407}, {"type": "node", "id": 7745524155, "lat": 41.0831955, "lon": 29.0114532}, {"type": "node", "id": 8006457152, "lat": 41.1338714, "lon": 29.0918096, "tags": {"addr:city": "\u0130stanbul", "addr:country": "TR", "addr:district": "Beykoz", "addr:neighbourhood": "Merkez Mahallesi", "addr:postcode": "34820", "amenity": "bank", "atm": "yes", "brand": "Garanti Bankas\u0131", "brand:wikidata": "Q322962", "brand:wikipedia": "en:Garanti Bank", "contact:instagram": "https://www.instagram.com/garantibbva", "contact:twitter": "https://twitter.com/garantibbva", "contact:website": "https://www.garantibbva.com.tr/tr", "name": "Garanti Bankas\u0131", "operator": "Garanti Bankas\u0131"}}, {"type": "node", "id": 8006457153, "lat": 41.1337376, "lon": 29.0919986, "tags": {"addr:district": "Beykoz", "addr:housenumber": "4", "addr:neighbourhood": "Merkez Mahallesi", "addr:street": "Kelle \u0130brahim Caddesi", "amenity": "bank", "atm": "yes", "brand": "Halkbank", "brand:wikidata": "Q3593818", "brand:wikipedia": "en:Halkbank", "contact:facebook": "https://tr-tr.facebook.com/halkbank/", "contact:instagram": "https://www.instagram.com/halkbank/", "contact:phone": "+908502220400", "contact:twitter": "https://twitter.com/halkbank", "contact:website": "https://www.halkbank.com.tr", "name": "Halkbank", "operator": "T\u00fcrkiye Halk Bankas\u0131"}}, {"type": "node", "id": 8411965435, "lat": 41.0826781, "lon": 29.0086122, "tags": {"amenity": "bank", "brand": "QNB Finansbank", "brand:wikidata": "Q1416237", "brand:wikipedia": "en:QNB Finansbank", "name": "QNB Finansbank"}}, {"type": "node", "id": 9003035175, "lat": 41.0934524, "lon": 29.0902429, "tags": {"amenity": "bank", "name": "T\u00fcrkiye Finans"}}, {"type": "node", "id": 9138373768, "lat": 41.1085816, "lon": 29.0168608}, {"type": "node", "id": 9138373769, "lat": 41.1085531, "lon": 29.016208}, {"type": "node", "id": 9384974710, "lat": 41.1083381, "lon": 29.0177625}, {"type": "node", "id": 9553787769, "lat": 41.1679204, "lon": 29.0565602, "tags": {"amenity": "bank", "brand": "Vak\u0131fbank", "brand:wikidata": "Q1148521", "name": "Vak\u0131fbank"}}, {"type": "node", "id": 9553823768, "lat": 41.1679887, "lon": 29.0565053, "tags": {"amenity": "bank", "brand": "Kuveyt T\u00fcrk", "brand:wikidata": "Q6036058", "name": "Kuveyt T\u00fcrk"}}, {"type": "node", "id": 9553838133, "lat": 41.1681026, "lon": 29.0563586, "tags": {"amenity": "bank", "brand": "Ziraat Bankas\u0131", "brand:wikidata": "Q696003", "name": "Ziraat Bankas\u0131"}}, {"type": "node", "id": 9896975317, "lat": 41.1154625, "lon": 29.0231786, "tags": {"amenity": "bank", "name": "albaraka", "name:ar": "\u0645\u0635\u0631\u0641 \u0627\u0644\u0628\u0631\u0643\u0629"}}, {"type": "node", "id": 9933649605, "lat": 41.0810223, "lon": 28.9730348, "tags": {"amenity": "bank", "brand": "TEB", "brand:wikidata": "Q7862447", "name": "TEB"}}, {"type": "node", "id": 9933662730, "lat": 41.0808181, "lon": 28.9732708, "tags": {"amenity": "bank", "brand": "QNB Finansbank", "brand:wikidata": "Q1416237", "name": "QNB Finansbank"}}, {"type": "node", "id": 9933666200, "lat": 41.0818068, "lon": 28.9709711, "tags": {"amenity": "bank", "brand": "Denizbank", "brand:wikidata": "Q1115064", "name": "Denizbank"}}, {"type": "node", "id": 9933670145, "lat": 41.0812679, "lon": 28.9734081, "tags": {"amenity": "bank", "brand": "Yap\u0131 Kredi", "brand:wikidata": "Q8049138", "name": "Yap\u0131 Kredi"}}, {"type": "node", "id": 9933670965, "lat": 41.0812126, "lon": 28.9727152, "tags": {"amenity": "bank", "brand": "T\u00fcrkiye \u0130\u015f Bankas\u0131", "brand:wikidata": "Q909613", "name": "T\u00fcrkiye \u0130\u015f Bankas\u0131"}}, {"type": "node", "id": 9933672046, "lat": 41.0818193, "lon": 28.9727785, "tags": {"amenity": "bank", "brand": "Kuveyt T\u00fcrk", "brand:wikidata": "Q6036058", "name": "Kuveyt T\u00fcrk"}}, {"type": "node", "id": 9933678407, "lat": 41.0803208, "lon": 28.9726338, "tags": {"amenity": "bank", "name": "Garanti BBVA"}}, {"type": "node", "id": 9933682164, "lat": 41.0814069, "lon": 28.9731098, "tags": {"amenity": "bank", "brand": "Akbank", "brand:wikidata": "Q416624", "name": "Akbank"}}, {"type": "node", "id": 10592098866, "lat": 41.0866506, "lon": 29.0072952, "tags": {"amenity": "bank", "atm": "yes", "name": "Ziraat Bankas\u0131"}}, {"type": "node", "id": 10708273614, "lat": 41.0663011, "lon": 29.0018865, "tags": {"amenity": "bank", "name": "Albaraka"}}, {"type": "node", "id": 10736429187, "lat": 41.111551, "lon": 29.0200647}, {"type": "node", "id": 10736429188, "lat": 41.1113858, "lon": 29.0195388}, {"type": "node", "id": 10736429189, "lat": 41.1112729, "lon": 29.0196013}, {"type": "node", "id": 10736429190, "lat": 41.1114381, "lon": 29.0201272}, {"type": "node", "id": 10736429191, "lat": 41.1114962, "lon": 29.020095}, {"type": "node", "id": 10816974034, "lat": 41.0852648, "lon": 29.0081503, "tags": {"amenity": "bank", "name": "Ziraat Bankas\u0131"}}, {"type": "node", "id": 10831369236, "lat": 41.0711935, "lon": 29.0150495, "tags": {"amenity": "bank", "atm": "no", "brand": "Aktif Bank", "name": "Aktif Bank Genel M\u00fcd\u00fcrl\u00fck"}}, {"type": "way", "id": 274190459, "nodes": [2789509611, 2789509612, 2789509613, 2789509614, 2789509615, 2789509616, 2789509617, 2789509618, 2789509611], "tags": {"amenity": "bank", "atm": "yes", "brand": "Garanti Bankas\u0131", "brand:wikidata": "Q322962", "brand:wikipedia": "en:Garanti Bank", "building": "yes", "name": "Garanti Bankas\u0131"}}, {"type": "way", "id": 324870691, "nodes": [3315431771, 3315431772, 3315431773, 3315431774, 3315431771], "tags": {"amenity": "bank", "atm": "yes", "brand": "T\u00fcrkiye \u0130\u015f Bankas\u0131", "brand:wikidata": "Q909613", "brand:wikipedia": "en:\u0130\u015fbank", "building": "yes", "building:levels": "1", "name": "T\u00fcrkiye \u0130\u015f Bankas\u0131"}}, {"type": "way", "id": 462857966, "nodes": [4582847434, 4582847435, 4582847436, 4582847441, 4582847437, 4582847438, 4582847439, 4582847440, 4581887988, 4581887989, 4582847428, 4582847442, 4582847429, 4582847430, 4582847431, 4582847432, 4582847433, 4581887990, 4581887991, 4582847434], "tags": {"addr:housenumber": "18", "addr:street": "Fatih Sultan Mehmet Cd.", "amenity": "bank", "brand": "Vak\u0131fbank", "brand:wikidata": "Q1148521", "brand:wikipedia": "en:Vak\u0131fBank", "building": "yes", "name": "Vak\u0131fbank"}}, {"type": "way", "id": 475451464, "nodes": [4691931871, 4691931872, 4691931873, 4691931874, 4691931871], "tags": {"amenity": "bank", "building": "yes", "name": "albaraka t\u00fcrk"}}, {"type": "way", "id": 521778624, "nodes": [5083490053, 5083490054, 6506526135, 6506526136, 5083490055, 6506526138, 6506526137, 5083490056, 5083490053], "tags": {"amenity": "bank", "atm": "yes", "branch": "Genel M\u00fcd\u00fcrl\u00fc\u011f\u00fc", "brand": "ING", "brand:wikidata": "Q645708", "brand:wikipedia": "en:ING Group", "building": "yes", "name": "ING", "operator": "ING Bank"}}, {"type": "way", "id": 523339729, "nodes": [5095215657, 5095215658, 9138373768, 9138373769, 5095215657], "tags": {"amenity": "bank", "building": "yes", "name": "Burgan Bank A.\u015e. Genel M\u00fcd\u00fcrl\u00fc\u011f\u00fc", "operator": "Burgan Bank"}}, {"type": "way", "id": 528689399, "nodes": [5137236790, 9384974710, 5137236791, 5137236792, 5137236790], "tags": {"amenity": "bank", "brand": "Vak\u0131fbank", "brand:wikidata": "Q1148521", "brand:wikipedia": "en:Vak\u0131fBank", "building": "yes", "name": "Vak\u0131fbank"}}, {"type": "way", "id": 733594548, "nodes": [6870767634, 6870767631, 6870767632, 6870767628, 6870767634], "tags": {"addr:housenumber": "40", "addr:street": "Fevzi Pa\u015fa Caddesi", "amenity": "bank", "atm": "yes", "brand": "T\u00fcrkiye \u0130\u015f Bankas\u0131", "brand:wikidata": "Q909613", "building": "yes", "building:levels": "4", "contact:facebook": "https://www.facebook.com/isbankasi", "contact:instagram": "https://www.instagram.com/isbankasi/", "contact:twitter": "https://twitter.com/isbankasi", "contact:website": "https://www.isbank.com.tr", "name": "T\u00fcrkiye \u0130\u015f Bankas\u0131", "operator": "T\u00fcrkiye \u0130\u015f Bankas\u0131 A.\u015e."}}, {"type": "way", "id": 733594549, "nodes": [6870767631, 6870767635, 6870767636, 6870767632, 6870767631], "tags": {"addr:city": "\u0130stanbul", "addr:country": "TR", "addr:district": "Beykoz", "addr:housenumber": "38", "addr:neighbourhood": "Merkez Mahallesi", "addr:postcode": "34820", "addr:street": "Fevzi Pa\u015fa Caddesi", "amenity": "bank", "atm": "yes", "brand": "Ziraat Bankas\u0131", "brand:wikidata": "Q696003", "building": "yes", "building:levels": "4", "contact:facebook": "https://www.facebook.com/ziraatbankasi", "contact:instagram": "https://www.instagram.com/ziraatbankasi/", "contact:twitter": "https://twitter.com/ziraatbankasi", "contact:website": "https://www.ziraatbank.com.tr/tr", "name": "Ziraat Bankas\u0131", "operator": "T\u00fcrkiye Cumhuriyeti Ziraat Bankas\u0131"}}, {"type": "way", "id": 733597866, "nodes": [6870850801, 6870850799, 6870850793, 6870850800, 6870850792, 6870850804, 6870850805, 6870850801], "tags": {"addr:housenumber": "58", "addr:street": "Fevzi Pa\u015fa Caddesi", "amenity": "bank", "atm": "yes", "brand": "Denizbank", "brand:wikidata": "Q1115064", "building": "yes", "building:levels": "5", "contact:facebook": "https://tr-tr.facebook.com/DenizBank/", "contact:instagram": "https://www.instagram.com/denizbank/", "contact:phone": "+908502220800", "contact:twitter": "https://twitter.com/denizbank", "contact:website": "https://www.denizbank.com/", "name": "Denizbank", "operator": "DenizBank"}}, {"type": "way", "id": 740144408, "nodes": [6929906107, 6929906112, 6929906110, 6929906111, 6929906108, 6929906114, 6929906113, 6929906115, 6929906109, 6929906117, 6929906116, 6929906118, 6929906107], "tags": {"amenity": "bank", "brand": "Denizbank", "brand:wikidata": "Q1115064", "brand:wikipedia": "en:DenizBank", "building": "yes", "building:levels": "34", "name": "Denizbank"}}, {"type": "way", "id": 795970534, "nodes": [7445036139, 7445036140, 7445036141, 7445036142, 7445036139], "tags": {"amenity": "bank", "brand": "Garanti Bankas\u0131", "brand:wikidata": "Q322962", "brand:wikipedia": "en:Garanti Bank", "building": "yes", "name": "Garanti Bankas\u0131"}}, {"type": "way", "id": 829881966, "nodes": [7745507970, 7745524134, 7745524135, 7745524113, 7745524136, 7745524111, 7745524137, 7745524109, 7745524138, 7745524107, 7745524139, 7745524105, 7745524140, 7745524103, 7745524141, 7745524142, 7745507980, 7745524143, 7745507978, 7745524144, 7745507976, 7745524145, 7745507974, 7745524146, 7745507972, 7745524147, 7745507970], "tags": {"amenity": "bank", "building": "yes", "building:levels": "51"}}, {"type": "way", "id": 829881967, "nodes": [7745524148, 7745524149, 7745524150, 7745524151, 7745524152, 7745524153, 7745524154, 7745524155, 7745524148], "tags": {"amenity": "bank", "building": "yes", "level": "52"}}, {"type": "way", "id": 1154436789, "nodes": [10736429187, 10736429188, 10736429189, 10736429190, 10736429191, 10736429187], "tags": {"amenity": "bank", "brand": "ICBC", "brand:wikidata": "Q26463", "building": "yes", "name": "ICBC"}}]}