{"version": 0.6, "generator": "Overpass API 0.7.60 f4c14d41", "osm3s": {"timestamp_osm_base": "2023-05-02T21:18:20Z", "copyright": "The data included in this document is from www.openstreetmap.org. The data is made available under ODbL."}, "elements": [{"type": "node", "id": 456737917, "lat": 22.282127, "lon": 114.1840198, "tags": {"amenity": "cafe", "brand": "\u661f\u5df4\u514b Starbucks", "brand:en": "Starbucks", "brand:wikidata": "Q37158", "brand:wikipedia": "zh:\u661f\u5df4\u514b", "brand:zh": "\u661f\u5df4\u514b", "cuisine": "coffee_shop", "name": "\u661f\u5df4\u514b Starbucks", "name:en": "Starbucks", "name:zh": "\u661f\u5df4\u514b", "official_name": "Starbucks Coffee", "takeaway": "yes", "website": "http://www.starbucks.com.hk"}}, {"type": "node", "id": 584689067, "lat": 22.2802435, "lon": 114.1868423, "tags": {"amenity": "cafe", "brand": "\u592a\u5e73\u6d0b\u5496\u5561 Pacific Coffee", "brand:en": "Pacific Coffee", "brand:wikidata": "Q7122398", "brand:wikipedia": "en:Pacific Coffee", "brand:zh": "\u592a\u5e73\u6d0b\u5496\u5561", "cuisine": "coffee_shop", "name": "\u592a\u5e73\u6d0b\u5496\u5561 Pacific Coffee", "name:en": "Pacific Coffee", "name:zh": "\u592a\u5e73\u6d0b\u5496\u5561", "takeaway": "yes"}}, {"type": "node", "id": 910434839, "lat": 22.2435376, "lon": 114.1464253, "tags": {"amenity": "cafe", "brand": "\u661f\u5df4\u514b Starbucks", "brand:en": "Starbucks", "brand:wikidata": "Q37158", "brand:zh": "\u661f\u5df4\u514b", "cuisine": "coffee_shop", "name": "\u661f\u5df4\u514b Starbucks", "name:en": "Starbucks", "name:zh": "\u661f\u5df4\u514b", "takeaway": "yes"}}, {"type": "node", "id": 1070813501, "lat": 22.2319081, "lon": 114.1717142}, {"type": "node", "id": 1070813631, "lat": 22.2319121, "lon": 114.1715054}, {"type": "node", "id": 1070813706, "lat": 22.2333813, "lon": 114.1695205, "tags": {"amenity": "cafe", "name": "\u7f8e\u98df\u822b Boardwalk Cafe", "name:en": "Boardwalk Cafe", "name:zh": "\u7f8e\u98df\u822b", "opening_hours:signed": "no"}}, {"type": "node", "id": 1070813809, "lat": 22.2320928, "lon": 114.1717182}, {"type": "node", "id": 1070813898, "lat": 22.2320967, "lon": 114.1715094}, {"type": "node", "id": 1107019729, "lat": 22.2880661, "lon": 114.1924005, "tags": {"addr:street": "\u96fb\u6c23\u9053 Electric Road", "amenity": "cafe", "brand": "\u661f\u5df4\u514b Starbucks", "brand:en": "Starbucks", "brand:wikidata": "Q37158", "brand:wikipedia": "zh:\u661f\u5df4\u514b", "brand:zh": "\u661f\u5df4\u514b", "cuisine": "coffee_shop", "name": "\u661f\u5df4\u514b Starbucks", "name:en": "Starbucks", "name:zh": "\u661f\u5df4\u514b", "official_name": "Starbucks Coffee", "source": "Kaart Ground Survey 2017", "takeaway": "yes", "website": "https://www.starbucks.com/"}}, {"type": "node", "id": 1298704466, "lat": 22.2775314, "lon": 114.1739462, "tags": {"addr:housenumber": "176", "addr:street": "\u8ed2\u5c3c\u8a69\u9053 Hennessy Road", "amenity": "cafe", "cuisine": "hong_kong_cafe", "name": "\u6a80\u5cf6\u5496\u5561\u9905\u5e97", "name:en": "Honolulu Cafe", "name:zh": "\u6a80\u5cf6\u5496\u5561\u9905\u5e97", "opening_hours": "Mo-Su 06:00-23:00", "phone": "2575 1823"}}, {"type": "node", "id": 1298704767, "lat": 22.2843237, "lon": 114.1925023, "tags": {"amenity": "cafe", "name": "\u96c5\u4ed5\u9910\u5ef3 Cafe Essex", "name:en": "Cafe Essex", "name:zh": "\u96c5\u4ed5\u9910\u5ef3"}}, {"type": "node", "id": 1298704912, "lat": 22.2808804, "lon": 114.1526948, "tags": {"amenity": "cafe", "brand": "\u661f\u5df4\u514b Starbucks", "brand:en": "Starbucks", "brand:wikidata": "Q37158", "brand:wikipedia": "zh:\u661f\u5df4\u514b", "brand:zh": "\u661f\u5df4\u514b", "cuisine": "coffee_shop", "name": "\u661f\u5df4\u514b Starbucks", "name:en": "Starbucks", "name:zh": "\u661f\u5df4\u514b", "official_name": "Starbucks Coffee", "source": "Kaart Ground Survey 2017", "takeaway": "yes", "website": "http://www.starbucks.com.hk"}}, {"type": "node", "id": 1299465453, "lat": 22.2783887, "lon": 114.1705242, "tags": {"amenity": "cafe", "brand": "\u592a\u5e73\u6d0b\u5496\u5561 Pacific Coffee", "brand:en": "Pacific Coffee", "brand:wikidata": "Q7122398", "brand:wikipedia": "en:Pacific Coffee", "brand:zh": "\u592a\u5e73\u6d0b\u5496\u5561", "cuisine": "coffee_shop", "name": "\u592a\u5e73\u6d0b\u5496\u5561 Pacific Coffee", "name:en": "Pacific Coffee", "name:zh": "\u592a\u5e73\u6d0b\u5496\u5561", "takeaway": "yes"}}, {"type": "node", "id": 1492499240, "lat": 22.2845085, "lon": 114.1428912, "tags": {"amenity": "cafe", "brand": "\u592a\u5e73\u6d0b\u5496\u5561 Pacific Coffee", "brand:en": "Pacific Coffee", "brand:wikidata": "Q7122398", "brand:wikipedia": "en:Pacific Coffee", "brand:zh": "\u592a\u5e73\u6d0b\u5496\u5561", "cuisine": "coffee_shop", "name": "\u592a\u5e73\u6d0b\u5496\u5561 Pacific Coffee", "name:en": "Pacific Coffee", "name:zh": "\u592a\u5e73\u6d0b\u5496\u5561", "takeaway": "yes"}}, {"type": "node", "id": 1619220066, "lat": 22.2789972, "lon": 114.1727098, "tags": {"addr:street": "\u544a\u58eb\u6253\u9053 Gloucester Road", "amenity": "cafe", "brand": "\u592a\u5e73\u6d0b\u5496\u5561 Pacific Coffee", "brand:en": "Pacific Coffee", "brand:wikidata": "Q7122398", "brand:wikipedia": "en:Pacific Coffee", "brand:zh": "\u592a\u5e73\u6d0b\u5496\u5561", "cuisine": "coffee_shop", "name": "\u592a\u5e73\u6d0b\u5496\u5561 Pacific Coffee", "name:en": "Pacific Coffee", "name:zh": "\u592a\u5e73\u6d0b\u5496\u5561", "source": "Kaart Ground Survey 2017", "takeaway": "yes"}}, {"type": "node", "id": 1619220067, "lat": 22.2789845, "lon": 114.1725978, "tags": {"addr:street": "\u544a\u58eb\u6253\u9053 Gloucester Road", "amenity": "cafe", "brand": "\u661f\u5df4\u514b Starbucks", "brand:en": "Starbucks", "brand:wikidata": "Q37158", "brand:wikipedia": "zh:\u661f\u5df4\u514b", "brand:zh": "\u661f\u5df4\u514b", "cuisine": "coffee_shop", "name": "\u661f\u5df4\u514b Starbucks", "name:en": "Starbucks", "name:zh": "\u661f\u5df4\u514b", "official_name": "Starbucks Coffee", "source": "Kaart Ground Survey 2017", "takeaway": "yes", "website": "http://www.starbucks.com.hk"}}, {"type": "node", "id": 1797945684, "lat": 22.2848367, "lon": 114.2159871, "tags": {"amenity": "cafe", "cuisine": "teahouse", "level": "0", "name": "\u8cde\u8336 A nice gift", "name:en": "A nice gift", "name:yue-Hant": "\u8cde\u8336"}}, {"type": "node", "id": 1925678352, "lat": 22.2831086, "lon": 114.1349751, "tags": {"amenity": "cafe", "cuisine": "coffee_shop;pastry", "delivery": "no", "internet_access": "yes", "internet_access:fee": "no", "level": "0", "name": "D\u00e9lifrance", "opening_hours": "Mo-Fr 07:30-22:00;Sa-Su,PH 08:00-20:00", "operator": "D\u00e9lifrance", "outdoor_seating": "yes", "payment:cash": "yes", "payment:ep_octopus": "yes", "phone": "+852 25462121", "smoking": "no", "takeaway": "yes"}}, {"type": "node", "id": 1926823773, "lat": 22.2838667, "lon": 114.1396208, "tags": {"amenity": "cafe", "brand": "\u592a\u5e73\u6d0b\u5496\u5561 Pacific Coffee", "brand:en": "Pacific Coffee", "brand:wikidata": "Q7122398", "brand:wikipedia": "en:Pacific Coffee", "brand:zh": "\u592a\u5e73\u6d0b\u5496\u5561", "cuisine": "coffee_shop", "level": "0", "name": "\u592a\u5e73\u6d0b\u5496\u5561 Pacific Coffee", "name:en": "Pacific Coffee", "name:zh": "\u592a\u5e73\u6d0b\u5496\u5561", "takeaway": "yes"}}, {"type": "node", "id": 1951958039, "lat": 22.2847382, "lon": 114.1592885, "tags": {"amenity": "cafe", "brand": "\u661f\u5df4\u514b Starbucks", "brand:en": "Starbucks", "brand:wikidata": "Q37158", "brand:wikipedia": "zh:\u661f\u5df4\u514b", "brand:zh": "\u661f\u5df4\u514b", "cuisine": "coffee_shop", "name": "\u661f\u5df4\u514b Starbucks", "name:en": "Starbucks", "name:zh": "\u661f\u5df4\u514b", "official_name": "Starbucks Coffee", "takeaway": "yes", "website": "http://www.starbucks.com.hk"}}, {"type": "node", "id": 1952090004, "lat": 22.2827839, "lon": 114.1592949, "tags": {"amenity": "cafe", "brand": "\u661f\u5df4\u514b Starbucks", "brand:en": "Starbucks", "brand:wikidata": "Q37158", "brand:wikipedia": "zh:\u661f\u5df4\u514b", "brand:zh": "\u661f\u5df4\u514b", "cuisine": "coffee_shop", "name": "\u661f\u5df4\u514b Starbucks", "name:en": "Starbucks", "name:zh": "\u661f\u5df4\u514b", "official_name": "Starbucks Coffee", "takeaway": "yes", "website": "http://www.starbucks.com.hk"}}, {"type": "node", "id": 1952090007, "lat": 22.2775901, "lon": 114.164536, "tags": {"amenity": "cafe", "brand": "\u661f\u5df4\u514b Starbucks", "brand:en": "Starbucks", "brand:wikidata": "Q37158", "brand:wikipedia": "zh:\u661f\u5df4\u514b", "brand:zh": "\u661f\u5df4\u514b", "cuisine": "coffee_shop", "name": "\u661f\u5df4\u514b Starbucks", "name:en": "Starbucks", "name:zh": "\u661f\u5df4\u514b", "official_name": "Starbucks Coffee", "takeaway": "yes", "website": "http://www.starbucks.com.hk"}}, {"type": "node", "id": 1952090009, "lat": 22.2807397, "lon": 114.167013, "tags": {"amenity": "cafe", "brand": "\u661f\u5df4\u514b Starbucks", "brand:en": "Starbucks", "brand:wikidata": "Q37158", "brand:zh": "\u661f\u5df4\u514b", "cuisine": "coffee_shop", "name": "\u661f\u5df4\u514b Starbucks", "name:en": "Starbucks", "name:zh": "\u661f\u5df4\u514b", "takeaway": "yes", "website": "http://www.starbucks.com.hk"}}, {"type": "node", "id": 2014726458, "lat": 22.2912513, "lon": 114.2080958, "tags": {"amenity": "cafe", "brand": "Starbucks", "brand:wikidata": "Q37158", "cuisine": "coffee_shop", "name": "Starbucks", "name:en": "Starbucks Coffee", "name:zh": "\u661f\u5df4\u514b\u5496\u5561", "official_name": "Starbucks Coffee", "takeaway": "yes", "website": "http://www.starbucks.com.hk"}}, {"type": "node", "id": 2102816557, "lat": 22.274479, "lon": 114.1735085, "tags": {"addr:housenumber": "248", "addr:street": "Queen's Road East", "amenity": "cafe", "cuisine": "coffee_shop", "name": "Eric Kayser"}}, {"type": "node", "id": 2131730501, "lat": 22.270576, "lon": 114.1497007, "tags": {"amenity": "cafe", "name": "\u661f\u5df4\u514b", "name:en": "Starbucks"}}, {"type": "node", "id": 2247794007, "lat": 22.2780673, "lon": 114.1626589, "tags": {"addr:street": "Hong Kong Park", "amenity": "cafe", "cuisine": "chinese", "name": "Lock Cha Tea House", "website": "https://www.lockcha.com/"}}, {"type": "node", "id": 2300359462, "lat": 22.2805492, "lon": 114.1833111, "tags": {"addr:housenumber": "506", "addr:street": "Lockhart Road", "amenity": "cafe", "level": "0", "name": "\u6e2f\u6fb3\u7fa9\u9806\u725b\u5976\u516c\u53f8 Yee Shun Dairy Company", "name:en": "Yee Shun Dairy Company", "name:zh": "\u6e2f\u6fb3\u7fa9\u9806\u725b\u5976\u516c\u53f8"}}, {"type": "node", "id": 2318832097, "lat": 22.2710807, "lon": 114.1502831, "tags": {"amenity": "cafe", "cuisine": "coffee_shop", "name:en": "Pacific Coffee", "name:zh": "\u592a\u5e73\u6d0b\u5496\u5561"}}, {"type": "node", "id": 2319138082, "lat": 22.2807498, "lon": 114.1830427, "tags": {"amenity": "cafe", "internet_access": "wlan", "name": "Think Cafe"}}, {"type": "node", "id": 2560872658, "lat": 22.2866877, "lon": 114.1389417, "tags": {"amenity": "cafe", "name": "Derby West"}}, {"type": "node", "id": 2594871179, "lat": 22.278922, "lon": 114.1859956, "tags": {"addr:floor": "1", "addr:housenumber": "9-11", "addr:street": "Pennington Street", "amenity": "cafe", "internet_access": "wlan", "level": "1", "name": "\u5496\u5561\u5f04 Coffee Alley", "name:en": "Coffee Alley", "name:zh": "\u5496\u5561\u5f04", "opening_hours": "12:00-23:00", "phone": "+852 2493 3033", "website": "https://www.coffee-alley.com/", "wheelchair": "no"}}, {"type": "node", "id": 2623051444, "lat": 22.244584, "lon": 114.155254, "tags": {"addr:street": "\u9d28\u8137\u6d32\u5927\u8857 Main Street, Ap Lei Chau", "amenity": "cafe", "name": "Leisure Corner", "note": "In Ap Lei Chau Community Services Center, 2nd floor"}}, {"type": "node", "id": 2653342426, "lat": 22.2842409, "lon": 114.142371, "tags": {"amenity": "cafe", "brand": "\u661f\u5df4\u514b Starbucks", "brand:en": "Starbucks", "brand:wikidata": "Q37158", "brand:zh": "\u661f\u5df4\u514b", "cuisine": "coffee_shop", "internet_access": "wlan", "name": "\u661f\u5df4\u514b Starbucks", "name:en": "Starbucks", "name:zh": "\u661f\u5df4\u514b", "takeaway": "yes", "website": "http://www.starbucks.com.hk"}}, {"type": "node", "id": 2706146959, "lat": 22.2748213, "lon": 114.1719193, "tags": {"amenity": "cafe", "brand": "Starbucks", "brand:wikidata": "Q37158", "cuisine": "coffee_shop", "name": "Starbucks", "name:en": "Starbucks Coffee", "name:zh": "\u661f\u5df4\u514b\u5496\u5561", "official_name": "Starbucks Coffee", "takeaway": "yes", "website": "http://www.starbucks.com.hk"}}, {"type": "node", "id": 2930400820, "lat": 22.2823306, "lon": 114.1921946, "tags": {"addr:street": "\u82f1\u7687\u9053 King's Road", "amenity": "cafe", "brand": "\u661f\u5df4\u514b Starbucks", "brand:en": "Starbucks", "brand:wikidata": "Q37158", "brand:wikipedia": "zh:\u661f\u5df4\u514b", "brand:zh": "\u661f\u5df4\u514b", "cuisine": "coffee_shop", "name": "\u661f\u5df4\u514b Starbucks", "name:en": "Starbucks", "name:zh": "\u661f\u5df4\u514b", "official_name": "Starbucks Coffee", "source": "Kaart Ground Survey 2017", "takeaway": "yes", "website": "http://www.starbucks.com.hk"}}, {"type": "node", "id": 3005302586, "lat": 22.2848386, "lon": 114.2137501, "tags": {"addr:street": "\u82f1\u7687\u9053 King's Road", "amenity": "cafe", "brand": "\u592a\u5e73\u6d0b\u5496\u5561 Pacific Coffee", "brand:en": "Pacific Coffee", "brand:wikidata": "Q7122398", "brand:wikipedia": "en:Pacific Coffee", "brand:zh": "\u592a\u5e73\u6d0b\u5496\u5561", "cuisine": "coffee_shop", "level": "0", "name": "\u592a\u5e73\u6d0b\u5496\u5561 Pacific Coffee", "name:en": "Pacific Coffee", "name:zh": "\u592a\u5e73\u6d0b\u5496\u5561", "opening_hours": "Mo-Fr 07:00-20:00; Sa 08:00-20:00; Su,PH 08:30-20:00", "phone": "+852 22507298", "source": "Kaart Ground Survey 2017", "takeaway": "yes"}}, {"type": "node", "id": 3213633008, "lat": 22.2908336, "lon": 114.2026176, "tags": {"amenity": "cafe", "brand": "\u592a\u5e73\u6d0b\u5496\u5561 Pacific Coffee", "brand:en": "Pacific Coffee", "brand:wikidata": "Q7122398", "brand:wikipedia": "en:Pacific Coffee", "brand:zh": "\u592a\u5e73\u6d0b\u5496\u5561", "cuisine": "coffee_shop", "internet_access": "wlan", "name": "\u592a\u5e73\u6d0b\u5496\u5561 Pacific Coffee", "name:en": "Pacific Coffee", "name:zh": "\u592a\u5e73\u6d0b\u5496\u5561", "takeaway": "yes"}}, {"type": "node", "id": 3493470992, "lat": 22.28264, "lon": 114.1538, "tags": {"addr:housenumber": "2", "addr:street": "\u7d50\u5fd7\u8857 Gage Street", "amenity": "cafe", "name": "\u862d\u82b3\u5712 Lan Fong Yuen", "name:en": "Lan Fong Yuen", "name:zh": "\u862d\u82b3\u5712", "opening_hours": "Mo-Su 07:00-18:00", "wikidata": "Q15921803"}}, {"type": "node", "id": 3665640836, "lat": 22.2779745, "lon": 114.1778174, "tags": {"amenity": "cafe", "brand": "\u592a\u5e73\u6d0b\u5496\u5561 Pacific Coffee", "brand:en": "Pacific Coffee", "brand:wikidata": "Q7122398", "brand:zh": "\u592a\u5e73\u6d0b\u5496\u5561", "cuisine": "coffee_shop", "name": "\u592a\u5e73\u6d0b\u5496\u5561 Pacific Coffee", "name:en": "Pacific Coffee", "name:zh": "\u592a\u5e73\u6d0b\u5496\u5561", "takeaway": "yes"}}, {"type": "node", "id": 3667211310, "lat": 22.2769102, "lon": 114.1747054, "tags": {"addr:city": "Wan Chai", "addr:housenumber": "1/F \u5927\u6709\u5ee3\u5834", "addr:street": "\u83f2\u6797\u660e\u9053 Fleming Road", "amenity": "cafe", "brand": "\u592a\u5e73\u6d0b\u5496\u5561 Pacific Coffee", "brand:en": "Pacific Coffee", "brand:wikidata": "Q7122398", "brand:wikipedia": "en:Pacific Coffee", "brand:zh": "\u592a\u5e73\u6d0b\u5496\u5561", "cuisine": "coffee_shop", "name": "\u592a\u5e73\u6d0b\u5496\u5561 Pacific Coffee", "name:en": "Pacific Coffee", "name:zh": "\u592a\u5e73\u6d0b\u5496\u5561", "takeaway": "yes"}}, {"type": "node", "id": 3667225600, "lat": 22.27913, "lon": 114.17653, "tags": {"addr:city": "Wan Chai", "addr:housenumber": "138", "addr:street": "Gloucester Road", "amenity": "cafe", "brand": "\u592a\u5e73\u6d0b\u5496\u5561 Pacific Coffee", "brand:en": "Pacific Coffee", "brand:wikidata": "Q7122398", "brand:wikipedia": "en:Pacific Coffee", "brand:zh": "\u592a\u5e73\u6d0b\u5496\u5561", "cuisine": "coffee_shop", "level": "0", "name": "\u592a\u5e73\u6d0b\u5496\u5561 Pacific Coffee", "name:en": "Pacific Coffee", "name:zh": "\u592a\u5e73\u6d0b\u5496\u5561", "opening_hours": "Mo-Sa 07:30-22:00; Su,PH 08:30-21:00", "phone": "+852 28776803", "takeaway": "yes", "website": "https://www.pacificcoffee.com"}}, {"type": "node", "id": 3668128137, "lat": 22.2776498, "lon": 114.1768386, "tags": {"amenity": "cafe", "brand": "\u592a\u5e73\u6d0b\u5496\u5561 Pacific Coffee", "brand:en": "Pacific Coffee", "brand:wikidata": "Q7122398", "brand:wikipedia": "en:Pacific Coffee", "brand:zh": "\u592a\u5e73\u6d0b\u5496\u5561", "cuisine": "coffee_shop", "name": "\u592a\u5e73\u6d0b\u5496\u5561 Pacific Coffee", "name:en": "Pacific Coffee", "name:zh": "\u592a\u5e73\u6d0b\u5496\u5561", "takeaway": "yes"}}, {"type": "node", "id": 3668142410, "lat": 22.2763634, "lon": 114.17649, "tags": {"amenity": "cafe", "brand": "\u592a\u5e73\u6d0b\u5496\u5561 Pacific Coffee", "brand:en": "Pacific Coffee", "brand:wikidata": "Q7122398", "brand:wikipedia": "en:Pacific Coffee", "brand:zh": "\u592a\u5e73\u6d0b\u5496\u5561", "cuisine": "coffee_shop", "name": "\u592a\u5e73\u6d0b\u5496\u5561 Pacific Coffee", "name:en": "Pacific Coffee", "name:zh": "\u592a\u5e73\u6d0b\u5496\u5561", "takeaway": "yes"}}, {"type": "node", "id": 3668830202, "lat": 22.2777683, "lon": 114.1800525, "tags": {"addr:housenumber": "11", "addr:street": "\u6469\u7406\u81e3\u5c71\u9053 Morrison Hill Road", "amenity": "cafe", "brand": "\u592a\u5e73\u6d0b\u5496\u5561 Pacific Coffee", "brand:en": "Pacific Coffee", "brand:wikidata": "Q7122398", "brand:wikipedia": "en:Pacific Coffee", "brand:zh": "\u592a\u5e73\u6d0b\u5496\u5561", "cuisine": "coffee_shop", "level": "0", "name": "\u592a\u5e73\u6d0b\u5496\u5561 Pacific Coffee", "name:en": "Pacific Coffee", "name:zh": "\u592a\u5e73\u6d0b\u5496\u5561", "opening_hours": "Mo-Fr 07:30-21:30; Sa-Su,PH 08:00-21:30", "phone": "+852 28907910", "ref:openrice": "461576", "takeaway": "yes"}}, {"type": "node", "id": 3672903799, "lat": 22.2806243, "lon": 114.1766486, "tags": {"amenity": "cafe", "brand": "\u661f\u5df4\u514b Starbucks", "brand:en": "Starbucks", "brand:wikidata": "Q37158", "brand:wikipedia": "zh:\u661f\u5df4\u514b", "brand:zh": "\u661f\u5df4\u514b", "cuisine": "coffee_shop", "name": "\u661f\u5df4\u514b Starbucks", "name:en": "Starbucks", "name:zh": "\u661f\u5df4\u514b", "takeaway": "yes", "website": "http://www.starbucks.com.hk"}}, {"type": "node", "id": 4106960593, "lat": 22.2841, "lon": 114.15255, "tags": {"addr:street": "\u7f8e\u8f2a\u8857 Mee Lun Street", "amenity": "cafe", "cuisine": "noodles", "name": "\u52dd\u9999\u5712 Sing Heung Yuen", "name:en": "Sing Heung Yuen", "name:ko": "\uc2f1\ud765\uc720\uc5d4", "name:zh": "\u52dd\u9999\u5712", "opening_hours": "Mo-Sa 08:00-17:00", "ref:openrice": "10577"}}, {"type": "node", "id": 4118418173, "lat": 22.2877164, "lon": 114.1475069, "tags": {"amenity": "cafe", "brand": "Starbucks", "brand:wikidata": "Q37158", "cuisine": "coffee_shop", "level": "0", "name": "Starbucks", "name:en": "Starbucks Coffee", "name:zh": "\u661f\u5df4\u514b\u5496\u5561", "official_name": "Starbucks Coffee", "opening_hours": "Mo-Su,PH 07:00-22:00", "takeaway": "yes", "website": "http://www.starbucks.com.hk"}}, {"type": "node", "id": 4155554291, "lat": 22.2778554, "lon": 114.1593659, "tags": {"amenity": "cafe", "brand": "\u592a\u5e73\u6d0b\u5496\u5561 Pacific Coffee", "brand:en": "Pacific Coffee", "brand:wikidata": "Q7122398", "brand:wikipedia": "en:Pacific Coffee", "brand:zh": "\u592a\u5e73\u6d0b\u5496\u5561", "cuisine": "coffee_shop", "name": "\u592a\u5e73\u6d0b\u5496\u5561 Pacific Coffee", "name:en": "Pacific Coffee", "name:zh": "\u592a\u5e73\u6d0b\u5496\u5561", "takeaway": "yes"}}, {"type": "node", "id": 4168502789, "lat": 22.2779382, "lon": 114.1652217, "tags": {"amenity": "cafe", "name": "TEA WG 1837"}}, {"type": "node", "id": 4168530289, "lat": 22.2788634, "lon": 114.164951, "tags": {"amenity": "cafe", "brand": "\u661f\u5df4\u514b Starbucks", "brand:en": "Starbucks", "brand:wikidata": "Q37158", "brand:wikipedia": "zh:\u661f\u5df4\u514b", "brand:zh": "\u661f\u5df4\u514b", "cuisine": "coffee_shop", "name": "\u661f\u5df4\u514b Starbucks", "name:en": "Starbucks", "name:zh": "\u661f\u5df4\u514b", "official_name": "Starbucks Coffee", "takeaway": "yes", "website": "http://www.starbucks.com.hk"}}, {"type": "node", "id": 4198132690, "lat": 22.2843622, "lon": 114.1509383, "tags": {"addr:street": "\u8377\u674e\u6d3b\u9053 Hollywood Road", "amenity": "cafe", "diet:vegetarian": "yes", "name": "Grassroots Pantry", "note": "This doesn't seem to belong here. There is already a POI with same name at Hollywood Road down here and it's the correct address sourced from the website."}}, {"type": "node", "id": 4206813761, "lat": 22.285097, "lon": 114.1526253, "tags": {"addr:street": "\u8607\u676d\u8857 Jervois Street", "amenity": "cafe", "cuisine": "bagel;coffee_shop;cake;tea", "name": "CoCo Espresso"}}, {"type": "node", "id": 4207195346, "lat": 22.2840883, "lon": 114.1526325, "tags": {"addr:street": "\u7f8e\u8f2a\u8857 Mee Lun Street", "amenity": "cafe", "cuisine": "noodles", "name": "\u52dd\u9999\u5712 Sing Heung Yuen", "name:en": "Sing Heung Yuen", "name:ko": "\uc2f1\ud765\uc720\uc5d4", "name:zh": "\u52dd\u9999\u5712", "opening_hours": "Mo-Sa 08:00-17:00", "ref:openrice": "10577"}}, {"type": "node", "id": 4207266532, "lat": 22.27813, "lon": 114.1809592, "tags": {"addr:housenumber": "15", "addr:street": "\u5805\u62ff\u9053\u897f Canal Road West", "amenity": "cafe", "name": "\u677e\u8a18\u7cd6\u6c34", "name:en": "Chung Kee Dessert", "name:zh": "\u677e\u8a18\u7cd6\u6c34\u5e97"}}, {"type": "node", "id": 4207266556, "lat": 22.2849057, "lon": 114.1922699, "tags": {"addr:housenumber": "13", "addr:street": "\u6e05\u98a8\u8857 Tsing Fung Street", "amenity": "cafe", "name": "\u751c\u59e8\u59e8\u79c1\u623f\u751c\u54c1 Auntie Sweet", "name:en": "Auntie Sweet", "name:zh": "\u751c\u59e8\u59e8\u79c1\u623f\u751c\u54c1", "name:zh-Hans": "\u751c\u59e8\u59e8\u79c1\u623f\u751c\u54c1", "name:zh-Hant": "\u751c\u59e8\u59e8\u79c1\u623f\u751c\u54c1"}}, {"type": "node", "id": 4213892491, "lat": 22.2762903, "lon": 114.1720044, "tags": {"amenity": "cafe", "name": "Cupping room wan chai"}}, {"type": "node", "id": 4214042291, "lat": 22.2850747, "lon": 114.1504723, "tags": {"amenity": "cafe", "name": "The Cupping Room - Sheung Wan", "ref:openrice": "143358"}}, {"type": "node", "id": 4214067089, "lat": 22.2824643, "lon": 114.152469, "tags": {"amenity": "cafe", "name": "Vbest tea house"}}, {"type": "node", "id": 4234054890, "lat": 22.2920759, "lon": 114.1994108, "tags": {"addr:housenumber": "90", "addr:street": "Java Road", "amenity": "cafe", "name": "\u65b0\u91d7\u8a18", "phone": "25906889"}}, {"type": "node", "id": 4236919992, "lat": 22.28307, "lon": 114.137955, "tags": {"amenity": "cafe", "brand": "\u661f\u5df4\u514b Starbucks", "brand:en": "Starbucks", "brand:wikidata": "Q37158", "brand:wikipedia": "en:Starbucks", "brand:zh": "\u661f\u5df4\u514b", "cuisine": "coffee_shop", "internet_access": "wlan", "name": "\u661f\u5df4\u514b Starbucks", "name:en": "Starbucks", "name:zh": "\u661f\u5df4\u514b", "official_name": "Starbucks Coffee", "opening_hours": "Mo-Fr 07:30-22:00; Sa 07:30-19:00; Su,SH 10:00-19:00", "takeaway": "yes", "website": "https://www.starbucks.com/"}}, {"type": "node", "id": 4237660650, "lat": 22.2920207, "lon": 114.1992467, "tags": {"addr:housenumber": "84", "addr:street": "\u6e23\u83ef\u9053 Java Road", "amenity": "cafe", "name": "\u9e7f\u5152\u5cf6 Luk Tee Dao", "name:en": "Luk Yee Dao", "name:zh": "\u9e7f\u5152\u5cf6", "phone": "21866103", "source": "Kaart Ground Survey 2017"}}, {"type": "node", "id": 4265740931, "lat": 22.290984, "lon": 114.1965051, "tags": {"amenity": "cafe", "name": "\u7fe0\u82d1\u751c\u54c1\u5c08\u5bb6"}}, {"type": "node", "id": 4265740940, "lat": 22.291076, "lon": 114.1964846, "tags": {"amenity": "cafe", "name": "\u9999\u6e2f\u4ed4\u9b5a\u86cb\u738b"}}, {"type": "node", "id": 4271575958, "lat": 22.28628, "lon": 114.21482, "tags": {"addr:housenumber": "28", "addr:street": "\u592a\u53e4\u57ce\u9053 Tai Koo Shing Road", "amenity": "cafe", "name": "The Coffee Academics", "website": "https://www.the-coffeeacademics.com"}}, {"type": "node", "id": 4302866365, "lat": 22.286992, "lon": 114.21403, "tags": {"amenity": "cafe", "brand": "\u661f\u5df4\u514b Starbucks", "brand:en": "Starbucks", "brand:wikidata": "Q37158", "brand:wikipedia": "zh:\u661f\u5df4\u514b", "brand:zh": "\u661f\u5df4\u514b", "cuisine": "coffee_shop", "level": "0", "name": "\u661f\u5df4\u514b Starbucks", "name:en": "Starbucks", "name:zh": "\u661f\u5df4\u514b", "official_name": "Starbucks Coffee", "opening_hours": "Mo-Sa 07:00-21:00; Su,PH 07:30-21:00", "phone": "+852 29675810", "ref:openrice": "17643", "takeaway": "yes", "website": "https://www.starbucks.com/"}}, {"type": "node", "id": 4403655090, "lat": 22.2847432, "lon": 114.1516331, "tags": {"addr:housenumber": "237 G/f", "addr:street": "\u7687\u540e\u5927\u9053\u4e2d Queen's Road Central", "amenity": "cafe", "name:en": "FLM (cafe queen)", "opening_hours": "Mo-Sa 12:00-01:00", "phone": "27992883"}}, {"type": "node", "id": 4459643699, "lat": 22.2820287, "lon": 114.1861754, "tags": {"addr:housenumber": "9", "addr:street": "\u4eac\u58eb\u9813\u8857 Kingston Street", "amenity": "cafe", "name:en": "Pacific Coffee Emporium", "opening_hours": "Su-Th 08:00-23:00; Fr-Sa 08:00-23:30", "phone": "+852 2415 0015"}}, {"type": "node", "id": 4500632190, "lat": 22.2773991, "lon": 114.1815185, "tags": {"addr:street": "\u8000\u83ef\u8857 Yiu Wa Street", "amenity": "cafe", "cuisine": "coffee_shop", "internet_access": "wlan", "name:en": "The Coffee Academics", "phone": "21560313"}}, {"type": "node", "id": 4537382137, "lat": 22.283316, "lon": 114.1657026, "tags": {"amenity": "cafe", "cuisine": "burger", "fixme": "cuisine", "name": "\u611b\u70d8\u7119\u8f15\u98df\u7ad9"}}, {"type": "node", "id": 4537643792, "lat": 22.2880589, "lon": 114.211499, "tags": {"addr:housenumber": "4-6", "addr:street": "Hoi Wan Street", "amenity": "cafe", "cuisine": "coffee_shop;breakfast", "internet_access": "wlan", "name:en": "Alchemy Espresso"}}, {"type": "node", "id": 4599171790, "lat": 22.2861468, "lon": 114.1499343, "tags": {"amenity": "cafe", "name": "\u745e\u8a18\u5496\u5561", "name:zh": "\u745e\u8a18\u5496\u5561", "opening_hours": "Mo-Su 05:30-18:00"}}, {"type": "node", "id": 4662868491, "lat": 22.282751, "lon": 114.153352, "tags": {"addr:housenumber": "34", "addr:street": "\u5609\u54b8\u8857 Graham Street", "amenity": "cafe", "cuisine": "coffee_shop", "name": "NOC Coffee", "opening_hours": "Mo-Su,PH 08:00-18:00", "phone": "+852 26066188", "ref:openrice": "460958", "website": "http://www.noccoffeeco.com"}}, {"type": "node", "id": 4704977789, "lat": 22.2771245, "lon": 114.1697666, "tags": {"amenity": "cafe", "name:en": "Papa Deli"}}, {"type": "node", "id": 4706672897, "lat": 22.27825, "lon": 114.17841, "tags": {"addr:country": "HK", "addr:housenumber": "318", "addr:street": "\u8ed2\u5c3c\u8a69\u9053 Hennessy Road", "amenity": "cafe", "brand": "Starbucks", "brand:wikidata": "Q37158", "brand:wikipedia": "en:Starbucks", "cuisine": "coffee_shop", "internet_access": "wlan", "internet_access:fee": "yes", "name": "Starbucks", "name:en": "Starbucks Coffee", "name:zh": "\u661f\u5df4\u514b\u5496\u5561", "official_name": "Starbucks Coffee", "opening_hours": "Mo-Sa 07:30-23:00; PH,Su 08:00-22:30", "phone": "+852 28938582", "ref:openrice": "22412", "takeaway": "yes", "website": "http://www.starbucks.com.hk"}}, {"type": "node", "id": 4757165430, "lat": 22.2872604, "lon": 114.1385887, "tags": {"addr:street": "\u5fb7\u8f14\u9053\u897f Des Voeux Road West", "amenity": "cafe", "brand": "\u661f\u5df4\u514b Starbucks", "brand:en": "Starbucks", "brand:wikidata": "Q37158", "brand:zh": "\u661f\u5df4\u514b", "cuisine": "coffee_shop", "name": "\u661f\u5df4\u514b Starbucks", "name:en": "Starbucks", "name:zh": "\u661f\u5df4\u514b", "source": "Kaart Ground Survey 2017", "takeaway": "yes"}}, {"type": "node", "id": 4770571825, "lat": 22.2810176, "lon": 114.1840986, "tags": {"addr:housenumber": "530", "addr:street": "\u8b1d\u6590\u9053 Jaffe Road", "amenity": "cafe", "level": "3", "name": "Rabbitland", "opening_hours": "Mo-Su,PH 13:00-21:30"}}, {"type": "node", "id": 4778646361, "lat": 22.2775601, "lon": 114.1829847, "tags": {"addr:city": "Hong Kong", "addr:housenumber": "L05, LG/F Leighton Centre", "addr:neighbourhood": "Causeway Bay", "addr:street": "\u79ae\u9813\u9053 Leighton Road", "amenity": "cafe", "brand": "\u661f\u5df4\u514b Starbucks", "brand:en": "Starbucks", "brand:wikidata": "Q37158", "brand:wikipedia": "zh:\u661f\u5df4\u514b", "brand:zh": "\u661f\u5df4\u514b", "cuisine": "coffee_shop", "name": "\u661f\u5df4\u514b Starbucks", "name:en": "Starbucks", "name:zh": "\u661f\u5df4\u514b", "opening_hours": "07:30-23:00", "outdoor_seating": "no", "phone": "+852 2808 4627", "source": "survey", "source:date": "2017-04-02", "takeaway": "yes"}}, {"type": "node", "id": 4810715684, "lat": 22.287314, "lon": 114.1501595, "tags": {"amenity": "cafe", "name": "Das Gute"}}, {"type": "node", "id": 4811637924, "lat": 22.2855972, "lon": 114.1345419, "tags": {"addr:housenumber": "8\u865f", "addr:street": "\u5357\u91cc South Lane", "amenity": "cafe", "name": "Cobohouse by 2am", "name:en": "Cobohouse by 2am", "name:zh": "Cobohouse by 2am", "opening_hours": "Mo-Fr 12:00-15:00, 18:00-00:00; Sa-Su 12:00-00:00"}}, {"type": "node", "id": 4822643548, "lat": 22.2766755, "lon": 114.171222, "tags": {"addr:street": "\u838a\u58eb\u6566\u9053 Johnston Road", "amenity": "cafe", "name": "Ginger bakery", "source": "Kaart Ground Survey 2017"}}, {"type": "node", "id": 4824631221, "lat": 22.285092, "lon": 114.1413319, "tags": {"addr:housenumber": "48-78\u865f12\u865f\u8216", "addr:street": "\u9ad8\u8857 High Street", "amenity": "cafe", "name": "\u5341\u5b57\u51b0\u5ba4", "name:en": "Cross Cafe", "name:zh": "\u5341\u5b57\u51b0\u5ba4", "opening_hours": "Mo-Su 07:15-18:15"}}, {"type": "node", "id": 4824759433, "lat": 22.2765204, "lon": 114.1685298, "tags": {"addr:housenumber": "1", "addr:street": "\u65e5\u8857 Sun Street", "amenity": "cafe", "name:en": "Amical Coffee"}}, {"type": "node", "id": 4824759434, "lat": 22.2774607, "lon": 114.1681602, "tags": {"addr:street": "\u7687\u540e\u5927\u9053\u6771 Queen's Road East", "amenity": "cafe", "name:en": "Cafe Habat\u016b"}}, {"type": "node", "id": 4827992265, "lat": 22.2814687, "lon": 114.1823319, "tags": {"addr:street": "\u544a\u58eb\u6253\u9053 Gloucester Road", "amenity": "cafe", "branch": "Zanetti Espresso", "brand": "Segafredo", "brand:wikidata": "Q21282762", "brand:wikipedia": "it:Segafredo Zanetti", "cuisine": "coffee_shop", "level": "0", "name": "Segafredo", "phone": "+852 35869399", "ref:openrice": "448901", "source": "Kaart Ground Survey 2017", "takeaway": "yes", "website": "http://www.segafredocafe.com"}}, {"type": "node", "id": 4828730521, "lat": 22.2777321, "lon": 114.1666116, "tags": {"addr:housename": "\u592a\u53e4\u5ee3\u5834 Pacific Place", "addr:housename:en": "Pacific Place", "addr:housename:zh": "\u592a\u53e4\u5ee3\u5834", "addr:unit": "106", "amenity": "cafe", "branch": "\u592a\u53e4\u5ee3\u5834 Pacific Place", "branch:en": "Pacific Place", "branch:zh": "\u592a\u53e4\u5ee3\u5834", "brand": "Starbucks Reserve", "brand:en": "Starbucks Reserve", "brand:wikidata": "Q37158", "cuisine": "coffee_shop", "level": "1", "level:ref": "L1", "name": "Starbucks Reserve", "name:en": "Starbucks Reserve", "opening_hours": "Mo-Fr 07:00-21:00; Sa 07:30-21:00; Su 08:00-21:00", "phone": "+852 2568 2109", "takeaway": "yes"}}, {"type": "node", "id": 4829964321, "lat": 22.2775274, "lon": 114.168149, "tags": {"amenity": "cafe", "name:en": "Habat\u016b"}}, {"type": "node", "id": 4838159729, "lat": 22.2875528, "lon": 114.2110343, "tags": {"amenity": "cafe", "brand": "\u661f\u5df4\u514b Starbucks", "brand:en": "Starbucks", "brand:wikidata": "Q37158", "brand:wikipedia": "zh:\u661f\u5df4\u514b", "brand:zh": "\u661f\u5df4\u514b", "cuisine": "coffee_shop", "level": "0", "name": "\u661f\u5df4\u514b Starbucks", "name:en": "Starbucks", "name:zh": "\u661f\u5df4\u514b", "official_name": "Starbucks Coffee", "opening_hours": "Mo-Fr 06:30-20:00;Sa 07:00-19:00;Su,PH 08:30-18:00", "phone": "+852 25616515", "ref:openrice": "17641", "takeaway": "yes", "website": "https://www.starbucks.com/"}}, {"type": "node", "id": 4843375421, "lat": 22.2809336, "lon": 114.1835742, "tags": {"amenity": "cafe", "name:en": "Cats Planet"}}, {"type": "node", "id": 4844725725, "lat": 22.2799783, "lon": 114.1925458, "tags": {"amenity": "cafe", "name:en": "Classified"}}, {"type": "node", "id": 4845942948, "lat": 22.281124, "lon": 114.1746847, "tags": {"addr:street": "\u83f2\u6797\u660e\u9053 Fleming Road", "amenity": "cafe", "brand": "\u661f\u5df4\u514b Starbucks", "brand:en": "Starbucks", "brand:wikidata": "Q37158", "brand:wikipedia": "zh:\u661f\u5df4\u514b", "brand:zh": "\u661f\u5df4\u514b", "cuisine": "coffee_shop", "name": "\u661f\u5df4\u514b Starbucks", "name:en": "Starbucks", "name:zh": "\u661f\u5df4\u514b", "source": "Kaart Ground Survey 2017", "takeaway": "yes"}}, {"type": "node", "id": 4846605116, "lat": 22.2808974, "lon": 114.2235344, "tags": {"addr:street": "\u7b72\u7b95\u7063\u9053 Shau Kei Wan Road", "amenity": "cafe", "name": "9010 Academy", "source": "Kaart Ground Survey 2017"}}, {"type": "node", "id": 4847959955, "lat": 22.2799537, "lon": 114.2253835, "tags": {"addr:street": "\u7b72\u7b95\u7063\u9053 Shau Kei Wan Road", "amenity": "cafe", "name": "Mini Cafe", "source": "Kaart Ground Survey 2017"}}, {"type": "node", "id": 4848091244, "lat": 22.2848942, "lon": 114.2234424, "tags": {"addr:street": "\u592a\u5eb7\u8857 Tai Hong Street", "amenity": "cafe", "cuisine": "coffee_shop", "name": "Starbucks Coffee"}}, {"type": "node", "id": 4848256995, "lat": 22.2833, "lon": 114.22331, "tags": {"addr:country": "HK", "addr:housenumber": "25", "addr:street": "\u592a\u5b89\u8857 Tai On Street", "amenity": "cafe", "brand": "\u592a\u5e73\u6d0b\u5496\u5561 Pacific Coffee", "brand:en": "Pacific Coffee", "brand:wikidata": "Q7122398", "brand:wikipedia": "en:Pacific Coffee", "brand:zh": "\u592a\u5e73\u6d0b\u5496\u5561", "cuisine": "coffee_shop", "name": "\u592a\u5e73\u6d0b\u5496\u5561 Pacific Coffee", "name:en": "Pacific Coffee", "name:zh": "\u592a\u5e73\u6d0b\u5496\u5561", "opening_hours": "Mo-Sa 07:00-22:00;Su,PH 08:00-22:00", "phone": "+852 28579963", "takeaway": "yes", "website": "https://www.pacificcoffee.com/"}}, {"type": "node", "id": 4848280356, "lat": 22.2842292, "lon": 114.1430288, "tags": {"amenity": "cafe", "name": "Pesto Cafe", "source": "Kaart Ground Survey 2017"}}, {"type": "node", "id": 4848454852, "lat": 22.2902549, "lon": 114.2095112, "tags": {"addr:street": "\u82f1\u7687\u9053 King's Road", "amenity": "cafe", "brand": "\u661f\u5df4\u514b Starbucks", "brand:en": "Starbucks", "brand:wikidata": "Q37158", "brand:wikipedia": "zh:\u661f\u5df4\u514b", "brand:zh": "\u661f\u5df4\u514b", "cuisine": "coffee_shop", "name": "\u661f\u5df4\u514b Starbucks", "name:en": "Starbucks", "name:zh": "\u661f\u5df4\u514b", "official_name": "Starbucks Coffee", "source": "Kaart Ground Survey 2017", "takeaway": "yes"}}, {"type": "node", "id": 4848454873, "lat": 22.2848456, "lon": 114.2160299, "tags": {"addr:flats": "G5-G6", "addr:street": "\u5eb7\u5c71\u9053 Kornhill Road", "amenity": "cafe", "cuisine": "regional", "fixme": "Kam Kei Cafe", "level": "0", "name": "Kam Kee Cafe \u91d1\u8a18\u51b0\u5ba4", "name:en": "Kam Kee Cafe", "name:zh": "\u91d1\u8a18\u51b0\u5ba4", "source": "Kaart Ground Survey 2017", "was:brand": "Cosmos House Pancake Cafe"}}, {"type": "node", "id": 4849741481, "lat": 22.2872583, "lon": 114.2173199, "tags": {"addr:street": "\u592a\u53e4\u7063\u9053 Taikoo Wan Road", "amenity": "cafe", "name": "Starbucks", "source": "Kaart Ground Survey 2017"}}, {"type": "node", "id": 4849750593, "lat": 22.2484148, "lon": 114.1546786, "tags": {"addr:street": "\u6210\u90fd\u9053 Chengtu Road", "amenity": "cafe", "brand": "\u661f\u5df4\u514b Starbucks", "brand:en": "Starbucks", "brand:wikidata": "Q37158", "brand:zh": "\u661f\u5df4\u514b", "cuisine": "coffee_shop", "name": "\u661f\u5df4\u514b Starbucks", "name:en": "Starbucks", "name:zh": "\u661f\u5df4\u514b", "source": "Kaart Ground Survey 2017", "takeaway": "yes"}}, {"type": "node", "id": 4855825486, "lat": 22.292271, "lon": 114.2004917, "tags": {"addr:street": "\u6e23\u83ef\u9053 Java Road", "amenity": "cafe", "brand": "Sharetea", "brand:wikidata": "Q64827032", "cuisine": "bubble_tea", "name": "Sharetea", "name:en": "Sharetea", "name:zh": "\u6b47\u8173\u4ead", "source": "Kaart Ground Survey 2017", "takeaway": "yes"}}, {"type": "node", "id": 4856305833, "lat": 22.27771, "lon": 114.1678533, "tags": {"addr:street": "\u8ed2\u5c3c\u8a69\u9053 Hennessy Road", "amenity": "cafe", "name": "Caffe Habitu", "source": "Kaart Ground Survey 2017"}}, {"type": "node", "id": 4857802429, "lat": 22.2768737, "lon": 114.1709197, "tags": {"addr:street": "\u838a\u58eb\u6566\u9053 Johnston Road", "amenity": "cafe", "name": "The Coffee Academics", "source": "Kaart Ground Survey 2017"}}, {"type": "node", "id": 4858546113, "lat": 22.2801542, "lon": 114.1819493, "tags": {"addr:housenumber": "470", "addr:street": "\u99f1\u514b\u9053 Lockhart Road", "amenity": "cafe", "contact:facebook": "https://www.facebook.com/abouteahk/", "contact:instagram": "https://www.instagram.com/abouteahk/", "cuisine": "bubble_tea", "level": "0", "name": "\u82b1\u6591\u8336\u793e Aboutea", "name:en": "Aboutea", "name:zh": "\u82b1\u6591\u8336\u793e", "opening_hours": "Mo-Su 12:00-22:00", "outdoor_seating": "yes", "phone": "+852 6112 4112", "website": "https://www.abouteahk.com/"}}, {"type": "node", "id": 4858620558, "lat": 22.28094, "lon": 114.1836352, "tags": {"addr:street": "\u666f\u9686\u8857 Cannon Street", "amenity": "cafe", "brand": "\u8ca2\u8336 Gong Cha", "brand:en": "Gong Cha", "brand:wikidata": "Q5581670", "brand:wikipedia": "zh:\u8ca2\u8336 (\u9023\u9396\u5e97)", "brand:zh": "\u8ca2\u8336", "cuisine": "bubble_tea", "name": "\u8ca2\u8336 Gong Cha", "name:en": "Gong Cha", "name:zh": "\u8ca2\u8336", "source": "Kaart Ground Survey 2017", "takeaway": "yes"}}, {"type": "node", "id": 4860560494, "lat": 22.2796366, "lon": 114.1883685, "tags": {"addr:street": "\u9ad8\u58eb\u5a01\u9053 Causeway Road", "amenity": "cafe", "name": "King's Cafe", "source": "Kaart Ground Survey 2017"}}, {"type": "node", "id": 4860641772, "lat": 22.2683518, "lon": 114.1865957, "tags": {"addr:street": "\u6210\u548c\u9053 Sing Woo Road", "amenity": "cafe", "branch": "Company", "brand": "\u592a\u5e73\u6d0b\u5496\u5561 Pacific Coffee", "brand:en": "Pacific Coffee", "brand:wikidata": "Q7122398", "brand:wikipedia": "en:Pacific Coffee", "brand:zh": "\u592a\u5e73\u6d0b\u5496\u5561", "cuisine": "coffee_shop", "name": "\u592a\u5e73\u6d0b\u5496\u5561 Pacific Coffee", "name:en": "Pacific Coffee", "name:zh": "\u592a\u5e73\u6d0b\u5496\u5561", "outdoor_seating": "no", "source": "Kaart Ground Survey 2017", "takeaway": "yes"}}, {"type": "node", "id": 4860665374, "lat": 22.267628, "lon": 114.1870663, "tags": {"addr:street": "\u6210\u548c\u9053 Sing Woo Road", "amenity": "cafe", "brand": "\u661f\u5df4\u514b Starbucks", "brand:en": "Starbucks", "brand:wikidata": "Q37158", "brand:zh": "\u661f\u5df4\u514b", "cuisine": "coffee_shop", "name": "\u661f\u5df4\u514b Starbucks", "name:en": "Starbucks", "name:zh": "\u661f\u5df4\u514b", "official_name": "Starbucks Coffee", "source": "Kaart Ground Survey 2017", "takeaway": "yes"}}, {"type": "node", "id": 4860723626, "lat": 22.277432, "lon": 114.1843695, "tags": {"addr:street": "\u79ae\u9813\u9053 Leighton Road", "amenity": "cafe", "name": "Bonfire Cafe", "source": "Kaart Ground Survey 2017"}}, {"type": "node", "id": 4860723630, "lat": 22.2775517, "lon": 114.1841477, "tags": {"addr:street": "\u79ae\u9813\u9053 Leighton Road", "amenity": "cafe", "brand": "\u661f\u5df4\u514b Starbucks", "brand:en": "Starbucks", "brand:wikidata": "Q37158", "brand:wikipedia": "zh:\u661f\u5df4\u514b", "brand:zh": "\u661f\u5df4\u514b", "cuisine": "coffee_shop", "name": "\u661f\u5df4\u514b Starbucks", "name:en": "Starbucks", "name:zh": "\u661f\u5df4\u514b", "source": "Kaart Ground Survey 2017", "takeaway": "yes"}}, {"type": "node", "id": 4860773014, "lat": 22.2786958, "lon": 114.1842148, "tags": {"addr:street": "\u862d\u82b3\u9053 Lan Fong Road", "amenity": "cafe", "name": "Mozy"}}, {"type": "node", "id": 4862008481, "lat": 22.279296, "lon": 114.1923592, "tags": {"addr:street": "\u6d63\u7d17\u8857 Wun Sha Street", "amenity": "cafe", "name": "Fineprint", "phone": "+852 5331 5205", "source": "Kaart Ground Survey 2017", "website": "https://fineprint.hk/"}}, {"type": "node", "id": 4862057447, "lat": 22.2867158, "lon": 114.1355086, "tags": {"addr:street": "\u5fb7\u8f14\u9053\u897f Des Voeux Road West", "amenity": "cafe", "brand": "\u661f\u5df4\u514b Starbucks", "brand:en": "Starbucks", "brand:wikidata": "Q37158", "brand:zh": "\u661f\u5df4\u514b", "cuisine": "coffee_shop", "name": "\u661f\u5df4\u514b Starbucks", "name:en": "Starbucks", "name:zh": "\u661f\u5df4\u514b", "source": "Kaart Ground Survey 2017", "takeaway": "yes"}}, {"type": "node", "id": 4868739492, "lat": 22.279879, "lon": 114.1506981, "tags": {"addr:street": "\u7f85\u4fbf\u81e3\u9053 Robinson Road", "amenity": "cafe", "brand": "\u592a\u5e73\u6d0b\u5496\u5561 Pacific Coffee", "brand:en": "Pacific Coffee", "brand:wikidata": "Q7122398", "brand:wikipedia": "en:Pacific Coffee", "brand:zh": "\u592a\u5e73\u6d0b\u5496\u5561", "cuisine": "coffee_shop", "name": "\u592a\u5e73\u6d0b\u5496\u5561 Pacific Coffee", "name:en": "Pacific Coffee", "name:zh": "\u592a\u5e73\u6d0b\u5496\u5561", "source": "Kaart Ground Survey 2017", "takeaway": "yes"}}, {"type": "node", "id": 4870025963, "lat": 22.2823061, "lon": 114.1270183, "tags": {"addr:street": "\u7239\u6838\u58eb\u8857 Davis Street", "amenity": "cafe", "brand": "\u592a\u5e73\u6d0b\u5496\u5561 Pacific Coffee", "brand:en": "Pacific Coffee", "brand:wikidata": "Q7122398", "brand:zh": "\u592a\u5e73\u6d0b\u5496\u5561", "cuisine": "coffee_shop", "name": "\u592a\u5e73\u6d0b\u5496\u5561 Pacific Coffee", "name:en": "Pacific Coffee", "name:zh": "\u592a\u5e73\u6d0b\u5496\u5561", "source": "Kaart Ground Survey 2017", "takeaway": "yes"}}, {"type": "node", "id": 4870047895, "lat": 22.2879319, "lon": 114.1387833, "tags": {"addr:street": "\u6c34\u8857 Water Street", "amenity": "cafe", "name": "Momo Cafe", "source": "Kaart Ground Survey 2017"}}, {"type": "node", "id": 4870055751, "lat": 22.282988, "lon": 114.126872, "tags": {"addr:street": "\u5409\u5e2d\u8857 Catchick Street", "amenity": "cafe", "name": "The Cofftea Shop", "shop": "coffee"}}, {"type": "node", "id": 4870413942, "lat": 22.2833085, "lon": 114.1572505, "tags": {"amenity": "cafe", "brand": "\u661f\u5df4\u514b Starbucks", "brand:en": "Starbucks", "brand:wikidata": "Q37158", "brand:zh": "\u661f\u5df4\u514b", "cuisine": "coffee_shop", "level": "0", "name": "\u661f\u5df4\u514b Starbucks", "name:en": "Starbucks", "name:zh": "\u661f\u5df4\u514b", "takeaway": "yes"}}, {"type": "node", "id": 4870427292, "lat": 22.2851455, "lon": 114.1559218, "tags": {"addr:street": "\u5e72\u8afe\u9053\u4e2d Connaught Road Central", "amenity": "cafe", "brand": "\u661f\u5df4\u514b Starbucks", "brand:en": "Starbucks", "brand:wikidata": "Q37158", "brand:wikipedia": "zh:\u661f\u5df4\u514b", "brand:zh": "\u661f\u5df4\u514b", "cuisine": "coffee_shop", "name": "\u661f\u5df4\u514b Starbucks", "name:en": "Starbucks", "name:zh": "\u661f\u5df4\u514b", "source": "Kaart Ground Survey 2017", "takeaway": "yes"}}, {"type": "node", "id": 4929114421, "lat": 22.2788631, "lon": 114.1821521, "tags": {"addr:housenumber": "24-26", "addr:street": "\u7f85\u7d20\u8857 Russell Street", "amenity": "cafe", "cuisine": "coffee_shop;cake;breakfast;sandwich", "name": "Cafe Corridor", "opening_hours": "Mo-Fr 08:00-22:00; Sa 10:00-23:00; Su 10:00-22:00", "phone": "+852 28922927"}}, {"type": "node", "id": 4951963324, "lat": 22.2767346, "lon": 114.1683377, "tags": {"addr:street": "\u6c38\u8c50\u8857 Wing Fung Street", "amenity": "cafe", "name": "pure caf\u00e9", "name:en": "Elephant Grounds Coffee"}}, {"type": "node", "id": 4962619223, "lat": 22.2749494, "lon": 114.1722611, "tags": {"addr:housenumber": "25/F, 202", "addr:street": "\u7687\u540e\u5927\u9053\u6771 Queen's Road East", "amenity": "cafe", "cuisine": "spanish;international;coffee_shop;tapas", "name:en": "Espuma", "opening_hours": "Mo-Su 11:30-23:00", "phone": "21519126"}}, {"type": "node", "id": 4962651521, "lat": 22.280679, "lon": 114.1560525, "tags": {"addr:housenumber": "17/F, M88, 2-8", "addr:street": "\u5a01\u9748\u9813\u8857 Wellington Street", "amenity": "cafe", "cuisine": "spanish;tapas;coffee_shop;international", "name:en": "Espuma", "opening_hours": "Mo-Su 11:30-23:00", "phone": "29736088"}}, {"type": "node", "id": 4969996021, "lat": 22.2825077, "lon": 114.1280393, "tags": {"amenity": "cafe", "cuisine": "pasta;burger", "internet_access": "wlan", "name:en": "Lex Coffee"}}, {"type": "node", "id": 4975821924, "lat": 22.2837575, "lon": 114.1483947, "tags": {"amenity": "cafe", "name": "Po's atelier", "name:zh": "Po's atelier"}}, {"type": "node", "id": 5040227421, "lat": 22.2667219, "lon": 114.1874671, "tags": {"amenity": "cafe", "name:en": "\u84ee\u5712"}}, {"type": "node", "id": 5160983521, "lat": 22.2780152, "lon": 114.1865403, "tags": {"addr:housenumber": "1-5", "addr:street": "\u5e0c\u96f2\u8857 Haven Street", "amenity": "cafe", "cuisine": "cantonese", "internet_access": "no", "name": "\u5abd\u54aa\u96de\u86cb\u4ed4 Mammy Pancake", "name:en": "Mammy Pancake", "name:zh": "\u5abd\u54aa\u96de\u86cb\u4ed4", "outdoor_seating": "no"}}, {"type": "node", "id": 5166708722, "lat": 22.2803749, "lon": 114.1767858, "tags": {"amenity": "cafe", "name:en": "Olivers Super Sandwiches"}}, {"type": "node", "id": 5200999421, "lat": 22.2778311, "lon": 114.1794697, "tags": {"amenity": "cafe", "internet_access": "wlan", "name": "The Coffee Academics", "opening_hours": "Mo-Fr 08:00-21:00; Sa,Su 09:00-21:00; PH 09:00-21:00", "phone": "25150980", "website": "https://www.the-coffeeacademics.com"}}, {"type": "node", "id": 5242165222, "lat": 22.284038, "lon": 114.1528524, "tags": {"amenity": "cafe", "name:en": "Yourself cafe"}}, {"type": "node", "id": 5346316322, "lat": 22.283104, "lon": 114.154547, "tags": {"addr:housenumber": "18", "addr:street": "\u95a3\u9e9f\u8857 Cochrane Street", "amenity": "cafe", "level": "0", "name": "Cupping Room", "opening_hours": "Mo-Fr 08:00-17:00; Sa-Su,PH 09:00-18:00", "phone": "+852 25113518", "website": "https://cuppingroom.hk/"}}, {"type": "node", "id": 5355875921, "lat": 22.2801111, "lon": 114.1764124, "tags": {"amenity": "cafe", "name": "George Coffee", "name:en": "George Coffee"}}, {"type": "node", "id": 5464822421, "lat": 22.288978, "lon": 114.2099333, "tags": {"amenity": "cafe", "name:en": "King noodles", "name:ru": "\u041b\u0430\u043f\u0448\u0438\u0447\u043d\u0430\u044f"}}, {"type": "node", "id": 5477101422, "lat": 22.28163, "lon": 114.15607, "tags": {"addr:housenumber": "1-13", "addr:street": "\u5fb7\u5df1\u7acb\u8857 D'Aguilar Street", "amenity": "cafe", "brand": "Starbucks", "brand:wikidata": "Q37158", "brand:wikipedia": "en:Starbucks", "cuisine": "coffee_shop", "name": "Starbucks", "name:en": "Starbucks Coffee", "name:zh": "\u661f\u5df4\u514b\u5496\u5561", "official_name": "Starbucks Coffee", "opening_hours": "Mo-Th 07:00-23:30; Fr 07:00-24:00; Sa 07:30-24:00; Su 08:00-22:30", "phone": "+852 21274500", "ref:openrice": "8284", "takeaway": "yes", "website": "https://www.starbucks.com/"}}, {"type": "node", "id": 5534979522, "lat": 22.2814235, "lon": 114.1584948, "tags": {"amenity": "cafe", "brand": "\u661f\u5df4\u514b Starbucks", "brand:en": "Starbucks", "brand:wikidata": "Q37158", "brand:wikipedia": "zh:\u661f\u5df4\u514b", "brand:zh": "\u661f\u5df4\u514b", "cuisine": "coffee_shop", "name": "\u661f\u5df4\u514b Starbucks", "name:en": "Starbucks", "name:zh": "\u661f\u5df4\u514b", "takeaway": "yes"}}, {"type": "node", "id": 5541617125, "lat": 22.282671, "lon": 114.152742, "tags": {"addr:housenumber": "38", "addr:street": "\u5351\u5229\u8857 Peel Street", "amenity": "cafe", "level": "0", "name": "Fineprint", "opening_hours": "Mo-We 06:00-22:00; Th-Sa 06:00-01:00; Su,PH 08:00-18:00", "ref:openrice": "514721", "website": "https://fineprint.hk/"}}, {"type": "node", "id": 5617841421, "lat": 22.2811079, "lon": 114.1556461, "tags": {"addr:housenumber": "24", "addr:street": "\u5fb7\u5df1\u7acb\u8857 D'Aguilar Street", "amenity": "cafe", "name": "Unbothered"}}, {"type": "node", "id": 5617841422, "lat": 22.2859111, "lon": 114.1502443, "tags": {"addr:housenumber": "128", "addr:street": "\u8607\u676d\u8857 Jervois Street", "amenity": "cafe", "name:en": "Barista Jam"}}, {"type": "node", "id": 5617841721, "lat": 22.2836549, "lon": 114.1483198, "tags": {"addr:housenumber": "72", "addr:street": "\u666e\u6176\u574a Po Hing Fong", "amenity": "cafe", "name:en": "Cafe Deadend"}}, {"type": "node", "id": 5711855934, "lat": 22.28215, "lon": 114.15564, "tags": {"addr:city": "Central", "addr:country": "HK", "addr:housenumber": "22", "addr:street": "\u58eb\u4e39\u5229\u8857 Stanley Street", "amenity": "cafe", "fax": "+852 25309608", "level": "0", "name": "Holly Brown Coffee", "phone": "+852 28699008", "website": "http://www.hollybrowncoffee.com"}}, {"type": "node", "id": 5711855937, "lat": 22.2815434, "lon": 114.1535173, "tags": {"addr:housenumber": "15", "addr:street": "\u5967\u5351\u5229\u8857 Old Bailey Street", "amenity": "cafe", "name": "Ponty Cafe"}}, {"type": "node", "id": 5712459721, "lat": 22.2851376, "lon": 114.1480092, "tags": {"amenity": "cafe", "cuisine": "coffee_shop;international", "delivery": "no", "internet_access": "wlan", "internet_access:fee": "customers", "name": "C-DOU", "opening_hours": "Tu-Fr 08:00-17:00; Sa-Su 09:00-18:00; PH 09:00-18:00", "outdoor_seating": "no", "takeaway": "yes"}}, {"type": "node", "id": 5759688921, "lat": 22.282129, "lon": 114.15952, "tags": {"amenity": "cafe", "name": "SEVVA", "name:zh": "SEVVA( amazing brunch)"}}, {"type": "node", "id": 5767664454, "lat": 22.2865559, "lon": 114.1433323, "tags": {"addr:housenumber": "21", "addr:street": "\u7b2c\u4e00\u8857 First Street", "addr:street:en": "First Street", "addr:street:zh": "\u7b2c\u4e00\u8857", "amenity": "cafe", "cuisine": "cake;coffee_shop", "email": "contact@shazconfections.com", "internet_access": "wlan", "name": "Shaz Confections Bakery Cafe", "name:en": "Shaz Confections Bakery Cafe", "opening_hours": "Mo-Sa 10:00-19:00", "phone": "+85255965956", "website": "https://www.shazconfections.com/"}}, {"type": "node", "id": 5872337761, "lat": 22.2827211, "lon": 114.139121, "tags": {"amenity": "cafe", "level": "2", "name": "Cafe 330", "opening_hours": "Mo-Fr 07:30-20:30; Sa-Su PH 10:00-18:30", "operator": "New Life Support Enterprises Ltd.", "phone": "+852 2794 3778"}}, {"type": "node", "id": 5872368049, "lat": 22.2831356, "lon": 114.1357695, "tags": {"amenity": "cafe", "brand": "\u661f\u5df4\u514b Starbucks", "brand:en": "Starbucks", "brand:wikidata": "Q37158", "brand:wikipedia": "en:Starbucks", "brand:zh": "\u661f\u5df4\u514b", "cuisine": "coffee_shop", "internet_access": "wlan", "level": "0", "name": "\u661f\u5df4\u514b Starbucks", "name:en": "Starbucks", "name:zh": "\u661f\u5df4\u514b", "official_name": "Starbucks Coffee", "opening_hours": "Mo-Fr 07:30-22:00;Sa 07:30-20:00;Su,PH 11:00-18:30", "phone": "+852 2559 9061", "takeaway": "yes", "website": "https://www.starbucks.com/"}}, {"type": "node", "id": 6004344686, "lat": 22.2829571, "lon": 114.1529115, "tags": {"addr:street": "\u5351\u5229\u8857 Peel Street", "amenity": "cafe", "name:en": "Be Juiced and Bar"}}, {"type": "node", "id": 6004344687, "lat": 22.2843287, "lon": 114.1471357, "tags": {"amenity": "cafe", "name:en": "Mana - Vegan Coffee Shop"}}, {"type": "node", "id": 6004365785, "lat": 22.2838064, "lon": 114.148318, "tags": {"addr:street": "\u666e\u6176\u574a Po Hing Fong", "amenity": "cafe", "name:en": "Cupping Room"}}, {"type": "node", "id": 6004365786, "lat": 22.286777, "lon": 114.1506776, "tags": {"amenity": "cafe", "name:en": "The Poke Co"}}, {"type": "node", "id": 6005115786, "lat": 22.2826327, "lon": 114.1529743, "tags": {"amenity": "cafe", "name": "Fresca", "name:en": "Fresca"}}, {"type": "node", "id": 6018834586, "lat": 22.2916982, "lon": 114.1993103, "tags": {"addr:housenumber": "1\u53f7", "addr:street": "\u99ac\u5bf6\u9053 Marble Road", "amenity": "cafe", "name": "\u5fb3\u8208\u9686\u8c46\u8150\u9914", "name:en": "Tak Hing Lung", "opening_hours": "Mo-Su 07:00-19:00", "phone": "+852 2563 8815"}}, {"type": "node", "id": 6046142498, "lat": 22.2871258, "lon": 114.2119598, "tags": {"amenity": "cafe", "name:en": "SaladStop"}}, {"type": "node", "id": 6095217293, "lat": 22.2477177, "lon": 114.1630578, "tags": {"amenity": "cafe", "name": "Africa Coffee And Tea"}}, {"type": "node", "id": 6224204129, "lat": 22.2862769, "lon": 114.1339438, "tags": {"amenity": "cafe", "brand": "\u592a\u5e73\u6d0b\u5496\u5561 Pacific Coffee", "brand:en": "Pacific Coffee", "brand:wikidata": "Q7122398", "brand:zh": "\u592a\u5e73\u6d0b\u5496\u5561", "cuisine": "coffee_shop", "level": "0", "name": "\u592a\u5e73\u6d0b\u5496\u5561 Pacific Coffee", "name:en": "Pacific Coffee", "name:zh": "\u592a\u5e73\u6d0b\u5496\u5561", "takeaway": "yes"}}, {"type": "node", "id": 6257437685, "lat": 22.2841036, "lon": 114.15264, "tags": {"amenity": "cafe", "name:en": "NOC Coffee"}}, {"type": "node", "id": 6257931387, "lat": 22.2704362, "lon": 114.1311887, "tags": {"amenity": "cafe", "brand": "\u592a\u5e73\u6d0b\u5496\u5561 Pacific Coffee", "brand:en": "Pacific Coffee", "brand:wikidata": "Q7122398", "brand:zh": "\u592a\u5e73\u6d0b\u5496\u5561", "cuisine": "coffee_shop", "name": "\u592a\u5e73\u6d0b\u5496\u5561 Pacific Coffee", "name:en": "Pacific Coffee", "name:zh": "\u592a\u5e73\u6d0b\u5496\u5561", "takeaway": "yes"}}, {"type": "node", "id": 6265531209, "lat": 22.285204, "lon": 114.1505753, "tags": {"addr:street": "299 Queen's Road Central", "amenity": "cafe", "name": "Cupping Room"}}, {"type": "node", "id": 6310573102, "lat": 22.2760818, "lon": 114.2405252, "tags": {"addr:city": "Hong Kong", "addr:district": "Eastern", "addr:housenumber": "100", "addr:street": "Chai Wansheng Tai Road", "amenity": "cafe", "brand": "Starbucks", "brand:wikidata": "Q37158", "cuisine": "coffee_shop", "name": "Starbucks", "outdoor_seating": "no", "takeaway": "yes"}}, {"type": "node", "id": 6314187085, "lat": 22.286975, "lon": 114.1442758, "tags": {"addr:housenumber": "213", "addr:street": "\u7687\u540e\u5927\u9053\u897f Queen's Road West", "amenity": "cafe", "name": "Winston's Coffee", "name:en": "Winstons Coffee"}}, {"type": "node", "id": 6339252785, "lat": 22.2870075, "lon": 114.1446639, "tags": {"amenity": "cafe", "name:en": "Winstons Wants"}}, {"type": "node", "id": 6378290625, "lat": 22.275685, "lon": 114.171283, "tags": {"addr:city": "Wan Chai", "addr:country": "HK", "addr:housenumber": "2-4", "addr:street": "\u5927\u738b\u6771\u8857 Tai Wong Street East", "addr:unit": "3A", "amenity": "cafe", "level": "0", "name": "NOC Coffee", "opening_hours": "Mo-Su,PH 08:00-18:00", "ref:openrice": "574458", "website": "https://noccoffeeco.com"}}, {"type": "node", "id": 6409399570, "lat": 22.285471, "lon": 114.1615222, "tags": {"amenity": "cafe"}}, {"type": "node", "id": 6417901292, "lat": 22.2817811, "lon": 114.1853187, "tags": {"amenity": "cafe", "name": "Elephant Grounds"}}, {"type": "node", "id": 6442475381, "lat": 22.2785172, "lon": 114.1781476, "tags": {"addr:street": "\u8ed2\u5c3c\u8a69\u9053 Hennessy Road", "amenity": "cafe", "brand": "\u592a\u5e73\u6d0b\u5496\u5561 Pacific Coffee", "brand:en": "Pacific Coffee", "brand:wikidata": "Q7122398", "brand:wikipedia": "en:Pacific Coffee", "brand:zh": "\u592a\u5e73\u6d0b\u5496\u5561", "cuisine": "coffee_shop", "name": "\u592a\u5e73\u6d0b\u5496\u5561 Pacific Coffee", "name:en": "Pacific Coffee", "name:zh": "\u592a\u5e73\u6d0b\u5496\u5561", "takeaway": "yes", "website": "https://www.pacificcoffee.com"}}, {"type": "node", "id": 6461337385, "lat": 22.2813976, "lon": 114.1272005, "tags": {"addr:housename": "\u6d5a\u5cf0 The Hudson", "addr:housename:en": "The Hudson", "addr:housename:zh": "\u6d5a\u5cf0", "addr:unit": "8", "amenity": "cafe", "name": "Winstons Coffee", "name:en": "The Winston Coffee AM & Martinis PM"}}, {"type": "node", "id": 6728746257, "lat": 22.2798514, "lon": 114.1720612, "tags": {"amenity": "cafe", "level": "0", "name": "Partager"}}, {"type": "node", "id": 6782552585, "lat": 22.2854, "lon": 114.1544646, "tags": {"addr:housenumber": "142", "addr:street": "\u5fb7\u8f14\u9053\u4e2d Des Voeux Road Central", "amenity": "cafe", "name": "Amber Coffee Brewery"}}, {"type": "node", "id": 6789397771, "lat": 22.2929473, "lon": 114.2053212, "tags": {"amenity": "cafe", "brand": "\u592a\u5e73\u6d0b\u5496\u5561 Pacific Coffee", "brand:en": "Pacific Coffee", "brand:wikidata": "Q7122398", "brand:wikipedia": "en:Pacific Coffee", "brand:zh": "\u592a\u5e73\u6d0b\u5496\u5561", "cuisine": "coffee_shop", "name": "\u592a\u5e73\u6d0b\u5496\u5561 Pacific Coffee", "name:en": "Pacific Coffee", "name:zh": "\u592a\u5e73\u6d0b\u5496\u5561", "name:zh-Hans": "\u592a\u5e73\u6d0b\u5496\u5561", "name:zh-Hant": "\u592a\u5e73\u6d0b\u5496\u5561", "takeaway": "yes"}}, {"type": "node", "id": 6837265054, "lat": 22.27702, "lon": 114.1734956, "tags": {"amenity": "cafe", "brand": "\u8ca2\u8336 Gong Cha", "brand:en": "Gong Cha", "brand:wikidata": "Q5581670", "brand:wikipedia": "zh:\u8ca2\u8336 (\u9023\u9396\u5e97)", "brand:zh": "\u8ca2\u8336", "cuisine": "bubble_tea", "name": "\u8ca2\u8336 Gong Cha", "name:en": "Gong Cha", "name:zh": "\u8ca2\u8336", "takeaway": "yes"}}, {"type": "node", "id": 6857211710, "lat": 22.2767212, "lon": 114.1693689, "tags": {"addr:housenumber": "70", "addr:street": "\u7687\u540e\u5927\u9053\u6771 Queen's Road East", "amenity": "cafe", "name": "Eric Kayser", "opening_hours": "Mo-Fr 07:00-20:30;Sa,Su,PH 07:30-20:30", "phone": "+852 21776779", "website": "https://www.maison-kayser.com.hk"}}, {"type": "node", "id": 6857211712, "lat": 22.2778417, "lon": 114.1699384, "tags": {"amenity": "cafe", "brand": "\u661f\u5df4\u514b Starbucks", "brand:en": "Starbucks", "brand:wikidata": "Q37158", "brand:wikipedia": "zh:\u661f\u5df4\u514b", "brand:zh": "\u661f\u5df4\u514b", "cuisine": "coffee_shop", "name": "\u661f\u5df4\u514b Starbucks", "name:en": "Starbucks", "name:zh": "\u661f\u5df4\u514b", "official_name": "Starbucks Coffee", "takeaway": "yes", "website": "https://www.starbucks.com/"}}, {"type": "node", "id": 6881656585, "lat": 22.2818268, "lon": 114.1532736, "tags": {"amenity": "cafe", "name:en": "Maison Libanaise"}}, {"type": "node", "id": 6938627587, "lat": 22.2780961, "lon": 114.1852197, "tags": {"amenity": "cafe", "brand": "\u661f\u5df4\u514b Starbucks", "brand:en": "Starbucks", "brand:wikidata": "Q37158", "brand:wikipedia": "zh:\u661f\u5df4\u514b", "brand:zh": "\u661f\u5df4\u514b", "cuisine": "coffee_shop", "name": "\u661f\u5df4\u514b Starbucks", "name:en": "Starbucks", "name:zh": "\u661f\u5df4\u514b", "takeaway": "yes"}}, {"type": "node", "id": 6956887252, "lat": 22.2821393, "lon": 114.1520795, "tags": {"amenity": "cafe", "cuisine": "coffee_shop", "internet_access": "wlan", "name": "Hazel & Hershey Cafe"}}, {"type": "node", "id": 6961293285, "lat": 22.2818232, "lon": 114.1530721, "tags": {"addr:street": "\u58eb\u4e39\u9813\u8857 Staunton Street", "amenity": "cafe", "name:en": "Barista by Givres"}}, {"type": "node", "id": 6961293286, "lat": 22.2801018, "lon": 114.1545864, "tags": {"addr:housenumber": "4-8", "addr:street": "\u4e9e\u7562\u8afe\u9053 Arbuthnot Road", "amenity": "cafe", "name:en": "The Diner", "opening_hours": "Mo-Su 07:30-22:30"}}, {"type": "node", "id": 7136811558, "lat": 22.2873854, "lon": 114.141177, "tags": {"amenity": "cafe", "name": "Wako2ffee House", "wheelchair": "yes"}}, {"type": "node", "id": 7136843588, "lat": 22.2875999, "lon": 114.1416796, "tags": {"addr:housename": "\u7467\u84fa Artisan House", "addr:housename:en": "Artisan House", "addr:housename:zh": "\u7467\u84fa", "amenity": "cafe", "branch": "Artisan House", "branch:en": "Artisan House", "brand": "The Coffee Academics", "brand:en": "The Coffee Academics", "door": "yes", "entrance": "yes", "level": "0", "name": "The Coffee Academics", "name:en": "The Coffee Academics"}}, {"type": "node", "id": 7139592650, "lat": 22.2190977, "lon": 114.2096463, "tags": {"amenity": "cafe", "brand": "Starbucks", "brand:wikidata": "Q37158", "brand:wikipedia": "en:Starbucks", "cuisine": "coffee_shop", "name": "Starbucks", "official_name": "Starbucks Coffee", "takeaway": "yes"}}, {"type": "node", "id": 7284696353, "lat": 22.2884561, "lon": 114.1929926, "tags": {"amenity": "cafe", "brand": "\u592a\u5e73\u6d0b\u5496\u5561 Pacific Coffee", "brand:en": "Pacific Coffee", "brand:wikidata": "Q7122398", "brand:wikipedia": "en:Pacific Coffee", "brand:zh": "\u592a\u5e73\u6d0b\u5496\u5561", "cuisine": "coffee_shop", "name": "\u592a\u5e73\u6d0b\u5496\u5561 Pacific Coffee", "name:en": "Pacific Coffee", "name:zh": "\u592a\u5e73\u6d0b\u5496\u5561", "takeaway": "yes"}}, {"type": "node", "id": 7291554276, "lat": 22.2855054, "lon": 114.1538954, "tags": {"addr:housenumber": "31", "addr:street": "\u6c38\u548c\u8857 Wing Wo Street", "amenity": "cafe", "name": "Awake"}}, {"type": "node", "id": 7334683571, "lat": 22.2857564, "lon": 114.1919849, "tags": {"amenity": "cafe", "name": "NOC Coffee", "opening_hours": "Mo-Su,PH 08:00-18:00"}}, {"type": "node", "id": 7358498855, "lat": 22.2789792, "lon": 114.1817816, "tags": {"amenity": "cafe", "brand": "\u592a\u5e73\u6d0b\u5496\u5561 Pacific Coffee", "brand:en": "Pacific Coffee", "brand:wikidata": "Q7122398", "brand:wikipedia": "en:Pacific Coffee", "brand:zh": "\u592a\u5e73\u6d0b\u5496\u5561", "cuisine": "coffee_shop", "name": "\u592a\u5e73\u6d0b\u5496\u5561 Pacific Coffee", "name:en": "Pacific Coffee", "name:zh": "\u592a\u5e73\u6d0b\u5496\u5561", "takeaway": "yes"}}, {"type": "node", "id": 7604684486, "lat": 22.2746476, "lon": 114.1719015, "tags": {"amenity": "cafe", "brand": "Starbucks Reserve", "brand:wikidata": "Q37158", "cuisine": "coffee_shop", "name": "Starbucks Reserve", "name:en": "Starbucks Reserve", "takeaway": "yes"}}, {"type": "node", "id": 7855810558, "lat": 22.2865182, "lon": 114.1619298, "tags": {"amenity": "cafe", "level": "4"}}, {"type": "node", "id": 7892487916, "lat": 22.281407, "lon": 114.1272612, "tags": {"amenity": "cafe", "name": "Chat Room"}}, {"type": "node", "id": 7922591764, "lat": 22.2335576, "lon": 114.1726135, "tags": {"amenity": "cafe", "ne": "The Terrace Caf\u00e9"}}, {"type": "node", "id": 8041687867, "lat": 22.2184764, "lon": 114.2129387, "tags": {"addr:housenumber": "80", "addr:street": "\u8d64\u67f1\u6751\u9053 Stanley Village Road", "amenity": "cafe", "brand": "\u592a\u5e73\u6d0b\u5496\u5561 Pacific Coffee", "brand:en": "Pacific Coffee", "brand:wikidata": "Q7122398", "brand:zh": "\u592a\u5e73\u6d0b\u5496\u5561", "cuisine": "coffee_shop", "internet_access": "wlan", "name": "\u592a\u5e73\u6d0b\u5496\u5561 Pacific Coffee", "name:en": "Pacific Coffee", "name:zh": "\u592a\u5e73\u6d0b\u5496\u5561", "takeaway": "yes", "website": "https://www.pacificcoffee.com/"}}, {"type": "node", "id": 8277470117, "lat": 22.2797168, "lon": 114.1850845, "tags": {"amenity": "cafe", "brand": "\u8ca2\u8336 Gong Cha", "brand:en": "Gong Cha", "brand:wikidata": "Q5581670", "brand:wikipedia": "zh:\u8ca2\u8336 (\u9023\u9396\u5e97)", "brand:zh": "\u8ca2\u8336", "cuisine": "bubble_tea", "name": "\u8ca2\u8336 Gong Cha", "name:en": "Gong Cha", "name:zh": "\u8ca2\u8336", "takeaway": "yes"}}, {"type": "node", "id": 8353850615, "lat": 22.2914062, "lon": 114.202169, "tags": {"amenity": "cafe", "brand": "\u661f\u5df4\u514b Starbucks", "brand:en": "Starbucks", "brand:wikidata": "Q37158", "brand:wikipedia": "zh:\u661f\u5df4\u514b", "brand:zh": "\u661f\u5df4\u514b", "cuisine": "coffee_shop", "name": "\u661f\u5df4\u514b Starbucks", "name:en": "Starbucks", "name:zh": "\u661f\u5df4\u514b", "official_name": "Starbucks Coffee", "takeaway": "yes"}}, {"type": "node", "id": 8422417680, "lat": 22.281734, "lon": 114.1271418, "tags": {"amenity": "cafe", "name": "Eric Kayser"}}, {"type": "node", "id": 8424231338, "lat": 22.2852711, "lon": 114.1404524, "tags": {"addr:street": "High Street", "air_conditioning": "yes", "amenity": "cafe", "cuisine": "coffee_shop;pastry", "email": "hashtagcoffeehk@gmail.com", "name": "Hashtag Coffee"}}, {"type": "node", "id": 8436098760, "lat": 22.2839383, "lon": 114.1287659, "tags": {"addr:street": "North Street", "amenity": "cafe", "cuisine": "waffle", "name": "Waffling Beans", "name:en": "Waffling Beans"}}, {"type": "node", "id": 8490943553, "lat": 22.2854066, "lon": 114.1317978, "tags": {"amenity": "cafe", "cuisine": "chicken", "name": "Aspho Deli"}}, {"type": "node", "id": 8636639836, "lat": 22.2836893, "lon": 114.1266914, "tags": {"addr:street": "Davis Street", "amenity": "cafe", "brand": "% Arabica", "brand:wikidata": "Q107639197", "brand:wikipedia": "en:%25Arabica", "cuisine": "coffee_shop", "description": "coffee", "name": "% Arabica", "takeaway": "yes"}}, {"type": "node", "id": 8848311389, "lat": 22.2774454, "lon": 114.1853198, "tags": {"amenity": "cafe", "name": "NOC Lee Garden Three"}}, {"type": "node", "id": 9025818583, "lat": 22.282569, "lon": 114.1267711, "tags": {"addr:street": "\u7239\u6838\u58eb\u8857 Davis Street", "amenity": "cafe", "name": "Kefi"}}, {"type": "node", "id": 9025990479, "lat": 22.281416, "lon": 114.1273243, "tags": {"addr:housename": "\u6d5a\u5cf0 The Hudson", "addr:housename:en": "The Hudson", "addr:housename:zh": "\u6d5a\u5cf0", "addr:unit": "8", "amenity": "cafe", "name": "Creo by Brentwood"}}, {"type": "node", "id": 9026025738, "lat": 22.2828413, "lon": 114.1282066, "tags": {"addr:housenumber": "107", "addr:street": "\u5351\u8def\u4e4d\u8857 Belcher's Street", "amenity": "cafe", "name": "Ban Chun Tea"}}, {"type": "node", "id": 9111245857, "lat": 22.2863479, "lon": 114.1504015, "tags": {"amenity": "cafe", "brand": "\u592a\u5e73\u6d0b\u5496\u5561 Pacific Coffee", "brand:en": "Pacific Coffee", "brand:wikidata": "Q7122398", "brand:wikipedia": "en:Pacific Coffee", "brand:zh": "\u592a\u5e73\u6d0b\u5496\u5561", "cuisine": "coffee_shop", "name": "\u592a\u5e73\u6d0b\u5496\u5561 Pacific Coffee", "name:en": "Pacific Coffee", "name:zh": "\u592a\u5e73\u6d0b\u5496\u5561", "takeaway": "yes"}}, {"type": "node", "id": 9603237007, "lat": 22.282831, "lon": 114.1278606, "tags": {"addr:street": "\u539a\u548c\u8857 Hau Wo Street", "amenity": "cafe", "cuisine": "coffee_shop", "name": "For Single"}}, {"type": "node", "id": 9603237008, "lat": 22.2829117, "lon": 114.1276161, "tags": {"addr:street": "\u539a\u548c\u8857 Hau Wo Street", "amenity": "cafe", "cuisine": "coffee_shop", "name": "Affee"}}, {"type": "node", "id": 9720055504, "lat": 22.2825876, "lon": 114.1286141, "tags": {"amenity": "cafe", "brand": "\u661f\u5df4\u514b Starbucks", "brand:en": "Starbucks", "brand:wikidata": "Q37158", "brand:zh": "\u661f\u5df4\u514b", "cuisine": "coffee_shop", "name": "\u661f\u5df4\u514b Starbucks", "name:en": "Starbucks", "name:zh": "\u661f\u5df4\u514b", "official_name": "Starbucks Coffee", "takeaway": "yes"}}, {"type": "node", "id": 9763887298, "lat": 22.2901073, "lon": 114.1959118, "tags": {"amenity": "cafe", "brand": "\u661f\u5df4\u514b Starbucks", "brand:en": "Starbucks", "brand:wikidata": "Q37158", "brand:zh": "\u661f\u5df4\u514b", "cuisine": "coffee_shop", "name": "\u661f\u5df4\u514b Starbucks", "name:en": "Starbucks", "name:zh": "\u661f\u5df4\u514b", "official_name": "Starbucks Coffee", "takeaway": "yes"}}, {"type": "node", "id": 9763887562, "lat": 22.2929568, "lon": 114.1993444, "tags": {"amenity": "cafe", "brand": "\u661f\u5df4\u514b Starbucks", "brand:en": "Starbucks", "brand:wikidata": "Q37158", "brand:zh": "\u661f\u5df4\u514b", "cuisine": "coffee_shop", "name": "\u661f\u5df4\u514b Starbucks", "name:en": "Starbucks", "name:zh": "\u661f\u5df4\u514b", "official_name": "Starbucks Coffee", "takeaway": "yes"}}, {"type": "node", "id": 9878330158, "lat": 22.2875068, "lon": 114.2181183, "tags": {"addr:housenumber": "12", "addr:street": "\u592a\u53e4\u7063\u9053 Taikoo Wan Road", "amenity": "cafe", "level": "2", "name": "Brew Job"}}, {"type": "node", "id": 9902966423, "lat": 22.2778912, "lon": 114.1827044, "tags": {"addr:housenumber": "14", "addr:street": "\u52ff\u5730\u81e3\u8857 Matheson Street", "amenity": "cafe", "level": "0", "name": "Cinnabon"}}, {"type": "node", "id": 9989691780, "lat": 22.2788129, "lon": 114.1600526, "tags": {"addr:housenumber": "4", "addr:street": "\u82b1\u5712\u9053 Garden Road", "amenity": "cafe", "cuisine": "coffee_shop", "name": "The Nest", "opening_hours": "Mo-Fr 08:00-18:00", "outdoor_seating": "no", "phone": "+85227894833"}}, {"type": "node", "id": 10004348277, "lat": 22.279526, "lon": 114.1833157, "tags": {"addr:city": "\u7063\u4ed4\u5340 Wan Chai District", "addr:district": "Causeway Bay", "addr:housenumber": "17", "addr:street": "\u5229\u5712\u5c71\u9053 Lee Garden Road", "amenity": "cafe", "cuisine": "bubble_tea", "name": "Milksha"}}, {"type": "node", "id": 10095922821, "lat": 22.2860672, "lon": 114.1432361, "tags": {"addr:housenumber": "6-8", "addr:street": "\u7b2c\u4e8c\u8857 Second Street", "amenity": "cafe", "contact:facebook": "https://www.facebook.com/nggynn852/", "contact:instagram": "https://www.instagram.com/nggyn_/", "name": "\u543e\u5b50\u5eda\u623f Nggy &", "name:en": "Nggy &", "name:zh": "\u543e\u5b50\u5eda\u623f", "website": "https://nggyn.com/"}}, {"type": "node", "id": 10097190620, "lat": 22.2855794, "lon": 114.1354658, "tags": {"addr:housenumber": "31-37", "addr:street": "\u5c71\u9053 Hill Road", "amenity": "cafe", "contact:facebook": "https://www.facebook.com/soulfreecafe", "contact:instagram": "https://www.instagram.com/soulfreecafehk/", "cuisine": "western;pasta;cake", "name": "SoulFree", "name:en": "SoulFree", "opening_hours": "Mo-Su 12:00-21:00", "phone": "+852 5402 0650"}}, {"type": "node", "id": 10097199186, "lat": 22.2785582, "lon": 114.1836276, "tags": {"addr:housenumber": "2-6", "addr:street": "\u5bcc\u660e\u8857 Foo Ming Street", "amenity": "cafe", "contact:facebook": "https://www.facebook.com/profile.php?id=100069904166968", "contact:instagram": "https://www.instagram.com/ym_cafe/", "level": "1", "name": "Y.M. Cafe", "name:en": "Y.M. Cafe", "opening_hours": "12:00-21:30; We off", "phone": "+852 5721 5741", "reservation": "yes"}}, {"type": "node", "id": 10098551265, "lat": 22.2847451, "lon": 114.1363213, "tags": {"addr:housenumber": "9-15", "addr:street": "\u4fdd\u5fb7\u8857 Po Tuck Street", "amenity": "cafe", "contact:facebook": "https://www.facebook.com/DearNeighborCoffee/", "contact:instagram": "https://www.instagram.com/dearneighborhk/", "level": "0", "name": "Dear Neighbor", "opening_hours": "Tu-Su 08:30-18:00", "phone": "+852 6067 5007"}}, {"type": "node", "id": 10098591659, "lat": 22.278464, "lon": 114.1835431, "tags": {"addr:housenumber": "2-6", "addr:street": "\u5bcc\u660e\u8857 Foo Ming Street", "amenity": "cafe", "contact:facebook": "https://www.facebook.com/117730977591880/", "contact:instagram": "https://www.instagram.com/coholic_hk/", "level": "3", "name": "Coholic", "opening_hours": "Mo off; Tu-Fr 12:00-21:30; Sa-Su 11:30-21:30", "phone": "+852 9542 1763"}}, {"type": "node", "id": 10108236781, "lat": 22.2642089, "lon": 114.240844, "tags": {"addr:housenumber": "350", "addr:street": "\u67f4\u7063\u9053 Chai Wan Road", "addr:unit": "302", "amenity": "cafe", "contact:facebook": "https://www.facebook.com/profile.php?id=100063965526431", "contact:instagram": "https://www.instagram.com/e.tea.hk/", "cuisine": "bubble_tea", "level": "0", "name": "\u8336\u661f\u4eba E.Tea", "name:en": "E.Tea", "name:zh": "\u8336\u661f\u4eba"}}, {"type": "node", "id": 10108258330, "lat": 22.2643937, "lon": 114.2410672, "tags": {"addr:housenumber": "350", "addr:street": "\u67f4\u7063\u9053 Chai Wan Road", "addr:unit": "317-318", "amenity": "cafe", "contact:facebook": "https://www.facebook.com/101093572153526/", "contact:instagram": "https://www.instagram.com/loudtea_hk/", "cuisine": "bubble_tea", "level": "0", "name": "\u97ff\u8336 Loud Tea", "name:en": "Loud Tea", "name:zh": "\u97ff\u8336"}}, {"type": "node", "id": 10108338394, "lat": 22.2889276, "lon": 114.1939901, "tags": {"addr:housenumber": "177", "addr:street": "\u82f1\u7687\u9053 King's Road", "addr:unit": "A1", "amenity": "cafe", "contact:instagram": "https://www.instagram.com/loudtea_hk/", "cuisine": "bubble_tea", "level": "0", "name": "\u97ff\u8336 Loud Tea", "name:en": "Loud Tea", "name:zh": "\u97ff\u8336"}}, {"type": "node", "id": 10108397316, "lat": 22.2770754, "lon": 114.1768809, "tags": {"addr:housenumber": "162-164", "addr:street": "\u7063\u4ed4\u9053 Wan Chai Road", "addr:unit": "B1", "amenity": "cafe", "contact:facebook": "https://www.facebook.com/profile.php?id=100075110024324", "contact:instagram": "https://www.instagram.com/loudtea_wc/", "cuisine": "bubble_tea", "level": "0", "name": "\u97ff\u8336 Loud Tea", "name:en": "Loud Tea", "name:zh": "\u97ff\u8336", "payment:cash": "yes", "payment:octopus": "yes", "payment:payme": "yes", "phone": "+852 6702 6257"}}, {"type": "node", "id": 10112178780, "lat": 22.2846256, "lon": 114.131694, "tags": {"addr:housenumber": "7-11", "addr:street": "\u5351\u8def\u4e4d\u8857 Belcher's Street", "addr:unit": "6", "amenity": "cafe", "brand": "\u8336\u661f\u4eba E.Tea", "brand:en": "E.Tea", "brand:wikidata": "Q116188631", "brand:zh": "\u8336\u661f\u4eba", "contact:facebook": "https://www.facebook.com/profile.php?id=100063965526431", "contact:instagram": "https://www.instagram.com/e.tea.hk/", "cuisine": "bubble_tea", "level": "0", "name": "\u8336\u661f\u4eba E.Tea", "name:en": "E.Tea", "name:zh": "\u8336\u661f\u4eba", "takeaway": "yes"}}, {"type": "node", "id": 10112218889, "lat": 22.2851152, "lon": 114.191706, "tags": {"addr:housenumber": "110-112", "addr:street": "\u96fb\u6c23\u9053 Electric Road", "addr:unit": "1B", "amenity": "cafe", "contact:facebook": "https://www.facebook.com/profile.php?id=100063965526431", "contact:instagram": "https://www.instagram.com/e.tea.hk/", "cuisine": "bubble_tea", "level": "0", "name": "\u8336\u661f\u4eba E.Tea", "name:en": "E.Tea", "name:zh": "\u8336\u661f\u4eba"}}, {"type": "node", "id": 10112257720, "lat": 22.283101, "lon": 114.2216795, "tags": {"addr:unit": "A27B", "amenity": "cafe", "contact:facebook": "https://www.facebook.com/profile.php?id=100063965526431", "contact:instagram": "https://www.instagram.com/e.tea.hk/", "cuisine": "bubble_tea", "level": "0", "name": "\u8336\u661f\u4eba E.Tea", "name:en": "E.Tea", "name:zh": "\u8336\u661f\u4eba"}}, {"type": "node", "id": 10112337795, "lat": 22.2798311, "lon": 114.2303381, "tags": {"addr:housenumber": "59-99", "addr:street": "\u7b72\u7b95\u7063\u6771\u5927\u8857 Shau Kei Wan Main Street East", "addr:unit": "12A", "amenity": "cafe", "contact:facebook": "https://www.facebook.com/profile.php?id=100063965526431", "contact:instagram": "https://www.instagram.com/e.tea.hk/", "cuisine": "bubble_tea", "level": "0", "name": "\u8336\u661f\u4eba E.Tea", "name:en": "E.Tea", "name:zh": "\u8336\u661f\u4eba"}}, {"type": "node", "id": 10114149964, "lat": 22.2829809, "lon": 114.2217528, "tags": {"addr:unit": "24A", "amenity": "cafe", "contact:facebook": "https://www.facebook.com/chashou.hk/", "contact:instagram": "https://www.instagram.com/chashou.hk/", "cuisine": "bubble_tea", "level": "0", "name": "\u8336\u5320 Chashou", "name:en": "Chashou", "name:zh": "\u8336\u5320", "phone": "+852 9726 8091"}}, {"type": "node", "id": 10114247300, "lat": 22.283005, "lon": 114.2217348, "tags": {"addr:unit": "A25B", "amenity": "cafe", "contact:facebook": "https://www.facebook.com/EUROPATEAHK/", "contact:instagram": "https://www.instagram.com/europa.tea.hk/", "cuisine": "bubble_tea", "level": "0", "name": "\u6728\u885b\u4e8c\u9444\u8336\u6240 Europa Tea Foundry", "name:en": "Europa Tea Foundry", "name:zh": "\u6728\u885b\u4e8c\u9444\u8336\u6240"}}, {"type": "node", "id": 10117501500, "lat": 22.2770237, "lon": 114.1803841, "tags": {"addr:housenumber": "33", "addr:street": "\u6469\u7406\u81e3\u5c71\u9053 Morrison Hill Road", "amenity": "cafe", "contact:facebook": "https://www.facebook.com/profile.php?id=100063709457469", "contact:instagram": "https://www.instagram.com/cloudnine_wanchai/", "level": "0", "name": "\u7b11\u6797\u5bfa Cloud nine specialty coffee", "name:en": "Cloud nine specialty coffee", "name:zh": "\u7b11\u6797\u5bfa", "opening_hours": "Mo-Fr 08:00-18:00; Sa-Su 09:00-18:00", "phone": "+852 9137 8671"}}, {"type": "node", "id": 10118868953, "lat": 22.282059, "lon": 114.1561087, "tags": {"addr:housenumber": "48", "addr:street": "\u7687\u540e\u5927\u9053\u4e2d Queen's Road Central", "addr:unit": "109", "amenity": "cafe", "contact:facebook": "https://www.facebook.com/blacksugarhkcentral", "contact:instagram": "https://www.instagram.com/blacksugar_coffee_hk/", "cuisine": "coffee_shop", "level": "1", "name": "Black Sugar Coffee & Lifestyle", "phone": "+852 3520 2389", "website": "https://blacksugar.coffee/"}}, {"type": "node", "id": 10118907922, "lat": 22.2831536, "lon": 114.1517911, "tags": {"addr:housenumber": "35", "addr:street": "\u9d28\u5df4\u7538\u8857 Aberdeen Street", "addr:unit": "S106", "amenity": "cafe", "contact:facebook": "https://www.facebook.com/profile.php?id=100077571978386", "contact:instagram": "https://www.instagram.com/blacksugar_coffee_hk/", "cuisine": "coffee_shop", "level": "1", "name": "Black Sugar Coffee", "opening_hours": "Mo-Su 09:00-18:00", "website": "https://blacksugar.coffee/"}}, {"type": "node", "id": 10119200897, "lat": 22.2779173, "lon": 114.1868484, "tags": {"addr:housenumber": "22&24", "addr:street": "\u5e0c\u96f2\u8857 Haven Street", "amenity": "cafe", "contact:facebook": "https://www.facebook.com/sleeplesshongkong/", "contact:instagram": "https://www.instagram.com/sleeplesshongkong/", "level": "0", "name": "Sleepless", "name:en": "Sleepless", "opening_hours": "Mo-Fr 12:00-22:00; Sa-Su 11:00-22:00", "phone": "+852 2890 9838"}}, {"type": "node", "id": 10128311054, "lat": 22.2779834, "lon": 114.1867829, "tags": {"addr:housenumber": "14", "addr:street": "\u5e0c\u96f2\u8857 Haven Street", "amenity": "cafe", "contact:instagram": "https://www.instagram.com/lifedessert_cwb/", "cuisine": "dessert", "level": "0", "name": "Life Dessert", "name:en": "Life Dessert", "opening_hours": "Mo-Su 14:00-23:00"}}, {"type": "node", "id": 10135969610, "lat": 22.2834592, "lon": 114.1279477, "tags": {"addr:housenumber": "15", "addr:street": "\u58eb\u7f8e\u83f2\u8def Smithfield", "amenity": "cafe", "contact:facebook": "https://www.facebook.com/sweetddhk/", "contact:instagram": "https://www.instagram.com/sweetddhk/", "cuisine": "dessert", "level": "0", "name": "\u60f3\u751c\u5690\u751c Sweet Dreamer Dessert", "name:en": "Sweet Dreamer Dessert", "name:zh": "\u60f3\u751c\u5690\u751c", "phone": "+852 5916 0698", "website": "https://sweetdd.com.hk/"}}, {"type": "node", "id": 10137551740, "lat": 22.2857743, "lon": 114.1905529, "tags": {"addr:housenumber": "100", "addr:street": "\u8208\u767c\u8857 Hing Fat Street", "amenity": "cafe", "contact:facebook": "https://www.facebook.com/thesecondphasehk", "contact:instagram": "https://www.instagram.com/thesecondphase_hk/", "level": "0", "name": "\u7b2c\u4e8c\u4eba\u751f t2P - The Second Phase", "name:en": "t2P - The Second Phase", "name:zh": "\u7b2c\u4e8c\u4eba\u751f", "opening_hours": "Tu-Su 11:30-21:30; Mo off", "phone": "+852 3702 0728"}}, {"type": "node", "id": 10141434404, "lat": 22.2846241, "lon": 114.1510903, "tags": {"addr:housenumber": "255", "addr:street": "\u7687\u540e\u5927\u9053\u4e2d Queen's Road Central", "addr:unit": "G01B", "amenity": "cafe", "contact:facebook": "https://www.facebook.com/dustykidfood/", "contact:instagram": "https://www.instagram.com/dustykidfood/", "level": "0", "name": "\u5fc3\u4e8b\u5982\u5875\u8336\u98df\u4ead Dustykid Tea Shop - Light as Dust", "name:en": "Dustykid Tea Shop - Light as Dust", "name:zh": "\u5fc3\u4e8b\u5982\u5875\u8336\u98df\u4ead", "opening_hours": "Mo-Fr 12:00-21:00", "phone": "+852 2784 1882"}}, {"type": "node", "id": 10166093641, "lat": 22.2795315, "lon": 114.178713, "tags": {"addr:housenumber": "324-338", "addr:street": "\u8b1d\u6590\u9053 Jaffe Road", "addr:unit": "3", "amenity": "cafe", "contact:facebook": "https://www.facebook.com/hideseedcoffeehk/", "contact:instagram": "https://www.instagram.com/hideseedcoffeehk/", "cuisine": "coffee_shop", "level": "0", "name": "Hide & Seed", "name:en": "Hide & Seed", "opening_hours": "Mo-Fr 08:00-17:30; Sa-Su off", "phone": "+852 2264 5533"}}, {"type": "node", "id": 10224103791, "lat": 22.2856344, "lon": 114.151805, "tags": {"addr:housenumber": "32", "addr:street": "\u6587\u54b8\u6771\u8857 Bonham Strand", "addr:unit": "A", "amenity": "cafe", "contact:facebook": "https://www.facebook.com/profile.php?id=100067331751444", "contact:instagram": "https://www.instagram.com/loudtea_hk/", "cuisine": "bubble_tea", "level": "0", "name": "\u97ff\u8336 Loud Tea", "name:en": "Loud Tea", "name:zh": "\u97ff\u8336", "opening_hours": "Mo-Su 11:00-22:00", "phone": "+852 4678 2550"}}, {"type": "node", "id": 10606208005, "lat": 22.2920831, "lon": 114.1963982, "tags": {"amenity": "cafe", "name:en": "The Coffee Academics"}}, {"type": "node", "id": 10606210305, "lat": 22.2781425, "lon": 114.1840977, "tags": {"amenity": "cafe", "name:en": "Project C"}}, {"type": "node", "id": 10749889065, "lat": 22.2677142, "lon": 114.1281337, "tags": {"amenity": "cafe", "name": "Cupping Room"}}, {"type": "way", "id": 92241272, "nodes": [1070813898, 1070813631, 1070813501, 1070813809, 1070813898], "tags": {"amenity": "cafe", "building": "yes", "name": "\u6d77\u6d0b\u51b0\u5ba4 Cafe Ocean", "name:en": "Cafe Ocean", "name:zh": "\u6d77\u6d0b\u51b0\u5ba4"}}]}